{"type":"FeatureCollection","features":[{"type":"Feature","properties":{"name":"Bois Louis"},"geometry":{"type":"Polygon","coordinates":[[[3.1003,48.8314],[3.0967,48.8320],[3.1028,48.8333],[3.0968,48.8351],[3.1016,48.8351],[3.1058,48.8367],[3.1080,48.8356],[3.1053,48.8350],[3.1082,48.8345],[3.1131,48.8414],[3.1151,48.8412],[3.1163,48.8390],[3.1159,48.8349],[3.1258,48.8388],[3.1279,48.8365],[3.1303,48.8375],[3.1286,48.8402],[3.1312,48.8377],[3.1359,48.8393],[3.1372,48.8387],[3.1358,48.8366],[3.1400,48.8365],[3.1377,48.8334],[3.1394,48.8325],[3.1383,48.8319],[3.1359,48.8334],[3.1353,48.8319],[3.1343,48.8332],[3.1323,48.8328],[3.1323,48.8315],[3.1304,48.8335],[3.1244,48.8325],[3.1226,48.8309],[3.1272,48.8288],[3.1241,48.8274],[3.1221,48.8304],[3.1181,48.8298],[3.1174,48.8307],[3.1153,48.8303],[3.1148,48.8286],[3.1123,48.8274],[3.1070,48.8275],[3.1071,48.8262],[3.1106,48.8250],[3.1139,48.8261],[3.1163,48.8252],[3.1173,48.8263],[3.1158,48.8269],[3.1175,48.8267],[3.1191,48.8295],[3.1191,48.8275],[3.1214,48.8283],[3.1222,48.8260],[3.1205,48.8250],[3.1181,48.8254],[3.1199,48.8245],[3.1186,48.8227],[3.1128,48.8215],[3.1126,48.8199],[3.1104,48.8202],[3.1103,48.8192],[3.1096,48.8208],[3.1132,48.8235],[3.1078,48.8235],[3.1090,48.8219],[3.1059,48.8198],[3.1075,48.8193],[3.1076,48.8166],[3.1065,48.8162],[3.1036,48.8184],[3.1047,48.8186],[3.1043,48.8204],[3.1055,48.8203],[3.1058,48.8216],[3.1043,48.8222],[3.1052,48.8241],[3.1042,48.8243],[3.1063,48.8274],[3.1043,48.8293],[3.1068,48.8308],[3.1050,48.8318],[3.1024,48.8307],[3.1003,48.8314]]]}},{"type":"Feature","properties":{"name":"Forêt Domaniale de la Haye d\u0027Aubenton"},"geometry":{"type":"Polygon","coordinates":[[[4.2408,49.8082],[4.2390,49.8057],[4.2436,49.8048],[4.2426,49.8050],[4.2440,49.8018],[4.2404,49.8033],[4.2380,49.7999],[4.2519,49.7964],[4.2509,49.7942],[4.2538,49.7973],[4.2587,49.7979],[4.2668,49.7932],[4.2697,49.7934],[4.2703,49.7920],[4.2720,49.7917],[4.2716,49.7925],[4.2732,49.7932],[4.2815,49.7910],[4.2797,49.7892],[4.2825,49.7873],[4.2787,49.7877],[4.2784,49.7869],[4.2807,49.7869],[4.2798,49.7865],[4.2812,49.7853],[4.2778,49.7834],[4.2720,49.7852],[4.2670,49.7823],[4.2723,49.7789],[4.2701,49.7772],[4.2672,49.7788],[4.2660,49.7802],[4.2673,49.7806],[4.2666,49.7811],[4.2640,49.7816],[4.2600,49.7804],[4.2596,49.7794],[4.2619,49.7794],[4.2607,49.7774],[4.2590,49.7786],[4.2582,49.7779],[4.2592,49.7768],[4.2577,49.7781],[4.2583,49.7792],[4.2546,49.7784],[4.2565,49.7798],[4.2558,49.7806],[4.2577,49.7813],[4.2570,49.7828],[4.2598,49.7837],[4.2605,49.7866],[4.2540,49.7914],[4.2499,49.7923],[4.2444,49.7885],[4.2491,49.7848],[4.2477,49.7849],[4.2472,49.7835],[4.2438,49.7849],[4.2435,49.7835],[4.2451,49.7833],[4.2431,49.7810],[4.2439,49.7805],[4.2419,49.7806],[4.2417,49.7793],[4.2391,49.7808],[4.2411,49.7806],[4.2422,49.7824],[4.2439,49.7856],[4.2425,49.7862],[4.2437,49.7887],[4.2399,49.7893],[4.2391,49.7881],[4.2378,49.7898],[4.2352,49.7903],[4.2346,49.7912],[4.2378,49.7930],[4.2339,49.7970],[4.2364,49.7984],[4.2344,49.7994],[4.2311,49.7978],[4.2303,49.8001],[4.2205,49.7977],[4.2132,49.7978],[4.2081,49.7990],[4.2070,49.8015],[4.2038,49.8003],[4.2050,49.7996],[4.2017,49.7964],[4.1988,49.7957],[4.2001,49.7948],[4.1975,49.7949],[4.1948,49.7907],[4.1865,49.7934],[4.1826,49.7866],[4.1848,49.7853],[4.1797,49.7842],[4.1792,49.7849],[4.1794,49.7838],[4.1683,49.7790],[4.1661,49.7801],[4.1671,49.7811],[4.1655,49.7811],[4.1652,49.7794],[4.1626,49.7806],[4.1606,49.7786],[4.1612,49.7811],[4.1642,49.7805],[4.1650,49.7818],[4.1653,49.7828],[4.1622,49.7834],[4.1690,49.7862],[4.1639,49.7864],[4.1609,49.7841],[4.1590,49.7847],[4.1600,49.7862],[4.1625,49.7863],[4.1578,49.7873],[4.1582,49.7887],[4.1645,49.7879],[4.1596,49.7905],[4.1574,49.7898],[4.1497,49.7925],[4.1514,49.7937],[4.1538,49.7925],[4.1588,49.7953],[4.1656,49.7930],[4.1679,49.7949],[4.1823,49.7911],[4.1813,49.7923],[4.1837,49.7930],[4.1843,49.7944],[4.1778,49.7968],[4.1795,49.8013],[4.1728,49.8028],[4.1729,49.8038],[4.1770,49.8040],[4.1781,49.8027],[4.1810,49.8025],[4.1838,49.8038],[4.1837,49.8072],[4.1857,49.8036],[4.1970,49.8010],[4.1998,49.8020],[4.1988,49.8051],[4.2009,49.8051],[4.2025,49.8030],[4.2048,49.8031],[4.2070,49.8058],[4.2042,49.8084],[4.2057,49.8122],[4.2094,49.8150],[4.2089,49.8161],[4.2149,49.8147],[4.2190,49.8156],[4.2249,49.8094],[4.2295,49.8070],[4.2341,49.8076],[4.2380,49.8059],[4.2396,49.8076],[4.2372,49.8085],[4.2385,49.8093],[4.2408,49.8082]]]}},{"type":"Feature","properties":{"name":"Forêt domaniale de la Haye d\u0027Aubenton"},"geometry":{"type":"Polygon","coordinates":[[[4.0838,49.8423],[4.0923,49.8401],[4.0894,49.8375],[4.0911,49.8362],[4.0899,49.8350],[4.0878,49.8355],[4.0874,49.8291],[4.0903,49.8270],[4.0891,49.8266],[4.0922,49.8243],[4.0967,49.8252],[4.1019,49.8232],[4.1093,49.8240],[4.1094,49.8258],[4.1114,49.8258],[4.1113,49.8234],[4.1079,49.8226],[4.1071,49.8212],[4.1083,49.8206],[4.1058,49.8199],[4.1070,49.8190],[4.1085,49.8205],[4.1091,49.8191],[4.1123,49.8196],[4.1138,49.8170],[4.1127,49.8164],[4.1156,49.8149],[4.1146,49.8148],[4.1153,49.8141],[4.1173,49.8142],[4.1168,49.8124],[4.1198,49.8102],[4.1247,49.8105],[4.1264,49.8084],[4.1311,49.8095],[4.1305,49.8113],[4.1278,49.8104],[4.1308,49.8116],[4.1324,49.8080],[4.1357,49.8055],[4.1324,49.8005],[4.1136,49.8035],[4.1172,49.8105],[4.1149,49.8123],[4.1121,49.8098],[4.1095,49.8039],[4.1058,49.8078],[4.1049,49.8037],[4.0998,49.8039],[4.0983,49.8075],[4.1026,49.8085],[4.1015,49.8098],[4.1026,49.8106],[4.1006,49.8126],[4.1014,49.8131],[4.0993,49.8153],[4.0944,49.8145],[4.0947,49.8155],[4.0929,49.8161],[4.0913,49.8151],[4.0915,49.8164],[4.0942,49.8177],[4.0915,49.8189],[4.0948,49.8201],[4.0916,49.8224],[4.0859,49.8219],[4.0778,49.8284],[4.0743,49.8282],[4.0747,49.8292],[4.0664,49.8341],[4.0676,49.8386],[4.0800,49.8359],[4.0838,49.8423]]]}},{"type":"Feature","properties":{"name":"Bois de Riqueval"},"geometry":{"type":"Polygon","coordinates":[[[3.5112,49.9848],[3.5134,49.9854],[3.5176,49.9777],[3.5163,49.9750],[3.5102,49.9723],[3.5087,49.9743],[3.5071,49.9733],[3.5048,49.9743],[3.5013,49.9716],[3.4985,49.9727],[3.4936,49.9780],[3.4963,49.9801],[3.5022,49.9812],[3.5013,49.9852],[3.4987,49.9856],[3.4998,49.9842],[3.4945,49.9822],[3.4942,49.9851],[3.4892,49.9873],[3.4933,49.9896],[3.4912,49.9906],[3.4927,49.9913],[3.5079,49.9922],[3.5074,49.9895],[3.5114,49.9865],[3.5112,49.9848]]]}},{"type":"Feature","properties":{"name":"Forêt domaniale de la Haye d\u0027Aubenton"},"geometry":{"type":"Polygon","coordinates":[[[4.1650,49.8276],[4.1637,49.8269],[4.1652,49.8266],[4.1658,49.8239],[4.1647,49.8228],[4.1680,49.8216],[4.1646,49.8206],[4.1660,49.8201],[4.1634,49.8176],[4.1654,49.8181],[4.1748,49.8111],[4.1559,49.7957],[4.1495,49.7980],[4.1547,49.8040],[4.1587,49.8060],[4.1571,49.8070],[4.1592,49.8102],[4.1574,49.8111],[4.1600,49.8114],[4.1593,49.8126],[4.1554,49.8125],[4.1642,49.8200],[4.1645,49.8221],[4.1618,49.8250],[4.1636,49.8269],[4.1609,49.8285],[4.1650,49.8276]]]}},{"type":"Feature","properties":{"name":"Bois Robert"},"geometry":{"type":"Polygon","coordinates":[[[4.2902,50.0960],[4.2819,50.1205],[4.2878,50.1188],[4.2868,50.1203],[4.2889,50.1192],[4.2980,50.1204],[4.3084,50.1184],[4.3170,50.1219],[4.3235,50.1210],[4.3239,50.1219],[4.3275,50.1170],[4.3283,50.1136],[4.3262,50.1084],[4.3274,50.1064],[4.3260,50.1075],[4.3260,50.1043],[4.3243,50.1016],[4.3292,50.1004],[4.3299,50.0962],[4.3209,50.0913],[4.3299,50.0906],[4.3281,50.0883],[4.3236,50.0884],[4.3221,50.0865],[4.3238,50.0882],[4.3291,50.0884],[4.3299,50.0861],[4.3395,50.0882],[4.3395,50.0863],[4.3364,50.0858],[4.3380,50.0823],[4.3375,50.0796],[4.3403,50.0778],[4.3421,50.0787],[4.3409,50.0804],[4.3434,50.0813],[4.3423,50.0823],[4.3427,50.0857],[4.3455,50.0850],[4.3483,50.0865],[4.3603,50.0873],[4.3602,50.0829],[4.3673,50.0858],[4.3673,50.0867],[4.3676,50.0859],[4.3769,50.0896],[4.3775,50.0851],[4.3841,50.0809],[4.3796,50.0827],[4.3793,50.0813],[4.3808,50.0805],[4.3846,50.0810],[4.3906,50.0842],[4.3936,50.0830],[4.3889,50.0809],[4.3907,50.0795],[4.3869,50.0755],[4.3878,50.0737],[4.3865,50.0757],[4.3841,50.0760],[4.3855,50.0749],[4.3848,50.0741],[4.3854,50.0748],[4.3838,50.0757],[4.3780,50.0730],[4.3735,50.0738],[4.3735,50.0756],[4.3718,50.0763],[4.3705,50.0750],[4.3700,50.0777],[4.3730,50.0792],[4.3731,50.0779],[4.3781,50.0778],[4.3765,50.0836],[4.3752,50.0817],[4.3677,50.0802],[4.3662,50.0784],[4.3661,50.0756],[4.3640,50.0742],[4.3574,50.0732],[4.3521,50.0699],[4.3500,50.0717],[4.3455,50.0697],[4.3508,50.0719],[4.3521,50.0703],[4.3608,50.0757],[4.3549,50.0753],[4.3486,50.0785],[4.3481,50.0775],[4.3517,50.0766],[4.3496,50.0754],[4.3444,50.0754],[4.3330,50.0710],[4.3351,50.0688],[4.3378,50.0681],[4.3453,50.0696],[4.3437,50.0682],[4.3365,50.0669],[4.3305,50.0690],[4.3300,50.0726],[4.3250,50.0732],[4.3182,50.0721],[4.3147,50.0738],[4.3056,50.0738],[4.3038,50.0717],[4.3063,50.0759],[4.3096,50.0760],[4.3079,50.0781],[4.3049,50.0756],[4.3014,50.0789],[4.2993,50.0775],[4.2957,50.0785],[4.2945,50.0772],[4.2914,50.0926],[4.3016,50.0940],[4.2974,50.0965],[4.2902,50.0960]]]}},{"type":"Feature","properties":{"name":"Forêt communale de La Neuville-aux-Joûtes"},"geometry":{"type":"Polygon","coordinates":[[[4.2523,49.9336],[4.2496,49.9318],[4.2496,49.9306],[4.2417,49.9319],[4.2429,49.9356],[4.2400,49.9334],[4.2401,49.9319],[4.2387,49.9323],[4.2372,49.9290],[4.2350,49.9294],[4.2334,49.9323],[4.2300,49.9332],[4.2293,49.9353],[4.2318,49.9362],[4.2300,49.9370],[4.2268,49.9351],[4.2258,49.9360],[4.2252,49.9332],[4.2204,49.9307],[4.2201,49.9328],[4.2215,49.9380],[4.2239,49.9377],[4.2247,49.9389],[4.2322,49.9401],[4.2331,49.9439],[4.2355,49.9433],[4.2348,49.9423],[4.2360,49.9415],[4.2391,49.9413],[4.2462,49.9437],[4.2503,49.9466],[4.2505,49.9442],[4.2586,49.9449],[4.2588,49.9440],[4.2525,49.9436],[4.2512,49.9413],[4.2534,49.9347],[4.2523,49.9336]]]}},{"type":"Feature","properties":{"name":"Forêt de Trélon"},"geometry":{"type":"Polygon","coordinates":[[[4.0805,50.0814],[4.1040,50.0882],[4.1143,50.0953],[4.1144,50.0925],[4.1306,50.0871],[4.1463,50.1006],[4.1534,50.1025],[4.1586,50.1075],[4.1649,50.1105],[4.1674,50.1143],[4.1723,50.1153],[4.1744,50.1152],[4.1748,50.1133],[4.1712,50.1125],[4.1712,50.1115],[4.1750,50.1118],[4.1748,50.1101],[4.1724,50.1099],[4.1723,50.1089],[4.1747,50.1094],[4.1735,50.1078],[4.1767,50.1072],[4.1750,50.1055],[4.1780,50.0997],[4.1825,50.0941],[4.1851,50.0941],[4.1897,50.0897],[4.1892,50.0850],[4.1928,50.0859],[4.1908,50.0816],[4.1818,50.0789],[4.1812,50.0770],[4.1825,50.0769],[4.1805,50.0765],[4.1807,50.0754],[4.1846,50.0743],[4.1791,50.0719],[4.1801,50.0710],[4.1740,50.0715],[4.1734,50.0701],[4.1660,50.0672],[4.1589,50.0672],[4.1574,50.0664],[4.1576,50.0650],[4.1552,50.0646],[4.1531,50.0656],[4.1551,50.0611],[4.1462,50.0612],[4.1422,50.0630],[4.1417,50.0615],[4.1344,50.0607],[4.1337,50.0620],[4.1357,50.0635],[4.1351,50.0658],[4.1327,50.0621],[4.1282,50.0621],[4.1281,50.0607],[4.1249,50.0595],[4.1239,50.0596],[4.1243,50.0609],[4.1221,50.0615],[4.1220,50.0595],[4.1176,50.0600],[4.1201,50.0601],[4.1202,50.0616],[4.1152,50.0646],[4.1144,50.0617],[4.1135,50.0616],[4.1145,50.0596],[4.1097,50.0632],[4.1097,50.0643],[4.1112,50.0644],[4.1096,50.0648],[4.1096,50.0668],[4.1155,50.0691],[4.1133,50.0706],[4.0971,50.0724],[4.0921,50.0748],[4.0859,50.0723],[4.0805,50.0814]]]}},{"type":"Feature","properties":{"name":"Forêt du Nouvion"},"geometry":{"type":"Polygon","coordinates":[[[3.8440,50.0203],[3.8429,50.0235],[3.8482,50.0234],[3.8515,50.0213],[3.8544,50.0226],[3.8548,50.0203],[3.8585,50.0217],[3.8615,50.0175],[3.8667,50.0168],[3.8760,50.0130],[3.8739,50.0116],[3.8751,50.0100],[3.8769,50.0107],[3.8808,50.0054],[3.8747,49.9990],[3.8745,49.9934],[3.8727,49.9910],[3.8704,49.9898],[3.8413,49.9985],[3.8421,49.9997],[3.8395,50.0005],[3.8382,49.9995],[3.8107,50.0150],[3.8211,50.0178],[3.8203,50.0184],[3.8272,50.0175],[3.8320,50.0158],[3.8316,50.0132],[3.8364,50.0111],[3.8359,50.0101],[3.8443,50.0061],[3.8487,50.0107],[3.8509,50.0114],[3.8518,50.0142],[3.8484,50.0153],[3.8465,50.0175],[3.8449,50.0170],[3.8427,50.0199],[3.8409,50.0183],[3.8436,50.0164],[3.8425,50.0153],[3.8263,50.0225],[3.8235,50.0203],[3.8203,50.0222],[3.8178,50.0202],[3.8128,50.0210],[3.8267,50.0254],[3.8207,50.0333],[3.8476,50.0401],[3.8503,50.0368],[3.8489,50.0339],[3.8474,50.0335],[3.8484,50.0326],[3.8454,50.0310],[3.8489,50.0314],[3.8469,50.0293],[3.8491,50.0293],[3.8493,50.0283],[3.8431,50.0291],[3.8391,50.0281],[3.8378,50.0248],[3.8305,50.0252],[3.8306,50.0228],[3.8359,50.0228],[3.8369,50.0210],[3.8440,50.0203]]]}},{"type":"Feature","properties":{"name":"Forêt du Régnaval"},"geometry":{"type":"Polygon","coordinates":[[[3.8505,49.9137],[3.8403,49.9148],[3.8401,49.9183],[3.8384,49.9205],[3.8394,49.9257],[3.8376,49.9299],[3.8244,49.9257],[3.8222,49.9254],[3.8221,49.9264],[3.8187,49.9252],[3.8156,49.9232],[3.8167,49.9221],[3.8122,49.9232],[3.8146,49.9262],[3.8103,49.9268],[3.8110,49.9310],[3.8157,49.9355],[3.8213,49.9386],[3.8171,49.9395],[3.8239,49.9451],[3.8260,49.9444],[3.8261,49.9425],[3.8350,49.9439],[3.8405,49.9433],[3.8398,49.9451],[3.8502,49.9446],[3.8482,49.9449],[3.8491,49.9492],[3.8505,49.9482],[3.8520,49.9489],[3.8486,49.9497],[3.8487,49.9514],[3.8490,49.9531],[3.8511,49.9533],[3.8513,49.9545],[3.8469,49.9517],[3.8465,49.9556],[3.8493,49.9555],[3.8521,49.9578],[3.8502,49.9591],[3.8584,49.9577],[3.8597,49.9613],[3.8699,49.9601],[3.8589,49.9557],[3.8605,49.9551],[3.8565,49.9530],[3.8575,49.9495],[3.8562,49.9491],[3.8566,49.9510],[3.8557,49.9515],[3.8547,49.9448],[3.8521,49.9484],[3.8535,49.9445],[3.8556,49.9450],[3.8575,49.9434],[3.8569,49.9427],[3.8605,49.9405],[3.8593,49.9391],[3.8598,49.9375],[3.8618,49.9372],[3.8644,49.9347],[3.8640,49.9329],[3.8662,49.9295],[3.8678,49.9298],[3.8678,49.9282],[3.8718,49.9251],[3.8723,49.9197],[3.8737,49.9198],[3.8721,49.9182],[3.8720,49.9158],[3.8740,49.9157],[3.8738,49.9142],[3.8755,49.9140],[3.8773,49.9178],[3.8783,49.9147],[3.8751,49.9106],[3.8740,49.9117],[3.8649,49.9106],[3.8669,49.9119],[3.8647,49.9130],[3.8651,49.9140],[3.8602,49.9144],[3.8606,49.9168],[3.8562,49.9142],[3.8543,49.9156],[3.8529,49.9142],[3.8529,49.9161],[3.8506,49.9166],[3.8493,49.9155],[3.8512,49.9145],[3.8505,49.9137]]]}},{"type":"Feature","properties":{"name":"Forêt d\u0027Estremont"},"geometry":{"type":"Polygon","coordinates":[[[4.2600,49.7437],[4.2567,49.7439],[4.2552,49.7469],[4.2499,49.7448],[4.2449,49.7405],[4.2541,49.7419],[4.2551,49.7377],[4.2579,49.7377],[4.2585,49.7355],[4.2566,49.7350],[4.2577,49.7357],[4.2523,49.7373],[4.2452,49.7343],[4.2430,49.7302],[4.2354,49.7309],[4.2345,49.7295],[4.2361,49.7295],[4.2353,49.7277],[4.2345,49.7291],[4.2270,49.7279],[4.2274,49.7295],[4.2239,49.7327],[4.2239,49.7344],[4.2256,49.7357],[4.2253,49.7405],[4.2272,49.7448],[4.2290,49.7452],[4.2269,49.7458],[4.2314,49.7477],[4.2300,49.7491],[4.2315,49.7503],[4.2322,49.7495],[4.2348,49.7504],[4.2341,49.7529],[4.2350,49.7535],[4.2375,49.7545],[4.2383,49.7531],[4.2396,49.7533],[4.2399,49.7559],[4.2423,49.7574],[4.2435,49.7564],[4.2430,49.7553],[4.2449,49.7560],[4.2469,49.7549],[4.2499,49.7572],[4.2541,49.7570],[4.2547,49.7584],[4.2598,49.7588],[4.2554,49.7571],[4.2574,49.7564],[4.2564,49.7558],[4.2581,49.7544],[4.2560,49.7532],[4.2599,49.7535],[4.2637,49.7556],[4.2625,49.7530],[4.2651,49.7538],[4.2668,49.7563],[4.2689,49.7558],[4.2661,49.7544],[4.2673,49.7519],[4.2711,49.7548],[4.2695,49.7545],[4.2694,49.7554],[4.2724,49.7556],[4.2717,49.7523],[4.2736,49.7523],[4.2723,49.7501],[4.2653,49.7447],[4.2650,49.7456],[4.2633,49.7438],[4.2619,49.7448],[4.2609,49.7441],[4.2622,49.7435],[4.2600,49.7437]]]}},{"type":"Feature","properties":{"name":"Forêt domaniale de Samoussy"},"geometry":{"type":"Polygon","coordinates":[[[3.7629,49.5951],[3.7639,49.5934],[3.7656,49.5936],[3.7649,49.5907],[3.7693,49.5897],[3.7685,49.5877],[3.7712,49.5883],[3.7718,49.5901],[3.7764,49.5887],[3.7848,49.5907],[3.7843,49.5921],[3.7813,49.5933],[3.7861,49.5943],[3.7859,49.5925],[3.7869,49.5925],[3.7876,49.5902],[3.7912,49.5911],[3.7904,49.5932],[3.7886,49.5932],[3.7884,49.5955],[3.7924,49.5955],[3.7913,49.5936],[3.7969,49.5961],[3.7966,49.5974],[3.7950,49.5973],[3.7963,49.5976],[3.7962,49.5991],[3.7948,49.5995],[3.7963,49.5999],[3.7962,49.6017],[3.7930,49.6012],[3.7932,49.5999],[3.7905,49.5987],[3.7898,49.5970],[3.7833,49.6004],[3.7869,49.6011],[3.7864,49.6019],[3.7896,49.6036],[3.7896,49.6063],[3.7967,49.6075],[3.7981,49.6096],[3.7973,49.6059],[3.8007,49.6069],[3.8018,49.6056],[3.7985,49.6031],[3.8026,49.6041],[3.8059,49.6001],[3.8037,49.5994],[3.8048,49.5967],[3.7986,49.5966],[3.7989,49.5945],[3.7969,49.5945],[3.7950,49.5923],[3.7984,49.5911],[3.8001,49.5919],[3.7990,49.5925],[3.8044,49.5926],[3.8138,49.5957],[3.8155,49.5866],[3.8140,49.5870],[3.8138,49.5889],[3.8112,49.5874],[3.8108,49.5898],[3.8081,49.5912],[3.8023,49.5882],[3.8037,49.5868],[3.8038,49.5887],[3.8076,49.5901],[3.8056,49.5879],[3.8085,49.5868],[3.8045,49.5879],[3.8046,49.5860],[3.8067,49.5858],[3.8075,49.5842],[3.8098,49.5853],[3.8092,49.5867],[3.8103,49.5867],[3.8094,49.5861],[3.8107,49.5848],[3.8123,49.5852],[3.8056,49.5828],[3.8001,49.5824],[3.7996,49.5801],[3.7990,49.5814],[3.7975,49.5811],[3.7946,49.5780],[3.7916,49.5783],[3.7925,49.5769],[3.7955,49.5769],[3.7972,49.5711],[3.7953,49.5723],[3.7931,49.5713],[3.7859,49.5660],[3.7863,49.5641],[3.7795,49.5639],[3.7796,49.5619],[3.7786,49.5617],[3.7783,49.5640],[3.7660,49.5618],[3.7653,49.5632],[3.7565,49.5627],[3.7564,49.5636],[3.7501,49.5637],[3.7490,49.5651],[3.7434,49.5648],[3.7420,49.5652],[3.7418,49.5667],[3.7406,49.5646],[3.7283,49.5667],[3.7193,49.5697],[3.7198,49.5705],[3.7161,49.5720],[3.7178,49.5743],[3.7149,49.5741],[3.7145,49.5754],[3.7155,49.5755],[3.7134,49.5782],[3.7108,49.5783],[3.7095,49.5814],[3.7093,49.5856],[3.7155,49.5874],[3.7186,49.5831],[3.7142,49.5826],[3.7183,49.5771],[3.7236,49.5796],[3.7285,49.5808],[3.7288,49.5791],[3.7382,49.5827],[3.7389,49.5819],[3.7373,49.5813],[3.7376,49.5799],[3.7427,49.5775],[3.7469,49.5775],[3.7448,49.5762],[3.7463,49.5757],[3.7481,49.5761],[3.7468,49.5778],[3.7483,49.5794],[3.7451,49.5811],[3.7578,49.5823],[3.7527,49.5762],[3.7499,49.5761],[3.7485,49.5702],[3.7621,49.5692],[3.7622,49.5732],[3.7642,49.5758],[3.7548,49.5756],[3.7602,49.5815],[3.7657,49.5813],[3.7661,49.5867],[3.7610,49.5869],[3.7605,49.5853],[3.7572,49.5854],[3.7576,49.5880],[3.7511,49.5886],[3.7470,49.5874],[3.7467,49.5843],[3.7439,49.5836],[3.7412,49.5866],[3.7629,49.5951]]]}},{"type":"Feature","properties":{"name":"Forêt domaniale de L\u0027Abbé-Val-Joly"},"geometry":{"type":"Polygon","coordinates":[[[4.1186,50.1161],[4.1177,50.1178],[4.1271,50.1192],[4.1279,50.1170],[4.1348,50.1111],[4.1341,50.1097],[4.1369,50.1066],[4.1411,50.1054],[4.1398,50.1038],[4.1435,50.1037],[4.1472,50.1012],[4.1418,50.1061],[4.1381,50.1068],[4.1348,50.1126],[4.1486,50.1142],[4.1514,50.1166],[4.1517,50.1206],[4.1545,50.1162],[4.1603,50.1159],[4.1604,50.1148],[4.1643,50.1131],[4.1620,50.1113],[4.1652,50.1110],[4.1586,50.1075],[4.1534,50.1025],[4.1463,50.1006],[4.1306,50.0871],[4.1144,50.0925],[4.1143,50.0953],[4.1040,50.0882],[4.0799,50.0813],[4.0478,50.0839],[4.0476,50.0915],[4.0485,50.0939],[4.0509,50.0940],[4.0485,50.0945],[4.0484,50.0962],[4.0636,50.1090],[4.0721,50.1100],[4.0641,50.1063],[4.0741,50.1087],[4.0746,50.1076],[4.0700,50.1033],[4.0689,50.1015],[4.0699,50.1013],[4.0741,50.1044],[4.0734,50.1050],[4.0780,50.1093],[4.0846,50.1085],[4.0878,50.1046],[4.0907,50.1054],[4.0918,50.1117],[4.0976,50.1123],[4.1006,50.1140],[4.1026,50.1120],[4.1012,50.1095],[4.1034,50.1051],[4.1071,50.1035],[4.1074,50.0990],[4.1112,50.0966],[4.1190,50.1065],[4.1136,50.1082],[4.1129,50.1113],[4.1104,50.1139],[4.1127,50.1155],[4.1181,50.1146],[4.1186,50.1161]]]}},{"type":"Feature","properties":{"name":"Forêt Domaniale de Marle"},"geometry":{"type":"Polygon","coordinates":[[[3.6748,49.7480],[3.6841,49.7457],[3.6817,49.7429],[3.6836,49.7345],[3.6791,49.7273],[3.6811,49.7272],[3.6785,49.7237],[3.6707,49.7189],[3.6668,49.7192],[3.6661,49.7153],[3.6584,49.7170],[3.6577,49.7202],[3.6545,49.7204],[3.6555,49.7230],[3.6528,49.7243],[3.6557,49.7232],[3.6578,49.7241],[3.6620,49.7272],[3.6629,49.7312],[3.6653,49.7320],[3.6637,49.7324],[3.6593,49.7394],[3.6611,49.7404],[3.6611,49.7437],[3.6678,49.7472],[3.6748,49.7480]]]}},{"type":"Feature","properties":{"name":"Forêt de Beaumont"},"geometry":{"type":"Polygon","coordinates":[[[3.5758,48.8491],[3.5736,48.8504],[3.5717,48.8552],[3.5693,48.8556],[3.5719,48.8613],[3.5732,48.8619],[3.5717,48.8596],[3.5755,48.8591],[3.5805,48.8643],[3.5845,48.8637],[3.5872,48.8661],[3.5854,48.8676],[3.5895,48.8710],[3.5972,48.8703],[3.5977,48.8755],[3.6007,48.8759],[3.6081,48.8727],[3.6059,48.8705],[3.6072,48.8700],[3.6064,48.8690],[3.6034,48.8697],[3.6033,48.8688],[3.6058,48.8684],[3.6029,48.8622],[3.6000,48.8622],[3.5992,48.8609],[3.6001,48.8609],[3.5956,48.8533],[3.5964,48.8520],[3.5868,48.8475],[3.5859,48.8488],[3.5804,48.8469],[3.5758,48.8491]]]}},{"type":"Feature","properties":{"name":"Forêt de Rouges Fossés"},"geometry":{"type":"Polygon","coordinates":[[[3.5413,48.9217],[3.5409,48.9230],[3.5460,48.9246],[3.5455,48.9253],[3.5517,48.9258],[3.5531,48.9255],[3.5490,48.9222],[3.5493,48.9207],[3.5563,48.9191],[3.5570,48.9209],[3.5587,48.9201],[3.5603,48.9218],[3.5630,48.9208],[3.5624,48.9228],[3.5653,48.9206],[3.5672,48.9216],[3.5712,48.9167],[3.5705,48.9151],[3.5666,48.9141],[3.5638,48.9107],[3.5598,48.9105],[3.5588,48.9091],[3.5631,48.9096],[3.5634,48.9067],[3.5606,48.9048],[3.5620,48.9024],[3.5608,48.9019],[3.5596,48.9033],[3.5582,48.9010],[3.5572,48.9050],[3.5516,48.9028],[3.5517,48.9009],[3.5561,48.9012],[3.5555,48.8999],[3.5580,48.8999],[3.5553,48.8996],[3.5564,48.8967],[3.5536,48.8966],[3.5539,48.8943],[3.5479,48.8953],[3.5457,48.8932],[3.5457,48.8909],[3.5437,48.8908],[3.5441,48.8878],[3.5433,48.8903],[3.5398,48.8907],[3.5398,48.8887],[3.5417,48.8873],[3.5406,48.8858],[3.5376,48.8905],[3.5348,48.8900],[3.5351,48.8891],[3.5304,48.8911],[3.5308,48.8930],[3.5352,48.8964],[3.5352,48.8980],[3.5315,48.8989],[3.5273,48.9026],[3.5277,48.9035],[3.5248,48.9049],[3.5272,48.9067],[3.5262,48.9070],[3.5277,48.9079],[3.5271,48.9086],[3.5288,48.9085],[3.5319,48.9112],[3.5312,48.9126],[3.5334,48.9134],[3.5330,48.9157],[3.5399,48.9176],[3.5451,48.9205],[3.5439,48.9218],[3.5477,48.9230],[3.5467,48.9239],[3.5413,48.9217]]]}},{"type":"Feature","properties":{"name":"Forêt domaniale de Saint-Michel-en-Thiérache"},"geometry":{"type":"Polygon","coordinates":[[[4.2025,49.9571],[4.2109,49.9580],[4.2167,49.9572],[4.2246,49.9595],[4.2279,49.9579],[4.2330,49.9576],[4.2298,49.9461],[4.2246,49.9431],[4.2207,49.9372],[4.2198,49.9237],[4.2175,49.9158],[4.2151,49.9170],[4.2151,49.9157],[4.2174,49.9153],[4.2128,49.9129],[4.2046,49.9118],[4.2053,49.9132],[4.2010,49.9124],[4.1988,49.9130],[4.2002,49.9142],[4.1973,49.9133],[4.1867,49.9159],[4.1826,49.9154],[4.1792,49.9122],[4.1698,49.9144],[4.1618,49.9183],[4.1557,49.9187],[4.1547,49.9196],[4.1553,49.9223],[4.1504,49.9219],[4.1481,49.9233],[4.1531,49.9245],[4.1474,49.9253],[4.1521,49.9323],[4.1498,49.9330],[4.1493,49.9355],[4.1511,49.9358],[4.1502,49.9368],[4.1440,49.9363],[4.1452,49.9353],[4.1436,49.9343],[4.1455,49.9334],[4.1441,49.9330],[4.1439,49.9315],[4.1416,49.9310],[4.1418,49.9288],[4.1402,49.9288],[4.1413,49.9275],[4.1401,49.9284],[4.1379,49.9274],[4.1403,49.9301],[4.1379,49.9314],[4.1385,49.9366],[4.1330,49.9370],[4.1296,49.9355],[4.1210,49.9384],[4.1169,49.9378],[4.1484,49.9489],[4.1657,49.9734],[4.1737,49.9762],[4.1778,49.9721],[4.1845,49.9714],[4.1977,49.9674],[4.1984,49.9651],[4.1959,49.9635],[4.1962,49.9592],[4.1948,49.9568],[4.1962,49.9554],[4.1896,49.9524],[4.1905,49.9516],[4.1872,49.9512],[4.1910,49.9508],[4.1969,49.9532],[4.1984,49.9560],[4.2025,49.9571]]]}},{"type":"Feature","properties":{"name":"Forêt communale de Hirson"},"geometry":{"type":"Polygon","coordinates":[[[4.0964,49.9775],[4.0966,49.9644],[4.0924,49.9573],[4.0919,49.9509],[4.0880,49.9447],[4.0845,49.9329],[4.0798,49.9312],[4.0788,49.9320],[4.0798,49.9330],[4.0778,49.9339],[4.0791,49.9350],[4.0787,49.9359],[4.0780,49.9353],[4.0782,49.9369],[4.0751,49.9353],[4.0761,49.9383],[4.0710,49.9387],[4.0674,49.9486],[4.0697,49.9496],[4.0722,49.9486],[4.0750,49.9507],[4.0790,49.9496],[4.0788,49.9480],[4.0808,49.9465],[4.0853,49.9454],[4.0869,49.9485],[4.0813,49.9505],[4.0807,49.9527],[4.0848,49.9572],[4.0844,49.9590],[4.0865,49.9611],[4.0871,49.9642],[4.0844,49.9671],[4.0750,49.9715],[4.0731,49.9740],[4.0657,49.9727],[4.0636,49.9736],[4.0675,49.9807],[4.0737,49.9844],[4.0748,49.9862],[4.0736,49.9874],[4.0670,49.9833],[4.0617,49.9843],[4.0555,49.9727],[4.0528,49.9736],[4.0521,49.9756],[4.0459,49.9747],[4.0408,49.9786],[4.0394,49.9771],[4.0341,49.9757],[4.0342,49.9854],[4.0269,49.9832],[4.0210,49.9848],[4.0288,50.0054],[4.0310,50.0039],[4.0298,50.0024],[4.0370,50.0013],[4.0376,49.9993],[4.0365,49.9972],[4.0376,49.9971],[4.0385,49.9992],[4.0420,49.9985],[4.0441,50.0002],[4.0467,49.9983],[4.0443,49.9968],[4.0504,49.9993],[4.0518,49.9971],[4.0521,49.9989],[4.0555,50.0019],[4.0551,50.0039],[4.0619,50.0018],[4.0606,50.0010],[4.0629,50.0016],[4.0623,49.9991],[4.0650,49.9982],[4.0656,50.0007],[4.0671,50.0011],[4.0627,50.0018],[4.0634,50.0025],[4.0602,50.0044],[4.0587,50.0034],[4.0596,50.0048],[4.0556,50.0048],[4.0547,50.0072],[4.0570,50.0071],[4.0546,50.0098],[4.0568,50.0103],[4.0581,50.0133],[4.0599,50.0126],[4.0593,50.0104],[4.0578,50.0098],[4.0585,50.0087],[4.0618,50.0056],[4.0616,50.0080],[4.0657,50.0051],[4.0639,50.0082],[4.0612,50.0088],[4.0608,50.0103],[4.0632,50.0109],[4.0638,50.0098],[4.0657,50.0116],[4.0710,50.0126],[4.0761,50.0116],[4.0768,50.0129],[4.0798,50.0125],[4.0793,50.0112],[4.0810,50.0110],[4.0805,50.0096],[4.0869,50.0088],[4.0873,50.0103],[4.0860,50.0104],[4.0870,50.0149],[4.0897,50.0145],[4.0884,50.0087],[4.0934,50.0080],[4.0902,49.9996],[4.0881,49.9994],[4.0855,49.9942],[4.0841,49.9936],[4.0852,49.9927],[4.0849,49.9879],[4.0831,49.9859],[4.0865,49.9841],[4.0857,49.9816],[4.0867,49.9802],[4.0848,49.9794],[4.0860,49.9754],[4.0848,49.9742],[4.0836,49.9740],[4.0822,49.9770],[4.0830,49.9738],[4.0817,49.9715],[4.0861,49.9744],[4.0887,49.9722],[4.0910,49.9749],[4.0914,49.9774],[4.0964,49.9775]]]}},{"type":"Feature","properties":{"name":"Forêt domaniale d\u0027Andigny"},"geometry":{"type":"Polygon","coordinates":[[[3.6139,49.9934],[3.6129,49.9945],[3.6102,49.9945],[3.6123,49.9955],[3.6053,49.9953],[3.6057,49.9972],[3.6025,50.0003],[3.6059,50.0019],[3.6046,50.0042],[3.5998,50.0078],[3.5977,50.0078],[3.5960,50.0100],[3.5905,50.0080],[3.5910,50.0049],[3.5847,50.0044],[3.5853,50.0090],[3.5836,50.0102],[3.5821,50.0062],[3.5811,50.0063],[3.5821,50.0104],[3.5787,50.0098],[3.5797,50.0107],[3.5783,50.0115],[3.5765,50.0177],[3.5661,50.0187],[3.5626,50.0149],[3.5650,50.0134],[3.5680,50.0083],[3.5620,50.0058],[3.5616,50.0041],[3.5557,50.0022],[3.5471,49.9958],[3.5419,49.9976],[3.5374,49.9948],[3.5372,49.9867],[3.5357,49.9836],[3.5244,49.9902],[3.5235,49.9898],[3.5255,49.9876],[3.5138,49.9846],[3.5178,49.9772],[3.5137,49.9734],[3.5167,49.9729],[3.5147,49.9711],[3.5197,49.9708],[3.5239,49.9722],[3.5248,49.9715],[3.5234,49.9708],[3.5240,49.9699],[3.5321,49.9693],[3.5357,49.9756],[3.5370,49.9753],[3.5392,49.9811],[3.5369,49.9830],[3.5407,49.9835],[3.5483,49.9885],[3.5531,49.9971],[3.5644,49.9871],[3.5692,49.9872],[3.5710,49.9913],[3.5747,49.9868],[3.5756,49.9817],[3.5779,49.9808],[3.5820,49.9818],[3.5902,49.9793],[3.5941,49.9853],[3.5957,49.9851],[3.5952,49.9832],[3.5962,49.9819],[3.6053,49.9855],[3.6158,49.9823],[3.6167,49.9830],[3.6153,49.9848],[3.6181,49.9869],[3.6159,49.9885],[3.6140,49.9932],[3.6140,49.9921],[3.6117,49.9916],[3.6072,49.9939],[3.6079,49.9950],[3.6139,49.9934]]]}},{"type":"Feature","properties":{"name":"Forêt domaniale de Coucy Basse"},"geometry":{"type":"Polygon","coordinates":[[[3.2913,49.5537],[3.2876,49.5567],[3.2903,49.5536],[3.2884,49.5532],[3.2885,49.5518],[3.2869,49.5505],[3.2846,49.5529],[3.2826,49.5521],[3.2840,49.5502],[3.2814,49.5479],[3.2771,49.5467],[3.2766,49.5447],[3.2621,49.5430],[3.2603,49.5489],[3.2694,49.5515],[3.2638,49.5568],[3.2597,49.5566],[3.2580,49.5601],[3.2608,49.5612],[3.2608,49.5624],[3.2564,49.5653],[3.2563,49.5668],[3.2620,49.5678],[3.2605,49.5683],[3.2609,49.5701],[3.2719,49.5733],[3.2651,49.5739],[3.2622,49.5776],[3.2603,49.5771],[3.2596,49.5780],[3.2611,49.5791],[3.2585,49.5807],[3.2633,49.5830],[3.2618,49.5854],[3.2663,49.5854],[3.2654,49.5871],[3.2666,49.5880],[3.2654,49.5890],[3.2673,49.5920],[3.2733,49.5959],[3.2765,49.5948],[3.2807,49.5959],[3.2788,49.5977],[3.2809,49.5965],[3.2860,49.5978],[3.2864,49.5969],[3.2895,49.5970],[3.2890,49.5986],[3.2877,49.5986],[3.2891,49.5992],[3.2899,49.5969],[3.2958,49.5963],[3.2972,49.5975],[3.2960,49.5989],[3.2972,49.5989],[3.2977,49.5973],[3.3029,49.5999],[3.3044,49.5988],[3.3116,49.6007],[3.3123,49.6073],[3.3131,49.6062],[3.3177,49.6062],[3.3204,49.6088],[3.3230,49.6090],[3.3244,49.6110],[3.3271,49.6119],[3.3266,49.6130],[3.3301,49.6143],[3.3347,49.6075],[3.3424,49.6065],[3.3421,49.6056],[3.3361,49.6047],[3.3271,49.5962],[3.3272,49.5943],[3.3287,49.5941],[3.3316,49.5884],[3.3290,49.5844],[3.3245,49.5833],[3.3210,49.5878],[3.3177,49.5872],[3.3150,49.5878],[3.3145,49.5895],[3.3120,49.5894],[3.3098,49.5930],[3.3063,49.5927],[3.3048,49.5906],[3.3057,49.5890],[3.3125,49.5871],[3.3107,49.5849],[3.3143,49.5835],[3.3104,49.5847],[3.3074,49.5831],[3.3042,49.5859],[3.2961,49.5884],[3.2931,49.5878],[3.2978,49.5849],[3.3002,49.5852],[3.3025,49.5839],[3.2929,49.5839],[3.2968,49.5818],[3.2938,49.5810],[3.2916,49.5821],[3.2897,49.5807],[3.2898,49.5767],[3.2939,49.5772],[3.2947,49.5789],[3.3023,49.5772],[3.3080,49.5789],[3.3083,49.5761],[3.3121,49.5763],[3.3132,49.5743],[3.3174,49.5735],[3.3156,49.5720],[3.3172,49.5690],[3.3183,49.5687],[3.3197,49.5711],[3.3214,49.5709],[3.3228,49.5725],[3.3224,49.5740],[3.3248,49.5752],[3.3248,49.5727],[3.3301,49.5732],[3.3360,49.5686],[3.3266,49.5656],[3.3262,49.5671],[3.3278,49.5689],[3.3239,49.5703],[3.3135,49.5642],[3.3138,49.5626],[3.3088,49.5614],[3.3121,49.5596],[3.3064,49.5575],[3.3096,49.5553],[3.3070,49.5541],[3.3097,49.5497],[3.3085,49.5477],[3.3078,49.5492],[3.2989,49.5440],[3.2965,49.5438],[3.2965,49.5462],[3.2950,49.5454],[3.2875,49.5472],[3.2913,49.5537]]]}},{"type":"Feature","properties":{"name":"Forêt domaniale de Saint-Gobain"},"geometry":{"type":"Polygon","coordinates":[[[3.4676,49.5623],[3.4602,49.5639],[3.4631,49.5610],[3.4583,49.5616],[3.4592,49.5603],[3.4584,49.5580],[3.4632,49.5593],[3.4600,49.5573],[3.4641,49.5566],[3.4638,49.5554],[3.4621,49.5561],[3.4655,49.5532],[3.4618,49.5544],[3.4599,49.5534],[3.4609,49.5531],[3.4604,49.5518],[3.4565,49.5523],[3.4521,49.5495],[3.4616,49.5469],[3.4630,49.5444],[3.4571,49.5389],[3.4598,49.5349],[3.4596,49.5331],[3.4570,49.5314],[3.4625,49.5304],[3.4554,49.5305],[3.4558,49.5314],[3.4524,49.5319],[3.4523,49.5330],[3.4512,49.5317],[3.4532,49.5299],[3.4527,49.5290],[3.4562,49.5274],[3.4543,49.5233],[3.4565,49.5221],[3.4544,49.5213],[3.4534,49.5229],[3.4486,49.5241],[3.4466,49.5274],[3.4472,49.5296],[3.4440,49.5323],[3.4430,49.5322],[3.4449,49.5310],[3.4453,49.5285],[3.4422,49.5287],[3.4431,49.5276],[3.4400,49.5267],[3.4398,49.5299],[3.4411,49.5305],[3.4373,49.5319],[3.4388,49.5334],[3.4415,49.5330],[3.4395,49.5339],[3.4406,49.5351],[3.4358,49.5336],[3.4343,49.5350],[3.4314,49.5343],[3.4286,49.5367],[3.4236,49.5369],[3.4125,49.5425],[3.4124,49.5469],[3.4162,49.5489],[3.4165,49.5504],[3.4121,49.5479],[3.4099,49.5482],[3.4068,49.5513],[3.4058,49.5503],[3.4051,49.5510],[3.4064,49.5527],[3.4040,49.5542],[3.4042,49.5556],[3.3968,49.5598],[3.3919,49.5640],[3.3926,49.5647],[3.3841,49.5673],[3.3834,49.5685],[3.3858,49.5695],[3.3825,49.5702],[3.3851,49.5711],[3.3818,49.5718],[3.3870,49.5732],[3.3884,49.5771],[3.3844,49.5786],[3.3840,49.5816],[3.3806,49.5806],[3.3808,49.5819],[3.3771,49.5803],[3.3776,49.5815],[3.3762,49.5819],[3.3761,49.5806],[3.3736,49.5809],[3.3710,49.5794],[3.3695,49.5798],[3.3670,49.5847],[3.3637,49.5856],[3.3605,49.5842],[3.3613,49.5832],[3.3598,49.5823],[3.3616,49.5791],[3.3639,49.5800],[3.3628,49.5779],[3.3584,49.5749],[3.3509,49.5749],[3.3495,49.5751],[3.3464,49.5819],[3.3426,49.5818],[3.3422,49.5830],[3.3374,49.5839],[3.3377,49.5854],[3.3418,49.5869],[3.3423,49.5886],[3.3484,49.5895],[3.3512,49.5915],[3.3459,49.5944],[3.3479,49.5957],[3.3560,49.5954],[3.3568,49.5943],[3.3545,49.5936],[3.3552,49.5921],[3.3591,49.5917],[3.3581,49.5967],[3.3601,49.5982],[3.3667,49.5973],[3.3673,49.5948],[3.3696,49.5928],[3.3741,49.5937],[3.3737,49.5908],[3.3792,49.5905],[3.3797,49.5916],[3.3834,49.5903],[3.3907,49.5967],[3.3859,49.6009],[3.3825,49.6101],[3.3729,49.6037],[3.3715,49.6055],[3.3673,49.6028],[3.3650,49.6041],[3.3553,49.6035],[3.3511,49.6021],[3.3523,49.5992],[3.3457,49.5977],[3.3439,49.5961],[3.3357,49.5953],[3.3351,49.5969],[3.3432,49.6022],[3.3411,49.6038],[3.3450,49.6063],[3.3457,49.6086],[3.3471,49.6079],[3.3486,49.6105],[3.3474,49.6125],[3.3498,49.6143],[3.3519,49.6139],[3.3577,49.6188],[3.3604,49.6188],[3.3625,49.6169],[3.3658,49.6174],[3.3644,49.6219],[3.3704,49.6205],[3.3717,49.6232],[3.3744,49.6204],[3.3761,49.6157],[3.3782,49.6169],[3.3846,49.6163],[3.3872,49.6154],[3.3879,49.6123],[3.3935,49.6109],[3.3960,49.6081],[3.3993,49.6074],[3.4027,49.6108],[3.4008,49.6076],[3.4078,49.6057],[3.4088,49.6086],[3.4065,49.6106],[3.4078,49.6116],[3.4027,49.6108],[3.4145,49.6154],[3.4167,49.6195],[3.4165,49.6227],[3.4186,49.6222],[3.4179,49.6183],[3.4208,49.6214],[3.4261,49.6198],[3.4168,49.6231],[3.4157,49.6247],[3.4175,49.6284],[3.4209,49.6316],[3.4236,49.6306],[3.4229,49.6296],[3.4253,49.6291],[3.4265,49.6272],[3.4285,49.6286],[3.4354,49.6243],[3.4379,49.6256],[3.4467,49.6226],[3.4450,49.6196],[3.4392,49.6171],[3.4388,49.6133],[3.4369,49.6125],[3.4350,49.6093],[3.4345,49.6051],[3.4323,49.6020],[3.4270,49.6011],[3.4283,49.5993],[3.4275,49.5983],[3.4290,49.5974],[3.4276,49.5951],[3.4299,49.5942],[3.4288,49.5921],[3.4277,49.5927],[3.4264,49.5912],[3.4293,49.5912],[3.4296,49.5890],[3.4329,49.5876],[3.4328,49.5848],[3.4343,49.5831],[3.4371,49.5838],[3.4383,49.5815],[3.4395,49.5819],[3.4377,49.5855],[3.4387,49.5882],[3.4365,49.5884],[3.4346,49.5904],[3.4347,49.5924],[3.4360,49.5930],[3.4421,49.5923],[3.4422,49.5934],[3.4394,49.5947],[3.4396,49.5964],[3.4416,49.5974],[3.4382,49.6002],[3.4401,49.6043],[3.4455,49.6038],[3.4466,49.6041],[3.4460,49.6051],[3.4482,49.6050],[3.4488,49.6040],[3.4472,49.6035],[3.4486,49.6025],[3.4474,49.6019],[3.4496,49.5987],[3.4570,49.5975],[3.4542,49.6045],[3.4512,49.6050],[3.4529,49.6072],[3.4486,49.6085],[3.4506,49.6113],[3.4494,49.6131],[3.4550,49.6131],[3.4559,49.6099],[3.4584,49.6095],[3.4571,49.6071],[3.4589,49.6054],[3.4524,49.6055],[3.4581,49.6049],[3.4565,49.6023],[3.4601,49.5981],[3.4599,49.5961],[3.4581,49.5960],[3.4547,49.5907],[3.4554,49.5886],[3.4581,49.5872],[3.4592,49.5847],[3.4625,49.5849],[3.4648,49.5833],[3.4662,49.5807],[3.4737,49.5785],[3.4721,49.5774],[3.4748,49.5757],[3.4738,49.5741],[3.4816,49.5774],[3.4847,49.5746],[3.4869,49.5762],[3.4871,49.5794],[3.4923,49.5814],[3.5021,49.5828],[3.5036,49.5825],[3.5040,49.5806],[3.5098,49.5795],[3.5098,49.5745],[3.5086,49.5719],[3.5117,49.5717],[3.5081,49.5717],[3.5078,49.5705],[3.5105,49.5680],[3.5094,49.5665],[3.5046,49.5660],[3.4992,49.5688],[3.4949,49.5680],[3.4891,49.5714],[3.4827,49.5707],[3.4798,49.5688],[3.4796,49.5675],[3.4831,49.5637],[3.4860,49.5625],[3.4827,49.5615],[3.4890,49.5603],[3.4888,49.5590],[3.4948,49.5552],[3.4938,49.5535],[3.4898,49.5532],[3.4884,49.5558],[3.4831,49.5549],[3.4814,49.5530],[3.4748,49.5583],[3.4722,49.5590],[3.4710,49.5610],[3.4733,49.5617],[3.4743,49.5641],[3.4719,49.5634],[3.4713,49.5643],[3.4730,49.5660],[3.4695,49.5638],[3.4714,49.5633],[3.4701,49.5620],[3.4714,49.5616],[3.4697,49.5617],[3.4697,49.5604],[3.4683,49.5606],[3.4674,49.5589],[3.4657,49.5586],[3.4634,49.5610],[3.4663,49.5606],[3.4699,49.5633],[3.4676,49.5623]]]}},{"type":"Feature","properties":{"name":"Forêt domaniale de Saint-Gobain"},"geometry":{"type":"Polygon","coordinates":[[[3.3937,49.4711],[3.3919,49.4721],[3.3858,49.4709],[3.3819,49.4720],[3.3804,49.4733],[3.3801,49.4765],[3.3775,49.4739],[3.3767,49.4764],[3.3804,49.4774],[3.3758,49.4771],[3.3749,49.4756],[3.3768,49.4737],[3.3745,49.4740],[3.3738,49.4756],[3.3756,49.4819],[3.3772,49.4818],[3.3772,49.4804],[3.3759,49.4801],[3.3773,49.4799],[3.3768,49.4785],[3.3799,49.4792],[3.3803,49.4821],[3.3772,49.4824],[3.3768,49.4839],[3.3777,49.4842],[3.3670,49.4853],[3.3657,49.4865],[3.3668,49.4883],[3.3636,49.4900],[3.3494,49.4933],[3.3495,49.4943],[3.3561,49.4940],[3.3577,49.4963],[3.3559,49.4967],[3.3604,49.5025],[3.3571,49.5034],[3.3557,49.5005],[3.3521,49.5034],[3.3553,49.5033],[3.3541,49.5051],[3.3563,49.5071],[3.3623,49.5061],[3.3612,49.5030],[3.3662,49.5026],[3.3638,49.4997],[3.3657,49.4963],[3.3692,49.4987],[3.3697,49.5006],[3.3682,49.5011],[3.3689,49.5024],[3.3738,49.5016],[3.3758,49.5024],[3.3756,49.5012],[3.3773,49.5008],[3.3791,49.5021],[3.3784,49.5038],[3.3806,49.5052],[3.3806,49.5078],[3.3819,49.5082],[3.3816,49.5046],[3.3834,49.5043],[3.3857,49.5061],[3.3872,49.5051],[3.3866,49.5027],[3.3950,49.5009],[3.3932,49.5046],[3.3947,49.5071],[3.3941,49.5113],[3.3973,49.5114],[3.3984,49.5091],[3.4028,49.5104],[3.4037,49.5093],[3.4034,49.5117],[3.4063,49.5117],[3.4091,49.5109],[3.4091,49.5097],[3.4058,49.5080],[3.4070,49.5072],[3.4095,49.5080],[3.4095,49.5062],[3.4056,49.5063],[3.4061,49.5027],[3.4062,49.5060],[3.4069,49.5028],[3.4098,49.5037],[3.4112,49.5016],[3.4132,49.5019],[3.4134,49.5045],[3.4168,49.5055],[3.4201,49.5043],[3.4247,49.5046],[3.4265,49.5030],[3.4252,49.5009],[3.4298,49.5004],[3.4316,49.4940],[3.4344,49.4936],[3.4405,49.4962],[3.4398,49.4990],[3.4493,49.5011],[3.4500,49.4996],[3.4470,49.4973],[3.4480,49.4963],[3.4377,49.4921],[3.4446,49.4891],[3.4446,49.4880],[3.4405,49.4883],[3.4409,49.4872],[3.4481,49.4853],[3.4491,49.4819],[3.4525,49.4798],[3.4527,49.4776],[3.4459,49.4745],[3.4504,49.4730],[3.4550,49.4733],[3.4532,49.4682],[3.4554,49.4669],[3.4551,49.4659],[3.4530,49.4661],[3.4510,49.4713],[3.4444,49.4736],[3.4437,49.4753],[3.4492,49.4786],[3.4451,49.4832],[3.4445,49.4807],[3.4479,49.4799],[3.4476,49.4786],[3.4373,49.4749],[3.4437,49.4714],[3.4453,49.4720],[3.4448,49.4705],[3.4470,49.4698],[3.4480,49.4671],[3.4464,49.4672],[3.4462,49.4695],[3.4395,49.4718],[3.4371,49.4687],[3.4423,49.4672],[3.4447,49.4678],[3.4466,49.4656],[3.4342,49.4672],[3.4302,49.4691],[3.4265,49.4740],[3.4278,49.4748],[3.4274,49.4782],[3.4210,49.4777],[3.4173,49.4788],[3.4145,49.4768],[3.4153,49.4733],[3.4142,49.4707],[3.4199,49.4710],[3.4182,49.4682],[3.4227,49.4673],[3.4169,49.4613],[3.4260,49.4591],[3.4273,49.4612],[3.4358,49.4645],[3.4322,49.4606],[3.4287,49.4596],[3.4279,49.4559],[3.4243,49.4588],[3.4183,49.4593],[3.4177,49.4582],[3.4162,49.4602],[3.4078,49.4623],[3.4075,49.4644],[3.4017,49.4629],[3.4029,49.4641],[3.4007,49.4648],[3.4021,49.4652],[3.4009,49.4675],[3.4047,49.4714],[3.4017,49.4727],[3.4033,49.4726],[3.4035,49.4738],[3.4042,49.4726],[3.4073,49.4730],[3.4074,49.4752],[3.4097,49.4738],[3.4092,49.4721],[3.4049,49.4697],[3.4030,49.4664],[3.4049,49.4652],[3.4071,49.4678],[3.4109,49.4672],[3.4057,49.4691],[3.4089,49.4709],[3.4127,49.4689],[3.4156,49.4644],[3.4177,49.4649],[3.4179,49.4671],[3.4151,49.4677],[3.4178,49.4700],[3.4134,49.4697],[3.4123,49.4760],[3.4107,49.4763],[3.4121,49.4785],[3.4148,49.4786],[3.4141,49.4800],[3.4159,49.4826],[3.4141,49.4832],[3.4163,49.4845],[3.4193,49.4840],[3.4187,49.4854],[3.4312,49.4875],[3.4307,49.4893],[3.4282,49.4896],[3.4277,49.4915],[3.4191,49.4928],[3.4169,49.4912],[3.4163,49.4931],[3.4138,49.4935],[3.4092,49.4937],[3.4089,49.4915],[3.4075,49.4914],[3.4083,49.4902],[3.4127,49.4912],[3.4117,49.4844],[3.4107,49.4868],[3.4037,49.4853],[3.4017,49.4896],[3.3990,49.4896],[3.3995,49.4870],[3.3985,49.4875],[3.3979,49.4850],[3.4001,49.4837],[3.3961,49.4804],[3.4019,49.4793],[3.4033,49.4797],[3.4021,49.4808],[3.4066,49.4802],[3.4038,49.4766],[3.4046,49.4762],[3.4031,49.4730],[3.4016,49.4736],[3.4027,49.4785],[3.3938,49.4781],[3.3895,49.4753],[3.3845,49.4746],[3.3861,49.4731],[3.3935,49.4728],[3.3937,49.4711]]]}},{"type":"Feature","properties":{"name":"Forêt communale de Saint-Michel-en-Thiérache_Ouest"},"geometry":{"type":"Polygon","coordinates":[[[4.1270,49.9244],[4.1266,49.9208],[4.1233,49.9199],[4.1182,49.9205],[4.1250,49.9210],[4.1255,49.9239],[4.1222,49.9240],[4.1181,49.9214],[4.1126,49.9219],[4.1111,49.9204],[4.1068,49.9213],[4.1169,49.9378],[4.1210,49.9384],[4.1296,49.9355],[4.1268,49.9288],[4.1348,49.9294],[4.1324,49.9284],[4.1330,49.9277],[4.1303,49.9280],[4.1270,49.9244]]]}},{"type":"Feature","properties":{"name":"Forêt domaniale de Saint-Gobain"},"geometry":{"type":"Polygon","coordinates":[[[3.3996,49.5301],[3.3982,49.5317],[3.4016,49.5320],[3.3983,49.5325],[3.3918,49.5360],[3.3898,49.5348],[3.3876,49.5391],[3.3782,49.5369],[3.3803,49.5341],[3.3717,49.5356],[3.3705,49.5376],[3.3717,49.5396],[3.3661,49.5400],[3.3644,49.5438],[3.3561,49.5401],[3.3517,49.5398],[3.3591,49.5441],[3.3615,49.5435],[3.3611,49.5450],[3.3627,49.5456],[3.3692,49.5466],[3.3730,49.5496],[3.3738,49.5487],[3.3792,49.5494],[3.3794,49.5514],[3.3770,49.5520],[3.3795,49.5536],[3.3784,49.5544],[3.3793,49.5548],[3.3776,49.5559],[3.3744,49.5537],[3.3740,49.5547],[3.3794,49.5591],[3.3760,49.5625],[3.3803,49.5623],[3.3861,49.5650],[3.3915,49.5632],[3.3914,49.5642],[3.4041,49.5555],[3.4038,49.5543],[3.4062,49.5524],[3.4047,49.5509],[3.4080,49.5481],[3.4046,49.5470],[3.4089,49.5464],[3.4096,49.5409],[3.4159,49.5379],[3.4109,49.5314],[3.4050,49.5326],[3.4073,49.5286],[3.3996,49.5301]]]}},{"type":"Feature","properties":{"name":"Bois des Buttes"},"geometry":{"type":"Polygon","coordinates":[[[3.8527,49.4290],[3.8593,49.4280],[3.8648,49.4300],[3.8667,49.4285],[3.8638,49.4268],[3.8656,49.4254],[3.8679,49.4264],[3.8703,49.4252],[3.8685,49.4234],[3.8696,49.4223],[3.8666,49.4207],[3.8683,49.4191],[3.8646,49.4170],[3.8591,49.4174],[3.8617,49.4157],[3.8531,49.4131],[3.8529,49.4103],[3.8512,49.4103],[3.8490,49.4141],[3.8536,49.4147],[3.8591,49.4176],[3.8546,49.4207],[3.8526,49.4185],[3.8454,49.4166],[3.8448,49.4174],[3.8507,49.4192],[3.8505,49.4201],[3.8371,49.4178],[3.8344,49.4168],[3.8360,49.4161],[3.8328,49.4140],[3.8304,49.4138],[3.8309,49.4182],[3.8291,49.4188],[3.8301,49.4195],[3.8436,49.4274],[3.8487,49.4266],[3.8484,49.4254],[3.8502,49.4256],[3.8518,49.4237],[3.8539,49.4271],[3.8517,49.4283],[3.8527,49.4290]]]}},{"type":"Feature","properties":{"name":"Bois de Marfontaine"},"geometry":{"type":"Polygon","coordinates":[[[3.7502,49.7999],[3.7470,49.7986],[3.7466,49.8041],[3.7446,49.8077],[3.7461,49.8079],[3.7450,49.8132],[3.7539,49.8196],[3.7547,49.8240],[3.7583,49.8256],[3.7787,49.8290],[3.7807,49.8277],[3.7801,49.8294],[3.7838,49.8248],[3.7847,49.8259],[3.7838,49.8231],[3.7846,49.8224],[3.7834,49.8228],[3.7717,49.8153],[3.7710,49.8140],[3.7731,49.8144],[3.7700,49.8121],[3.7704,49.8136],[3.7675,49.8126],[3.7636,49.8140],[3.7617,49.8110],[3.7639,49.8078],[3.7608,49.8078],[3.7587,49.8061],[3.7574,49.8035],[3.7578,49.8014],[3.7561,49.8033],[3.7543,49.8033],[3.7538,49.8011],[3.7502,49.7999]]]}},{"type":"Feature","properties":{"name":"Bois de Bonnes"},"geometry":{"type":"Polygon","coordinates":[[[3.3211,49.1274],[3.3242,49.1277],[3.3228,49.1297],[3.3201,49.1307],[3.3284,49.1306],[3.3243,49.1334],[3.3303,49.1376],[3.3473,49.1352],[3.3488,49.1371],[3.3508,49.1360],[3.3495,49.1350],[3.3510,49.1338],[3.3543,49.1346],[3.3520,49.1326],[3.3597,49.1298],[3.3602,49.1264],[3.3557,49.1216],[3.3525,49.1235],[3.3534,49.1251],[3.3395,49.1321],[3.3378,49.1297],[3.3374,49.1309],[3.3338,49.1296],[3.3333,49.1288],[3.3347,49.1277],[3.3295,49.1280],[3.3247,49.1263],[3.3217,49.1272],[3.3182,49.1244],[3.3211,49.1274]]]}},{"type":"Feature","properties":{"name":"Bois de Leschelle"},"geometry":{"type":"Polygon","coordinates":[[[3.7417,49.9386],[3.7431,49.9422],[3.7385,49.9417],[3.7363,49.9441],[3.7412,49.9442],[3.7377,49.9455],[3.7395,49.9471],[3.7435,49.9473],[3.7448,49.9489],[3.7409,49.9536],[3.7484,49.9571],[3.7549,49.9573],[3.7549,49.9592],[3.7582,49.9587],[3.7582,49.9575],[3.7564,49.9567],[3.7610,49.9548],[3.7655,49.9559],[3.7675,49.9525],[3.7725,49.9489],[3.7613,49.9426],[3.7417,49.9386]]]}},{"type":"Feature","properties":{"name":"Forêt domaniale du Val Saint-Pierre"},"geometry":{"type":"Polygon","coordinates":[[[3.9684,49.7572],[3.9773,49.7537],[3.9691,49.7486],[3.9641,49.7438],[3.9611,49.7472],[3.9598,49.7471],[3.9585,49.7501],[3.9546,49.7500],[3.9546,49.7516],[3.9498,49.7525],[3.9505,49.7536],[3.9493,49.7541],[3.9486,49.7532],[3.9413,49.7543],[3.9239,49.7527],[3.9196,49.7541],[3.9205,49.7586],[3.9273,49.7637],[3.9293,49.7728],[3.9378,49.7706],[3.9357,49.7688],[3.9349,49.7669],[3.9358,49.7655],[3.9379,49.7652],[3.9379,49.7666],[3.9564,49.7609],[3.9588,49.7589],[3.9614,49.7596],[3.9684,49.7572]]]}},{"type":"Feature","properties":{"name":"Forêt Communale de Glageon"},"geometry":{"type":"Polygon","coordinates":[[[4.0910,50.0255],[4.0906,50.0241],[4.0871,50.0224],[4.0816,50.0225],[4.0824,50.0413],[4.0838,50.0427],[4.0977,50.0403],[4.0974,50.0372],[4.1024,50.0340],[4.1004,50.0287],[4.0927,50.0251],[4.0910,50.0255]]]}},{"type":"Feature","properties":{"name":"Bois de Corbie"},"geometry":{"type":"Polygon","coordinates":[[[3.1424,49.6921],[3.1475,49.6927],[3.1481,49.6890],[3.1509,49.6891],[3.1481,49.6889],[3.1503,49.6858],[3.1497,49.6843],[3.1536,49.6838],[3.1530,49.6818],[3.1541,49.6814],[3.1512,49.6790],[3.1519,49.6785],[3.1501,49.6787],[3.1496,49.6751],[3.1523,49.6722],[3.1548,49.6724],[3.1538,49.6717],[3.1547,49.6705],[3.1476,49.6698],[3.1484,49.6676],[3.1521,49.6677],[3.1492,49.6665],[3.1467,49.6670],[3.1451,49.6709],[3.1408,49.6728],[3.1323,49.6722],[3.1330,49.6651],[3.1357,49.6653],[3.1367,49.6623],[3.1379,49.6626],[3.1366,49.6615],[3.1361,49.6577],[3.1343,49.6564],[3.1295,49.6563],[3.1258,49.6576],[3.1229,49.6561],[3.1220,49.6581],[3.1235,49.6585],[3.1240,49.6609],[3.1211,49.6602],[3.1220,49.6585],[3.1209,49.6582],[3.1196,49.6615],[3.1181,49.6616],[3.1192,49.6630],[3.1222,49.6611],[3.1245,49.6615],[3.1245,49.6642],[3.1271,49.6646],[3.1273,49.6695],[3.1250,49.6729],[3.1242,49.6768],[3.1263,49.6783],[3.1229,49.6811],[3.1249,49.6821],[3.1319,49.6801],[3.1319,49.6784],[3.1340,49.6785],[3.1333,49.6836],[3.1345,49.6843],[3.1375,49.6819],[3.1401,49.6829],[3.1402,49.6881],[3.1424,49.6921]]]}},{"type":"Feature","properties":{"name":"Forêt domaniale de l\u0027Hôpital"},"geometry":{"type":"Polygon","coordinates":[[[3.0047,49.6980],[3.0048,49.7027],[3.0056,49.7027],[3.0056,49.6990],[3.0087,49.6995],[3.0109,49.6963],[3.0070,49.6948],[3.0080,49.6927],[3.0070,49.6905],[3.0093,49.6868],[3.0114,49.6875],[3.0127,49.6836],[3.0114,49.6830],[3.0093,49.6848],[3.0023,49.6786],[2.9973,49.6787],[2.9908,49.6835],[2.9903,49.6824],[2.9882,49.6829],[2.9891,49.6845],[2.9871,49.6846],[2.9880,49.6873],[2.9859,49.6898],[2.9883,49.6903],[2.9893,49.6968],[2.9971,49.6988],[3.0047,49.6980]]]}},{"type":"Feature","properties":{"name":"Grand bois des Housseaux"},"geometry":{"type":"Polygon","coordinates":[[[3.2092,49.6707],[3.2136,49.6778],[3.2184,49.6772],[3.2210,49.6795],[3.2298,49.6810],[3.2316,49.6797],[3.2379,49.6809],[3.2385,49.6819],[3.2438,49.6805],[3.2468,49.6813],[3.2465,49.6751],[3.2485,49.6689],[3.2574,49.6688],[3.2638,49.6637],[3.2616,49.6626],[3.2619,49.6610],[3.2519,49.6609],[3.2489,49.6586],[3.2427,49.6602],[3.2403,49.6596],[3.2426,49.6607],[3.2421,49.6619],[3.2378,49.6609],[3.2393,49.6574],[3.2370,49.6571],[3.2376,49.6559],[3.2342,49.6554],[3.2353,49.6542],[3.2316,49.6524],[3.2255,49.6513],[3.2300,49.6581],[3.2326,49.6569],[3.2325,49.6555],[3.2351,49.6566],[3.2237,49.6645],[3.2209,49.6611],[3.2219,49.6604],[3.2209,49.6585],[3.2136,49.6630],[3.2122,49.6616],[3.2113,49.6622],[3.2142,49.6676],[3.2102,49.6685],[3.2109,49.6702],[3.2092,49.6707]]]}},{"type":"Feature","properties":{"name":"Bois de Genlis"},"geometry":{"type":"Polygon","coordinates":[[[3.2047,49.6611],[3.1918,49.6626],[3.1935,49.6657],[3.1919,49.6660],[3.1892,49.6741],[3.1855,49.6736],[3.1853,49.6721],[3.1821,49.6727],[3.1821,49.6716],[3.1818,49.6730],[3.1752,49.6742],[3.1801,49.6725],[3.1778,49.6702],[3.1735,49.6716],[3.1748,49.6739],[3.1700,49.6741],[3.1679,49.6772],[3.1690,49.6781],[3.1651,49.6768],[3.1615,49.6785],[3.1609,49.6776],[3.1594,49.6835],[3.1609,49.6845],[3.1603,49.6865],[3.1650,49.6904],[3.1646,49.6956],[3.1713,49.6958],[3.1700,49.6977],[3.1715,49.6979],[3.1739,49.6966],[3.1751,49.6933],[3.1742,49.6932],[3.1735,49.6893],[3.1800,49.6883],[3.1836,49.6909],[3.1811,49.6914],[3.1825,49.6936],[3.1848,49.6924],[3.1874,49.6990],[3.1870,49.6970],[3.1894,49.6965],[3.1865,49.6918],[3.1925,49.6900],[3.1960,49.6802],[3.2002,49.6804],[3.1991,49.6828],[3.2033,49.6850],[3.2035,49.6812],[3.2051,49.6813],[3.2039,49.6778],[3.2069,49.6755],[3.2115,49.6748],[3.2092,49.6707],[3.2085,49.6662],[3.2052,49.6655],[3.2029,49.6679],[3.1952,49.6671],[3.1967,49.6660],[3.1950,49.6657],[3.1953,49.6642],[3.2032,49.6640],[3.2051,49.6621],[3.2019,49.6617],[3.2047,49.6611]]]}},{"type":"Feature","properties":{"name":"Bois d\u0027Havrincourt"},"geometry":{"type":"Polygon","coordinates":[[[3.0787,50.0809],[3.0762,50.0797],[3.0786,50.0790],[3.0779,50.0780],[3.0790,50.0792],[3.0861,50.0795],[3.0864,50.0766],[3.0814,50.0749],[3.0855,50.0753],[3.0863,50.0740],[3.0837,50.0723],[3.0817,50.0738],[3.0795,50.0723],[3.0764,50.0759],[3.0697,50.0742],[3.0654,50.0762],[3.0541,50.0750],[3.0446,50.0722],[3.0386,50.0730],[3.0421,50.0802],[3.0447,50.0809],[3.0455,50.0827],[3.0439,50.0848],[3.0442,50.0863],[3.0500,50.0893],[3.0491,50.0924],[3.0643,50.1027],[3.0680,50.1019],[3.0647,50.0983],[3.0633,50.0935],[3.0672,50.0913],[3.0667,50.0898],[3.0697,50.0891],[3.0734,50.0901],[3.0777,50.0971],[3.0815,50.0992],[3.0845,50.0991],[3.0862,50.1016],[3.0850,50.1018],[3.0874,50.1018],[3.0890,50.0968],[3.0880,50.0943],[3.0847,50.0931],[3.0851,50.0920],[3.0835,50.0907],[3.0788,50.0905],[3.0759,50.0873],[3.0787,50.0809]]]}},{"type":"Feature","properties":{"name":"Forêt domaniale de Compiègne"},"geometry":{"type":"Polygon","coordinates":[[[2.8671,49.4279],[2.8728,49.4281],[2.8761,49.4253],[2.8810,49.4261],[2.8868,49.4244],[2.8878,49.4240],[2.8855,49.4217],[2.8931,49.4191],[2.8947,49.4202],[2.8989,49.4192],[2.9001,49.4201],[2.8976,49.4210],[2.9024,49.4215],[2.9065,49.4199],[2.9080,49.4178],[2.9239,49.4124],[2.9636,49.4021],[2.9649,49.4002],[2.9639,49.3967],[2.9698,49.3958],[2.9766,49.3906],[2.9768,49.3834],[2.9805,49.3822],[2.9851,49.3733],[2.9885,49.3754],[2.9887,49.3710],[2.9871,49.3709],[2.9921,49.3606],[3.0088,49.3552],[3.0024,49.3570],[3.0007,49.3560],[2.9948,49.3567],[2.9919,49.3580],[2.9928,49.3592],[2.9917,49.3598],[2.9874,49.3555],[2.9887,49.3574],[2.9852,49.3551],[2.9819,49.3549],[2.9737,49.3609],[2.9734,49.3621],[2.9717,49.3608],[2.9695,49.3628],[2.9703,49.3634],[2.9649,49.3627],[2.9650,49.3616],[2.9704,49.3590],[2.9705,49.3575],[2.9727,49.3568],[2.9719,49.3572],[2.9751,49.3587],[2.9787,49.3563],[2.9775,49.3553],[2.9787,49.3557],[2.9819,49.3536],[2.9787,49.3537],[2.9759,49.3557],[2.9751,49.3535],[2.9771,49.3524],[2.9769,49.3513],[2.9792,49.3518],[2.9803,49.3502],[2.9758,49.3498],[2.9767,49.3515],[2.9717,49.3513],[2.9722,49.3503],[2.9669,49.3501],[2.9698,49.3491],[2.9623,49.3483],[2.9632,49.3461],[2.9614,49.3467],[2.9586,49.3448],[2.9625,49.3448],[2.9611,49.3443],[2.9637,49.3421],[2.9590,49.3394],[2.9657,49.3421],[2.9654,49.3431],[2.9671,49.3425],[2.9690,49.3451],[2.9738,49.3465],[2.9756,49.3455],[2.9734,49.3462],[2.9698,49.3438],[2.9713,49.3416],[2.9692,49.3430],[2.9642,49.3395],[2.9586,49.3380],[2.9567,49.3360],[2.9561,49.3312],[2.9558,49.3353],[2.9543,49.3317],[2.9512,49.3310],[2.9531,49.3321],[2.9526,49.3354],[2.9507,49.3364],[2.9477,49.3349],[2.9513,49.3375],[2.9549,49.3380],[2.9560,49.3399],[2.9523,49.3397],[2.9521,49.3382],[2.9448,49.3347],[2.9439,49.3336],[2.9467,49.3319],[2.9474,49.3291],[2.9442,49.3273],[2.9520,49.3301],[2.9425,49.3255],[2.9536,49.3287],[2.9568,49.3284],[2.9539,49.3275],[2.9536,49.3251],[2.9502,49.3266],[2.9430,49.3246],[2.9419,49.3234],[2.9428,49.3181],[2.9420,49.3168],[2.9399,49.3214],[2.9330,49.3202],[2.9289,49.3222],[2.9273,49.3194],[2.9250,49.3192],[2.9222,49.3158],[2.9113,49.3117],[2.9099,49.3121],[2.9100,49.3134],[2.9077,49.3128],[2.9061,49.3144],[2.9001,49.3147],[2.8831,49.3283],[2.8697,49.3134],[2.8570,49.3110],[2.8547,49.3159],[2.8496,49.3160],[2.8469,49.3128],[2.8329,49.3061],[2.8298,49.3064],[2.8297,49.3095],[2.8236,49.3078],[2.8155,49.3079],[2.8208,49.3088],[2.8198,49.3096],[2.8229,49.3113],[2.8268,49.3167],[2.8255,49.3170],[2.8259,49.3187],[2.8197,49.3179],[2.8084,49.3196],[2.7998,49.3139],[2.8005,49.3107],[2.7981,49.3070],[2.8013,49.3039],[2.7961,49.3077],[2.7990,49.3098],[2.7990,49.3117],[2.7890,49.3055],[2.7870,49.3054],[2.7845,49.3088],[2.7813,49.3105],[2.7821,49.3151],[2.7947,49.3230],[2.7930,49.3241],[2.7911,49.3229],[2.7908,49.3261],[2.7891,49.3268],[2.7869,49.3269],[2.7860,49.3257],[2.7849,49.3266],[2.7850,49.3249],[2.7830,49.3246],[2.7811,49.3261],[2.7801,49.3249],[2.7780,49.3254],[2.7784,49.3264],[2.7730,49.3251],[2.7739,49.3219],[2.7711,49.3213],[2.7686,49.3190],[2.7698,49.3178],[2.7685,49.3170],[2.7680,49.3180],[2.7678,49.3167],[2.7701,49.3144],[2.7677,49.3134],[2.7643,49.3157],[2.7639,49.3139],[2.7612,49.3144],[2.7603,49.3151],[2.7611,49.3164],[2.7640,49.3162],[2.7645,49.3174],[2.7585,49.3188],[2.7597,49.3198],[2.7608,49.3186],[2.7621,49.3204],[2.7567,49.3208],[2.7567,49.3220],[2.7555,49.3219],[2.7574,49.3224],[2.7502,49.3243],[2.7511,49.3259],[2.7451,49.3239],[2.7528,49.3280],[2.7515,49.3282],[2.7527,49.3325],[2.7488,49.3357],[2.7502,49.3387],[2.7573,49.3428],[2.7568,49.3435],[2.7636,49.3458],[2.7695,49.3515],[2.7760,49.3524],[2.7755,49.3516],[2.7820,49.3497],[2.7842,49.3501],[2.7856,49.3528],[2.7867,49.3517],[2.7859,49.3528],[2.7873,49.3516],[2.7917,49.3516],[2.7982,49.3543],[2.7974,49.3545],[2.7991,49.3573],[2.7968,49.3602],[2.7942,49.3597],[2.7899,49.3619],[2.7835,49.3605],[2.7796,49.3642],[2.7781,49.3636],[2.7746,49.3650],[2.7778,49.3661],[2.7813,49.3699],[2.7803,49.3715],[2.7817,49.3726],[2.7890,49.3772],[2.7904,49.3763],[2.7934,49.3791],[2.7922,49.3814],[2.7970,49.3846],[2.7962,49.3868],[2.7978,49.3918],[2.8028,49.3916],[2.8141,49.3997],[2.8183,49.3998],[2.8183,49.3959],[2.8197,49.3949],[2.8253,49.3952],[2.8246,49.3977],[2.8269,49.3980],[2.8290,49.3962],[2.8362,49.3988],[2.8352,49.4026],[2.8381,49.4053],[2.8722,49.3979],[2.8679,49.3956],[2.8724,49.3923],[2.8741,49.3945],[2.8715,49.3942],[2.8723,49.3956],[2.8700,49.3948],[2.8738,49.3971],[2.8730,49.3985],[2.8739,49.4089],[2.8931,49.4046],[2.8623,49.4121],[2.8619,49.4137],[2.8595,49.4136],[2.8611,49.4123],[2.8433,49.4165],[2.8427,49.4179],[2.8498,49.4213],[2.8491,49.4223],[2.8541,49.4228],[2.8486,49.4229],[2.8498,49.4239],[2.8489,49.4244],[2.8550,49.4277],[2.8585,49.4279],[2.8608,49.4265],[2.8659,49.4280],[2.8661,49.4290],[2.8662,49.4276],[2.8671,49.4279]]]}},{"type":"Feature","properties":{"name":"Bois de Cangies"},"geometry":{"type":"Polygon","coordinates":[[[3.0104,49.6370],[3.0107,49.6361],[3.0053,49.6361],[2.9979,49.6320],[2.9853,49.6225],[2.9905,49.6184],[2.9881,49.6161],[2.9891,49.6116],[2.9856,49.6084],[2.9870,49.6076],[2.9872,49.6057],[2.9849,49.6049],[2.9865,49.6041],[2.9865,49.6016],[2.9887,49.6011],[2.9875,49.5985],[2.9907,49.5964],[2.9899,49.5924],[2.9907,49.5917],[2.9898,49.5913],[2.9907,49.5904],[2.9891,49.5884],[2.9882,49.5888],[2.9890,49.5905],[2.9819,49.5942],[2.9802,49.5978],[2.9822,49.6005],[2.9801,49.6019],[2.9787,49.6053],[2.9806,49.6055],[2.9823,49.6094],[2.9812,49.6132],[2.9841,49.6170],[2.9834,49.6183],[2.9766,49.6197],[2.9741,49.6186],[2.9752,49.6196],[2.9739,49.6208],[2.9682,49.6203],[2.9636,49.6239],[2.9584,49.6239],[2.9629,49.6241],[2.9564,49.6241],[2.9631,49.6245],[2.9603,49.6266],[2.9575,49.6263],[2.9584,49.6270],[2.9566,49.6292],[2.9524,49.6303],[2.9590,49.6300],[2.9587,49.6286],[2.9654,49.6258],[2.9648,49.6245],[2.9683,49.6220],[2.9712,49.6229],[2.9711,49.6219],[2.9810,49.6214],[2.9815,49.6229],[2.9850,49.6232],[2.9844,49.6251],[2.9905,49.6306],[2.9995,49.6355],[2.9997,49.6370],[3.0064,49.6387],[3.0237,49.6495],[3.0285,49.6489],[3.0215,49.6461],[3.0202,49.6437],[3.0167,49.6417],[3.0240,49.6402],[3.0211,49.6387],[3.0128,49.6399],[3.0109,49.6390],[3.0104,49.6370]]]}},{"type":"Feature","properties":{"name":"Bois Carpentier"},"geometry":{"type":"Polygon","coordinates":[[[2.9338,49.6001],[2.9355,49.5993],[2.9413,49.6016],[2.9453,49.5985],[2.9437,49.5978],[2.9445,49.5969],[2.9489,49.5992],[2.9497,49.5974],[2.9521,49.5974],[2.9493,49.5947],[2.9507,49.5940],[2.9491,49.5931],[2.9550,49.5928],[2.9571,49.5911],[2.9556,49.5897],[2.9566,49.5882],[2.9591,49.5886],[2.9570,49.5870],[2.9607,49.5856],[2.9592,49.5838],[2.9621,49.5838],[2.9607,49.5835],[2.9595,49.5795],[2.9636,49.5789],[2.9638,49.5802],[2.9647,49.5790],[2.9623,49.5763],[2.9647,49.5754],[2.9624,49.5743],[2.9623,49.5758],[2.9601,49.5754],[2.9616,49.5752],[2.9608,49.5745],[2.9597,49.5757],[2.9611,49.5762],[2.9595,49.5773],[2.9609,49.5778],[2.9595,49.5789],[2.9561,49.5787],[2.9593,49.5756],[2.9553,49.5751],[2.9574,49.5768],[2.9543,49.5779],[2.9498,49.5773],[2.9513,49.5798],[2.9504,49.5803],[2.9528,49.5825],[2.9521,49.5831],[2.9546,49.5830],[2.9541,49.5842],[2.9523,49.5851],[2.9513,49.5849],[2.9524,49.5839],[2.9509,49.5847],[2.9505,49.5833],[2.9485,49.5836],[2.9485,49.5854],[2.9467,49.5855],[2.9485,49.5885],[2.9448,49.5864],[2.9426,49.5887],[2.9386,49.5885],[2.9349,49.5909],[2.9344,49.5946],[2.9294,49.5983],[2.9338,49.6001]]]}},{"type":"Feature","properties":{"name":"Massif de Thiescourt"},"geometry":{"type":"Polygon","coordinates":[[[2.9506,49.5413],[2.9461,49.5383],[2.9463,49.5398],[2.9426,49.5354],[2.9389,49.5359],[2.9393,49.5374],[2.9376,49.5361],[2.9349,49.5367],[2.9375,49.5387],[2.9386,49.5385],[2.9383,49.5375],[2.9416,49.5382],[2.9403,49.5389],[2.9430,49.5406],[2.9436,49.5430],[2.9414,49.5436],[2.9421,49.5444],[2.9460,49.5454],[2.9459,49.5466],[2.9475,49.5466],[2.9468,49.5478],[2.9504,49.5472],[2.9498,49.5489],[2.9468,49.5497],[2.9477,49.5510],[2.9466,49.5498],[2.9445,49.5508],[2.9439,49.5498],[2.9395,49.5499],[2.9309,49.5462],[2.9306,49.5481],[2.9300,49.5463],[2.9261,49.5464],[2.9273,49.5473],[2.9270,49.5489],[2.9293,49.5482],[2.9324,49.5500],[2.9332,49.5516],[2.9319,49.5520],[2.9298,49.5499],[2.9236,49.5487],[2.9197,49.5462],[2.9149,49.5516],[2.9112,49.5501],[2.9073,49.5508],[2.9066,49.5490],[2.9108,49.5459],[2.9096,49.5453],[2.9081,49.5472],[2.9026,49.5472],[2.9002,49.5486],[2.8957,49.5472],[2.8937,49.5443],[2.9005,49.5416],[2.8994,49.5406],[2.8988,49.5419],[2.8930,49.5442],[2.8939,49.5464],[2.8967,49.5474],[2.8980,49.5514],[2.9006,49.5533],[2.8966,49.5522],[2.8973,49.5507],[2.8927,49.5472],[2.8896,49.5475],[2.8933,49.5536],[2.8904,49.5550],[2.8904,49.5561],[2.8946,49.5581],[2.8937,49.5587],[2.8959,49.5597],[2.8950,49.5604],[2.8973,49.5626],[2.8838,49.5554],[2.8809,49.5551],[2.8799,49.5536],[2.8793,49.5548],[2.8751,49.5525],[2.8755,49.5503],[2.8775,49.5490],[2.8772,49.5439],[2.8799,49.5391],[2.8821,49.5389],[2.8805,49.5413],[2.8847,49.5424],[2.8874,49.5401],[2.8868,49.5388],[2.8886,49.5380],[2.8894,49.5336],[2.8874,49.5305],[2.8833,49.5320],[2.8861,49.5333],[2.8850,49.5355],[2.8822,49.5334],[2.8759,49.5321],[2.8774,49.5307],[2.8749,49.5298],[2.8752,49.5290],[2.8788,49.5311],[2.8751,49.5253],[2.8742,49.5255],[2.8755,49.5283],[2.8745,49.5297],[2.8725,49.5293],[2.8720,49.5309],[2.8708,49.5309],[2.8694,49.5233],[2.8666,49.5251],[2.8631,49.5234],[2.8636,49.5225],[2.8612,49.5231],[2.8611,49.5212],[2.8572,49.5227],[2.8600,49.5225],[2.8614,49.5243],[2.8595,49.5240],[2.8615,49.5249],[2.8569,49.5250],[2.8628,49.5262],[2.8572,49.5293],[2.8479,49.5257],[2.8477,49.5238],[2.8435,49.5208],[2.8448,49.5202],[2.8400,49.5177],[2.8407,49.5147],[2.8438,49.5156],[2.8427,49.5169],[2.8437,49.5175],[2.8457,49.5169],[2.8471,49.5143],[2.8524,49.5147],[2.8544,49.5131],[2.8559,49.5133],[2.8557,49.5153],[2.8538,49.5154],[2.8517,49.5166],[2.8522,49.5173],[2.8577,49.5164],[2.8569,49.5157],[2.8597,49.5136],[2.8630,49.5149],[2.8625,49.5128],[2.8697,49.5121],[2.8720,49.5143],[2.8709,49.5121],[2.8720,49.5102],[2.8759,49.5099],[2.8733,49.5087],[2.8741,49.5081],[2.8725,49.5068],[2.8726,49.5043],[2.8772,49.5026],[2.8836,49.5034],[2.8786,49.5019],[2.8733,49.5021],[2.8722,49.5005],[2.8741,49.4998],[2.8755,49.5020],[2.8755,49.4993],[2.8745,49.4988],[2.8771,49.4997],[2.8767,49.4971],[2.8785,49.4988],[2.8874,49.4986],[2.8899,49.5003],[2.8887,49.5028],[2.8899,49.5033],[2.8908,49.5061],[2.8897,49.5064],[2.8911,49.5077],[2.8911,49.5102],[2.8883,49.5107],[2.8886,49.5118],[2.8910,49.5114],[2.8917,49.5126],[2.8901,49.5131],[2.8904,49.5152],[2.8929,49.5140],[2.8943,49.5152],[2.8908,49.5177],[2.8915,49.5184],[2.8955,49.5160],[2.8967,49.5168],[2.8953,49.5187],[2.8987,49.5174],[2.9039,49.5194],[2.9069,49.5191],[2.9091,49.5219],[2.9073,49.5261],[2.9096,49.5268],[2.9094,49.5258],[2.9111,49.5260],[2.9098,49.5232],[2.9142,49.5235],[2.9166,49.5222],[2.9232,49.5228],[2.9235,49.5238],[2.9181,49.5238],[2.9191,49.5252],[2.9136,49.5253],[2.9096,49.5279],[2.9107,49.5290],[2.9147,49.5283],[2.9156,49.5297],[2.9176,49.5293],[2.9150,49.5307],[2.9178,49.5306],[2.9194,49.5315],[2.9190,49.5325],[2.9211,49.5322],[2.9197,49.5341],[2.9226,49.5325],[2.9185,49.5367],[2.9235,49.5362],[2.9230,49.5355],[2.9245,49.5355],[2.9242,49.5338],[2.9255,49.5335],[2.9274,49.5363],[2.9268,49.5333],[2.9302,49.5335],[2.9296,49.5344],[2.9314,49.5353],[2.9298,49.5364],[2.9310,49.5375],[2.9348,49.5358],[2.9461,49.5342],[2.9461,49.5358],[2.9475,49.5358],[2.9524,49.5410],[2.9506,49.5413]]]}},{"type":"Feature","properties":{"name":"Forêt domaniale de l\u0027Hôpital"},"geometry":{"type":"Polygon","coordinates":[[[3.0047,49.6980],[3.0048,49.7027],[3.0056,49.7027],[3.0056,49.6990],[3.0087,49.6995],[3.0109,49.6963],[3.0070,49.6948],[3.0080,49.6927],[3.0070,49.6905],[3.0093,49.6868],[3.0114,49.6875],[3.0127,49.6836],[3.0114,49.6830],[3.0093,49.6848],[3.0023,49.6786],[2.9973,49.6787],[2.9908,49.6835],[2.9903,49.6824],[2.9882,49.6829],[2.9891,49.6845],[2.9871,49.6846],[2.9880,49.6873],[2.9859,49.6898],[2.9883,49.6903],[2.9893,49.6968],[2.9971,49.6988],[3.0047,49.6980]]]}},{"type":"Feature","properties":{"name":"Bois d\u0027Holnon"},"geometry":{"type":"Polygon","coordinates":[[[3.1859,49.8728],[3.1961,49.8689],[3.1955,49.8671],[3.1974,49.8660],[3.2002,49.8672],[3.1969,49.8622],[3.1987,49.8617],[3.2021,49.8642],[3.2001,49.8613],[3.2027,49.8596],[3.1996,49.8604],[3.2012,49.8570],[3.1991,49.8561],[3.1992,49.8581],[3.1975,49.8562],[3.1973,49.8619],[3.1968,49.8597],[3.1945,49.8602],[3.1938,49.8591],[3.1945,49.8549],[3.1909,49.8546],[3.1928,49.8513],[3.1888,49.8511],[3.1858,49.8501],[3.1896,49.8497],[3.1812,49.8474],[3.1828,49.8457],[3.1724,49.8456],[3.1713,49.8469],[3.1731,49.8487],[3.1768,49.8471],[3.1760,49.8491],[3.1721,49.8502],[3.1764,49.8516],[3.1742,49.8549],[3.1719,49.8555],[3.1711,49.8545],[3.1723,49.8566],[3.1748,49.8560],[3.1751,49.8570],[3.1782,49.8572],[3.1801,49.8599],[3.1823,49.8594],[3.1818,49.8616],[3.1800,49.8617],[3.1817,49.8619],[3.1813,49.8630],[3.1778,49.8624],[3.1768,49.8632],[3.1774,49.8661],[3.1708,49.8675],[3.1707,49.8722],[3.1712,49.8710],[3.1801,49.8675],[3.1831,49.8681],[3.1840,49.8734],[3.1859,49.8728]]]}},{"type":"Feature","properties":{"name":"Bois de Sendricourt"},"geometry":{"type":"Polygon","coordinates":[[[3.2587,49.6924],[3.2571,49.6894],[3.2552,49.6885],[3.2537,49.6903],[3.2511,49.6902],[3.2456,49.6933],[3.2471,49.6942],[3.2445,49.6965],[3.2424,49.6958],[3.2418,49.6967],[3.2381,49.6936],[3.2390,49.6908],[3.2318,49.6920],[3.2323,49.6947],[3.2259,49.6951],[3.2262,49.6976],[3.2331,49.7024],[3.2303,49.7048],[3.2295,49.7073],[3.2272,49.7076],[3.2300,49.7076],[3.2322,49.7098],[3.2339,49.7094],[3.2345,49.7077],[3.2364,49.7081],[3.2362,49.7066],[3.2384,49.7051],[3.2434,49.7053],[3.2450,49.7018],[3.2478,49.7028],[3.2506,49.6985],[3.2530,49.6994],[3.2539,49.7012],[3.2557,49.7006],[3.2564,49.6977],[3.2588,49.6965],[3.2630,49.6970],[3.2647,49.6958],[3.2617,49.6942],[3.2559,49.6939],[3.2587,49.6924]]]}},{"type":"Feature","properties":{"name":"Bois de Borny"},"geometry":{"type":"Polygon","coordinates":[[[3.1433,49.1445],[3.1454,49.1469],[3.1337,49.1461],[3.1346,49.1457],[3.1328,49.1459],[3.1329,49.1470],[3.1263,49.1471],[3.1304,49.1461],[3.1244,49.1470],[3.1249,49.1487],[3.1317,49.1515],[3.1399,49.1521],[3.1393,49.1532],[3.1409,49.1535],[3.1398,49.1554],[3.1483,49.1610],[3.1472,49.1626],[3.1490,49.1657],[3.1550,49.1656],[3.1592,49.1635],[3.1594,49.1569],[3.1516,49.1554],[3.1525,49.1544],[3.1470,49.1496],[3.1473,49.1487],[3.1502,49.1517],[3.1455,49.1436],[3.1433,49.1445]]]}},{"type":"Feature","properties":{"name":"Forêt de Retz"},"geometry":{"type":"Polygon","coordinates":[[[3.1884,49.3139],[3.1968,49.3093],[3.2045,49.3138],[3.2030,49.3180],[3.1959,49.3202],[3.1998,49.3211],[3.2052,49.3191],[3.2070,49.3206],[3.2107,49.3206],[3.2112,49.3171],[3.2239,49.3173],[3.2254,49.3152],[3.2215,49.3115],[3.2118,49.3152],[3.2097,49.3130],[3.2078,49.3130],[3.2086,49.3110],[3.2074,49.3089],[3.2099,49.3075],[3.2127,49.3026],[3.2042,49.3015],[3.1940,49.2966],[3.1835,49.2960],[3.1720,49.2918],[3.1693,49.2889],[3.1669,49.2891],[3.1666,49.2872],[3.1646,49.2855],[3.1325,49.2668],[3.1051,49.2662],[3.1047,49.2686],[3.0977,49.2694],[3.0948,49.2684],[3.0945,49.2662],[3.0918,49.2662],[3.0905,49.2664],[3.0916,49.2667],[3.0916,49.2688],[3.0851,49.2703],[3.0813,49.2640],[3.0691,49.2594],[3.0644,49.2644],[3.0587,49.2659],[3.0535,49.2695],[3.0478,49.2687],[3.0472,49.2700],[3.0499,49.2715],[3.0538,49.2718],[3.0555,49.2704],[3.0584,49.2720],[3.0675,49.2724],[3.0749,49.2772],[3.0729,49.2794],[3.0688,49.2799],[3.0670,49.2789],[3.0636,49.2821],[3.0604,49.2788],[3.0572,49.2798],[3.0588,49.2805],[3.0581,49.2814],[3.0541,49.2809],[3.0535,49.2780],[3.0485,49.2792],[3.0481,49.2778],[3.0466,49.2777],[3.0481,49.2808],[3.0472,49.2815],[3.0449,49.2822],[3.0439,49.2803],[3.0410,49.2801],[3.0403,49.2830],[3.0361,49.2828],[3.0321,49.2848],[3.0355,49.2836],[3.0321,49.2854],[3.0353,49.2872],[3.0295,49.2866],[3.0280,49.2893],[3.0218,49.2848],[3.0227,49.2837],[3.0204,49.2840],[3.0193,49.2803],[3.0167,49.2801],[3.0138,49.2826],[3.0181,49.2858],[3.0205,49.2903],[3.0135,49.2892],[3.0114,49.2903],[3.0128,49.2919],[3.0108,49.2910],[3.0102,49.2925],[3.0066,49.2920],[3.0052,49.2931],[2.9958,49.2866],[2.9861,49.2878],[2.9863,49.2904],[2.9940,49.2946],[2.9954,49.2962],[2.9947,49.2973],[2.9904,49.2976],[2.9892,49.2957],[2.9875,49.2970],[2.9883,49.2988],[2.9869,49.2993],[2.9834,49.2969],[2.9812,49.2976],[2.9805,49.2992],[2.9770,49.2989],[2.9751,49.3015],[2.9715,49.3029],[2.9669,49.3020],[2.9684,49.3039],[2.9679,49.3056],[2.9764,49.3049],[2.9781,49.3067],[2.9775,49.3089],[2.9807,49.3116],[2.9816,49.3106],[2.9874,49.3123],[2.9885,49.3117],[2.9875,49.3102],[2.9918,49.3104],[2.9916,49.3116],[2.9934,49.3127],[2.9975,49.3104],[3.0012,49.3118],[3.0009,49.3128],[3.0068,49.3130],[3.0197,49.3083],[3.0303,49.3098],[3.0306,49.3069],[3.0329,49.3063],[3.0333,49.3045],[3.0413,49.3037],[3.0441,49.3014],[3.0457,49.3025],[3.0459,49.2994],[3.0484,49.3014],[3.0493,49.2999],[3.0519,49.3028],[3.0520,49.2989],[3.0561,49.3016],[3.0567,49.2999],[3.0604,49.2992],[3.0613,49.3015],[3.0625,49.3013],[3.0615,49.2985],[3.0633,49.2969],[3.0669,49.3005],[3.0685,49.2990],[3.0703,49.2995],[3.0696,49.3005],[3.0729,49.2993],[3.0744,49.2936],[3.0802,49.2937],[3.0799,49.2955],[3.0824,49.2979],[3.0847,49.2979],[3.0873,49.3022],[3.0904,49.3027],[3.0920,49.3017],[3.0880,49.3013],[3.0856,49.2968],[3.0881,49.2970],[3.0901,49.2938],[3.0930,49.2933],[3.0938,49.2989],[3.0970,49.3009],[3.0965,49.2993],[3.0987,49.2984],[3.0978,49.2949],[3.1010,49.2922],[3.1042,49.2952],[3.1098,49.2926],[3.1164,49.2957],[3.1207,49.2942],[3.1211,49.2954],[3.1289,49.2964],[3.1294,49.2946],[3.1316,49.2938],[3.1307,49.2959],[3.1317,49.2962],[3.1343,49.2935],[3.1409,49.2906],[3.1431,49.2942],[3.1480,49.2981],[3.1468,49.3006],[3.1432,49.3021],[3.1383,49.3021],[3.1393,49.3045],[3.1464,49.3046],[3.1542,49.2981],[3.1535,49.2968],[3.1548,49.2981],[3.1573,49.2982],[3.1555,49.2986],[3.1563,49.2992],[3.1606,49.2978],[3.1615,49.2990],[3.1597,49.3010],[3.1641,49.3016],[3.1623,49.3084],[3.1697,49.3084],[3.1687,49.3114],[3.1743,49.3149],[3.1749,49.3179],[3.1793,49.3176],[3.1812,49.3146],[3.1811,49.3130],[3.1787,49.3108],[3.1831,49.3103],[3.1869,49.3079],[3.1894,49.3086],[3.1883,49.3114],[3.1863,49.3120],[3.1878,49.3148],[3.1884,49.3139]]]}},{"type":"Feature","properties":{"name":"Forêt domaniale de Montceaux"},"geometry":{"type":"Polygon","coordinates":[[[2.9954,48.9925],[2.9980,48.9937],[3.0012,48.9933],[2.9970,48.9926],[2.9982,48.9909],[3.0019,48.9925],[3.0031,48.9902],[3.0019,48.9893],[3.0040,48.9871],[3.0015,48.9879],[3.0027,48.9864],[3.0013,48.9868],[3.0020,48.9860],[2.9989,48.9843],[2.9999,48.9830],[2.9948,48.9823],[2.9940,48.9836],[2.9922,48.9834],[2.9931,48.9820],[2.9915,48.9801],[2.9917,48.9777],[2.9987,48.9760],[3.0042,48.9792],[3.0003,48.9786],[3.0044,48.9865],[3.0054,48.9856],[3.0092,48.9869],[3.0093,48.9812],[3.0167,48.9812],[3.0171,48.9787],[3.0144,48.9774],[3.0162,48.9765],[3.0112,48.9780],[3.0101,48.9765],[2.9990,48.9756],[3.0010,48.9750],[2.9988,48.9720],[2.9987,48.9659],[2.9977,48.9656],[3.0004,48.9615],[3.0081,48.9535],[3.0163,48.9494],[3.0180,48.9501],[3.0180,48.9486],[3.0244,48.9472],[3.0249,48.9483],[3.0237,48.9493],[3.0196,48.9497],[3.0296,48.9504],[3.0309,48.9501],[3.0301,48.9481],[3.0309,48.9472],[3.0290,48.9471],[3.0285,48.9496],[3.0274,48.9494],[3.0262,48.9470],[3.0232,48.9467],[3.0227,48.9443],[3.0210,48.9440],[3.0215,48.9418],[3.0204,48.9409],[3.0199,48.9426],[3.0146,48.9437],[3.0140,48.9456],[3.0123,48.9452],[3.0120,48.9415],[3.0115,48.9433],[3.0098,48.9433],[3.0124,48.9468],[3.0101,48.9469],[3.0125,48.9483],[3.0126,48.9496],[3.0065,48.9518],[3.0039,48.9503],[3.0045,48.9487],[3.0016,48.9481],[2.9979,48.9494],[2.9924,48.9477],[2.9715,48.9547],[2.9746,48.9579],[2.9735,48.9595],[2.9705,48.9586],[2.9707,48.9597],[2.9668,48.9598],[2.9632,48.9626],[2.9601,48.9617],[2.9736,48.9734],[2.9805,48.9770],[2.9814,48.9764],[2.9856,48.9784],[2.9908,48.9775],[2.9802,48.9780],[2.9812,48.9809],[2.9834,48.9814],[2.9818,48.9825],[2.9854,48.9818],[2.9884,48.9845],[2.9863,48.9898],[2.9954,48.9925]]]}},{"type":"Feature","properties":{"name":"Bois de Montigny"},"geometry":{"type":"Polygon","coordinates":[[[3.1381,49.1199],[3.1336,49.1181],[3.1311,49.1190],[3.1310,49.1157],[3.1265,49.1130],[3.1239,49.1134],[3.1223,49.1115],[3.1253,49.1108],[3.1187,49.1122],[3.1175,49.1108],[3.1202,49.1101],[3.1162,49.1099],[3.1208,49.1161],[3.1164,49.1173],[3.1127,49.1164],[3.1092,49.1179],[3.1078,49.1151],[3.1066,49.1153],[3.1072,49.1164],[3.1047,49.1172],[3.1056,49.1182],[3.0957,49.1248],[3.0956,49.1264],[3.0927,49.1241],[3.0901,49.1255],[3.0943,49.1288],[3.0952,49.1311],[3.0986,49.1316],[3.0921,49.1349],[3.0924,49.1375],[3.0914,49.1379],[3.0932,49.1377],[3.0934,49.1388],[3.0897,49.1385],[3.0913,49.1404],[3.0926,49.1402],[3.0936,49.1429],[3.1032,49.1484],[3.1060,49.1482],[3.1085,49.1462],[3.1234,49.1451],[3.1294,49.1439],[3.1292,49.1426],[3.1350,49.1427],[3.1301,49.1412],[3.1326,49.1389],[3.1349,49.1418],[3.1332,49.1391],[3.1380,49.1416],[3.1422,49.1403],[3.1502,49.1418],[3.1504,49.1406],[3.1523,49.1410],[3.1534,49.1395],[3.1560,49.1401],[3.1542,49.1368],[3.1481,49.1370],[3.1452,49.1351],[3.1418,49.1351],[3.1380,49.1272],[3.1387,49.1265],[3.1352,49.1239],[3.1375,49.1216],[3.1404,49.1209],[3.1381,49.1199]]]}},{"type":"Feature","properties":{"name":"Forêt Communale de Vendrest et Dhuisy"},"geometry":{"type":"Polygon","coordinates":[[[3.1152,49.0343],[3.1170,49.0347],[3.1137,49.0356],[3.1122,49.0352],[3.1128,49.0337],[3.1113,49.0347],[3.1100,49.0335],[3.1092,49.0348],[3.1088,49.0330],[3.1079,49.0333],[3.1080,49.0349],[3.1066,49.0341],[3.1060,49.0357],[3.1043,49.0348],[3.1048,49.0370],[3.1016,49.0349],[3.1004,49.0382],[3.1014,49.0370],[3.1029,49.0373],[3.1032,49.0390],[3.1066,49.0378],[3.1088,49.0386],[3.1078,49.0397],[3.1090,49.0388],[3.1117,49.0406],[3.1139,49.0405],[3.1119,49.0393],[3.1145,49.0384],[3.1130,49.0379],[3.1161,49.0396],[3.1216,49.0388],[3.1216,49.0406],[3.1241,49.0397],[3.1248,49.0413],[3.1258,49.0403],[3.1240,49.0386],[3.1294,49.0364],[3.1291,49.0352],[3.1341,49.0355],[3.1342,49.0379],[3.1329,49.0376],[3.1320,49.0395],[3.1285,49.0390],[3.1284,49.0432],[3.1263,49.0435],[3.1297,49.0432],[3.1299,49.0396],[3.1325,49.0405],[3.1339,49.0397],[3.1351,49.0421],[3.1342,49.0461],[3.1272,49.0468],[3.1212,49.0457],[3.1215,49.0473],[3.1184,49.0488],[3.1093,49.0511],[3.1153,49.0504],[3.1162,49.0512],[3.1129,49.0528],[3.1160,49.0541],[3.1157,49.0558],[3.1176,49.0547],[3.1188,49.0560],[3.1199,49.0545],[3.1226,49.0552],[3.1238,49.0536],[3.1226,49.0531],[3.1232,49.0522],[3.1264,49.0535],[3.1401,49.0477],[3.1414,49.0450],[3.1453,49.0432],[3.1430,49.0398],[3.1516,49.0344],[3.1525,49.0328],[3.1507,49.0316],[3.1514,49.0299],[3.1573,49.0317],[3.1589,49.0310],[3.1564,49.0308],[3.1571,49.0289],[3.1552,49.0283],[3.1583,49.0244],[3.1608,49.0233],[3.1610,49.0213],[3.1567,49.0169],[3.1544,49.0178],[3.1531,49.0210],[3.1496,49.0208],[3.1497,49.0235],[3.1433,49.0238],[3.1433,49.0258],[3.1398,49.0280],[3.1330,49.0273],[3.1318,49.0285],[3.1321,49.0270],[3.1307,49.0254],[3.1342,49.0262],[3.1339,49.0245],[3.1285,49.0249],[3.1304,49.0253],[3.1305,49.0285],[3.1317,49.0286],[3.1308,49.0314],[3.1288,49.0319],[3.1292,49.0327],[3.1279,49.0321],[3.1302,49.0344],[3.1252,49.0348],[3.1235,49.0329],[3.1258,49.0322],[3.1248,49.0297],[3.1265,49.0296],[3.1248,49.0293],[3.1263,49.0281],[3.1260,49.0266],[3.1237,49.0254],[3.1194,49.0259],[3.1186,49.0287],[3.1216,49.0303],[3.1193,49.0307],[3.1219,49.0334],[3.1175,49.0344],[3.1160,49.0338],[3.1166,49.0327],[3.1175,49.0334],[3.1197,49.0314],[3.1162,49.0301],[3.1148,49.0309],[3.1163,49.0305],[3.1169,49.0317],[3.1144,49.0324],[3.1131,49.0307],[3.1152,49.0343]]]}},{"type":"Feature","properties":{"name":"Bois de Hautwison"},"geometry":{"type":"Polygon","coordinates":[[[3.2136,49.2469],[3.2201,49.2466],[3.2197,49.2450],[3.2177,49.2452],[3.2177,49.2437],[3.2222,49.2425],[3.2349,49.2429],[3.2350,49.2438],[3.2270,49.2446],[3.2412,49.2459],[3.2396,49.2446],[3.2431,49.2435],[3.2365,49.2418],[3.2400,49.2413],[3.2427,49.2385],[3.2368,49.2395],[3.2365,49.2375],[3.2409,49.2356],[3.2461,49.2357],[3.2315,49.2353],[3.2268,49.2336],[3.2243,49.2305],[3.2247,49.2292],[3.2376,49.2301],[3.2371,49.2278],[3.2346,49.2281],[3.2325,49.2258],[3.2369,49.2270],[3.2404,49.2255],[3.2404,49.2239],[3.2378,49.2228],[3.2202,49.2228],[3.2204,49.2241],[3.2171,49.2250],[3.2156,49.2273],[3.2076,49.2274],[3.2053,49.2253],[3.2104,49.2239],[3.2063,49.2231],[3.2044,49.2246],[3.2039,49.2270],[3.2073,49.2282],[3.2109,49.2316],[3.2100,49.2317],[3.2040,49.2282],[3.2035,49.2235],[3.2019,49.2233],[3.1995,49.2263],[3.1974,49.2258],[3.1971,49.2245],[3.1951,49.2253],[3.1945,49.2291],[3.1974,49.2273],[3.2029,49.2320],[3.2001,49.2355],[3.2013,49.2369],[3.1976,49.2399],[3.1988,49.2407],[3.2061,49.2375],[3.2053,49.2366],[3.2063,49.2361],[3.2099,49.2404],[3.2091,49.2417],[3.2122,49.2426],[3.2124,49.2441],[3.2114,49.2442],[3.2136,49.2469]]]}}]}