{"type":"FeatureCollection","features":[{"type":"Feature","properties":{"name":"Les Côtes Matras"},"geometry":{"type":"Polygon","coordinates":[[[3.0982,46.4485],[3.0939,46.4467],[3.0929,46.4480],[3.0876,46.4477],[3.0823,46.4495],[3.0843,46.4511],[3.0828,46.4513],[3.0846,46.4536],[3.0874,46.4531],[3.0874,46.4552],[3.0920,46.4564],[3.0908,46.4583],[3.0926,46.4599],[3.0909,46.4608],[3.0967,46.4642],[3.0950,46.4646],[3.0943,46.4631],[3.0931,46.4643],[3.0882,46.4645],[3.0855,46.4613],[3.0795,46.4614],[3.0770,46.4635],[3.0776,46.4603],[3.0730,46.4601],[3.0725,46.4612],[3.0778,46.4649],[3.0813,46.4627],[3.0817,46.4656],[3.0869,46.4646],[3.0872,46.4678],[3.0923,46.4681],[3.0924,46.4705],[3.0954,46.4702],[3.0955,46.4731],[3.1010,46.4679],[3.0996,46.4634],[3.1008,46.4628],[3.1003,46.4619],[3.1021,46.4630],[3.1006,46.4637],[3.1011,46.4661],[3.1028,46.4641],[3.1035,46.4656],[3.1066,46.4634],[3.1030,46.4613],[3.1029,46.4584],[3.0968,46.4531],[3.0986,46.4519],[3.1003,46.4529],[3.1016,46.4522],[3.0982,46.4485]]]}},{"type":"Feature","properties":{"name":"Forêt de Moladier"},"geometry":{"type":"Polygon","coordinates":[[[3.2778,46.5191],[3.2794,46.5181],[3.2780,46.5164],[3.2796,46.5129],[3.2766,46.5120],[3.2827,46.5103],[3.2807,46.5070],[3.2766,46.5059],[3.2765,46.5043],[3.2736,46.5027],[3.2775,46.4999],[3.2798,46.4997],[3.2813,46.5006],[3.2860,46.5102],[3.2899,46.5104],[3.2887,46.5098],[3.2888,46.5075],[3.2862,46.5074],[3.2854,46.5058],[3.2867,46.5047],[3.2856,46.5029],[3.2869,46.5017],[3.2846,46.5000],[3.2875,46.4992],[3.2851,46.4981],[3.2860,46.4969],[3.2798,46.4965],[3.2795,46.4977],[3.2772,46.4976],[3.2741,46.4946],[3.2808,46.4932],[3.2733,46.4927],[3.2621,46.4983],[3.2471,46.5006],[3.2451,46.5038],[3.2405,46.5062],[3.2425,46.5069],[3.2387,46.5095],[3.2362,46.5096],[3.2322,46.5128],[3.2353,46.5160],[3.2378,46.5212],[3.2380,46.5252],[3.2397,46.5282],[3.2409,46.5281],[3.2401,46.5296],[3.2361,46.5303],[3.2374,46.5312],[3.2380,46.5356],[3.2400,46.5358],[3.2409,46.5384],[3.2424,46.5389],[3.2465,46.5379],[3.2458,46.5368],[3.2476,46.5361],[3.2490,46.5366],[3.2502,46.5318],[3.2519,46.5307],[3.2530,46.5326],[3.2502,46.5369],[3.2555,46.5320],[3.2583,46.5322],[3.2634,46.5337],[3.2607,46.5361],[3.2628,46.5360],[3.2632,46.5383],[3.2680,46.5376],[3.2681,46.5393],[3.2706,46.5407],[3.2730,46.5402],[3.2737,46.5391],[3.2705,46.5357],[3.2663,46.5343],[3.2695,46.5309],[3.2648,46.5288],[3.2672,46.5270],[3.2665,46.5257],[3.2718,46.5241],[3.2718,46.5223],[3.2736,46.5207],[3.2701,46.5201],[3.2703,46.5180],[3.2733,46.5173],[3.2758,46.5204],[3.2786,46.5197],[3.2778,46.5191]]]}},{"type":"Feature","properties":{"name":"Bois Plan"},"geometry":{"type":"Polygon","coordinates":[[[3.2151,46.4951],[3.2157,46.4933],[3.2193,46.4928],[3.2185,46.4909],[3.2205,46.4881],[3.2190,46.4868],[3.2163,46.4876],[3.2159,46.4860],[3.2197,46.4851],[3.2220,46.4859],[3.2212,46.4832],[3.2265,46.4818],[3.2297,46.4835],[3.2313,46.4825],[3.2330,46.4834],[3.2336,46.4823],[3.2312,46.4815],[3.2329,46.4798],[3.2354,46.4797],[3.2320,46.4784],[3.2310,46.4750],[3.2174,46.4760],[3.2160,46.4774],[3.2117,46.4782],[3.2089,46.4809],[3.2098,46.4813],[3.2062,46.4836],[3.2033,46.4839],[3.2031,46.4861],[3.2057,46.4859],[3.2068,46.4905],[3.2089,46.4933],[3.2079,46.4938],[3.2120,46.4963],[3.2151,46.4951]]]}},{"type":"Feature","properties":{"name":"Forêt de Giverzat"},"geometry":{"type":"Polygon","coordinates":[[[3.1477,46.2786],[3.1519,46.2762],[3.1499,46.2731],[3.1517,46.2719],[3.1517,46.2731],[3.1528,46.2726],[3.1543,46.2703],[3.1582,46.2709],[3.1595,46.2704],[3.1581,46.2697],[3.1622,46.2690],[3.1667,46.2693],[3.1679,46.2709],[3.1757,46.2699],[3.1723,46.2692],[3.1721,46.2674],[3.1719,46.2683],[3.1691,46.2669],[3.1718,46.2688],[3.1658,46.2663],[3.1634,46.2677],[3.1601,46.2677],[3.1610,46.2660],[3.1691,46.2658],[3.1687,46.2621],[3.1703,46.2610],[3.1635,46.2609],[3.1675,46.2599],[3.1641,46.2570],[3.1607,46.2584],[3.1580,46.2565],[3.1534,46.2576],[3.1498,46.2556],[3.1474,46.2583],[3.1452,46.2584],[3.1427,46.2526],[3.1350,46.2515],[3.1349,46.2533],[3.1317,46.2540],[3.1353,46.2576],[3.1334,46.2600],[3.1324,46.2580],[3.1322,46.2613],[3.1306,46.2606],[3.1272,46.2628],[3.1181,46.2634],[3.1178,46.2661],[3.1149,46.2679],[3.1133,46.2672],[3.1129,46.2683],[3.1088,46.2673],[3.1092,46.2651],[3.1119,46.2647],[3.1092,46.2624],[3.1043,46.2662],[3.1033,46.2643],[3.1034,46.2685],[3.1022,46.2697],[3.1025,46.2706],[3.1034,46.2691],[3.1049,46.2698],[3.1031,46.2713],[3.1059,46.2749],[3.1092,46.2758],[3.1062,46.2728],[3.1076,46.2729],[3.1075,46.2715],[3.1095,46.2706],[3.1126,46.2711],[3.1125,46.2722],[3.1173,46.2724],[3.1199,46.2709],[3.1225,46.2717],[3.1219,46.2723],[3.1239,46.2738],[3.1221,46.2758],[3.1230,46.2752],[3.1274,46.2779],[3.1306,46.2772],[3.1303,46.2814],[3.1354,46.2787],[3.1360,46.2753],[3.1351,46.2768],[3.1372,46.2762],[3.1364,46.2796],[3.1420,46.2767],[3.1477,46.2786]]]}},{"type":"Feature","properties":{"name":"Forêt domaniale de Vacheresse"},"geometry":{"type":"Polygon","coordinates":[[[3.0985,46.3173],[3.0995,46.3147],[3.1024,46.3163],[3.1078,46.3133],[3.1089,46.3140],[3.1059,46.3087],[3.0999,46.3080],[3.0991,46.3100],[3.0967,46.3117],[3.0955,46.3110],[3.0923,46.3136],[3.0920,46.3152],[3.0887,46.3165],[3.0883,46.3149],[3.0826,46.3132],[3.0821,46.3122],[3.0843,46.3114],[3.0789,46.3089],[3.0792,46.3066],[3.0765,46.3075],[3.0755,46.3099],[3.0739,46.3105],[3.0710,46.3088],[3.0677,46.3100],[3.0687,46.3102],[3.0642,46.3145],[3.0643,46.3178],[3.0627,46.3204],[3.0689,46.3228],[3.0722,46.3222],[3.0762,46.3252],[3.0754,46.3277],[3.0832,46.3274],[3.0858,46.3294],[3.0937,46.3286],[3.0957,46.3301],[3.0975,46.3291],[3.0973,46.3269],[3.0978,46.3289],[3.0999,46.3292],[3.0978,46.3249],[3.0994,46.3214],[3.0979,46.3214],[3.0997,46.3207],[3.0985,46.3173]]]}},{"type":"Feature","properties":{"name":"Forêt de Randan"},"geometry":{"type":"Polygon","coordinates":[[[3.3645,46.0126],[3.3648,46.0140],[3.3589,46.0143],[3.3580,46.0172],[3.3565,46.0173],[3.3572,46.0156],[3.3551,46.0155],[3.3562,46.0189],[3.3602,46.0203],[3.3574,46.0205],[3.3589,46.0220],[3.3578,46.0229],[3.3593,46.0238],[3.3546,46.0238],[3.3547,46.0260],[3.3558,46.0257],[3.3545,46.0267],[3.3487,46.0246],[3.3469,46.0252],[3.3460,46.0275],[3.3400,46.0284],[3.3398,46.0300],[3.3330,46.0286],[3.3279,46.0294],[3.3263,46.0278],[3.3250,46.0291],[3.3259,46.0275],[3.3249,46.0272],[3.3279,46.0268],[3.3272,46.0250],[3.3193,46.0265],[3.3211,46.0285],[3.3247,46.0290],[3.3203,46.0290],[3.3236,46.0318],[3.3205,46.0339],[3.3188,46.0328],[3.3153,46.0354],[3.3155,46.0384],[3.3195,46.0419],[3.3264,46.0408],[3.3295,46.0386],[3.3373,46.0429],[3.3440,46.0440],[3.3462,46.0428],[3.3456,46.0417],[3.3475,46.0428],[3.3503,46.0416],[3.3509,46.0423],[3.3528,46.0400],[3.3576,46.0415],[3.3598,46.0394],[3.3628,46.0409],[3.3613,46.0388],[3.3627,46.0377],[3.3700,46.0395],[3.3713,46.0405],[3.3690,46.0405],[3.3688,46.0431],[3.3735,46.0433],[3.3745,46.0448],[3.3865,46.0438],[3.3887,46.0403],[3.3861,46.0377],[3.3884,46.0347],[3.3899,46.0352],[3.3912,46.0336],[3.3782,46.0200],[3.3913,46.0332],[3.3923,46.0321],[3.3932,46.0327],[3.3940,46.0310],[3.3949,46.0319],[3.3942,46.0335],[3.3970,46.0340],[3.4025,46.0396],[3.4048,46.0388],[3.4085,46.0399],[3.4091,46.0372],[3.4142,46.0402],[3.4155,46.0400],[3.4148,46.0388],[3.4170,46.0384],[3.4239,46.0391],[3.4251,46.0404],[3.4232,46.0367],[3.4252,46.0367],[3.4268,46.0309],[3.4306,46.0289],[3.4344,46.0298],[3.4359,46.0291],[3.4342,46.0260],[3.4327,46.0256],[3.4323,46.0271],[3.4297,46.0275],[3.4296,46.0252],[3.4330,46.0252],[3.4301,46.0243],[3.4273,46.0192],[3.4282,46.0176],[3.4301,46.0182],[3.4304,46.0197],[3.4328,46.0199],[3.4329,46.0213],[3.4430,46.0235],[3.4410,46.0215],[3.4439,46.0215],[3.4442,46.0205],[3.4413,46.0176],[3.4456,46.0178],[3.4425,46.0150],[3.4426,46.0112],[3.4383,46.0104],[3.4370,46.0079],[3.4312,46.0091],[3.4278,46.0065],[3.4274,46.0047],[3.4266,46.0055],[3.4275,46.0081],[3.4265,46.0088],[3.4275,46.0096],[3.4235,46.0106],[3.4260,46.0076],[3.4230,46.0081],[3.4216,46.0106],[3.4177,46.0097],[3.4174,46.0086],[3.4096,46.0093],[3.4085,46.0078],[3.4023,46.0097],[3.3978,46.0062],[3.3929,46.0066],[3.3933,46.0079],[3.3896,46.0099],[3.3886,46.0093],[3.3890,46.0124],[3.3819,46.0159],[3.3840,46.0171],[3.3827,46.0185],[3.3852,46.0184],[3.3846,46.0193],[3.3816,46.0197],[3.3798,46.0179],[3.3769,46.0182],[3.3746,46.0187],[3.3757,46.0202],[3.3745,46.0212],[3.3711,46.0197],[3.3712,46.0162],[3.3690,46.0165],[3.3672,46.0143],[3.3668,46.0159],[3.3665,46.0138],[3.3645,46.0126]]]}},{"type":"Feature","properties":{"name":"Forêt domaniale de Dreuille"},"geometry":{"type":"Polygon","coordinates":[[[2.8873,46.4580],[2.8854,46.4585],[2.8855,46.4602],[2.8818,46.4596],[2.8714,46.4617],[2.8690,46.4579],[2.8643,46.4594],[2.8647,46.4602],[2.8593,46.4633],[2.8595,46.4651],[2.8571,46.4668],[2.8573,46.4692],[2.8644,46.4721],[2.8607,46.4763],[2.8619,46.4766],[2.8617,46.4790],[2.8556,46.4797],[2.8568,46.4808],[2.8549,46.4838],[2.8563,46.4861],[2.8544,46.4865],[2.8622,46.4926],[2.8678,46.4906],[2.8730,46.4905],[2.8741,46.4869],[2.8772,46.4863],[2.8866,46.4887],[2.8892,46.4939],[2.8908,46.4926],[2.8948,46.4949],[2.9038,46.4941],[2.8998,46.4841],[2.8996,46.4736],[2.9008,46.4710],[2.9022,46.4714],[2.9079,46.4683],[2.9070,46.4666],[2.9080,46.4645],[2.9131,46.4659],[2.9134,46.4639],[2.9147,46.4641],[2.9176,46.4618],[2.9178,46.4601],[2.9153,46.4603],[2.9123,46.4575],[2.9141,46.4581],[2.9163,46.4567],[2.9116,46.4556],[2.9120,46.4568],[2.9074,46.4583],[2.9064,46.4570],[2.9087,46.4546],[2.9088,46.4503],[2.9037,46.4490],[2.8942,46.4521],[2.8912,46.4519],[2.8864,46.4565],[2.8873,46.4580]]]}},{"type":"Feature","properties":{"name":"Forêt domaniale des Colettes"},"geometry":{"type":"Polygon","coordinates":[[[3.0033,46.1833],[3.0042,46.1838],[3.0077,46.1810],[3.0107,46.1842],[3.0097,46.1845],[3.0098,46.1869],[3.0008,46.1898],[2.9917,46.1886],[2.9917,46.1862],[2.9886,46.1853],[2.9883,46.1863],[2.9774,46.1854],[2.9784,46.1861],[2.9773,46.1870],[2.9792,46.1866],[2.9798,46.1881],[2.9748,46.1898],[2.9754,46.1925],[2.9728,46.1935],[2.9759,46.1952],[2.9799,46.1948],[2.9804,46.1961],[2.9835,46.1973],[2.9877,46.1915],[2.9853,46.1895],[2.9876,46.1891],[2.9887,46.1910],[2.9914,46.1916],[2.9895,46.1932],[2.9914,46.1945],[2.9889,46.1952],[2.9865,46.1989],[2.9807,46.2003],[2.9828,46.2031],[2.9803,46.2044],[2.9816,46.2068],[2.9829,46.2062],[2.9838,46.2027],[2.9904,46.2005],[2.9943,46.2032],[2.9988,46.2041],[3.0007,46.2062],[2.9986,46.2066],[3.0016,46.2085],[3.0019,46.2062],[3.0050,46.2084],[3.0057,46.2115],[3.0041,46.2117],[3.0037,46.2132],[3.0059,46.2137],[3.0064,46.2156],[3.0160,46.2181],[3.0166,46.2201],[3.0213,46.2202],[3.0289,46.2257],[3.0302,46.2254],[3.0292,46.2241],[3.0196,46.2186],[3.0205,46.2158],[3.0177,46.2147],[3.0150,46.2114],[3.0136,46.2034],[3.0180,46.2020],[3.0208,46.1989],[3.0203,46.1970],[3.0247,46.1980],[3.0246,46.1998],[3.0275,46.2020],[3.0278,46.2063],[3.0208,46.2051],[3.0261,46.2144],[3.0213,46.2158],[3.0209,46.2178],[3.0239,46.2189],[3.0320,46.2175],[3.0479,46.2212],[3.0477,46.2191],[3.0569,46.2172],[3.0647,46.2199],[3.0648,46.2187],[3.0732,46.2191],[3.0700,46.2193],[3.0706,46.2206],[3.0806,46.2199],[3.0812,46.2214],[3.0837,46.2224],[3.0877,46.2231],[3.0850,46.2216],[3.0934,46.2232],[3.0944,46.2241],[3.0922,46.2245],[3.0963,46.2272],[3.0945,46.2288],[3.0915,46.2261],[3.0902,46.2268],[3.0905,46.2285],[3.0836,46.2262],[3.0785,46.2268],[3.0885,46.2277],[3.0908,46.2299],[3.0890,46.2316],[3.0863,46.2315],[3.0879,46.2318],[3.0868,46.2323],[3.0873,46.2345],[3.0912,46.2314],[3.0940,46.2326],[3.0920,46.2346],[3.0945,46.2365],[3.0970,46.2360],[3.1031,46.2375],[3.1020,46.2358],[3.1055,46.2360],[3.1089,46.2369],[3.1094,46.2388],[3.1113,46.2381],[3.1104,46.2385],[3.1098,46.2364],[3.1080,46.2356],[3.0989,46.2352],[3.0974,46.2319],[3.0992,46.2307],[3.0997,46.2273],[3.0968,46.2268],[3.0985,46.2258],[3.0976,46.2233],[3.0965,46.2271],[3.0955,46.2242],[3.0913,46.2212],[3.0856,46.2213],[3.0716,46.2178],[3.0667,46.2183],[3.0643,46.2142],[3.0568,46.2093],[3.0584,46.2080],[3.0554,46.2074],[3.0549,46.2059],[3.0512,46.2063],[3.0553,46.2087],[3.0526,46.2098],[3.0554,46.2101],[3.0554,46.2116],[3.0437,46.2084],[3.0435,46.2075],[3.0462,46.2062],[3.0507,46.2061],[3.0532,46.2033],[3.0497,46.2027],[3.0509,46.2007],[3.0454,46.2018],[3.0467,46.1966],[3.0408,46.1964],[3.0377,46.1945],[3.0349,46.1952],[3.0374,46.1970],[3.0365,46.1974],[3.0258,46.1970],[3.0256,46.1960],[3.0284,46.1953],[3.0245,46.1935],[3.0258,46.1919],[3.0297,46.1913],[3.0285,46.1885],[3.0323,46.1858],[3.0313,46.1833],[3.0259,46.1792],[3.0388,46.1786],[3.0427,46.1761],[3.0413,46.1679],[3.0464,46.1681],[3.0482,46.1661],[3.0550,46.1632],[3.0576,46.1639],[3.0612,46.1630],[3.0597,46.1615],[3.0573,46.1621],[3.0475,46.1593],[3.0490,46.1613],[3.0484,46.1623],[3.0409,46.1578],[3.0426,46.1556],[3.0495,46.1529],[3.0417,46.1521],[3.0448,46.1504],[3.0479,46.1509],[3.0476,46.1498],[3.0492,46.1489],[3.0471,46.1496],[3.0480,46.1484],[3.0542,46.1493],[3.0501,46.1471],[3.0493,46.1448],[3.0469,46.1460],[3.0452,46.1431],[3.0430,46.1432],[3.0391,46.1462],[3.0378,46.1459],[3.0390,46.1476],[3.0368,46.1483],[3.0357,46.1504],[3.0305,46.1506],[3.0275,46.1463],[3.0243,46.1463],[3.0173,46.1492],[3.0175,46.1508],[3.0146,46.1542],[3.0128,46.1545],[3.0118,46.1541],[3.0128,46.1508],[3.0090,46.1514],[3.0110,46.1485],[3.0081,46.1491],[3.0070,46.1526],[3.0083,46.1557],[3.0054,46.1548],[3.0056,46.1563],[3.0157,46.1549],[3.0210,46.1509],[3.0226,46.1531],[3.0269,46.1549],[3.0268,46.1594],[3.0199,46.1593],[3.0237,46.1634],[3.0211,46.1663],[3.0267,46.1708],[3.0224,46.1717],[3.0213,46.1734],[3.0171,46.1725],[3.0126,46.1685],[3.0099,46.1679],[3.0125,46.1701],[3.0122,46.1730],[3.0146,46.1733],[3.0122,46.1748],[3.0081,46.1758],[2.9982,46.1740],[3.0022,46.1761],[3.0011,46.1768],[3.0029,46.1786],[3.0064,46.1797],[3.0033,46.1833]]]}},{"type":"Feature","properties":{"name":"Forêt de Marcenat"},"geometry":{"type":"Polygon","coordinates":[[[3.3736,46.2703],[3.3731,46.2693],[3.3751,46.2667],[3.3770,46.2671],[3.3851,46.2625],[3.3861,46.2588],[3.3843,46.2598],[3.3809,46.2592],[3.3834,46.2581],[3.3843,46.2543],[3.3876,46.2557],[3.3899,46.2534],[3.3896,46.2508],[3.3826,46.2475],[3.3909,46.2474],[3.3896,46.2450],[3.3861,46.2447],[3.3870,46.2435],[3.3846,46.2412],[3.3860,46.2382],[3.3847,46.2378],[3.3865,46.2356],[3.3854,46.2343],[3.3909,46.2348],[3.3878,46.2329],[3.3908,46.2318],[3.3898,46.2296],[3.3932,46.2288],[3.3932,46.2278],[3.3911,46.2236],[3.3878,46.2224],[3.3843,46.2243],[3.3783,46.2245],[3.3778,46.2220],[3.3844,46.2202],[3.3828,46.2176],[3.3859,46.2159],[3.3830,46.2121],[3.3847,46.2111],[3.3824,46.2102],[3.3809,46.2076],[3.3751,46.2047],[3.3738,46.2052],[3.3738,46.2075],[3.3664,46.2065],[3.3678,46.1984],[3.3665,46.1993],[3.3626,46.1982],[3.3570,46.2014],[3.3558,46.1995],[3.3536,46.1994],[3.3522,46.1965],[3.3539,46.1967],[3.3535,46.1956],[3.3586,46.1972],[3.3589,46.1936],[3.3519,46.1943],[3.3509,46.1926],[3.3555,46.1914],[3.3553,46.1887],[3.3438,46.1917],[3.3459,46.1941],[3.3392,46.1958],[3.3412,46.1981],[3.3434,46.1973],[3.3443,46.1984],[3.3377,46.1993],[3.3379,46.2016],[3.3362,46.2023],[3.3404,46.2069],[3.3440,46.2056],[3.3417,46.2083],[3.3430,46.2094],[3.3454,46.2062],[3.3465,46.2106],[3.3495,46.2118],[3.3445,46.2140],[3.3446,46.2153],[3.3464,46.2164],[3.3499,46.2134],[3.3562,46.2196],[3.3547,46.2238],[3.3575,46.2238],[3.3598,46.2257],[3.3596,46.2269],[3.3653,46.2271],[3.3689,46.2315],[3.3685,46.2325],[3.3647,46.2322],[3.3635,46.2315],[3.3644,46.2308],[3.3621,46.2296],[3.3593,46.2304],[3.3605,46.2283],[3.3491,46.2284],[3.3480,46.2358],[3.3543,46.2354],[3.3525,46.2378],[3.3542,46.2383],[3.3532,46.2413],[3.3555,46.2437],[3.3540,46.2443],[3.3560,46.2465],[3.3547,46.2478],[3.3492,46.2467],[3.3464,46.2491],[3.3477,46.2506],[3.3415,46.2516],[3.3411,46.2547],[3.3437,46.2571],[3.3451,46.2567],[3.3480,46.2582],[3.3576,46.2566],[3.3567,46.2597],[3.3610,46.2626],[3.3619,46.2602],[3.3655,46.2571],[3.3648,46.2563],[3.3629,46.2583],[3.3616,46.2578],[3.3622,46.2551],[3.3667,46.2535],[3.3664,46.2614],[3.3683,46.2626],[3.3699,46.2619],[3.3695,46.2646],[3.3717,46.2654],[3.3707,46.2666],[3.3639,46.2659],[3.3629,46.2664],[3.3647,46.2686],[3.3628,46.2693],[3.3640,46.2707],[3.3708,46.2715],[3.3736,46.2703]]]}},{"type":"Feature","properties":{"name":"Bois de Leyde"},"geometry":{"type":"Polygon","coordinates":[[[3.4424,46.5046],[3.4359,46.5049],[3.4301,46.5025],[3.4289,46.5037],[3.4261,46.5011],[3.4237,46.5016],[3.4233,46.5029],[3.4195,46.5021],[3.4167,46.4994],[3.4174,46.4974],[3.4162,46.4995],[3.4178,46.5003],[3.4171,46.5015],[3.4153,46.5010],[3.4163,46.5001],[3.4152,46.4997],[3.4150,46.5008],[3.4087,46.4995],[3.4098,46.4987],[3.4073,46.4993],[3.4089,46.5009],[3.4320,46.5052],[3.4576,46.5117],[3.4570,46.5102],[3.4582,46.5100],[3.4585,46.5079],[3.4650,46.5078],[3.4645,46.5056],[3.4660,46.5047],[3.4684,46.5062],[3.4675,46.5079],[3.4744,46.5075],[3.4770,46.5063],[3.4758,46.5056],[3.4771,46.5024],[3.4739,46.5015],[3.4725,46.5022],[3.4734,46.5031],[3.4679,46.5016],[3.4649,46.4993],[3.4660,46.4983],[3.4647,46.4968],[3.4677,46.4975],[3.4659,46.4959],[3.4713,46.4940],[3.4727,46.4970],[3.4754,46.4965],[3.4809,46.4924],[3.4853,46.4930],[3.4862,46.4918],[3.4867,46.4901],[3.4854,46.4880],[3.4792,46.4870],[3.4809,46.4831],[3.4773,46.4833],[3.4786,46.4803],[3.4754,46.4782],[3.4784,46.4790],[3.4799,46.4776],[3.4795,46.4759],[3.4813,46.4760],[3.4833,46.4791],[3.4845,46.4787],[3.4861,46.4805],[3.4906,46.4788],[3.4894,46.4769],[3.4948,46.4781],[3.5026,46.4771],[3.5049,46.4789],[3.5068,46.4767],[3.4969,46.4719],[3.4969,46.4685],[3.5006,46.4673],[3.4986,46.4648],[3.4959,46.4655],[3.4939,46.4685],[3.4880,46.4667],[3.4928,46.4627],[3.4940,46.4599],[3.4928,46.4599],[3.4909,46.4541],[3.4814,46.4540],[3.4805,46.4594],[3.4732,46.4595],[3.4730,46.4614],[3.4702,46.4619],[3.4712,46.4641],[3.4701,46.4641],[3.4720,46.4654],[3.4645,46.4655],[3.4644,46.4691],[3.4619,46.4707],[3.4555,46.4690],[3.4542,46.4709],[3.4514,46.4707],[3.4507,46.4720],[3.4471,46.4714],[3.4457,46.4729],[3.4482,46.4746],[3.4536,46.4754],[3.4528,46.4785],[3.4549,46.4791],[3.4491,46.4808],[3.4502,46.4824],[3.4530,46.4822],[3.4548,46.4847],[3.4502,46.4847],[3.4494,46.4862],[3.4428,46.4871],[3.4465,46.4853],[3.4456,46.4823],[3.4436,46.4831],[3.4425,46.4871],[3.4377,46.4876],[3.4383,46.4895],[3.4398,46.4892],[3.4413,46.4910],[3.4441,46.4903],[3.4443,46.4892],[3.4496,46.4914],[3.4489,46.4945],[3.4509,46.4960],[3.4499,46.4976],[3.4437,46.4949],[3.4436,46.4966],[3.4424,46.4967],[3.4431,46.4986],[3.4410,46.4980],[3.4406,46.5000],[3.4423,46.5009],[3.4430,46.5036],[3.4424,46.5046]]]}},{"type":"Feature","properties":{"name":"Bois de Charmeil"},"geometry":{"type":"Polygon","coordinates":[[[3.3579,46.1362],[3.3627,46.1314],[3.3636,46.1260],[3.3656,46.1263],[3.3650,46.1275],[3.3684,46.1270],[3.3687,46.1286],[3.3702,46.1276],[3.3743,46.1289],[3.3806,46.1283],[3.3830,46.1323],[3.3851,46.1400],[3.3836,46.1411],[3.3847,46.1417],[3.3843,46.1438],[3.3829,46.1457],[3.3843,46.1488],[3.3832,46.1502],[3.3814,46.1498],[3.3839,46.1519],[3.3771,46.1505],[3.3767,46.1525],[3.3816,46.1527],[3.3815,46.1535],[3.3735,46.1550],[3.3717,46.1510],[3.3686,46.1514],[3.3629,46.1493],[3.3636,46.1481],[3.3616,46.1474],[3.3636,46.1471],[3.3638,46.1459],[3.3612,46.1471],[3.3590,46.1456],[3.3601,46.1441],[3.3625,46.1448],[3.3634,46.1433],[3.3619,46.1421],[3.3684,46.1452],[3.3694,46.1433],[3.3579,46.1362]]]}},{"type":"Feature","properties":{"name":"Forêt de la Boucharde"},"geometry":{"type":"Polygon","coordinates":[[[3.3795,46.0773],[3.3834,46.0761],[3.3834,46.0743],[3.3846,46.0757],[3.3901,46.0759],[3.3956,46.0779],[3.3978,46.0775],[3.3989,46.0755],[3.3947,46.0727],[3.3948,46.0707],[3.3939,46.0705],[3.3947,46.0687],[3.3877,46.0664],[3.3839,46.0673],[3.3826,46.0659],[3.3840,46.0647],[3.3921,46.0641],[3.3902,46.0640],[3.3858,46.0578],[3.3850,46.0496],[3.3865,46.0484],[3.3828,46.0492],[3.3805,46.0469],[3.3810,46.0455],[3.3745,46.0449],[3.3720,46.0478],[3.3676,46.0491],[3.3664,46.0507],[3.3667,46.0545],[3.3714,46.0618],[3.3696,46.0626],[3.3718,46.0623],[3.3740,46.0646],[3.3727,46.0657],[3.3753,46.0658],[3.3760,46.0677],[3.3762,46.0688],[3.3749,46.0688],[3.3721,46.0722],[3.3750,46.0731],[3.3778,46.0719],[3.3748,46.0743],[3.3765,46.0733],[3.3799,46.0763],[3.3771,46.0779],[3.3756,46.0766],[3.3755,46.0778],[3.3795,46.0773]]]}},{"type":"Feature","properties":{"name":"Forêt de Château-Charles"},"geometry":{"type":"Polygon","coordinates":[[[2.9439,46.2773],[2.9335,46.2761],[2.9289,46.2776],[2.9378,46.2816],[2.9478,46.2825],[2.9463,46.2852],[2.9465,46.2881],[2.9504,46.2904],[2.9500,46.2913],[2.9428,46.2896],[2.9402,46.2904],[2.9413,46.2926],[2.9478,46.2953],[2.9477,46.2973],[2.9500,46.3012],[2.9565,46.3020],[2.9589,46.2996],[2.9632,46.3020],[2.9717,46.2942],[2.9729,46.2897],[2.9654,46.2861],[2.9639,46.2830],[2.9555,46.2830],[2.9561,46.2802],[2.9516,46.2802],[2.9439,46.2773]]]}},{"type":"Feature","properties":{"name":"Forêt de Lespinasse"},"geometry":{"type":"Polygon","coordinates":[[[3.9794,46.1500],[3.9752,46.1489],[3.9763,46.1465],[3.9784,46.1482],[3.9798,46.1476],[3.9744,46.1451],[3.9760,46.1461],[3.9744,46.1481],[3.9706,46.1496],[3.9690,46.1530],[3.9668,46.1519],[3.9638,46.1530],[3.9624,46.1560],[3.9597,46.1571],[3.9602,46.1592],[3.9529,46.1568],[3.9524,46.1593],[3.9492,46.1590],[3.9484,46.1606],[3.9459,46.1608],[3.9464,46.1637],[3.9513,46.1684],[3.9538,46.1693],[3.9528,46.1694],[3.9560,46.1687],[3.9573,46.1654],[3.9600,46.1677],[3.9591,46.1704],[3.9613,46.1686],[3.9641,46.1689],[3.9661,46.1718],[3.9711,46.1696],[3.9717,46.1705],[3.9698,46.1719],[3.9730,46.1739],[3.9751,46.1729],[3.9771,46.1747],[3.9801,46.1707],[3.9823,46.1711],[3.9818,46.1719],[3.9838,46.1712],[3.9828,46.1718],[3.9839,46.1735],[3.9821,46.1761],[3.9837,46.1762],[3.9835,46.1745],[3.9863,46.1714],[3.9850,46.1713],[3.9880,46.1693],[3.9883,46.1704],[3.9900,46.1691],[3.9913,46.1703],[3.9905,46.1684],[3.9872,46.1673],[3.9884,46.1666],[3.9889,46.1637],[3.9863,46.1652],[3.9839,46.1647],[3.9837,46.1634],[3.9887,46.1618],[3.9908,46.1638],[3.9919,46.1626],[3.9940,46.1639],[3.9947,46.1630],[3.9927,46.1611],[3.9911,46.1614],[3.9911,46.1595],[3.9887,46.1584],[3.9857,46.1618],[3.9792,46.1610],[3.9811,46.1609],[3.9817,46.1593],[3.9836,46.1600],[3.9872,46.1574],[3.9868,46.1551],[3.9892,46.1551],[3.9883,46.1543],[3.9933,46.1517],[3.9894,46.1493],[3.9869,46.1508],[3.9868,46.1490],[3.9851,46.1509],[3.9857,46.1527],[3.9841,46.1568],[3.9847,46.1537],[3.9826,46.1532],[3.9840,46.1511],[3.9833,46.1500],[3.9811,46.1502],[3.9826,46.1534],[3.9828,46.1566],[3.9816,46.1578],[3.9770,46.1568],[3.9775,46.1556],[3.9763,46.1555],[3.9773,46.1517],[3.9794,46.1500]]]}},{"type":"Feature","properties":{"name":"Forêt de Montpensier"},"geometry":{"type":"Polygon","coordinates":[[[3.3786,46.1194],[3.3811,46.1177],[3.3804,46.1166],[3.3818,46.1154],[3.3868,46.1162],[3.3845,46.1152],[3.3853,46.1132],[3.3826,46.1134],[3.3740,46.1098],[3.3715,46.1063],[3.3791,46.1086],[3.3793,46.1108],[3.3831,46.1096],[3.3811,46.1080],[3.3690,46.1053],[3.3701,46.1038],[3.3655,46.1015],[3.3611,46.1028],[3.3581,46.1001],[3.3510,46.0991],[3.3513,46.0982],[3.3476,46.0960],[3.3488,46.0955],[3.3530,46.0984],[3.3540,46.0965],[3.3524,46.0913],[3.3539,46.0901],[3.3566,46.0916],[3.3675,46.0914],[3.3638,46.0883],[3.3596,46.0895],[3.3570,46.0882],[3.3575,46.0846],[3.3598,46.0825],[3.3566,46.0807],[3.3593,46.0795],[3.3522,46.0774],[3.3409,46.0790],[3.3406,46.0776],[3.3461,46.0759],[3.3455,46.0739],[3.3433,46.0738],[3.3430,46.0752],[3.3422,46.0743],[3.3410,46.0760],[3.3380,46.0759],[3.3376,46.0779],[3.3286,46.0754],[3.3267,46.0724],[3.3245,46.0715],[3.3191,46.0594],[3.3199,46.0573],[3.3136,46.0566],[3.3060,46.0539],[3.3050,46.0573],[3.3036,46.0576],[3.3052,46.0575],[3.3062,46.0609],[3.2964,46.0613],[3.2930,46.0583],[3.2897,46.0591],[3.2890,46.0606],[3.2901,46.0614],[3.2894,46.0626],[3.2902,46.0645],[3.2912,46.0641],[3.2905,46.0631],[3.2934,46.0625],[3.3030,46.0692],[3.3038,46.0684],[3.3256,46.0748],[3.3247,46.0765],[3.3221,46.0749],[3.3167,46.0758],[3.3165,46.0784],[3.3180,46.0807],[3.3258,46.0816],[3.3287,46.0801],[3.3293,46.0817],[3.3316,46.0817],[3.3312,46.0837],[3.3296,46.0828],[3.3295,46.0840],[3.3356,46.0835],[3.3384,46.0845],[3.3340,46.0861],[3.3371,46.0884],[3.3352,46.0898],[3.3351,46.0908],[3.3362,46.0909],[3.3340,46.0947],[3.3366,46.0970],[3.3388,46.0968],[3.3394,46.1023],[3.3417,46.1010],[3.3469,46.1028],[3.3539,46.1111],[3.3591,46.1137],[3.3650,46.1132],[3.3661,46.1157],[3.3673,46.1153],[3.3712,46.1201],[3.3748,46.1220],[3.3725,46.1222],[3.3700,46.1201],[3.3716,46.1219],[3.3693,46.1222],[3.3740,46.1224],[3.3759,46.1243],[3.3732,46.1251],[3.3718,46.1225],[3.3711,46.1243],[3.3685,46.1234],[3.3743,46.1254],[3.3799,46.1252],[3.3813,46.1257],[3.3814,46.1270],[3.3823,46.1257],[3.3826,46.1278],[3.3859,46.1258],[3.3845,46.1253],[3.3847,46.1236],[3.3889,46.1242],[3.3861,46.1231],[3.3928,46.1244],[3.3893,46.1234],[3.3890,46.1204],[3.3853,46.1166],[3.3839,46.1166],[3.3860,46.1183],[3.3844,46.1194],[3.3803,46.1187],[3.3814,46.1201],[3.3804,46.1203],[3.3786,46.1194]]]}},{"type":"Feature","properties":{"name":"Forêt domaniale des Prieurés de Grosbois"},"geometry":{"type":"Polygon","coordinates":[[[2.9628,46.4914],[2.9568,46.4929],[2.9565,46.4949],[2.9589,46.4968],[2.9543,46.4981],[2.9552,46.5002],[2.9534,46.5014],[2.9449,46.5005],[2.9394,46.5019],[2.9372,46.5001],[2.9389,46.4994],[2.9394,46.5004],[2.9380,46.4969],[2.9387,46.4956],[2.9373,46.4942],[2.9379,46.4908],[2.9323,46.4918],[2.9328,46.4900],[2.9272,46.4892],[2.9267,46.4874],[2.9223,46.4914],[2.9274,46.4956],[2.9232,46.4967],[2.9245,46.4997],[2.9417,46.5031],[2.9400,46.5081],[2.9515,46.5062],[2.9506,46.5057],[2.9551,46.5067],[2.9550,46.5083],[2.9521,46.5100],[2.9553,46.5116],[2.9617,46.5078],[2.9651,46.5076],[2.9643,46.5099],[2.9664,46.5105],[2.9684,46.5091],[2.9654,46.5085],[2.9671,46.5069],[2.9703,46.5090],[2.9757,46.5063],[2.9771,46.5066],[2.9767,46.5091],[2.9779,46.5086],[2.9799,46.5114],[2.9829,46.5088],[2.9816,46.5050],[2.9862,46.5110],[2.9926,46.5121],[2.9917,46.5148],[2.9929,46.5121],[2.9951,46.5122],[2.9937,46.5117],[2.9946,46.5091],[2.9999,46.5066],[2.9998,46.5050],[3.0058,46.5059],[3.0044,46.5081],[3.0084,46.5104],[3.0054,46.5127],[3.0174,46.5124],[3.0185,46.5175],[3.0208,46.5166],[3.0226,46.5188],[3.0213,46.5192],[3.0220,46.5252],[3.0199,46.5256],[3.0192,46.5285],[3.0236,46.5259],[3.0260,46.5265],[3.0271,46.5284],[3.0299,46.5287],[3.0289,46.5323],[3.0357,46.5336],[3.0355,46.5351],[3.0396,46.5383],[3.0388,46.5402],[3.0354,46.5403],[3.0295,46.5357],[3.0269,46.5358],[3.0273,46.5390],[3.0262,46.5397],[3.0274,46.5404],[3.0245,46.5425],[3.0324,46.5460],[3.0325,46.5471],[3.0355,46.5475],[3.0362,46.5449],[3.0441,46.5491],[3.0505,46.5482],[3.0520,46.5492],[3.0508,46.5518],[3.0448,46.5506],[3.0440,46.5514],[3.0452,46.5519],[3.0430,46.5532],[3.0441,46.5552],[3.0449,46.5539],[3.0479,46.5547],[3.0477,46.5518],[3.0678,46.5575],[3.0701,46.5536],[3.0727,46.5538],[3.0628,46.5480],[3.0672,46.5488],[3.0677,46.5469],[3.0691,46.5498],[3.0742,46.5534],[3.0778,46.5488],[3.0841,46.5507],[3.0860,46.5528],[3.0872,46.5523],[3.0877,46.5509],[3.0862,46.5494],[3.0894,46.5463],[3.0857,46.5462],[3.0848,46.5439],[3.0855,46.5420],[3.0763,46.5421],[3.0821,46.5384],[3.0816,46.5364],[3.0856,46.5350],[3.0862,46.5325],[3.0841,46.5309],[3.0757,46.5319],[3.0731,46.5304],[3.0694,46.5332],[3.0627,46.5430],[3.0583,46.5436],[3.0571,46.5421],[3.0571,46.5405],[3.0622,46.5408],[3.0586,46.5350],[3.0701,46.5300],[3.0679,46.5279],[3.0679,46.5261],[3.0646,46.5266],[3.0624,46.5234],[3.0659,46.5174],[3.0556,46.5159],[3.0547,46.5180],[3.0523,46.5171],[3.0499,46.5207],[3.0499,46.5195],[3.0489,46.5201],[3.0494,46.5227],[3.0429,46.5210],[3.0365,46.5172],[3.0333,46.5133],[3.0340,46.5114],[3.0309,46.5093],[3.0304,46.5081],[3.0329,46.5068],[3.0313,46.5061],[3.0289,46.5072],[3.0254,46.5042],[3.0154,46.5039],[3.0157,46.5027],[3.0089,46.5000],[3.0008,46.4983],[3.0004,46.5023],[2.9977,46.5022],[2.9959,46.5011],[2.9969,46.4992],[2.9916,46.4987],[2.9911,46.4969],[2.9895,46.4971],[2.9893,46.4993],[2.9861,46.4980],[2.9739,46.5011],[2.9735,46.4990],[2.9650,46.4953],[2.9621,46.4968],[2.9604,46.4965],[2.9618,46.4954],[2.9577,46.4953],[2.9629,46.4947],[2.9628,46.4914]]]}},{"type":"Feature","properties":{"name":"Forêt domaniale de Messarges"},"geometry":{"type":"Polygon","coordinates":[[[3.1524,46.5061],[3.1509,46.5045],[3.1488,46.5066],[3.1454,46.5049],[3.1468,46.5046],[3.1307,46.4999],[3.1256,46.5019],[3.1215,46.5021],[3.1217,46.5008],[3.1180,46.5005],[3.1180,46.5016],[3.1148,46.5025],[3.1117,46.5055],[3.1082,46.5057],[3.1096,46.5062],[3.1080,46.5075],[3.1065,46.5065],[3.1026,46.5067],[3.1014,46.5096],[3.1031,46.5093],[3.0999,46.5161],[3.1033,46.5174],[3.1047,46.5194],[3.1033,46.5204],[3.1033,46.5224],[3.1085,46.5208],[3.1106,46.5179],[3.1129,46.5186],[3.1097,46.5243],[3.1046,46.5234],[3.1048,46.5273],[3.1079,46.5290],[3.1093,46.5277],[3.1144,46.5271],[3.1151,46.5280],[3.1161,46.5276],[3.1146,46.5260],[3.1155,46.5255],[3.1166,46.5267],[3.1190,46.5260],[3.1197,46.5278],[3.1228,46.5286],[3.1244,46.5256],[3.1222,46.5240],[3.1241,46.5231],[3.1216,46.5227],[3.1230,46.5210],[3.1246,46.5212],[3.1237,46.5201],[3.1264,46.5210],[3.1307,46.5194],[3.1401,46.5214],[3.1449,46.5187],[3.1491,46.5131],[3.1557,46.5131],[3.1568,46.5113],[3.1544,46.5096],[3.1565,46.5084],[3.1530,46.5075],[3.1524,46.5061]]]}},{"type":"Feature","properties":{"name":"Grand Bois de Serre"},"geometry":{"type":"Polygon","coordinates":[[[3.7523,46.6598],[3.7535,46.6577],[3.7493,46.6538],[3.7470,46.6537],[3.7463,46.6508],[3.7409,46.6474],[3.7397,46.6473],[3.7416,46.6484],[3.7379,46.6473],[3.7391,46.6492],[3.7376,46.6504],[3.7389,46.6519],[3.7372,46.6525],[3.7392,46.6530],[3.7378,46.6591],[3.7413,46.6610],[3.7387,46.6637],[3.7458,46.6666],[3.7407,46.6718],[3.7414,46.6730],[3.7456,46.6715],[3.7477,46.6693],[3.7548,46.6681],[3.7543,46.6668],[3.7583,46.6654],[3.7562,46.6620],[3.7582,46.6608],[3.7566,46.6597],[3.7536,46.6621],[3.7537,46.6635],[3.7505,46.6636],[3.7515,46.6633],[3.7514,46.6653],[3.7499,46.6638],[3.7507,46.6630],[3.7473,46.6607],[3.7497,46.6582],[3.7523,46.6598]]]}},{"type":"Feature","properties":{"name":"Forêt de Tronçais"},"geometry":{"type":"Polygon","coordinates":[[[2.6262,46.6146],[2.6256,46.6154],[2.6288,46.6168],[2.6268,46.6164],[2.6274,46.6172],[2.6261,46.6182],[2.6256,46.6169],[2.6259,46.6190],[2.6241,46.6198],[2.6262,46.6210],[2.6197,46.6208],[2.6184,46.6226],[2.6197,46.6226],[2.6195,46.6241],[2.6208,46.6248],[2.6266,46.6259],[2.6271,46.6308],[2.6126,46.6321],[2.6222,46.6383],[2.6253,46.6424],[2.6280,46.6426],[2.6311,46.6465],[2.6375,46.6498],[2.6392,46.6484],[2.6438,46.6493],[2.6444,46.6433],[2.6455,46.6424],[2.6555,46.6408],[2.6585,46.6415],[2.6557,46.6465],[2.6568,46.6474],[2.6614,46.6447],[2.6634,46.6447],[2.6631,46.6471],[2.6639,46.6468],[2.6643,46.6433],[2.6724,46.6456],[2.6777,46.6245],[2.6701,46.6266],[2.6677,46.6221],[2.6672,46.6253],[2.6585,46.6257],[2.6585,46.6232],[2.6520,46.6218],[2.6517,46.6236],[2.6505,46.6236],[2.6494,46.6210],[2.6346,46.6200],[2.6366,46.6212],[2.6355,46.6228],[2.6367,46.6233],[2.6373,46.6259],[2.6394,46.6265],[2.6395,46.6291],[2.6364,46.6320],[2.6347,46.6261],[2.6292,46.6166],[2.6302,46.6153],[2.6285,46.6160],[2.6262,46.6146]]]}},{"type":"Feature","properties":{"name":"Bois de Bussière"},"geometry":{"type":"Polygon","coordinates":[[[2.5350,46.5342],[2.5358,46.5337],[2.5328,46.5319],[2.5373,46.5326],[2.5369,46.5317],[2.5293,46.5320],[2.5303,46.5300],[2.5327,46.5303],[2.5343,46.5278],[2.5331,46.5291],[2.5322,46.5275],[2.5346,46.5265],[2.5335,46.5251],[2.5296,46.5246],[2.5303,46.5216],[2.5290,46.5204],[2.5245,46.5192],[2.5255,46.5220],[2.5232,46.5231],[2.5218,46.5220],[2.5237,46.5169],[2.5213,46.5180],[2.5193,46.5173],[2.5193,46.5162],[2.5181,46.5181],[2.5153,46.5171],[2.5172,46.5135],[2.5152,46.5151],[2.5162,46.5141],[2.5151,46.5143],[2.5142,46.5125],[2.5128,46.5132],[2.5146,46.5143],[2.5139,46.5166],[2.5118,46.5152],[2.5106,46.5166],[2.5067,46.5124],[2.5033,46.5112],[2.5051,46.5096],[2.5024,46.5102],[2.5015,46.5076],[2.5024,46.5074],[2.5012,46.5069],[2.5038,46.5070],[2.5031,46.5059],[2.5007,46.5067],[2.5000,46.5055],[2.4975,46.5063],[2.4974,46.5075],[2.5009,46.5119],[2.4995,46.5130],[2.5070,46.5147],[2.5050,46.5169],[2.5076,46.5183],[2.5063,46.5196],[2.5033,46.5180],[2.5033,46.5194],[2.5052,46.5205],[2.5047,46.5222],[2.4978,46.5206],[2.4979,46.5187],[2.4966,46.5202],[2.4922,46.5193],[2.4906,46.5203],[2.4880,46.5194],[2.4883,46.5169],[2.4876,46.5187],[2.4862,46.5187],[2.4835,46.5167],[2.4829,46.5178],[2.4762,46.5147],[2.4750,46.5152],[2.4763,46.5176],[2.4807,46.5182],[2.4821,46.5188],[2.4818,46.5198],[2.4893,46.5202],[2.4876,46.5221],[2.4934,46.5220],[2.4950,46.5208],[2.4959,46.5236],[2.4982,46.5237],[2.4988,46.5222],[2.5026,46.5220],[2.5024,46.5237],[2.5046,46.5236],[2.5046,46.5247],[2.5063,46.5245],[2.5056,46.5223],[2.5077,46.5245],[2.5105,46.5249],[2.5074,46.5222],[2.5152,46.5220],[2.5145,46.5207],[2.5195,46.5227],[2.5192,46.5195],[2.5210,46.5202],[2.5202,46.5226],[2.5224,46.5238],[2.5223,46.5249],[2.5256,46.5251],[2.5274,46.5268],[2.5171,46.5233],[2.5179,46.5273],[2.5194,46.5253],[2.5211,46.5273],[2.5240,46.5270],[2.5263,46.5281],[2.5253,46.5291],[2.5285,46.5296],[2.5269,46.5332],[2.5317,46.5328],[2.5350,46.5342]]]}},{"type":"Feature","properties":{"name":"Bois de Sugère et Lombost"},"geometry":{"type":"Polygon","coordinates":[[[2.3877,46.3929],[2.3940,46.3924],[2.3910,46.3918],[2.3914,46.3908],[2.3890,46.3896],[2.3917,46.3865],[2.3900,46.3838],[2.3845,46.3805],[2.3808,46.3799],[2.3811,46.3784],[2.3790,46.3787],[2.3792,46.3800],[2.3766,46.3798],[2.3749,46.3825],[2.3699,46.3826],[2.3673,46.3815],[2.3688,46.3799],[2.3662,46.3780],[2.3663,46.3734],[2.3642,46.3725],[2.3646,46.3744],[2.3615,46.3737],[2.3629,46.3721],[2.3595,46.3721],[2.3591,46.3683],[2.3565,46.3682],[2.3556,46.3706],[2.3515,46.3722],[2.3365,46.3693],[2.3357,46.3718],[2.3401,46.3733],[2.3370,46.3731],[2.3482,46.3774],[2.3530,46.3753],[2.3541,46.3782],[2.3598,46.3792],[2.3657,46.3859],[2.3736,46.3855],[2.3769,46.3831],[2.3811,46.3849],[2.3800,46.3866],[2.3815,46.3881],[2.3833,46.3878],[2.3824,46.3892],[2.3837,46.3905],[2.3821,46.3911],[2.3802,46.3906],[2.3803,46.3888],[2.3759,46.3862],[2.3794,46.3910],[2.3877,46.3929]]]}},{"type":"Feature","properties":{"name":"Bois de l\u0027Abbaye"},"geometry":{"type":"Polygon","coordinates":[[[2.2915,46.5012],[2.2937,46.5021],[2.2925,46.5009],[2.3029,46.4959],[2.3046,46.4992],[2.3041,46.5010],[2.3052,46.5012],[2.3061,46.4992],[2.3049,46.4962],[2.3059,46.4954],[2.3082,46.4979],[2.3128,46.4977],[2.3111,46.4995],[2.3127,46.4991],[2.3108,46.5022],[2.3146,46.4971],[2.3074,46.4960],[2.3130,46.4956],[2.3131,46.4922],[2.3120,46.4924],[2.3120,46.4947],[2.3078,46.4946],[2.3053,46.4930],[2.3059,46.4914],[2.3082,46.4910],[2.3091,46.4887],[2.3030,46.4864],[2.3014,46.4878],[2.2995,46.4873],[2.3000,46.4854],[2.3018,46.4852],[2.3011,46.4833],[2.3021,46.4831],[2.2996,46.4820],[2.3002,46.4780],[2.2984,46.4792],[2.2926,46.4760],[2.2906,46.4742],[2.2913,46.4732],[2.2898,46.4737],[2.2909,46.4729],[2.2884,46.4707],[2.2867,46.4707],[2.2860,46.4719],[2.2904,46.4752],[2.2905,46.4775],[2.2960,46.4800],[2.2940,46.4809],[2.2984,46.4813],[2.2972,46.4846],[2.2900,46.4847],[2.2865,46.4862],[2.2928,46.4862],[2.2928,46.4887],[2.2916,46.4893],[2.2929,46.4891],[2.2917,46.4901],[2.2922,46.4939],[2.2921,46.4905],[2.2938,46.4890],[2.2945,46.4860],[2.2962,46.4868],[2.2971,46.4875],[2.2953,46.4907],[2.2963,46.4929],[2.2994,46.4927],[2.3011,46.4949],[2.2924,46.4939],[2.2927,46.4986],[2.2911,46.4977],[2.2916,46.4988],[2.2876,46.4994],[2.2851,46.5022],[2.2915,46.5012]]]}},{"type":"Feature","properties":{"name":"Bois d\u0027Audes"},"geometry":{"type":"Polygon","coordinates":[[[2.5686,46.4556],[2.5711,46.4546],[2.5708,46.4506],[2.5795,46.4485],[2.5791,46.4477],[2.5821,46.4457],[2.5709,46.4420],[2.5671,46.4391],[2.5619,46.4447],[2.5587,46.4428],[2.5593,46.4394],[2.5548,46.4402],[2.5539,46.4394],[2.5485,46.4401],[2.5459,46.4425],[2.5489,46.4427],[2.5481,46.4450],[2.5416,46.4451],[2.5396,46.4480],[2.5519,46.4517],[2.5585,46.4511],[2.5686,46.4556]]]}},{"type":"Feature","properties":{"name":"Forêt domaniale de la Suave"},"geometry":{"type":"Polygon","coordinates":[[[2.7963,46.4172],[2.7972,46.4133],[2.8027,46.4123],[2.7981,46.4086],[2.7945,46.4078],[2.7928,46.4009],[2.7932,46.3995],[2.7947,46.3995],[2.7908,46.3963],[2.7949,46.3979],[2.8018,46.3959],[2.7992,46.3922],[2.7979,46.3911],[2.7946,46.3924],[2.7954,46.3946],[2.7915,46.3963],[2.7863,46.3929],[2.7782,46.3960],[2.7732,46.3940],[2.7746,46.3964],[2.7714,46.4005],[2.7775,46.4046],[2.7786,46.4081],[2.7864,46.4085],[2.7890,46.4162],[2.7963,46.4172]]]}},{"type":"Feature","properties":{"name":"Forêt de Tronçais"},"geometry":{"type":"Polygon","coordinates":[[[2.8704,46.6489],[2.8557,46.6428],[2.8551,46.6464],[2.8518,46.6485],[2.8435,46.6470],[2.8423,46.6456],[2.8436,46.6442],[2.8365,46.6414],[2.8320,46.6421],[2.8303,46.6410],[2.8321,46.6390],[2.8260,46.6381],[2.8189,46.6426],[2.8177,46.6452],[2.8167,46.6435],[2.8167,46.6447],[2.8149,46.6448],[2.8165,46.6493],[2.8147,46.6509],[2.8129,46.6501],[2.8114,46.6533],[2.8204,46.6551],[2.8205,46.6628],[2.8225,46.6635],[2.8198,46.6677],[2.8229,46.6691],[2.8259,46.6664],[2.8240,46.6657],[2.8277,46.6612],[2.8349,46.6633],[2.8326,46.6665],[2.8348,46.6675],[2.8316,46.6718],[2.8232,46.6700],[2.8223,46.6741],[2.8153,46.6773],[2.8085,46.6720],[2.8145,46.6638],[2.8141,46.6618],[2.8073,46.6623],[2.8061,46.6673],[2.7998,46.6751],[2.8062,46.6753],[2.8030,46.6788],[2.8011,46.6788],[2.8016,46.6800],[2.7980,46.6832],[2.8001,46.6842],[2.8068,46.6831],[2.8082,46.6848],[2.8104,46.6833],[2.8180,46.6841],[2.8201,46.6908],[2.8176,46.6935],[2.8185,46.6948],[2.8145,46.6968],[2.8104,46.6968],[2.8100,46.6995],[2.8150,46.6996],[2.8236,46.7024],[2.8239,46.7014],[2.8253,46.7018],[2.8248,46.7030],[2.8274,46.7047],[2.8360,46.7018],[2.8370,46.7004],[2.8388,46.7008],[2.8454,46.6961],[2.8462,46.6912],[2.8495,46.6854],[2.8535,46.6832],[2.8541,46.6814],[2.8531,46.6812],[2.8537,46.6802],[2.8401,46.6754],[2.8430,46.6708],[2.8506,46.6735],[2.8555,46.6710],[2.8555,46.6677],[2.8503,46.6669],[2.8499,46.6655],[2.8462,46.6657],[2.8435,46.6618],[2.8458,46.6598],[2.8523,46.6598],[2.8547,46.6565],[2.8503,46.6561],[2.8507,46.6551],[2.8477,46.6552],[2.8446,46.6541],[2.8446,46.6531],[2.8497,46.6522],[2.8509,46.6503],[2.8537,46.6497],[2.8617,46.6509],[2.8610,46.6484],[2.8628,46.6482],[2.8664,46.6513],[2.8708,46.6496],[2.8704,46.6489]]]}},{"type":"Feature","properties":{"name":"Forêt domaniale de Lespinasse"},"geometry":{"type":"Polygon","coordinates":[[[2.7425,46.4537],[2.7465,46.4529],[2.7519,46.4492],[2.7468,46.4486],[2.7445,46.4497],[2.7419,46.4484],[2.7427,46.4475],[2.7395,46.4457],[2.7442,46.4422],[2.7476,46.4434],[2.7443,46.4461],[2.7440,46.4474],[2.7457,46.4482],[2.7518,46.4432],[2.7532,46.4456],[2.7553,46.4459],[2.7562,46.4459],[2.7567,46.4426],[2.7592,46.4433],[2.7603,46.4414],[2.7655,46.4442],[2.7694,46.4426],[2.7692,46.4412],[2.7663,46.4421],[2.7615,46.4386],[2.7579,46.4377],[2.7582,46.4356],[2.7621,46.4352],[2.7647,46.4334],[2.7635,46.4314],[2.7592,46.4293],[2.7546,46.4320],[2.7510,46.4280],[2.7447,46.4321],[2.7381,46.4268],[2.7379,46.4304],[2.7331,46.4314],[2.7359,46.4362],[2.7353,46.4377],[2.7319,46.4379],[2.7312,46.4394],[2.7323,46.4398],[2.7304,46.4430],[2.7313,46.4435],[2.7287,46.4464],[2.7294,46.4481],[2.7326,46.4489],[2.7322,46.4500],[2.7335,46.4505],[2.7358,46.4504],[2.7360,46.4529],[2.7379,46.4510],[2.7425,46.4537]]]}},{"type":"Feature","properties":{"name":"Forêt de Civrais"},"geometry":{"type":"Polygon","coordinates":[[[2.8935,46.6443],[2.8926,46.6452],[2.8941,46.6460],[2.8994,46.6436],[2.9001,46.6448],[2.9036,46.6455],[2.9034,46.6474],[2.9047,46.6473],[2.9056,46.6405],[2.9099,46.6406],[2.9104,46.6393],[2.9061,46.6383],[2.9054,46.6343],[2.9122,46.6339],[2.9165,46.6313],[2.9219,46.6307],[2.9224,46.6273],[2.9204,46.6274],[2.9198,46.6248],[2.9225,46.6223],[2.9303,46.6209],[2.9350,46.6231],[2.9458,46.6201],[2.9510,46.6200],[2.9465,46.6170],[2.9455,46.6144],[2.9423,46.6133],[2.9420,46.6123],[2.9445,46.6105],[2.9429,46.6087],[2.9357,46.6065],[2.9344,46.6046],[2.9333,46.6057],[2.9308,46.6048],[2.9302,46.6025],[2.9269,46.6008],[2.9248,46.6009],[2.9228,46.6065],[2.9199,46.6061],[2.9169,46.6016],[2.9177,46.5999],[2.9113,46.6005],[2.9148,46.5980],[2.9126,46.5968],[2.9133,46.5959],[2.9088,46.5968],[2.9117,46.5975],[2.9122,46.5987],[2.9090,46.5992],[2.9099,46.6008],[2.9061,46.6028],[2.9046,46.5999],[2.8966,46.6017],[2.8942,46.6009],[2.8928,46.6060],[2.8915,46.6062],[2.8921,46.6080],[2.8888,46.6089],[2.8926,46.6122],[2.8920,46.6140],[2.8995,46.6151],[2.8953,46.6158],[2.8980,46.6201],[2.8947,46.6202],[2.8939,46.6219],[2.8905,46.6225],[2.8881,46.6245],[2.8858,46.6232],[2.8859,46.6263],[2.8834,46.6261],[2.8823,46.6286],[2.8791,46.6252],[2.8821,46.6288],[2.8797,46.6291],[2.8820,46.6316],[2.8838,46.6323],[2.8852,46.6313],[2.8867,46.6333],[2.8881,46.6323],[2.8893,46.6354],[2.8942,46.6346],[2.8941,46.6383],[2.8960,46.6381],[2.8972,46.6414],[2.8957,46.6452],[2.8935,46.6443]]]}},{"type":"Feature","properties":{"name":"Forêt Domaniale de Soulongis"},"geometry":{"type":"Polygon","coordinates":[[[2.7833,46.5268],[2.7820,46.5277],[2.7834,46.5291],[2.7826,46.5298],[2.7709,46.5228],[2.7706,46.5207],[2.7688,46.5208],[2.7688,46.5182],[2.7593,46.5144],[2.7574,46.5162],[2.7598,46.5175],[2.7544,46.5210],[2.7540,46.5236],[2.7566,46.5243],[2.7537,46.5276],[2.7543,46.5286],[2.7541,46.5273],[2.7556,46.5272],[2.7575,46.5297],[2.7572,46.5313],[2.7604,46.5329],[2.7614,46.5381],[2.7665,46.5400],[2.7678,46.5458],[2.7705,46.5433],[2.7729,46.5451],[2.7766,46.5444],[2.7798,46.5457],[2.7816,46.5483],[2.7842,46.5465],[2.7826,46.5453],[2.7853,46.5435],[2.7851,46.5412],[2.7877,46.5413],[2.7924,46.5385],[2.7941,46.5402],[2.7926,46.5378],[2.7969,46.5357],[2.7906,46.5375],[2.7858,46.5350],[2.7836,46.5292],[2.7868,46.5312],[2.7847,46.5293],[2.7866,46.5281],[2.7829,46.5278],[2.7833,46.5268]]]}},{"type":"Feature","properties":{"name":"Bois de la Roche"},"geometry":{"type":"Polygon","coordinates":[[[2.3235,46.4900],[2.3240,46.4882],[2.3257,46.4884],[2.3248,46.4865],[2.3293,46.4842],[2.3299,46.4793],[2.3317,46.4791],[2.3279,46.4755],[2.3287,46.4740],[2.3256,46.4728],[2.3251,46.4706],[2.3216,46.4682],[2.3144,46.4692],[2.3140,46.4708],[2.3155,46.4714],[2.3134,46.4734],[2.3143,46.4745],[2.3105,46.4791],[2.3174,46.4802],[2.3132,46.4809],[2.3166,46.4843],[2.3222,46.4833],[2.3223,46.4852],[2.3192,46.4853],[2.3212,46.4881],[2.3182,46.4887],[2.3228,46.4898],[2.3229,46.4908],[2.3235,46.4900]]]}},{"type":"Feature","properties":{"name":"Forêt Domaniale de Thoux"},"geometry":{"type":"Polygon","coordinates":[[[2.3015,46.8725],[2.3030,46.8705],[2.3050,46.8705],[2.3044,46.8713],[2.3060,46.8699],[2.3009,46.8688],[2.2973,46.8662],[2.2956,46.8672],[2.2968,46.8658],[2.2940,46.8636],[2.2941,46.8685],[2.2902,46.8706],[2.2891,46.8728],[2.2854,46.8720],[2.2843,46.8698],[2.2869,46.8667],[2.2871,46.8644],[2.2858,46.8639],[2.2867,46.8657],[2.2846,46.8651],[2.2854,46.8640],[2.2846,46.8633],[2.2861,46.8629],[2.2792,46.8598],[2.2800,46.8585],[2.2781,46.8590],[2.2752,46.8564],[2.2764,46.8553],[2.2745,46.8559],[2.2749,46.8538],[2.2769,46.8529],[2.2755,46.8519],[2.2729,46.8516],[2.2723,46.8526],[2.2738,46.8550],[2.2702,46.8559],[2.2726,46.8569],[2.2701,46.8598],[2.2724,46.8603],[2.2722,46.8612],[2.2658,46.8640],[2.2668,46.8654],[2.2650,46.8669],[2.2581,46.8676],[2.2493,46.8637],[2.2524,46.8599],[2.2529,46.8554],[2.2497,46.8535],[2.2556,46.8513],[2.2516,46.8489],[2.2499,46.8462],[2.2462,46.8450],[2.2427,46.8466],[2.2420,46.8548],[2.2390,46.8609],[2.2369,46.8620],[2.2335,46.8587],[2.2307,46.8607],[2.2351,46.8625],[2.2407,46.8628],[2.2431,46.8711],[2.2410,46.8716],[2.2318,46.8649],[2.2336,46.8630],[2.2298,46.8618],[2.2262,46.8634],[2.2267,46.8666],[2.2242,46.8661],[2.2253,46.8623],[2.2183,46.8634],[2.2177,46.8646],[2.2123,46.8673],[2.2100,46.8669],[2.2080,46.8689],[2.2036,46.8653],[2.2054,46.8607],[2.2015,46.8609],[2.2025,46.8574],[2.2072,46.8564],[2.2078,46.8539],[2.2118,46.8556],[2.2125,46.8518],[2.2096,46.8512],[2.2099,46.8501],[2.2063,46.8474],[2.2033,46.8496],[2.2000,46.8470],[2.1944,46.8461],[2.1938,46.8470],[2.1984,46.8500],[2.1930,46.8538],[2.1905,46.8522],[2.1935,46.8468],[2.1871,46.8452],[2.1875,46.8461],[2.1858,46.8459],[2.1867,46.8430],[2.1824,46.8457],[2.1792,46.8442],[2.1770,46.8447],[2.1751,46.8429],[2.1763,46.8405],[2.1734,46.8420],[2.1691,46.8399],[2.1693,46.8388],[2.1743,46.8389],[2.1747,46.8371],[2.1791,46.8366],[2.1776,46.8356],[2.1804,46.8366],[2.1815,46.8351],[2.1767,46.8328],[2.1694,46.8318],[2.1604,46.8330],[2.1615,46.8340],[2.1608,46.8355],[2.1624,46.8363],[2.1609,46.8376],[2.1575,46.8364],[2.1584,46.8318],[2.1513,46.8302],[2.1520,46.8329],[2.1544,46.8327],[2.1497,46.8338],[2.1572,46.8358],[2.1559,46.8397],[2.1573,46.8401],[2.1581,46.8439],[2.1518,46.8433],[2.1493,46.8444],[2.1477,46.8435],[2.1497,46.8418],[2.1491,46.8411],[2.1382,46.8460],[2.1566,46.8554],[2.1550,46.8565],[2.1487,46.8532],[2.1528,46.8562],[2.1524,46.8580],[2.1510,46.8579],[2.1535,46.8591],[2.1512,46.8616],[2.1483,46.8624],[2.1491,46.8605],[2.1464,46.8587],[2.1462,46.8571],[2.1384,46.8542],[2.1418,46.8499],[2.1341,46.8440],[2.1349,46.8419],[2.1371,46.8440],[2.1379,46.8396],[2.1438,46.8390],[2.1420,46.8372],[2.1379,46.8391],[2.1332,46.8365],[2.1324,46.8375],[2.1338,46.8407],[2.1314,46.8393],[2.1319,46.8408],[2.1293,46.8410],[2.1293,46.8432],[2.1255,46.8424],[2.1260,46.8435],[2.1283,46.8431],[2.1257,46.8471],[2.1274,46.8478],[2.1260,46.8502],[2.1221,46.8510],[2.1233,46.8538],[2.1199,46.8537],[2.1201,46.8557],[2.1273,46.8620],[2.1368,46.8651],[2.1403,46.8679],[2.1430,46.8670],[2.1440,46.8682],[2.1428,46.8695],[2.1442,46.8684],[2.1496,46.8703],[2.1492,46.8690],[2.1507,46.8686],[2.1497,46.8674],[2.1513,46.8669],[2.1539,46.8688],[2.1564,46.8631],[2.1541,46.8640],[2.1538,46.8654],[2.1520,46.8641],[2.1528,46.8655],[2.1506,46.8659],[2.1512,46.8632],[2.1498,46.8657],[2.1465,46.8654],[2.1466,46.8645],[2.1481,46.8635],[2.1490,46.8642],[2.1489,46.8629],[2.1496,46.8642],[2.1520,46.8624],[2.1540,46.8629],[2.1545,46.8608],[2.1581,46.8595],[2.1589,46.8586],[2.1567,46.8566],[2.1594,46.8575],[2.1586,46.8555],[2.1627,46.8495],[2.1657,46.8487],[2.1635,46.8473],[2.1633,46.8440],[2.1675,46.8418],[2.1761,46.8470],[2.1806,46.8524],[2.1877,46.8496],[2.1873,46.8534],[2.1831,46.8552],[2.1840,46.8565],[2.1821,46.8576],[2.1782,46.8589],[2.1765,46.8577],[2.1779,46.8552],[2.1778,46.8510],[2.1756,46.8484],[2.1742,46.8501],[2.1767,46.8521],[2.1759,46.8563],[2.1743,46.8585],[2.1707,46.8597],[2.1779,46.8610],[2.1773,46.8627],[2.1788,46.8637],[2.1819,46.8629],[2.1861,46.8640],[2.1837,46.8661],[2.1873,46.8680],[2.1865,46.8692],[2.1846,46.8687],[2.1839,46.8704],[2.1854,46.8704],[2.1889,46.8728],[2.1887,46.8745],[2.1917,46.8757],[2.1925,46.8790],[2.1950,46.8800],[2.1942,46.8828],[2.1969,46.8858],[2.1989,46.8861],[2.2030,46.8816],[2.2080,46.8850],[2.2109,46.8846],[2.2149,46.8782],[2.2131,46.8774],[2.2166,46.8734],[2.2163,46.8767],[2.2265,46.8762],[2.2295,46.8844],[2.2156,46.9004],[2.2135,46.9001],[2.2141,46.9017],[2.2155,46.9017],[2.2155,46.9045],[2.2171,46.9046],[2.2176,46.9073],[2.2154,46.9078],[2.2191,46.9116],[2.2183,46.9122],[2.2216,46.9128],[2.2226,46.9149],[2.2256,46.9150],[2.2301,46.9184],[2.2299,46.9194],[2.2351,46.9206],[2.2355,46.9235],[2.2283,46.9262],[2.2264,46.9286],[2.2276,46.9296],[2.2259,46.9331],[2.2392,46.9328],[2.2373,46.9320],[2.2378,46.9295],[2.2412,46.9276],[2.2408,46.9260],[2.2514,46.9282],[2.2574,46.9317],[2.2524,46.9297],[2.2567,46.9331],[2.2605,46.9323],[2.2592,46.9274],[2.2562,46.9246],[2.2512,46.9281],[2.2456,46.9263],[2.2431,46.9219],[2.2479,46.9201],[2.2450,46.9165],[2.2462,46.9152],[2.2500,46.9163],[2.2554,46.9205],[2.2602,46.9135],[2.2655,46.9164],[2.2665,46.9198],[2.2721,46.9241],[2.2682,46.9203],[2.2728,46.9226],[2.2754,46.9203],[2.2836,46.9185],[2.2811,46.9177],[2.2816,46.9191],[2.2758,46.9196],[2.2704,46.9167],[2.2720,46.9147],[2.2667,46.9140],[2.2663,46.9160],[2.2611,46.9132],[2.2622,46.9115],[2.2653,46.9108],[2.2735,46.9122],[2.2759,46.9104],[2.2808,46.9123],[2.2873,46.9120],[2.2867,46.9145],[2.2879,46.9148],[2.2894,46.9068],[2.2924,46.9028],[2.2961,46.9021],[2.2967,46.9041],[2.2944,46.9051],[2.2970,46.9045],[2.2973,46.9025],[2.2941,46.8980],[2.2964,46.8966],[2.2940,46.8962],[2.2934,46.9015],[2.2900,46.9017],[2.2895,46.9036],[2.2836,46.9024],[2.2825,46.8998],[2.2799,46.8981],[2.2830,46.8964],[2.2805,46.8955],[2.2776,46.8987],[2.2795,46.8999],[2.2764,46.9000],[2.2764,46.8990],[2.2673,46.8966],[2.2708,46.8949],[2.2734,46.8958],[2.2745,46.8931],[2.2836,46.8948],[2.2845,46.8936],[2.2835,46.8933],[2.2849,46.8925],[2.2870,46.8934],[2.2864,46.8944],[2.2880,46.8941],[2.2888,46.8966],[2.2925,46.8968],[2.2965,46.8897],[2.2935,46.8895],[2.2926,46.8882],[2.2929,46.8896],[2.2953,46.8909],[2.2908,46.8889],[2.2843,46.8892],[2.2820,46.8881],[2.2816,46.8853],[2.2836,46.8840],[2.2766,46.8809],[2.2801,46.8814],[2.2788,46.8801],[2.2839,46.8786],[2.2874,46.8754],[2.2874,46.8738],[2.2919,46.8740],[2.2961,46.8757],[2.2954,46.8766],[2.3041,46.8796],[2.3060,46.8821],[2.3055,46.8837],[2.3080,46.8834],[2.3084,46.8825],[2.3031,46.8765],[2.3015,46.8725]]]}},{"type":"Feature","properties":{"name":"Forêt de Champroux"},"geometry":{"type":"Polygon","coordinates":[[[2.9869,46.6867],[2.9843,46.6878],[2.9845,46.6909],[2.9828,46.6902],[2.9837,46.6923],[2.9860,46.6936],[2.9838,46.6909],[2.9865,46.6924],[2.9878,46.6914],[2.9911,46.6938],[2.9945,46.6897],[2.9993,46.6889],[3.0002,46.6868],[2.9985,46.6851],[3.0022,46.6843],[3.0003,46.6836],[3.0023,46.6826],[2.9992,46.6805],[3.0024,46.6805],[2.9951,46.6777],[2.9971,46.6764],[2.9969,46.6774],[2.9999,46.6779],[2.9996,46.6760],[3.0011,46.6756],[2.9990,46.6748],[2.9996,46.6720],[2.9921,46.6705],[2.9944,46.6677],[2.9972,46.6671],[2.9977,46.6665],[2.9961,46.6669],[2.9964,46.6654],[2.9949,46.6671],[2.9925,46.6668],[2.9949,46.6648],[2.9923,46.6646],[2.9911,46.6664],[2.9884,46.6660],[2.9896,46.6699],[2.9848,46.6697],[2.9787,46.6640],[2.9697,46.6607],[2.9658,46.6563],[2.9682,46.6547],[2.9664,46.6530],[2.9672,46.6517],[2.9607,46.6513],[2.9603,46.6499],[2.9622,46.6477],[2.9598,46.6452],[2.9606,46.6427],[2.9507,46.6387],[2.9450,46.6405],[2.9373,46.6379],[2.9344,46.6407],[2.9361,46.6417],[2.9354,46.6426],[2.9308,46.6445],[2.9295,46.6486],[2.9307,46.6489],[2.9331,46.6469],[2.9415,46.6518],[2.9505,46.6508],[2.9553,46.6552],[2.9515,46.6574],[2.9539,46.6571],[2.9534,46.6594],[2.9516,46.6603],[2.9524,46.6632],[2.9561,46.6632],[2.9529,46.6661],[2.9573,46.6678],[2.9541,46.6697],[2.9557,46.6713],[2.9581,46.6710],[2.9569,46.6725],[2.9594,46.6742],[2.9613,46.6705],[2.9597,46.6705],[2.9578,46.6675],[2.9608,46.6655],[2.9602,46.6642],[2.9623,46.6639],[2.9626,46.6666],[2.9630,46.6658],[2.9655,46.6670],[2.9631,46.6686],[2.9627,46.6703],[2.9671,46.6695],[2.9676,46.6715],[2.9702,46.6713],[2.9723,46.6726],[2.9777,46.6701],[2.9786,46.6709],[2.9775,46.6724],[2.9759,46.6721],[2.9787,46.6765],[2.9820,46.6784],[2.9879,46.6787],[2.9906,46.6808],[2.9907,46.6822],[2.9885,46.6822],[2.9908,46.6832],[2.9915,46.6802],[2.9942,46.6816],[2.9944,46.6846],[2.9914,46.6847],[2.9908,46.6872],[2.9869,46.6867]]]}},{"type":"Feature","properties":{"name":"Forêt de Tronçais"},"geometry":{"type":"Polygon","coordinates":[[[2.7288,46.6062],[2.7219,46.6051],[2.7214,46.6034],[2.7205,46.6048],[2.7172,46.6039],[2.7145,46.6059],[2.7121,46.6059],[2.7132,46.6071],[2.7136,46.6136],[2.7201,46.6168],[2.7197,46.6203],[2.7158,46.6201],[2.7104,46.6250],[2.7062,46.6222],[2.6925,46.6296],[2.6903,46.6293],[2.6859,46.6254],[2.6907,46.6224],[2.6913,46.6194],[2.6867,46.6174],[2.6876,46.6151],[2.6694,46.6129],[2.6691,46.6145],[2.6671,46.6147],[2.6690,46.6150],[2.6680,46.6199],[2.6648,46.6205],[2.6645,46.6220],[2.6618,46.6221],[2.6655,46.6239],[2.6678,46.6210],[2.6701,46.6215],[2.6745,46.6178],[2.6795,46.6177],[2.6752,46.6355],[2.6764,46.6379],[2.6809,46.6349],[2.6795,46.6335],[2.6805,46.6297],[2.6856,46.6292],[2.6853,46.6308],[2.6865,46.6319],[2.6817,46.6358],[2.6785,46.6411],[2.6737,46.6416],[2.6724,46.6456],[2.6643,46.6433],[2.6639,46.6468],[2.6719,46.6477],[2.6713,46.6510],[2.6807,46.6499],[2.6815,46.6511],[2.6870,46.6518],[2.6906,46.6510],[2.6903,46.6501],[2.6929,46.6487],[2.6950,46.6450],[2.6984,46.6451],[2.7027,46.6416],[2.7060,46.6426],[2.7056,46.6436],[2.7074,46.6448],[2.7063,46.6456],[2.7077,46.6460],[2.7158,46.6419],[2.7156,46.6409],[2.7188,46.6391],[2.7179,46.6362],[2.7195,46.6346],[2.7201,46.6381],[2.7262,46.6400],[2.7350,46.6371],[2.7544,46.6347],[2.7533,46.6328],[2.7451,46.6320],[2.7402,46.6336],[2.7374,46.6337],[2.7371,46.6322],[2.7328,46.6333],[2.7336,46.6311],[2.7355,46.6308],[2.7336,46.6270],[2.7381,46.6219],[2.7360,46.6196],[2.7368,46.6149],[2.7402,46.6152],[2.7374,46.6117],[2.7348,46.6139],[2.7302,46.6131],[2.7322,46.6107],[2.7396,46.6103],[2.7434,46.6057],[2.7474,46.6058],[2.7494,46.6039],[2.7480,46.6011],[2.7465,46.6000],[2.7413,46.6038],[2.7382,46.6039],[2.7387,46.6001],[2.7363,46.6030],[2.7363,46.6050],[2.7333,46.6074],[2.7304,46.6075],[2.7288,46.6062]]]}},{"type":"Feature","properties":{"name":"Forêt de Drouille"},"geometry":{"type":"Polygon","coordinates":[[[2.5713,45.9873],[2.5706,45.9883],[2.5721,45.9890],[2.5717,45.9922],[2.5647,45.9935],[2.5721,45.9935],[2.5751,45.9923],[2.5724,45.9940],[2.5730,45.9957],[2.5739,45.9945],[2.5757,45.9950],[2.5747,45.9937],[2.5780,45.9925],[2.5781,45.9939],[2.5760,45.9953],[2.5822,45.9954],[2.5819,45.9941],[2.5856,45.9910],[2.5843,45.9903],[2.5849,45.9897],[2.5860,45.9911],[2.5878,45.9909],[2.5866,45.9927],[2.5851,45.9921],[2.5827,45.9959],[2.5861,45.9969],[2.5907,45.9959],[2.5924,45.9937],[2.5954,45.9947],[2.5973,45.9915],[2.5960,45.9947],[2.6046,45.9940],[2.6023,45.9927],[2.6022,45.9897],[2.6039,45.9887],[2.6033,45.9898],[2.6048,45.9902],[2.6055,45.9885],[2.6093,45.9880],[2.6088,45.9870],[2.6060,45.9879],[2.6060,45.9854],[2.6090,45.9860],[2.6078,45.9845],[2.6129,45.9832],[2.6139,45.9842],[2.6092,45.9859],[2.6114,45.9884],[2.6125,45.9871],[2.6137,45.9879],[2.6128,45.9887],[2.6150,45.9875],[2.6131,45.9863],[2.6168,45.9852],[2.6180,45.9859],[2.6179,45.9876],[2.6151,45.9886],[2.6209,45.9891],[2.6194,45.9909],[2.6229,45.9915],[2.6286,45.9897],[2.6262,45.9875],[2.6230,45.9888],[2.6232,45.9860],[2.6213,45.9854],[2.6212,45.9880],[2.6193,45.9885],[2.6191,45.9874],[2.6203,45.9871],[2.6150,45.9831],[2.6172,45.9831],[2.6176,45.9810],[2.6154,45.9798],[2.6174,45.9784],[2.6162,45.9773],[2.6139,45.9794],[2.6146,45.9805],[2.6132,45.9793],[2.6105,45.9822],[2.6053,45.9775],[2.6049,45.9785],[2.6032,45.9780],[2.6053,45.9795],[2.6025,45.9809],[2.6006,45.9791],[2.6011,45.9782],[2.5978,45.9767],[2.5976,45.9743],[2.5962,45.9761],[2.5943,45.9760],[2.5946,45.9738],[2.5912,45.9725],[2.5897,45.9694],[2.5866,45.9680],[2.5887,45.9669],[2.5882,45.9655],[2.5791,45.9649],[2.5784,45.9672],[2.5795,45.9676],[2.5793,45.9690],[2.5768,45.9674],[2.5729,45.9682],[2.5747,45.9659],[2.5717,45.9657],[2.5706,45.9679],[2.5678,45.9679],[2.5689,45.9650],[2.5668,45.9657],[2.5687,45.9647],[2.5631,45.9652],[2.5659,45.9667],[2.5635,45.9667],[2.5642,45.9719],[2.5639,45.9729],[2.5630,45.9708],[2.5623,45.9715],[2.5629,45.9741],[2.5638,45.9748],[2.5664,45.9728],[2.5663,45.9743],[2.5707,45.9732],[2.5715,45.9745],[2.5625,45.9782],[2.5612,45.9827],[2.5684,45.9807],[2.5686,45.9830],[2.5649,45.9830],[2.5667,45.9838],[2.5658,45.9844],[2.5680,45.9841],[2.5657,45.9849],[2.5682,45.9853],[2.5696,45.9848],[2.5697,45.9826],[2.5723,45.9830],[2.5694,45.9858],[2.5693,45.9880],[2.5713,45.9873]]]}},{"type":"Feature","properties":{"name":"Bois des Landes"},"geometry":{"type":"Polygon","coordinates":[[[2.2691,46.1762],[2.2669,46.1762],[2.2692,46.1789],[2.2656,46.1829],[2.2692,46.1810],[2.2718,46.1821],[2.2744,46.1807],[2.2722,46.1801],[2.2748,46.1795],[2.2747,46.1776],[2.2767,46.1772],[2.2803,46.1827],[2.2823,46.1820],[2.2851,46.1834],[2.2855,46.1824],[2.2882,46.1853],[2.2918,46.1845],[2.2936,46.1864],[2.2972,46.1855],[2.2950,46.1823],[2.2982,46.1810],[2.2968,46.1791],[2.3045,46.1759],[2.3034,46.1725],[2.2988,46.1702],[2.2898,46.1698],[2.2760,46.1667],[2.2767,46.1634],[2.2686,46.1591],[2.2637,46.1619],[2.2602,46.1620],[2.2610,46.1633],[2.2651,46.1627],[2.2628,46.1646],[2.2627,46.1665],[2.2694,46.1703],[2.2685,46.1710],[2.2704,46.1740],[2.2691,46.1746],[2.2702,46.1759],[2.2691,46.1762]]]}},{"type":"Feature","properties":{"name":"Bois des Souchères"},"geometry":{"type":"Polygon","coordinates":[[[2.2943,46.1413],[2.2956,46.1389],[2.2992,46.1392],[2.3016,46.1375],[2.3023,46.1354],[2.3009,46.1344],[2.3013,46.1327],[2.2999,46.1327],[2.3011,46.1312],[2.3006,46.1299],[2.3021,46.1281],[2.3045,46.1288],[2.3024,46.1279],[2.3049,46.1262],[2.2993,46.1273],[2.2983,46.1256],[2.2957,46.1251],[2.2957,46.1239],[2.2921,46.1239],[2.2887,46.1206],[2.2903,46.1201],[2.2886,46.1192],[2.2896,46.1191],[2.2892,46.1176],[2.2864,46.1165],[2.2857,46.1190],[2.2881,46.1208],[2.2898,46.1248],[2.2859,46.1252],[2.2864,46.1238],[2.2852,46.1235],[2.2828,46.1274],[2.2841,46.1291],[2.2824,46.1319],[2.2843,46.1331],[2.2829,46.1345],[2.2853,46.1338],[2.2872,46.1352],[2.2864,46.1365],[2.2887,46.1361],[2.2877,46.1365],[2.2880,46.1382],[2.2861,46.1385],[2.2884,46.1387],[2.2888,46.1413],[2.2931,46.1425],[2.2943,46.1413]]]}}]}