{"type":"FeatureCollection","features":[{"type":"Feature","properties":{"name":"Forêt de Saint-André"},"geometry":{"type":"Polygon","coordinates":[[[6.5811,44.5586],[6.5826,44.5596],[6.5800,44.5625],[6.5791,44.5630],[6.5786,44.5617],[6.5799,44.5609],[6.5780,44.5604],[6.5766,44.5620],[6.5788,44.5631],[6.5768,44.5637],[6.5777,44.5651],[6.5749,44.5647],[6.5735,44.5621],[6.5723,44.5651],[6.5728,44.5660],[6.5730,44.5633],[6.5749,44.5667],[6.5733,44.5667],[6.5730,44.5681],[6.5710,44.5678],[6.5719,44.5666],[6.5703,44.5671],[6.5695,44.5656],[6.5688,44.5671],[6.5663,44.5661],[6.5648,44.5672],[6.5676,44.5685],[6.5675,44.5696],[6.5662,44.5692],[6.5664,44.5712],[6.5642,44.5715],[6.5654,44.5722],[6.5649,44.5733],[6.5702,44.5747],[6.5673,44.5790],[6.5679,44.5798],[6.5697,44.5788],[6.5717,44.5816],[6.5749,44.5818],[6.5670,44.5985],[6.5652,44.5979],[6.5631,44.5989],[6.5632,44.6004],[6.5670,44.6001],[6.5645,44.6022],[6.5641,44.6004],[6.5605,44.6001],[6.5603,44.6016],[6.5646,44.6025],[6.5650,44.6063],[6.5648,44.6074],[6.5608,44.6076],[6.5577,44.6062],[6.5572,44.6071],[6.5604,44.6100],[6.5616,44.6130],[6.5589,44.6132],[6.5518,44.6060],[6.5524,44.6018],[6.5487,44.6010],[6.5507,44.6005],[6.5512,44.5991],[6.5529,44.5997],[6.5531,44.5976],[6.5554,44.5965],[6.5506,44.5955],[6.5493,44.5935],[6.5487,44.5945],[6.5476,44.5937],[6.5489,44.5926],[6.5471,44.5930],[6.5462,44.5913],[6.5472,44.5907],[6.5456,44.5905],[6.5462,44.5853],[6.5487,44.5878],[6.5500,44.5871],[6.5493,44.5883],[6.5504,44.5885],[6.5516,44.5837],[6.5494,44.5832],[6.5516,44.5826],[6.5435,44.5810],[6.5404,44.5823],[6.5363,44.5820],[6.5398,44.5812],[6.5375,44.5809],[6.5373,44.5795],[6.5397,44.5795],[6.5380,44.5796],[6.5372,44.5781],[6.5395,44.5786],[6.5416,44.5771],[6.5438,44.5792],[6.5430,44.5778],[6.5439,44.5760],[6.5384,44.5677],[6.5399,44.5684],[6.5385,44.5677],[6.5463,44.5658],[6.5477,44.5682],[6.5450,44.5686],[6.5477,44.5691],[6.5484,44.5666],[6.5496,44.5678],[6.5506,44.5664],[6.5497,44.5658],[6.5507,44.5652],[6.5506,44.5625],[6.5561,44.5617],[6.5551,44.5596],[6.5561,44.5585],[6.5582,44.5597],[6.5605,44.5576],[6.5615,44.5588],[6.5653,44.5582],[6.5746,44.5542],[6.5762,44.5553],[6.5759,44.5569],[6.5811,44.5586]]]}},{"type":"Feature","properties":{"name":"Bois de la Pinée"},"geometry":{"type":"Polygon","coordinates":[[[6.7207,44.6198],[6.7210,44.6209],[6.7174,44.6226],[6.7205,44.6222],[6.7168,44.6236],[6.7150,44.6266],[6.7061,44.6300],[6.7045,44.6322],[6.6964,44.6367],[6.6909,44.6372],[6.6878,44.6356],[6.6809,44.6375],[6.6775,44.6313],[6.6812,44.6284],[6.6804,44.6269],[6.6821,44.6273],[6.6836,44.6258],[6.6833,44.6236],[6.6854,44.6207],[6.6879,44.6224],[6.6910,44.6210],[6.6840,44.6194],[6.6852,44.6187],[6.6898,44.6202],[6.6904,44.6160],[6.6890,44.6161],[6.6889,44.6147],[6.6961,44.6166],[6.6948,44.6146],[6.7009,44.6128],[6.6949,44.6120],[6.6965,44.6098],[6.6986,44.6096],[6.7003,44.6057],[6.7002,44.6009],[6.7028,44.5990],[6.7084,44.5994],[6.7103,44.6008],[6.7116,44.5998],[6.7129,44.6020],[6.7076,44.6061],[6.7044,44.6129],[6.7070,44.6155],[6.7037,44.6169],[6.7012,44.6145],[6.6998,44.6150],[6.6994,44.6161],[6.7013,44.6181],[6.7009,44.6206],[6.7054,44.6195],[6.7143,44.6146],[6.7157,44.6121],[6.7195,44.6105],[6.7187,44.6096],[6.7222,44.6095],[6.7250,44.6068],[6.7265,44.6071],[6.7258,44.6092],[6.7295,44.6088],[6.7285,44.6108],[6.7353,44.6102],[6.7354,44.6119],[6.7374,44.6130],[6.7390,44.6124],[6.7401,44.6093],[6.7442,44.6089],[6.7479,44.6131],[6.7428,44.6165],[6.7407,44.6157],[6.7290,44.6168],[6.7292,44.6157],[6.7282,44.6157],[6.7207,44.6198]]]}},{"type":"Feature","properties":{"name":"Bois de Lourette"},"geometry":{"type":"Polygon","coordinates":[[[6.7639,44.6661],[6.7684,44.6665],[6.7774,44.6632],[6.7866,44.6560],[6.7834,44.6541],[6.7851,44.6547],[6.7841,44.6537],[6.7857,44.6541],[6.7853,44.6533],[6.7794,44.6492],[6.7772,44.6513],[6.7738,44.6507],[6.7712,44.6522],[6.7679,44.6498],[6.7678,44.6511],[6.7616,44.6489],[6.7633,44.6501],[6.7625,44.6508],[6.7651,44.6509],[6.7641,44.6517],[6.7662,44.6538],[6.7651,44.6545],[6.7670,44.6547],[6.7653,44.6566],[6.7643,44.6555],[6.7639,44.6661]]]}},{"type":"Feature","properties":{"name":"Bois Clair"},"geometry":{"type":"Polygon","coordinates":[[[6.7328,44.6691],[6.7312,44.6611],[6.7320,44.6571],[6.7311,44.6546],[6.7289,44.6557],[6.7322,44.6534],[6.7368,44.6542],[6.7385,44.6510],[6.7358,44.6526],[6.7350,44.6513],[6.7346,44.6529],[6.7329,44.6532],[6.7329,44.6523],[6.7315,44.6533],[6.7324,44.6516],[6.7257,44.6547],[6.7257,44.6559],[6.7248,44.6549],[6.7228,44.6564],[6.7228,44.6552],[6.7296,44.6515],[6.7271,44.6528],[6.7267,44.6516],[6.7280,44.6513],[6.7281,44.6497],[6.7277,44.6512],[6.7258,44.6509],[6.7284,44.6481],[6.7267,44.6479],[6.7249,44.6498],[6.7243,44.6531],[6.7228,44.6508],[6.7181,44.6515],[6.7116,44.6656],[6.7125,44.6698],[6.7105,44.6737],[6.7180,44.6719],[6.7312,44.6711],[6.7328,44.6691]]]}},{"type":"Feature","properties":{"name":"Forêt de la Réortie"},"geometry":{"type":"Polygon","coordinates":[[[6.6934,44.6759],[6.6988,44.6746],[6.6996,44.6727],[6.7084,44.6747],[6.7105,44.6737],[6.7125,44.6698],[6.7116,44.6656],[6.7177,44.6521],[6.7145,44.6536],[6.7130,44.6510],[6.7115,44.6532],[6.7099,44.6523],[6.7097,44.6545],[6.7074,44.6532],[6.7055,44.6563],[6.7042,44.6546],[6.7045,44.6527],[6.6949,44.6576],[6.6852,44.6706],[6.6881,44.6711],[6.6914,44.6754],[6.6941,44.6748],[6.6934,44.6759]]]}},{"type":"Feature","properties":{"name":"Forêt domaniale des Sauvas"},"geometry":{"type":"Polygon","coordinates":[[[5.9129,44.5814],[5.9126,44.5794],[5.9093,44.5798],[5.9060,44.5821],[5.9046,44.5813],[5.9041,44.5785],[5.8989,44.5759],[5.8969,44.5709],[5.8965,44.5638],[5.8935,44.5652],[5.8948,44.5635],[5.8888,44.5652],[5.8858,44.5698],[5.8844,44.5697],[5.8835,44.5678],[5.8827,44.5707],[5.8845,44.5737],[5.8931,44.5793],[5.8932,44.5845],[5.8964,44.5885],[5.8924,44.5880],[5.8921,44.5901],[5.8894,44.5924],[5.8901,44.5934],[5.8979,44.5942],[5.8911,44.5994],[5.8926,44.6013],[5.8953,44.6014],[5.8942,44.6053],[5.9072,44.6068],[5.9093,44.6084],[5.9117,44.6075],[5.9126,44.6107],[5.9159,44.6104],[5.9223,44.6134],[5.9228,44.6128],[5.9195,44.6102],[5.9209,44.6104],[5.9217,44.6090],[5.9250,44.6098],[5.9266,44.6061],[5.9317,44.6059],[5.9296,44.6034],[5.9316,44.6043],[5.9312,44.6022],[5.9298,44.6018],[5.9312,44.6010],[5.9295,44.5986],[5.9329,44.5982],[5.9359,44.5994],[5.9417,44.5981],[5.9411,44.5965],[5.9342,44.5973],[5.9341,44.5960],[5.9388,44.5965],[5.9390,44.5955],[5.9366,44.5940],[5.9359,44.5917],[5.9373,44.5904],[5.9324,44.5889],[5.9240,44.5946],[5.9203,44.5951],[5.9183,44.5975],[5.9180,44.5965],[5.9161,44.5997],[5.9171,44.5962],[5.9163,44.5920],[5.9127,44.5866],[5.9098,44.5858],[5.9123,44.5844],[5.9140,44.5815],[5.9129,44.5814]]]}},{"type":"Feature","properties":{"name":"Bois de Silva Longa"},"geometry":{"type":"Polygon","coordinates":[[[6.9059,44.1486],[6.9057,44.1436],[6.9006,44.1451],[6.9005,44.1427],[6.8983,44.1422],[6.8970,44.1390],[6.8967,44.1352],[6.8933,44.1380],[6.8914,44.1379],[6.8921,44.1354],[6.8901,44.1338],[6.8959,44.1334],[6.8974,44.1323],[6.8942,44.1330],[6.8932,44.1320],[6.9023,44.1304],[6.9023,44.1293],[6.8980,44.1281],[6.9004,44.1267],[6.8977,44.1265],[6.8999,44.1255],[6.8994,44.1247],[6.8952,44.1252],[6.8992,44.1220],[6.8958,44.1205],[6.8925,44.1208],[6.8909,44.1154],[6.8881,44.1165],[6.8872,44.1133],[6.8908,44.1120],[6.8888,44.1105],[6.8861,44.1124],[6.8829,44.1122],[6.8832,44.1153],[6.8804,44.1111],[6.8703,44.1121],[6.8792,44.1174],[6.8846,44.1236],[6.8842,44.1250],[6.8796,44.1255],[6.8786,44.1237],[6.8757,44.1229],[6.8766,44.1210],[6.8743,44.1206],[6.8726,44.1222],[6.8754,44.1249],[6.8726,44.1248],[6.8742,44.1271],[6.8704,44.1300],[6.8697,44.1275],[6.8644,44.1234],[6.8614,44.1253],[6.8643,44.1294],[6.8612,44.1282],[6.8602,44.1258],[6.8553,44.1247],[6.8539,44.1253],[6.8550,44.1276],[6.8576,44.1279],[6.8562,44.1315],[6.8592,44.1318],[6.8604,44.1347],[6.8580,44.1349],[6.8542,44.1325],[6.8514,44.1337],[6.8500,44.1359],[6.8524,44.1371],[6.8597,44.1375],[6.8638,44.1393],[6.8602,44.1415],[6.8607,44.1440],[6.8665,44.1421],[6.8746,44.1502],[6.8756,44.1502],[6.8758,44.1476],[6.8798,44.1494],[6.8876,44.1499],[6.8881,44.1453],[6.8852,44.1415],[6.8861,44.1410],[6.8913,44.1456],[6.8923,44.1500],[6.8945,44.1499],[6.8943,44.1445],[6.8963,44.1441],[6.8988,44.1492],[6.9019,44.1504],[6.9032,44.1558],[6.9048,44.1560],[6.9034,44.1517],[6.9059,44.1486]]]}},{"type":"Feature","properties":{"name":"Forêt de Lurs"},"geometry":{"type":"Polygon","coordinates":[[[5.8873,43.9980],[5.8890,43.9963],[5.8870,43.9963],[5.8859,43.9930],[5.8923,43.9927],[5.8916,43.9903],[5.8935,43.9882],[5.8933,43.9859],[5.8945,43.9870],[5.8984,43.9856],[5.9029,43.9866],[5.9090,43.9839],[5.9074,43.9789],[5.9050,43.9782],[5.9080,43.9765],[5.9035,43.9760],[5.9055,43.9732],[5.9029,43.9705],[5.9005,43.9715],[5.8978,43.9707],[5.8986,43.9749],[5.8964,43.9758],[5.9026,43.9793],[5.9024,43.9815],[5.9049,43.9837],[5.8996,43.9822],[5.8974,43.9848],[5.8945,43.9840],[5.8960,43.9807],[5.8954,43.9759],[5.8899,43.9733],[5.8899,43.9707],[5.8889,43.9703],[5.8881,43.9714],[5.8890,43.9763],[5.8880,43.9771],[5.8869,43.9746],[5.8854,43.9743],[5.8867,43.9755],[5.8855,43.9762],[5.8867,43.9784],[5.8843,43.9796],[5.8736,43.9773],[5.8706,43.9743],[5.8688,43.9747],[5.8710,43.9768],[5.8810,43.9812],[5.8820,43.9828],[5.8805,43.9820],[5.8834,43.9844],[5.8841,43.9811],[5.8851,43.9832],[5.8871,43.9824],[5.8880,43.9844],[5.8874,43.9815],[5.8851,43.9798],[5.8890,43.9811],[5.8875,43.9805],[5.8881,43.9792],[5.8869,43.9785],[5.8891,43.9777],[5.8894,43.9858],[5.8908,43.9850],[5.8872,43.9878],[5.8841,43.9873],[5.8769,43.9811],[5.8655,43.9745],[5.8663,43.9773],[5.8697,43.9781],[5.8689,43.9791],[5.8707,43.9792],[5.8722,43.9811],[5.8711,43.9838],[5.8813,43.9910],[5.8813,43.9980],[5.8873,43.9980]]]}},{"type":"Feature","properties":{"name":"Forêt domaniale du Vanson"},"geometry":{"type":"Polygon","coordinates":[[[6.0100,44.2321],[6.0092,44.2346],[6.0146,44.2367],[6.0216,44.2354],[6.0257,44.2330],[6.0355,44.2338],[6.0373,44.2388],[6.0418,44.2416],[6.0480,44.2414],[6.0476,44.2402],[6.0550,44.2391],[6.0563,44.2371],[6.0526,44.2375],[6.0504,44.2358],[6.0509,44.2344],[6.0486,44.2348],[6.0486,44.2367],[6.0450,44.2279],[6.0383,44.2249],[6.0112,44.2252],[6.0088,44.2262],[6.0085,44.2288],[6.0076,44.2288],[6.0081,44.2310],[6.0100,44.2321]]]}},{"type":"Feature","properties":{"name":"Bois de Gourdon"},"geometry":{"type":"Polygon","coordinates":[[[6.9610,43.7005],[6.9640,43.7029],[6.9700,43.7038],[6.9715,43.7053],[6.9709,43.7062],[6.9749,43.7080],[6.9747,43.7096],[6.9718,43.7101],[6.9735,43.7131],[6.9734,43.7163],[6.9684,43.7179],[6.9672,43.7200],[6.9615,43.7201],[6.9605,43.7176],[6.9530,43.7137],[6.9567,43.7110],[6.9547,43.7060],[6.9574,43.7059],[6.9596,43.7076],[6.9618,43.7050],[6.9550,43.7019],[6.9610,43.7005]]]}},{"type":"Feature","properties":{"name":"Forêt de Boscodon"},"geometry":{"type":"Polygon","coordinates":[[[6.4406,44.4893],[6.4465,44.4954],[6.4492,44.4959],[6.4527,44.4988],[6.4555,44.5034],[6.4562,44.5026],[6.4539,44.4988],[6.4556,44.4997],[6.4577,44.4972],[6.4588,44.4981],[6.4604,44.4943],[6.4647,44.4902],[6.4631,44.4881],[6.4608,44.4876],[6.4623,44.4868],[6.4610,44.4848],[6.4589,44.4858],[6.4507,44.4836],[6.4489,44.4792],[6.4457,44.4773],[6.4422,44.4779],[6.4445,44.4820],[6.4372,44.4859],[6.4397,44.4890],[6.4405,44.4871],[6.4429,44.4881],[6.4406,44.4893]]]}},{"type":"Feature","properties":{"name":"Foret domaniale de Ceüse"},"geometry":{"type":"Polygon","coordinates":[[[5.9584,44.5234],[5.9598,44.5258],[5.9582,44.5265],[5.9640,44.5289],[5.9601,44.5286],[5.9613,44.5312],[5.9641,44.5314],[5.9704,44.5288],[5.9758,44.5288],[5.9772,44.5321],[5.9784,44.5324],[5.9766,44.5340],[5.9789,44.5333],[5.9796,44.5311],[5.9843,44.5283],[5.9805,44.5275],[5.9822,44.5258],[5.9815,44.5235],[5.9853,44.5257],[5.9863,44.5251],[5.9857,44.5239],[5.9873,44.5232],[5.9874,44.5215],[5.9822,44.5198],[5.9837,44.5186],[5.9821,44.5176],[5.9828,44.5159],[5.9818,44.5167],[5.9779,44.5148],[5.9816,44.5134],[5.9772,44.5108],[5.9800,44.5100],[5.9800,44.5082],[5.9827,44.5070],[5.9829,44.5052],[5.9814,44.5040],[5.9830,44.5030],[5.9807,44.5028],[5.9844,44.5019],[5.9813,44.5020],[5.9787,44.4997],[5.9758,44.5007],[5.9756,44.4990],[5.9773,44.4974],[5.9752,44.4966],[5.9765,44.4952],[5.9744,44.4946],[5.9776,44.4940],[5.9759,44.4940],[5.9772,44.4937],[5.9769,44.4920],[5.9750,44.4919],[5.9735,44.4889],[5.9727,44.4906],[5.9681,44.4925],[5.9678,44.4887],[5.9658,44.4875],[5.9647,44.4905],[5.9626,44.4904],[5.9615,44.4885],[5.9566,44.4897],[5.9573,44.4887],[5.9559,44.4884],[5.9533,44.4896],[5.9524,44.4892],[5.9537,44.4872],[5.9523,44.4866],[5.9458,44.4868],[5.9443,44.4888],[5.9433,44.4885],[5.9434,44.4912],[5.9422,44.4879],[5.9413,44.4892],[5.9394,44.4887],[5.9391,44.4854],[5.9353,44.4859],[5.9383,44.4829],[5.9338,44.4827],[5.9339,44.4801],[5.9325,44.4787],[5.9320,44.4804],[5.9318,44.4782],[5.9274,44.4785],[5.9273,44.4807],[5.9238,44.4812],[5.9279,44.4877],[5.9255,44.4901],[5.9214,44.4915],[5.9200,44.4950],[5.9166,44.4956],[5.9164,44.4980],[5.9201,44.4992],[5.9198,44.5005],[5.9209,44.5007],[5.9224,44.4980],[5.9242,44.4982],[5.9221,44.5019],[5.9354,44.4969],[5.9370,44.4973],[5.9377,44.4958],[5.9352,44.4959],[5.9352,44.4942],[5.9393,44.4960],[5.9428,44.4945],[5.9430,44.4956],[5.9444,44.4955],[5.9440,44.4965],[5.9563,44.4996],[5.9572,44.5008],[5.9618,44.5012],[5.9642,44.5049],[5.9623,44.5065],[5.9668,44.5055],[5.9648,44.5074],[5.9664,44.5125],[5.9642,44.5141],[5.9636,44.5161],[5.9647,44.5165],[5.9637,44.5179],[5.9631,44.5171],[5.9610,44.5180],[5.9566,44.5229],[5.9584,44.5234]]]}},{"type":"Feature","properties":{"name":"Forêt Domaniale de Mont Guillaume"},"geometry":{"type":"Polygon","coordinates":[[[6.4576,44.5767],[6.4619,44.5816],[6.4610,44.5838],[6.4728,44.5814],[6.4740,44.5796],[6.4714,44.5786],[6.4678,44.5798],[6.4681,44.5758],[6.4655,44.5744],[6.4672,44.5735],[6.4583,44.5673],[6.4587,44.5685],[6.4576,44.5688],[6.4540,44.5669],[6.4550,44.5650],[6.4526,44.5629],[6.4557,44.5598],[6.4520,44.5590],[6.4511,44.5602],[6.4525,44.5586],[6.4514,44.5554],[6.4487,44.5557],[6.4512,44.5555],[6.4505,44.5581],[6.4472,44.5605],[6.4485,44.5619],[6.4477,44.5626],[6.4470,44.5616],[6.4440,44.5621],[6.4373,44.5602],[6.4331,44.5617],[6.4418,44.5632],[6.4330,44.5618],[6.4291,44.5643],[6.4414,44.5638],[6.4361,44.5648],[6.4412,44.5648],[6.4276,44.5665],[6.4357,44.5651],[6.4272,44.5661],[6.4283,44.5631],[6.4270,44.5631],[6.4260,44.5592],[6.4252,44.5599],[6.4263,44.5604],[6.4263,44.5629],[6.4244,44.5633],[6.4264,44.5653],[6.4204,44.5660],[6.4163,44.5644],[6.4184,44.5668],[6.4220,44.5682],[6.4178,44.5712],[6.4148,44.5717],[6.4074,44.5700],[6.4016,44.5714],[6.4026,44.5720],[6.4021,44.5769],[6.4083,44.5795],[6.4153,44.5801],[6.4249,44.5861],[6.4279,44.5855],[6.4249,44.5848],[6.4280,44.5831],[6.4229,44.5803],[6.4284,44.5810],[6.4298,44.5796],[6.4278,44.5782],[6.4304,44.5786],[6.4277,44.5764],[6.4303,44.5763],[6.4319,44.5791],[6.4354,44.5796],[6.4376,44.5778],[6.4405,44.5788],[6.4452,44.5753],[6.4440,44.5775],[6.4448,44.5782],[6.4463,44.5759],[6.4460,44.5772],[6.4476,44.5785],[6.4442,44.5816],[6.4485,44.5829],[6.4500,44.5802],[6.4576,44.5767]]]}},{"type":"Feature","properties":{"name":"Bois de Vacheresse"},"geometry":{"type":"Polygon","coordinates":[[[6.6506,44.2647],[6.6578,44.2620],[6.6535,44.2606],[6.6542,44.2616],[6.6523,44.2631],[6.6483,44.2637],[6.6526,44.2598],[6.6547,44.2596],[6.6530,44.2588],[6.6525,44.2567],[6.6461,44.2568],[6.6395,44.2498],[6.6344,44.2488],[6.6356,44.2475],[6.6319,44.2478],[6.6286,44.2502],[6.6251,44.2489],[6.6254,44.2506],[6.6271,44.2509],[6.6271,44.2529],[6.6327,44.2556],[6.6337,44.2575],[6.6325,44.2584],[6.6367,44.2607],[6.6362,44.2631],[6.6384,44.2615],[6.6439,44.2627],[6.6429,44.2640],[6.6466,44.2650],[6.6466,44.2642],[6.6491,44.2663],[6.6498,44.2655],[6.6484,44.2642],[6.6506,44.2647]]]}}]}