{"type":"FeatureCollection","features":[{"type":"Feature","properties":{"name":"Bois de Silva Longa"},"geometry":{"type":"Polygon","coordinates":[[[6.9059,44.1486],[6.9057,44.1436],[6.9006,44.1451],[6.9005,44.1427],[6.8983,44.1422],[6.8970,44.1390],[6.8967,44.1352],[6.8933,44.1380],[6.8914,44.1379],[6.8921,44.1354],[6.8901,44.1338],[6.8959,44.1334],[6.8974,44.1323],[6.8942,44.1330],[6.8932,44.1320],[6.9023,44.1304],[6.9023,44.1293],[6.8980,44.1281],[6.9004,44.1267],[6.8977,44.1265],[6.8999,44.1255],[6.8994,44.1247],[6.8952,44.1252],[6.8992,44.1220],[6.8958,44.1205],[6.8925,44.1208],[6.8909,44.1154],[6.8881,44.1165],[6.8872,44.1133],[6.8908,44.1120],[6.8888,44.1105],[6.8861,44.1124],[6.8829,44.1122],[6.8832,44.1153],[6.8804,44.1111],[6.8703,44.1121],[6.8792,44.1174],[6.8846,44.1236],[6.8842,44.1250],[6.8796,44.1255],[6.8786,44.1237],[6.8757,44.1229],[6.8766,44.1210],[6.8743,44.1206],[6.8726,44.1222],[6.8754,44.1249],[6.8726,44.1248],[6.8742,44.1271],[6.8704,44.1300],[6.8697,44.1275],[6.8644,44.1234],[6.8614,44.1253],[6.8643,44.1294],[6.8612,44.1282],[6.8602,44.1258],[6.8553,44.1247],[6.8539,44.1253],[6.8550,44.1276],[6.8576,44.1279],[6.8562,44.1315],[6.8592,44.1318],[6.8604,44.1347],[6.8580,44.1349],[6.8542,44.1325],[6.8514,44.1337],[6.8500,44.1359],[6.8524,44.1371],[6.8597,44.1375],[6.8638,44.1393],[6.8602,44.1415],[6.8607,44.1440],[6.8665,44.1421],[6.8746,44.1502],[6.8756,44.1502],[6.8758,44.1476],[6.8798,44.1494],[6.8876,44.1499],[6.8881,44.1453],[6.8852,44.1415],[6.8861,44.1410],[6.8913,44.1456],[6.8923,44.1500],[6.8945,44.1499],[6.8943,44.1445],[6.8963,44.1441],[6.8988,44.1492],[6.9019,44.1504],[6.9032,44.1558],[6.9048,44.1560],[6.9034,44.1517],[6.9059,44.1486]]]}},{"type":"Feature","properties":{"name":"L\u0027Albarea"},"geometry":{"type":"Polygon","coordinates":[[[7.2265,43.9423],[7.2081,43.9410],[7.2017,43.9389],[7.1982,43.9399],[7.1984,43.9429],[7.2007,43.9451],[7.2106,43.9491],[7.2110,43.9482],[7.2240,43.9490],[7.2304,43.9482],[7.2339,43.9458],[7.2329,43.9479],[7.2362,43.9454],[7.2412,43.9447],[7.2398,43.9417],[7.2351,43.9433],[7.2265,43.9423]]]}},{"type":"Feature","properties":{"name":"La Malagratta"},"geometry":{"type":"Polygon","coordinates":[[[7.3557,43.9934],[7.3441,43.9879],[7.3392,43.9929],[7.3373,43.9968],[7.3434,44.0021],[7.3455,44.0018],[7.3496,44.0044],[7.3541,44.0053],[7.3668,44.0051],[7.3664,44.0040],[7.3684,44.0027],[7.3710,44.0032],[7.3730,44.0022],[7.3743,43.9989],[7.3792,43.9992],[7.3767,43.9936],[7.3557,43.9934]]]}},{"type":"Feature","properties":{"name":"Bois de Gourdon"},"geometry":{"type":"Polygon","coordinates":[[[6.9610,43.7005],[6.9640,43.7029],[6.9700,43.7038],[6.9715,43.7053],[6.9709,43.7062],[6.9749,43.7080],[6.9747,43.7096],[6.9718,43.7101],[6.9735,43.7131],[6.9734,43.7163],[6.9684,43.7179],[6.9672,43.7200],[6.9615,43.7201],[6.9605,43.7176],[6.9530,43.7137],[6.9567,43.7110],[6.9547,43.7060],[6.9574,43.7059],[6.9596,43.7076],[6.9618,43.7050],[6.9550,43.7019],[6.9610,43.7005]]]}},{"type":"Feature","properties":{"name":"Forêt de Tuor"},"geometry":{"type":"Polygon","coordinates":[[[7.3850,44.0267],[7.3923,44.0280],[7.3941,44.0295],[7.3997,44.0288],[7.4132,44.0316],[7.4156,44.0315],[7.4145,44.0311],[7.4161,44.0302],[7.4134,44.0313],[7.4115,44.0304],[7.4151,44.0278],[7.4107,44.0293],[7.4150,44.0274],[7.4118,44.0281],[7.4121,44.0268],[7.4109,44.0265],[7.4062,44.0278],[7.4075,44.0268],[7.4065,44.0246],[7.4132,44.0247],[7.4114,44.0225],[7.4120,44.0212],[7.4061,44.0222],[7.3950,44.0207],[7.3914,44.0187],[7.3885,44.0187],[7.3891,44.0169],[7.3865,44.0155],[7.3761,44.0169],[7.3711,44.0162],[7.3710,44.0195],[7.3689,44.0219],[7.3801,44.0267],[7.3850,44.0267]]]}},{"type":"Feature","properties":{"name":"La Fracha"},"geometry":{"type":"Polygon","coordinates":[[[7.3911,43.9788],[7.3924,43.9754],[7.3905,43.9731],[7.3872,43.9711],[7.3841,43.9711],[7.3842,43.9700],[7.3797,43.9669],[7.3618,43.9703],[7.3641,43.9771],[7.3679,43.9750],[7.3797,43.9778],[7.3911,43.9788]]]}},{"type":"Feature","properties":{"name":"La Maïris"},"geometry":{"type":"Polygon","coordinates":[[[7.3580,43.9529],[7.3561,43.9580],[7.3607,43.9588],[7.3730,43.9681],[7.3803,43.9662],[7.3757,43.9544],[7.3708,43.9501],[7.3661,43.9479],[7.3666,43.9516],[7.3582,43.9518],[7.3580,43.9529]]]}},{"type":"Feature","properties":{"name":"La Maluna"},"geometry":{"type":"Polygon","coordinates":[[[7.2851,44.0306],[7.2764,44.0273],[7.2696,44.0264],[7.2607,44.0270],[7.2549,44.0229],[7.2535,44.0181],[7.2466,44.0172],[7.2450,44.0343],[7.2386,44.0434],[7.2525,44.0457],[7.2576,44.0491],[7.2609,44.0496],[7.2848,44.0410],[7.2946,44.0341],[7.2889,44.0313],[7.2906,44.0309],[7.2898,44.0299],[7.2910,44.0302],[7.2888,44.0281],[7.2865,44.0287],[7.2851,44.0306]]]}},{"type":"Feature","properties":{"name":"Le Boréon"},"geometry":{"type":"Polygon","coordinates":[[[7.2794,44.1126],[7.2895,44.1205],[7.2923,44.1249],[7.2928,44.1284],[7.2947,44.1297],[7.2939,44.1269],[7.2964,44.1272],[7.2967,44.1260],[7.2969,44.1278],[7.2999,44.1290],[7.3004,44.1266],[7.2983,44.1253],[7.2974,44.1225],[7.3008,44.1227],[7.2984,44.1211],[7.2996,44.1208],[7.3014,44.1229],[7.3051,44.1224],[7.3049,44.1201],[7.3031,44.1192],[7.3070,44.1190],[7.3066,44.1170],[7.3059,44.1180],[7.3060,44.1149],[7.3104,44.1177],[7.3101,44.1147],[7.3127,44.1171],[7.3134,44.1166],[7.3123,44.1148],[7.3143,44.1157],[7.3134,44.1133],[7.3163,44.1138],[7.3160,44.1005],[7.2961,44.0991],[7.2943,44.1021],[7.2911,44.1012],[7.2834,44.1057],[7.2778,44.1111],[7.2794,44.1126]]]}},{"type":"Feature","properties":{"name":"Bois de Vacheresse"},"geometry":{"type":"Polygon","coordinates":[[[6.6506,44.2647],[6.6578,44.2620],[6.6535,44.2606],[6.6542,44.2616],[6.6523,44.2631],[6.6483,44.2637],[6.6526,44.2598],[6.6547,44.2596],[6.6530,44.2588],[6.6525,44.2567],[6.6461,44.2568],[6.6395,44.2498],[6.6344,44.2488],[6.6356,44.2475],[6.6319,44.2478],[6.6286,44.2502],[6.6251,44.2489],[6.6254,44.2506],[6.6271,44.2509],[6.6271,44.2529],[6.6327,44.2556],[6.6337,44.2575],[6.6325,44.2584],[6.6367,44.2607],[6.6362,44.2631],[6.6384,44.2615],[6.6439,44.2627],[6.6429,44.2640],[6.6466,44.2650],[6.6466,44.2642],[6.6491,44.2663],[6.6498,44.2655],[6.6484,44.2642],[6.6506,44.2647]]]}}]}