{"type":"FeatureCollection","features":[{"type":"Feature","properties":{"name":"Forêt Domaniale de la Haye d\u0027Aubenton"},"geometry":{"type":"Polygon","coordinates":[[[4.2408,49.8082],[4.2390,49.8057],[4.2436,49.8048],[4.2426,49.8050],[4.2440,49.8018],[4.2404,49.8033],[4.2380,49.7999],[4.2519,49.7964],[4.2509,49.7942],[4.2538,49.7973],[4.2587,49.7979],[4.2668,49.7932],[4.2697,49.7934],[4.2703,49.7920],[4.2720,49.7917],[4.2716,49.7925],[4.2732,49.7932],[4.2815,49.7910],[4.2797,49.7892],[4.2825,49.7873],[4.2787,49.7877],[4.2784,49.7869],[4.2807,49.7869],[4.2798,49.7865],[4.2812,49.7853],[4.2778,49.7834],[4.2720,49.7852],[4.2670,49.7823],[4.2723,49.7789],[4.2701,49.7772],[4.2672,49.7788],[4.2660,49.7802],[4.2673,49.7806],[4.2666,49.7811],[4.2640,49.7816],[4.2600,49.7804],[4.2596,49.7794],[4.2619,49.7794],[4.2607,49.7774],[4.2590,49.7786],[4.2582,49.7779],[4.2592,49.7768],[4.2577,49.7781],[4.2583,49.7792],[4.2546,49.7784],[4.2565,49.7798],[4.2558,49.7806],[4.2577,49.7813],[4.2570,49.7828],[4.2598,49.7837],[4.2605,49.7866],[4.2540,49.7914],[4.2499,49.7923],[4.2444,49.7885],[4.2491,49.7848],[4.2477,49.7849],[4.2472,49.7835],[4.2438,49.7849],[4.2435,49.7835],[4.2451,49.7833],[4.2431,49.7810],[4.2439,49.7805],[4.2419,49.7806],[4.2417,49.7793],[4.2391,49.7808],[4.2411,49.7806],[4.2422,49.7824],[4.2439,49.7856],[4.2425,49.7862],[4.2437,49.7887],[4.2399,49.7893],[4.2391,49.7881],[4.2378,49.7898],[4.2352,49.7903],[4.2346,49.7912],[4.2378,49.7930],[4.2339,49.7970],[4.2364,49.7984],[4.2344,49.7994],[4.2311,49.7978],[4.2303,49.8001],[4.2205,49.7977],[4.2132,49.7978],[4.2081,49.7990],[4.2070,49.8015],[4.2038,49.8003],[4.2050,49.7996],[4.2017,49.7964],[4.1988,49.7957],[4.2001,49.7948],[4.1975,49.7949],[4.1948,49.7907],[4.1865,49.7934],[4.1826,49.7866],[4.1848,49.7853],[4.1797,49.7842],[4.1792,49.7849],[4.1794,49.7838],[4.1683,49.7790],[4.1661,49.7801],[4.1671,49.7811],[4.1655,49.7811],[4.1652,49.7794],[4.1626,49.7806],[4.1606,49.7786],[4.1612,49.7811],[4.1642,49.7805],[4.1650,49.7818],[4.1653,49.7828],[4.1622,49.7834],[4.1690,49.7862],[4.1639,49.7864],[4.1609,49.7841],[4.1590,49.7847],[4.1600,49.7862],[4.1625,49.7863],[4.1578,49.7873],[4.1582,49.7887],[4.1645,49.7879],[4.1596,49.7905],[4.1574,49.7898],[4.1497,49.7925],[4.1514,49.7937],[4.1538,49.7925],[4.1588,49.7953],[4.1656,49.7930],[4.1679,49.7949],[4.1823,49.7911],[4.1813,49.7923],[4.1837,49.7930],[4.1843,49.7944],[4.1778,49.7968],[4.1795,49.8013],[4.1728,49.8028],[4.1729,49.8038],[4.1770,49.8040],[4.1781,49.8027],[4.1810,49.8025],[4.1838,49.8038],[4.1837,49.8072],[4.1857,49.8036],[4.1970,49.8010],[4.1998,49.8020],[4.1988,49.8051],[4.2009,49.8051],[4.2025,49.8030],[4.2048,49.8031],[4.2070,49.8058],[4.2042,49.8084],[4.2057,49.8122],[4.2094,49.8150],[4.2089,49.8161],[4.2149,49.8147],[4.2190,49.8156],[4.2249,49.8094],[4.2295,49.8070],[4.2341,49.8076],[4.2380,49.8059],[4.2396,49.8076],[4.2372,49.8085],[4.2385,49.8093],[4.2408,49.8082]]]}},{"type":"Feature","properties":{"name":"Forêt domaniale de la Haye d\u0027Aubenton"},"geometry":{"type":"Polygon","coordinates":[[[4.0838,49.8423],[4.0923,49.8401],[4.0894,49.8375],[4.0911,49.8362],[4.0899,49.8350],[4.0878,49.8355],[4.0874,49.8291],[4.0903,49.8270],[4.0891,49.8266],[4.0922,49.8243],[4.0967,49.8252],[4.1019,49.8232],[4.1093,49.8240],[4.1094,49.8258],[4.1114,49.8258],[4.1113,49.8234],[4.1079,49.8226],[4.1071,49.8212],[4.1083,49.8206],[4.1058,49.8199],[4.1070,49.8190],[4.1085,49.8205],[4.1091,49.8191],[4.1123,49.8196],[4.1138,49.8170],[4.1127,49.8164],[4.1156,49.8149],[4.1146,49.8148],[4.1153,49.8141],[4.1173,49.8142],[4.1168,49.8124],[4.1198,49.8102],[4.1247,49.8105],[4.1264,49.8084],[4.1311,49.8095],[4.1305,49.8113],[4.1278,49.8104],[4.1308,49.8116],[4.1324,49.8080],[4.1357,49.8055],[4.1324,49.8005],[4.1136,49.8035],[4.1172,49.8105],[4.1149,49.8123],[4.1121,49.8098],[4.1095,49.8039],[4.1058,49.8078],[4.1049,49.8037],[4.0998,49.8039],[4.0983,49.8075],[4.1026,49.8085],[4.1015,49.8098],[4.1026,49.8106],[4.1006,49.8126],[4.1014,49.8131],[4.0993,49.8153],[4.0944,49.8145],[4.0947,49.8155],[4.0929,49.8161],[4.0913,49.8151],[4.0915,49.8164],[4.0942,49.8177],[4.0915,49.8189],[4.0948,49.8201],[4.0916,49.8224],[4.0859,49.8219],[4.0778,49.8284],[4.0743,49.8282],[4.0747,49.8292],[4.0664,49.8341],[4.0676,49.8386],[4.0800,49.8359],[4.0838,49.8423]]]}},{"type":"Feature","properties":{"name":"Forêt domaniale de la Haye d\u0027Aubenton"},"geometry":{"type":"Polygon","coordinates":[[[4.1650,49.8276],[4.1637,49.8269],[4.1652,49.8266],[4.1658,49.8239],[4.1647,49.8228],[4.1680,49.8216],[4.1646,49.8206],[4.1660,49.8201],[4.1634,49.8176],[4.1654,49.8181],[4.1748,49.8111],[4.1559,49.7957],[4.1495,49.7980],[4.1547,49.8040],[4.1587,49.8060],[4.1571,49.8070],[4.1592,49.8102],[4.1574,49.8111],[4.1600,49.8114],[4.1593,49.8126],[4.1554,49.8125],[4.1642,49.8200],[4.1645,49.8221],[4.1618,49.8250],[4.1636,49.8269],[4.1609,49.8285],[4.1650,49.8276]]]}},{"type":"Feature","properties":{"name":"Bois des Seigneurs"},"geometry":{"type":"Polygon","coordinates":[[[5.4554,49.5528],[5.4519,49.5532],[5.4502,49.5501],[5.4442,49.5501],[5.4482,49.5478],[5.4467,49.5413],[5.4435,49.5419],[5.4439,49.5401],[5.4491,49.5373],[5.4492,49.5347],[5.4467,49.5333],[5.4473,49.5290],[5.4463,49.5290],[5.4457,49.5332],[5.4421,49.5327],[5.4349,49.5354],[5.4207,49.5347],[5.4261,49.5387],[5.4230,49.5402],[5.4323,49.5419],[5.4339,49.5449],[5.4346,49.5429],[5.4377,49.5452],[5.4284,49.5439],[5.4245,49.5479],[5.4272,49.5496],[5.4267,49.5504],[5.4368,49.5530],[5.4359,49.5551],[5.4370,49.5558],[5.4439,49.5554],[5.4499,49.5581],[5.4544,49.5545],[5.4562,49.5549],[5.4554,49.5528]]]}},{"type":"Feature","properties":{"name":"Bois Robert"},"geometry":{"type":"Polygon","coordinates":[[[4.2902,50.0960],[4.2819,50.1205],[4.2878,50.1188],[4.2868,50.1203],[4.2889,50.1192],[4.2980,50.1204],[4.3084,50.1184],[4.3170,50.1219],[4.3235,50.1210],[4.3239,50.1219],[4.3275,50.1170],[4.3283,50.1136],[4.3262,50.1084],[4.3274,50.1064],[4.3260,50.1075],[4.3260,50.1043],[4.3243,50.1016],[4.3292,50.1004],[4.3299,50.0962],[4.3209,50.0913],[4.3299,50.0906],[4.3281,50.0883],[4.3236,50.0884],[4.3221,50.0865],[4.3238,50.0882],[4.3291,50.0884],[4.3299,50.0861],[4.3395,50.0882],[4.3395,50.0863],[4.3364,50.0858],[4.3380,50.0823],[4.3375,50.0796],[4.3403,50.0778],[4.3421,50.0787],[4.3409,50.0804],[4.3434,50.0813],[4.3423,50.0823],[4.3427,50.0857],[4.3455,50.0850],[4.3483,50.0865],[4.3603,50.0873],[4.3602,50.0829],[4.3673,50.0858],[4.3673,50.0867],[4.3676,50.0859],[4.3769,50.0896],[4.3775,50.0851],[4.3841,50.0809],[4.3796,50.0827],[4.3793,50.0813],[4.3808,50.0805],[4.3846,50.0810],[4.3906,50.0842],[4.3936,50.0830],[4.3889,50.0809],[4.3907,50.0795],[4.3869,50.0755],[4.3878,50.0737],[4.3865,50.0757],[4.3841,50.0760],[4.3855,50.0749],[4.3848,50.0741],[4.3854,50.0748],[4.3838,50.0757],[4.3780,50.0730],[4.3735,50.0738],[4.3735,50.0756],[4.3718,50.0763],[4.3705,50.0750],[4.3700,50.0777],[4.3730,50.0792],[4.3731,50.0779],[4.3781,50.0778],[4.3765,50.0836],[4.3752,50.0817],[4.3677,50.0802],[4.3662,50.0784],[4.3661,50.0756],[4.3640,50.0742],[4.3574,50.0732],[4.3521,50.0699],[4.3500,50.0717],[4.3455,50.0697],[4.3508,50.0719],[4.3521,50.0703],[4.3608,50.0757],[4.3549,50.0753],[4.3486,50.0785],[4.3481,50.0775],[4.3517,50.0766],[4.3496,50.0754],[4.3444,50.0754],[4.3330,50.0710],[4.3351,50.0688],[4.3378,50.0681],[4.3453,50.0696],[4.3437,50.0682],[4.3365,50.0669],[4.3305,50.0690],[4.3300,50.0726],[4.3250,50.0732],[4.3182,50.0721],[4.3147,50.0738],[4.3056,50.0738],[4.3038,50.0717],[4.3063,50.0759],[4.3096,50.0760],[4.3079,50.0781],[4.3049,50.0756],[4.3014,50.0789],[4.2993,50.0775],[4.2957,50.0785],[4.2945,50.0772],[4.2914,50.0926],[4.3016,50.0940],[4.2974,50.0965],[4.2902,50.0960]]]}},{"type":"Feature","properties":{"name":"Bois de la Boverie"},"geometry":{"type":"Polygon","coordinates":[[[5.2513,50.1775],[5.2533,50.1771],[5.2511,50.1770],[5.2480,50.1748],[5.2448,50.1748],[5.2414,50.1722],[5.2327,50.1709],[5.2326,50.1699],[5.2347,50.1690],[5.2414,50.1703],[5.2392,50.1698],[5.2388,50.1683],[5.2398,50.1681],[5.2445,50.1698],[5.2451,50.1691],[5.2440,50.1709],[5.2460,50.1715],[5.2487,50.1701],[5.2575,50.1721],[5.2621,50.1710],[5.2599,50.1670],[5.2590,50.1680],[5.2524,50.1657],[5.2496,50.1669],[5.2506,50.1680],[5.2423,50.1667],[5.2388,50.1652],[5.2390,50.1639],[5.2369,50.1652],[5.2298,50.1639],[5.2281,50.1652],[5.2276,50.1638],[5.2261,50.1650],[5.2274,50.1650],[5.2273,50.1660],[5.2263,50.1652],[5.2251,50.1663],[5.2266,50.1702],[5.2260,50.1727],[5.2246,50.1730],[5.2221,50.1696],[5.2200,50.1701],[5.2198,50.1675],[5.2181,50.1670],[5.2195,50.1658],[5.2179,50.1658],[5.2183,50.1634],[5.2170,50.1634],[5.2167,50.1669],[5.2133,50.1656],[5.2121,50.1696],[5.2148,50.1732],[5.2175,50.1717],[5.2140,50.1709],[5.2153,50.1701],[5.2146,50.1684],[5.2198,50.1712],[5.2202,50.1747],[5.2205,50.1725],[5.2242,50.1774],[5.2220,50.1773],[5.2220,50.1790],[5.2302,50.1894],[5.2344,50.1913],[5.2333,50.1918],[5.2355,50.1932],[5.2376,50.1939],[5.2379,50.1927],[5.2420,50.1949],[5.2435,50.1963],[5.2422,50.1970],[5.2434,50.1992],[5.2475,50.2005],[5.2492,50.1987],[5.2463,50.1971],[5.2485,50.1975],[5.2513,50.1991],[5.2501,50.2002],[5.2532,50.2012],[5.2546,50.2008],[5.2531,50.1998],[5.2539,50.1991],[5.2518,50.1988],[5.2509,50.1970],[5.2335,50.1893],[5.2295,50.1848],[5.2309,50.1830],[5.2287,50.1794],[5.2295,50.1781],[5.2282,50.1764],[5.2291,50.1757],[5.2261,50.1771],[5.2259,50.1763],[5.2318,50.1724],[5.2336,50.1741],[5.2328,50.1750],[5.2359,50.1735],[5.2436,50.1741],[5.2373,50.1742],[5.2355,50.1757],[5.2374,50.1763],[5.2385,50.1746],[5.2417,50.1747],[5.2513,50.1775]]]}},{"type":"Feature","properties":{"name":"Forêt communale de La Neuville-aux-Joûtes"},"geometry":{"type":"Polygon","coordinates":[[[4.2523,49.9336],[4.2496,49.9318],[4.2496,49.9306],[4.2417,49.9319],[4.2429,49.9356],[4.2400,49.9334],[4.2401,49.9319],[4.2387,49.9323],[4.2372,49.9290],[4.2350,49.9294],[4.2334,49.9323],[4.2300,49.9332],[4.2293,49.9353],[4.2318,49.9362],[4.2300,49.9370],[4.2268,49.9351],[4.2258,49.9360],[4.2252,49.9332],[4.2204,49.9307],[4.2201,49.9328],[4.2215,49.9380],[4.2239,49.9377],[4.2247,49.9389],[4.2322,49.9401],[4.2331,49.9439],[4.2355,49.9433],[4.2348,49.9423],[4.2360,49.9415],[4.2391,49.9413],[4.2462,49.9437],[4.2503,49.9466],[4.2505,49.9442],[4.2586,49.9449],[4.2588,49.9440],[4.2525,49.9436],[4.2512,49.9413],[4.2534,49.9347],[4.2523,49.9336]]]}},{"type":"Feature","properties":{"name":"Bois Communal"},"geometry":{"type":"Polygon","coordinates":[[[5.3369,49.5470],[5.3441,49.5539],[5.3432,49.5557],[5.3465,49.5563],[5.3484,49.5550],[5.3476,49.5522],[5.3500,49.5495],[5.3466,49.5476],[5.3476,49.5441],[5.3463,49.5437],[5.3492,49.5403],[5.3484,49.5290],[5.3332,49.5306],[5.3244,49.5268],[5.3221,49.5238],[5.3143,49.5201],[5.3127,49.5236],[5.3156,49.5218],[5.3155,49.5229],[5.3208,49.5276],[5.3287,49.5319],[5.3368,49.5327],[5.3416,49.5314],[5.3470,49.5319],[5.3455,49.5357],[5.3260,49.5322],[5.3208,49.5286],[5.3104,49.5251],[5.3116,49.5277],[5.3161,49.5304],[5.3184,49.5338],[5.3211,49.5405],[5.3282,49.5451],[5.3369,49.5470]]]}},{"type":"Feature","properties":{"name":"Forêt de Trélon"},"geometry":{"type":"Polygon","coordinates":[[[4.0805,50.0814],[4.1040,50.0882],[4.1143,50.0953],[4.1144,50.0925],[4.1306,50.0871],[4.1463,50.1006],[4.1534,50.1025],[4.1586,50.1075],[4.1649,50.1105],[4.1674,50.1143],[4.1723,50.1153],[4.1744,50.1152],[4.1748,50.1133],[4.1712,50.1125],[4.1712,50.1115],[4.1750,50.1118],[4.1748,50.1101],[4.1724,50.1099],[4.1723,50.1089],[4.1747,50.1094],[4.1735,50.1078],[4.1767,50.1072],[4.1750,50.1055],[4.1780,50.0997],[4.1825,50.0941],[4.1851,50.0941],[4.1897,50.0897],[4.1892,50.0850],[4.1928,50.0859],[4.1908,50.0816],[4.1818,50.0789],[4.1812,50.0770],[4.1825,50.0769],[4.1805,50.0765],[4.1807,50.0754],[4.1846,50.0743],[4.1791,50.0719],[4.1801,50.0710],[4.1740,50.0715],[4.1734,50.0701],[4.1660,50.0672],[4.1589,50.0672],[4.1574,50.0664],[4.1576,50.0650],[4.1552,50.0646],[4.1531,50.0656],[4.1551,50.0611],[4.1462,50.0612],[4.1422,50.0630],[4.1417,50.0615],[4.1344,50.0607],[4.1337,50.0620],[4.1357,50.0635],[4.1351,50.0658],[4.1327,50.0621],[4.1282,50.0621],[4.1281,50.0607],[4.1249,50.0595],[4.1239,50.0596],[4.1243,50.0609],[4.1221,50.0615],[4.1220,50.0595],[4.1176,50.0600],[4.1201,50.0601],[4.1202,50.0616],[4.1152,50.0646],[4.1144,50.0617],[4.1135,50.0616],[4.1145,50.0596],[4.1097,50.0632],[4.1097,50.0643],[4.1112,50.0644],[4.1096,50.0648],[4.1096,50.0668],[4.1155,50.0691],[4.1133,50.0706],[4.0971,50.0724],[4.0921,50.0748],[4.0859,50.0723],[4.0805,50.0814]]]}},{"type":"Feature","properties":{"name":"Forêt de Jaulnay"},"geometry":{"type":"Polygon","coordinates":[[[5.0656,49.4707],[5.0635,49.4739],[5.0567,49.4766],[5.0383,49.4737],[5.0323,49.4757],[5.0274,49.4741],[5.0249,49.4717],[5.0242,49.4700],[5.0268,49.4660],[5.0268,49.4636],[5.0257,49.4657],[5.0235,49.4666],[5.0220,49.4646],[5.0154,49.4632],[5.0210,49.4615],[5.0192,49.4597],[5.0241,49.4597],[5.0292,49.4571],[5.0225,49.4530],[5.0210,49.4503],[5.0245,49.4538],[5.0271,49.4547],[5.0336,49.4531],[5.0360,49.4550],[5.0408,49.4555],[5.0474,49.4523],[5.0453,49.4512],[5.0459,49.4498],[5.0432,49.4493],[5.0458,49.4480],[5.0456,49.4460],[5.0421,49.4442],[5.0407,49.4443],[5.0433,49.4473],[5.0401,49.4482],[5.0391,49.4496],[5.0453,49.4515],[5.0423,49.4512],[5.0404,49.4541],[5.0381,49.4536],[5.0390,49.4519],[5.0361,49.4506],[5.0254,49.4501],[5.0244,49.4513],[5.0263,49.4518],[5.0260,49.4528],[5.0225,49.4497],[5.0189,49.4487],[5.0200,49.4504],[5.0185,49.4516],[5.0208,49.4537],[5.0195,49.4539],[5.0244,49.4569],[5.0163,49.4581],[5.0159,49.4603],[5.0186,49.4616],[5.0148,49.4631],[5.0157,49.4661],[5.0212,49.4691],[5.0234,49.4726],[5.0201,49.4687],[5.0098,49.4649],[5.0098,49.4634],[5.0126,49.4643],[5.0131,49.4606],[5.0080,49.4600],[5.0064,49.4628],[5.0045,49.4618],[5.0034,49.4592],[5.0007,49.4591],[5.0000,49.4606],[4.9959,49.4604],[4.9955,49.4590],[4.9899,49.4572],[4.9891,49.4583],[4.9915,49.4587],[4.9894,49.4605],[4.9906,49.4633],[4.9964,49.4648],[4.9941,49.4653],[4.9945,49.4662],[4.9902,49.4664],[4.9894,49.4671],[4.9917,49.4685],[4.9936,49.4675],[4.9883,49.4711],[4.9930,49.4713],[4.9957,49.4690],[4.9953,49.4715],[5.0016,49.4727],[4.9938,49.4732],[4.9920,49.4745],[4.9993,49.4740],[4.9998,49.4748],[5.0026,49.4738],[5.0035,49.4726],[4.9998,49.4700],[5.0070,49.4667],[5.0072,49.4651],[5.0086,49.4671],[5.0082,49.4695],[5.0097,49.4706],[5.0095,49.4721],[5.0018,49.4752],[5.0038,49.4769],[4.9961,49.4760],[4.9970,49.4770],[4.9948,49.4780],[5.0074,49.4791],[5.0072,49.4752],[5.0110,49.4745],[5.0132,49.4725],[5.0104,49.4669],[5.0128,49.4691],[5.0195,49.4705],[5.0215,49.4735],[5.0237,49.4745],[5.0238,49.4769],[5.0189,49.4767],[5.0200,49.4770],[5.0204,49.4801],[5.0186,49.4811],[5.0198,49.4834],[5.0277,49.4874],[5.0262,49.4889],[5.0291,49.4901],[5.0281,49.4919],[5.0320,49.4910],[5.0318,49.4920],[5.0384,49.4952],[5.0354,49.4991],[5.0345,49.4987],[5.0334,49.5038],[5.0309,49.5036],[5.0328,49.5059],[5.0322,49.5100],[5.0256,49.5072],[5.0201,49.5081],[5.0216,49.5038],[5.0134,49.5025],[5.0149,49.4982],[5.0284,49.5017],[5.0285,49.4974],[5.0245,49.4975],[5.0169,49.4937],[5.0060,49.4926],[4.9973,49.4975],[4.9978,49.5011],[4.9954,49.5017],[4.9953,49.5082],[4.9972,49.5087],[4.9971,49.5099],[4.9926,49.5115],[4.9838,49.5093],[4.9840,49.5071],[4.9873,49.5047],[4.9882,49.5022],[4.9916,49.5007],[4.9865,49.5016],[4.9807,49.5079],[4.9754,49.5065],[4.9724,49.5027],[4.9709,49.5037],[4.9679,49.5025],[4.9656,49.5047],[4.9642,49.5112],[4.9680,49.5114],[4.9702,49.5100],[4.9734,49.5126],[4.9617,49.5123],[4.9634,49.5149],[4.9585,49.5161],[4.9558,49.5199],[4.9549,49.5182],[4.9558,49.5164],[4.9496,49.5165],[4.9551,49.5123],[4.9527,49.5109],[4.9431,49.5101],[4.9400,49.5134],[4.9414,49.5139],[4.9371,49.5141],[4.9345,49.5128],[4.9340,49.5103],[4.9324,49.5115],[4.9294,49.5096],[4.9260,49.5099],[4.9272,49.5125],[4.9337,49.5151],[4.9344,49.5159],[4.9327,49.5172],[4.9338,49.5181],[4.9355,49.5175],[4.9373,49.5188],[4.9386,49.5180],[4.9372,49.5157],[4.9380,49.5151],[4.9407,49.5183],[4.9393,49.5190],[4.9446,49.5217],[4.9402,49.5225],[4.9459,49.5247],[4.9443,49.5253],[4.9460,49.5275],[4.9424,49.5270],[4.9405,49.5292],[4.9382,49.5274],[4.9384,49.5300],[4.9369,49.5301],[4.9424,49.5322],[4.9439,49.5340],[4.9432,49.5363],[4.9460,49.5384],[4.9443,49.5394],[4.9381,49.5364],[4.9393,49.5351],[4.9378,49.5329],[4.9347,49.5334],[4.9346,49.5345],[4.9328,49.5341],[4.9324,49.5327],[4.9306,49.5351],[4.9366,49.5397],[4.9338,49.5388],[4.9316,49.5403],[4.9358,49.5434],[4.9385,49.5415],[4.9409,49.5436],[4.9467,49.5456],[4.9497,49.5440],[4.9553,49.5474],[4.9544,49.5506],[4.9687,49.5469],[4.9673,49.5443],[4.9697,49.5452],[4.9757,49.5411],[4.9799,49.5433],[4.9808,49.5425],[4.9790,49.5409],[4.9883,49.5432],[4.9894,49.5422],[4.9934,49.5436],[5.0068,49.5445],[5.0084,49.5417],[5.0104,49.5421],[5.0096,49.5403],[5.0016,49.5358],[5.0065,49.5310],[5.0146,49.5338],[5.0146,49.5351],[5.0074,49.5359],[5.0082,49.5364],[5.0069,49.5387],[5.0086,49.5365],[5.0188,49.5378],[5.0198,49.5344],[5.0224,49.5348],[5.0205,49.5342],[5.0225,49.5343],[5.0223,49.5319],[5.0203,49.5316],[5.0250,49.5300],[5.0217,49.5282],[5.0236,49.5264],[5.0198,49.5241],[5.0203,49.5216],[5.0194,49.5209],[5.0173,49.5195],[5.0126,49.5220],[5.0109,49.5203],[5.0100,49.5187],[5.0125,49.5178],[5.0104,49.5151],[5.0134,49.5138],[5.0122,49.5128],[5.0141,49.5118],[5.0212,49.5123],[5.0205,49.5180],[5.0249,49.5141],[5.0284,49.5129],[5.0395,49.5163],[5.0407,49.5177],[5.0416,49.5167],[5.0566,49.5150],[5.0576,49.5152],[5.0561,49.5160],[5.0568,49.5170],[5.0593,49.5181],[5.0621,49.5160],[5.0668,49.5189],[5.0714,49.5168],[5.0738,49.5125],[5.0594,49.5071],[5.0606,49.5046],[5.0582,49.5049],[5.0581,49.4997],[5.0629,49.5068],[5.0673,49.5087],[5.0784,49.5078],[5.0790,49.5087],[5.0809,49.5080],[5.0789,49.5078],[5.0783,49.5063],[5.0824,49.5052],[5.0807,49.5066],[5.0854,49.5109],[5.0911,49.5088],[5.0950,49.5116],[5.0966,49.5175],[5.0923,49.5187],[5.0906,49.5209],[5.0930,49.5234],[5.0996,49.5207],[5.1051,49.5252],[5.1041,49.5257],[5.1055,49.5265],[5.1029,49.5288],[5.1313,49.5403],[5.1352,49.5413],[5.1364,49.5398],[5.1405,49.5409],[5.1405,49.5429],[5.1441,49.5414],[5.1504,49.5418],[5.1547,49.5430],[5.1541,49.5445],[5.1559,49.5448],[5.1530,49.5379],[5.1463,49.5363],[5.1464,49.5340],[5.1527,49.5368],[5.1509,49.5361],[5.1528,49.5356],[5.1541,49.5327],[5.1510,49.5312],[5.1531,49.5300],[5.1500,49.5298],[5.1473,49.5319],[5.1447,49.5309],[5.1452,49.5286],[5.1408,49.5281],[5.1412,49.5252],[5.1338,49.5252],[5.1311,49.5225],[5.1275,49.5229],[5.1301,49.5210],[5.1272,49.5167],[5.1281,49.5139],[5.1236,49.5131],[5.1223,49.5147],[5.1179,49.5124],[5.1235,49.5109],[5.1186,49.5091],[5.1193,49.5078],[5.1285,49.5082],[5.1290,49.5070],[5.1255,49.5052],[5.1282,49.5057],[5.1291,49.5043],[5.1314,49.5047],[5.1320,49.5026],[5.1367,49.5012],[5.1390,49.5025],[5.1494,49.4985],[5.1421,49.4947],[5.1488,49.4941],[5.1478,49.4936],[5.1483,49.4920],[5.1453,49.4918],[5.1499,49.4898],[5.1488,49.4884],[5.1515,49.4888],[5.1474,49.4865],[5.1500,49.4860],[5.1489,49.4849],[5.1500,49.4838],[5.1490,49.4799],[5.1501,49.4787],[5.1550,49.4815],[5.1555,49.4802],[5.1576,49.4808],[5.1563,49.4795],[5.1584,49.4772],[5.1639,49.4776],[5.1640,49.4744],[5.1666,49.4721],[5.1554,49.4675],[5.1557,49.4650],[5.1573,49.4649],[5.1525,49.4616],[5.1520,49.4607],[5.1537,49.4607],[5.1522,49.4562],[5.1454,49.4589],[5.1481,49.4612],[5.1422,49.4641],[5.1409,49.4629],[5.1382,49.4647],[5.1338,49.4631],[5.1300,49.4641],[5.1300,49.4658],[5.1273,49.4678],[5.1295,49.4711],[5.1277,49.4732],[5.1287,49.4779],[5.1303,49.4787],[5.1260,49.4803],[5.1266,49.4826],[5.1233,49.4837],[5.1217,49.4828],[5.1182,49.4853],[5.1141,49.4859],[5.1085,49.4899],[5.1061,49.4896],[5.1012,49.4924],[5.1031,49.4936],[5.0977,49.4974],[5.0964,49.4966],[5.0939,49.4983],[5.0915,49.4972],[5.0900,49.4933],[5.0904,49.4892],[5.0889,49.4893],[5.0881,49.4865],[5.0834,49.4864],[5.0823,49.4851],[5.0841,49.4840],[5.0846,49.4811],[5.0856,49.4813],[5.0837,49.4787],[5.0858,49.4777],[5.0841,49.4766],[5.0853,49.4741],[5.0832,49.4739],[5.0829,49.4713],[5.0697,49.4703],[5.0662,49.4681],[5.0668,49.4695],[5.0656,49.4707]]]}},{"type":"Feature","properties":{"name":"Forêt d\u0027Estremont"},"geometry":{"type":"Polygon","coordinates":[[[4.2600,49.7437],[4.2567,49.7439],[4.2552,49.7469],[4.2499,49.7448],[4.2449,49.7405],[4.2541,49.7419],[4.2551,49.7377],[4.2579,49.7377],[4.2585,49.7355],[4.2566,49.7350],[4.2577,49.7357],[4.2523,49.7373],[4.2452,49.7343],[4.2430,49.7302],[4.2354,49.7309],[4.2345,49.7295],[4.2361,49.7295],[4.2353,49.7277],[4.2345,49.7291],[4.2270,49.7279],[4.2274,49.7295],[4.2239,49.7327],[4.2239,49.7344],[4.2256,49.7357],[4.2253,49.7405],[4.2272,49.7448],[4.2290,49.7452],[4.2269,49.7458],[4.2314,49.7477],[4.2300,49.7491],[4.2315,49.7503],[4.2322,49.7495],[4.2348,49.7504],[4.2341,49.7529],[4.2350,49.7535],[4.2375,49.7545],[4.2383,49.7531],[4.2396,49.7533],[4.2399,49.7559],[4.2423,49.7574],[4.2435,49.7564],[4.2430,49.7553],[4.2449,49.7560],[4.2469,49.7549],[4.2499,49.7572],[4.2541,49.7570],[4.2547,49.7584],[4.2598,49.7588],[4.2554,49.7571],[4.2574,49.7564],[4.2564,49.7558],[4.2581,49.7544],[4.2560,49.7532],[4.2599,49.7535],[4.2637,49.7556],[4.2625,49.7530],[4.2651,49.7538],[4.2668,49.7563],[4.2689,49.7558],[4.2661,49.7544],[4.2673,49.7519],[4.2711,49.7548],[4.2695,49.7545],[4.2694,49.7554],[4.2724,49.7556],[4.2717,49.7523],[4.2736,49.7523],[4.2723,49.7501],[4.2653,49.7447],[4.2650,49.7456],[4.2633,49.7438],[4.2619,49.7448],[4.2609,49.7441],[4.2622,49.7435],[4.2600,49.7437]]]}},{"type":"Feature","properties":{"name":"Les Epioux"},"geometry":{"type":"Polygon","coordinates":[[[5.3024,49.7311],[5.3016,49.7299],[5.2980,49.7296],[5.2949,49.7260],[5.2902,49.7263],[5.2873,49.7275],[5.2852,49.7332],[5.2788,49.7309],[5.2773,49.7329],[5.2784,49.7370],[5.2745,49.7381],[5.2705,49.7333],[5.2713,49.7313],[5.2751,49.7294],[5.2694,49.7257],[5.2685,49.7258],[5.2695,49.7279],[5.2669,49.7282],[5.2662,49.7267],[5.2585,49.7286],[5.2579,49.7266],[5.2568,49.7266],[5.2587,49.7301],[5.2631,49.7321],[5.2586,49.7401],[5.2608,49.7439],[5.2552,49.7469],[5.2499,49.7455],[5.2493,49.7472],[5.2581,49.7514],[5.2602,49.7541],[5.2619,49.7506],[5.2642,49.7506],[5.2684,49.7597],[5.2699,49.7597],[5.2688,49.7644],[5.2657,49.7658],[5.2598,49.7637],[5.2565,49.7639],[5.2533,49.7679],[5.2471,49.7682],[5.2482,49.7714],[5.2462,49.7723],[5.2353,49.7704],[5.2355,49.7717],[5.2369,49.7710],[5.2416,49.7728],[5.2449,49.7772],[5.2449,49.7753],[5.2494,49.7750],[5.2469,49.7761],[5.2477,49.7770],[5.2510,49.7763],[5.2480,49.7773],[5.2517,49.7784],[5.2491,49.7816],[5.2472,49.7820],[5.2482,49.7828],[5.2476,49.7847],[5.2516,49.7849],[5.2512,49.7859],[5.2526,49.7863],[5.2575,49.7856],[5.2546,49.7866],[5.2555,49.7869],[5.2545,49.7878],[5.2521,49.7870],[5.2545,49.7918],[5.2624,49.7960],[5.2567,49.7967],[5.2610,49.8023],[5.2863,49.8085],[5.2928,49.8088],[5.2923,49.8067],[5.2969,49.8059],[5.2947,49.8040],[5.2993,49.8058],[5.3013,49.8040],[5.3029,49.8046],[5.3033,49.8069],[5.3053,49.8075],[5.3126,49.8074],[5.3118,49.8061],[5.3134,49.8043],[5.3106,49.8023],[5.3188,49.7990],[5.3190,49.7971],[5.3213,49.7963],[5.3208,49.7950],[5.3294,49.7940],[5.3199,49.7810],[5.3071,49.7764],[5.3070,49.7776],[5.3048,49.7755],[5.3028,49.7754],[5.3044,49.7744],[5.2977,49.7679],[5.2951,49.7634],[5.2954,49.7495],[5.2943,49.7469],[5.3050,49.7371],[5.3072,49.7290],[5.3111,49.7245],[5.3111,49.7228],[5.3109,49.7239],[5.3100,49.7217],[5.3072,49.7224],[5.3097,49.7236],[5.3097,49.7253],[5.3030,49.7276],[5.3021,49.7304],[5.3040,49.7311],[5.3024,49.7311]]]}},{"type":"Feature","properties":{"name":"Forêt domaniale de L\u0027Abbé-Val-Joly"},"geometry":{"type":"Polygon","coordinates":[[[4.1186,50.1161],[4.1177,50.1178],[4.1271,50.1192],[4.1279,50.1170],[4.1348,50.1111],[4.1341,50.1097],[4.1369,50.1066],[4.1411,50.1054],[4.1398,50.1038],[4.1435,50.1037],[4.1472,50.1012],[4.1418,50.1061],[4.1381,50.1068],[4.1348,50.1126],[4.1486,50.1142],[4.1514,50.1166],[4.1517,50.1206],[4.1545,50.1162],[4.1603,50.1159],[4.1604,50.1148],[4.1643,50.1131],[4.1620,50.1113],[4.1652,50.1110],[4.1586,50.1075],[4.1534,50.1025],[4.1463,50.1006],[4.1306,50.0871],[4.1144,50.0925],[4.1143,50.0953],[4.1040,50.0882],[4.0799,50.0813],[4.0478,50.0839],[4.0476,50.0915],[4.0485,50.0939],[4.0509,50.0940],[4.0485,50.0945],[4.0484,50.0962],[4.0636,50.1090],[4.0721,50.1100],[4.0641,50.1063],[4.0741,50.1087],[4.0746,50.1076],[4.0700,50.1033],[4.0689,50.1015],[4.0699,50.1013],[4.0741,50.1044],[4.0734,50.1050],[4.0780,50.1093],[4.0846,50.1085],[4.0878,50.1046],[4.0907,50.1054],[4.0918,50.1117],[4.0976,50.1123],[4.1006,50.1140],[4.1026,50.1120],[4.1012,50.1095],[4.1034,50.1051],[4.1071,50.1035],[4.1074,50.0990],[4.1112,50.0966],[4.1190,50.1065],[4.1136,50.1082],[4.1129,50.1113],[4.1104,50.1139],[4.1127,50.1155],[4.1181,50.1146],[4.1186,50.1161]]]}},{"type":"Feature","properties":{"name":"Forêt domaniale du Mort-Homme"},"geometry":{"type":"Polygon","coordinates":[[[5.2736,49.2432],[5.2731,49.2462],[5.2794,49.2471],[5.2800,49.2486],[5.2830,49.2490],[5.2838,49.2480],[5.2887,49.2522],[5.2900,49.2515],[5.2928,49.2530],[5.2958,49.2517],[5.2980,49.2542],[5.2974,49.2563],[5.2986,49.2574],[5.3065,49.2521],[5.3020,49.2499],[5.3045,49.2488],[5.3026,49.2477],[5.3033,49.2462],[5.2920,49.2452],[5.2844,49.2420],[5.2803,49.2358],[5.2820,49.2345],[5.2803,49.2293],[5.2753,49.2291],[5.2734,49.2272],[5.2744,49.2253],[5.2734,49.2234],[5.2711,49.2240],[5.2697,49.2228],[5.2676,49.2240],[5.2610,49.2226],[5.2574,49.2268],[5.2625,49.2268],[5.2619,49.2310],[5.2547,49.2308],[5.2468,49.2273],[5.2330,49.2237],[5.2274,49.2319],[5.2249,49.2318],[5.2241,49.2281],[5.2181,49.2295],[5.2216,49.2341],[5.2208,49.2347],[5.2122,49.2364],[5.2102,49.2339],[5.2092,49.2359],[5.2068,49.2356],[5.2054,49.2380],[5.2145,49.2405],[5.2184,49.2385],[5.2218,49.2404],[5.2229,49.2390],[5.2262,49.2384],[5.2255,49.2376],[5.2284,49.2374],[5.2284,49.2388],[5.2319,49.2403],[5.2335,49.2391],[5.2382,49.2397],[5.2408,49.2385],[5.2438,49.2404],[5.2451,49.2435],[5.2382,49.2485],[5.2422,49.2498],[5.2580,49.2488],[5.2658,49.2500],[5.2681,49.2490],[5.2696,49.2509],[5.2706,49.2499],[5.2644,49.2462],[5.2624,49.2481],[5.2607,49.2473],[5.2593,49.2482],[5.2559,49.2466],[5.2627,49.2429],[5.2655,49.2439],[5.2663,49.2403],[5.2648,49.2415],[5.2628,49.2402],[5.2606,49.2405],[5.2572,49.2375],[5.2540,49.2387],[5.2488,49.2358],[5.2599,49.2338],[5.2601,49.2366],[5.2777,49.2393],[5.2828,49.2422],[5.2807,49.2442],[5.2736,49.2432]]]}},{"type":"Feature","properties":{"name":"Forêt de Chiny"},"geometry":{"type":"Polygon","coordinates":[[[5.4518,49.7126],[5.4471,49.7099],[5.4478,49.7088],[5.4467,49.7096],[5.4414,49.7081],[5.4389,49.7103],[5.4395,49.7116],[5.4380,49.7156],[5.4350,49.7181],[5.4374,49.7187],[5.4395,49.7177],[5.4413,49.7190],[5.4405,49.7203],[5.4420,49.7214],[5.4407,49.7219],[5.4369,49.7192],[5.4394,49.7230],[5.4373,49.7225],[5.4382,49.7312],[5.4437,49.7324],[5.4423,49.7324],[5.4422,49.7354],[5.4444,49.7360],[5.4422,49.7373],[5.4523,49.7377],[5.4576,49.7444],[5.4303,49.7594],[5.4181,49.7605],[5.4138,49.7622],[5.4149,49.7627],[5.4142,49.7633],[5.4108,49.7628],[5.4126,49.7634],[5.4123,49.7643],[5.4246,49.7673],[5.4280,49.7703],[5.4335,49.7672],[5.4363,49.7670],[5.4641,49.7720],[5.4640,49.7697],[5.4665,49.7695],[5.4661,49.7708],[5.4688,49.7721],[5.4752,49.7726],[5.4702,49.7703],[5.4729,49.7687],[5.4722,49.7668],[5.4785,49.7670],[5.4779,49.7554],[5.4775,49.7578],[5.4763,49.7566],[5.4736,49.7577],[5.4737,49.7592],[5.4755,49.7602],[5.4727,49.7604],[5.4751,49.7615],[5.4732,49.7624],[5.4715,49.7609],[5.4724,49.7596],[5.4692,49.7596],[5.4701,49.7574],[5.4777,49.7522],[5.4710,49.7535],[5.4668,49.7525],[5.4686,49.7496],[5.4708,49.7515],[5.4749,49.7515],[5.4777,49.7502],[5.4796,49.7411],[5.4761,49.7411],[5.4775,49.7396],[5.4796,49.7410],[5.4821,49.7304],[5.4804,49.7311],[5.4803,49.7298],[5.4824,49.7292],[5.4739,49.7285],[5.4724,49.7270],[5.4799,49.7216],[5.4779,49.7208],[5.4712,49.7263],[5.4693,49.7254],[5.4694,49.7240],[5.4622,49.7257],[5.4616,49.7249],[5.4633,49.7237],[5.4614,49.7247],[5.4612,49.7232],[5.4630,49.7187],[5.4546,49.7158],[5.4541,49.7135],[5.4518,49.7126]]]}},{"type":"Feature","properties":{"name":"Bois de Vandy"},"geometry":{"type":"Polygon","coordinates":[[[4.7474,49.4630],[4.7526,49.4626],[4.7493,49.4612],[4.7512,49.4603],[4.7505,49.4596],[4.7531,49.4606],[4.7566,49.4578],[4.7571,49.4543],[4.7554,49.4535],[4.7566,49.4524],[4.7561,49.4512],[4.7520,49.4529],[4.7535,49.4498],[4.7596,49.4456],[4.7580,49.4441],[4.7535,49.4489],[4.7511,49.4485],[4.7521,49.4450],[4.7507,49.4411],[4.7518,49.4394],[4.7530,49.4414],[4.7542,49.4404],[4.7580,49.4411],[4.7578,49.4402],[4.7602,49.4411],[4.7512,49.4341],[4.7477,49.4346],[4.7464,49.4333],[4.7417,49.4326],[4.7389,49.4289],[4.7315,49.4295],[4.7313,49.4282],[4.7340,49.4266],[4.7309,49.4232],[4.7305,49.4215],[4.7318,49.4209],[4.7271,49.4189],[4.7258,49.4202],[4.7262,49.4212],[4.7237,49.4203],[4.7258,49.4187],[4.7252,49.4177],[4.7177,49.4200],[4.7176,49.4232],[4.7187,49.4238],[4.7216,49.4251],[4.7230,49.4230],[4.7253,49.4228],[4.7278,49.4240],[4.7260,49.4247],[4.7309,49.4273],[4.7258,49.4273],[4.7269,49.4286],[4.7242,49.4272],[4.7251,49.4289],[4.7225,49.4313],[4.7237,49.4326],[4.7282,49.4305],[4.7281,49.4355],[4.7320,49.4356],[4.7324,49.4332],[4.7376,49.4325],[4.7372,49.4301],[4.7395,49.4310],[4.7405,49.4330],[4.7453,49.4345],[4.7445,49.4357],[4.7371,49.4342],[4.7365,49.4368],[4.7287,49.4374],[4.7261,49.4399],[4.7222,49.4410],[4.7251,49.4451],[4.7264,49.4447],[4.7245,49.4410],[4.7272,49.4410],[4.7270,49.4402],[4.7310,49.4411],[4.7331,49.4399],[4.7352,49.4417],[4.7367,49.4405],[4.7376,49.4414],[4.7343,49.4439],[4.7358,49.4460],[4.7347,49.4481],[4.7254,49.4468],[4.7264,49.4502],[4.7240,49.4501],[4.7229,49.4553],[4.7211,49.4555],[4.7218,49.4568],[4.7244,49.4569],[4.7245,49.4560],[4.7298,49.4576],[4.7300,49.4559],[4.7314,49.4560],[4.7316,49.4590],[4.7360,49.4621],[4.7394,49.4611],[4.7474,49.4630]]]}},{"type":"Feature","properties":{"name":"Bois de la Marfée"},"geometry":{"type":"Polygon","coordinates":[[[4.9175,49.6804],[4.9176,49.6788],[4.9226,49.6768],[4.9213,49.6762],[4.9243,49.6758],[4.9227,49.6734],[4.9248,49.6740],[4.9238,49.6722],[4.9279,49.6721],[4.9270,49.6702],[4.9225,49.6688],[4.9270,49.6687],[4.9307,49.6648],[4.9340,49.6634],[4.9303,49.6636],[4.9274,49.6666],[4.9268,49.6651],[4.9242,49.6643],[4.9249,49.6652],[4.9218,49.6666],[4.9182,49.6652],[4.9213,49.6646],[4.9145,49.6645],[4.9135,49.6618],[4.9084,49.6595],[4.9022,49.6590],[4.9024,49.6569],[4.8988,49.6561],[4.8963,49.6491],[4.8949,49.6515],[4.8916,49.6475],[4.8933,49.6470],[4.8960,49.6488],[4.8951,49.6442],[4.8983,49.6444],[4.9008,49.6388],[4.8975,49.6393],[4.8929,49.6372],[4.8913,49.6348],[4.8998,49.6332],[4.8979,49.6306],[4.9022,49.6301],[4.8995,49.6277],[4.9008,49.6264],[4.9021,49.6275],[4.9038,49.6270],[4.9016,49.6251],[4.9029,49.6236],[4.8965,49.6234],[4.8923,49.6269],[4.8899,49.6248],[4.8937,49.6207],[4.8989,49.6202],[4.8995,49.6171],[4.8908,49.6200],[4.8886,49.6177],[4.8862,49.6177],[4.8854,49.6142],[4.8831,49.6125],[4.8819,49.6130],[4.8828,49.6147],[4.8712,49.6205],[4.8656,49.6207],[4.8697,49.6145],[4.8707,49.6153],[4.8739,49.6138],[4.8696,49.6091],[4.8691,49.6069],[4.8679,49.6097],[4.8698,49.6110],[4.8666,49.6118],[4.8582,49.6191],[4.8595,49.6188],[4.8644,49.6232],[4.8638,49.6253],[4.8688,49.6254],[4.8746,49.6238],[4.8752,49.6224],[4.8778,49.6266],[4.8833,49.6272],[4.8799,49.6276],[4.8806,49.6287],[4.8878,49.6304],[4.8830,49.6301],[4.8774,49.6271],[4.8718,49.6267],[4.8687,49.6285],[4.8684,49.6300],[4.8690,49.6314],[4.8763,49.6328],[4.8763,49.6339],[4.8825,49.6340],[4.8871,49.6380],[4.8886,49.6371],[4.8909,49.6392],[4.8871,49.6413],[4.8902,49.6436],[4.8947,49.6441],[4.8909,49.6460],[4.8848,49.6420],[4.8785,49.6436],[4.8864,49.6473],[4.8926,49.6538],[4.8931,49.6528],[4.8947,49.6535],[4.8960,49.6589],[4.8946,49.6647],[4.8951,49.6700],[4.8960,49.6718],[4.8974,49.6713],[4.8956,49.6743],[4.8961,49.6755],[4.8998,49.6733],[4.9023,49.6733],[4.9042,49.6744],[4.9022,49.6757],[4.9064,49.6784],[4.9057,49.6776],[4.9085,49.6767],[4.9104,49.6740],[4.9169,49.6742],[4.9180,49.6755],[4.9124,49.6790],[4.9148,49.6796],[4.9126,49.6804],[4.9175,49.6804]]]}},{"type":"Feature","properties":{"name":"Forêt domaniale de Saint-Michel-en-Thiérache"},"geometry":{"type":"Polygon","coordinates":[[[4.2025,49.9571],[4.2109,49.9580],[4.2167,49.9572],[4.2246,49.9595],[4.2279,49.9579],[4.2330,49.9576],[4.2298,49.9461],[4.2246,49.9431],[4.2207,49.9372],[4.2198,49.9237],[4.2175,49.9158],[4.2151,49.9170],[4.2151,49.9157],[4.2174,49.9153],[4.2128,49.9129],[4.2046,49.9118],[4.2053,49.9132],[4.2010,49.9124],[4.1988,49.9130],[4.2002,49.9142],[4.1973,49.9133],[4.1867,49.9159],[4.1826,49.9154],[4.1792,49.9122],[4.1698,49.9144],[4.1618,49.9183],[4.1557,49.9187],[4.1547,49.9196],[4.1553,49.9223],[4.1504,49.9219],[4.1481,49.9233],[4.1531,49.9245],[4.1474,49.9253],[4.1521,49.9323],[4.1498,49.9330],[4.1493,49.9355],[4.1511,49.9358],[4.1502,49.9368],[4.1440,49.9363],[4.1452,49.9353],[4.1436,49.9343],[4.1455,49.9334],[4.1441,49.9330],[4.1439,49.9315],[4.1416,49.9310],[4.1418,49.9288],[4.1402,49.9288],[4.1413,49.9275],[4.1401,49.9284],[4.1379,49.9274],[4.1403,49.9301],[4.1379,49.9314],[4.1385,49.9366],[4.1330,49.9370],[4.1296,49.9355],[4.1210,49.9384],[4.1169,49.9378],[4.1484,49.9489],[4.1657,49.9734],[4.1737,49.9762],[4.1778,49.9721],[4.1845,49.9714],[4.1977,49.9674],[4.1984,49.9651],[4.1959,49.9635],[4.1962,49.9592],[4.1948,49.9568],[4.1962,49.9554],[4.1896,49.9524],[4.1905,49.9516],[4.1872,49.9512],[4.1910,49.9508],[4.1969,49.9532],[4.1984,49.9560],[4.2025,49.9571]]]}},{"type":"Feature","properties":{"name":"Bois de Chenet"},"geometry":{"type":"Polygon","coordinates":[[[5.1706,49.9282],[5.1858,49.9340],[5.1916,49.9387],[5.1935,49.9374],[5.1921,49.9351],[5.1923,49.9268],[5.1895,49.9160],[5.1852,49.9157],[5.1843,49.9140],[5.1787,49.9179],[5.1787,49.9192],[5.1803,49.9202],[5.1828,49.9189],[5.1876,49.9196],[5.1870,49.9206],[5.1838,49.9201],[5.1811,49.9222],[5.1782,49.9215],[5.1721,49.9247],[5.1709,49.9224],[5.1694,49.9227],[5.1719,49.9252],[5.1706,49.9282]]]}},{"type":"Feature","properties":{"name":"Forêt communale de Hirson"},"geometry":{"type":"Polygon","coordinates":[[[4.0964,49.9775],[4.0966,49.9644],[4.0924,49.9573],[4.0919,49.9509],[4.0880,49.9447],[4.0845,49.9329],[4.0798,49.9312],[4.0788,49.9320],[4.0798,49.9330],[4.0778,49.9339],[4.0791,49.9350],[4.0787,49.9359],[4.0780,49.9353],[4.0782,49.9369],[4.0751,49.9353],[4.0761,49.9383],[4.0710,49.9387],[4.0674,49.9486],[4.0697,49.9496],[4.0722,49.9486],[4.0750,49.9507],[4.0790,49.9496],[4.0788,49.9480],[4.0808,49.9465],[4.0853,49.9454],[4.0869,49.9485],[4.0813,49.9505],[4.0807,49.9527],[4.0848,49.9572],[4.0844,49.9590],[4.0865,49.9611],[4.0871,49.9642],[4.0844,49.9671],[4.0750,49.9715],[4.0731,49.9740],[4.0657,49.9727],[4.0636,49.9736],[4.0675,49.9807],[4.0737,49.9844],[4.0748,49.9862],[4.0736,49.9874],[4.0670,49.9833],[4.0617,49.9843],[4.0555,49.9727],[4.0528,49.9736],[4.0521,49.9756],[4.0459,49.9747],[4.0408,49.9786],[4.0394,49.9771],[4.0341,49.9757],[4.0342,49.9854],[4.0269,49.9832],[4.0210,49.9848],[4.0288,50.0054],[4.0310,50.0039],[4.0298,50.0024],[4.0370,50.0013],[4.0376,49.9993],[4.0365,49.9972],[4.0376,49.9971],[4.0385,49.9992],[4.0420,49.9985],[4.0441,50.0002],[4.0467,49.9983],[4.0443,49.9968],[4.0504,49.9993],[4.0518,49.9971],[4.0521,49.9989],[4.0555,50.0019],[4.0551,50.0039],[4.0619,50.0018],[4.0606,50.0010],[4.0629,50.0016],[4.0623,49.9991],[4.0650,49.9982],[4.0656,50.0007],[4.0671,50.0011],[4.0627,50.0018],[4.0634,50.0025],[4.0602,50.0044],[4.0587,50.0034],[4.0596,50.0048],[4.0556,50.0048],[4.0547,50.0072],[4.0570,50.0071],[4.0546,50.0098],[4.0568,50.0103],[4.0581,50.0133],[4.0599,50.0126],[4.0593,50.0104],[4.0578,50.0098],[4.0585,50.0087],[4.0618,50.0056],[4.0616,50.0080],[4.0657,50.0051],[4.0639,50.0082],[4.0612,50.0088],[4.0608,50.0103],[4.0632,50.0109],[4.0638,50.0098],[4.0657,50.0116],[4.0710,50.0126],[4.0761,50.0116],[4.0768,50.0129],[4.0798,50.0125],[4.0793,50.0112],[4.0810,50.0110],[4.0805,50.0096],[4.0869,50.0088],[4.0873,50.0103],[4.0860,50.0104],[4.0870,50.0149],[4.0897,50.0145],[4.0884,50.0087],[4.0934,50.0080],[4.0902,49.9996],[4.0881,49.9994],[4.0855,49.9942],[4.0841,49.9936],[4.0852,49.9927],[4.0849,49.9879],[4.0831,49.9859],[4.0865,49.9841],[4.0857,49.9816],[4.0867,49.9802],[4.0848,49.9794],[4.0860,49.9754],[4.0848,49.9742],[4.0836,49.9740],[4.0822,49.9770],[4.0830,49.9738],[4.0817,49.9715],[4.0861,49.9744],[4.0887,49.9722],[4.0910,49.9749],[4.0914,49.9774],[4.0964,49.9775]]]}},{"type":"Feature","properties":{"name":"Bois de Wève"},"geometry":{"type":"Polygon","coordinates":[[[5.2554,50.1030],[5.2573,50.0995],[5.2607,50.0983],[5.2621,50.0951],[5.2669,50.0963],[5.2749,50.0951],[5.2711,50.0977],[5.2690,50.0980],[5.2693,50.0969],[5.2681,50.0968],[5.2696,50.1013],[5.2662,50.1037],[5.2686,50.1066],[5.2635,50.1085],[5.2693,50.1116],[5.2702,50.1133],[5.2680,50.1146],[5.2701,50.1177],[5.2661,50.1213],[5.2648,50.1220],[5.2618,50.1200],[5.2668,50.1159],[5.2601,50.1141],[5.2616,50.1113],[5.2599,50.1112],[5.2609,50.1126],[5.2593,50.1132],[5.2553,50.1100],[5.2592,50.1098],[5.2496,50.1077],[5.2508,50.1045],[5.2554,50.1030]]]}},{"type":"Feature","properties":{"name":"Forêt communale de Saint-Michel-en-Thiérache_Ouest"},"geometry":{"type":"Polygon","coordinates":[[[4.1270,49.9244],[4.1266,49.9208],[4.1233,49.9199],[4.1182,49.9205],[4.1250,49.9210],[4.1255,49.9239],[4.1222,49.9240],[4.1181,49.9214],[4.1126,49.9219],[4.1111,49.9204],[4.1068,49.9213],[4.1169,49.9378],[4.1210,49.9384],[4.1296,49.9355],[4.1268,49.9288],[4.1348,49.9294],[4.1324,49.9284],[4.1330,49.9277],[4.1303,49.9280],[4.1270,49.9244]]]}},{"type":"Feature","properties":{"name":"Haie des Saules"},"geometry":{"type":"Polygon","coordinates":[[[4.0501,50.2037],[4.0473,50.2027],[4.0475,50.2050],[4.0416,50.2045],[4.0418,50.2057],[4.0388,50.2061],[4.0360,50.2082],[4.0403,50.2095],[4.0411,50.2084],[4.0467,50.2095],[4.0486,50.2085],[4.0556,50.2113],[4.0584,50.2096],[4.0636,50.2138],[4.0634,50.2122],[4.0650,50.2127],[4.0637,50.2121],[4.0640,50.2097],[4.0617,50.2094],[4.0635,50.2069],[4.0618,50.2052],[4.0673,50.2038],[4.0666,50.2028],[4.0701,50.1998],[4.0779,50.1983],[4.0789,50.1952],[4.0812,50.1935],[4.0864,50.1947],[4.0910,50.1937],[4.0905,50.1927],[4.0957,50.1929],[4.0997,50.1938],[4.1000,50.1952],[4.1008,50.1940],[4.1085,50.1950],[4.1078,50.2002],[4.1100,50.2002],[4.1102,50.2029],[4.1093,50.2048],[4.1133,50.2046],[4.1173,50.2077],[4.1071,50.2078],[4.1054,50.2094],[4.1057,50.2085],[4.1018,50.2070],[4.0895,50.2062],[4.0858,50.2073],[4.0840,50.2060],[4.0778,50.2060],[4.0832,50.2067],[4.0828,50.2108],[4.0838,50.2107],[4.0823,50.2120],[4.0849,50.2128],[4.0864,50.2130],[4.0876,50.2115],[4.0934,50.2121],[4.0948,50.2095],[4.0970,50.2107],[4.0976,50.2094],[4.1060,50.2103],[4.1072,50.2109],[4.1058,50.2114],[4.1076,50.2118],[4.1128,50.2114],[4.1135,50.2130],[4.1169,50.2131],[4.1148,50.2181],[4.1109,50.2172],[4.1083,50.2183],[4.1045,50.2167],[4.1002,50.2179],[4.1024,50.2250],[4.1034,50.2260],[4.1174,50.2210],[4.1198,50.2236],[4.1162,50.2257],[4.1168,50.2264],[4.1198,50.2245],[4.1218,50.2253],[4.1241,50.2239],[4.1261,50.2266],[4.1297,50.2273],[4.1314,50.2294],[4.1343,50.2290],[4.1389,50.2322],[4.1438,50.2326],[4.1461,50.2390],[4.1490,50.2349],[4.1537,50.2338],[4.1507,50.2338],[4.1506,50.2329],[4.1534,50.2328],[4.1524,50.2320],[4.1479,50.2316],[4.1495,50.2307],[4.1492,50.2297],[4.1552,50.2291],[4.1548,50.2278],[4.1507,50.2277],[4.1512,50.2260],[4.1536,50.2256],[4.1522,50.2229],[4.1578,50.2237],[4.1576,50.2223],[4.1602,50.2220],[4.1637,50.2235],[4.1724,50.2234],[4.1761,50.2215],[4.1757,50.2207],[4.1773,50.2213],[4.1779,50.2154],[4.1819,50.2132],[4.1796,50.2113],[4.1772,50.2126],[4.1770,50.2145],[4.1726,50.2145],[4.1730,50.2178],[4.1749,50.2199],[4.1674,50.2201],[4.1651,50.2220],[4.1643,50.2204],[4.1620,50.2206],[4.1615,50.2190],[4.1653,50.2180],[4.1652,50.2152],[4.1664,50.2148],[4.1655,50.2138],[4.1631,50.2145],[4.1552,50.2134],[4.1617,50.2111],[4.1532,50.2106],[4.1525,50.2122],[4.1535,50.2125],[4.1489,50.2141],[4.1515,50.2104],[4.1476,50.2098],[4.1433,50.2119],[4.1403,50.2101],[4.1397,50.2069],[4.1367,50.2062],[4.1371,50.2079],[4.1346,50.2077],[4.1359,50.2054],[4.1282,50.2039],[4.1298,50.2022],[4.1286,50.2013],[4.1308,50.2000],[4.1304,50.1981],[4.1327,50.1971],[4.1304,50.1963],[4.1310,50.1951],[4.1240,50.1945],[4.1276,50.1926],[4.1269,50.1916],[4.1291,50.1912],[4.1305,50.1890],[4.1225,50.1864],[4.1212,50.1871],[4.1150,50.1837],[4.0991,50.1849],[4.0969,50.1870],[4.0972,50.1895],[4.0948,50.1903],[4.0947,50.1920],[4.0938,50.1909],[4.0954,50.1893],[4.0945,50.1875],[4.0913,50.1868],[4.0874,50.1862],[4.0859,50.1879],[4.0804,50.1876],[4.0789,50.1861],[4.0678,50.1876],[4.0673,50.1831],[4.0718,50.1804],[4.0621,50.1841],[4.0614,50.1870],[4.0626,50.1878],[4.0577,50.1871],[4.0611,50.1885],[4.0612,50.1897],[4.0592,50.1900],[4.0604,50.1923],[4.0587,50.1933],[4.0613,50.1961],[4.0611,50.1979],[4.0638,50.1984],[4.0649,50.1957],[4.0658,50.2000],[4.0606,50.2005],[4.0613,50.2022],[4.0599,50.2021],[4.0619,50.2036],[4.0590,50.2046],[4.0594,50.2063],[4.0543,50.2056],[4.0542,50.2046],[4.0567,50.2043],[4.0501,50.2037]]]}},{"type":"Feature","properties":{"name":"Bois du Defoi"},"geometry":{"type":"Polygon","coordinates":[[[5.0874,49.8675],[5.0860,49.8678],[5.0868,49.8688],[5.0841,49.8691],[5.0837,49.8681],[5.0795,49.8692],[5.0811,49.8704],[5.0791,49.8705],[5.0812,49.8719],[5.0766,49.8721],[5.0789,49.8703],[5.0741,49.8717],[5.0696,49.8809],[5.0704,49.8802],[5.0737,49.8842],[5.0842,49.8883],[5.0858,49.8902],[5.0881,49.8888],[5.0889,49.8906],[5.0902,49.8896],[5.0926,49.8919],[5.0947,49.8907],[5.0941,49.8936],[5.0963,49.8940],[5.0964,49.8923],[5.0990,49.8931],[5.0994,49.8900],[5.1017,49.8925],[5.1015,49.8936],[5.0996,49.8933],[5.0993,49.8949],[5.1012,49.8949],[5.1036,49.8928],[5.1060,49.8933],[5.1100,49.8956],[5.1073,49.8955],[5.1086,49.8976],[5.1166,49.8963],[5.1134,49.8948],[5.1120,49.8912],[5.1137,49.8907],[5.1152,49.8930],[5.1162,49.8924],[5.1184,49.8944],[5.1238,49.8918],[5.1250,49.8890],[5.1277,49.8879],[5.1266,49.8870],[5.1348,49.8867],[5.1331,49.8836],[5.1258,49.8837],[5.1259,49.8858],[5.1258,49.8823],[5.1175,49.8819],[5.1159,49.8802],[5.1136,49.8810],[5.1184,49.8834],[5.1170,49.8847],[5.1141,49.8833],[5.1125,49.8843],[5.1102,49.8833],[5.1094,49.8798],[5.1108,49.8793],[5.1098,49.8778],[5.1061,49.8782],[5.1056,49.8773],[5.1013,49.8790],[5.1032,49.8757],[5.1031,49.8734],[5.1076,49.8726],[5.1040,49.8718],[5.1008,49.8691],[5.1003,49.8699],[5.1019,49.8711],[5.0995,49.8720],[5.1010,49.8741],[5.0980,49.8742],[5.0959,49.8682],[5.0984,49.8685],[5.0989,49.8698],[5.0989,49.8686],[5.0957,49.8678],[5.0973,49.8673],[5.0874,49.8675]]]}},{"type":"Feature","properties":{"name":"Forêt Communale de Glageon"},"geometry":{"type":"Polygon","coordinates":[[[4.0910,50.0255],[4.0906,50.0241],[4.0871,50.0224],[4.0816,50.0225],[4.0824,50.0413],[4.0838,50.0427],[4.0977,50.0403],[4.0974,50.0372],[4.1024,50.0340],[4.1004,50.0287],[4.0927,50.0251],[4.0910,50.0255]]]}}]}