{"type":"FeatureCollection","features":[{"type":"Feature","properties":{"name":"Forêt de Fabas"},"geometry":{"type":"Polygon","coordinates":[[[0.8393,43.3001],[0.8381,43.3018],[0.8432,43.3052],[0.8441,43.3074],[0.8504,43.3074],[0.8525,43.3086],[0.8516,43.3095],[0.8531,43.3095],[0.8525,43.3113],[0.8555,43.3107],[0.8555,43.3129],[0.8598,43.3120],[0.8673,43.3138],[0.8765,43.3117],[0.8738,43.3076],[0.8746,43.3070],[0.8736,43.3075],[0.8749,43.3095],[0.8700,43.3057],[0.8658,43.3052],[0.8671,43.3043],[0.8646,43.3021],[0.8623,43.3025],[0.8629,43.3010],[0.8548,43.2975],[0.8525,43.2946],[0.8468,43.2952],[0.8393,43.3001]]]}},{"type":"Feature","properties":{"name":"Forêt de Madrès"},"geometry":{"type":"Polygon","coordinates":[[[2.1804,42.8042],[2.1817,42.8027],[2.1872,42.8024],[2.1879,42.7998],[2.1858,42.7955],[2.1772,42.7951],[2.1807,42.7929],[2.1768,42.7921],[2.1770,42.7878],[2.1742,42.7868],[2.1733,42.7886],[2.1746,42.7895],[2.1742,42.7907],[2.1686,42.7906],[2.1633,42.7929],[2.1654,42.7951],[2.1630,42.7954],[2.1646,42.7972],[2.1641,42.8015],[2.1731,42.8017],[2.1755,42.8059],[2.1804,42.8042]]]}},{"type":"Feature","properties":{"name":"Forêt de Pénicas"},"geometry":{"type":"Polygon","coordinates":[[[1.9983,42.7779],[2.0015,42.7713],[1.9990,42.7708],[1.9999,42.7677],[2.0025,42.7678],[2.0019,42.7689],[2.0034,42.7700],[2.0053,42.7672],[2.0093,42.7680],[2.0180,42.7667],[2.0169,42.7662],[2.0174,42.7646],[2.0114,42.7642],[2.0118,42.7634],[2.0104,42.7630],[2.0090,42.7647],[2.0078,42.7634],[2.0077,42.7619],[2.0091,42.7624],[2.0109,42.7605],[2.0098,42.7582],[2.0109,42.7561],[2.0092,42.7548],[2.0102,42.7541],[2.0087,42.7519],[2.0095,42.7502],[2.0084,42.7513],[2.0032,42.7494],[2.0018,42.7516],[2.0029,42.7520],[1.9946,42.7531],[1.9941,42.7556],[1.9900,42.7564],[1.9902,42.7583],[1.9829,42.7626],[1.9825,42.7648],[1.9786,42.7697],[1.9813,42.7711],[1.9811,42.7721],[1.9734,42.7737],[1.9769,42.7749],[1.9856,42.7744],[1.9876,42.7753],[1.9866,42.7776],[1.9931,42.7798],[1.9983,42.7779]]]}},{"type":"Feature","properties":{"name":"Bois du Cirier"},"geometry":{"type":"Polygon","coordinates":[[[1.4748,42.8384],[1.4731,42.8357],[1.4737,42.8344],[1.4771,42.8327],[1.4814,42.8329],[1.4824,42.8306],[1.4813,42.8284],[1.4744,42.8271],[1.4732,42.8257],[1.4690,42.8267],[1.4672,42.8251],[1.4671,42.8271],[1.4664,42.8260],[1.4652,42.8265],[1.4627,42.8299],[1.4633,42.8334],[1.4596,42.8314],[1.4574,42.8319],[1.4566,42.8298],[1.4524,42.8301],[1.4565,42.8382],[1.4748,42.8384]]]}},{"type":"Feature","properties":{"name":"Forêt de Gailles"},"geometry":{"type":"Polygon","coordinates":[[[2.0522,42.7907],[2.0556,42.7876],[2.0605,42.7893],[2.0613,42.7925],[2.0636,42.7916],[2.0621,42.7846],[2.0641,42.7824],[2.0605,42.7820],[2.0588,42.7802],[2.0651,42.7754],[2.0606,42.7711],[2.0541,42.7717],[2.0520,42.7733],[2.0502,42.7723],[2.0382,42.7732],[2.0387,42.7770],[2.0481,42.7828],[2.0382,42.7853],[2.0336,42.7939],[2.0391,42.7944],[2.0478,42.7892],[2.0498,42.7902],[2.0485,42.7923],[2.0517,42.7918],[2.0522,42.7907]]]}},{"type":"Feature","properties":{"name":"Forêt domaniale de Comefroide-Picaussel"},"geometry":{"type":"Polygon","coordinates":[[[2.0194,42.8744],[2.0142,42.8760],[2.0131,42.8754],[2.0130,42.8725],[2.0107,42.8728],[2.0094,42.8697],[1.9944,42.8729],[1.9870,42.8712],[1.9818,42.8774],[1.9892,42.8760],[1.9917,42.8783],[1.9986,42.8792],[2.0069,42.8821],[2.0127,42.8820],[2.0210,42.8776],[2.0253,42.8772],[2.0268,42.8732],[2.0329,42.8716],[2.0340,42.8694],[2.0397,42.8658],[2.0423,42.8667],[2.0492,42.8659],[2.0614,42.8610],[2.0658,42.8623],[2.0674,42.8583],[2.0587,42.8553],[2.0533,42.8567],[2.0490,42.8567],[2.0470,42.8554],[2.0462,42.8563],[2.0386,42.8562],[2.0304,42.8588],[2.0267,42.8584],[2.0235,42.8642],[2.0242,42.8668],[2.0219,42.8717],[2.0224,42.8726],[2.0198,42.8731],[2.0194,42.8744]]]}},{"type":"Feature","properties":{"name":"Bois du Roc de Marty"},"geometry":{"type":"Polygon","coordinates":[[[1.5708,42.8176],[1.5614,42.8158],[1.5571,42.8167],[1.5579,42.8151],[1.5562,42.8145],[1.5538,42.8174],[1.5490,42.8186],[1.5485,42.8203],[1.5449,42.8214],[1.5391,42.8174],[1.5367,42.8180],[1.5343,42.8158],[1.5283,42.8147],[1.5282,42.8192],[1.5244,42.8166],[1.5241,42.8194],[1.5230,42.8197],[1.5199,42.8163],[1.5184,42.8185],[1.5169,42.8180],[1.5159,42.8188],[1.5168,42.8195],[1.5144,42.8205],[1.5152,42.8223],[1.5136,42.8205],[1.5118,42.8212],[1.5116,42.8227],[1.5131,42.8234],[1.5118,42.8245],[1.5132,42.8298],[1.5112,42.8290],[1.5127,42.8271],[1.5101,42.8280],[1.5122,42.8270],[1.5112,42.8260],[1.5099,42.8269],[1.5110,42.8258],[1.5103,42.8250],[1.5082,42.8268],[1.5058,42.8258],[1.5050,42.8264],[1.5061,42.8277],[1.5043,42.8292],[1.5033,42.8284],[1.5052,42.8272],[1.5036,42.8255],[1.5020,42.8258],[1.5035,42.8274],[1.4933,42.8308],[1.4944,42.8332],[1.4954,42.8331],[1.4958,42.8360],[1.4982,42.8365],[1.5015,42.8399],[1.5054,42.8377],[1.5150,42.8414],[1.5129,42.8427],[1.5070,42.8423],[1.4895,42.8454],[1.4879,42.8449],[1.4871,42.8419],[1.4795,42.8392],[1.4565,42.8382],[1.4546,42.8338],[1.4520,42.8337],[1.4477,42.8386],[1.4467,42.8432],[1.4500,42.8447],[1.4492,42.8465],[1.4501,42.8481],[1.4508,42.8467],[1.4522,42.8477],[1.4540,42.8455],[1.4565,42.8451],[1.4550,42.8437],[1.4577,42.8428],[1.4596,42.8439],[1.4601,42.8395],[1.4618,42.8387],[1.4612,42.8428],[1.4642,42.8422],[1.4663,42.8434],[1.4662,42.8424],[1.4677,42.8420],[1.4697,42.8433],[1.4711,42.8424],[1.4685,42.8445],[1.4702,42.8471],[1.4708,42.8451],[1.4739,42.8441],[1.4719,42.8424],[1.4750,42.8423],[1.4774,42.8435],[1.4773,42.8468],[1.4789,42.8459],[1.4888,42.8471],[1.4832,42.8523],[1.4738,42.8542],[1.4743,42.8567],[1.4769,42.8563],[1.4790,42.8590],[1.4866,42.8561],[1.4872,42.8552],[1.4859,42.8544],[1.4879,42.8528],[1.4898,42.8541],[1.4951,42.8498],[1.4979,42.8502],[1.4976,42.8483],[1.5029,42.8483],[1.4994,42.8509],[1.5016,42.8517],[1.5035,42.8498],[1.5082,42.8481],[1.5118,42.8496],[1.5123,42.8518],[1.5183,42.8543],[1.5144,42.8579],[1.5181,42.8602],[1.5213,42.8585],[1.5202,42.8606],[1.5218,42.8619],[1.5233,42.8604],[1.5257,42.8611],[1.5307,42.8571],[1.5352,42.8596],[1.5243,42.8636],[1.5206,42.8635],[1.5191,42.8611],[1.5147,42.8614],[1.5141,42.8602],[1.5130,42.8613],[1.5104,42.8594],[1.5097,42.8616],[1.5071,42.8608],[1.5073,42.8628],[1.5028,42.8646],[1.5049,42.8660],[1.5039,42.8679],[1.4967,42.8695],[1.4950,42.8680],[1.4950,42.8703],[1.4936,42.8713],[1.4955,42.8732],[1.4952,42.8744],[1.4888,42.8754],[1.4886,42.8767],[1.4965,42.8814],[1.4981,42.8831],[1.4972,42.8839],[1.4986,42.8863],[1.5031,42.8870],[1.5096,42.8847],[1.5108,42.8859],[1.5083,42.8871],[1.5077,42.8891],[1.5046,42.8895],[1.5050,42.8917],[1.5038,42.8922],[1.5013,42.8915],[1.5009,42.8893],[1.4979,42.8897],[1.4977,42.8877],[1.4962,42.8867],[1.4941,42.8884],[1.4959,42.8902],[1.4922,42.8888],[1.4919,42.8900],[1.4885,42.8901],[1.4901,42.8930],[1.4838,42.8944],[1.4822,42.8964],[1.4804,42.8961],[1.4806,42.8940],[1.4760,42.8952],[1.4750,42.8960],[1.4777,42.9002],[1.4798,42.8992],[1.4798,42.8976],[1.4820,42.8986],[1.4864,42.8963],[1.4862,42.8954],[1.4888,42.8957],[1.4900,42.8943],[1.4906,42.8953],[1.4948,42.8938],[1.4950,42.8949],[1.5011,42.8965],[1.5013,42.8945],[1.5041,42.8937],[1.5076,42.8949],[1.5129,42.8943],[1.5119,42.8926],[1.5059,42.8928],[1.5085,42.8907],[1.5110,42.8905],[1.5126,42.8908],[1.5158,42.8947],[1.5199,42.8908],[1.5216,42.8909],[1.5171,42.8959],[1.5203,42.8977],[1.5219,42.8963],[1.5227,42.8974],[1.5248,42.8957],[1.5232,42.8947],[1.5239,42.8922],[1.5259,42.8921],[1.5256,42.8953],[1.5272,42.8961],[1.5308,42.8932],[1.5323,42.8933],[1.5343,42.8899],[1.5359,42.8926],[1.5336,42.8973],[1.5372,42.8977],[1.5384,42.9000],[1.5397,42.9000],[1.5398,42.8980],[1.5410,42.8972],[1.5392,42.8929],[1.5407,42.8911],[1.5417,42.8917],[1.5409,42.8956],[1.5471,42.8966],[1.5456,42.8942],[1.5474,42.8934],[1.5482,42.8914],[1.5448,42.8906],[1.5436,42.8889],[1.5441,42.8866],[1.5461,42.8861],[1.5461,42.8885],[1.5500,42.8896],[1.5533,42.8890],[1.5589,42.8844],[1.5580,42.8801],[1.5525,42.8805],[1.5545,42.8825],[1.5530,42.8858],[1.5494,42.8835],[1.5497,42.8855],[1.5484,42.8857],[1.5474,42.8832],[1.5453,42.8819],[1.5383,42.8852],[1.5384,42.8865],[1.5422,42.8868],[1.5418,42.8905],[1.5386,42.8891],[1.5375,42.8869],[1.5360,42.8888],[1.5351,42.8877],[1.5356,42.8853],[1.5425,42.8826],[1.5431,42.8807],[1.5415,42.8797],[1.5261,42.8794],[1.5148,42.8822],[1.5197,42.8854],[1.5223,42.8849],[1.5231,42.8865],[1.5273,42.8868],[1.5250,42.8893],[1.5298,42.8884],[1.5274,42.8912],[1.5237,42.8905],[1.5242,42.8875],[1.5188,42.8884],[1.5190,42.8873],[1.5152,42.8859],[1.5104,42.8886],[1.5100,42.8877],[1.5144,42.8848],[1.5137,42.8832],[1.5120,42.8837],[1.5097,42.8832],[1.5106,42.8821],[1.5096,42.8817],[1.5060,42.8818],[1.5023,42.8834],[1.4999,42.8822],[1.4990,42.8835],[1.4980,42.8805],[1.4992,42.8797],[1.5009,42.8806],[1.5042,42.8784],[1.5077,42.8791],[1.5069,42.8797],[1.5090,42.8805],[1.5100,42.8793],[1.5157,42.8795],[1.5161,42.8787],[1.5132,42.8771],[1.5160,42.8766],[1.5174,42.8777],[1.5159,42.8740],[1.5207,42.8734],[1.5173,42.8724],[1.5168,42.8711],[1.5157,42.8725],[1.5125,42.8721],[1.5121,42.8710],[1.5136,42.8702],[1.5127,42.8675],[1.5146,42.8704],[1.5204,42.8691],[1.5217,42.8715],[1.5269,42.8733],[1.5267,42.8749],[1.5298,42.8768],[1.5312,42.8764],[1.5279,42.8729],[1.5295,42.8710],[1.5306,42.8720],[1.5330,42.8719],[1.5341,42.8705],[1.5381,42.8715],[1.5383,42.8700],[1.5399,42.8707],[1.5404,42.8728],[1.5414,42.8694],[1.5490,42.8678],[1.5552,42.8675],[1.5546,42.8690],[1.5569,42.8674],[1.5629,42.8685],[1.5640,42.8697],[1.5636,42.8716],[1.5655,42.8706],[1.5662,42.8678],[1.5685,42.8657],[1.5668,42.8657],[1.5671,42.8636],[1.5630,42.8640],[1.5655,42.8646],[1.5641,42.8669],[1.5626,42.8639],[1.5637,42.8619],[1.5617,42.8609],[1.5581,42.8604],[1.5525,42.8574],[1.5520,42.8585],[1.5554,42.8602],[1.5524,42.8628],[1.5527,42.8602],[1.5438,42.8602],[1.5431,42.8588],[1.5451,42.8579],[1.5466,42.8548],[1.5493,42.8556],[1.5483,42.8572],[1.5507,42.8561],[1.5506,42.8542],[1.5534,42.8534],[1.5538,42.8549],[1.5571,42.8555],[1.5587,42.8545],[1.5614,42.8560],[1.5614,42.8579],[1.5625,42.8573],[1.5668,42.8589],[1.5697,42.8564],[1.5652,42.8571],[1.5644,42.8548],[1.5561,42.8529],[1.5690,42.8512],[1.5707,42.8496],[1.5711,42.8511],[1.5787,42.8528],[1.5796,42.8503],[1.5819,42.8503],[1.5830,42.8490],[1.5834,42.8516],[1.5809,42.8528],[1.5826,42.8542],[1.5847,42.8519],[1.5888,42.8522],[1.5877,42.8513],[1.5891,42.8506],[1.5873,42.8504],[1.5901,42.8502],[1.5910,42.8484],[1.5877,42.8489],[1.5827,42.8464],[1.5837,42.8455],[1.5894,42.8467],[1.5911,42.8455],[1.5882,42.8458],[1.5858,42.8441],[1.5877,42.8441],[1.5847,42.8410],[1.5743,42.8396],[1.5663,42.8404],[1.5641,42.8391],[1.5665,42.8377],[1.5553,42.8387],[1.5579,42.8375],[1.5567,42.8353],[1.5593,42.8327],[1.5588,42.8320],[1.5619,42.8318],[1.5615,42.8335],[1.5650,42.8352],[1.5684,42.8331],[1.5647,42.8328],[1.5627,42.8260],[1.5650,42.8235],[1.5681,42.8229],[1.5693,42.8214],[1.5678,42.8213],[1.5676,42.8201],[1.5706,42.8197],[1.5708,42.8176]]]}},{"type":"Feature","properties":{"name":"Forêt domaniale de Callong-Mirailles"},"geometry":{"type":"Polygon","coordinates":[[[2.0676,42.8755],[2.0681,42.8765],[2.0652,42.8776],[2.0652,42.8791],[2.0747,42.8813],[2.0811,42.8811],[2.0805,42.8792],[2.0838,42.8764],[2.1067,42.8658],[2.1112,42.8618],[2.1063,42.8626],[2.1027,42.8613],[2.0811,42.8684],[2.0717,42.8701],[2.0679,42.8726],[2.0676,42.8755]]]}},{"type":"Feature","properties":{"name":"Forêt Royale de l\u0027Agre"},"geometry":{"type":"Polygon","coordinates":[[[2.0595,42.8901],[2.0650,42.8955],[2.0704,42.8933],[2.0776,42.8956],[2.0815,42.8938],[2.0840,42.8940],[2.0860,42.8911],[2.0826,42.8901],[2.0825,42.8875],[2.0842,42.8868],[2.0798,42.8823],[2.0798,42.8801],[2.0823,42.8769],[2.0901,42.8756],[2.0992,42.8796],[2.1063,42.8776],[2.1093,42.8751],[2.1063,42.8729],[2.1081,42.8739],[2.1085,42.8716],[2.1048,42.8716],[2.1021,42.8733],[2.1027,42.8743],[2.1012,42.8740],[2.1021,42.8729],[2.1008,42.8723],[2.1009,42.8705],[2.0941,42.8711],[2.1042,42.8668],[2.1027,42.8681],[2.1031,42.8695],[2.1059,42.8691],[2.1049,42.8669],[2.1113,42.8639],[2.1042,42.8622],[2.1013,42.8602],[2.0887,42.8635],[2.0811,42.8684],[2.0772,42.8687],[2.0741,42.8708],[2.0775,42.8721],[2.0757,42.8747],[2.0768,42.8755],[2.0795,42.8741],[2.0811,42.8763],[2.0730,42.8813],[2.0707,42.8786],[2.0734,42.8756],[2.0710,42.8756],[2.0676,42.8758],[2.0590,42.8820],[2.0557,42.8814],[2.0544,42.8825],[2.0558,42.8844],[2.0612,42.8861],[2.0595,42.8901]]]}},{"type":"Feature","properties":{"name":"Forêt de la Matte"},"geometry":{"type":"Polygon","coordinates":[[[2.1136,42.5999],[2.1111,42.5973],[2.1117,42.5968],[2.1103,42.5964],[2.1119,42.5966],[2.1119,42.5955],[2.1101,42.5955],[2.1097,42.5967],[2.1082,42.5951],[2.1100,42.5955],[2.1098,42.5945],[2.1075,42.5933],[2.1036,42.5949],[2.1053,42.5955],[2.1061,42.5986],[2.1041,42.5989],[2.1026,42.5967],[2.1039,42.5925],[2.1071,42.5921],[2.1061,42.5915],[2.1072,42.5912],[2.1067,42.5895],[2.1083,42.5899],[2.1093,42.5877],[2.1134,42.5870],[2.1076,42.5875],[2.1119,42.5868],[2.1081,42.5851],[2.1111,42.5846],[2.1097,42.5843],[2.1129,42.5816],[2.1120,42.5809],[2.1124,42.5823],[2.1081,42.5844],[2.1106,42.5826],[2.1098,42.5810],[2.1068,42.5821],[2.1060,42.5807],[2.1047,42.5812],[2.1056,42.5795],[2.1026,42.5791],[2.1033,42.5774],[2.1014,42.5747],[2.0969,42.5749],[2.0967,42.5737],[2.0950,42.5762],[2.0965,42.5754],[2.0967,42.5763],[2.0941,42.5779],[2.0934,42.5802],[2.0970,42.5872],[2.0965,42.5889],[2.0981,42.5895],[2.0969,42.5933],[2.1003,42.6012],[2.1024,42.6011],[2.1024,42.6031],[2.1044,42.6042],[2.1045,42.6025],[2.1062,42.6035],[2.1095,42.6016],[2.1081,42.6032],[2.1098,42.6026],[2.1112,42.5998],[2.1109,42.6012],[2.1124,42.6017],[2.1141,42.6011],[2.1126,42.5999],[2.1136,42.5999]]]}}]}