{"type":"FeatureCollection","features":[{"type":"Feature","properties":{"name":"Forêt domaniale de Roquette-Bonneval"},"geometry":{"type":"Polygon","coordinates":[[[2.9016,44.6778],[2.9144,44.6760],[2.8981,44.6792],[2.9014,44.6798],[2.9050,44.6785],[2.9079,44.6797],[2.9074,44.6816],[2.8959,44.6815],[2.8935,44.6841],[2.8930,44.6824],[2.8902,44.6831],[2.8895,44.6848],[2.8920,44.6870],[2.8953,44.6854],[2.8944,44.6884],[2.8889,44.6888],[2.8887,44.6910],[2.8848,44.6898],[2.8841,44.6878],[2.8825,44.6873],[2.8809,44.6887],[2.8772,44.6864],[2.8744,44.6865],[2.8777,44.6892],[2.8850,44.6911],[2.8870,44.6929],[2.8890,44.6927],[2.8895,44.6912],[2.8972,44.6905],[2.8996,44.6881],[2.8986,44.6901],[2.9001,44.6926],[2.9067,44.6932],[2.9044,44.6995],[2.9071,44.7003],[2.9171,44.6963],[2.9279,44.6948],[2.9303,44.6938],[2.9328,44.6904],[2.9308,44.6839],[2.9259,44.6843],[2.9259,44.6833],[2.9281,44.6825],[2.9310,44.6831],[2.9292,44.6818],[2.9310,44.6802],[2.9317,44.6764],[2.9297,44.6739],[2.9260,44.6743],[2.9274,44.6789],[2.9309,44.6788],[2.9277,44.6801],[2.9290,44.6819],[2.9280,44.6823],[2.9272,44.6795],[2.9253,44.6792],[2.9269,44.6787],[2.9257,44.6743],[2.9146,44.6758],[2.9271,44.6739],[2.9240,44.6727],[2.9230,44.6691],[2.9220,44.6706],[2.9228,44.6697],[2.9234,44.6710],[2.9220,44.6709],[2.9192,44.6738],[2.9128,44.6748],[2.9084,44.6734],[2.9016,44.6778]]]}},{"type":"Feature","properties":{"name":"Bois de Saint-Quintin"},"geometry":{"type":"Polygon","coordinates":[[[2.1170,43.9940],[2.1166,43.9920],[2.1191,43.9871],[2.1234,43.9835],[2.1246,43.9856],[2.1244,43.9896],[2.1267,43.9841],[2.1265,43.9829],[2.1244,43.9828],[2.1267,43.9805],[2.1286,43.9810],[2.1279,43.9802],[2.1292,43.9795],[2.1306,43.9805],[2.1321,43.9791],[2.1319,43.9775],[2.1294,43.9770],[2.1310,43.9752],[2.1297,43.9739],[2.1309,43.9709],[2.1331,43.9697],[2.1337,43.9660],[2.1356,43.9673],[2.1330,43.9726],[2.1357,43.9802],[2.1370,43.9788],[2.1361,43.9788],[2.1370,43.9771],[2.1360,43.9737],[2.1374,43.9732],[2.1354,43.9724],[2.1377,43.9715],[2.1359,43.9703],[2.1384,43.9670],[2.1435,43.9682],[2.1429,43.9697],[2.1447,43.9694],[2.1430,43.9745],[2.1415,43.9769],[2.1408,43.9764],[2.1423,43.9784],[2.1441,43.9744],[2.1458,43.9746],[2.1451,43.9738],[2.1468,43.9715],[2.1515,43.9725],[2.1536,43.9743],[2.1522,43.9725],[2.1554,43.9729],[2.1492,43.9706],[2.1488,43.9692],[2.1511,43.9669],[2.1489,43.9659],[2.1462,43.9677],[2.1404,43.9650],[2.1404,43.9634],[2.1419,43.9630],[2.1394,43.9627],[2.1391,43.9613],[2.1371,43.9632],[2.1357,43.9600],[2.1291,43.9592],[2.1309,43.9612],[2.1282,43.9618],[2.1279,43.9629],[2.1299,43.9657],[2.1317,43.9655],[2.1309,43.9673],[2.1285,43.9674],[2.1265,43.9702],[2.1283,43.9708],[2.1171,43.9780],[2.1144,43.9766],[2.1143,43.9744],[2.1206,43.9748],[2.1194,43.9745],[2.1212,43.9737],[2.1204,43.9716],[2.1227,43.9714],[2.1198,43.9699],[2.1206,43.9687],[2.1248,43.9684],[2.1249,43.9667],[2.1202,43.9670],[2.1223,43.9655],[2.1233,43.9614],[2.1266,43.9588],[2.1269,43.9569],[2.1205,43.9589],[2.1221,43.9597],[2.1212,43.9604],[2.1151,43.9597],[2.1215,43.9626],[2.1192,43.9636],[2.1203,43.9641],[2.1129,43.9648],[2.1101,43.9631],[2.1098,43.9644],[2.1056,43.9642],[2.1107,43.9651],[2.1105,43.9668],[2.1128,43.9660],[2.1123,43.9675],[2.1170,43.9662],[2.1128,43.9711],[2.1070,43.9725],[2.1039,43.9720],[2.1066,43.9740],[2.1061,43.9753],[2.0974,43.9786],[2.1027,43.9784],[2.1025,43.9814],[2.1034,43.9818],[2.1050,43.9807],[2.1055,43.9766],[2.1075,43.9761],[2.1078,43.9743],[2.1125,43.9741],[2.1124,43.9763],[2.1112,43.9770],[2.1142,43.9783],[2.1140,43.9810],[2.1106,43.9833],[2.1118,43.9850],[2.1160,43.9828],[2.1142,43.9860],[2.1176,43.9861],[2.1154,43.9889],[2.1171,43.9889],[2.1159,43.9918],[2.1170,43.9940]]]}},{"type":"Feature","properties":{"name":"Bois de Curebourse"},"geometry":{"type":"Polygon","coordinates":[[[2.6563,44.9940],[2.6581,44.9910],[2.6669,44.9911],[2.6689,44.9895],[2.6645,44.9892],[2.6661,44.9905],[2.6584,44.9907],[2.6594,44.9885],[2.6580,44.9901],[2.6568,44.9896],[2.6589,44.9869],[2.6641,44.9867],[2.6638,44.9885],[2.6684,44.9866],[2.6666,44.9848],[2.6607,44.9841],[2.6546,44.9876],[2.6547,44.9886],[2.6526,44.9874],[2.6514,44.9835],[2.6530,44.9832],[2.6517,44.9824],[2.6548,44.9829],[2.6548,44.9843],[2.6570,44.9828],[2.6507,44.9818],[2.6499,44.9801],[2.6525,44.9791],[2.6520,44.9784],[2.6501,44.9785],[2.6466,44.9751],[2.6460,44.9763],[2.6418,44.9745],[2.6434,44.9683],[2.6426,44.9662],[2.6435,44.9638],[2.6413,44.9628],[2.6425,44.9594],[2.6384,44.9596],[2.6352,44.9558],[2.6330,44.9566],[2.6303,44.9545],[2.6255,44.9544],[2.6164,44.9445],[2.5910,44.9293],[2.5913,44.9267],[2.5890,44.9277],[2.5846,44.9246],[2.5701,44.9184],[2.5596,44.9170],[2.5594,44.9154],[2.5565,44.9150],[2.5562,44.9135],[2.5578,44.9127],[2.5571,44.9097],[2.5543,44.9068],[2.5525,44.9072],[2.5450,44.9023],[2.5423,44.9023],[2.5404,44.9038],[2.5443,44.9059],[2.5438,44.9073],[2.5454,44.9081],[2.5477,44.9058],[2.5496,44.9075],[2.5483,44.9081],[2.5493,44.9089],[2.5543,44.9099],[2.5549,44.9134],[2.5529,44.9128],[2.5527,44.9153],[2.5537,44.9175],[2.5584,44.9192],[2.5631,44.9186],[2.5659,44.9215],[2.5718,44.9219],[2.5683,44.9201],[2.5687,44.9191],[2.5741,44.9223],[2.5817,44.9242],[2.5737,44.9236],[2.5855,44.9267],[2.5868,44.9294],[2.5849,44.9290],[2.5860,44.9301],[2.5848,44.9308],[2.5816,44.9306],[2.5916,44.9317],[2.6145,44.9457],[2.6207,44.9534],[2.6204,44.9565],[2.6301,44.9587],[2.6328,44.9613],[2.6360,44.9620],[2.6367,44.9646],[2.6394,44.9668],[2.6381,44.9676],[2.6405,44.9687],[2.6384,44.9719],[2.6387,44.9749],[2.6351,44.9736],[2.6349,44.9718],[2.6309,44.9746],[2.6432,44.9793],[2.6437,44.9801],[2.6422,44.9807],[2.6442,44.9810],[2.6439,44.9823],[2.6454,44.9823],[2.6473,44.9847],[2.6474,44.9859],[2.6450,44.9870],[2.6466,44.9883],[2.6447,44.9911],[2.6450,44.9919],[2.6479,44.9901],[2.6474,44.9931],[2.6459,44.9931],[2.6479,44.9951],[2.6518,44.9960],[2.6536,44.9983],[2.6552,44.9958],[2.6528,44.9956],[2.6567,44.9921],[2.6551,44.9970],[2.6563,44.9940]]]}},{"type":"Feature","properties":{"name":"Forêt de la Vaysse"},"geometry":{"type":"Polygon","coordinates":[[[2.2942,44.5283],[2.2955,44.5286],[2.2955,44.5269],[2.2975,44.5263],[2.2886,44.5242],[2.2843,44.5266],[2.2845,44.5286],[2.2808,44.5286],[2.2822,44.5271],[2.2811,44.5266],[2.2797,44.5274],[2.2808,44.5273],[2.2807,44.5288],[2.2762,44.5286],[2.2755,44.5296],[2.2755,44.5269],[2.2710,44.5272],[2.2710,44.5284],[2.2690,44.5286],[2.2715,44.5292],[2.2711,44.5299],[2.2676,44.5289],[2.2671,44.5311],[2.2657,44.5305],[2.2664,44.5316],[2.2652,44.5308],[2.2655,44.5325],[2.2695,44.5303],[2.2708,44.5310],[2.2672,44.5339],[2.2696,44.5353],[2.2687,44.5392],[2.2766,44.5418],[2.2794,44.5405],[2.2763,44.5414],[2.2747,44.5405],[2.2775,44.5407],[2.2786,44.5392],[2.2772,44.5372],[2.2777,44.5343],[2.2851,44.5334],[2.2825,44.5343],[2.2816,44.5365],[2.2823,44.5371],[2.2838,44.5354],[2.2830,44.5347],[2.2866,44.5353],[2.2894,44.5330],[2.2938,44.5327],[2.2923,44.5313],[2.2936,44.5297],[2.2950,44.5300],[2.2942,44.5283]]]}},{"type":"Feature","properties":{"name":"bois boulognais"},"geometry":{"type":"Polygon","coordinates":[[[2.4145,44.4968],[2.4136,44.4978],[2.4139,44.4966],[2.4093,44.4979],[2.4071,44.4961],[2.4074,44.4974],[2.4054,44.4966],[2.4087,44.4992],[2.4069,44.4980],[2.4053,44.4992],[2.4067,44.5000],[2.4042,44.4997],[2.4061,44.5028],[2.4081,44.5021],[2.4080,44.5007],[2.4084,44.5016],[2.4123,44.5014],[2.4107,44.5028],[2.4141,44.5031],[2.4125,44.5040],[2.4126,44.5053],[2.4140,44.5038],[2.4131,44.5054],[2.4167,44.5064],[2.4130,44.5072],[2.4132,44.5083],[2.4165,44.5102],[2.4091,44.5098],[2.4107,44.5063],[2.4085,44.5059],[2.4084,44.5038],[2.4066,44.5041],[2.4062,44.5050],[2.4079,44.5053],[2.4060,44.5050],[2.4053,44.5073],[2.4026,44.5061],[2.4032,44.5067],[2.4009,44.5069],[2.4004,44.5027],[2.3996,44.5049],[2.3977,44.5057],[2.3976,44.5030],[2.3955,44.5036],[2.3972,44.5019],[2.3950,44.5019],[2.3915,44.4993],[2.3902,44.5021],[2.3915,44.5033],[2.3895,44.5043],[2.3907,44.5046],[2.3912,44.5069],[2.3884,44.5082],[2.3910,44.5084],[2.3890,44.5087],[2.3893,44.5096],[2.3909,44.5094],[2.3887,44.5103],[2.3883,44.5110],[2.3901,44.5108],[2.3897,44.5116],[2.3941,44.5094],[2.3942,44.5109],[2.3981,44.5109],[2.3969,44.5108],[2.3970,44.5137],[2.3997,44.5107],[2.4043,44.5129],[2.3999,44.5145],[2.4124,44.5142],[2.4069,44.5156],[2.4089,44.5164],[2.4114,44.5152],[2.4077,44.5185],[2.4049,44.5190],[2.4045,44.5172],[2.4001,44.5173],[2.3991,44.5197],[2.3966,44.5206],[2.3972,44.5228],[2.4061,44.5298],[2.4037,44.5246],[2.4013,44.5231],[2.4045,44.5212],[2.4061,44.5221],[2.4077,44.5192],[2.4106,44.5208],[2.4088,44.5215],[2.4099,44.5230],[2.4080,44.5225],[2.4047,44.5248],[2.4057,44.5267],[2.4087,44.5265],[2.4093,44.5277],[2.4139,44.5218],[2.4132,44.5204],[2.4148,44.5214],[2.4200,44.5209],[2.4235,44.5172],[2.4238,44.5190],[2.4216,44.5209],[2.4238,44.5191],[2.4245,44.5156],[2.4293,44.5139],[2.4308,44.5126],[2.4303,44.5113],[2.4314,44.5115],[2.4283,44.5050],[2.4302,44.5012],[2.4268,44.5023],[2.4277,44.5011],[2.4263,44.5002],[2.4253,44.4946],[2.4236,44.4938],[2.4256,44.4930],[2.4258,44.4946],[2.4269,44.4923],[2.4260,44.4916],[2.4280,44.4912],[2.4279,44.4890],[2.4299,44.4882],[2.4277,44.4866],[2.4282,44.4850],[2.4302,44.4852],[2.4291,44.4862],[2.4300,44.4867],[2.4312,44.4864],[2.4309,44.4850],[2.4285,44.4837],[2.4263,44.4856],[2.4253,44.4876],[2.4263,44.4885],[2.4241,44.4890],[2.4257,44.4902],[2.4231,44.4889],[2.4196,44.4899],[2.4262,44.4908],[2.4246,44.4923],[2.4200,44.4904],[2.4182,44.4911],[2.4168,44.4899],[2.4187,44.4899],[2.4185,44.4885],[2.4161,44.4872],[2.4191,44.4877],[2.4186,44.4884],[2.4211,44.4851],[2.4229,44.4861],[2.4245,44.4854],[2.4224,44.4853],[2.4229,44.4840],[2.4217,44.4840],[2.4235,44.4824],[2.4231,44.4812],[2.4293,44.4794],[2.4294,44.4781],[2.4248,44.4797],[2.4234,44.4788],[2.4245,44.4776],[2.4231,44.4778],[2.4234,44.4759],[2.4210,44.4757],[2.4219,44.4766],[2.4204,44.4772],[2.4214,44.4781],[2.4148,44.4797],[2.4173,44.4805],[2.4160,44.4817],[2.4202,44.4859],[2.4136,44.4822],[2.4126,44.4833],[2.4121,44.4816],[2.4104,44.4820],[2.4086,44.4825],[2.4096,44.4843],[2.4083,44.4849],[2.4119,44.4840],[2.4152,44.4852],[2.4131,44.4838],[2.4140,44.4837],[2.4167,44.4849],[2.4142,44.4873],[2.4114,44.4854],[2.4121,44.4861],[2.4098,44.4868],[2.4114,44.4878],[2.4106,44.4883],[2.4092,44.4865],[2.4074,44.4865],[2.4073,44.4875],[2.4088,44.4879],[2.4072,44.4899],[2.4055,44.4899],[2.4073,44.4909],[2.4070,44.4919],[2.4056,44.4922],[2.4049,44.4898],[2.3998,44.4911],[2.4018,44.4908],[2.4023,44.4923],[2.4045,44.4911],[2.4050,44.4947],[2.4064,44.4944],[2.4067,44.4956],[2.4067,44.4946],[2.4109,44.4936],[2.4113,44.4948],[2.4175,44.4937],[2.4164,44.4964],[2.4183,44.4957],[2.4240,44.5006],[2.4229,44.4999],[2.4227,44.5011],[2.4207,44.4998],[2.4185,44.4964],[2.4175,44.4987],[2.4212,44.5007],[2.4189,44.5014],[2.4158,44.4985],[2.4149,44.4988],[2.4152,44.4974],[2.4139,44.4980],[2.4145,44.4968]]]}},{"type":"Feature","properties":{"name":"Forêt communale de Bournazel"},"geometry":{"type":"Polygon","coordinates":[[[2.3020,44.4783],[2.2994,44.4789],[2.2980,44.4822],[2.2973,44.4815],[2.2990,44.4776],[2.2979,44.4763],[2.2948,44.4767],[2.2961,44.4744],[2.2939,44.4741],[2.2941,44.4730],[2.2968,44.4729],[2.2927,44.4708],[2.2915,44.4714],[2.2937,44.4724],[2.2933,44.4734],[2.2905,44.4733],[2.2907,44.4717],[2.2799,44.4724],[2.2793,44.4742],[2.2811,44.4733],[2.2815,44.4750],[2.2787,44.4755],[2.2796,44.4768],[2.2758,44.4754],[2.2762,44.4740],[2.2817,44.4708],[2.2831,44.4716],[2.2941,44.4688],[2.2985,44.4695],[2.2977,44.4715],[2.2999,44.4712],[2.3007,44.4741],[2.3022,44.4728],[2.3031,44.4744],[2.3075,44.4699],[2.3047,44.4694],[2.3028,44.4719],[2.2968,44.4679],[2.2977,44.4665],[2.3029,44.4680],[2.3041,44.4663],[2.2996,44.4664],[2.3053,44.4659],[2.3042,44.4670],[2.3055,44.4674],[2.3069,44.4660],[2.3065,44.4669],[2.3073,44.4664],[2.3087,44.4681],[2.3064,44.4684],[2.3085,44.4706],[2.3115,44.4683],[2.3134,44.4686],[2.3126,44.4695],[2.3138,44.4706],[2.3176,44.4694],[2.3173,44.4672],[2.3092,44.4639],[2.3091,44.4624],[2.3125,44.4627],[2.3148,44.4602],[2.3218,44.4619],[2.3275,44.4611],[2.3262,44.4605],[2.3289,44.4611],[2.3258,44.4631],[2.3256,44.4618],[2.3205,44.4624],[2.3211,44.4634],[2.3197,44.4651],[2.3223,44.4665],[2.3212,44.4678],[2.3242,44.4682],[2.3209,44.4706],[2.3221,44.4717],[2.3200,44.4713],[2.3208,44.4700],[2.3182,44.4710],[2.3197,44.4715],[2.3175,44.4744],[2.3207,44.4769],[2.3194,44.4766],[2.3206,44.4807],[2.3166,44.4790],[2.3171,44.4775],[2.3149,44.4765],[2.3163,44.4764],[2.3159,44.4755],[2.3126,44.4758],[2.3155,44.4783],[2.3142,44.4808],[2.3166,44.4819],[2.3142,44.4810],[2.3141,44.4841],[2.3163,44.4841],[2.3195,44.4862],[2.3206,44.4842],[2.3166,44.4795],[2.3211,44.4813],[2.3195,44.4835],[2.3228,44.4838],[2.3192,44.4871],[2.3205,44.4873],[2.3176,44.4863],[2.3137,44.4873],[2.3148,44.4862],[2.3098,44.4873],[2.3073,44.4900],[2.3039,44.4897],[2.3043,44.4913],[2.3069,44.4915],[2.3102,44.4893],[2.3101,44.4883],[2.3109,44.4901],[2.3121,44.4893],[2.3124,44.4910],[2.3139,44.4906],[2.3134,44.4918],[2.3114,44.4912],[2.3119,44.4925],[2.3159,44.4918],[2.3192,44.4888],[2.3157,44.4934],[2.3155,44.4922],[2.3129,44.4932],[2.3137,44.4951],[2.3123,44.4940],[2.3113,44.4943],[2.3121,44.4950],[2.3099,44.4949],[2.3113,44.4960],[2.3041,44.4955],[2.3040,44.4947],[2.3013,44.4969],[2.3050,44.4978],[2.3111,44.4968],[2.3070,44.4976],[2.3105,44.4980],[2.3099,44.4987],[2.3057,44.4992],[2.3032,44.4978],[2.3065,44.5001],[2.3003,44.4983],[2.2982,44.4964],[2.3009,44.4972],[2.2999,44.4962],[2.2969,44.4952],[2.2945,44.4962],[2.2944,44.4939],[2.2912,44.4947],[2.2940,44.4923],[2.2949,44.4940],[2.3019,44.4949],[2.3019,44.4921],[2.2993,44.4935],[2.2956,44.4925],[2.3048,44.4867],[2.2954,44.4907],[2.3013,44.4862],[2.2984,44.4825],[2.3020,44.4783]]]}},{"type":"Feature","properties":{"name":"Le Grand Communal"},"geometry":{"type":"Polygon","coordinates":[[[2.0918,44.8555],[2.0939,44.8545],[2.0946,44.8550],[2.0936,44.8554],[2.0968,44.8569],[2.0995,44.8562],[2.1031,44.8604],[2.0991,44.8670],[2.1001,44.8684],[2.0979,44.8709],[2.0926,44.8720],[2.0903,44.8710],[2.0871,44.8664],[2.0838,44.8671],[2.0860,44.8717],[2.0841,44.8708],[2.0852,44.8723],[2.0813,44.8733],[2.0807,44.8710],[2.0752,44.8714],[2.0739,44.8692],[2.0714,44.8682],[2.0707,44.8619],[2.0695,44.8617],[2.0735,44.8632],[2.0735,44.8612],[2.0744,44.8631],[2.0773,44.8631],[2.0764,44.8607],[2.0781,44.8625],[2.0791,44.8603],[2.0840,44.8592],[2.0850,44.8554],[2.0887,44.8521],[2.0918,44.8555]]]}},{"type":"Feature","properties":{"name":"Bois Noir"},"geometry":{"type":"Polygon","coordinates":[[[2.7651,43.9615],[2.7596,43.9584],[2.7553,43.9602],[2.7546,43.9626],[2.7487,43.9623],[2.7457,43.9640],[2.7493,43.9667],[2.7454,43.9661],[2.7452,43.9676],[2.7481,43.9672],[2.7513,43.9696],[2.7484,43.9690],[2.7489,43.9682],[2.7479,43.9678],[2.7462,43.9701],[2.7471,43.9712],[2.7489,43.9709],[2.7507,43.9725],[2.7503,43.9710],[2.7521,43.9717],[2.7570,43.9689],[2.7523,43.9647],[2.7550,43.9636],[2.7565,43.9679],[2.7594,43.9697],[2.7617,43.9733],[2.7600,43.9745],[2.7566,43.9738],[2.7558,43.9731],[2.7585,43.9714],[2.7568,43.9703],[2.7538,43.9721],[2.7528,43.9751],[2.7519,43.9745],[2.7535,43.9740],[2.7508,43.9727],[2.7468,43.9750],[2.7437,43.9745],[2.7429,43.9754],[2.7444,43.9767],[2.7478,43.9762],[2.7509,43.9775],[2.7477,43.9772],[2.7438,43.9793],[2.7455,43.9804],[2.7450,43.9787],[2.7463,43.9803],[2.7496,43.9802],[2.7459,43.9808],[2.7477,43.9826],[2.7500,43.9825],[2.7517,43.9861],[2.7558,43.9861],[2.7560,43.9846],[2.7531,43.9842],[2.7545,43.9838],[2.7540,43.9826],[2.7648,43.9827],[2.7667,43.9787],[2.7659,43.9811],[2.7718,43.9821],[2.7754,43.9803],[2.7734,43.9789],[2.7745,43.9775],[2.7755,43.9808],[2.7781,43.9795],[2.7783,43.9806],[2.7766,43.9812],[2.7789,43.9814],[2.7789,43.9834],[2.7813,43.9855],[2.7825,43.9832],[2.7802,43.9806],[2.7789,43.9749],[2.7766,43.9736],[2.7810,43.9694],[2.7792,43.9701],[2.7778,43.9685],[2.7771,43.9705],[2.7755,43.9699],[2.7725,43.9723],[2.7729,43.9739],[2.7693,43.9738],[2.7691,43.9707],[2.7711,43.9690],[2.7752,43.9687],[2.7750,43.9665],[2.7726,43.9646],[2.7744,43.9668],[2.7712,43.9687],[2.7683,43.9675],[2.7701,43.9664],[2.7690,43.9651],[2.7663,43.9654],[2.7687,43.9636],[2.7645,43.9641],[2.7659,43.9633],[2.7651,43.9615]]]}},{"type":"Feature","properties":{"name":"Bois de la Mothe"},"geometry":{"type":"Polygon","coordinates":[[[3.0828,44.0138],[3.0882,44.0151],[3.0931,44.0129],[3.1018,44.0126],[3.1044,44.0136],[3.1085,44.0123],[3.1130,44.0148],[3.1148,44.0122],[3.1132,44.0098],[3.1191,44.0071],[3.1217,44.0075],[3.1279,44.0008],[3.1314,44.0013],[3.1337,43.9983],[3.1361,43.9974],[3.1290,43.9945],[3.1277,43.9930],[3.1285,43.9921],[3.1407,43.9925],[3.1423,43.9904],[3.1485,43.9885],[3.1510,43.9908],[3.1517,43.9890],[3.1550,43.9897],[3.1544,43.9861],[3.1583,43.9841],[3.1614,43.9840],[3.1642,43.9814],[3.1670,43.9836],[3.1680,43.9830],[3.1671,43.9819],[3.1690,43.9805],[3.1723,43.9812],[3.1723,43.9823],[3.1702,43.9823],[3.1701,43.9843],[3.1653,43.9860],[3.1717,43.9855],[3.1734,43.9847],[3.1741,43.9814],[3.1773,43.9808],[3.1777,43.9792],[3.1716,43.9798],[3.1680,43.9782],[3.1671,43.9766],[3.1659,43.9778],[3.1646,43.9766],[3.1651,43.9756],[3.1625,43.9754],[3.1633,43.9736],[3.1662,43.9727],[3.1643,43.9726],[3.1643,43.9695],[3.1538,43.9675],[3.1544,43.9693],[3.1535,43.9708],[3.1560,43.9717],[3.1537,43.9733],[3.1537,43.9774],[3.1558,43.9787],[3.1571,43.9742],[3.1585,43.9758],[3.1571,43.9796],[3.1556,43.9802],[3.1575,43.9817],[3.1539,43.9832],[3.1515,43.9873],[3.1460,43.9876],[3.1446,43.9865],[3.1412,43.9874],[3.1392,43.9901],[3.1369,43.9899],[3.1357,43.9882],[3.1344,43.9911],[3.1317,43.9910],[3.1317,43.9891],[3.1303,43.9884],[3.1308,43.9902],[3.1281,43.9906],[3.1284,43.9916],[3.1240,43.9942],[3.1258,43.9962],[3.1306,43.9974],[3.1312,43.9993],[3.1257,43.9985],[3.1261,43.9997],[3.1232,44.0003],[3.1162,43.9999],[3.1146,43.9988],[3.1163,43.9976],[3.1140,43.9990],[3.1121,43.9978],[3.1075,43.9980],[3.1064,43.9986],[3.1082,43.9992],[3.1069,43.9998],[3.1102,44.0006],[3.1091,44.0013],[3.1112,44.0050],[3.1187,44.0045],[3.1201,44.0019],[3.1208,44.0043],[3.1141,44.0064],[3.1137,44.0077],[3.1058,44.0044],[3.1070,44.0055],[3.1058,44.0057],[3.1068,44.0064],[3.1063,44.0076],[3.1086,44.0069],[3.1090,44.0090],[3.1042,44.0095],[3.1039,44.0085],[3.1051,44.0091],[3.1057,44.0079],[3.1045,44.0051],[3.1041,44.0096],[3.1027,44.0108],[3.0951,44.0116],[3.0912,44.0105],[3.0887,44.0127],[3.0857,44.0132],[3.0850,44.0123],[3.0828,44.0128],[3.0828,44.0138]]]}},{"type":"Feature","properties":{"name":"Forêt des Palanges"},"geometry":{"type":"Polygon","coordinates":[[[2.7141,44.3831],[2.7146,44.3823],[2.7184,44.3837],[2.7122,44.3863],[2.7133,44.3881],[2.7128,44.3868],[2.7164,44.3872],[2.7137,44.3884],[2.7149,44.3887],[2.7217,44.3880],[2.7205,44.3855],[2.7226,44.3837],[2.7250,44.3856],[2.7274,44.3850],[2.7237,44.3867],[2.7270,44.3858],[2.7242,44.3905],[2.7221,44.3910],[2.7216,44.3932],[2.7227,44.3939],[2.7237,44.3941],[2.7263,44.3897],[2.7286,44.3899],[2.7294,44.3922],[2.7292,44.3905],[2.7315,44.3922],[2.7310,44.3906],[2.7327,44.3907],[2.7326,44.3918],[2.7350,44.3929],[2.7445,44.3917],[2.7443,44.3934],[2.7473,44.3921],[2.7471,44.3939],[2.7513,44.3926],[2.7530,44.3932],[2.7526,44.3951],[2.7542,44.3934],[2.7560,44.3952],[2.7617,44.3941],[2.7606,44.3917],[2.7652,44.3898],[2.7663,44.3888],[2.7658,44.3871],[2.7684,44.3873],[2.7676,44.3889],[2.7704,44.3885],[2.7714,44.3872],[2.7681,44.3860],[2.7701,44.3848],[2.7751,44.3839],[2.7760,44.3849],[2.7719,44.3863],[2.7730,44.3884],[2.7754,44.3875],[2.7753,44.3895],[2.7762,44.3879],[2.7754,44.3870],[2.7766,44.3870],[2.7757,44.3863],[2.7769,44.3863],[2.7760,44.3895],[2.7774,44.3897],[2.7785,44.3886],[2.7784,44.3856],[2.7801,44.3860],[2.7805,44.3889],[2.7813,44.3881],[2.7802,44.3871],[2.7837,44.3863],[2.7833,44.3845],[2.7859,44.3854],[2.7838,44.3834],[2.7862,44.3825],[2.7858,44.3810],[2.7860,44.3832],[2.7871,44.3809],[2.7900,44.3825],[2.7954,44.3803],[2.7919,44.3790],[2.7859,44.3801],[2.7842,44.3777],[2.7836,44.3793],[2.7815,44.3776],[2.7825,44.3759],[2.7773,44.3756],[2.7795,44.3728],[2.7779,44.3736],[2.7772,44.3724],[2.7731,44.3722],[2.7676,44.3747],[2.7671,44.3766],[2.7612,44.3788],[2.7628,44.3805],[2.7615,44.3833],[2.7651,44.3861],[2.7634,44.3869],[2.7608,44.3848],[2.7560,44.3844],[2.7559,44.3823],[2.7525,44.3806],[2.7454,44.3810],[2.7394,44.3838],[2.7235,44.3797],[2.7219,44.3824],[2.7130,44.3814],[2.7124,44.3833],[2.7141,44.3831]]]}}]}