{"type":"FeatureCollection","features":[{"type":"Feature","properties":{"name":"Forêt domaniale de Saint-Sever"},"geometry":{"type":"Polygon","coordinates":[[[-1.0547,48.8215],[-1.0572,48.8195],[-1.0581,48.8159],[-1.0657,48.8123],[-1.0670,48.8135],[-1.0666,48.8147],[-1.0762,48.8140],[-1.0777,48.8181],[-1.0763,48.8188],[-1.0783,48.8214],[-1.0769,48.8223],[-1.0874,48.8293],[-1.0818,48.8290],[-1.0865,48.8301],[-1.0845,48.8343],[-1.0807,48.8341],[-1.0732,48.8368],[-1.0671,48.8349],[-1.0596,48.8354],[-1.0571,48.8335],[-1.0585,48.8352],[-1.0529,48.8366],[-1.0547,48.8215]]]}},{"type":"Feature","properties":{"name":"Bois du Gast"},"geometry":{"type":"Polygon","coordinates":[[[-1.0486,48.7921],[-1.0511,48.7918],[-1.0506,48.7936],[-1.0521,48.7949],[-1.0526,48.7941],[-1.0604,48.7978],[-1.0636,48.7973],[-1.0680,48.7987],[-1.0692,48.7971],[-1.0678,48.7947],[-1.0650,48.7936],[-1.0584,48.7950],[-1.0589,48.7922],[-1.0632,48.7910],[-1.0622,48.7887],[-1.0650,48.7893],[-1.0640,48.7900],[-1.0653,48.7909],[-1.0664,48.7905],[-1.0651,48.7895],[-1.0673,48.7896],[-1.0660,48.7879],[-1.0636,48.7876],[-1.0625,48.7832],[-1.0586,48.7810],[-1.0504,48.7795],[-1.0501,48.7759],[-1.0520,48.7755],[-1.0418,48.7738],[-1.0368,48.7702],[-1.0384,48.7678],[-1.0356,48.7652],[-1.0303,48.7661],[-1.0281,48.7685],[-1.0291,48.7685],[-1.0297,48.7720],[-1.0317,48.7731],[-1.0309,48.7742],[-1.0329,48.7752],[-1.0326,48.7766],[-1.0272,48.7763],[-1.0244,48.7787],[-1.0344,48.7806],[-1.0359,48.7823],[-1.0354,48.7841],[-1.0338,48.7844],[-1.0345,48.7853],[-1.0371,48.7844],[-1.0449,48.7930],[-1.0486,48.7921]]]}},{"type":"Feature","properties":{"name":"Forêt domaniale de Saint-Sever"},"geometry":{"type":"Polygon","coordinates":[[[-1.0546,48.8214],[-1.0521,48.8359],[-1.0464,48.8374],[-1.0456,48.8365],[-1.0468,48.8354],[-1.0455,48.8348],[-1.0424,48.8378],[-1.0388,48.8371],[-1.0382,48.8344],[-1.0448,48.8305],[-1.0443,48.8294],[-1.0458,48.8289],[-1.0457,48.8276],[-1.0403,48.8291],[-1.0405,48.8320],[-1.0387,48.8307],[-1.0364,48.8314],[-1.0354,48.8302],[-1.0370,48.8299],[-1.0361,48.8294],[-1.0411,48.8276],[-1.0381,48.8264],[-1.0372,48.8286],[-1.0323,48.8281],[-1.0324,48.8302],[-1.0309,48.8316],[-1.0275,48.8323],[-1.0235,48.8304],[-1.0245,48.8306],[-1.0257,48.8285],[-1.0256,48.8265],[-1.0220,48.8265],[-1.0214,48.8255],[-1.0196,48.8263],[-1.0202,48.8253],[-1.0175,48.8244],[-1.0182,48.8238],[-1.0170,48.8231],[-1.0190,48.8208],[-1.0167,48.8202],[-1.0134,48.8219],[-1.0103,48.8205],[-1.0087,48.8221],[-1.0063,48.8193],[-0.9992,48.8191],[-0.9990,48.8169],[-0.9958,48.8145],[-0.9978,48.8144],[-0.9971,48.8118],[-1.0010,48.8082],[-1.0012,48.8040],[-1.0039,48.8018],[-1.0083,48.8027],[-1.0113,48.8012],[-1.0133,48.8018],[-1.0133,48.8033],[-1.0168,48.8015],[-1.0210,48.8046],[-1.0236,48.8030],[-1.0288,48.8075],[-1.0322,48.8045],[-1.0340,48.8048],[-1.0342,48.8081],[-1.0378,48.8121],[-1.0342,48.8122],[-1.0349,48.8150],[-1.0367,48.8157],[-1.0420,48.8140],[-1.0476,48.8088],[-1.0491,48.8048],[-1.0525,48.8049],[-1.0558,48.8001],[-1.0608,48.7995],[-1.0622,48.8013],[-1.0730,48.8012],[-1.0768,48.8057],[-1.0773,48.8082],[-1.0739,48.8099],[-1.0740,48.8109],[-1.0718,48.8100],[-1.0718,48.8084],[-1.0697,48.8086],[-1.0699,48.8103],[-1.0711,48.8102],[-1.0703,48.8112],[-1.0583,48.8157],[-1.0571,48.8195],[-1.0546,48.8214]]]}},{"type":"Feature","properties":{"name":"Forêt de la Petite Gouffern"},"geometry":{"type":"Polygon","coordinates":[[[0.0605,48.7316],[0.0536,48.7300],[0.0470,48.7318],[0.0453,48.7311],[0.0423,48.7321],[0.0372,48.7370],[0.0386,48.7393],[0.0423,48.7389],[0.0510,48.7416],[0.0567,48.7418],[0.0603,48.7402],[0.0637,48.7409],[0.0609,48.7440],[0.0639,48.7447],[0.0672,48.7481],[0.0665,48.7492],[0.0676,48.7506],[0.0709,48.7522],[0.0749,48.7476],[0.0741,48.7474],[0.0750,48.7461],[0.0731,48.7446],[0.0745,48.7417],[0.0732,48.7417],[0.0739,48.7390],[0.0726,48.7373],[0.0738,48.7360],[0.0684,48.7340],[0.0633,48.7342],[0.0637,48.7331],[0.0668,48.7328],[0.0676,48.7313],[0.0699,48.7315],[0.0705,48.7304],[0.0719,48.7304],[0.0716,48.7315],[0.0744,48.7315],[0.0763,48.7301],[0.0751,48.7337],[0.0770,48.7345],[0.0763,48.7376],[0.0779,48.7399],[0.0824,48.7348],[0.0845,48.7346],[0.0841,48.7336],[0.0813,48.7337],[0.0810,48.7305],[0.0798,48.7318],[0.0780,48.7314],[0.0786,48.7285],[0.0827,48.7301],[0.0842,48.7285],[0.0866,48.7313],[0.0859,48.7320],[0.0879,48.7327],[0.0831,48.7365],[0.0838,48.7370],[0.0815,48.7376],[0.0817,48.7389],[0.0854,48.7394],[0.0844,48.7415],[0.0786,48.7436],[0.0812,48.7458],[0.0853,48.7463],[0.0815,48.7429],[0.0856,48.7424],[0.0859,48.7450],[0.0894,48.7454],[0.0877,48.7463],[0.0875,48.7481],[0.0818,48.7489],[0.0812,48.7476],[0.0780,48.7482],[0.0786,48.7510],[0.0879,48.7487],[0.0860,48.7493],[0.0853,48.7526],[0.0872,48.7534],[0.0900,48.7522],[0.0937,48.7471],[0.1007,48.7478],[0.1018,48.7453],[0.1008,48.7447],[0.1050,48.7401],[0.1006,48.7384],[0.1021,48.7372],[0.1067,48.7360],[0.1075,48.7381],[0.1094,48.7382],[0.1099,48.7362],[0.1182,48.7362],[0.1196,48.7348],[0.1181,48.7325],[0.1220,48.7315],[0.1247,48.7283],[0.1215,48.7240],[0.1166,48.7244],[0.1154,48.7227],[0.1112,48.7218],[0.1131,48.7191],[0.1080,48.7147],[0.0904,48.7064],[0.0867,48.7071],[0.0789,48.7116],[0.0770,48.7111],[0.0755,48.7143],[0.0734,48.7147],[0.0760,48.7159],[0.0735,48.7183],[0.0739,48.7194],[0.0675,48.7196],[0.0659,48.7206],[0.0640,48.7231],[0.0659,48.7235],[0.0665,48.7244],[0.0653,48.7253],[0.0671,48.7265],[0.0605,48.7316]]]}},{"type":"Feature","properties":{"name":"Forêt de Grimbosq"},"geometry":{"type":"Polygon","coordinates":[[[-0.4501,49.0511],[-0.4528,49.0536],[-0.4518,49.0584],[-0.4581,49.0601],[-0.4586,49.0621],[-0.4595,49.0614],[-0.4561,49.0637],[-0.4489,49.0656],[-0.4467,49.0650],[-0.4423,49.0607],[-0.4415,49.0577],[-0.4385,49.0583],[-0.4401,49.0572],[-0.4370,49.0570],[-0.4377,49.0560],[-0.4359,49.0557],[-0.4377,49.0553],[-0.4362,49.0544],[-0.4341,49.0562],[-0.4286,49.0566],[-0.4339,49.0556],[-0.4332,49.0551],[-0.4344,49.0550],[-0.4346,49.0536],[-0.4323,49.0537],[-0.4308,49.0498],[-0.4234,49.0496],[-0.4204,49.0463],[-0.4187,49.0414],[-0.4212,49.0416],[-0.4213,49.0406],[-0.4188,49.0404],[-0.4191,49.0359],[-0.4209,49.0361],[-0.4276,49.0327],[-0.4303,49.0330],[-0.4305,49.0317],[-0.4437,49.0318],[-0.4459,49.0356],[-0.4452,49.0371],[-0.4469,49.0376],[-0.4467,49.0408],[-0.4430,49.0445],[-0.4432,49.0463],[-0.4417,49.0466],[-0.4435,49.0476],[-0.4427,49.0486],[-0.4482,49.0486],[-0.4501,49.0511]]]}},{"type":"Feature","properties":{"name":"Bois de Baugis"},"geometry":{"type":"Polygon","coordinates":[[[-0.8075,49.1758],[-0.8020,49.1742],[-0.8031,49.1735],[-0.8007,49.1725],[-0.8020,49.1712],[-0.7981,49.1704],[-0.8002,49.1651],[-0.8038,49.1631],[-0.8024,49.1616],[-0.8072,49.1622],[-0.8178,49.1588],[-0.8230,49.1613],[-0.8202,49.1658],[-0.8218,49.1681],[-0.8075,49.1758]]]}},{"type":"Feature","properties":{"name":"Bois de Lecaude"},"geometry":{"type":"Polygon","coordinates":[[[0.1037,49.1167],[0.1061,49.1157],[0.1110,49.1097],[0.1094,49.1083],[0.1098,49.1074],[0.1036,49.1027],[0.0944,49.1024],[0.0939,49.1015],[0.0918,49.1022],[0.0923,49.1040],[0.0895,49.1038],[0.0879,49.1085],[0.0904,49.1093],[0.0929,49.1082],[0.0927,49.1091],[0.0962,49.1108],[0.0966,49.1132],[0.0887,49.1138],[0.0887,49.1153],[0.0835,49.1155],[0.0829,49.1173],[0.0968,49.1182],[0.0986,49.1210],[0.1026,49.1192],[0.1017,49.1175],[0.1037,49.1167]]]}},{"type":"Feature","properties":{"name":"Bois de Feuillet"},"geometry":{"type":"Polygon","coordinates":[[[-0.0646,48.8350],[-0.0654,48.8342],[-0.0627,48.8332],[-0.0640,48.8320],[-0.0541,48.8272],[-0.0559,48.8257],[-0.0586,48.8280],[-0.0624,48.8288],[-0.0612,48.8302],[-0.0679,48.8309],[-0.0694,48.8297],[-0.0681,48.8279],[-0.0751,48.8236],[-0.0720,48.8228],[-0.0700,48.8244],[-0.0688,48.8233],[-0.0638,48.8244],[-0.0624,48.8267],[-0.0605,48.8261],[-0.0610,48.8234],[-0.0573,48.8199],[-0.0528,48.8250],[-0.0481,48.8234],[-0.0480,48.8251],[-0.0517,48.8264],[-0.0506,48.8277],[-0.0490,48.8263],[-0.0483,48.8279],[-0.0487,48.8265],[-0.0437,48.8251],[-0.0424,48.8265],[-0.0403,48.8259],[-0.0418,48.8229],[-0.0447,48.8238],[-0.0455,48.8226],[-0.0407,48.8199],[-0.0450,48.8169],[-0.0450,48.8188],[-0.0478,48.8196],[-0.0492,48.8180],[-0.0511,48.8189],[-0.0581,48.8155],[-0.0592,48.8161],[-0.0581,48.8168],[-0.0658,48.8196],[-0.0703,48.8204],[-0.0714,48.8194],[-0.0763,48.8209],[-0.0750,48.8222],[-0.0776,48.8232],[-0.0807,48.8224],[-0.0795,48.8245],[-0.0824,48.8258],[-0.0805,48.8274],[-0.0848,48.8289],[-0.0885,48.8232],[-0.0910,48.8258],[-0.0960,48.8272],[-0.0949,48.8283],[-0.0926,48.8279],[-0.0939,48.8291],[-0.0923,48.8307],[-0.0919,48.8293],[-0.0895,48.8286],[-0.0878,48.8312],[-0.0858,48.8308],[-0.0852,48.8324],[-0.0872,48.8329],[-0.0864,48.8345],[-0.0844,48.8341],[-0.0843,48.8357],[-0.0762,48.8329],[-0.0743,48.8358],[-0.0708,48.8357],[-0.0708,48.8367],[-0.0706,48.8357],[-0.0646,48.8350]]]}},{"type":"Feature","properties":{"name":"Bois du Roi"},"geometry":{"type":"Polygon","coordinates":[[[-0.2697,48.9266],[-0.2641,48.9269],[-0.2611,48.9283],[-0.2603,48.9279],[-0.2624,48.9255],[-0.2580,48.9257],[-0.2582,48.9245],[-0.2538,48.9226],[-0.2504,48.9253],[-0.2472,48.9253],[-0.2501,48.9252],[-0.2510,48.9241],[-0.2504,48.9222],[-0.2485,48.9227],[-0.2477,48.9194],[-0.2442,48.9199],[-0.2429,48.9176],[-0.2408,48.9191],[-0.2322,48.9184],[-0.2284,48.9159],[-0.2289,48.9149],[-0.2273,48.9136],[-0.2314,48.9109],[-0.2308,48.9097],[-0.2320,48.9107],[-0.2311,48.9095],[-0.2323,48.9086],[-0.2331,48.9096],[-0.2342,48.9088],[-0.2334,48.9077],[-0.2344,48.9069],[-0.2393,48.9063],[-0.2370,48.9050],[-0.2403,48.9052],[-0.2414,48.9036],[-0.2405,48.9053],[-0.2417,48.9058],[-0.2432,48.9034],[-0.2458,48.9044],[-0.2425,48.9061],[-0.2464,48.9066],[-0.2484,48.9043],[-0.2493,48.9055],[-0.2481,48.9068],[-0.2501,48.9072],[-0.2519,48.9049],[-0.2530,48.9061],[-0.2519,48.9075],[-0.2556,48.9095],[-0.2600,48.9097],[-0.2612,48.9076],[-0.2667,48.9084],[-0.2654,48.9102],[-0.2664,48.9106],[-0.2639,48.9106],[-0.2624,48.9121],[-0.2627,48.9145],[-0.2741,48.9214],[-0.2730,48.9247],[-0.2697,48.9266]]]}},{"type":"Feature","properties":{"name":"Bois du Val Richer"},"geometry":{"type":"Polygon","coordinates":[[[0.0944,49.1687],[0.0933,49.1698],[0.0972,49.1718],[0.1002,49.1711],[0.1007,49.1721],[0.1063,49.1728],[0.1107,49.1751],[0.1125,49.1739],[0.1108,49.1714],[0.1084,49.1725],[0.1077,49.1715],[0.1095,49.1707],[0.1108,49.1675],[0.1139,49.1690],[0.1150,49.1675],[0.1183,49.1676],[0.1159,49.1645],[0.1175,49.1641],[0.1168,49.1624],[0.1218,49.1621],[0.1256,49.1586],[0.1244,49.1622],[0.1264,49.1599],[0.1310,49.1602],[0.1296,49.1589],[0.1311,49.1585],[0.1288,49.1576],[0.1261,49.1587],[0.1220,49.1570],[0.1201,49.1593],[0.1173,49.1580],[0.1182,49.1573],[0.1170,49.1559],[0.1178,49.1539],[0.1169,49.1522],[0.1138,49.1518],[0.1119,49.1537],[0.1139,49.1555],[0.1133,49.1565],[0.1098,49.1556],[0.1092,49.1571],[0.1152,49.1585],[0.1123,49.1599],[0.0994,49.1618],[0.0957,49.1644],[0.0944,49.1687]]]}},{"type":"Feature","properties":{"name":"Forêt de Saint-Gatien"},"geometry":{"type":"Polygon","coordinates":[[[0.1933,49.3961],[0.1944,49.3982],[0.1943,49.3959],[0.1966,49.3952],[0.1946,49.3919],[0.1976,49.3897],[0.2018,49.3811],[0.2031,49.3751],[0.2027,49.3730],[0.1997,49.3725],[0.2000,49.3705],[0.1974,49.3722],[0.1952,49.3713],[0.1985,49.3752],[0.1982,49.3781],[0.1906,49.3857],[0.1880,49.3839],[0.1889,49.3778],[0.1862,49.3781],[0.1842,49.3757],[0.1857,49.3760],[0.1861,49.3748],[0.1839,49.3734],[0.1790,49.3657],[0.1791,49.3686],[0.1812,49.3714],[0.1801,49.3717],[0.1809,49.3749],[0.1745,49.3755],[0.1710,49.3742],[0.1694,49.3719],[0.1672,49.3729],[0.1638,49.3707],[0.1681,49.3687],[0.1648,49.3659],[0.1617,49.3652],[0.1608,49.3665],[0.1336,49.3753],[0.1386,49.3816],[0.1341,49.3853],[0.1392,49.3892],[0.1402,49.3918],[0.1427,49.3924],[0.1446,49.3954],[0.1437,49.3955],[0.1458,49.3971],[0.1466,49.3963],[0.1455,49.3939],[0.1397,49.3890],[0.1450,49.3901],[0.1457,49.3881],[0.1513,49.3918],[0.1551,49.3907],[0.1560,49.3924],[0.1561,49.3888],[0.1618,49.3927],[0.1632,49.3951],[0.1663,49.3915],[0.1666,49.3941],[0.1680,49.3939],[0.1674,49.3985],[0.1692,49.3966],[0.1700,49.3971],[0.1687,49.3994],[0.1747,49.3943],[0.1759,49.3914],[0.1722,49.3919],[0.1731,49.3905],[0.1697,49.3872],[0.1672,49.3877],[0.1627,49.3839],[0.1650,49.3828],[0.1627,49.3822],[0.1624,49.3806],[0.1683,49.3771],[0.1727,49.3788],[0.1790,49.3851],[0.1808,49.3850],[0.1805,49.3838],[0.1766,49.3798],[0.1822,49.3809],[0.1851,49.3777],[0.1845,49.3807],[0.1826,49.3821],[0.1844,49.3823],[0.1866,49.3785],[0.1851,49.3830],[0.1871,49.3858],[0.1929,49.3873],[0.1947,49.3848],[0.1973,49.3847],[0.1961,49.3884],[0.1910,49.3920],[0.1926,49.3934],[0.1898,49.3926],[0.1933,49.3961]]]}},{"type":"Feature","properties":{"name":"Bois de Bavent"},"geometry":{"type":"Polygon","coordinates":[[[-0.1796,49.2184],[-0.1793,49.2169],[-0.1838,49.2146],[-0.1852,49.2110],[-0.1813,49.2066],[-0.1871,49.2064],[-0.1878,49.2053],[-0.1994,49.2022],[-0.1987,49.2012],[-0.2037,49.1986],[-0.2069,49.2002],[-0.2090,49.1993],[-0.2114,49.2010],[-0.2079,49.2008],[-0.2076,49.2041],[-0.2108,49.2040],[-0.1995,49.2098],[-0.2003,49.2111],[-0.2123,49.2088],[-0.2140,49.2117],[-0.2152,49.2116],[-0.2144,49.2121],[-0.2156,49.2143],[-0.2154,49.2157],[-0.2143,49.2144],[-0.2123,49.2151],[-0.2137,49.2178],[-0.2161,49.2181],[-0.2142,49.2192],[-0.2125,49.2178],[-0.2069,49.2175],[-0.2064,49.2160],[-0.2032,49.2172],[-0.2027,49.2162],[-0.1908,49.2213],[-0.1893,49.2206],[-0.1889,49.2159],[-0.1819,49.2193],[-0.1796,49.2184]]]}},{"type":"Feature","properties":{"name":"Bois de Buron"},"geometry":{"type":"Polygon","coordinates":[[[-0.7121,48.9924],[-0.7149,48.9920],[-0.7151,48.9936],[-0.7069,48.9985],[-0.7143,49.0001],[-0.7178,48.9986],[-0.7193,48.9992],[-0.7130,49.0021],[-0.7135,49.0032],[-0.7079,49.0024],[-0.7076,49.0036],[-0.7047,49.0038],[-0.7018,49.0023],[-0.6965,49.0035],[-0.6908,49.0069],[-0.6817,49.0082],[-0.6844,49.0069],[-0.6821,49.0047],[-0.6672,49.0033],[-0.6688,49.0018],[-0.6752,49.0017],[-0.6722,49.0008],[-0.6724,48.9996],[-0.6905,48.9982],[-0.6901,48.9991],[-0.6922,48.9997],[-0.6934,48.9991],[-0.6919,48.9988],[-0.6930,48.9975],[-0.7025,48.9988],[-0.7031,48.9979],[-0.7016,48.9974],[-0.7015,48.9952],[-0.7121,48.9924]]]}},{"type":"Feature","properties":{"name":"Forêt de Cinglais"},"geometry":{"type":"Polygon","coordinates":[[[-0.4245,49.0162],[-0.4204,49.0165],[-0.4198,49.0123],[-0.4131,49.0118],[-0.4132,49.0106],[-0.4102,49.0102],[-0.4106,49.0091],[-0.4090,49.0084],[-0.4079,49.0100],[-0.4103,49.0062],[-0.4050,49.0075],[-0.4108,49.0035],[-0.4053,49.0072],[-0.3960,49.0086],[-0.3984,49.0138],[-0.4027,49.0132],[-0.3986,49.0140],[-0.3981,49.0152],[-0.3958,49.0145],[-0.3984,49.0140],[-0.3964,49.0099],[-0.3953,49.0144],[-0.3918,49.0151],[-0.3913,49.0125],[-0.3874,49.0136],[-0.3871,49.0120],[-0.3834,49.0128],[-0.3826,49.0116],[-0.3818,49.0139],[-0.3800,49.0143],[-0.3829,49.0159],[-0.3820,49.0170],[-0.3752,49.0223],[-0.3722,49.0221],[-0.3746,49.0232],[-0.3703,49.0263],[-0.3689,49.0251],[-0.3665,49.0264],[-0.3687,49.0206],[-0.3637,49.0178],[-0.3616,49.0185],[-0.3592,49.0216],[-0.3618,49.0205],[-0.3628,49.0221],[-0.3616,49.0228],[-0.3628,49.0235],[-0.3580,49.0260],[-0.3556,49.0240],[-0.3488,49.0275],[-0.3419,49.0269],[-0.3392,49.0306],[-0.3340,49.0340],[-0.3298,49.0408],[-0.3337,49.0378],[-0.3346,49.0350],[-0.3419,49.0301],[-0.3438,49.0297],[-0.3450,49.0323],[-0.3424,49.0349],[-0.3410,49.0343],[-0.3368,49.0389],[-0.3386,49.0399],[-0.3674,49.0286],[-0.3861,49.0305],[-0.3894,49.0298],[-0.3891,49.0288],[-0.3937,49.0245],[-0.3954,49.0246],[-0.3895,49.0309],[-0.4085,49.0339],[-0.4105,49.0244],[-0.4157,49.0260],[-0.4244,49.0257],[-0.4269,49.0213],[-0.4228,49.0195],[-0.4257,49.0184],[-0.4245,49.0162]]]}},{"type":"Feature","properties":{"name":"La Vignonnière"},"geometry":{"type":"Polygon","coordinates":[[[-0.3862,49.0401],[-0.3857,49.0382],[-0.3842,49.0387],[-0.3822,49.0352],[-0.3784,49.0334],[-0.3767,49.0312],[-0.3786,49.0299],[-0.3675,49.0287],[-0.3369,49.0406],[-0.3335,49.0438],[-0.3293,49.0441],[-0.3349,49.0449],[-0.3393,49.0470],[-0.3429,49.0422],[-0.3457,49.0443],[-0.3489,49.0440],[-0.3533,49.0465],[-0.3494,49.0483],[-0.3513,49.0488],[-0.3501,49.0501],[-0.3524,49.0531],[-0.3541,49.0540],[-0.3556,49.0537],[-0.3549,49.0528],[-0.3599,49.0521],[-0.3597,49.0533],[-0.3660,49.0553],[-0.3699,49.0525],[-0.3709,49.0492],[-0.3741,49.0491],[-0.3802,49.0465],[-0.3849,49.0430],[-0.3862,49.0401]]]}},{"type":"Feature","properties":{"name":"Bois de l\u0027Obélisque"},"geometry":{"type":"Polygon","coordinates":[[[-0.3093,49.0294],[-0.3087,49.0283],[-0.3113,49.0261],[-0.3093,49.0250],[-0.3110,49.0235],[-0.3187,49.0184],[-0.3224,49.0173],[-0.3270,49.0189],[-0.3211,49.0217],[-0.3265,49.0234],[-0.3292,49.0224],[-0.3292,49.0259],[-0.3311,49.0274],[-0.3309,49.0292],[-0.3276,49.0307],[-0.3263,49.0366],[-0.3227,49.0399],[-0.3239,49.0376],[-0.3219,49.0374],[-0.3213,49.0389],[-0.3197,49.0392],[-0.3191,49.0360],[-0.3128,49.0358],[-0.3118,49.0338],[-0.3141,49.0313],[-0.3123,49.0315],[-0.3093,49.0294]]]}}]}