{"type":"FeatureCollection","features":[{"type":"Feature","properties":{"name":"Forêt domaniale de Roquette-Bonneval"},"geometry":{"type":"Polygon","coordinates":[[[2.9016,44.6778],[2.9144,44.6760],[2.8981,44.6792],[2.9014,44.6798],[2.9050,44.6785],[2.9079,44.6797],[2.9074,44.6816],[2.8959,44.6815],[2.8935,44.6841],[2.8930,44.6824],[2.8902,44.6831],[2.8895,44.6848],[2.8920,44.6870],[2.8953,44.6854],[2.8944,44.6884],[2.8889,44.6888],[2.8887,44.6910],[2.8848,44.6898],[2.8841,44.6878],[2.8825,44.6873],[2.8809,44.6887],[2.8772,44.6864],[2.8744,44.6865],[2.8777,44.6892],[2.8850,44.6911],[2.8870,44.6929],[2.8890,44.6927],[2.8895,44.6912],[2.8972,44.6905],[2.8996,44.6881],[2.8986,44.6901],[2.9001,44.6926],[2.9067,44.6932],[2.9044,44.6995],[2.9071,44.7003],[2.9171,44.6963],[2.9279,44.6948],[2.9303,44.6938],[2.9328,44.6904],[2.9308,44.6839],[2.9259,44.6843],[2.9259,44.6833],[2.9281,44.6825],[2.9310,44.6831],[2.9292,44.6818],[2.9310,44.6802],[2.9317,44.6764],[2.9297,44.6739],[2.9260,44.6743],[2.9274,44.6789],[2.9309,44.6788],[2.9277,44.6801],[2.9290,44.6819],[2.9280,44.6823],[2.9272,44.6795],[2.9253,44.6792],[2.9269,44.6787],[2.9257,44.6743],[2.9146,44.6758],[2.9271,44.6739],[2.9240,44.6727],[2.9230,44.6691],[2.9220,44.6706],[2.9228,44.6697],[2.9234,44.6710],[2.9220,44.6709],[2.9192,44.6738],[2.9128,44.6748],[2.9084,44.6734],[2.9016,44.6778]]]}},{"type":"Feature","properties":{"name":"Bois de Curebourse"},"geometry":{"type":"Polygon","coordinates":[[[2.6563,44.9940],[2.6581,44.9910],[2.6669,44.9911],[2.6689,44.9895],[2.6645,44.9892],[2.6661,44.9905],[2.6584,44.9907],[2.6594,44.9885],[2.6580,44.9901],[2.6568,44.9896],[2.6589,44.9869],[2.6641,44.9867],[2.6638,44.9885],[2.6684,44.9866],[2.6666,44.9848],[2.6607,44.9841],[2.6546,44.9876],[2.6547,44.9886],[2.6526,44.9874],[2.6514,44.9835],[2.6530,44.9832],[2.6517,44.9824],[2.6548,44.9829],[2.6548,44.9843],[2.6570,44.9828],[2.6507,44.9818],[2.6499,44.9801],[2.6525,44.9791],[2.6520,44.9784],[2.6501,44.9785],[2.6466,44.9751],[2.6460,44.9763],[2.6418,44.9745],[2.6434,44.9683],[2.6426,44.9662],[2.6435,44.9638],[2.6413,44.9628],[2.6425,44.9594],[2.6384,44.9596],[2.6352,44.9558],[2.6330,44.9566],[2.6303,44.9545],[2.6255,44.9544],[2.6164,44.9445],[2.5910,44.9293],[2.5913,44.9267],[2.5890,44.9277],[2.5846,44.9246],[2.5701,44.9184],[2.5596,44.9170],[2.5594,44.9154],[2.5565,44.9150],[2.5562,44.9135],[2.5578,44.9127],[2.5571,44.9097],[2.5543,44.9068],[2.5525,44.9072],[2.5450,44.9023],[2.5423,44.9023],[2.5404,44.9038],[2.5443,44.9059],[2.5438,44.9073],[2.5454,44.9081],[2.5477,44.9058],[2.5496,44.9075],[2.5483,44.9081],[2.5493,44.9089],[2.5543,44.9099],[2.5549,44.9134],[2.5529,44.9128],[2.5527,44.9153],[2.5537,44.9175],[2.5584,44.9192],[2.5631,44.9186],[2.5659,44.9215],[2.5718,44.9219],[2.5683,44.9201],[2.5687,44.9191],[2.5741,44.9223],[2.5817,44.9242],[2.5737,44.9236],[2.5855,44.9267],[2.5868,44.9294],[2.5849,44.9290],[2.5860,44.9301],[2.5848,44.9308],[2.5816,44.9306],[2.5916,44.9317],[2.6145,44.9457],[2.6207,44.9534],[2.6204,44.9565],[2.6301,44.9587],[2.6328,44.9613],[2.6360,44.9620],[2.6367,44.9646],[2.6394,44.9668],[2.6381,44.9676],[2.6405,44.9687],[2.6384,44.9719],[2.6387,44.9749],[2.6351,44.9736],[2.6349,44.9718],[2.6309,44.9746],[2.6432,44.9793],[2.6437,44.9801],[2.6422,44.9807],[2.6442,44.9810],[2.6439,44.9823],[2.6454,44.9823],[2.6473,44.9847],[2.6474,44.9859],[2.6450,44.9870],[2.6466,44.9883],[2.6447,44.9911],[2.6450,44.9919],[2.6479,44.9901],[2.6474,44.9931],[2.6459,44.9931],[2.6479,44.9951],[2.6518,44.9960],[2.6536,44.9983],[2.6552,44.9958],[2.6528,44.9956],[2.6567,44.9921],[2.6551,44.9970],[2.6563,44.9940]]]}},{"type":"Feature","properties":{"name":"Bois de Serre"},"geometry":{"type":"Polygon","coordinates":[[[2.1732,45.2833],[2.1721,45.2866],[2.1682,45.2880],[2.1702,45.2908],[2.1708,45.2902],[2.1691,45.2887],[2.1716,45.2878],[2.1704,45.2922],[2.1713,45.2940],[2.1763,45.2940],[2.1733,45.2973],[2.1735,45.3007],[2.1714,45.3014],[2.1699,45.2999],[2.1704,45.2987],[2.1673,45.2974],[2.1656,45.2980],[2.1674,45.2970],[2.1658,45.2963],[2.1641,45.2975],[2.1645,45.2964],[2.1600,45.2954],[2.1527,45.2979],[2.1511,45.2978],[2.1511,45.2966],[2.1491,45.2972],[2.1480,45.2987],[2.1497,45.2988],[2.1502,45.3010],[2.1464,45.3007],[2.1509,45.3028],[2.1461,45.3058],[2.1476,45.3055],[2.1493,45.3073],[2.1497,45.3038],[2.1512,45.3030],[2.1537,45.3037],[2.1519,45.3067],[2.1534,45.3070],[2.1557,45.3015],[2.1585,45.2987],[2.1619,45.3016],[2.1614,45.3033],[2.1652,45.3041],[2.1632,45.3066],[2.1635,45.3086],[2.1610,45.3099],[2.1636,45.3104],[2.1633,45.3124],[2.1613,45.3132],[2.1619,45.3141],[2.1585,45.3132],[2.1593,45.3146],[2.1575,45.3151],[2.1605,45.3175],[2.1601,45.3190],[2.1563,45.3158],[2.1556,45.3129],[2.1518,45.3109],[2.1519,45.3122],[2.1487,45.3108],[2.1477,45.3117],[2.1497,45.3165],[2.1473,45.3170],[2.1428,45.3102],[2.1384,45.3138],[2.1405,45.3172],[2.1383,45.3197],[2.1389,45.3209],[2.1345,45.3230],[2.1305,45.3228],[2.1326,45.3281],[2.1285,45.3292],[2.1276,45.3261],[2.1249,45.3271],[2.1236,45.3259],[2.1229,45.3265],[2.1277,45.3307],[2.1306,45.3302],[2.1310,45.3314],[2.1297,45.3334],[2.1310,45.3353],[2.1277,45.3353],[2.1273,45.3366],[2.1256,45.3353],[2.1252,45.3365],[2.1269,45.3376],[2.1361,45.3364],[2.1359,45.3356],[2.1384,45.3356],[2.1400,45.3341],[2.1423,45.3355],[2.1426,45.3378],[2.1510,45.3398],[2.1606,45.3394],[2.1604,45.3404],[2.1510,45.3430],[2.1537,45.3481],[2.1548,45.3457],[2.1589,45.3480],[2.1608,45.3451],[2.1622,45.3465],[2.1619,45.3452],[2.1648,45.3451],[2.1644,45.3470],[2.1659,45.3470],[2.1670,45.3466],[2.1661,45.3442],[2.1675,45.3412],[2.1656,45.3405],[2.1668,45.3374],[2.1631,45.3348],[2.1635,45.3336],[2.1672,45.3340],[2.1678,45.3331],[2.1658,45.3313],[2.1671,45.3300],[2.1700,45.3303],[2.1722,45.3337],[2.1751,45.3309],[2.1672,45.3273],[2.1681,45.3247],[2.1670,45.3237],[2.1680,45.3217],[2.1730,45.3221],[2.1739,45.3172],[2.1771,45.3156],[2.1811,45.3201],[2.1814,45.3225],[2.1760,45.3224],[2.1764,45.3239],[2.1751,45.3247],[2.1763,45.3251],[2.1765,45.3278],[2.1753,45.3284],[2.1779,45.3318],[2.1759,45.3343],[2.1779,45.3346],[2.1812,45.3386],[2.1784,45.3398],[2.1781,45.3452],[2.1750,45.3444],[2.1739,45.3473],[2.1673,45.3491],[2.1690,45.3505],[2.1681,45.3510],[2.1702,45.3513],[2.1694,45.3530],[2.1725,45.3542],[2.1766,45.3504],[2.1782,45.3519],[2.1780,45.3542],[2.1807,45.3551],[2.1805,45.3571],[2.1814,45.3571],[2.1839,45.3553],[2.1837,45.3523],[2.1822,45.3519],[2.1828,45.3538],[2.1815,45.3541],[2.1796,45.3504],[2.1817,45.3475],[2.1859,45.3487],[2.1869,45.3502],[2.1862,45.3512],[2.1891,45.3526],[2.1895,45.3506],[2.1875,45.3475],[2.1897,45.3465],[2.1875,45.3439],[2.1883,45.3418],[2.1864,45.3401],[2.1875,45.3386],[2.1873,45.3349],[2.1891,45.3340],[2.1904,45.3304],[2.1946,45.3333],[2.1947,45.3323],[2.1964,45.3323],[2.1989,45.3336],[2.1987,45.3351],[2.2016,45.3347],[2.2007,45.3361],[2.2016,45.3368],[2.2002,45.3370],[2.2012,45.3387],[2.2052,45.3373],[2.2053,45.3416],[2.2067,45.3422],[2.2096,45.3389],[2.2072,45.3360],[2.2103,45.3355],[2.2065,45.3284],[2.2022,45.3272],[2.2056,45.3269],[2.2035,45.3262],[2.2052,45.3252],[2.2022,45.3252],[2.2036,45.3245],[2.2037,45.3227],[2.1993,45.3222],[2.1994,45.3254],[2.1979,45.3228],[2.1946,45.3259],[2.1913,45.3255],[2.1917,45.3223],[2.1941,45.3248],[2.1977,45.3209],[2.1942,45.3206],[2.1933,45.3198],[2.1942,45.3188],[2.1912,45.3197],[2.1908,45.3181],[2.1919,45.3179],[2.1892,45.3167],[2.1888,45.3145],[2.1863,45.3122],[2.1828,45.3115],[2.1807,45.3086],[2.1846,45.3070],[2.1855,45.3059],[2.1842,45.3054],[2.1900,45.3034],[2.1945,45.3048],[2.1958,45.3042],[2.1953,45.3023],[2.1986,45.2990],[2.1955,45.2990],[2.1942,45.2973],[2.1926,45.2984],[2.1909,45.2968],[2.1930,45.2954],[2.1900,45.2948],[2.1883,45.2928],[2.1893,45.2921],[2.1923,45.2949],[2.1954,45.2942],[2.1956,45.2953],[2.1972,45.2932],[2.1938,45.2931],[2.1932,45.2918],[2.1950,45.2912],[2.1876,45.2886],[2.1869,45.2873],[2.1964,45.2874],[2.1978,45.2860],[2.1963,45.2856],[2.1953,45.2834],[2.1732,45.2833]]]}},{"type":"Feature","properties":{"name":"Le Grand Communal"},"geometry":{"type":"Polygon","coordinates":[[[2.0918,44.8555],[2.0939,44.8545],[2.0946,44.8550],[2.0936,44.8554],[2.0968,44.8569],[2.0995,44.8562],[2.1031,44.8604],[2.0991,44.8670],[2.1001,44.8684],[2.0979,44.8709],[2.0926,44.8720],[2.0903,44.8710],[2.0871,44.8664],[2.0838,44.8671],[2.0860,44.8717],[2.0841,44.8708],[2.0852,44.8723],[2.0813,44.8733],[2.0807,44.8710],[2.0752,44.8714],[2.0739,44.8692],[2.0714,44.8682],[2.0707,44.8619],[2.0695,44.8617],[2.0735,44.8632],[2.0735,44.8612],[2.0744,44.8631],[2.0773,44.8631],[2.0764,44.8607],[2.0781,44.8625],[2.0791,44.8603],[2.0840,44.8592],[2.0850,44.8554],[2.0887,44.8521],[2.0918,44.8555]]]}},{"type":"Feature","properties":{"name":"Bois du Joignal"},"geometry":{"type":"Polygon","coordinates":[[[2.6937,45.0037],[2.6936,45.0024],[2.6957,45.0023],[2.6933,44.9995],[2.6821,44.9956],[2.6788,44.9923],[2.6758,44.9917],[2.6749,44.9891],[2.6712,44.9867],[2.6686,44.9874],[2.6693,44.9879],[2.6683,44.9890],[2.6703,44.9906],[2.6737,44.9909],[2.6741,44.9932],[2.6708,44.9936],[2.6686,44.9961],[2.6667,44.9965],[2.6651,44.9936],[2.6674,44.9924],[2.6645,44.9917],[2.6644,44.9926],[2.6654,44.9923],[2.6643,44.9934],[2.6651,44.9983],[2.6638,44.9973],[2.6634,44.9943],[2.6627,44.9970],[2.6629,44.9952],[2.6607,44.9948],[2.6597,44.9982],[2.6567,44.9964],[2.6577,44.9980],[2.6639,45.0009],[2.6631,45.0027],[2.6611,45.0015],[2.6633,45.0034],[2.6694,45.0009],[2.6698,45.0024],[2.6672,45.0034],[2.6726,45.0031],[2.6716,45.0028],[2.6724,45.0018],[2.6745,45.0018],[2.6733,45.0036],[2.6758,45.0052],[2.6786,45.0028],[2.6802,45.0036],[2.6808,45.0019],[2.6843,45.0028],[2.6808,45.0037],[2.6826,45.0044],[2.6890,45.0029],[2.6917,45.0043],[2.6937,45.0037]]]}}]}