{"type":"FeatureCollection","features":[{"type":"Feature","properties":{"name":"Les Côtes Matras"},"geometry":{"type":"Polygon","coordinates":[[[3.0982,46.4485],[3.0939,46.4467],[3.0929,46.4480],[3.0876,46.4477],[3.0823,46.4495],[3.0843,46.4511],[3.0828,46.4513],[3.0846,46.4536],[3.0874,46.4531],[3.0874,46.4552],[3.0920,46.4564],[3.0908,46.4583],[3.0926,46.4599],[3.0909,46.4608],[3.0967,46.4642],[3.0950,46.4646],[3.0943,46.4631],[3.0931,46.4643],[3.0882,46.4645],[3.0855,46.4613],[3.0795,46.4614],[3.0770,46.4635],[3.0776,46.4603],[3.0730,46.4601],[3.0725,46.4612],[3.0778,46.4649],[3.0813,46.4627],[3.0817,46.4656],[3.0869,46.4646],[3.0872,46.4678],[3.0923,46.4681],[3.0924,46.4705],[3.0954,46.4702],[3.0955,46.4731],[3.1010,46.4679],[3.0996,46.4634],[3.1008,46.4628],[3.1003,46.4619],[3.1021,46.4630],[3.1006,46.4637],[3.1011,46.4661],[3.1028,46.4641],[3.1035,46.4656],[3.1066,46.4634],[3.1030,46.4613],[3.1029,46.4584],[3.0968,46.4531],[3.0986,46.4519],[3.1003,46.4529],[3.1016,46.4522],[3.0982,46.4485]]]}},{"type":"Feature","properties":{"name":"Forêt domaniale de Dreuille"},"geometry":{"type":"Polygon","coordinates":[[[2.8873,46.4580],[2.8854,46.4585],[2.8855,46.4602],[2.8818,46.4596],[2.8714,46.4617],[2.8690,46.4579],[2.8643,46.4594],[2.8647,46.4602],[2.8593,46.4633],[2.8595,46.4651],[2.8571,46.4668],[2.8573,46.4692],[2.8644,46.4721],[2.8607,46.4763],[2.8619,46.4766],[2.8617,46.4790],[2.8556,46.4797],[2.8568,46.4808],[2.8549,46.4838],[2.8563,46.4861],[2.8544,46.4865],[2.8622,46.4926],[2.8678,46.4906],[2.8730,46.4905],[2.8741,46.4869],[2.8772,46.4863],[2.8866,46.4887],[2.8892,46.4939],[2.8908,46.4926],[2.8948,46.4949],[2.9038,46.4941],[2.8998,46.4841],[2.8996,46.4736],[2.9008,46.4710],[2.9022,46.4714],[2.9079,46.4683],[2.9070,46.4666],[2.9080,46.4645],[2.9131,46.4659],[2.9134,46.4639],[2.9147,46.4641],[2.9176,46.4618],[2.9178,46.4601],[2.9153,46.4603],[2.9123,46.4575],[2.9141,46.4581],[2.9163,46.4567],[2.9116,46.4556],[2.9120,46.4568],[2.9074,46.4583],[2.9064,46.4570],[2.9087,46.4546],[2.9088,46.4503],[2.9037,46.4490],[2.8942,46.4521],[2.8912,46.4519],[2.8864,46.4565],[2.8873,46.4580]]]}},{"type":"Feature","properties":{"name":"Forêt domaniale des Prieurés de Grosbois"},"geometry":{"type":"Polygon","coordinates":[[[2.9628,46.4914],[2.9568,46.4929],[2.9565,46.4949],[2.9589,46.4968],[2.9543,46.4981],[2.9552,46.5002],[2.9534,46.5014],[2.9449,46.5005],[2.9394,46.5019],[2.9372,46.5001],[2.9389,46.4994],[2.9394,46.5004],[2.9380,46.4969],[2.9387,46.4956],[2.9373,46.4942],[2.9379,46.4908],[2.9323,46.4918],[2.9328,46.4900],[2.9272,46.4892],[2.9267,46.4874],[2.9223,46.4914],[2.9274,46.4956],[2.9232,46.4967],[2.9245,46.4997],[2.9417,46.5031],[2.9400,46.5081],[2.9515,46.5062],[2.9506,46.5057],[2.9551,46.5067],[2.9550,46.5083],[2.9521,46.5100],[2.9553,46.5116],[2.9617,46.5078],[2.9651,46.5076],[2.9643,46.5099],[2.9664,46.5105],[2.9684,46.5091],[2.9654,46.5085],[2.9671,46.5069],[2.9703,46.5090],[2.9757,46.5063],[2.9771,46.5066],[2.9767,46.5091],[2.9779,46.5086],[2.9799,46.5114],[2.9829,46.5088],[2.9816,46.5050],[2.9862,46.5110],[2.9926,46.5121],[2.9917,46.5148],[2.9929,46.5121],[2.9951,46.5122],[2.9937,46.5117],[2.9946,46.5091],[2.9999,46.5066],[2.9998,46.5050],[3.0058,46.5059],[3.0044,46.5081],[3.0084,46.5104],[3.0054,46.5127],[3.0174,46.5124],[3.0185,46.5175],[3.0208,46.5166],[3.0226,46.5188],[3.0213,46.5192],[3.0220,46.5252],[3.0199,46.5256],[3.0192,46.5285],[3.0236,46.5259],[3.0260,46.5265],[3.0271,46.5284],[3.0299,46.5287],[3.0289,46.5323],[3.0357,46.5336],[3.0355,46.5351],[3.0396,46.5383],[3.0388,46.5402],[3.0354,46.5403],[3.0295,46.5357],[3.0269,46.5358],[3.0273,46.5390],[3.0262,46.5397],[3.0274,46.5404],[3.0245,46.5425],[3.0324,46.5460],[3.0325,46.5471],[3.0355,46.5475],[3.0362,46.5449],[3.0441,46.5491],[3.0505,46.5482],[3.0520,46.5492],[3.0508,46.5518],[3.0448,46.5506],[3.0440,46.5514],[3.0452,46.5519],[3.0430,46.5532],[3.0441,46.5552],[3.0449,46.5539],[3.0479,46.5547],[3.0477,46.5518],[3.0678,46.5575],[3.0701,46.5536],[3.0727,46.5538],[3.0628,46.5480],[3.0672,46.5488],[3.0677,46.5469],[3.0691,46.5498],[3.0742,46.5534],[3.0778,46.5488],[3.0841,46.5507],[3.0860,46.5528],[3.0872,46.5523],[3.0877,46.5509],[3.0862,46.5494],[3.0894,46.5463],[3.0857,46.5462],[3.0848,46.5439],[3.0855,46.5420],[3.0763,46.5421],[3.0821,46.5384],[3.0816,46.5364],[3.0856,46.5350],[3.0862,46.5325],[3.0841,46.5309],[3.0757,46.5319],[3.0731,46.5304],[3.0694,46.5332],[3.0627,46.5430],[3.0583,46.5436],[3.0571,46.5421],[3.0571,46.5405],[3.0622,46.5408],[3.0586,46.5350],[3.0701,46.5300],[3.0679,46.5279],[3.0679,46.5261],[3.0646,46.5266],[3.0624,46.5234],[3.0659,46.5174],[3.0556,46.5159],[3.0547,46.5180],[3.0523,46.5171],[3.0499,46.5207],[3.0499,46.5195],[3.0489,46.5201],[3.0494,46.5227],[3.0429,46.5210],[3.0365,46.5172],[3.0333,46.5133],[3.0340,46.5114],[3.0309,46.5093],[3.0304,46.5081],[3.0329,46.5068],[3.0313,46.5061],[3.0289,46.5072],[3.0254,46.5042],[3.0154,46.5039],[3.0157,46.5027],[3.0089,46.5000],[3.0008,46.4983],[3.0004,46.5023],[2.9977,46.5022],[2.9959,46.5011],[2.9969,46.4992],[2.9916,46.4987],[2.9911,46.4969],[2.9895,46.4971],[2.9893,46.4993],[2.9861,46.4980],[2.9739,46.5011],[2.9735,46.4990],[2.9650,46.4953],[2.9621,46.4968],[2.9604,46.4965],[2.9618,46.4954],[2.9577,46.4953],[2.9629,46.4947],[2.9628,46.4914]]]}},{"type":"Feature","properties":{"name":"Forêt domaniale de Messarges"},"geometry":{"type":"Polygon","coordinates":[[[3.1524,46.5061],[3.1509,46.5045],[3.1488,46.5066],[3.1454,46.5049],[3.1468,46.5046],[3.1307,46.4999],[3.1256,46.5019],[3.1215,46.5021],[3.1217,46.5008],[3.1180,46.5005],[3.1180,46.5016],[3.1148,46.5025],[3.1117,46.5055],[3.1082,46.5057],[3.1096,46.5062],[3.1080,46.5075],[3.1065,46.5065],[3.1026,46.5067],[3.1014,46.5096],[3.1031,46.5093],[3.0999,46.5161],[3.1033,46.5174],[3.1047,46.5194],[3.1033,46.5204],[3.1033,46.5224],[3.1085,46.5208],[3.1106,46.5179],[3.1129,46.5186],[3.1097,46.5243],[3.1046,46.5234],[3.1048,46.5273],[3.1079,46.5290],[3.1093,46.5277],[3.1144,46.5271],[3.1151,46.5280],[3.1161,46.5276],[3.1146,46.5260],[3.1155,46.5255],[3.1166,46.5267],[3.1190,46.5260],[3.1197,46.5278],[3.1228,46.5286],[3.1244,46.5256],[3.1222,46.5240],[3.1241,46.5231],[3.1216,46.5227],[3.1230,46.5210],[3.1246,46.5212],[3.1237,46.5201],[3.1264,46.5210],[3.1307,46.5194],[3.1401,46.5214],[3.1449,46.5187],[3.1491,46.5131],[3.1557,46.5131],[3.1568,46.5113],[3.1544,46.5096],[3.1565,46.5084],[3.1530,46.5075],[3.1524,46.5061]]]}},{"type":"Feature","properties":{"name":"Forêt de Tronçais"},"geometry":{"type":"Polygon","coordinates":[[[2.6262,46.6146],[2.6256,46.6154],[2.6288,46.6168],[2.6268,46.6164],[2.6274,46.6172],[2.6261,46.6182],[2.6256,46.6169],[2.6259,46.6190],[2.6241,46.6198],[2.6262,46.6210],[2.6197,46.6208],[2.6184,46.6226],[2.6197,46.6226],[2.6195,46.6241],[2.6208,46.6248],[2.6266,46.6259],[2.6271,46.6308],[2.6126,46.6321],[2.6222,46.6383],[2.6253,46.6424],[2.6280,46.6426],[2.6311,46.6465],[2.6375,46.6498],[2.6392,46.6484],[2.6438,46.6493],[2.6444,46.6433],[2.6455,46.6424],[2.6555,46.6408],[2.6585,46.6415],[2.6557,46.6465],[2.6568,46.6474],[2.6614,46.6447],[2.6634,46.6447],[2.6631,46.6471],[2.6639,46.6468],[2.6643,46.6433],[2.6724,46.6456],[2.6777,46.6245],[2.6701,46.6266],[2.6677,46.6221],[2.6672,46.6253],[2.6585,46.6257],[2.6585,46.6232],[2.6520,46.6218],[2.6517,46.6236],[2.6505,46.6236],[2.6494,46.6210],[2.6346,46.6200],[2.6366,46.6212],[2.6355,46.6228],[2.6367,46.6233],[2.6373,46.6259],[2.6394,46.6265],[2.6395,46.6291],[2.6364,46.6320],[2.6347,46.6261],[2.6292,46.6166],[2.6302,46.6153],[2.6285,46.6160],[2.6262,46.6146]]]}},{"type":"Feature","properties":{"name":"Bois de Bussière"},"geometry":{"type":"Polygon","coordinates":[[[2.5350,46.5342],[2.5358,46.5337],[2.5328,46.5319],[2.5373,46.5326],[2.5369,46.5317],[2.5293,46.5320],[2.5303,46.5300],[2.5327,46.5303],[2.5343,46.5278],[2.5331,46.5291],[2.5322,46.5275],[2.5346,46.5265],[2.5335,46.5251],[2.5296,46.5246],[2.5303,46.5216],[2.5290,46.5204],[2.5245,46.5192],[2.5255,46.5220],[2.5232,46.5231],[2.5218,46.5220],[2.5237,46.5169],[2.5213,46.5180],[2.5193,46.5173],[2.5193,46.5162],[2.5181,46.5181],[2.5153,46.5171],[2.5172,46.5135],[2.5152,46.5151],[2.5162,46.5141],[2.5151,46.5143],[2.5142,46.5125],[2.5128,46.5132],[2.5146,46.5143],[2.5139,46.5166],[2.5118,46.5152],[2.5106,46.5166],[2.5067,46.5124],[2.5033,46.5112],[2.5051,46.5096],[2.5024,46.5102],[2.5015,46.5076],[2.5024,46.5074],[2.5012,46.5069],[2.5038,46.5070],[2.5031,46.5059],[2.5007,46.5067],[2.5000,46.5055],[2.4975,46.5063],[2.4974,46.5075],[2.5009,46.5119],[2.4995,46.5130],[2.5070,46.5147],[2.5050,46.5169],[2.5076,46.5183],[2.5063,46.5196],[2.5033,46.5180],[2.5033,46.5194],[2.5052,46.5205],[2.5047,46.5222],[2.4978,46.5206],[2.4979,46.5187],[2.4966,46.5202],[2.4922,46.5193],[2.4906,46.5203],[2.4880,46.5194],[2.4883,46.5169],[2.4876,46.5187],[2.4862,46.5187],[2.4835,46.5167],[2.4829,46.5178],[2.4762,46.5147],[2.4750,46.5152],[2.4763,46.5176],[2.4807,46.5182],[2.4821,46.5188],[2.4818,46.5198],[2.4893,46.5202],[2.4876,46.5221],[2.4934,46.5220],[2.4950,46.5208],[2.4959,46.5236],[2.4982,46.5237],[2.4988,46.5222],[2.5026,46.5220],[2.5024,46.5237],[2.5046,46.5236],[2.5046,46.5247],[2.5063,46.5245],[2.5056,46.5223],[2.5077,46.5245],[2.5105,46.5249],[2.5074,46.5222],[2.5152,46.5220],[2.5145,46.5207],[2.5195,46.5227],[2.5192,46.5195],[2.5210,46.5202],[2.5202,46.5226],[2.5224,46.5238],[2.5223,46.5249],[2.5256,46.5251],[2.5274,46.5268],[2.5171,46.5233],[2.5179,46.5273],[2.5194,46.5253],[2.5211,46.5273],[2.5240,46.5270],[2.5263,46.5281],[2.5253,46.5291],[2.5285,46.5296],[2.5269,46.5332],[2.5317,46.5328],[2.5350,46.5342]]]}},{"type":"Feature","properties":{"name":"Bois de Sugère et Lombost"},"geometry":{"type":"Polygon","coordinates":[[[2.3877,46.3929],[2.3940,46.3924],[2.3910,46.3918],[2.3914,46.3908],[2.3890,46.3896],[2.3917,46.3865],[2.3900,46.3838],[2.3845,46.3805],[2.3808,46.3799],[2.3811,46.3784],[2.3790,46.3787],[2.3792,46.3800],[2.3766,46.3798],[2.3749,46.3825],[2.3699,46.3826],[2.3673,46.3815],[2.3688,46.3799],[2.3662,46.3780],[2.3663,46.3734],[2.3642,46.3725],[2.3646,46.3744],[2.3615,46.3737],[2.3629,46.3721],[2.3595,46.3721],[2.3591,46.3683],[2.3565,46.3682],[2.3556,46.3706],[2.3515,46.3722],[2.3365,46.3693],[2.3357,46.3718],[2.3401,46.3733],[2.3370,46.3731],[2.3482,46.3774],[2.3530,46.3753],[2.3541,46.3782],[2.3598,46.3792],[2.3657,46.3859],[2.3736,46.3855],[2.3769,46.3831],[2.3811,46.3849],[2.3800,46.3866],[2.3815,46.3881],[2.3833,46.3878],[2.3824,46.3892],[2.3837,46.3905],[2.3821,46.3911],[2.3802,46.3906],[2.3803,46.3888],[2.3759,46.3862],[2.3794,46.3910],[2.3877,46.3929]]]}},{"type":"Feature","properties":{"name":"Bois de l\u0027Abbaye"},"geometry":{"type":"Polygon","coordinates":[[[2.2915,46.5012],[2.2937,46.5021],[2.2925,46.5009],[2.3029,46.4959],[2.3046,46.4992],[2.3041,46.5010],[2.3052,46.5012],[2.3061,46.4992],[2.3049,46.4962],[2.3059,46.4954],[2.3082,46.4979],[2.3128,46.4977],[2.3111,46.4995],[2.3127,46.4991],[2.3108,46.5022],[2.3146,46.4971],[2.3074,46.4960],[2.3130,46.4956],[2.3131,46.4922],[2.3120,46.4924],[2.3120,46.4947],[2.3078,46.4946],[2.3053,46.4930],[2.3059,46.4914],[2.3082,46.4910],[2.3091,46.4887],[2.3030,46.4864],[2.3014,46.4878],[2.2995,46.4873],[2.3000,46.4854],[2.3018,46.4852],[2.3011,46.4833],[2.3021,46.4831],[2.2996,46.4820],[2.3002,46.4780],[2.2984,46.4792],[2.2926,46.4760],[2.2906,46.4742],[2.2913,46.4732],[2.2898,46.4737],[2.2909,46.4729],[2.2884,46.4707],[2.2867,46.4707],[2.2860,46.4719],[2.2904,46.4752],[2.2905,46.4775],[2.2960,46.4800],[2.2940,46.4809],[2.2984,46.4813],[2.2972,46.4846],[2.2900,46.4847],[2.2865,46.4862],[2.2928,46.4862],[2.2928,46.4887],[2.2916,46.4893],[2.2929,46.4891],[2.2917,46.4901],[2.2922,46.4939],[2.2921,46.4905],[2.2938,46.4890],[2.2945,46.4860],[2.2962,46.4868],[2.2971,46.4875],[2.2953,46.4907],[2.2963,46.4929],[2.2994,46.4927],[2.3011,46.4949],[2.2924,46.4939],[2.2927,46.4986],[2.2911,46.4977],[2.2916,46.4988],[2.2876,46.4994],[2.2851,46.5022],[2.2915,46.5012]]]}},{"type":"Feature","properties":{"name":"Bois d\u0027Audes"},"geometry":{"type":"Polygon","coordinates":[[[2.5686,46.4556],[2.5711,46.4546],[2.5708,46.4506],[2.5795,46.4485],[2.5791,46.4477],[2.5821,46.4457],[2.5709,46.4420],[2.5671,46.4391],[2.5619,46.4447],[2.5587,46.4428],[2.5593,46.4394],[2.5548,46.4402],[2.5539,46.4394],[2.5485,46.4401],[2.5459,46.4425],[2.5489,46.4427],[2.5481,46.4450],[2.5416,46.4451],[2.5396,46.4480],[2.5519,46.4517],[2.5585,46.4511],[2.5686,46.4556]]]}},{"type":"Feature","properties":{"name":"Forêt domaniale de la Suave"},"geometry":{"type":"Polygon","coordinates":[[[2.7963,46.4172],[2.7972,46.4133],[2.8027,46.4123],[2.7981,46.4086],[2.7945,46.4078],[2.7928,46.4009],[2.7932,46.3995],[2.7947,46.3995],[2.7908,46.3963],[2.7949,46.3979],[2.8018,46.3959],[2.7992,46.3922],[2.7979,46.3911],[2.7946,46.3924],[2.7954,46.3946],[2.7915,46.3963],[2.7863,46.3929],[2.7782,46.3960],[2.7732,46.3940],[2.7746,46.3964],[2.7714,46.4005],[2.7775,46.4046],[2.7786,46.4081],[2.7864,46.4085],[2.7890,46.4162],[2.7963,46.4172]]]}},{"type":"Feature","properties":{"name":"Forêt de Tronçais"},"geometry":{"type":"Polygon","coordinates":[[[2.8704,46.6489],[2.8557,46.6428],[2.8551,46.6464],[2.8518,46.6485],[2.8435,46.6470],[2.8423,46.6456],[2.8436,46.6442],[2.8365,46.6414],[2.8320,46.6421],[2.8303,46.6410],[2.8321,46.6390],[2.8260,46.6381],[2.8189,46.6426],[2.8177,46.6452],[2.8167,46.6435],[2.8167,46.6447],[2.8149,46.6448],[2.8165,46.6493],[2.8147,46.6509],[2.8129,46.6501],[2.8114,46.6533],[2.8204,46.6551],[2.8205,46.6628],[2.8225,46.6635],[2.8198,46.6677],[2.8229,46.6691],[2.8259,46.6664],[2.8240,46.6657],[2.8277,46.6612],[2.8349,46.6633],[2.8326,46.6665],[2.8348,46.6675],[2.8316,46.6718],[2.8232,46.6700],[2.8223,46.6741],[2.8153,46.6773],[2.8085,46.6720],[2.8145,46.6638],[2.8141,46.6618],[2.8073,46.6623],[2.8061,46.6673],[2.7998,46.6751],[2.8062,46.6753],[2.8030,46.6788],[2.8011,46.6788],[2.8016,46.6800],[2.7980,46.6832],[2.8001,46.6842],[2.8068,46.6831],[2.8082,46.6848],[2.8104,46.6833],[2.8180,46.6841],[2.8201,46.6908],[2.8176,46.6935],[2.8185,46.6948],[2.8145,46.6968],[2.8104,46.6968],[2.8100,46.6995],[2.8150,46.6996],[2.8236,46.7024],[2.8239,46.7014],[2.8253,46.7018],[2.8248,46.7030],[2.8274,46.7047],[2.8360,46.7018],[2.8370,46.7004],[2.8388,46.7008],[2.8454,46.6961],[2.8462,46.6912],[2.8495,46.6854],[2.8535,46.6832],[2.8541,46.6814],[2.8531,46.6812],[2.8537,46.6802],[2.8401,46.6754],[2.8430,46.6708],[2.8506,46.6735],[2.8555,46.6710],[2.8555,46.6677],[2.8503,46.6669],[2.8499,46.6655],[2.8462,46.6657],[2.8435,46.6618],[2.8458,46.6598],[2.8523,46.6598],[2.8547,46.6565],[2.8503,46.6561],[2.8507,46.6551],[2.8477,46.6552],[2.8446,46.6541],[2.8446,46.6531],[2.8497,46.6522],[2.8509,46.6503],[2.8537,46.6497],[2.8617,46.6509],[2.8610,46.6484],[2.8628,46.6482],[2.8664,46.6513],[2.8708,46.6496],[2.8704,46.6489]]]}},{"type":"Feature","properties":{"name":"Forêt domaniale de Lespinasse"},"geometry":{"type":"Polygon","coordinates":[[[2.7425,46.4537],[2.7465,46.4529],[2.7519,46.4492],[2.7468,46.4486],[2.7445,46.4497],[2.7419,46.4484],[2.7427,46.4475],[2.7395,46.4457],[2.7442,46.4422],[2.7476,46.4434],[2.7443,46.4461],[2.7440,46.4474],[2.7457,46.4482],[2.7518,46.4432],[2.7532,46.4456],[2.7553,46.4459],[2.7562,46.4459],[2.7567,46.4426],[2.7592,46.4433],[2.7603,46.4414],[2.7655,46.4442],[2.7694,46.4426],[2.7692,46.4412],[2.7663,46.4421],[2.7615,46.4386],[2.7579,46.4377],[2.7582,46.4356],[2.7621,46.4352],[2.7647,46.4334],[2.7635,46.4314],[2.7592,46.4293],[2.7546,46.4320],[2.7510,46.4280],[2.7447,46.4321],[2.7381,46.4268],[2.7379,46.4304],[2.7331,46.4314],[2.7359,46.4362],[2.7353,46.4377],[2.7319,46.4379],[2.7312,46.4394],[2.7323,46.4398],[2.7304,46.4430],[2.7313,46.4435],[2.7287,46.4464],[2.7294,46.4481],[2.7326,46.4489],[2.7322,46.4500],[2.7335,46.4505],[2.7358,46.4504],[2.7360,46.4529],[2.7379,46.4510],[2.7425,46.4537]]]}},{"type":"Feature","properties":{"name":"Bois de Chanteloube"},"geometry":{"type":"Polygon","coordinates":[[[1.8811,46.6913],[1.8801,46.6844],[1.8854,46.6822],[1.8819,46.6814],[1.8809,46.6829],[1.8821,46.6801],[1.8859,46.6806],[1.8841,46.6804],[1.8841,46.6781],[1.8804,46.6780],[1.8798,46.6796],[1.8777,46.6791],[1.8778,46.6780],[1.8749,46.6763],[1.8766,46.6760],[1.8757,46.6747],[1.8769,46.6745],[1.8765,46.6724],[1.8620,46.6734],[1.8644,46.6780],[1.8662,46.6786],[1.8651,46.6802],[1.8640,46.6798],[1.8628,46.6827],[1.8647,46.6852],[1.8632,46.6876],[1.8660,46.6905],[1.8643,46.6904],[1.8644,46.6933],[1.8674,46.6946],[1.8640,46.6962],[1.8641,46.6971],[1.8717,46.6942],[1.8731,46.6954],[1.8738,46.6945],[1.8719,46.6918],[1.8795,46.6905],[1.8811,46.6913]]]}},{"type":"Feature","properties":{"name":"Forêt de Civrais"},"geometry":{"type":"Polygon","coordinates":[[[2.8935,46.6443],[2.8926,46.6452],[2.8941,46.6460],[2.8994,46.6436],[2.9001,46.6448],[2.9036,46.6455],[2.9034,46.6474],[2.9047,46.6473],[2.9056,46.6405],[2.9099,46.6406],[2.9104,46.6393],[2.9061,46.6383],[2.9054,46.6343],[2.9122,46.6339],[2.9165,46.6313],[2.9219,46.6307],[2.9224,46.6273],[2.9204,46.6274],[2.9198,46.6248],[2.9225,46.6223],[2.9303,46.6209],[2.9350,46.6231],[2.9458,46.6201],[2.9510,46.6200],[2.9465,46.6170],[2.9455,46.6144],[2.9423,46.6133],[2.9420,46.6123],[2.9445,46.6105],[2.9429,46.6087],[2.9357,46.6065],[2.9344,46.6046],[2.9333,46.6057],[2.9308,46.6048],[2.9302,46.6025],[2.9269,46.6008],[2.9248,46.6009],[2.9228,46.6065],[2.9199,46.6061],[2.9169,46.6016],[2.9177,46.5999],[2.9113,46.6005],[2.9148,46.5980],[2.9126,46.5968],[2.9133,46.5959],[2.9088,46.5968],[2.9117,46.5975],[2.9122,46.5987],[2.9090,46.5992],[2.9099,46.6008],[2.9061,46.6028],[2.9046,46.5999],[2.8966,46.6017],[2.8942,46.6009],[2.8928,46.6060],[2.8915,46.6062],[2.8921,46.6080],[2.8888,46.6089],[2.8926,46.6122],[2.8920,46.6140],[2.8995,46.6151],[2.8953,46.6158],[2.8980,46.6201],[2.8947,46.6202],[2.8939,46.6219],[2.8905,46.6225],[2.8881,46.6245],[2.8858,46.6232],[2.8859,46.6263],[2.8834,46.6261],[2.8823,46.6286],[2.8791,46.6252],[2.8821,46.6288],[2.8797,46.6291],[2.8820,46.6316],[2.8838,46.6323],[2.8852,46.6313],[2.8867,46.6333],[2.8881,46.6323],[2.8893,46.6354],[2.8942,46.6346],[2.8941,46.6383],[2.8960,46.6381],[2.8972,46.6414],[2.8957,46.6452],[2.8935,46.6443]]]}},{"type":"Feature","properties":{"name":"Forêt Domaniale de Soulongis"},"geometry":{"type":"Polygon","coordinates":[[[2.7833,46.5268],[2.7820,46.5277],[2.7834,46.5291],[2.7826,46.5298],[2.7709,46.5228],[2.7706,46.5207],[2.7688,46.5208],[2.7688,46.5182],[2.7593,46.5144],[2.7574,46.5162],[2.7598,46.5175],[2.7544,46.5210],[2.7540,46.5236],[2.7566,46.5243],[2.7537,46.5276],[2.7543,46.5286],[2.7541,46.5273],[2.7556,46.5272],[2.7575,46.5297],[2.7572,46.5313],[2.7604,46.5329],[2.7614,46.5381],[2.7665,46.5400],[2.7678,46.5458],[2.7705,46.5433],[2.7729,46.5451],[2.7766,46.5444],[2.7798,46.5457],[2.7816,46.5483],[2.7842,46.5465],[2.7826,46.5453],[2.7853,46.5435],[2.7851,46.5412],[2.7877,46.5413],[2.7924,46.5385],[2.7941,46.5402],[2.7926,46.5378],[2.7969,46.5357],[2.7906,46.5375],[2.7858,46.5350],[2.7836,46.5292],[2.7868,46.5312],[2.7847,46.5293],[2.7866,46.5281],[2.7829,46.5278],[2.7833,46.5268]]]}},{"type":"Feature","properties":{"name":"Forêt d\u0027Ivoy"},"geometry":{"type":"Polygon","coordinates":[[[2.5037,47.4162],[2.5068,47.4148],[2.5110,47.4183],[2.5131,47.4183],[2.5115,47.4159],[2.5162,47.4119],[2.5213,47.4158],[2.5272,47.4059],[2.5343,47.4071],[2.5387,47.3991],[2.5365,47.3983],[2.5359,47.3955],[2.5408,47.3908],[2.5433,47.3923],[2.5414,47.3897],[2.5405,47.3903],[2.5349,47.3876],[2.5380,47.3868],[2.5369,47.3867],[2.5364,47.3845],[2.5418,47.3839],[2.5427,47.3877],[2.5456,47.3907],[2.5440,47.3917],[2.5497,47.3953],[2.5513,47.3935],[2.5494,47.3932],[2.5441,47.3879],[2.5418,47.3796],[2.5349,47.3819],[2.5372,47.3830],[2.5357,47.3841],[2.5328,47.3831],[2.5336,47.3802],[2.5368,47.3783],[2.5362,47.3760],[2.5436,47.3729],[2.5446,47.3705],[2.5433,47.3697],[2.5466,47.3651],[2.5451,47.3633],[2.5478,47.3624],[2.5477,47.3613],[2.5427,47.3589],[2.5332,47.3583],[2.5287,47.3565],[2.5181,47.3583],[2.5178,47.3557],[2.5257,47.3548],[2.5131,47.3506],[2.5135,47.3492],[2.5286,47.3546],[2.5229,47.3495],[2.5253,47.3448],[2.5240,47.3434],[2.5180,47.3438],[2.5119,47.3464],[2.5012,47.3475],[2.5038,47.3497],[2.5032,47.3513],[2.5050,47.3531],[2.5036,47.3539],[2.5071,47.3566],[2.5012,47.3582],[2.5023,47.3592],[2.5004,47.3606],[2.5021,47.3603],[2.5025,47.3625],[2.4991,47.3636],[2.5005,47.3652],[2.4991,47.3669],[2.4995,47.3698],[2.4956,47.3704],[2.4950,47.3716],[2.4976,47.3747],[2.4935,47.3784],[2.4909,47.3839],[2.4830,47.3826],[2.4835,47.3850],[2.4857,47.3854],[2.4845,47.3874],[2.4886,47.3886],[2.4882,47.3897],[2.4817,47.3898],[2.4805,47.3919],[2.4814,47.3924],[2.4882,47.3919],[2.4844,47.3947],[2.4874,47.3949],[2.4868,47.3964],[2.4827,47.3968],[2.4815,47.3995],[2.4872,47.3997],[2.4877,47.3980],[2.4968,47.3959],[2.5005,47.3963],[2.5016,47.3979],[2.4918,47.4025],[2.4813,47.4038],[2.4879,47.4063],[2.4821,47.4084],[2.4777,47.4079],[2.4757,47.4122],[2.4827,47.4126],[2.4832,47.4147],[2.4800,47.4160],[2.4796,47.4174],[2.4811,47.4198],[2.4898,47.4200],[2.4896,47.4228],[2.4860,47.4232],[2.4921,47.4230],[2.4945,47.4217],[2.4990,47.4160],[2.5037,47.4162]]]}},{"type":"Feature","properties":{"name":"Bois de la Roche"},"geometry":{"type":"Polygon","coordinates":[[[2.3235,46.4900],[2.3240,46.4882],[2.3257,46.4884],[2.3248,46.4865],[2.3293,46.4842],[2.3299,46.4793],[2.3317,46.4791],[2.3279,46.4755],[2.3287,46.4740],[2.3256,46.4728],[2.3251,46.4706],[2.3216,46.4682],[2.3144,46.4692],[2.3140,46.4708],[2.3155,46.4714],[2.3134,46.4734],[2.3143,46.4745],[2.3105,46.4791],[2.3174,46.4802],[2.3132,46.4809],[2.3166,46.4843],[2.3222,46.4833],[2.3223,46.4852],[2.3192,46.4853],[2.3212,46.4881],[2.3182,46.4887],[2.3228,46.4898],[2.3229,46.4908],[2.3235,46.4900]]]}},{"type":"Feature","properties":{"name":"Forêt Domaniale de Thoux"},"geometry":{"type":"Polygon","coordinates":[[[2.3015,46.8725],[2.3030,46.8705],[2.3050,46.8705],[2.3044,46.8713],[2.3060,46.8699],[2.3009,46.8688],[2.2973,46.8662],[2.2956,46.8672],[2.2968,46.8658],[2.2940,46.8636],[2.2941,46.8685],[2.2902,46.8706],[2.2891,46.8728],[2.2854,46.8720],[2.2843,46.8698],[2.2869,46.8667],[2.2871,46.8644],[2.2858,46.8639],[2.2867,46.8657],[2.2846,46.8651],[2.2854,46.8640],[2.2846,46.8633],[2.2861,46.8629],[2.2792,46.8598],[2.2800,46.8585],[2.2781,46.8590],[2.2752,46.8564],[2.2764,46.8553],[2.2745,46.8559],[2.2749,46.8538],[2.2769,46.8529],[2.2755,46.8519],[2.2729,46.8516],[2.2723,46.8526],[2.2738,46.8550],[2.2702,46.8559],[2.2726,46.8569],[2.2701,46.8598],[2.2724,46.8603],[2.2722,46.8612],[2.2658,46.8640],[2.2668,46.8654],[2.2650,46.8669],[2.2581,46.8676],[2.2493,46.8637],[2.2524,46.8599],[2.2529,46.8554],[2.2497,46.8535],[2.2556,46.8513],[2.2516,46.8489],[2.2499,46.8462],[2.2462,46.8450],[2.2427,46.8466],[2.2420,46.8548],[2.2390,46.8609],[2.2369,46.8620],[2.2335,46.8587],[2.2307,46.8607],[2.2351,46.8625],[2.2407,46.8628],[2.2431,46.8711],[2.2410,46.8716],[2.2318,46.8649],[2.2336,46.8630],[2.2298,46.8618],[2.2262,46.8634],[2.2267,46.8666],[2.2242,46.8661],[2.2253,46.8623],[2.2183,46.8634],[2.2177,46.8646],[2.2123,46.8673],[2.2100,46.8669],[2.2080,46.8689],[2.2036,46.8653],[2.2054,46.8607],[2.2015,46.8609],[2.2025,46.8574],[2.2072,46.8564],[2.2078,46.8539],[2.2118,46.8556],[2.2125,46.8518],[2.2096,46.8512],[2.2099,46.8501],[2.2063,46.8474],[2.2033,46.8496],[2.2000,46.8470],[2.1944,46.8461],[2.1938,46.8470],[2.1984,46.8500],[2.1930,46.8538],[2.1905,46.8522],[2.1935,46.8468],[2.1871,46.8452],[2.1875,46.8461],[2.1858,46.8459],[2.1867,46.8430],[2.1824,46.8457],[2.1792,46.8442],[2.1770,46.8447],[2.1751,46.8429],[2.1763,46.8405],[2.1734,46.8420],[2.1691,46.8399],[2.1693,46.8388],[2.1743,46.8389],[2.1747,46.8371],[2.1791,46.8366],[2.1776,46.8356],[2.1804,46.8366],[2.1815,46.8351],[2.1767,46.8328],[2.1694,46.8318],[2.1604,46.8330],[2.1615,46.8340],[2.1608,46.8355],[2.1624,46.8363],[2.1609,46.8376],[2.1575,46.8364],[2.1584,46.8318],[2.1513,46.8302],[2.1520,46.8329],[2.1544,46.8327],[2.1497,46.8338],[2.1572,46.8358],[2.1559,46.8397],[2.1573,46.8401],[2.1581,46.8439],[2.1518,46.8433],[2.1493,46.8444],[2.1477,46.8435],[2.1497,46.8418],[2.1491,46.8411],[2.1382,46.8460],[2.1566,46.8554],[2.1550,46.8565],[2.1487,46.8532],[2.1528,46.8562],[2.1524,46.8580],[2.1510,46.8579],[2.1535,46.8591],[2.1512,46.8616],[2.1483,46.8624],[2.1491,46.8605],[2.1464,46.8587],[2.1462,46.8571],[2.1384,46.8542],[2.1418,46.8499],[2.1341,46.8440],[2.1349,46.8419],[2.1371,46.8440],[2.1379,46.8396],[2.1438,46.8390],[2.1420,46.8372],[2.1379,46.8391],[2.1332,46.8365],[2.1324,46.8375],[2.1338,46.8407],[2.1314,46.8393],[2.1319,46.8408],[2.1293,46.8410],[2.1293,46.8432],[2.1255,46.8424],[2.1260,46.8435],[2.1283,46.8431],[2.1257,46.8471],[2.1274,46.8478],[2.1260,46.8502],[2.1221,46.8510],[2.1233,46.8538],[2.1199,46.8537],[2.1201,46.8557],[2.1273,46.8620],[2.1368,46.8651],[2.1403,46.8679],[2.1430,46.8670],[2.1440,46.8682],[2.1428,46.8695],[2.1442,46.8684],[2.1496,46.8703],[2.1492,46.8690],[2.1507,46.8686],[2.1497,46.8674],[2.1513,46.8669],[2.1539,46.8688],[2.1564,46.8631],[2.1541,46.8640],[2.1538,46.8654],[2.1520,46.8641],[2.1528,46.8655],[2.1506,46.8659],[2.1512,46.8632],[2.1498,46.8657],[2.1465,46.8654],[2.1466,46.8645],[2.1481,46.8635],[2.1490,46.8642],[2.1489,46.8629],[2.1496,46.8642],[2.1520,46.8624],[2.1540,46.8629],[2.1545,46.8608],[2.1581,46.8595],[2.1589,46.8586],[2.1567,46.8566],[2.1594,46.8575],[2.1586,46.8555],[2.1627,46.8495],[2.1657,46.8487],[2.1635,46.8473],[2.1633,46.8440],[2.1675,46.8418],[2.1761,46.8470],[2.1806,46.8524],[2.1877,46.8496],[2.1873,46.8534],[2.1831,46.8552],[2.1840,46.8565],[2.1821,46.8576],[2.1782,46.8589],[2.1765,46.8577],[2.1779,46.8552],[2.1778,46.8510],[2.1756,46.8484],[2.1742,46.8501],[2.1767,46.8521],[2.1759,46.8563],[2.1743,46.8585],[2.1707,46.8597],[2.1779,46.8610],[2.1773,46.8627],[2.1788,46.8637],[2.1819,46.8629],[2.1861,46.8640],[2.1837,46.8661],[2.1873,46.8680],[2.1865,46.8692],[2.1846,46.8687],[2.1839,46.8704],[2.1854,46.8704],[2.1889,46.8728],[2.1887,46.8745],[2.1917,46.8757],[2.1925,46.8790],[2.1950,46.8800],[2.1942,46.8828],[2.1969,46.8858],[2.1989,46.8861],[2.2030,46.8816],[2.2080,46.8850],[2.2109,46.8846],[2.2149,46.8782],[2.2131,46.8774],[2.2166,46.8734],[2.2163,46.8767],[2.2265,46.8762],[2.2295,46.8844],[2.2156,46.9004],[2.2135,46.9001],[2.2141,46.9017],[2.2155,46.9017],[2.2155,46.9045],[2.2171,46.9046],[2.2176,46.9073],[2.2154,46.9078],[2.2191,46.9116],[2.2183,46.9122],[2.2216,46.9128],[2.2226,46.9149],[2.2256,46.9150],[2.2301,46.9184],[2.2299,46.9194],[2.2351,46.9206],[2.2355,46.9235],[2.2283,46.9262],[2.2264,46.9286],[2.2276,46.9296],[2.2259,46.9331],[2.2392,46.9328],[2.2373,46.9320],[2.2378,46.9295],[2.2412,46.9276],[2.2408,46.9260],[2.2514,46.9282],[2.2574,46.9317],[2.2524,46.9297],[2.2567,46.9331],[2.2605,46.9323],[2.2592,46.9274],[2.2562,46.9246],[2.2512,46.9281],[2.2456,46.9263],[2.2431,46.9219],[2.2479,46.9201],[2.2450,46.9165],[2.2462,46.9152],[2.2500,46.9163],[2.2554,46.9205],[2.2602,46.9135],[2.2655,46.9164],[2.2665,46.9198],[2.2721,46.9241],[2.2682,46.9203],[2.2728,46.9226],[2.2754,46.9203],[2.2836,46.9185],[2.2811,46.9177],[2.2816,46.9191],[2.2758,46.9196],[2.2704,46.9167],[2.2720,46.9147],[2.2667,46.9140],[2.2663,46.9160],[2.2611,46.9132],[2.2622,46.9115],[2.2653,46.9108],[2.2735,46.9122],[2.2759,46.9104],[2.2808,46.9123],[2.2873,46.9120],[2.2867,46.9145],[2.2879,46.9148],[2.2894,46.9068],[2.2924,46.9028],[2.2961,46.9021],[2.2967,46.9041],[2.2944,46.9051],[2.2970,46.9045],[2.2973,46.9025],[2.2941,46.8980],[2.2964,46.8966],[2.2940,46.8962],[2.2934,46.9015],[2.2900,46.9017],[2.2895,46.9036],[2.2836,46.9024],[2.2825,46.8998],[2.2799,46.8981],[2.2830,46.8964],[2.2805,46.8955],[2.2776,46.8987],[2.2795,46.8999],[2.2764,46.9000],[2.2764,46.8990],[2.2673,46.8966],[2.2708,46.8949],[2.2734,46.8958],[2.2745,46.8931],[2.2836,46.8948],[2.2845,46.8936],[2.2835,46.8933],[2.2849,46.8925],[2.2870,46.8934],[2.2864,46.8944],[2.2880,46.8941],[2.2888,46.8966],[2.2925,46.8968],[2.2965,46.8897],[2.2935,46.8895],[2.2926,46.8882],[2.2929,46.8896],[2.2953,46.8909],[2.2908,46.8889],[2.2843,46.8892],[2.2820,46.8881],[2.2816,46.8853],[2.2836,46.8840],[2.2766,46.8809],[2.2801,46.8814],[2.2788,46.8801],[2.2839,46.8786],[2.2874,46.8754],[2.2874,46.8738],[2.2919,46.8740],[2.2961,46.8757],[2.2954,46.8766],[2.3041,46.8796],[2.3060,46.8821],[2.3055,46.8837],[2.3080,46.8834],[2.3084,46.8825],[2.3031,46.8765],[2.3015,46.8725]]]}},{"type":"Feature","properties":{"name":"Forêt de Chaon"},"geometry":{"type":"Polygon","coordinates":[[[2.1505,47.6345],[2.1458,47.6358],[2.1466,47.6339],[2.1498,47.6331],[2.1429,47.6312],[2.1434,47.6301],[2.1374,47.6269],[2.1358,47.6276],[2.1343,47.6254],[2.1350,47.6231],[2.1336,47.6218],[2.1318,47.6228],[2.1284,47.6213],[2.1297,47.6208],[2.1313,47.6160],[2.1329,47.6166],[2.1335,47.6192],[2.1322,47.6194],[2.1325,47.6211],[2.1370,47.6201],[2.1351,47.6146],[2.1381,47.6160],[2.1389,47.6194],[2.1476,47.6164],[2.1541,47.6165],[2.1568,47.6152],[2.1563,47.6146],[2.1590,47.6121],[2.1590,47.6139],[2.1625,47.6137],[2.1630,47.6154],[2.1612,47.6149],[2.1607,47.6161],[2.1621,47.6164],[2.1615,47.6178],[2.1645,47.6217],[2.1658,47.6300],[2.1633,47.6315],[2.1648,47.6338],[2.1623,47.6341],[2.1651,47.6391],[2.1639,47.6405],[2.1594,47.6353],[2.1565,47.6364],[2.1562,47.6337],[2.1541,47.6329],[2.1505,47.6345]]]}},{"type":"Feature","properties":{"name":"Forêt de Champroux"},"geometry":{"type":"Polygon","coordinates":[[[2.9869,46.6867],[2.9843,46.6878],[2.9845,46.6909],[2.9828,46.6902],[2.9837,46.6923],[2.9860,46.6936],[2.9838,46.6909],[2.9865,46.6924],[2.9878,46.6914],[2.9911,46.6938],[2.9945,46.6897],[2.9993,46.6889],[3.0002,46.6868],[2.9985,46.6851],[3.0022,46.6843],[3.0003,46.6836],[3.0023,46.6826],[2.9992,46.6805],[3.0024,46.6805],[2.9951,46.6777],[2.9971,46.6764],[2.9969,46.6774],[2.9999,46.6779],[2.9996,46.6760],[3.0011,46.6756],[2.9990,46.6748],[2.9996,46.6720],[2.9921,46.6705],[2.9944,46.6677],[2.9972,46.6671],[2.9977,46.6665],[2.9961,46.6669],[2.9964,46.6654],[2.9949,46.6671],[2.9925,46.6668],[2.9949,46.6648],[2.9923,46.6646],[2.9911,46.6664],[2.9884,46.6660],[2.9896,46.6699],[2.9848,46.6697],[2.9787,46.6640],[2.9697,46.6607],[2.9658,46.6563],[2.9682,46.6547],[2.9664,46.6530],[2.9672,46.6517],[2.9607,46.6513],[2.9603,46.6499],[2.9622,46.6477],[2.9598,46.6452],[2.9606,46.6427],[2.9507,46.6387],[2.9450,46.6405],[2.9373,46.6379],[2.9344,46.6407],[2.9361,46.6417],[2.9354,46.6426],[2.9308,46.6445],[2.9295,46.6486],[2.9307,46.6489],[2.9331,46.6469],[2.9415,46.6518],[2.9505,46.6508],[2.9553,46.6552],[2.9515,46.6574],[2.9539,46.6571],[2.9534,46.6594],[2.9516,46.6603],[2.9524,46.6632],[2.9561,46.6632],[2.9529,46.6661],[2.9573,46.6678],[2.9541,46.6697],[2.9557,46.6713],[2.9581,46.6710],[2.9569,46.6725],[2.9594,46.6742],[2.9613,46.6705],[2.9597,46.6705],[2.9578,46.6675],[2.9608,46.6655],[2.9602,46.6642],[2.9623,46.6639],[2.9626,46.6666],[2.9630,46.6658],[2.9655,46.6670],[2.9631,46.6686],[2.9627,46.6703],[2.9671,46.6695],[2.9676,46.6715],[2.9702,46.6713],[2.9723,46.6726],[2.9777,46.6701],[2.9786,46.6709],[2.9775,46.6724],[2.9759,46.6721],[2.9787,46.6765],[2.9820,46.6784],[2.9879,46.6787],[2.9906,46.6808],[2.9907,46.6822],[2.9885,46.6822],[2.9908,46.6832],[2.9915,46.6802],[2.9942,46.6816],[2.9944,46.6846],[2.9914,46.6847],[2.9908,46.6872],[2.9869,46.6867]]]}},{"type":"Feature","properties":{"name":"Bois de Courcelles"},"geometry":{"type":"Polygon","coordinates":[[[2.7616,47.5625],[2.7700,47.5569],[2.7710,47.5519],[2.7704,47.5507],[2.7572,47.5521],[2.7578,47.5515],[2.7552,47.5510],[2.7496,47.5440],[2.7511,47.5426],[2.7479,47.5426],[2.7452,47.5401],[2.7509,47.5355],[2.7537,47.5364],[2.7535,47.5348],[2.7584,47.5336],[2.7549,47.5334],[2.7561,47.5329],[2.7548,47.5313],[2.7561,47.5306],[2.7551,47.5286],[2.7521,47.5296],[2.7510,47.5282],[2.7485,47.5282],[2.7442,47.5306],[2.7507,47.5344],[2.7474,47.5344],[2.7452,47.5361],[2.7454,47.5391],[2.7395,47.5452],[2.7472,47.5486],[2.7489,47.5474],[2.7500,47.5487],[2.7441,47.5498],[2.7424,47.5517],[2.7477,47.5571],[2.7503,47.5563],[2.7554,47.5577],[2.7546,47.5539],[2.7556,47.5529],[2.7612,47.5562],[2.7649,47.5562],[2.7672,47.5575],[2.7627,47.5596],[2.7608,47.5572],[2.7593,47.5577],[2.7604,47.5592],[2.7592,47.5596],[2.7595,47.5606],[2.7628,47.5603],[2.7616,47.5625]]]}},{"type":"Feature","properties":{"name":"Bois de Sainte-Sévère"},"geometry":{"type":"Polygon","coordinates":[[[2.0758,46.5386],[2.0780,46.5367],[2.0767,46.5367],[2.0759,46.5343],[2.0795,46.5338],[2.0793,46.5315],[2.0712,46.5281],[2.0604,46.5296],[2.0520,46.5341],[2.0602,46.5363],[2.0580,46.5398],[2.0558,46.5394],[2.0563,46.5373],[2.0543,46.5367],[2.0493,46.5359],[2.0470,46.5377],[2.0517,46.5385],[2.0472,46.5393],[2.0517,46.5407],[2.0587,46.5482],[2.0605,46.5479],[2.0661,46.5534],[2.0692,46.5479],[2.0749,46.5417],[2.0774,46.5410],[2.0758,46.5386]]]}},{"type":"Feature","properties":{"name":"Forêt des Encheur"},"geometry":{"type":"Polygon","coordinates":[[[1.8810,46.6916],[1.8828,46.7006],[1.8779,46.7047],[1.8796,46.7058],[1.8793,46.7073],[1.8736,46.7129],[1.8744,46.7134],[1.8764,46.7113],[1.8796,46.7137],[1.8755,46.7151],[1.8777,46.7171],[1.8824,46.7160],[1.8826,46.7079],[1.8847,46.7084],[1.8873,46.7158],[1.8866,46.7127],[1.8915,46.7109],[1.8935,46.7123],[1.8928,46.7135],[1.8946,46.7130],[1.9001,46.7167],[1.9047,46.7217],[1.9009,46.7250],[1.9062,46.7239],[1.9100,46.7290],[1.9136,46.7302],[1.9120,46.7315],[1.9080,46.7314],[1.9088,46.7343],[1.9106,46.7355],[1.9162,46.7330],[1.9182,46.7334],[1.9195,46.7252],[1.9210,46.7244],[1.9216,46.7217],[1.9245,46.7216],[1.9213,46.7189],[1.9293,46.7174],[1.9229,46.7165],[1.9236,46.7155],[1.9211,46.7148],[1.9221,46.7134],[1.9156,46.7103],[1.9129,46.7109],[1.9127,46.7099],[1.9141,46.7095],[1.9107,46.7066],[1.9133,46.7078],[1.9147,46.7057],[1.9158,46.7059],[1.9135,46.7090],[1.9204,46.7125],[1.9179,46.7104],[1.9192,46.7082],[1.9222,46.7096],[1.9221,46.7106],[1.9248,46.7096],[1.9234,46.7076],[1.9235,46.7032],[1.9218,46.7036],[1.9228,46.7047],[1.9178,46.7053],[1.9181,46.7031],[1.9165,46.7027],[1.9202,46.7024],[1.9200,46.7011],[1.9184,46.7013],[1.9209,46.6979],[1.9178,46.6969],[1.9192,46.6953],[1.9176,46.6952],[1.9172,46.6967],[1.9143,46.6958],[1.9022,46.6896],[1.9015,46.6930],[1.9027,46.6953],[1.9010,46.6968],[1.8919,46.6923],[1.8913,46.6900],[1.8957,46.6885],[1.8953,46.6875],[1.8915,46.6880],[1.8897,46.6867],[1.8867,46.6884],[1.8898,46.6910],[1.8856,46.6945],[1.8810,46.6916]]]}},{"type":"Feature","properties":{"name":"Forêt de Tronçais"},"geometry":{"type":"Polygon","coordinates":[[[2.7288,46.6062],[2.7219,46.6051],[2.7214,46.6034],[2.7205,46.6048],[2.7172,46.6039],[2.7145,46.6059],[2.7121,46.6059],[2.7132,46.6071],[2.7136,46.6136],[2.7201,46.6168],[2.7197,46.6203],[2.7158,46.6201],[2.7104,46.6250],[2.7062,46.6222],[2.6925,46.6296],[2.6903,46.6293],[2.6859,46.6254],[2.6907,46.6224],[2.6913,46.6194],[2.6867,46.6174],[2.6876,46.6151],[2.6694,46.6129],[2.6691,46.6145],[2.6671,46.6147],[2.6690,46.6150],[2.6680,46.6199],[2.6648,46.6205],[2.6645,46.6220],[2.6618,46.6221],[2.6655,46.6239],[2.6678,46.6210],[2.6701,46.6215],[2.6745,46.6178],[2.6795,46.6177],[2.6752,46.6355],[2.6764,46.6379],[2.6809,46.6349],[2.6795,46.6335],[2.6805,46.6297],[2.6856,46.6292],[2.6853,46.6308],[2.6865,46.6319],[2.6817,46.6358],[2.6785,46.6411],[2.6737,46.6416],[2.6724,46.6456],[2.6643,46.6433],[2.6639,46.6468],[2.6719,46.6477],[2.6713,46.6510],[2.6807,46.6499],[2.6815,46.6511],[2.6870,46.6518],[2.6906,46.6510],[2.6903,46.6501],[2.6929,46.6487],[2.6950,46.6450],[2.6984,46.6451],[2.7027,46.6416],[2.7060,46.6426],[2.7056,46.6436],[2.7074,46.6448],[2.7063,46.6456],[2.7077,46.6460],[2.7158,46.6419],[2.7156,46.6409],[2.7188,46.6391],[2.7179,46.6362],[2.7195,46.6346],[2.7201,46.6381],[2.7262,46.6400],[2.7350,46.6371],[2.7544,46.6347],[2.7533,46.6328],[2.7451,46.6320],[2.7402,46.6336],[2.7374,46.6337],[2.7371,46.6322],[2.7328,46.6333],[2.7336,46.6311],[2.7355,46.6308],[2.7336,46.6270],[2.7381,46.6219],[2.7360,46.6196],[2.7368,46.6149],[2.7402,46.6152],[2.7374,46.6117],[2.7348,46.6139],[2.7302,46.6131],[2.7322,46.6107],[2.7396,46.6103],[2.7434,46.6057],[2.7474,46.6058],[2.7494,46.6039],[2.7480,46.6011],[2.7465,46.6000],[2.7413,46.6038],[2.7382,46.6039],[2.7387,46.6001],[2.7363,46.6030],[2.7363,46.6050],[2.7333,46.6074],[2.7304,46.6075],[2.7288,46.6062]]]}}]}