{"type":"FeatureCollection","features":[{"type":"Feature","properties":{"name":"Boisement"},"geometry":{"type":"Polygon","coordinates":[[[5.1816,47.3763],[5.1801,47.3770],[5.1814,47.3782],[5.1810,47.3799],[5.1831,47.3796],[5.1833,47.3780],[5.1820,47.3773],[5.1837,47.3776],[5.1832,47.3798],[5.1755,47.3815],[5.1755,47.3844],[5.1774,47.3855],[5.1734,47.3873],[5.1755,47.3892],[5.1781,47.3890],[5.1796,47.3907],[5.1824,47.3911],[5.1812,47.3926],[5.1796,47.3915],[5.1794,47.3928],[5.1859,47.3968],[5.1893,47.4013],[5.1850,47.4029],[5.1864,47.4037],[5.1879,47.4084],[5.1847,47.4041],[5.1813,47.3954],[5.1749,47.3896],[5.1704,47.3835],[5.1721,47.3824],[5.1699,47.3819],[5.1695,47.3769],[5.1702,47.3807],[5.1714,47.3804],[5.1707,47.3769],[5.1689,47.3766],[5.1683,47.3745],[5.1666,47.3753],[5.1649,47.3665],[5.1675,47.3660],[5.1678,47.3628],[5.1643,47.3620],[5.1629,47.3572],[5.1651,47.3568],[5.1654,47.3536],[5.1688,47.3535],[5.1698,47.3515],[5.1727,47.3510],[5.1762,47.3513],[5.1767,47.3531],[5.1790,47.3535],[5.1805,47.3643],[5.1794,47.3643],[5.1793,47.3658],[5.1810,47.3662],[5.1812,47.3683],[5.1855,47.3703],[5.1846,47.3744],[5.1823,47.3740],[5.1816,47.3763]]]}},{"type":"Feature","properties":{"name":"Bois de Blancey"},"geometry":{"type":"Polygon","coordinates":[[[4.4661,47.2665],[4.4676,47.2657],[4.4707,47.2685],[4.4711,47.2715],[4.4730,47.2706],[4.4705,47.2700],[4.4718,47.2684],[4.4689,47.2664],[4.4684,47.2605],[4.4663,47.2601],[4.4664,47.2577],[4.4652,47.2570],[4.4663,47.2543],[4.4667,47.2552],[4.4675,47.2544],[4.4673,47.2528],[4.4643,47.2557],[4.4646,47.2646],[4.4610,47.2640],[4.4640,47.2649],[4.4649,47.2686],[4.4640,47.2713],[4.4629,47.2695],[4.4618,47.2731],[4.4655,47.2724],[4.4659,47.2737],[4.4689,47.2731],[4.4719,47.2747],[4.4733,47.2731],[4.4729,47.2776],[4.4710,47.2809],[4.4764,47.2812],[4.4789,47.2798],[4.4807,47.2808],[4.4766,47.2818],[4.4753,47.2835],[4.4725,47.2835],[4.4785,47.2844],[4.4783,47.2865],[4.4801,47.2885],[4.4774,47.2896],[4.4700,47.2851],[4.4698,47.2866],[4.4675,47.2836],[4.4682,47.2868],[4.4706,47.2878],[4.4697,47.2890],[4.4708,47.2943],[4.4687,47.2974],[4.4712,47.2988],[4.4706,47.3029],[4.4726,47.3039],[4.4728,47.3003],[4.4714,47.2965],[4.4742,47.2971],[4.4714,47.2964],[4.4738,47.2962],[4.4736,47.2952],[4.4714,47.2953],[4.4714,47.2942],[4.4736,47.2941],[4.4727,47.2914],[4.4732,47.2886],[4.4745,47.2889],[4.4789,47.2907],[4.4783,47.2953],[4.4813,47.2961],[4.4807,47.2972],[4.4829,47.3009],[4.4828,47.2978],[4.4846,47.2977],[4.4849,47.2959],[4.4865,47.2956],[4.4862,47.2941],[4.4886,47.2933],[4.4893,47.2894],[4.4839,47.2897],[4.4804,47.2859],[4.4866,47.2816],[4.4821,47.2780],[4.4738,47.2796],[4.4761,47.2739],[4.4740,47.2722],[4.4717,47.2724],[4.4723,47.2739],[4.4683,47.2730],[4.4668,47.2709],[4.4689,47.2688],[4.4661,47.2665]]]}},{"type":"Feature","properties":{"name":"Forêt Domaniale de Mantuan"},"geometry":{"type":"Polygon","coordinates":[[[4.9195,47.1654],[4.9188,47.1635],[4.9108,47.1583],[4.9134,47.1567],[4.9135,47.1553],[4.9104,47.1545],[4.9099,47.1524],[4.9113,47.1516],[4.9059,47.1499],[4.9054,47.1476],[4.9025,47.1467],[4.8986,47.1478],[4.8985,47.1467],[4.8970,47.1470],[4.8976,47.1480],[4.8952,47.1498],[4.8937,47.1484],[4.8926,47.1492],[4.8937,47.1497],[4.8920,47.1497],[4.8923,47.1521],[4.8943,47.1512],[4.8943,47.1527],[4.8913,47.1538],[4.8927,47.1542],[4.8919,47.1552],[4.8928,47.1550],[4.8932,47.1573],[4.8952,47.1588],[4.8934,47.1594],[4.8951,47.1603],[4.8940,47.1604],[4.8937,47.1622],[4.8980,47.1688],[4.8961,47.1697],[4.8961,47.1682],[4.8939,47.1666],[4.8978,47.1746],[4.8964,47.1727],[4.8951,47.1730],[4.9004,47.1827],[4.9016,47.1825],[4.9012,47.1809],[4.9038,47.1843],[4.9049,47.1886],[4.9016,47.1874],[4.8949,47.1880],[4.8971,47.1935],[4.8996,47.1957],[4.9009,47.1938],[4.9056,47.1920],[4.9103,47.1962],[4.9063,47.1981],[4.9077,47.1987],[4.9073,47.2005],[4.9090,47.2026],[4.9112,47.2023],[4.9093,47.2024],[4.9105,47.2020],[4.9101,47.2008],[4.9126,47.2002],[4.9120,47.2017],[4.9147,47.1998],[4.9192,47.1922],[4.9190,47.1899],[4.9179,47.1898],[4.9209,47.1844],[4.9189,47.1807],[4.9197,47.1779],[4.9208,47.1795],[4.9213,47.1747],[4.9204,47.1715],[4.9177,47.1709],[4.9175,47.1683],[4.9195,47.1654]]]}},{"type":"Feature","properties":{"name":"Bois de Vêvres"},"geometry":{"type":"Polygon","coordinates":[[[4.5288,47.2334],[4.5311,47.2311],[4.5308,47.2284],[4.5324,47.2283],[4.5346,47.2245],[4.5344,47.2227],[4.5310,47.2207],[4.5315,47.2188],[4.5289,47.2177],[4.5316,47.2166],[4.5309,47.2154],[4.5319,47.2147],[4.5286,47.2127],[4.5286,47.2100],[4.5277,47.2131],[4.5240,47.2128],[4.5221,47.2149],[4.5162,47.2152],[4.5132,47.2173],[4.5120,47.2144],[4.5081,47.2167],[4.5051,47.2220],[4.5041,47.2217],[4.5089,47.2294],[4.5136,47.2287],[4.5203,47.2336],[4.5286,47.2317],[4.5288,47.2334]]]}},{"type":"Feature","properties":{"name":"Bois du Troudeix"},"geometry":{"type":"Polygon","coordinates":[[[5.2504,47.8281],[5.2526,47.8283],[5.2530,47.8268],[5.2495,47.8224],[5.2502,47.8216],[5.2437,47.8201],[5.2484,47.8199],[5.2486,47.8139],[5.2462,47.8125],[5.2491,47.8139],[5.2504,47.8195],[5.2529,47.8234],[5.2562,47.8229],[5.2546,47.8242],[5.2555,47.8243],[5.2578,47.8223],[5.2541,47.8225],[5.2515,47.8192],[5.2509,47.8163],[5.2531,47.8159],[5.2526,47.8129],[5.2550,47.8121],[5.2502,47.8130],[5.2496,47.8120],[5.2520,47.8084],[5.2518,47.8042],[5.2538,47.8023],[5.2500,47.8008],[5.2583,47.7982],[5.2612,47.7958],[5.2620,47.7933],[5.2554,47.7919],[5.2511,47.7935],[5.2452,47.7938],[5.2453,47.7995],[5.2489,47.8003],[5.2452,47.8020],[5.2390,47.8025],[5.2286,47.7995],[5.2235,47.8038],[5.2207,47.8028],[5.2225,47.8044],[5.2221,47.8087],[5.2177,47.8090],[5.2275,47.8140],[5.2266,47.8165],[5.2279,47.8169],[5.2288,47.8155],[5.2288,47.8175],[5.2355,47.8179],[5.2370,47.8190],[5.2374,47.8179],[5.2430,47.8211],[5.2476,47.8220],[5.2492,47.8236],[5.2479,47.8247],[5.2519,47.8271],[5.2494,47.8263],[5.2504,47.8281]]]}},{"type":"Feature","properties":{"name":"Bois là-Haut"},"geometry":{"type":"Polygon","coordinates":[[[4.5728,47.6613],[4.5669,47.6586],[4.5574,47.6600],[4.5472,47.6697],[4.5392,47.6710],[4.5380,47.6726],[4.5386,47.6743],[4.5364,47.6743],[4.5373,47.6751],[4.5366,47.6779],[4.5445,47.6766],[4.5548,47.6716],[4.5564,47.6731],[4.5590,47.6720],[4.5627,47.6668],[4.5708,47.6644],[4.5730,47.6627],[4.5728,47.6613]]]}},{"type":"Feature","properties":{"name":"Forêt de Frétoy"},"geometry":{"type":"Polygon","coordinates":[[[4.0503,47.6597],[4.0549,47.6606],[4.0527,47.6592],[4.0503,47.6596],[4.0447,47.6564],[4.0491,47.6524],[4.0514,47.6532],[4.0523,47.6513],[4.0511,47.6508],[4.0515,47.6499],[4.0566,47.6502],[4.0544,47.6491],[4.0561,47.6495],[4.0573,47.6471],[4.0627,47.6471],[4.0614,47.6486],[4.0626,47.6509],[4.0616,47.6490],[4.0639,47.6498],[4.0658,47.6479],[4.0637,47.6467],[4.0663,47.6476],[4.0706,47.6446],[4.0735,47.6447],[4.0776,47.6471],[4.0805,47.6448],[4.0841,47.6461],[4.0841,47.6408],[4.0812,47.6383],[4.0788,47.6399],[4.0775,47.6380],[4.0799,47.6384],[4.0776,47.6356],[4.0790,47.6353],[4.0785,47.6340],[4.0751,47.6349],[4.0725,47.6331],[4.0755,47.6342],[4.0771,47.6334],[4.0762,47.6320],[4.0865,47.6306],[4.0850,47.6294],[4.0862,47.6291],[4.0751,47.6282],[4.0701,47.6266],[4.0714,47.6276],[4.0616,47.6269],[4.0610,47.6283],[4.0587,47.6284],[4.0570,47.6258],[4.0578,47.6298],[4.0570,47.6301],[4.0586,47.6337],[4.0570,47.6356],[4.0574,47.6381],[4.0563,47.6374],[4.0503,47.6416],[4.0474,47.6415],[4.0476,47.6432],[4.0457,47.6444],[4.0386,47.6455],[4.0401,47.6412],[4.0420,47.6408],[4.0419,47.6395],[4.0448,47.6393],[4.0409,47.6384],[4.0417,47.6370],[4.0397,47.6351],[4.0413,47.6353],[4.0402,47.6344],[4.0420,47.6324],[4.0407,47.6298],[4.0377,47.6313],[4.0379,47.6272],[4.0427,47.6268],[4.0399,47.6269],[4.0394,47.6252],[4.0375,47.6254],[4.0371,47.6244],[4.0429,47.6242],[4.0420,47.6210],[4.0455,47.6182],[4.0408,47.6205],[4.0378,47.6204],[4.0375,47.6187],[4.0339,47.6209],[4.0347,47.6225],[4.0338,47.6227],[4.0319,47.6201],[4.0289,47.6195],[4.0262,47.6169],[4.0275,47.6154],[4.0256,47.6150],[4.0264,47.6136],[4.0237,47.6130],[4.0266,47.6130],[4.0255,47.6112],[4.0274,47.6107],[4.0307,47.6116],[4.0311,47.6128],[4.0285,47.6135],[4.0296,47.6146],[4.0366,47.6144],[4.0425,47.6126],[4.0423,47.6112],[4.0373,47.6123],[4.0340,47.6070],[4.0356,47.6066],[4.0347,47.6047],[4.0354,47.6011],[4.0404,47.5994],[4.0320,47.5994],[4.0278,47.6021],[4.0302,47.6038],[4.0293,47.6045],[4.0308,47.6061],[4.0279,47.6056],[4.0212,47.6086],[4.0206,47.6078],[4.0151,47.6086],[4.0136,47.6108],[4.0149,47.6124],[4.0086,47.6155],[4.0093,47.6166],[4.0046,47.6150],[4.0003,47.6183],[3.9977,47.6177],[3.9936,47.6205],[3.9903,47.6184],[3.9906,47.6169],[3.9871,47.6171],[3.9859,47.6161],[3.9962,47.6140],[3.9955,47.6128],[4.0006,47.6115],[4.0030,47.6096],[4.0017,47.6079],[3.9992,47.6101],[3.9950,47.6112],[3.9936,47.6097],[3.9957,47.6090],[3.9944,47.6077],[3.9981,47.6061],[3.9985,47.6094],[3.9998,47.6072],[3.9989,47.6064],[4.0010,47.6062],[4.0023,47.6071],[4.0016,47.6078],[4.0030,47.6071],[3.9993,47.6050],[4.0013,47.6034],[4.0036,47.6037],[4.0035,47.6024],[4.0122,47.6014],[4.0181,47.6035],[4.0215,47.6010],[4.0202,47.5987],[4.0220,47.5988],[4.0183,47.5984],[4.0191,47.5977],[4.0132,47.5994],[4.0106,47.5979],[4.0081,47.5980],[4.0147,47.6002],[4.0093,47.5992],[4.0049,47.6000],[4.0021,47.6008],[4.0034,47.6023],[4.0013,47.6020],[3.9996,47.6037],[3.9853,47.6062],[3.9848,47.6081],[3.9868,47.6061],[3.9934,47.6058],[3.9895,47.6066],[3.9876,47.6084],[3.9861,47.6079],[3.9861,47.6100],[3.9883,47.6123],[3.9870,47.6117],[3.9863,47.6142],[3.9795,47.6170],[3.9830,47.6194],[3.9795,47.6208],[3.9810,47.6207],[3.9848,47.6255],[3.9799,47.6265],[3.9809,47.6331],[3.9793,47.6357],[3.9805,47.6390],[3.9874,47.6414],[3.9884,47.6434],[3.9865,47.6475],[3.9871,47.6489],[3.9898,47.6498],[3.9918,47.6490],[3.9928,47.6482],[3.9918,47.6485],[3.9921,47.6464],[3.9939,47.6453],[3.9970,47.6456],[3.9989,47.6483],[3.9967,47.6488],[3.9945,47.6473],[3.9927,47.6497],[3.9895,47.6502],[3.9912,47.6517],[3.9938,47.6503],[3.9906,47.6522],[3.9909,47.6532],[3.9876,47.6530],[3.9883,47.6545],[3.9863,47.6533],[3.9868,47.6552],[3.9855,47.6546],[3.9836,47.6567],[3.9815,47.6559],[3.9777,47.6587],[3.9822,47.6595],[3.9833,47.6611],[3.9826,47.6622],[3.9837,47.6611],[3.9898,47.6617],[3.9881,47.6607],[3.9969,47.6597],[3.9976,47.6614],[3.9943,47.6660],[3.9955,47.6666],[3.9944,47.6677],[3.9954,47.6695],[3.9987,47.6690],[4.0029,47.6639],[4.0069,47.6659],[4.0098,47.6649],[4.0097,47.6620],[4.0120,47.6626],[4.0104,47.6634],[4.0125,47.6640],[4.0114,47.6656],[4.0124,47.6665],[4.0156,47.6645],[4.0169,47.6664],[4.0173,47.6635],[4.0220,47.6636],[4.0229,47.6675],[4.0276,47.6676],[4.0279,47.6701],[4.0290,47.6698],[4.0307,47.6723],[4.0293,47.6727],[4.0301,47.6740],[4.0313,47.6721],[4.0289,47.6652],[4.0325,47.6728],[4.0313,47.6726],[4.0313,47.6740],[4.0341,47.6756],[4.0349,47.6750],[4.0330,47.6733],[4.0362,47.6750],[4.0351,47.6723],[4.0328,47.6705],[4.0344,47.6704],[4.0348,47.6676],[4.0358,47.6675],[4.0351,47.6654],[4.0407,47.6640],[4.0405,47.6661],[4.0376,47.6659],[4.0380,47.6673],[4.0405,47.6669],[4.0421,47.6692],[4.0443,47.6695],[4.0451,47.6708],[4.0437,47.6713],[4.0447,47.6725],[4.0462,47.6717],[4.0526,47.6735],[4.0458,47.6729],[4.0541,47.6752],[4.0540,47.6769],[4.0533,47.6754],[4.0513,47.6752],[4.0510,47.6774],[4.0552,47.6777],[4.0556,47.6746],[4.0475,47.6722],[4.0433,47.6673],[4.0419,47.6634],[4.0419,47.6620],[4.0438,47.6653],[4.0442,47.6636],[4.0490,47.6639],[4.0519,47.6614],[4.0503,47.6597]]]}},{"type":"Feature","properties":{"name":"Forêt domaniale de Longchamp"},"geometry":{"type":"Polygon","coordinates":[[[5.2977,47.2567],[5.2970,47.2585],[5.3018,47.2596],[5.3015,47.2605],[5.3032,47.2611],[5.3000,47.2635],[5.3012,47.2639],[5.2988,47.2654],[5.2993,47.2663],[5.2968,47.2673],[5.2990,47.2692],[5.3009,47.2688],[5.3021,47.2707],[5.3012,47.2711],[5.3031,47.2729],[5.2979,47.2753],[5.2920,47.2730],[5.2879,47.2743],[5.2901,47.2761],[5.2826,47.2793],[5.2865,47.2819],[5.2841,47.2820],[5.2837,47.2832],[5.2884,47.2836],[5.2913,47.2860],[5.2899,47.2871],[5.2838,47.2869],[5.2823,47.2887],[5.2936,47.2868],[5.2958,47.2889],[5.2971,47.2882],[5.2990,47.2896],[5.2882,47.2938],[5.2876,47.2996],[5.2928,47.3011],[5.2906,47.3031],[5.2933,47.3014],[5.2956,47.3030],[5.2973,47.3001],[5.3011,47.3009],[5.3030,47.2990],[5.3040,47.2993],[5.3028,47.3007],[5.3040,47.3022],[5.3013,47.3034],[5.3003,47.3062],[5.3023,47.3071],[5.3049,47.3061],[5.3061,47.3084],[5.3100,47.3093],[5.3137,47.3123],[5.3163,47.3113],[5.3190,47.3128],[5.3253,47.3100],[5.3279,47.3111],[5.3236,47.3154],[5.3250,47.3172],[5.3222,47.3190],[5.3202,47.3182],[5.3215,47.3199],[5.3278,47.3204],[5.3557,47.3126],[5.3540,47.3094],[5.3502,47.3063],[5.3557,47.3062],[5.3544,47.3049],[5.3518,47.3053],[5.3525,47.3030],[5.3478,47.2982],[5.3514,47.3012],[5.3560,47.3027],[5.3590,47.3061],[5.3604,47.3050],[5.3626,47.3062],[5.3660,47.3013],[5.3656,47.3059],[5.3668,47.3073],[5.3724,47.3062],[5.3731,47.3029],[5.3758,47.3010],[5.3756,47.2999],[5.3783,47.2988],[5.3769,47.2974],[5.3810,47.2983],[5.3828,47.3012],[5.3856,47.2999],[5.3817,47.2987],[5.3821,47.2943],[5.3791,47.2977],[5.3764,47.2953],[5.3773,47.2931],[5.3817,47.2919],[5.3777,47.2856],[5.3761,47.2850],[5.3751,47.2861],[5.3754,47.2844],[5.3726,47.2832],[5.3717,47.2847],[5.3687,47.2850],[5.3665,47.2837],[5.3693,47.2809],[5.3689,47.2780],[5.3714,47.2766],[5.3676,47.2772],[5.3661,47.2752],[5.3701,47.2753],[5.3684,47.2746],[5.3700,47.2717],[5.3745,47.2715],[5.3726,47.2707],[5.3733,47.2685],[5.3771,47.2685],[5.3733,47.2684],[5.3721,47.2668],[5.3703,47.2690],[5.3693,47.2685],[5.3679,47.2662],[5.3703,47.2652],[5.3659,47.2665],[5.3659,47.2675],[5.3621,47.2671],[5.3633,47.2686],[5.3611,47.2694],[5.3614,47.2672],[5.3583,47.2663],[5.3574,47.2643],[5.3607,47.2658],[5.3663,47.2640],[5.3672,47.2646],[5.3668,47.2635],[5.3682,47.2629],[5.3643,47.2624],[5.3635,47.2607],[5.3644,47.2597],[5.3608,47.2584],[5.3583,47.2590],[5.3543,47.2624],[5.3507,47.2588],[5.3520,47.2565],[5.3497,47.2584],[5.3464,47.2580],[5.3420,47.2599],[5.3389,47.2548],[5.3426,47.2535],[5.3407,47.2486],[5.3418,47.2489],[5.3438,47.2451],[5.3495,47.2406],[5.3509,47.2424],[5.3559,47.2438],[5.3546,47.2453],[5.3562,47.2444],[5.3592,47.2467],[5.3637,47.2467],[5.3656,47.2479],[5.3644,47.2491],[5.3620,47.2492],[5.3610,47.2480],[5.3592,47.2494],[5.3578,47.2488],[5.3587,47.2495],[5.3561,47.2520],[5.3539,47.2516],[5.3553,47.2536],[5.3572,47.2537],[5.3584,47.2519],[5.3595,47.2527],[5.3617,47.2519],[5.3605,47.2528],[5.3611,47.2540],[5.3678,47.2509],[5.3701,47.2517],[5.3560,47.2345],[5.3531,47.2355],[5.3518,47.2328],[5.3539,47.2320],[5.3405,47.2172],[5.3191,47.2124],[5.3100,47.2130],[5.3118,47.2147],[5.3116,47.2162],[5.3086,47.2138],[5.3092,47.2130],[5.2942,47.2149],[5.2899,47.2198],[5.2912,47.2203],[5.2910,47.2239],[5.2943,47.2304],[5.2921,47.2314],[5.2885,47.2290],[5.2867,47.2316],[5.2889,47.2333],[5.2875,47.2346],[5.2894,47.2350],[5.2888,47.2367],[5.2830,47.2372],[5.2839,47.2358],[5.2814,47.2374],[5.2830,47.2396],[5.2814,47.2434],[5.2823,47.2456],[5.2860,47.2465],[5.2843,47.2489],[5.2856,47.2491],[5.2882,47.2556],[5.2917,47.2549],[5.2925,47.2522],[5.2943,47.2533],[5.2931,47.2512],[5.2950,47.2522],[5.2981,47.2477],[5.3020,47.2481],[5.3036,47.2467],[5.3052,47.2477],[5.3055,47.2506],[5.2977,47.2567]]]}},{"type":"Feature","properties":{"name":"Forêt de Buan"},"geometry":{"type":"Polygon","coordinates":[[[4.4447,47.1538],[4.4410,47.1540],[4.4406,47.1556],[4.4393,47.1557],[4.4370,47.1536],[4.4400,47.1516],[4.4446,47.1525],[4.4449,47.1537],[4.4483,47.1522],[4.4467,47.1503],[4.4509,47.1484],[4.4534,47.1445],[4.4515,47.1436],[4.4494,47.1479],[4.4456,47.1466],[4.4484,47.1448],[4.4477,47.1438],[4.4486,47.1430],[4.4468,47.1441],[4.4473,47.1428],[4.4427,47.1432],[4.4402,47.1454],[4.4429,47.1481],[4.4384,47.1481],[4.4373,47.1431],[4.4411,47.1411],[4.4399,47.1416],[4.4381,47.1391],[4.4386,47.1382],[4.4365,47.1368],[4.4337,47.1364],[4.4357,47.1381],[4.4257,47.1319],[4.4222,47.1323],[4.4190,47.1356],[4.4194,47.1329],[4.4162,47.1324],[4.4180,47.1337],[4.4164,47.1355],[4.4171,47.1364],[4.4154,47.1362],[4.4175,47.1379],[4.4128,47.1382],[4.4114,47.1434],[4.4100,47.1435],[4.4121,47.1442],[4.4185,47.1425],[4.4174,47.1478],[4.4108,47.1454],[4.4175,47.1482],[4.4183,47.1499],[4.4105,47.1469],[4.4185,47.1505],[4.4095,47.1494],[4.4099,47.1506],[4.4086,47.1503],[4.4091,47.1516],[4.4079,47.1516],[4.4087,47.1490],[4.4024,47.1429],[4.4042,47.1418],[4.4078,47.1446],[4.4096,47.1437],[4.4073,47.1428],[4.4066,47.1400],[4.4093,47.1370],[4.4155,47.1345],[4.4137,47.1349],[4.4146,47.1340],[4.4137,47.1337],[4.4056,47.1374],[4.4067,47.1377],[4.4057,47.1387],[4.4051,47.1375],[4.3965,47.1388],[4.3951,47.1419],[4.3956,47.1432],[4.3914,47.1432],[4.3867,47.1469],[4.3868,47.1484],[4.3844,47.1487],[4.3847,47.1502],[4.3805,47.1502],[4.3892,47.1532],[4.3919,47.1558],[4.3907,47.1569],[4.3937,47.1583],[4.3969,47.1552],[4.3992,47.1550],[4.3987,47.1538],[4.4029,47.1536],[4.4001,47.1550],[4.4030,47.1558],[4.3985,47.1590],[4.3981,47.1627],[4.3960,47.1622],[4.3985,47.1665],[4.3984,47.1683],[4.4012,47.1679],[4.4034,47.1701],[4.4064,47.1702],[4.4092,47.1666],[4.4134,47.1690],[4.4221,47.1675],[4.4235,47.1688],[4.4285,47.1684],[4.4369,47.1637],[4.4368,47.1624],[4.4340,47.1630],[4.4320,47.1616],[4.4365,47.1600],[4.4421,47.1548],[4.4447,47.1538]]]}},{"type":"Feature","properties":{"name":"Bois de la Chassagne"},"geometry":{"type":"Polygon","coordinates":[[[5.5124,46.8671],[5.5137,46.8681],[5.5129,46.8653],[5.5105,46.8653],[5.5072,46.8616],[5.5011,46.8642],[5.5000,46.8601],[5.5035,46.8592],[5.5034,46.8580],[5.4942,46.8601],[5.4978,46.8620],[5.4962,46.8634],[5.5007,46.8653],[5.4970,46.8666],[5.4971,46.8685],[5.4955,46.8668],[5.4891,46.8658],[5.4876,46.8689],[5.4823,46.8683],[5.4808,46.8715],[5.4785,46.8717],[5.4761,46.8696],[5.4761,46.8674],[5.4788,46.8666],[5.4794,46.8675],[5.4798,46.8639],[5.4828,46.8632],[5.4819,46.8618],[5.4801,46.8623],[5.4788,46.8608],[5.4769,46.8616],[5.4783,46.8604],[5.4767,46.8568],[5.4756,46.8573],[5.4764,46.8599],[5.4721,46.8619],[5.4707,46.8607],[5.4732,46.8587],[5.4739,46.8594],[5.4743,46.8578],[5.4676,46.8572],[5.4679,46.8590],[5.4699,46.8590],[5.4683,46.8603],[5.4691,46.8618],[5.4663,46.8616],[5.4653,46.8623],[5.4666,46.8637],[5.4651,46.8630],[5.4640,46.8649],[5.4691,46.8662],[5.4673,46.8670],[5.4686,46.8670],[5.4679,46.8685],[5.4629,46.8653],[5.4606,46.8653],[5.4592,46.8635],[5.4585,46.8649],[5.4675,46.8701],[5.4643,46.8720],[5.4624,46.8724],[5.4609,46.8710],[5.4536,46.8733],[5.4534,46.8721],[5.4558,46.8715],[5.4554,46.8698],[5.4519,46.8704],[5.4534,46.8715],[5.4519,46.8719],[5.4504,46.8714],[5.4515,46.8695],[5.4495,46.8707],[5.4464,46.8696],[5.4515,46.8743],[5.4492,46.8751],[5.4514,46.8772],[5.4499,46.8779],[5.4437,46.8732],[5.4427,46.8714],[5.4440,46.8704],[5.4435,46.8692],[5.4358,46.8699],[5.4419,46.8741],[5.4406,46.8757],[5.4428,46.8759],[5.4425,46.8768],[5.4476,46.8802],[5.4461,46.8815],[5.4472,46.8843],[5.4491,46.8855],[5.4529,46.8846],[5.4545,46.8826],[5.4535,46.8805],[5.4569,46.8802],[5.4588,46.8777],[5.4617,46.8835],[5.4649,46.8840],[5.4666,46.8883],[5.4645,46.8891],[5.4662,46.8887],[5.4656,46.8912],[5.4609,46.8906],[5.4579,46.8926],[5.4586,46.8939],[5.4570,46.8945],[5.4564,46.8935],[5.4530,46.8951],[5.4536,46.8936],[5.4511,46.8941],[5.4525,46.8932],[5.4506,46.8926],[5.4509,46.8888],[5.4497,46.8873],[5.4476,46.8907],[5.4452,46.8904],[5.4447,46.8871],[5.4428,46.8854],[5.4413,46.8861],[5.4425,46.8884],[5.4420,46.8906],[5.4369,46.8972],[5.4404,46.8991],[5.4401,46.8982],[5.4430,46.8971],[5.4482,46.8985],[5.4473,46.9011],[5.4457,46.9014],[5.4498,46.9063],[5.4485,46.9065],[5.4558,46.9117],[5.4544,46.9138],[5.4525,46.9128],[5.4535,46.9144],[5.4580,46.9120],[5.4608,46.9148],[5.4649,46.9150],[5.4620,46.9137],[5.4624,46.9127],[5.4611,46.9131],[5.4615,46.9115],[5.4596,46.9103],[5.4585,46.9111],[5.4494,46.9015],[5.4502,46.8991],[5.4568,46.8958],[5.4587,46.8981],[5.4584,46.8997],[5.4602,46.9003],[5.4584,46.9011],[5.4555,46.8994],[5.4545,46.9009],[5.4582,46.9024],[5.4627,46.9023],[5.4653,46.9046],[5.4675,46.9034],[5.4665,46.9059],[5.4633,46.9069],[5.4657,46.9096],[5.4674,46.9085],[5.4691,46.9102],[5.4687,46.9085],[5.4730,46.9069],[5.4724,46.9057],[5.4781,46.9038],[5.4793,46.9046],[5.4776,46.9067],[5.4741,46.9054],[5.4750,46.9106],[5.4736,46.9109],[5.4728,46.9147],[5.4748,46.9143],[5.4764,46.9118],[5.4775,46.9093],[5.4766,46.9079],[5.4844,46.9075],[5.4826,46.9080],[5.4825,46.9094],[5.4843,46.9089],[5.4831,46.9115],[5.4768,46.9102],[5.4792,46.9112],[5.4791,46.9147],[5.4767,46.9135],[5.4756,46.9150],[5.4767,46.9152],[5.4680,46.9136],[5.4668,46.9153],[5.4686,46.9162],[5.4692,46.9153],[5.4727,46.9166],[5.4723,46.9174],[5.4789,46.9171],[5.4795,46.9181],[5.4811,46.9157],[5.4813,46.9169],[5.4861,46.9191],[5.4878,46.9178],[5.4876,46.9206],[5.4906,46.9188],[5.4963,46.9219],[5.5050,46.9217],[5.5064,46.9207],[5.5060,46.9191],[5.5100,46.9189],[5.5092,46.9176],[5.5112,46.9160],[5.5091,46.9172],[5.5090,46.9156],[5.5104,46.9152],[5.5074,46.9162],[5.5060,46.9144],[5.5076,46.9133],[5.5027,46.9117],[5.5027,46.9101],[5.5062,46.9092],[5.5061,46.9072],[5.5085,46.9099],[5.5112,46.9082],[5.5165,46.9077],[5.5151,46.9090],[5.5115,46.9091],[5.5112,46.9120],[5.5075,46.9110],[5.5085,46.9135],[5.5076,46.9138],[5.5092,46.9149],[5.5088,46.9137],[5.5119,46.9127],[5.5150,46.9130],[5.5148,46.9152],[5.5128,46.9138],[5.5136,46.9151],[5.5114,46.9160],[5.5149,46.9186],[5.5157,46.9177],[5.5144,46.9161],[5.5160,46.9156],[5.5179,46.9157],[5.5188,46.9166],[5.5180,46.9171],[5.5194,46.9177],[5.5172,46.9147],[5.5197,46.9151],[5.5213,46.9057],[5.5188,46.8973],[5.5194,46.8962],[5.5194,46.8980],[5.5248,46.8914],[5.5282,46.8826],[5.5341,46.8776],[5.5301,46.8763],[5.5300,46.8773],[5.5279,46.8769],[5.5254,46.8787],[5.5250,46.8804],[5.5220,46.8807],[5.5218,46.8772],[5.5181,46.8800],[5.5155,46.8801],[5.5144,46.8773],[5.5191,46.8741],[5.5182,46.8731],[5.5191,46.8725],[5.5129,46.8731],[5.5110,46.8702],[5.5116,46.8683],[5.5093,46.8730],[5.5082,46.8701],[5.5090,46.8663],[5.5124,46.8671]]]}},{"type":"Feature","properties":{"name":"Bois Communaux de Ravières"},"geometry":{"type":"Polygon","coordinates":[[[4.2663,47.7414],[4.2781,47.7392],[4.2888,47.7336],[4.2930,47.7333],[4.2959,47.7374],[4.3022,47.7414],[4.3095,47.7524],[4.3113,47.7504],[4.3037,47.7409],[4.3080,47.7402],[4.3067,47.7363],[4.3097,47.7355],[4.3104,47.7367],[4.3111,47.7358],[4.3098,47.7339],[4.3132,47.7346],[4.3156,47.7332],[4.3203,47.7353],[4.3190,47.7336],[4.3215,47.7335],[4.3205,47.7316],[4.3169,47.7311],[4.3227,47.7320],[4.3213,47.7310],[4.3236,47.7304],[4.3301,47.7334],[4.3325,47.7353],[4.3322,47.7365],[4.3330,47.7358],[4.3247,47.7287],[4.3310,47.7331],[4.3328,47.7309],[4.3394,47.7320],[4.3386,47.7336],[4.3332,47.7359],[4.3345,47.7385],[4.3345,47.7353],[4.3397,47.7374],[4.3399,47.7356],[4.3411,47.7370],[4.3506,47.7360],[4.3513,47.7349],[4.3490,47.7331],[4.3462,47.7346],[4.3403,47.7324],[4.3487,47.7267],[4.3628,47.7302],[4.3649,47.7293],[4.3613,47.7278],[4.3612,47.7261],[4.3651,47.7259],[4.3645,47.7230],[4.3685,47.7253],[4.3755,47.7261],[4.3736,47.7290],[4.3770,47.7289],[4.3791,47.7305],[4.3782,47.7313],[4.3789,47.7328],[4.3828,47.7359],[4.3843,47.7331],[4.3858,47.7333],[4.3854,47.7350],[4.3879,47.7351],[4.3868,47.7362],[4.3874,47.7369],[4.3889,47.7364],[4.3886,47.7350],[4.3944,47.7352],[4.3973,47.7335],[4.3998,47.7337],[4.3983,47.7305],[4.4009,47.7305],[4.3986,47.7278],[4.3961,47.7295],[4.3948,47.7330],[4.3885,47.7316],[4.3905,47.7259],[4.3838,47.7200],[4.3805,47.7193],[4.3806,47.7202],[4.3745,47.7206],[4.3739,47.7167],[4.3718,47.7136],[4.3786,47.7142],[4.3808,47.7112],[4.3790,47.7103],[4.3828,47.7081],[4.3868,47.7093],[4.3894,47.7080],[4.3909,47.7087],[4.3927,47.7069],[4.3919,47.7050],[4.3933,47.7057],[4.4012,47.7017],[4.4041,47.7041],[4.4066,47.7026],[4.4093,47.7027],[4.4113,47.7058],[4.4099,47.6979],[4.4117,47.6950],[4.4064,47.6931],[4.4080,47.6895],[4.4054,47.6873],[4.4060,47.6863],[4.4048,47.6850],[4.4056,47.6844],[4.4033,47.6825],[4.4045,47.6819],[4.4020,47.6807],[4.4040,47.6802],[4.4028,47.6790],[4.3985,47.6796],[4.3986,47.6777],[4.3968,47.6767],[4.3973,47.6751],[4.3933,47.6742],[4.3938,47.6717],[4.3912,47.6709],[4.3896,47.6717],[4.3860,47.6687],[4.3889,47.6737],[4.3891,47.6768],[4.3914,47.6791],[4.3869,47.6810],[4.3802,47.6750],[4.3852,47.6726],[4.3820,47.6687],[4.3699,47.6691],[4.3614,47.6712],[4.3504,47.6781],[4.3470,47.6920],[4.3409,47.6894],[4.3344,47.6903],[4.3352,47.6917],[4.3378,47.6921],[4.3375,47.6930],[4.3424,47.6934],[4.3432,47.7006],[4.3529,47.7009],[4.3532,47.7028],[4.3435,47.7027],[4.3430,47.7008],[4.3400,47.6995],[4.3386,47.7018],[4.3366,47.7025],[4.3378,47.7050],[4.3295,47.7055],[4.3210,47.7099],[4.3219,47.7065],[4.3207,47.7057],[4.3137,47.7054],[4.3125,47.7043],[4.3096,47.7078],[4.3068,47.7083],[4.3059,47.7071],[4.3069,47.7091],[4.3049,47.7092],[4.3059,47.7081],[4.3046,47.7068],[4.3019,47.7077],[4.2996,47.7128],[4.2985,47.7123],[4.2992,47.7108],[4.2970,47.7093],[4.2962,47.7096],[4.2975,47.7100],[4.2951,47.7106],[4.2976,47.7113],[4.2969,47.7124],[4.2990,47.7137],[4.2996,47.7163],[4.2974,47.7153],[4.2969,47.7135],[4.2938,47.7147],[4.2943,47.7169],[4.2968,47.7169],[4.2911,47.7206],[4.2933,47.7208],[4.2926,47.7221],[4.2966,47.7238],[4.2964,47.7256],[4.2916,47.7257],[4.2895,47.7289],[4.2857,47.7281],[4.2807,47.7291],[4.2805,47.7301],[4.2724,47.7275],[4.2728,47.7297],[4.2707,47.7332],[4.2614,47.7336],[4.2590,47.7321],[4.2582,47.7295],[4.2589,47.7262],[4.2620,47.7234],[4.2580,47.7217],[4.2619,47.7217],[4.2625,47.7200],[4.2662,47.7209],[4.2626,47.7192],[4.2658,47.7197],[4.2672,47.7174],[4.2638,47.7177],[4.2575,47.7149],[4.2542,47.7148],[4.2518,47.7130],[4.2462,47.7125],[4.2374,47.7168],[4.2314,47.7155],[4.2320,47.7160],[4.2304,47.7165],[4.2389,47.7205],[4.2387,47.7247],[4.2427,47.7255],[4.2400,47.7273],[4.2373,47.7273],[4.2372,47.7283],[4.2350,47.7275],[4.2375,47.7293],[4.2362,47.7316],[4.2380,47.7331],[4.2434,47.7337],[4.2395,47.7338],[4.2366,47.7320],[4.2361,47.7329],[4.2334,47.7324],[4.2329,47.7332],[4.2346,47.7338],[4.2326,47.7341],[4.2330,47.7349],[4.2372,47.7359],[4.2401,47.7391],[4.2508,47.7438],[4.2663,47.7414]]]}},{"type":"Feature","properties":{"name":"Forêt domaniale du Ponchon"},"geometry":{"type":"Polygon","coordinates":[[[5.3166,47.0697],[5.3211,47.0714],[5.3236,47.0741],[5.3292,47.0756],[5.3338,47.0786],[5.3334,47.0804],[5.3258,47.0810],[5.3242,47.0822],[5.3242,47.0812],[5.3194,47.0837],[5.3181,47.0828],[5.3120,47.0859],[5.3089,47.0861],[5.3100,47.0890],[5.3085,47.0900],[5.3095,47.0907],[5.3040,47.0907],[5.3034,47.0963],[5.3012,47.0966],[5.2985,47.0948],[5.2992,47.0937],[5.2979,47.0917],[5.2957,47.0927],[5.2971,47.0951],[5.2942,47.0943],[5.2931,47.0958],[5.2901,47.0947],[5.2918,47.0935],[5.2886,47.0900],[5.2894,47.0881],[5.2903,47.0874],[5.2926,47.0886],[5.2940,47.0874],[5.2922,47.0857],[5.2970,47.0850],[5.2958,47.0835],[5.2939,47.0839],[5.2946,47.0826],[5.2934,47.0809],[5.2961,47.0800],[5.2961,47.0781],[5.2999,47.0776],[5.3000,47.0764],[5.2951,47.0765],[5.2929,47.0732],[5.2895,47.0742],[5.2850,47.0697],[5.2916,47.0647],[5.3037,47.0661],[5.3166,47.0697]]]}},{"type":"Feature","properties":{"name":"Forêt de Chaux"},"geometry":{"type":"Polygon","coordinates":[[[5.7333,47.0376],[5.7276,47.0390],[5.7278,47.0364],[5.7240,47.0351],[5.7244,47.0311],[5.7235,47.0308],[5.7221,47.0313],[5.7218,47.0341],[5.7145,47.0354],[5.7138,47.0373],[5.7095,47.0361],[5.7112,47.0339],[5.7080,47.0351],[5.7083,47.0337],[5.7063,47.0336],[5.7055,47.0353],[5.7025,47.0364],[5.6992,47.0363],[5.6984,47.0343],[5.6962,47.0341],[5.6931,47.0444],[5.6880,47.0433],[5.6922,47.0332],[5.6910,47.0341],[5.6884,47.0325],[5.6869,47.0331],[5.6863,47.0312],[5.6854,47.0327],[5.6784,47.0320],[5.6778,47.0301],[5.6688,47.0318],[5.6685,47.0304],[5.6672,47.0305],[5.6682,47.0296],[5.6653,47.0306],[5.6644,47.0290],[5.6665,47.0282],[5.6658,47.0269],[5.6633,47.0267],[5.6657,47.0279],[5.6611,47.0285],[5.6536,47.0264],[5.6507,47.0270],[5.6461,47.0235],[5.6428,47.0235],[5.6436,47.0257],[5.6377,47.0256],[5.6336,47.0227],[5.6341,47.0205],[5.6318,47.0193],[5.6334,47.0184],[5.6404,47.0192],[5.6342,47.0169],[5.6326,47.0178],[5.6331,47.0167],[5.6321,47.0163],[5.6316,47.0174],[5.6272,47.0161],[5.6290,47.0141],[5.6325,47.0137],[5.6295,47.0137],[5.6258,47.0156],[5.6296,47.0136],[5.6284,47.0128],[5.6264,47.0138],[5.6280,47.0128],[5.6126,47.0172],[5.6111,47.0157],[5.6140,47.0149],[5.6070,47.0168],[5.6050,47.0156],[5.6057,47.0139],[5.6042,47.0129],[5.6003,47.0118],[5.5990,47.0140],[5.5978,47.0117],[5.5989,47.0154],[5.5970,47.0164],[5.6092,47.0173],[5.6104,47.0184],[5.6098,47.0201],[5.6039,47.0231],[5.6002,47.0241],[5.5986,47.0233],[5.5987,47.0242],[5.5967,47.0246],[5.5877,47.0203],[5.5861,47.0178],[5.5873,47.0201],[5.5854,47.0179],[5.5857,47.0201],[5.5847,47.0203],[5.5825,47.0182],[5.5823,47.0201],[5.5800,47.0219],[5.5836,47.0252],[5.5820,47.0260],[5.5855,47.0269],[5.5868,47.0247],[5.5911,47.0257],[5.5859,47.0336],[5.5805,47.0321],[5.5823,47.0293],[5.5754,47.0274],[5.5755,47.0315],[5.5673,47.0362],[5.5652,47.0387],[5.5595,47.0400],[5.5538,47.0394],[5.5463,47.0362],[5.5470,47.0349],[5.5503,47.0342],[5.5407,47.0362],[5.5379,47.0337],[5.5306,47.0321],[5.5222,47.0342],[5.5209,47.0353],[5.5255,47.0345],[5.5267,47.0357],[5.5267,47.0348],[5.5315,47.0351],[5.5308,47.0342],[5.5322,47.0333],[5.5371,47.0341],[5.5382,47.0355],[5.5307,47.0391],[5.5282,47.0378],[5.5256,47.0396],[5.5246,47.0385],[5.5232,47.0390],[5.5216,47.0357],[5.5215,47.0374],[5.5191,47.0384],[5.5226,47.0383],[5.5215,47.0392],[5.5230,47.0413],[5.5221,47.0426],[5.5260,47.0418],[5.5296,47.0453],[5.5232,47.0465],[5.5287,47.0479],[5.5257,47.0520],[5.5187,47.0504],[5.5180,47.0478],[5.5193,47.0455],[5.5169,47.0433],[5.5089,47.0462],[5.5103,47.0460],[5.5127,47.0484],[5.5081,47.0497],[5.5088,47.0503],[5.5136,47.0501],[5.5050,47.0580],[5.5023,47.0581],[5.5003,47.0545],[5.4947,47.0573],[5.4991,47.0680],[5.5064,47.0698],[5.5036,47.0717],[5.5036,47.0752],[5.5052,47.0756],[5.5047,47.0763],[5.5191,47.0739],[5.5194,47.0755],[5.5167,47.0763],[5.5195,47.0757],[5.5212,47.0782],[5.5186,47.0787],[5.5168,47.0765],[5.5173,47.0785],[5.5153,47.0783],[5.5147,47.0801],[5.5128,47.0803],[5.5134,47.0811],[5.5214,47.0790],[5.5276,47.0822],[5.5379,47.0843],[5.5372,47.0863],[5.5388,47.0848],[5.5390,47.0872],[5.5391,47.0845],[5.5433,47.0867],[5.5435,47.0878],[5.5368,47.0930],[5.5433,47.0891],[5.5448,47.0897],[5.5448,47.0885],[5.5489,47.0922],[5.5545,47.0914],[5.5574,47.0942],[5.5584,47.0929],[5.5607,47.0968],[5.5644,47.0985],[5.5674,47.0982],[5.5683,47.0991],[5.5671,47.0998],[5.5764,47.0970],[5.5840,47.0994],[5.5836,47.1004],[5.5780,47.0992],[5.5754,47.1039],[5.5785,47.1063],[5.5764,47.1069],[5.5794,47.1072],[5.5787,47.1083],[5.5813,47.1121],[5.5795,47.1130],[5.5818,47.1132],[5.5819,47.1143],[5.5795,47.1152],[5.5816,47.1160],[5.5810,47.1166],[5.5827,47.1187],[5.5909,47.1221],[5.5882,47.1239],[5.6025,47.1270],[5.6031,47.1244],[5.5954,47.1238],[5.5985,47.1236],[5.5937,47.1229],[5.5971,47.1213],[5.5926,47.1201],[5.5971,47.1211],[5.5989,47.1197],[5.5984,47.1188],[5.6003,47.1190],[5.6028,47.1200],[5.6017,47.1216],[5.6032,47.1214],[5.6024,47.1208],[5.6058,47.1170],[5.6114,47.1148],[5.6113,47.1164],[5.6072,47.1189],[5.6089,47.1179],[5.6095,47.1195],[5.6166,47.1230],[5.6147,47.1277],[5.6120,47.1300],[5.6117,47.1321],[5.6224,47.1359],[5.6235,47.1360],[5.6241,47.1339],[5.6295,47.1361],[5.6238,47.1363],[5.6422,47.1345],[5.6447,47.1330],[5.6431,47.1331],[5.6439,47.1318],[5.6426,47.1280],[5.6447,47.1279],[5.6446,47.1256],[5.6459,47.1277],[5.6494,47.1252],[5.6535,47.1262],[5.6535,47.1274],[5.6556,47.1270],[5.6581,47.1239],[5.6677,47.1234],[5.6672,47.1251],[5.6778,47.1277],[5.6790,47.1272],[5.6784,47.1243],[5.6811,47.1244],[5.6828,47.1289],[5.6798,47.1285],[5.6821,47.1294],[5.6820,47.1316],[5.6868,47.1295],[5.6838,47.1289],[5.6818,47.1242],[5.6872,47.1250],[5.6866,47.1219],[5.6884,47.1219],[5.6917,47.1253],[5.6987,47.1246],[5.7020,47.1263],[5.7007,47.1236],[5.7032,47.1250],[5.7009,47.1235],[5.7097,47.1198],[5.7102,47.1206],[5.7093,47.1207],[5.7108,47.1208],[5.7126,47.1238],[5.7142,47.1233],[5.7144,47.1242],[5.7134,47.1239],[5.7158,47.1256],[5.7154,47.1267],[5.7170,47.1263],[5.7147,47.1296],[5.7153,47.1322],[5.7161,47.1318],[5.7150,47.1338],[5.7148,47.1321],[5.7118,47.1330],[5.7102,47.1351],[5.6972,47.1332],[5.7122,47.1359],[5.7169,47.1344],[5.7157,47.1332],[5.7170,47.1328],[5.7158,47.1308],[5.7171,47.1271],[5.7229,47.1281],[5.7258,47.1251],[5.7283,47.1267],[5.7289,47.1290],[5.7270,47.1274],[5.7270,47.1327],[5.7308,47.1338],[5.7299,47.1353],[5.7316,47.1340],[5.7346,47.1347],[5.7380,47.1367],[5.7381,47.1388],[5.7416,47.1382],[5.7562,47.1411],[5.7570,47.1428],[5.7594,47.1416],[5.7613,47.1423],[5.7597,47.1447],[5.7579,47.1433],[5.7565,47.1435],[5.7569,47.1444],[5.7582,47.1452],[5.7578,47.1439],[5.7607,47.1464],[5.7608,47.1455],[5.7624,47.1486],[5.7623,47.1454],[5.7660,47.1444],[5.7669,47.1461],[5.7711,47.1466],[5.7733,47.1490],[5.7713,47.1511],[5.7876,47.1515],[5.7870,47.1529],[5.7879,47.1515],[5.7901,47.1551],[5.7908,47.1535],[5.7951,47.1559],[5.7958,47.1541],[5.8011,47.1562],[5.8070,47.1535],[5.8078,47.1544],[5.8080,47.1507],[5.8068,47.1499],[5.8076,47.1480],[5.8134,47.1497],[5.8165,47.1478],[5.8179,47.1492],[5.8191,47.1487],[5.8173,47.1473],[5.8250,47.1402],[5.8292,47.1420],[5.8325,47.1416],[5.8314,47.1407],[5.8325,47.1365],[5.8344,47.1364],[5.8350,47.1352],[5.8344,47.1362],[5.8336,47.1354],[5.8332,47.1325],[5.8241,47.1323],[5.8236,47.1312],[5.8267,47.1286],[5.8265,47.1273],[5.8242,47.1297],[5.8197,47.1313],[5.8231,47.1323],[5.8219,47.1329],[5.8230,47.1364],[5.8193,47.1364],[5.8204,47.1357],[5.8184,47.1356],[5.8196,47.1353],[5.8169,47.1335],[5.8177,47.1327],[5.8162,47.1335],[5.8119,47.1260],[5.8133,47.1259],[5.8127,47.1242],[5.8113,47.1245],[5.8096,47.1224],[5.8108,47.1228],[5.8105,47.1217],[5.8073,47.1195],[5.8058,47.1165],[5.8069,47.1191],[5.8055,47.1192],[5.8047,47.1160],[5.8054,47.1169],[5.8056,47.1157],[5.8009,47.1091],[5.8004,47.1040],[5.7991,47.1027],[5.7968,47.1039],[5.7955,47.1028],[5.7974,47.1034],[5.7994,47.1020],[5.7988,47.0984],[5.7980,47.0976],[5.7979,47.1008],[5.7981,47.0991],[5.7958,47.0959],[5.7998,47.0957],[5.7921,47.0914],[5.7880,47.0863],[5.7889,47.0855],[5.7879,47.0860],[5.7813,47.0789],[5.7826,47.0688],[5.7916,47.0596],[5.7893,47.0594],[5.7892,47.0578],[5.7850,47.0544],[5.7890,47.0544],[5.7923,47.0522],[5.7933,47.0533],[5.7965,47.0519],[5.8019,47.0547],[5.8023,47.0527],[5.7946,47.0498],[5.7956,47.0484],[5.7901,47.0463],[5.7881,47.0430],[5.7891,47.0427],[5.7874,47.0416],[5.7866,47.0427],[5.7869,47.0412],[5.7845,47.0438],[5.7818,47.0438],[5.7825,47.0422],[5.7782,47.0527],[5.7597,47.0460],[5.7568,47.0471],[5.7547,47.0498],[5.7457,47.0522],[5.7465,47.0513],[5.7455,47.0494],[5.7484,47.0492],[5.7474,47.0429],[5.7486,47.0425],[5.7423,47.0373],[5.7356,47.0376],[5.7350,47.0363],[5.7330,47.0366],[5.7333,47.0376]]]}},{"type":"Feature","properties":{"name":"Forêt domaniale de Cîteaux"},"geometry":{"type":"Polygon","coordinates":[[[5.0043,47.0454],[5.0073,47.0473],[5.0195,47.0473],[5.0200,47.0592],[5.0166,47.0600],[5.0205,47.0609],[5.0193,47.0651],[5.0223,47.0670],[5.0187,47.0680],[5.0212,47.0682],[5.0238,47.0700],[5.0241,47.0722],[5.0308,47.0787],[5.0279,47.0796],[5.0288,47.0807],[5.0267,47.0818],[5.0254,47.0806],[5.0236,47.0814],[5.0256,47.0869],[5.0222,47.0879],[5.0227,47.0906],[5.0199,47.0917],[5.0213,47.0927],[5.0166,47.0949],[5.0136,47.0945],[5.0134,47.0985],[5.0159,47.0993],[5.0160,47.1016],[5.0171,47.1016],[5.0154,47.1035],[5.0133,47.1008],[5.0109,47.1021],[5.0124,47.1049],[5.0094,47.1057],[5.0082,47.1038],[5.0054,47.1052],[5.0022,47.1044],[5.0049,47.1079],[5.0044,47.1111],[5.0037,47.1131],[4.9988,47.1137],[5.0002,47.1147],[4.9999,47.1177],[4.9986,47.1177],[4.9991,47.1191],[5.0044,47.1186],[5.0068,47.1168],[5.0068,47.1154],[5.0091,47.1152],[5.0109,47.1134],[5.0128,47.1141],[5.0128,47.1174],[5.0151,47.1174],[5.0128,47.1182],[5.0126,47.1246],[5.0094,47.1246],[5.0095,47.1232],[5.0066,47.1237],[5.0054,47.1216],[5.0003,47.1227],[4.9978,47.1239],[5.0000,47.1275],[4.9938,47.1314],[5.0026,47.1366],[5.0033,47.1386],[5.0055,47.1387],[5.0054,47.1401],[4.9971,47.1417],[4.9962,47.1450],[4.9906,47.1440],[4.9903,47.1421],[4.9862,47.1417],[4.9923,47.1487],[4.9959,47.1497],[4.9936,47.1507],[4.9956,47.1538],[4.9991,47.1521],[4.9972,47.1502],[5.0024,47.1496],[5.0110,47.1445],[4.9968,47.1441],[5.0088,47.1433],[5.0151,47.1416],[5.0158,47.1408],[5.0148,47.1398],[5.0256,47.1362],[5.0248,47.1352],[5.0268,47.1345],[5.0263,47.1319],[5.0328,47.1333],[5.0316,47.1312],[5.0275,47.1292],[5.0300,47.1251],[5.0380,47.1256],[5.0390,47.1308],[5.0452,47.1307],[5.0448,47.1273],[5.0476,47.1267],[5.0511,47.1297],[5.0575,47.1270],[5.0708,47.1257],[5.0710,47.1239],[5.0689,47.1225],[5.0629,47.1213],[5.0579,47.1235],[5.0417,47.1244],[5.0402,47.1203],[5.0411,47.1200],[5.0393,47.1188],[5.0404,47.1170],[5.0383,47.1171],[5.0414,47.1151],[5.0461,47.1153],[5.0520,47.1094],[5.0510,47.1078],[5.0561,47.1053],[5.0706,47.1039],[5.0731,47.1023],[5.0751,47.1053],[5.0751,47.1087],[5.0768,47.1092],[5.0747,47.1076],[5.0762,47.1047],[5.0770,47.1085],[5.0791,47.1092],[5.0782,47.1104],[5.0837,47.1126],[5.0836,47.1135],[5.0785,47.1146],[5.0797,47.1157],[5.0773,47.1191],[5.0787,47.1195],[5.0805,47.1169],[5.0821,47.1179],[5.0800,47.1142],[5.0826,47.1142],[5.0822,47.1159],[5.0854,47.1179],[5.0828,47.1186],[5.0827,47.1196],[5.0861,47.1181],[5.0827,47.1154],[5.0907,47.1159],[5.0966,47.1117],[5.1001,47.1120],[5.1011,47.1127],[5.0997,47.1200],[5.1014,47.1201],[5.0993,47.1229],[5.1057,47.1230],[5.1064,47.1266],[5.1147,47.1300],[5.1185,47.1277],[5.1099,47.1232],[5.1172,47.1241],[5.1189,47.1213],[5.1205,47.1219],[5.1220,47.1204],[5.1244,47.1204],[5.1252,47.1220],[5.1272,47.1222],[5.1287,47.1198],[5.1281,47.1220],[5.1303,47.1219],[5.1284,47.1269],[5.1267,47.1262],[5.1266,47.1277],[5.1302,47.1290],[5.1295,47.1328],[5.1227,47.1390],[5.1208,47.1445],[5.1300,47.1484],[5.1318,47.1515],[5.1301,47.1523],[5.1240,47.1470],[5.1154,47.1454],[5.1163,47.1386],[5.1181,47.1380],[5.1191,47.1353],[5.1159,47.1354],[5.1133,47.1335],[5.1127,47.1327],[5.1159,47.1317],[5.1149,47.1310],[5.1107,47.1313],[5.1113,47.1357],[5.0933,47.1352],[5.0933,47.1437],[5.0951,47.1473],[5.0971,47.1476],[5.0963,47.1525],[5.0908,47.1532],[5.0896,47.1550],[5.0794,47.1596],[5.0796,47.1577],[5.0870,47.1543],[5.0862,47.1529],[5.0892,47.1483],[5.0886,47.1468],[5.0836,47.1481],[5.0798,47.1473],[5.0805,47.1449],[5.0858,47.1406],[5.0849,47.1331],[5.0765,47.1387],[5.0767,47.1421],[5.0743,47.1421],[5.0747,47.1450],[5.0678,47.1446],[5.0671,47.1455],[5.0560,47.1436],[5.0506,47.1479],[5.0555,47.1533],[5.0533,47.1557],[5.0563,47.1600],[5.0561,47.1627],[5.0600,47.1629],[5.0568,47.1637],[5.0582,47.1682],[5.0673,47.1671],[5.0674,47.1658],[5.0724,47.1643],[5.0705,47.1619],[5.0734,47.1605],[5.0752,47.1621],[5.0768,47.1601],[5.0784,47.1625],[5.0827,47.1620],[5.0865,47.1718],[5.0855,47.1722],[5.0875,47.1740],[5.0941,47.1749],[5.0964,47.1768],[5.0949,47.1819],[5.1020,47.1882],[5.1054,47.1871],[5.1066,47.1882],[5.1114,47.1856],[5.1118,47.1842],[5.1091,47.1804],[5.1103,47.1787],[5.1084,47.1775],[5.1094,47.1763],[5.1080,47.1746],[5.1108,47.1731],[5.1107,47.1712],[5.1246,47.1689],[5.1297,47.1669],[5.1279,47.1651],[5.1257,47.1659],[5.1263,47.1675],[5.1254,47.1679],[5.1242,47.1667],[5.1255,47.1659],[5.1108,47.1611],[5.1153,47.1589],[5.1154,47.1607],[5.1196,47.1596],[5.1206,47.1606],[5.1172,47.1616],[5.1212,47.1632],[5.1217,47.1607],[5.1182,47.1572],[5.1219,47.1569],[5.1211,47.1559],[5.1241,47.1553],[5.1225,47.1536],[5.1201,47.1537],[5.1215,47.1528],[5.1207,47.1521],[5.1231,47.1512],[5.1246,47.1530],[5.1266,47.1524],[5.1279,47.1540],[5.1291,47.1534],[5.1320,47.1541],[5.1335,47.1559],[5.1349,47.1555],[5.1386,47.1532],[5.1350,47.1536],[5.1332,47.1518],[5.1341,47.1515],[5.1336,47.1505],[5.1372,47.1499],[5.1343,47.1457],[5.1410,47.1506],[5.1475,47.1460],[5.1462,47.1452],[5.1424,47.1465],[5.1404,47.1438],[5.1437,47.1425],[5.1446,47.1433],[5.1460,47.1419],[5.1506,47.1442],[5.1546,47.1435],[5.1467,47.1315],[5.1526,47.1323],[5.1598,47.1405],[5.1621,47.1391],[5.1602,47.1376],[5.1619,47.1336],[5.1598,47.1323],[5.1603,47.1301],[5.1572,47.1293],[5.1584,47.1274],[5.1620,47.1282],[5.1586,47.1269],[5.1611,47.1235],[5.1637,47.1231],[5.1641,47.1218],[5.1624,47.1216],[5.1637,47.1196],[5.1670,47.1188],[5.1665,47.1173],[5.1614,47.1188],[5.1636,47.1174],[5.1594,47.1134],[5.1654,47.1107],[5.1647,47.1062],[5.1582,47.1070],[5.1572,47.1048],[5.1580,47.1033],[5.1566,47.1016],[5.1519,47.1014],[5.1502,47.1032],[5.1476,47.1028],[5.1473,47.1002],[5.1513,47.0992],[5.1451,47.0972],[5.1471,47.0988],[5.1460,47.0992],[5.1450,47.0978],[5.1440,47.0992],[5.1397,47.0987],[5.1347,47.0953],[5.1325,47.0967],[5.1316,47.0960],[5.1326,47.0948],[5.1303,47.0952],[5.1287,47.0940],[5.1276,47.0948],[5.1310,47.0960],[5.1275,47.0980],[5.1260,47.0959],[5.1239,47.0970],[5.1234,47.0979],[5.1247,47.0979],[5.1227,47.1018],[5.1170,47.0986],[5.1244,47.0930],[5.1226,47.0908],[5.1225,47.0921],[5.1184,47.0940],[5.1141,47.0924],[5.1121,47.0933],[5.1104,47.0916],[5.1076,47.0928],[5.1053,47.0918],[5.1038,47.0939],[5.1040,47.0886],[5.1016,47.0861],[5.1028,47.0839],[5.0991,47.0831],[5.0982,47.0820],[5.0999,47.0808],[5.0961,47.0790],[5.0940,47.0760],[5.0968,47.0752],[5.0962,47.0737],[5.0988,47.0734],[5.0972,47.0716],[5.0923,47.0732],[5.0946,47.0699],[5.0927,47.0691],[5.0928,47.0711],[5.0912,47.0716],[5.0897,47.0698],[5.0928,47.0688],[5.0909,47.0678],[5.0931,47.0668],[5.0888,47.0662],[5.0870,47.0642],[5.0883,47.0632],[5.0859,47.0636],[5.0849,47.0623],[5.0909,47.0592],[5.0873,47.0596],[5.0859,47.0613],[5.0830,47.0595],[5.0813,47.0603],[5.0794,47.0582],[5.0773,47.0587],[5.0774,47.0605],[5.0798,47.0595],[5.0846,47.0627],[5.0895,47.0681],[5.0821,47.0697],[5.0764,47.0736],[5.0749,47.0700],[5.0714,47.0677],[5.0732,47.0665],[5.0717,47.0630],[5.0701,47.0630],[5.0702,47.0608],[5.0658,47.0596],[5.0603,47.0611],[5.0601,47.0598],[5.0540,47.0580],[5.0570,47.0560],[5.0536,47.0546],[5.0546,47.0532],[5.0585,47.0546],[5.0548,47.0529],[5.0567,47.0503],[5.0585,47.0493],[5.0615,47.0510],[5.0598,47.0487],[5.0613,47.0482],[5.0654,47.0485],[5.0651,47.0505],[5.0680,47.0489],[5.0662,47.0470],[5.0670,47.0464],[5.0716,47.0464],[5.0731,47.0474],[5.0732,47.0497],[5.0762,47.0503],[5.0777,47.0488],[5.0758,47.0489],[5.0775,47.0484],[5.0769,47.0469],[5.0835,47.0458],[5.0843,47.0467],[5.0813,47.0480],[5.0824,47.0490],[5.0885,47.0478],[5.0911,47.0501],[5.0897,47.0519],[5.0932,47.0515],[5.0943,47.0525],[5.0936,47.0494],[5.0924,47.0498],[5.0923,47.0470],[5.0913,47.0467],[5.0957,47.0472],[5.0947,47.0459],[5.0956,47.0434],[5.0942,47.0422],[5.1019,47.0415],[5.0963,47.0360],[5.0945,47.0307],[5.0915,47.0317],[5.0880,47.0310],[5.0919,47.0321],[5.0944,47.0357],[5.0927,47.0363],[5.0933,47.0371],[5.0897,47.0374],[5.0904,47.0352],[5.0868,47.0384],[5.0809,47.0361],[5.0855,47.0310],[5.0729,47.0333],[5.0548,47.0405],[5.0406,47.0445],[5.0250,47.0462],[5.0043,47.0454]]]}},{"type":"Feature","properties":{"name":"Bois de Bussières"},"geometry":{"type":"Polygon","coordinates":[[[5.5635,47.8014],[5.5611,47.8003],[5.5638,47.7970],[5.5679,47.7969],[5.5702,47.7981],[5.5739,47.7976],[5.5746,47.7960],[5.5776,47.7962],[5.5746,47.7937],[5.5716,47.7945],[5.5669,47.7930],[5.5700,47.7924],[5.5675,47.7920],[5.5678,47.7906],[5.5742,47.7930],[5.5780,47.7912],[5.5744,47.7915],[5.5728,47.7888],[5.5730,47.7858],[5.5763,47.7849],[5.5718,47.7850],[5.5719,47.7839],[5.5698,47.7869],[5.5673,47.7870],[5.5687,47.7833],[5.5652,47.7823],[5.5647,47.7781],[5.5612,47.7783],[5.5649,47.7765],[5.5627,47.7719],[5.5650,47.7700],[5.5646,47.7684],[5.5623,47.7669],[5.5609,47.7610],[5.5562,47.7565],[5.5545,47.7571],[5.5521,47.7556],[5.5564,47.7600],[5.5596,47.7615],[5.5606,47.7638],[5.5569,47.7645],[5.5520,47.7619],[5.5506,47.7635],[5.5541,47.7640],[5.5524,47.7655],[5.5541,47.7665],[5.5519,47.7678],[5.5502,47.7661],[5.5472,47.7654],[5.5460,47.7594],[5.5418,47.7579],[5.5436,47.7569],[5.5412,47.7563],[5.5424,47.7548],[5.5376,47.7548],[5.5375,47.7526],[5.5363,47.7528],[5.5355,47.7514],[5.5322,47.7520],[5.5310,47.7509],[5.5328,47.7511],[5.5308,47.7499],[5.5290,47.7507],[5.5304,47.7518],[5.5272,47.7531],[5.5254,47.7513],[5.5233,47.7519],[5.5207,47.7511],[5.5153,47.7458],[5.5146,47.7463],[5.5205,47.7517],[5.5196,47.7522],[5.5153,47.7490],[5.5137,47.7502],[5.5127,47.7495],[5.5108,47.7516],[5.5141,47.7536],[5.5174,47.7529],[5.5185,47.7542],[5.5160,47.7546],[5.5139,47.7572],[5.5128,47.7564],[5.5121,47.7585],[5.5138,47.7587],[5.5094,47.7605],[5.5118,47.7611],[5.5028,47.7617],[5.4971,47.7670],[5.5006,47.7676],[5.4995,47.7697],[5.5002,47.7728],[5.5060,47.7767],[5.5053,47.7775],[5.4994,47.7748],[5.5091,47.7824],[5.5070,47.7855],[5.5073,47.7827],[5.5066,47.7841],[5.5050,47.7839],[5.5020,47.7801],[5.4974,47.7799],[5.4988,47.7798],[5.4998,47.7822],[5.5029,47.7842],[5.4979,47.7902],[5.4978,47.7946],[5.4996,47.7948],[5.5001,47.7914],[5.5028,47.7899],[5.5015,47.7952],[5.5022,47.7973],[5.5003,47.7974],[5.5010,47.7992],[5.4993,47.8005],[5.5000,47.8040],[5.5016,47.8037],[5.5002,47.8010],[5.5019,47.7991],[5.5093,47.7992],[5.5065,47.7972],[5.5056,47.7978],[5.5070,47.7964],[5.5044,47.7959],[5.5065,47.7924],[5.5074,47.7929],[5.5072,47.7899],[5.5091,47.7888],[5.5168,47.7954],[5.5160,47.7975],[5.5183,47.7982],[5.5203,47.7976],[5.5181,47.7965],[5.5199,47.7908],[5.5192,47.7900],[5.5217,47.7888],[5.5244,47.7897],[5.5215,47.7945],[5.5232,47.7953],[5.5254,47.7942],[5.5254,47.7956],[5.5271,47.7949],[5.5276,47.7930],[5.5319,47.7915],[5.5308,47.7895],[5.5341,47.7885],[5.5401,47.7954],[5.5366,47.7968],[5.5340,47.7942],[5.5324,47.7944],[5.5324,47.7987],[5.5307,47.7985],[5.5334,47.8017],[5.5326,47.8024],[5.5378,47.8009],[5.5376,47.8029],[5.5440,47.8018],[5.5422,47.8042],[5.5437,47.8050],[5.5429,47.8060],[5.5416,47.8049],[5.5346,47.8062],[5.5356,47.8043],[5.5336,47.8028],[5.5333,47.8058],[5.5343,47.8064],[5.5322,47.8072],[5.5298,47.8059],[5.5289,47.8069],[5.5321,47.8089],[5.5333,47.8087],[5.5316,47.8074],[5.5344,47.8085],[5.5452,47.8068],[5.5635,47.8014]]]}},{"type":"Feature","properties":{"name":"Forêt domaniale de Pourlans"},"geometry":{"type":"Polygon","coordinates":[[[5.2287,47.0012],[5.2288,47.0002],[5.2314,47.0003],[5.2318,47.0016],[5.2321,46.9991],[5.2388,46.9971],[5.2417,46.9941],[5.2406,46.9933],[5.2426,46.9926],[5.2420,46.9914],[5.2470,46.9901],[5.2456,46.9884],[5.2423,46.9880],[5.2481,46.9853],[5.2454,46.9857],[5.2448,46.9825],[5.2486,46.9825],[5.2497,46.9857],[5.2492,46.9819],[5.2516,46.9840],[5.2546,46.9842],[5.2550,46.9797],[5.2532,46.9785],[5.2562,46.9763],[5.2536,46.9741],[5.2567,46.9720],[5.2545,46.9709],[5.2588,46.9686],[5.2565,46.9672],[5.2598,46.9663],[5.2615,46.9643],[5.2580,46.9630],[5.2522,46.9651],[5.2491,46.9650],[5.2477,46.9634],[5.2469,46.9650],[5.2443,46.9654],[5.2445,46.9666],[5.2320,46.9659],[5.2341,46.9689],[5.2352,46.9683],[5.2289,46.9708],[5.2257,46.9692],[5.2269,46.9677],[5.2254,46.9688],[5.2229,46.9658],[5.2245,46.9636],[5.2230,46.9633],[5.2234,46.9620],[5.2182,46.9596],[5.2168,46.9610],[5.2185,46.9589],[5.2037,46.9583],[5.2009,46.9588],[5.2005,46.9614],[5.1977,46.9638],[5.1983,46.9663],[5.1973,46.9636],[5.1998,46.9617],[5.1929,46.9633],[5.1940,46.9622],[5.1925,46.9606],[5.1846,46.9625],[5.1848,46.9635],[5.1814,46.9632],[5.1825,46.9674],[5.1782,46.9688],[5.1774,46.9677],[5.1759,46.9680],[5.1729,46.9725],[5.1678,46.9729],[5.1686,46.9762],[5.1705,46.9752],[5.1760,46.9767],[5.1682,46.9798],[5.1696,46.9810],[5.1756,46.9773],[5.1815,46.9777],[5.1796,46.9793],[5.1805,46.9820],[5.1745,46.9830],[5.1754,46.9836],[5.1720,46.9858],[5.1771,46.9835],[5.1771,46.9844],[5.1806,46.9845],[5.1800,46.9868],[5.1822,46.9876],[5.1831,46.9866],[5.1825,46.9898],[5.1842,46.9883],[5.1884,46.9894],[5.1883,46.9921],[5.1945,46.9921],[5.2005,46.9907],[5.2013,46.9895],[5.2038,46.9907],[5.2063,46.9882],[5.2087,46.9891],[5.2093,46.9925],[5.2116,46.9938],[5.2096,46.9946],[5.2222,46.9985],[5.2245,47.0010],[5.2287,47.0012]]]}},{"type":"Feature","properties":{"name":"Forêt de Bouhey"},"geometry":{"type":"Polygon","coordinates":[[[4.6762,47.2051],[4.6806,47.2162],[4.6801,47.2135],[4.6847,47.2114],[4.6870,47.2089],[4.6870,47.2067],[4.6915,47.2118],[4.6934,47.2119],[4.6944,47.2132],[4.6933,47.2137],[4.6953,47.2145],[4.7058,47.2152],[4.7037,47.2139],[4.7053,47.2125],[4.7051,47.2108],[4.7068,47.2119],[4.7063,47.2143],[4.7107,47.2168],[4.7173,47.2167],[4.7233,47.2151],[4.7192,47.2126],[4.7230,47.2052],[4.7223,47.2035],[4.7142,47.1908],[4.7109,47.1895],[4.7136,47.1833],[4.7104,47.1816],[4.7119,47.1849],[4.7075,47.1857],[4.7049,47.1824],[4.7075,47.1838],[4.7097,47.1827],[4.7079,47.1802],[4.7058,47.1800],[4.7078,47.1786],[4.7098,47.1811],[4.7085,47.1781],[4.7076,47.1784],[4.7084,47.1776],[4.7074,47.1772],[4.7061,47.1789],[4.7047,47.1761],[4.7049,47.1784],[4.7036,47.1742],[4.7047,47.1718],[4.7031,47.1709],[4.7008,47.1711],[4.6972,47.1739],[4.6941,47.1733],[4.6933,47.1716],[4.6940,47.1748],[4.6856,47.1807],[4.6869,47.1819],[4.6876,47.1809],[4.6888,47.1830],[4.6831,47.1869],[4.6860,47.1865],[4.6866,47.1882],[4.6850,47.1898],[4.6828,47.1886],[4.6813,47.1898],[4.6829,47.1916],[4.6816,47.1929],[4.6812,47.1907],[4.6804,47.1910],[4.6790,47.1929],[4.6796,47.1958],[4.6814,47.1970],[4.6816,47.1987],[4.6801,47.1993],[4.6839,47.2009],[4.6853,47.2042],[4.6818,47.2009],[4.6787,47.2023],[4.6797,47.2093],[4.6762,47.2051]]]}},{"type":"Feature","properties":{"name":"Grande Réserve"},"geometry":{"type":"Polygon","coordinates":[[[4.4811,48.0237],[4.4847,48.0256],[4.4830,48.0255],[4.4836,48.0263],[4.4874,48.0266],[4.4908,48.0287],[4.4905,48.0317],[4.4862,48.0320],[4.4910,48.0353],[4.4928,48.0352],[4.4924,48.0337],[4.4938,48.0330],[4.5045,48.0351],[4.4995,48.0324],[4.5013,48.0306],[4.4996,48.0305],[4.5005,48.0300],[4.4988,48.0270],[4.5004,48.0260],[4.5064,48.0282],[4.5083,48.0275],[4.5191,48.0300],[4.5202,48.0323],[4.5176,48.0334],[4.5301,48.0418],[4.5356,48.0439],[4.5386,48.0530],[4.5426,48.0508],[4.5409,48.0504],[4.5444,48.0478],[4.5463,48.0484],[4.5468,48.0475],[4.5454,48.0468],[4.5468,48.0449],[4.5488,48.0447],[4.5487,48.0477],[4.5502,48.0479],[4.5515,48.0460],[4.5496,48.0440],[4.5533,48.0369],[4.5518,48.0350],[4.5480,48.0383],[4.5466,48.0377],[4.5501,48.0327],[4.5527,48.0254],[4.5520,48.0213],[4.5568,48.0201],[4.5619,48.0231],[4.5626,48.0213],[4.5651,48.0209],[4.5660,48.0275],[4.5716,48.0277],[4.5737,48.0262],[4.5733,48.0276],[4.5803,48.0352],[4.5829,48.0335],[4.5824,48.0314],[4.5777,48.0288],[4.5739,48.0232],[4.5804,48.0128],[4.5780,48.0115],[4.5824,48.0106],[4.5765,48.0115],[4.5793,48.0128],[4.5778,48.0143],[4.5755,48.0134],[4.5753,48.0120],[4.5689,48.0118],[4.5657,48.0136],[4.5688,48.0111],[4.5663,48.0112],[4.5666,48.0122],[4.5640,48.0133],[4.5607,48.0120],[4.5623,48.0135],[4.5609,48.0150],[4.5565,48.0132],[4.5606,48.0104],[4.5648,48.0094],[4.5568,48.0081],[4.5568,48.0068],[4.5597,48.0045],[4.5600,47.9998],[4.5632,47.9976],[4.5602,47.9965],[4.5611,47.9928],[4.5679,47.9961],[4.5705,47.9956],[4.5715,47.9982],[4.5761,47.9967],[4.5729,47.9916],[4.5644,47.9883],[4.5673,47.9865],[4.5667,47.9854],[4.5612,47.9845],[4.5630,47.9795],[4.5649,47.9792],[4.5698,47.9819],[4.5721,47.9812],[4.5754,47.9841],[4.5810,47.9833],[4.5820,47.9853],[4.5862,47.9877],[4.5923,47.9888],[4.5914,47.9878],[4.5936,47.9862],[4.5904,47.9846],[4.5931,47.9839],[4.5952,47.9854],[4.5968,47.9842],[4.5972,47.9810],[4.6004,47.9758],[4.6136,47.9779],[4.6148,47.9765],[4.6168,47.9766],[4.6105,47.9728],[4.6126,47.9719],[4.6262,47.9747],[4.6302,47.9796],[4.6355,47.9814],[4.6371,47.9802],[4.6367,47.9792],[4.6318,47.9754],[4.6358,47.9751],[4.6315,47.9672],[4.6390,47.9675],[4.6384,47.9639],[4.6353,47.9616],[4.6365,47.9597],[4.6354,47.9587],[4.6234,47.9526],[4.6339,47.9567],[4.6330,47.9555],[4.6364,47.9557],[4.6350,47.9532],[4.6369,47.9525],[4.6392,47.9538],[4.6411,47.9501],[4.6334,47.9457],[4.6300,47.9409],[4.6329,47.9394],[4.6300,47.9374],[4.6170,47.9397],[4.6093,47.9377],[4.6018,47.9406],[4.6010,47.9438],[4.5954,47.9455],[4.5933,47.9428],[4.5876,47.9450],[4.5860,47.9393],[4.5808,47.9344],[4.5807,47.9312],[4.5774,47.9278],[4.5751,47.9266],[4.5737,47.9273],[4.5738,47.9264],[4.5678,47.9275],[4.5687,47.9308],[4.5709,47.9326],[4.5769,47.9337],[4.5779,47.9354],[4.5696,47.9341],[4.5740,47.9385],[4.5723,47.9413],[4.5685,47.9436],[4.5629,47.9411],[4.5594,47.9362],[4.5601,47.9341],[4.5585,47.9306],[4.5537,47.9276],[4.5504,47.9274],[4.5485,47.9287],[4.5497,47.9312],[4.5554,47.9334],[4.5513,47.9339],[4.5495,47.9324],[4.5436,47.9324],[4.5435,47.9339],[4.5414,47.9330],[4.5372,47.9353],[4.5359,47.9332],[4.5348,47.9336],[4.5360,47.9361],[4.5388,47.9370],[4.5371,47.9383],[4.5341,47.9366],[4.5339,47.9344],[4.5321,47.9353],[4.5297,47.9335],[4.5349,47.9335],[4.5338,47.9325],[4.5270,47.9330],[4.5422,47.9419],[4.5366,47.9411],[4.5524,47.9481],[4.5491,47.9484],[4.5470,47.9509],[4.5406,47.9498],[4.5410,47.9525],[4.5381,47.9530],[4.5360,47.9553],[4.5423,47.9537],[4.5408,47.9547],[4.5412,47.9558],[4.5395,47.9557],[4.5395,47.9587],[4.5360,47.9593],[4.5363,47.9579],[4.5349,47.9575],[4.5331,47.9589],[4.5335,47.9602],[4.5366,47.9626],[4.5378,47.9656],[4.5404,47.9663],[4.5427,47.9653],[4.5430,47.9668],[4.5469,47.9661],[4.5515,47.9639],[4.5423,47.9682],[4.5382,47.9671],[4.5374,47.9687],[4.5341,47.9695],[4.5243,47.9694],[4.5243,47.9709],[4.5273,47.9728],[4.5331,47.9731],[4.5344,47.9721],[4.5330,47.9755],[4.5370,47.9754],[4.5349,47.9753],[4.5361,47.9736],[4.5475,47.9740],[4.5501,47.9721],[4.5476,47.9707],[4.5457,47.9715],[4.5422,47.9705],[4.5416,47.9719],[4.5433,47.9723],[4.5419,47.9729],[4.5384,47.9718],[4.5399,47.9696],[4.5460,47.9702],[4.5493,47.9695],[4.5491,47.9683],[4.5538,47.9679],[4.5483,47.9706],[4.5506,47.9728],[4.5599,47.9734],[4.5523,47.9741],[4.5548,47.9753],[4.5471,47.9761],[4.5463,47.9778],[4.5402,47.9809],[4.5369,47.9800],[4.5367,47.9816],[4.5272,47.9804],[4.5177,47.9816],[4.5179,47.9829],[4.5226,47.9864],[4.5197,47.9870],[4.5106,47.9843],[4.5107,47.9857],[4.5141,47.9880],[4.5157,47.9874],[4.5189,47.9888],[4.5212,47.9919],[4.5150,47.9900],[4.5099,47.9903],[4.5127,47.9919],[4.5169,47.9915],[4.5200,47.9928],[4.5224,47.9963],[4.5207,47.9983],[4.5195,47.9979],[4.5206,47.9961],[4.5185,47.9944],[4.5085,47.9913],[4.5066,47.9942],[4.5020,47.9929],[4.4960,47.9935],[4.4961,47.9950],[4.4998,47.9961],[4.4991,47.9971],[4.4910,47.9953],[4.4882,47.9975],[4.4891,47.9996],[4.4877,48.0006],[4.4819,47.9978],[4.4763,48.0001],[4.4747,48.0025],[4.4780,48.0069],[4.4747,48.0110],[4.4689,48.0141],[4.4726,48.0157],[4.4682,48.0162],[4.4692,48.0165],[4.4671,48.0175],[4.4729,48.0222],[4.4715,48.0184],[4.4764,48.0190],[4.4811,48.0237]]]}},{"type":"Feature","properties":{"name":"Bois de la Faye"},"geometry":{"type":"Polygon","coordinates":[[[4.8412,47.9401],[4.8425,47.9412],[4.8360,47.9429],[4.8328,47.9418],[4.8335,47.9436],[4.8302,47.9467],[4.8157,47.9458],[4.8296,47.9479],[4.8333,47.9499],[4.8325,47.9510],[4.8259,47.9483],[4.8340,47.9517],[4.8336,47.9536],[4.8345,47.9539],[4.8361,47.9519],[4.8411,47.9534],[4.8400,47.9517],[4.8418,47.9496],[4.8499,47.9529],[4.8546,47.9500],[4.8563,47.9509],[4.8614,47.9504],[4.8595,47.9494],[4.8652,47.9417],[4.8690,47.9432],[4.8703,47.9423],[4.8675,47.9413],[4.8692,47.9411],[4.8673,47.9405],[4.8653,47.9348],[4.8615,47.9324],[4.8632,47.9310],[4.8600,47.9293],[4.8596,47.9276],[4.8561,47.9270],[4.8564,47.9252],[4.8538,47.9273],[4.8556,47.9274],[4.8532,47.9300],[4.8464,47.9282],[4.8470,47.9218],[4.8436,47.9223],[4.8414,47.9247],[4.8429,47.9267],[4.8407,47.9303],[4.8448,47.9340],[4.8418,47.9363],[4.8459,47.9374],[4.8412,47.9401]]]}},{"type":"Feature","properties":{"name":"Forêt de Véluze"},"geometry":{"type":"Polygon","coordinates":[[[4.7599,47.2827],[4.7591,47.2819],[4.7634,47.2801],[4.7620,47.2761],[4.7637,47.2729],[4.7629,47.2715],[4.7657,47.2717],[4.7652,47.2778],[4.7685,47.2770],[4.7701,47.2751],[4.7710,47.2766],[4.7703,47.2729],[4.7712,47.2735],[4.7706,47.2720],[4.7722,47.2724],[4.7699,47.2707],[4.7735,47.2701],[4.7739,47.2682],[4.7714,47.2669],[4.7728,47.2683],[4.7704,47.2703],[4.7713,47.2685],[4.7684,47.2660],[4.7644,47.2659],[4.7625,47.2624],[4.7655,47.2639],[4.7659,47.2631],[4.7612,47.2614],[4.7572,47.2548],[4.7569,47.2570],[4.7532,47.2545],[4.7508,47.2547],[4.7463,47.2587],[4.7452,47.2581],[4.7464,47.2566],[4.7442,47.2555],[4.7449,47.2548],[4.7415,47.2559],[4.7428,47.2569],[4.7411,47.2581],[4.7268,47.2575],[4.7247,47.2593],[4.7280,47.2582],[4.7235,47.2604],[4.7231,47.2619],[4.7219,47.2615],[4.7223,47.2652],[4.7235,47.2660],[4.7187,47.2651],[4.7183,47.2636],[4.7155,47.2624],[4.7112,47.2648],[4.7117,47.2632],[4.7068,47.2652],[4.7102,47.2699],[4.7082,47.2665],[4.7090,47.2658],[4.7105,47.2657],[4.7085,47.2666],[4.7117,47.2689],[4.7105,47.2681],[4.7108,47.2660],[4.7134,47.2652],[4.7155,47.2665],[4.7173,47.2656],[4.7166,47.2667],[4.7177,47.2677],[4.7198,47.2657],[4.7238,47.2660],[4.7243,47.2672],[4.7223,47.2667],[4.7243,47.2679],[4.7245,47.2624],[4.7252,47.2637],[4.7272,47.2624],[4.7292,47.2632],[4.7294,47.2658],[4.7270,47.2661],[4.7270,47.2637],[4.7254,47.2640],[4.7265,47.2673],[4.7287,47.2689],[4.7301,47.2682],[4.7300,47.2712],[4.7285,47.2724],[4.7312,47.2738],[4.7297,47.2756],[4.7320,47.2747],[4.7371,47.2770],[4.7397,47.2769],[4.7423,47.2800],[4.7382,47.2791],[4.7336,47.2800],[4.7336,47.2869],[4.7363,47.2864],[4.7446,47.2798],[4.7465,47.2814],[4.7452,47.2796],[4.7496,47.2784],[4.7516,47.2782],[4.7518,47.2803],[4.7552,47.2826],[4.7599,47.2827]]]}},{"type":"Feature","properties":{"name":"Forêt de Fiel"},"geometry":{"type":"Polygon","coordinates":[[[4.2908,48.0441],[4.2831,48.0428],[4.2810,48.0496],[4.2766,48.0546],[4.2829,48.0611],[4.2872,48.0702],[4.2903,48.0720],[4.2935,48.0688],[4.2999,48.0718],[4.2981,48.0734],[4.2985,48.0749],[4.3011,48.0723],[4.3027,48.0737],[4.3036,48.0731],[4.3014,48.0715],[4.3046,48.0698],[4.3026,48.0675],[4.3032,48.0664],[4.3052,48.0653],[4.3093,48.0678],[4.3140,48.0643],[4.3166,48.0669],[4.3204,48.0743],[4.3233,48.0737],[4.3174,48.0764],[4.3172,48.0775],[4.3106,48.0791],[4.3069,48.0819],[4.3044,48.0863],[4.3087,48.0813],[4.3132,48.0796],[4.3123,48.0803],[4.3141,48.0807],[4.3136,48.0799],[4.3154,48.0783],[4.3176,48.0783],[4.3182,48.0798],[4.3236,48.0799],[4.3189,48.0768],[4.3209,48.0758],[4.3258,48.0782],[4.3297,48.0768],[4.3348,48.0783],[4.3355,48.0764],[4.3371,48.0763],[4.3352,48.0759],[4.3354,48.0746],[4.3377,48.0750],[4.3388,48.0731],[4.3425,48.0730],[4.3393,48.0692],[4.3360,48.0692],[4.3359,48.0676],[4.3336,48.0666],[4.3342,48.0656],[4.3322,48.0635],[4.3264,48.0668],[4.3262,48.0700],[4.3245,48.0701],[4.3224,48.0728],[4.3174,48.0665],[4.3281,48.0599],[4.3147,48.0576],[4.3036,48.0517],[4.3060,48.0502],[4.3046,48.0508],[4.3044,48.0493],[4.2990,48.0475],[4.2973,48.0450],[4.2908,48.0441]]]}},{"type":"Feature","properties":{"name":"Saint-Bernard"},"geometry":{"type":"Polygon","coordinates":[[[4.4989,48.0614],[4.5075,48.0586],[4.5057,48.0565],[4.5019,48.0589],[4.4977,48.0580],[4.4997,48.0537],[4.5033,48.0537],[4.5108,48.0567],[4.5146,48.0556],[4.5082,48.0526],[4.5094,48.0521],[4.5150,48.0550],[4.5181,48.0505],[4.5151,48.0474],[4.5170,48.0463],[4.5107,48.0452],[4.5040,48.0385],[4.4936,48.0405],[4.4942,48.0441],[4.4974,48.0437],[4.4994,48.0449],[4.4980,48.0452],[4.4996,48.0479],[4.4968,48.0515],[4.4977,48.0532],[4.4950,48.0544],[4.4920,48.0496],[4.4952,48.0474],[4.4891,48.0489],[4.4915,48.0511],[4.4918,48.0494],[4.4934,48.0531],[4.4969,48.0561],[4.4964,48.0596],[4.4998,48.0594],[4.4979,48.0614],[4.4989,48.0614]]]}}]}