{"type":"FeatureCollection","features":[{"type":"Feature","properties":{"name":"Bois de Coat Liou"},"geometry":{"type":"Polygon","coordinates":[[[-3.1578,48.4846],[-3.1535,48.4881],[-3.1493,48.4884],[-3.1487,48.4899],[-3.1471,48.4883],[-3.1428,48.4904],[-3.1436,48.4917],[-3.1513,48.4912],[-3.1521,48.4924],[-3.1570,48.4935],[-3.1580,48.4932],[-3.1575,48.4919],[-3.1671,48.4936],[-3.1704,48.4919],[-3.1712,48.4930],[-3.1713,48.4914],[-3.1820,48.4871],[-3.1836,48.4854],[-3.1814,48.4824],[-3.1846,48.4824],[-3.1814,48.4820],[-3.1818,48.4795],[-3.1778,48.4777],[-3.1690,48.4782],[-3.1684,48.4740],[-3.1622,48.4739],[-3.1602,48.4721],[-3.1584,48.4728],[-3.1598,48.4738],[-3.1577,48.4744],[-3.1557,48.4728],[-3.1522,48.4730],[-3.1517,48.4707],[-3.1498,48.4716],[-3.1475,48.4709],[-3.1395,48.4750],[-3.1406,48.4756],[-3.1390,48.4767],[-3.1425,48.4758],[-3.1477,48.4766],[-3.1494,48.4780],[-3.1495,48.4800],[-3.1532,48.4797],[-3.1588,48.4814],[-3.1578,48.4846]]]}},{"type":"Feature","properties":{"name":"Bois de Kerauffret"},"geometry":{"type":"Polygon","coordinates":[[[-3.1492,48.5063],[-3.1432,48.5113],[-3.1373,48.5132],[-3.1327,48.5130],[-3.1327,48.5147],[-3.1393,48.5215],[-3.1412,48.5215],[-3.1404,48.5195],[-3.1436,48.5227],[-3.1437,48.5211],[-3.1484,48.5224],[-3.1482,48.5233],[-3.1438,48.5215],[-3.1452,48.5240],[-3.1465,48.5240],[-3.1462,48.5251],[-3.1420,48.5254],[-3.1421,48.5262],[-3.1489,48.5241],[-3.1489,48.5252],[-3.1523,48.5247],[-3.1533,48.5242],[-3.1526,48.5229],[-3.1541,48.5234],[-3.1555,48.5224],[-3.1530,48.5213],[-3.1555,48.5203],[-3.1570,48.5202],[-3.1568,48.5214],[-3.1600,48.5231],[-3.1622,48.5227],[-3.1598,48.5266],[-3.1574,48.5263],[-3.1581,48.5277],[-3.1601,48.5272],[-3.1604,48.5280],[-3.1585,48.5284],[-3.1606,48.5290],[-3.1629,48.5329],[-3.1588,48.5353],[-3.1560,48.5349],[-3.1572,48.5354],[-3.1571,48.5368],[-3.1524,48.5360],[-3.1553,48.5399],[-3.1603,48.5352],[-3.1646,48.5348],[-3.1659,48.5297],[-3.1694,48.5264],[-3.1651,48.5255],[-3.1672,48.5232],[-3.1693,48.5238],[-3.1661,48.5187],[-3.1671,48.5170],[-3.1646,48.5176],[-3.1635,48.5152],[-3.1585,48.5121],[-3.1535,48.5118],[-3.1552,48.5109],[-3.1516,48.5097],[-3.1492,48.5063]]]}},{"type":"Feature","properties":{"name":"Bois de Coron"},"geometry":{"type":"Polygon","coordinates":[[[-2.4984,48.5373],[-2.5000,48.5385],[-2.4989,48.5386],[-2.4976,48.5416],[-2.4985,48.5446],[-2.5008,48.5459],[-2.5003,48.5469],[-2.4975,48.5481],[-2.4924,48.5464],[-2.4946,48.5482],[-2.4971,48.5483],[-2.4943,48.5500],[-2.4921,48.5490],[-2.4901,48.5516],[-2.4820,48.5522],[-2.4827,48.5562],[-2.4799,48.5569],[-2.4773,48.5550],[-2.4745,48.5552],[-2.4747,48.5534],[-2.4732,48.5532],[-2.4742,48.5511],[-2.4709,48.5474],[-2.4710,48.5452],[-2.4686,48.5444],[-2.4681,48.5428],[-2.4696,48.5403],[-2.4688,48.5396],[-2.4720,48.5357],[-2.4787,48.5355],[-2.4789,48.5365],[-2.4861,48.5353],[-2.4874,48.5331],[-2.4853,48.5335],[-2.4831,48.5319],[-2.4847,48.5316],[-2.4874,48.5327],[-2.4895,48.5318],[-2.4929,48.5348],[-2.4949,48.5332],[-2.4924,48.5355],[-2.4945,48.5351],[-2.4939,48.5358],[-2.4984,48.5373]]]}},{"type":"Feature","properties":{"name":"Coat An Diarzou"},"geometry":{"type":"Polygon","coordinates":[[[-3.6406,48.5727],[-3.6389,48.5710],[-3.6386,48.5673],[-3.6398,48.5658],[-3.6393,48.5688],[-3.6401,48.5658],[-3.6413,48.5658],[-3.6400,48.5702],[-3.6413,48.5720],[-3.6462,48.5678],[-3.6496,48.5680],[-3.6462,48.5706],[-3.6485,48.5721],[-3.6462,48.5757],[-3.6475,48.5770],[-3.6507,48.5763],[-3.6518,48.5743],[-3.6536,48.5747],[-3.6592,48.5727],[-3.6589,48.5712],[-3.6567,48.5712],[-3.6597,48.5680],[-3.6607,48.5682],[-3.6600,48.5706],[-3.6613,48.5706],[-3.6614,48.5721],[-3.6681,48.5685],[-3.6684,48.5667],[-3.6721,48.5685],[-3.6723,48.5696],[-3.6687,48.5724],[-3.6690,48.5739],[-3.6647,48.5741],[-3.6640,48.5716],[-3.6612,48.5732],[-3.6616,48.5745],[-3.6599,48.5762],[-3.6614,48.5775],[-3.6578,48.5781],[-3.6573,48.5770],[-3.6528,48.5793],[-3.6535,48.5816],[-3.6549,48.5800],[-3.6573,48.5817],[-3.6575,48.5833],[-3.6529,48.5831],[-3.6519,48.5845],[-3.6543,48.5860],[-3.6563,48.5895],[-3.6558,48.5911],[-3.6546,48.5898],[-3.6510,48.5893],[-3.6502,48.5911],[-3.6492,48.5909],[-3.6475,48.5889],[-3.6461,48.5905],[-3.6472,48.5933],[-3.6456,48.5948],[-3.6478,48.5959],[-3.6449,48.5958],[-3.6441,48.5972],[-3.6462,48.6015],[-3.6461,48.6044],[-3.6448,48.6039],[-3.6431,48.6055],[-3.6432,48.6067],[-3.6444,48.6062],[-3.6439,48.6090],[-3.6491,48.6102],[-3.6513,48.6125],[-3.6536,48.6121],[-3.6563,48.6149],[-3.6612,48.6127],[-3.6602,48.6099],[-3.6619,48.6090],[-3.6636,48.6128],[-3.6631,48.6148],[-3.6580,48.6168],[-3.6575,48.6192],[-3.6547,48.6202],[-3.6570,48.6213],[-3.6567,48.6229],[-3.6552,48.6235],[-3.6549,48.6264],[-3.6529,48.6263],[-3.6539,48.6259],[-3.6527,48.6230],[-3.6436,48.6224],[-3.6497,48.6189],[-3.6508,48.6213],[-3.6532,48.6198],[-3.6520,48.6178],[-3.6478,48.6157],[-3.6493,48.6140],[-3.6481,48.6119],[-3.6429,48.6120],[-3.6418,48.6125],[-3.6424,48.6134],[-3.6391,48.6145],[-3.6362,48.6129],[-3.6355,48.6108],[-3.6381,48.6099],[-3.6376,48.6082],[-3.6350,48.6091],[-3.6333,48.6074],[-3.6315,48.6082],[-3.6268,48.6117],[-3.6246,48.6153],[-3.6199,48.6165],[-3.6201,48.6131],[-3.6225,48.6133],[-3.6243,48.6106],[-3.6260,48.6107],[-3.6282,48.6079],[-3.6324,48.6061],[-3.6328,48.6050],[-3.6306,48.6044],[-3.6339,48.6034],[-3.6321,48.5981],[-3.6272,48.5981],[-3.6259,48.5995],[-3.6300,48.6013],[-3.6302,48.6028],[-3.6286,48.6032],[-3.6284,48.6060],[-3.6266,48.6072],[-3.6250,48.6066],[-3.6260,48.6034],[-3.6221,48.6004],[-3.6229,48.5982],[-3.6212,48.5980],[-3.6232,48.5973],[-3.6240,48.5941],[-3.6257,48.5950],[-3.6264,48.5918],[-3.6303,48.5916],[-3.6293,48.5888],[-3.6323,48.5896],[-3.6333,48.5841],[-3.6304,48.5825],[-3.6325,48.5811],[-3.6310,48.5789],[-3.6335,48.5828],[-3.6355,48.5824],[-3.6346,48.5833],[-3.6372,48.5838],[-3.6367,48.5856],[-3.6341,48.5836],[-3.6361,48.5881],[-3.6351,48.5891],[-3.6367,48.5888],[-3.6347,48.5906],[-3.6379,48.5875],[-3.6407,48.5891],[-3.6393,48.5907],[-3.6412,48.5905],[-3.6441,48.5870],[-3.6442,48.5789],[-3.6348,48.5740],[-3.6377,48.5668],[-3.6383,48.5731],[-3.6420,48.5738],[-3.6422,48.5727],[-3.6406,48.5727]]]}},{"type":"Feature","properties":{"name":"Bois de Broons"},"geometry":{"type":"Polygon","coordinates":[[[-2.2734,48.2979],[-2.2726,48.2958],[-2.2713,48.2967],[-2.2687,48.2956],[-2.2703,48.2939],[-2.2711,48.2945],[-2.2706,48.2934],[-2.2666,48.2948],[-2.2619,48.2924],[-2.2629,48.2912],[-2.2603,48.2908],[-2.2588,48.2862],[-2.2597,48.2857],[-2.2584,48.2852],[-2.2614,48.2831],[-2.2595,48.2836],[-2.2579,48.2819],[-2.2542,48.2812],[-2.2512,48.2823],[-2.2498,48.2800],[-2.2502,48.2728],[-2.2529,48.2741],[-2.2528,48.2758],[-2.2548,48.2760],[-2.2553,48.2774],[-2.2554,48.2763],[-2.2576,48.2774],[-2.2587,48.2757],[-2.2611,48.2761],[-2.2613,48.2752],[-2.2623,48.2762],[-2.2622,48.2752],[-2.2679,48.2740],[-2.2668,48.2766],[-2.2636,48.2761],[-2.2606,48.2798],[-2.2639,48.2819],[-2.2612,48.2838],[-2.2609,48.2859],[-2.2658,48.2881],[-2.2676,48.2912],[-2.2732,48.2910],[-2.2767,48.2947],[-2.2821,48.2949],[-2.2825,48.2894],[-2.2860,48.2883],[-2.2862,48.2871],[-2.2825,48.2873],[-2.2824,48.2858],[-2.2859,48.2856],[-2.2846,48.2843],[-2.2920,48.2817],[-2.2919,48.2806],[-2.2941,48.2811],[-2.2942,48.2822],[-2.2874,48.2844],[-2.2866,48.2857],[-2.2899,48.2850],[-2.2924,48.2874],[-2.2877,48.2870],[-2.2870,48.2889],[-2.2830,48.2905],[-2.2831,48.2931],[-2.2875,48.2936],[-2.2837,48.2938],[-2.2846,48.2963],[-2.2838,48.2967],[-2.2855,48.2972],[-2.2809,48.2969],[-2.2823,48.2979],[-2.2797,48.2980],[-2.2764,48.3006],[-2.2749,48.2997],[-2.2753,48.2984],[-2.2734,48.2979]]]}},{"type":"Feature","properties":{"name":"Forêt de Beaucours"},"geometry":{"type":"Polygon","coordinates":[[[-3.1274,48.3374],[-3.1277,48.3351],[-3.1263,48.3344],[-3.1257,48.3318],[-3.1292,48.3314],[-3.1306,48.3291],[-3.1332,48.3285],[-3.1345,48.3265],[-3.1312,48.3267],[-3.1329,48.3248],[-3.1369,48.3253],[-3.1379,48.3277],[-3.1426,48.3267],[-3.1413,48.3225],[-3.1419,48.3219],[-3.1443,48.3237],[-3.1449,48.3226],[-3.1419,48.3170],[-3.1439,48.3170],[-3.1423,48.3177],[-3.1441,48.3186],[-3.1445,48.3204],[-3.1504,48.3192],[-3.1476,48.3206],[-3.1489,48.3238],[-3.1532,48.3221],[-3.1542,48.3235],[-3.1513,48.3249],[-3.1486,48.3289],[-3.1496,48.3336],[-3.1397,48.3334],[-3.1407,48.3357],[-3.1369,48.3354],[-3.1368,48.3364],[-3.1357,48.3354],[-3.1324,48.3379],[-3.1284,48.3380],[-3.1318,48.3429],[-3.1304,48.3439],[-3.1282,48.3412],[-3.1274,48.3374]]]}},{"type":"Feature","properties":{"name":"Forêt départementale de Beffou"},"geometry":{"type":"Polygon","coordinates":[[[-3.5002,48.5077],[-3.5056,48.5067],[-3.5068,48.5047],[-3.4993,48.5031],[-3.5047,48.5035],[-3.5048,48.4996],[-3.4976,48.4975],[-3.4999,48.4961],[-3.4970,48.4945],[-3.5030,48.4896],[-3.5061,48.4889],[-3.5033,48.4865],[-3.5089,48.4857],[-3.5088,48.4870],[-3.5104,48.4876],[-3.5104,48.4860],[-3.5133,48.4861],[-3.5132,48.4880],[-3.5148,48.4879],[-3.5158,48.4855],[-3.5122,48.4829],[-3.5106,48.4841],[-3.5111,48.4822],[-3.5086,48.4807],[-3.5077,48.4764],[-3.5107,48.4778],[-3.5142,48.4763],[-3.5165,48.4767],[-3.5204,48.4805],[-3.5181,48.4807],[-3.5185,48.4844],[-3.5224,48.4842],[-3.5227,48.4858],[-3.5259,48.4878],[-3.5265,48.4900],[-3.5230,48.4915],[-3.5224,48.4945],[-3.5237,48.4963],[-3.5217,48.4960],[-3.5211,48.4935],[-3.5197,48.4931],[-3.5146,48.4933],[-3.5145,48.4953],[-3.5126,48.4951],[-3.5115,48.4926],[-3.5098,48.4929],[-3.5104,48.4941],[-3.5063,48.4964],[-3.5100,48.4972],[-3.5066,48.4978],[-3.5060,48.4997],[-3.5087,48.5030],[-3.5085,48.5068],[-3.5146,48.5019],[-3.5126,48.5010],[-3.5141,48.5008],[-3.5128,48.4990],[-3.5172,48.5004],[-3.5154,48.5017],[-3.5148,48.5047],[-3.5176,48.5038],[-3.5244,48.5045],[-3.5248,48.5073],[-3.5164,48.5077],[-3.5152,48.5063],[-3.5109,48.5074],[-3.5112,48.5094],[-3.5057,48.5101],[-3.5049,48.5101],[-3.5059,48.5084],[-3.5002,48.5077]]]}},{"type":"Feature","properties":{"name":"Bois de Pommerit"},"geometry":{"type":"Polygon","coordinates":[[[-3.1180,48.6038],[-3.1159,48.6016],[-3.1138,48.6038],[-3.1121,48.6031],[-3.1070,48.6056],[-3.1066,48.6046],[-3.1083,48.6041],[-3.1075,48.6024],[-3.1054,48.6036],[-3.1039,48.6007],[-3.1042,48.5995],[-3.1073,48.6013],[-3.1083,48.5988],[-3.1108,48.6006],[-3.1175,48.5961],[-3.1222,48.5954],[-3.1180,48.5930],[-3.1187,48.5892],[-3.1171,48.5874],[-3.1152,48.5890],[-3.1123,48.5888],[-3.1109,48.5863],[-3.1094,48.5874],[-3.1084,48.5861],[-3.1100,48.5852],[-3.1108,48.5861],[-3.1132,48.5841],[-3.1141,48.5872],[-3.1157,48.5866],[-3.1141,48.5861],[-3.1144,48.5845],[-3.1171,48.5842],[-3.1128,48.5821],[-3.1150,48.5822],[-3.1151,48.5807],[-3.1177,48.5829],[-3.1190,48.5819],[-3.1166,48.5811],[-3.1198,48.5818],[-3.1196,48.5798],[-3.1207,48.5822],[-3.1174,48.5842],[-3.1198,48.5853],[-3.1220,48.5838],[-3.1208,48.5831],[-3.1246,48.5811],[-3.1245,48.5797],[-3.1231,48.5794],[-3.1223,48.5809],[-3.1212,48.5792],[-3.1197,48.5798],[-3.1202,48.5780],[-3.1220,48.5772],[-3.1203,48.5763],[-3.1212,48.5761],[-3.1202,48.5746],[-3.1157,48.5728],[-3.1148,48.5714],[-3.1156,48.5710],[-3.1222,48.5741],[-3.1217,48.5718],[-3.1228,48.5732],[-3.1250,48.5727],[-3.1237,48.5753],[-3.1245,48.5759],[-3.1289,48.5742],[-3.1232,48.5768],[-3.1246,48.5788],[-3.1278,48.5779],[-3.1263,48.5790],[-3.1280,48.5816],[-3.1295,48.5814],[-3.1268,48.5818],[-3.1254,48.5789],[-3.1244,48.5824],[-3.1260,48.5817],[-3.1286,48.5859],[-3.1308,48.5853],[-3.1292,48.5867],[-3.1304,48.5871],[-3.1271,48.5898],[-3.1313,48.5902],[-3.1324,48.5923],[-3.1337,48.5919],[-3.1319,48.5949],[-3.1374,48.5936],[-3.1356,48.5962],[-3.1391,48.5998],[-3.1374,48.6003],[-3.1391,48.6047],[-3.1317,48.6040],[-3.1302,48.6026],[-3.1270,48.6032],[-3.1262,48.6039],[-3.1272,48.6047],[-3.1257,48.6055],[-3.1286,48.6070],[-3.1271,48.6083],[-3.1241,48.6056],[-3.1208,48.6060],[-3.1180,48.6038]]]}},{"type":"Feature","properties":{"name":"Le Bois du Pouldu"},"geometry":{"type":"Polygon","coordinates":[[[-3.1703,48.2234],[-3.1666,48.2223],[-3.1684,48.2219],[-3.1684,48.2209],[-3.1638,48.2221],[-3.1636,48.2210],[-3.1591,48.2203],[-3.1681,48.2187],[-3.1703,48.2194],[-3.1715,48.2176],[-3.1707,48.2162],[-3.1617,48.2156],[-3.1571,48.2120],[-3.1444,48.2140],[-3.1473,48.2163],[-3.1376,48.2194],[-3.1274,48.2189],[-3.1273,48.2176],[-3.1360,48.2176],[-3.1372,48.2186],[-3.1390,48.2167],[-3.1372,48.2163],[-3.1440,48.2162],[-3.1353,48.2156],[-3.1341,48.2146],[-3.1427,48.2144],[-3.1333,48.2136],[-3.1308,48.2115],[-3.1330,48.2101],[-3.1368,48.2101],[-3.1422,48.2055],[-3.1476,48.2092],[-3.1494,48.2076],[-3.1466,48.2054],[-3.1446,48.2056],[-3.1442,48.2037],[-3.1511,48.2040],[-3.1528,48.2015],[-3.1529,48.2023],[-3.1546,48.2017],[-3.1553,48.1997],[-3.1627,48.2015],[-3.1635,48.2027],[-3.1621,48.2046],[-3.1682,48.2038],[-3.1682,48.2013],[-3.1666,48.2009],[-3.1679,48.1973],[-3.1607,48.1939],[-3.1626,48.1922],[-3.1607,48.1907],[-3.1637,48.1907],[-3.1673,48.1959],[-3.1696,48.1923],[-3.1662,48.1910],[-3.1680,48.1892],[-3.1713,48.1896],[-3.1719,48.1879],[-3.1712,48.1865],[-3.1661,48.1848],[-3.1691,48.1855],[-3.1694,48.1843],[-3.1725,48.1835],[-3.1735,48.1838],[-3.1721,48.1850],[-3.1739,48.1858],[-3.1731,48.1892],[-3.1754,48.1905],[-3.1758,48.1922],[-3.1730,48.1932],[-3.1758,48.1967],[-3.1773,48.1967],[-3.1775,48.1985],[-3.1759,48.1984],[-3.1766,48.2000],[-3.1779,48.2008],[-3.1807,48.1992],[-3.1821,48.2005],[-3.1767,48.2025],[-3.1783,48.2031],[-3.1771,48.2041],[-3.1791,48.2052],[-3.1772,48.2060],[-3.1789,48.2077],[-3.1776,48.2096],[-3.1782,48.2107],[-3.1722,48.2105],[-3.1755,48.2171],[-3.1727,48.2177],[-3.1725,48.2198],[-3.1705,48.2200],[-3.1717,48.2233],[-3.1703,48.2234]]]}},{"type":"Feature","properties":{"name":"Koad Toullaeron"},"geometry":{"type":"Polygon","coordinates":[[[-3.6558,48.1795],[-3.6546,48.1791],[-3.6557,48.1782],[-3.6534,48.1753],[-3.6499,48.1748],[-3.6538,48.1769],[-3.6526,48.1776],[-3.6415,48.1736],[-3.6401,48.1737],[-3.6395,48.1753],[-3.6350,48.1733],[-3.6338,48.1707],[-3.6369,48.1697],[-3.6364,48.1661],[-3.6302,48.1683],[-3.6294,48.1656],[-3.6264,48.1647],[-3.6301,48.1638],[-3.6310,48.1622],[-3.6291,48.1596],[-3.6245,48.1595],[-3.6392,48.1584],[-3.6313,48.1602],[-3.6333,48.1645],[-3.6359,48.1652],[-3.6431,48.1617],[-3.6507,48.1649],[-3.6530,48.1679],[-3.6547,48.1678],[-3.6559,48.1662],[-3.6614,48.1668],[-3.6625,48.1710],[-3.6590,48.1725],[-3.6608,48.1743],[-3.6603,48.1759],[-3.6627,48.1776],[-3.6589,48.1767],[-3.6566,48.1778],[-3.6575,48.1791],[-3.6558,48.1795]]]}},{"type":"Feature","properties":{"name":"Bois d\u0027en haut"},"geometry":{"type":"Polygon","coordinates":[[[-2.5355,48.1520],[-2.5391,48.1516],[-2.5403,48.1501],[-2.5429,48.1508],[-2.5439,48.1492],[-2.5395,48.1460],[-2.5360,48.1477],[-2.5367,48.1494],[-2.5343,48.1509],[-2.5327,48.1490],[-2.5337,48.1479],[-2.5311,48.1478],[-2.5292,48.1445],[-2.5264,48.1465],[-2.5231,48.1456],[-2.5226,48.1465],[-2.5229,48.1446],[-2.5149,48.1431],[-2.5175,48.1406],[-2.5146,48.1376],[-2.5151,48.1361],[-2.5193,48.1342],[-2.5204,48.1352],[-2.5313,48.1338],[-2.5347,48.1394],[-2.5411,48.1416],[-2.5376,48.1440],[-2.5415,48.1441],[-2.5462,48.1477],[-2.5483,48.1466],[-2.5496,48.1473],[-2.5449,48.1508],[-2.5508,48.1501],[-2.5367,48.1530],[-2.5355,48.1520]]]}},{"type":"Feature","properties":{"name":"Forêt de Quénécan"},"geometry":{"type":"Polygon","coordinates":[[[-3.0786,48.2090],[-3.0839,48.2082],[-3.0853,48.2033],[-3.0934,48.2013],[-3.0957,48.2022],[-3.0973,48.2056],[-3.1058,48.2050],[-3.1077,48.2081],[-3.1110,48.2052],[-3.1156,48.2070],[-3.1167,48.2061],[-3.1161,48.2042],[-3.1054,48.2027],[-3.1039,48.2015],[-3.1021,48.1953],[-3.0900,48.1952],[-3.0902,48.1985],[-3.0885,48.1989],[-3.0880,48.1963],[-3.0873,48.1984],[-3.0857,48.1988],[-3.0855,48.1971],[-3.0879,48.1963],[-3.0854,48.1969],[-3.0854,48.1990],[-3.0816,48.2017],[-3.0795,48.2005],[-3.0784,48.1970],[-3.0806,48.1955],[-3.0784,48.1933],[-3.0767,48.1930],[-3.0732,48.1957],[-3.0652,48.1961],[-3.0667,48.1991],[-3.0703,48.1997],[-3.0693,48.2041],[-3.0737,48.2051],[-3.0786,48.2090]]]}},{"type":"Feature","properties":{"name":"Forêt de Quénécan"},"geometry":{"type":"Polygon","coordinates":[[[-3.0779,48.1741],[-3.0804,48.1717],[-3.0767,48.1694],[-3.0759,48.1698],[-3.0768,48.1717],[-3.0740,48.1713],[-3.0749,48.1705],[-3.0734,48.1696],[-3.0748,48.1676],[-3.0822,48.1669],[-3.0828,48.1681],[-3.0849,48.1671],[-3.0858,48.1642],[-3.0892,48.1642],[-3.0893,48.1629],[-3.0910,48.1635],[-3.0929,48.1623],[-3.0947,48.1644],[-3.0993,48.1619],[-3.1026,48.1633],[-3.1109,48.1635],[-3.1109,48.1614],[-3.1139,48.1581],[-3.1119,48.1569],[-3.1077,48.1569],[-3.1060,48.1590],[-3.1032,48.1586],[-3.1007,48.1562],[-3.0981,48.1566],[-3.0967,48.1539],[-3.0980,48.1528],[-3.0920,48.1498],[-3.0883,48.1497],[-3.0910,48.1514],[-3.0883,48.1517],[-3.0888,48.1528],[-3.0852,48.1526],[-3.0791,48.1547],[-3.0681,48.1543],[-3.0689,48.1569],[-3.0664,48.1598],[-3.0677,48.1614],[-3.0651,48.1619],[-3.0676,48.1642],[-3.0623,48.1629],[-3.0615,48.1642],[-3.0627,48.1654],[-3.0571,48.1662],[-3.0582,48.1680],[-3.0622,48.1672],[-3.0636,48.1685],[-3.0652,48.1735],[-3.0657,48.1686],[-3.0674,48.1675],[-3.0681,48.1712],[-3.0737,48.1744],[-3.0779,48.1741]]]}},{"type":"Feature","properties":{"name":"Le Grand Bois"},"geometry":{"type":"Polygon","coordinates":[[[-3.2377,48.0980],[-3.2348,48.0960],[-3.2385,48.0953],[-3.2433,48.0968],[-3.2443,48.0964],[-3.2431,48.0953],[-3.2457,48.0938],[-3.2502,48.0954],[-3.2496,48.0930],[-3.2535,48.0919],[-3.2544,48.0942],[-3.2589,48.0937],[-3.2616,48.0968],[-3.2662,48.0961],[-3.2692,48.0985],[-3.2686,48.0969],[-3.2795,48.0955],[-3.2804,48.0980],[-3.2831,48.0989],[-3.2809,48.0997],[-3.2778,48.0969],[-3.2751,48.0973],[-3.2761,48.0996],[-3.2728,48.1002],[-3.2732,48.1018],[-3.2761,48.1028],[-3.2669,48.1066],[-3.2546,48.1060],[-3.2540,48.1053],[-3.2577,48.1036],[-3.2555,48.1034],[-3.2501,48.1052],[-3.2493,48.0999],[-3.2448,48.0995],[-3.2417,48.1009],[-3.2420,48.0990],[-3.2377,48.0980]]]}},{"type":"Feature","properties":{"name":"Forêt de Coëtquen"},"geometry":{"type":"Polygon","coordinates":[[[-1.9591,48.4615],[-1.9620,48.4565],[-1.9610,48.4548],[-1.9591,48.4587],[-1.9560,48.4587],[-1.9552,48.4615],[-1.9507,48.4616],[-1.9504,48.4604],[-1.9469,48.4612],[-1.9365,48.4570],[-1.9433,48.4559],[-1.9416,48.4548],[-1.9446,48.4531],[-1.9427,48.4526],[-1.9445,48.4525],[-1.9445,48.4501],[-1.9426,48.4488],[-1.9436,48.4492],[-1.9444,48.4462],[-1.9415,48.4456],[-1.9468,48.4464],[-1.9507,48.4426],[-1.9493,48.4401],[-1.9506,48.4400],[-1.9514,48.4426],[-1.9517,48.4398],[-1.9561,48.4366],[-1.9587,48.4386],[-1.9594,48.4376],[-1.9591,48.4388],[-1.9613,48.4380],[-1.9606,48.4363],[-1.9621,48.4368],[-1.9649,48.4340],[-1.9648,48.4357],[-1.9664,48.4352],[-1.9652,48.4388],[-1.9670,48.4401],[-1.9671,48.4423],[-1.9715,48.4427],[-1.9706,48.4385],[-1.9754,48.4364],[-1.9733,48.4340],[-1.9749,48.4339],[-1.9770,48.4359],[-1.9806,48.4336],[-1.9791,48.4354],[-1.9806,48.4363],[-1.9788,48.4359],[-1.9778,48.4383],[-1.9784,48.4397],[-1.9819,48.4384],[-1.9813,48.4409],[-1.9799,48.4396],[-1.9790,48.4412],[-1.9793,48.4394],[-1.9764,48.4411],[-1.9794,48.4422],[-1.9794,48.4445],[-1.9752,48.4425],[-1.9739,48.4463],[-1.9656,48.4466],[-1.9655,48.4484],[-1.9675,48.4478],[-1.9743,48.4516],[-1.9721,48.4516],[-1.9726,48.4529],[-1.9709,48.4535],[-1.9659,48.4520],[-1.9658,48.4536],[-1.9636,48.4539],[-1.9653,48.4543],[-1.9634,48.4552],[-1.9673,48.4554],[-1.9661,48.4566],[-1.9633,48.4563],[-1.9628,48.4577],[-1.9639,48.4578],[-1.9621,48.4579],[-1.9626,48.4599],[-1.9599,48.4617],[-1.9606,48.4628],[-1.9591,48.4643],[-1.9545,48.4641],[-1.9581,48.4636],[-1.9591,48.4615]]]}},{"type":"Feature","properties":{"name":"Koad Rohan"},"geometry":{"type":"Polygon","coordinates":[[[-3.1720,48.4366],[-3.1676,48.4340],[-3.1687,48.4331],[-3.1680,48.4321],[-3.1649,48.4318],[-3.1632,48.4293],[-3.1739,48.4281],[-3.1736,48.4293],[-3.1751,48.4294],[-3.1758,48.4277],[-3.1784,48.4281],[-3.1789,48.4262],[-3.1832,48.4259],[-3.1837,48.4244],[-3.1822,48.4235],[-3.1837,48.4230],[-3.1828,48.4211],[-3.1855,48.4233],[-3.1882,48.4202],[-3.1900,48.4200],[-3.1863,48.4237],[-3.1891,48.4264],[-3.1876,48.4265],[-3.1876,48.4276],[-3.1899,48.4288],[-3.1947,48.4275],[-3.1951,48.4284],[-3.1928,48.4298],[-3.1950,48.4302],[-3.1944,48.4336],[-3.1960,48.4334],[-3.1974,48.4246],[-3.1929,48.4239],[-3.1935,48.4230],[-3.1925,48.4225],[-3.1945,48.4212],[-3.1934,48.4197],[-3.1979,48.4204],[-3.1985,48.4222],[-3.2002,48.4207],[-3.1989,48.4202],[-3.1989,48.4182],[-3.2064,48.4190],[-3.2025,48.4220],[-3.2025,48.4235],[-3.2003,48.4240],[-3.2035,48.4242],[-3.2031,48.4250],[-3.1984,48.4263],[-3.1977,48.4312],[-3.1988,48.4350],[-3.1978,48.4360],[-3.1970,48.4354],[-3.1945,48.4371],[-3.1948,48.4357],[-3.1903,48.4363],[-3.1867,48.4406],[-3.1880,48.4373],[-3.1846,48.4373],[-3.1884,48.4355],[-3.1887,48.4330],[-3.1876,48.4328],[-3.1859,48.4353],[-3.1845,48.4342],[-3.1843,48.4353],[-3.1838,48.4342],[-3.1807,48.4354],[-3.1806,48.4371],[-3.1785,48.4377],[-3.1801,48.4361],[-3.1796,48.4348],[-3.1772,48.4352],[-3.1778,48.4362],[-3.1765,48.4366],[-3.1736,48.4357],[-3.1734,48.4378],[-3.1720,48.4366]]]}},{"type":"Feature","properties":{"name":"Bois de Kerlévénez"},"geometry":{"type":"Polygon","coordinates":[[[-3.2479,48.3009],[-3.2494,48.3019],[-3.2437,48.3027],[-3.2475,48.3035],[-3.2485,48.3061],[-3.2485,48.3071],[-3.2455,48.3065],[-3.2479,48.3089],[-3.2451,48.3120],[-3.2476,48.3122],[-3.2475,48.3134],[-3.2511,48.3126],[-3.2523,48.3147],[-3.2541,48.3151],[-3.2536,48.3158],[-3.2509,48.3150],[-3.2507,48.3134],[-3.2472,48.3143],[-3.2464,48.3125],[-3.2419,48.3117],[-3.2434,48.3106],[-3.2382,48.3078],[-3.2367,48.3048],[-3.2350,48.3055],[-3.2357,48.3065],[-3.2341,48.3074],[-3.2347,48.3098],[-3.2329,48.3120],[-3.2310,48.3120],[-3.2304,48.3095],[-3.2274,48.3099],[-3.2259,48.3084],[-3.2235,48.3100],[-3.2270,48.3140],[-3.2297,48.3134],[-3.2298,48.3117],[-3.2315,48.3143],[-3.2332,48.3135],[-3.2335,48.3162],[-3.2308,48.3155],[-3.2301,48.3164],[-3.2320,48.3190],[-3.2296,48.3198],[-3.2244,48.3147],[-3.2241,48.3156],[-3.2190,48.3138],[-3.2178,48.3159],[-3.2167,48.3155],[-3.2178,48.3123],[-3.2144,48.3132],[-3.2134,48.3106],[-3.2105,48.3115],[-3.2112,48.3142],[-3.2094,48.3129],[-3.2076,48.3145],[-3.2043,48.3146],[-3.2051,48.3113],[-3.2020,48.3120],[-3.1978,48.3102],[-3.1967,48.3121],[-3.1941,48.3111],[-3.1935,48.3121],[-3.1923,48.3110],[-3.1899,48.3115],[-3.1943,48.3098],[-3.1930,48.3085],[-3.1955,48.3102],[-3.2049,48.3081],[-3.2030,48.3076],[-3.2048,48.3076],[-3.2049,48.3066],[-3.2007,48.3057],[-3.2004,48.3046],[-3.2072,48.3076],[-3.2147,48.3067],[-3.2139,48.3053],[-3.2175,48.3049],[-3.2188,48.3079],[-3.2175,48.3088],[-3.2204,48.3099],[-3.2197,48.3081],[-3.2214,48.3058],[-3.2263,48.3064],[-3.2232,48.3042],[-3.2273,48.3045],[-3.2301,48.3066],[-3.2328,48.3048],[-3.2398,48.3041],[-3.2327,48.3010],[-3.2300,48.3009],[-3.2303,48.2998],[-3.2344,48.3018],[-3.2353,48.3008],[-3.2389,48.3018],[-3.2479,48.3009]]]}},{"type":"Feature","properties":{"name":"Forêt de Coat-an-Hay"},"geometry":{"type":"Polygon","coordinates":[[[-3.3911,48.5084],[-3.3969,48.5090],[-3.4000,48.5127],[-3.3986,48.5158],[-3.4006,48.5155],[-3.4014,48.5181],[-3.4032,48.5165],[-3.4087,48.5171],[-3.4084,48.5184],[-3.4075,48.5175],[-3.4056,48.5181],[-3.4098,48.5210],[-3.4046,48.5205],[-3.4047,48.5189],[-3.4021,48.5212],[-3.4021,48.5189],[-3.3943,48.5231],[-3.3913,48.5220],[-3.3885,48.5230],[-3.3886,48.5214],[-3.3859,48.5192],[-3.3868,48.5180],[-3.3799,48.5152],[-3.3763,48.5166],[-3.3737,48.5157],[-3.3697,48.5172],[-3.3705,48.5184],[-3.3601,48.5195],[-3.3579,48.5181],[-3.3567,48.5188],[-3.3629,48.5216],[-3.3641,48.5202],[-3.3670,48.5218],[-3.3683,48.5198],[-3.3701,48.5209],[-3.3726,48.5198],[-3.3742,48.5245],[-3.3772,48.5249],[-3.3711,48.5261],[-3.3731,48.5276],[-3.3698,48.5300],[-3.3609,48.5267],[-3.3598,48.5296],[-3.3630,48.5297],[-3.3591,48.5306],[-3.3612,48.5315],[-3.3586,48.5324],[-3.3589,48.5339],[-3.3613,48.5349],[-3.3576,48.5360],[-3.3613,48.5358],[-3.3619,48.5373],[-3.3566,48.5368],[-3.3576,48.5339],[-3.3480,48.5317],[-3.3457,48.5273],[-3.3381,48.5277],[-3.3366,48.5244],[-3.3310,48.5258],[-3.3303,48.5245],[-3.3268,48.5252],[-3.3287,48.5269],[-3.3316,48.5270],[-3.3319,48.5286],[-3.3282,48.5315],[-3.3215,48.5304],[-3.3145,48.5308],[-3.3118,48.5297],[-3.3128,48.5283],[-3.3082,48.5249],[-3.3214,48.5232],[-3.3238,48.5205],[-3.3233,48.5181],[-3.3349,48.5159],[-3.3342,48.5150],[-3.3361,48.5133],[-3.3431,48.5107],[-3.3471,48.5109],[-3.3459,48.5098],[-3.3526,48.5105],[-3.3535,48.5093],[-3.3516,48.5083],[-3.3584,48.5048],[-3.3607,48.5057],[-3.3607,48.5069],[-3.3572,48.5081],[-3.3608,48.5094],[-3.3667,48.5083],[-3.3702,48.5090],[-3.3723,48.5077],[-3.3711,48.5089],[-3.3721,48.5095],[-3.3745,48.5086],[-3.3724,48.5073],[-3.3753,48.5058],[-3.3802,48.5072],[-3.3805,48.5082],[-3.3849,48.5077],[-3.3861,48.5049],[-3.3876,48.5062],[-3.3870,48.5069],[-3.3900,48.5067],[-3.3911,48.5083],[-3.3934,48.5078],[-3.3911,48.5084]]]}},{"type":"Feature","properties":{"name":"Forêt départementale d\u0027Avaugour-Bois Meur"},"geometry":{"type":"Polygon","coordinates":[[[-3.1085,48.4900],[-3.1106,48.4959],[-3.1079,48.4978],[-3.1056,48.4950],[-3.1073,48.4980],[-3.1035,48.4977],[-3.1031,48.4994],[-3.1019,48.4981],[-3.0987,48.4990],[-3.1012,48.5029],[-3.0962,48.5042],[-3.0899,48.5040],[-3.0906,48.5031],[-3.0895,48.5014],[-3.0888,48.5035],[-3.0876,48.5033],[-3.0819,48.4956],[-3.0759,48.4937],[-3.0757,48.4911],[-3.0731,48.4920],[-3.0729,48.4909],[-3.0749,48.4906],[-3.0747,48.4897],[-3.0782,48.4903],[-3.0795,48.4892],[-3.0737,48.4898],[-3.0731,48.4877],[-3.0701,48.4867],[-3.0637,48.4865],[-3.0628,48.4880],[-3.0587,48.4857],[-3.0629,48.4884],[-3.0614,48.4890],[-3.0589,48.4872],[-3.0542,48.4866],[-3.0541,48.4856],[-3.0514,48.4856],[-3.0488,48.4827],[-3.0423,48.4816],[-3.0411,48.4802],[-3.0375,48.4808],[-3.0359,48.4838],[-3.0348,48.4837],[-3.0370,48.4810],[-3.0347,48.4805],[-3.0343,48.4822],[-3.0315,48.4813],[-3.0301,48.4843],[-3.0258,48.4832],[-3.0258,48.4818],[-3.0212,48.4826],[-3.0202,48.4811],[-3.0204,48.4824],[-3.0191,48.4823],[-3.0196,48.4805],[-3.0178,48.4807],[-3.0194,48.4801],[-3.0155,48.4781],[-3.0158,48.4765],[-3.0121,48.4722],[-3.0085,48.4701],[-3.0138,48.4644],[-3.0099,48.4635],[-3.0134,48.4636],[-3.0140,48.4602],[-3.0204,48.4558],[-3.0216,48.4535],[-3.0251,48.4562],[-3.0282,48.4562],[-3.0316,48.4584],[-3.0352,48.4551],[-3.0366,48.4556],[-3.0390,48.4540],[-3.0387,48.4530],[-3.0360,48.4533],[-3.0403,48.4522],[-3.0430,48.4534],[-3.0406,48.4532],[-3.0403,48.4555],[-3.0365,48.4567],[-3.0346,48.4592],[-3.0309,48.4596],[-3.0321,48.4641],[-3.0305,48.4660],[-3.0328,48.4657],[-3.0318,48.4667],[-3.0343,48.4672],[-3.0358,48.4656],[-3.0365,48.4689],[-3.0399,48.4677],[-3.0383,48.4670],[-3.0403,48.4665],[-3.0427,48.4679],[-3.0418,48.4689],[-3.0441,48.4723],[-3.0461,48.4719],[-3.0445,48.4705],[-3.0442,48.4678],[-3.0499,48.4694],[-3.0534,48.4715],[-3.0520,48.4734],[-3.0546,48.4720],[-3.0537,48.4733],[-3.0554,48.4738],[-3.0552,48.4748],[-3.0596,48.4744],[-3.0639,48.4761],[-3.0630,48.4773],[-3.0643,48.4777],[-3.0634,48.4789],[-3.0642,48.4793],[-3.0688,48.4796],[-3.0676,48.4786],[-3.0682,48.4763],[-3.0719,48.4764],[-3.0747,48.4800],[-3.0787,48.4810],[-3.0757,48.4823],[-3.0785,48.4828],[-3.0796,48.4849],[-3.0730,48.4850],[-3.0895,48.4854],[-3.0950,48.4832],[-3.1037,48.4841],[-3.1028,48.4832],[-3.1048,48.4843],[-3.1038,48.4862],[-3.1067,48.4852],[-3.1120,48.4885],[-3.1145,48.4873],[-3.1166,48.4899],[-3.1131,48.4897],[-3.1178,48.4907],[-3.1085,48.4900]]]}},{"type":"Feature","properties":{"name":"Forêt domaniale de Montauban De Bretagne"},"geometry":{"type":"Polygon","coordinates":[[[-2.0792,48.2171],[-2.0844,48.2177],[-2.0835,48.2196],[-2.0845,48.2198],[-2.0843,48.2230],[-2.0823,48.2235],[-2.0824,48.2250],[-2.0867,48.2236],[-2.0903,48.2320],[-2.0945,48.2328],[-2.0935,48.2356],[-2.0870,48.2336],[-2.0830,48.2286],[-2.0844,48.2267],[-2.0789,48.2250],[-2.0795,48.2231],[-2.0751,48.2218],[-2.0643,48.2212],[-2.0617,48.2226],[-2.0542,48.2227],[-2.0520,48.2241],[-2.0411,48.2248],[-2.0358,48.2264],[-2.0195,48.2233],[-2.0131,48.2198],[-2.0128,48.2177],[-2.0145,48.2163],[-2.0094,48.2122],[-2.0105,48.2110],[-2.0097,48.2100],[-2.0002,48.2087],[-1.9997,48.2067],[-2.0018,48.2049],[-2.0077,48.2052],[-2.0103,48.2034],[-2.0252,48.2055],[-2.0248,48.2063],[-2.0281,48.2074],[-2.0275,48.2086],[-2.0311,48.2092],[-2.0284,48.2101],[-2.0278,48.2125],[-2.0262,48.2118],[-2.0249,48.2165],[-2.0266,48.2168],[-2.0261,48.2195],[-2.0325,48.2215],[-2.0421,48.2184],[-2.0459,48.2185],[-2.0464,48.2167],[-2.0477,48.2165],[-2.0523,48.2193],[-2.0545,48.2189],[-2.0547,48.2177],[-2.0632,48.2194],[-2.0710,48.2170],[-2.0753,48.2189],[-2.0792,48.2171]]]}},{"type":"Feature","properties":{"name":"Forêt de Cascadec"},"geometry":{"type":"Polygon","coordinates":[[[-3.6806,48.0103],[-3.6765,48.0127],[-3.6761,48.0101],[-3.6783,48.0110],[-3.6789,48.0102],[-3.6780,48.0092],[-3.6764,48.0098],[-3.6734,48.0051],[-3.6759,48.0054],[-3.6752,48.0046],[-3.6767,48.0018],[-3.6787,48.0010],[-3.6839,48.0066],[-3.6814,48.0016],[-3.6856,48.0003],[-3.6809,48.0013],[-3.6791,47.9981],[-3.6817,47.9968],[-3.6834,47.9985],[-3.6876,47.9993],[-3.6874,47.9979],[-3.6831,47.9970],[-3.6854,47.9966],[-3.6814,47.9928],[-3.6821,47.9918],[-3.6905,48.0026],[-3.6914,48.0013],[-3.6859,47.9955],[-3.6833,47.9904],[-3.6860,47.9894],[-3.6900,47.9902],[-3.6921,47.9889],[-3.6933,47.9898],[-3.6951,47.9882],[-3.6959,47.9907],[-3.6979,47.9920],[-3.6920,47.9938],[-3.6905,47.9920],[-3.6901,47.9957],[-3.6912,47.9937],[-3.6949,47.9954],[-3.6939,47.9960],[-3.6963,47.9978],[-3.6968,47.9962],[-3.6978,47.9980],[-3.6994,47.9967],[-3.6958,47.9943],[-3.6987,47.9942],[-3.7024,47.9989],[-3.7000,48.0009],[-3.6987,47.9998],[-3.6975,48.0009],[-3.6978,47.9991],[-3.6957,47.9997],[-3.6974,48.0015],[-3.6951,48.0012],[-3.6966,48.0022],[-3.6946,48.0020],[-3.6946,48.0036],[-3.6986,48.0056],[-3.6979,48.0087],[-3.6936,48.0083],[-3.6964,48.0071],[-3.6931,48.0061],[-3.6930,48.0049],[-3.6904,48.0081],[-3.6910,48.0103],[-3.6901,48.0087],[-3.6874,48.0102],[-3.6908,48.0107],[-3.6899,48.0118],[-3.6915,48.0131],[-3.6899,48.0136],[-3.6928,48.0150],[-3.6918,48.0158],[-3.6882,48.0147],[-3.6898,48.0162],[-3.6878,48.0163],[-3.6881,48.0188],[-3.6867,48.0181],[-3.6888,48.0211],[-3.6865,48.0189],[-3.6846,48.0204],[-3.6860,48.0179],[-3.6848,48.0191],[-3.6853,48.0175],[-3.6842,48.0170],[-3.6860,48.0136],[-3.6841,48.0146],[-3.6820,48.0115],[-3.6820,48.0143],[-3.6798,48.0137],[-3.6811,48.0129],[-3.6806,48.0103]]]}},{"type":"Feature","properties":{"name":"Bois de Trogorre"},"geometry":{"type":"Polygon","coordinates":[[[-3.4556,48.5242],[-3.4492,48.5253],[-3.4515,48.5246],[-3.4508,48.5223],[-3.4482,48.5213],[-3.4475,48.5224],[-3.4460,48.5221],[-3.4471,48.5234],[-3.4433,48.5239],[-3.4443,48.5224],[-3.4435,48.5219],[-3.4432,48.5240],[-3.4420,48.5236],[-3.4425,48.5245],[-3.4370,48.5296],[-3.4385,48.5246],[-3.4401,48.5245],[-3.4414,48.5213],[-3.4392,48.5211],[-3.4389,48.5187],[-3.4458,48.5163],[-3.4401,48.5146],[-3.4471,48.5106],[-3.4544,48.5101],[-3.4538,48.5084],[-3.4592,48.5095],[-3.4590,48.5071],[-3.4633,48.5051],[-3.4641,48.5056],[-3.4626,48.5071],[-3.4637,48.5080],[-3.4628,48.5099],[-3.4517,48.5153],[-3.4526,48.5170],[-3.4565,48.5183],[-3.4596,48.5166],[-3.4555,48.5219],[-3.4576,48.5214],[-3.4601,48.5236],[-3.4624,48.5211],[-3.4644,48.5233],[-3.4664,48.5226],[-3.4665,48.5214],[-3.4708,48.5223],[-3.4712,48.5212],[-3.4713,48.5239],[-3.4672,48.5242],[-3.4708,48.5260],[-3.4734,48.5229],[-3.4743,48.5240],[-3.4758,48.5236],[-3.4719,48.5255],[-3.4738,48.5262],[-3.4713,48.5264],[-3.4728,48.5273],[-3.4670,48.5284],[-3.4685,48.5299],[-3.4664,48.5282],[-3.4670,48.5294],[-3.4648,48.5294],[-3.4671,48.5304],[-3.4652,48.5302],[-3.4654,48.5323],[-3.4620,48.5261],[-3.4582,48.5266],[-3.4556,48.5242]]]}},{"type":"Feature","properties":{"name":"Forêt de Coatjégu"},"geometry":{"type":"Polygon","coordinates":[[[-2.3691,48.4411],[-2.3688,48.4393],[-2.3698,48.4403],[-2.3705,48.4394],[-2.3685,48.4358],[-2.3685,48.4320],[-2.3777,48.4275],[-2.3825,48.4226],[-2.3885,48.4223],[-2.3891,48.4246],[-2.3933,48.4264],[-2.3917,48.4305],[-2.3933,48.4328],[-2.3995,48.4298],[-2.4020,48.4323],[-2.4029,48.4318],[-2.4035,48.4337],[-2.4033,48.4352],[-2.3995,48.4387],[-2.4001,48.4376],[-2.3991,48.4372],[-2.3876,48.4393],[-2.3877,48.4411],[-2.3928,48.4428],[-2.3875,48.4428],[-2.3876,48.4413],[-2.3839,48.4398],[-2.3834,48.4420],[-2.3796,48.4439],[-2.3819,48.4435],[-2.3838,48.4450],[-2.3819,48.4472],[-2.3802,48.4474],[-2.3796,48.4455],[-2.3749,48.4481],[-2.3735,48.4471],[-2.3774,48.4447],[-2.3774,48.4436],[-2.3691,48.4411]]]}},{"type":"Feature","properties":{"name":"Bois des Mézières"},"geometry":{"type":"Polygon","coordinates":[[[-2.1241,48.3781],[-2.1223,48.3792],[-2.1234,48.3793],[-2.1230,48.3816],[-2.1242,48.3823],[-2.1258,48.3812],[-2.1262,48.3822],[-2.1230,48.3821],[-2.1214,48.3798],[-2.1203,48.3801],[-2.1207,48.3813],[-2.1198,48.3801],[-2.1152,48.3816],[-2.1192,48.3825],[-2.1156,48.3824],[-2.1155,48.3839],[-2.1137,48.3820],[-2.1077,48.3817],[-2.1082,48.3830],[-2.1071,48.3835],[-2.1098,48.3853],[-2.1016,48.3846],[-2.0999,48.3860],[-2.1017,48.3880],[-2.0971,48.3906],[-2.0990,48.3910],[-2.0985,48.3925],[-2.1004,48.3936],[-2.1045,48.3933],[-2.1030,48.3929],[-2.1045,48.3921],[-2.1116,48.3936],[-2.1115,48.3924],[-2.1131,48.3921],[-2.1151,48.3967],[-2.1173,48.3945],[-2.1144,48.3947],[-2.1149,48.3927],[-2.1188,48.3940],[-2.1192,48.3964],[-2.1201,48.3947],[-2.1220,48.3947],[-2.1191,48.3969],[-2.1109,48.3973],[-2.1118,48.3972],[-2.1087,48.3958],[-2.1067,48.3967],[-2.1077,48.3984],[-2.1104,48.3987],[-2.1088,48.3993],[-2.1096,48.3995],[-2.1040,48.3970],[-2.1025,48.3981],[-2.1038,48.4002],[-2.1061,48.4007],[-2.1061,48.4034],[-2.1096,48.4059],[-2.1079,48.4075],[-2.1103,48.4105],[-2.1099,48.4131],[-2.1088,48.4133],[-2.1085,48.4101],[-2.1057,48.4104],[-2.1077,48.4099],[-2.1040,48.4052],[-2.1007,48.4059],[-2.0997,48.4043],[-2.0982,48.4084],[-2.1014,48.4087],[-2.0960,48.4098],[-2.0959,48.4066],[-2.0988,48.4070],[-2.0979,48.4014],[-2.0959,48.4017],[-2.0961,48.4034],[-2.0933,48.4029],[-2.0921,48.4066],[-2.0877,48.4073],[-2.0880,48.4059],[-2.0904,48.4053],[-2.0879,48.4043],[-2.0869,48.4051],[-2.0894,48.4017],[-2.0965,48.3994],[-2.0953,48.3986],[-2.0949,48.3995],[-2.0950,48.3966],[-2.0933,48.3964],[-2.0932,48.3984],[-2.0945,48.3988],[-2.0874,48.3977],[-2.0884,48.4001],[-2.0851,48.3990],[-2.0870,48.3972],[-2.0886,48.3976],[-2.0884,48.3957],[-2.0892,48.3977],[-2.0929,48.3982],[-2.0927,48.3962],[-2.0913,48.3961],[-2.0921,48.3978],[-2.0913,48.3979],[-2.0906,48.3951],[-2.0883,48.3953],[-2.0921,48.3939],[-2.0890,48.3933],[-2.0920,48.3921],[-2.0897,48.3918],[-2.0939,48.3922],[-2.0982,48.3983],[-2.0969,48.4000],[-2.1013,48.4010],[-2.1047,48.4037],[-2.1018,48.4008],[-2.0983,48.3997],[-2.0990,48.3985],[-2.0972,48.3968],[-2.0980,48.3954],[-2.0965,48.3930],[-2.0989,48.3937],[-2.0932,48.3909],[-2.0977,48.3891],[-2.0995,48.3856],[-2.1025,48.3840],[-2.0992,48.3852],[-2.0968,48.3890],[-2.0941,48.3886],[-2.0943,48.3895],[-2.0874,48.3910],[-2.0891,48.3922],[-2.0860,48.3922],[-2.0846,48.3916],[-2.0849,48.3906],[-2.0940,48.3894],[-2.0927,48.3866],[-2.0951,48.3886],[-2.0959,48.3869],[-2.0970,48.3877],[-2.0984,48.3863],[-2.0965,48.3866],[-2.0980,48.3856],[-2.0975,48.3843],[-2.0999,48.3842],[-2.1008,48.3822],[-2.1018,48.3817],[-2.1032,48.3834],[-2.1060,48.3823],[-2.1069,48.3783],[-2.1092,48.3796],[-2.1093,48.3814],[-2.1103,48.3796],[-2.1139,48.3794],[-2.1142,48.3808],[-2.1164,48.3790],[-2.1241,48.3781]]]}},{"type":"Feature","properties":{"name":"Forêt de la Hardouinais"},"geometry":{"type":"Polygon","coordinates":[[[-2.3682,48.1970],[-2.3698,48.1972],[-2.3645,48.2002],[-2.3663,48.2023],[-2.3685,48.2031],[-2.3711,48.2017],[-2.3720,48.2026],[-2.3741,48.2019],[-2.3723,48.2031],[-2.3736,48.2038],[-2.3761,48.2019],[-2.3788,48.2022],[-2.3794,48.2213],[-2.3784,48.2222],[-2.3759,48.2213],[-2.3765,48.2231],[-2.3733,48.2239],[-2.3703,48.2231],[-2.3720,48.2225],[-2.3714,48.2210],[-2.3675,48.2225],[-2.3673,48.2263],[-2.3613,48.2283],[-2.3599,48.2272],[-2.3500,48.2356],[-2.3472,48.2358],[-2.3460,48.2298],[-2.3532,48.2228],[-2.3521,48.2199],[-2.3471,48.2173],[-2.3452,48.2207],[-2.3490,48.2242],[-2.3458,48.2256],[-2.3411,48.2241],[-2.3373,48.2286],[-2.3351,48.2293],[-2.3361,48.2306],[-2.3342,48.2317],[-2.3316,48.2274],[-2.3298,48.2267],[-2.3413,48.2162],[-2.3440,48.2169],[-2.3459,48.2157],[-2.3672,48.2155],[-2.3656,48.2043],[-2.3385,48.2047],[-2.3377,48.2031],[-2.3368,48.2035],[-2.3383,48.1994],[-2.3305,48.1993],[-2.3332,48.1994],[-2.3320,48.1991],[-2.3343,48.1977],[-2.3350,48.1992],[-2.3382,48.1991],[-2.3382,48.1976],[-2.3348,48.1976],[-2.3351,48.1967],[-2.3589,48.1965],[-2.3592,48.2005],[-2.3611,48.2007],[-2.3598,48.1976],[-2.3622,48.1974],[-2.3620,48.1964],[-2.3640,48.1969],[-2.3644,48.2001],[-2.3661,48.1987],[-2.3649,48.1969],[-2.3682,48.1970]]]}},{"type":"Feature","properties":{"name":"Forêt de Lanouée"},"geometry":{"type":"Polygon","coordinates":[[[-2.5708,48.0785],[-2.5727,48.0749],[-2.5772,48.0709],[-2.5779,48.0723],[-2.5800,48.0721],[-2.5795,48.0707],[-2.5815,48.0706],[-2.5810,48.0666],[-2.5833,48.0666],[-2.5818,48.0659],[-2.5821,48.0642],[-2.5884,48.0591],[-2.5892,48.0561],[-2.5906,48.0561],[-2.5879,48.0562],[-2.5885,48.0554],[-2.5872,48.0556],[-2.5869,48.0541],[-2.5830,48.0522],[-2.5888,48.0515],[-2.5880,48.0512],[-2.5893,48.0481],[-2.5921,48.0459],[-2.5884,48.0446],[-2.5865,48.0415],[-2.5884,48.0428],[-2.5900,48.0418],[-2.5910,48.0436],[-2.5945,48.0453],[-2.5957,48.0445],[-2.5968,48.0465],[-2.6005,48.0464],[-2.6007,48.0473],[-2.6130,48.0428],[-2.6149,48.0440],[-2.6193,48.0412],[-2.6183,48.0402],[-2.6194,48.0406],[-2.6225,48.0381],[-2.6217,48.0357],[-2.6243,48.0331],[-2.6268,48.0348],[-2.6277,48.0332],[-2.6306,48.0347],[-2.6286,48.0327],[-2.6309,48.0303],[-2.6334,48.0309],[-2.6313,48.0325],[-2.6316,48.0369],[-2.6382,48.0377],[-2.6407,48.0356],[-2.6404,48.0337],[-2.6367,48.0295],[-2.6350,48.0293],[-2.6394,48.0276],[-2.6413,48.0286],[-2.6482,48.0270],[-2.6457,48.0268],[-2.6467,48.0258],[-2.6481,48.0264],[-2.6486,48.0229],[-2.6461,48.0252],[-2.6464,48.0187],[-2.6439,48.0165],[-2.6438,48.0138],[-2.6410,48.0143],[-2.6393,48.0130],[-2.6379,48.0136],[-2.6388,48.0148],[-2.6376,48.0165],[-2.6358,48.0167],[-2.6355,48.0145],[-2.6327,48.0145],[-2.6330,48.0122],[-2.6257,48.0125],[-2.6207,48.0109],[-2.6229,48.0100],[-2.6246,48.0110],[-2.6277,48.0086],[-2.6256,48.0068],[-2.6247,48.0079],[-2.6229,48.0069],[-2.6200,48.0073],[-2.6194,48.0086],[-2.6174,48.0081],[-2.6200,48.0020],[-2.6161,48.0020],[-2.6164,48.0029],[-2.6145,48.0032],[-2.6139,47.9981],[-2.6080,47.9985],[-2.6090,48.0000],[-2.6067,48.0009],[-2.6107,47.9997],[-2.6107,48.0007],[-2.6096,48.0026],[-2.6077,48.0028],[-2.6081,48.0048],[-2.6054,48.0050],[-2.6081,48.0055],[-2.6083,48.0081],[-2.6118,48.0084],[-2.6118,48.0104],[-2.6094,48.0105],[-2.6034,48.0063],[-2.6027,48.0068],[-2.6085,48.0122],[-2.5935,48.0135],[-2.5932,48.0148],[-2.5880,48.0168],[-2.5903,48.0185],[-2.5911,48.0209],[-2.5879,48.0220],[-2.5879,48.0203],[-2.5851,48.0227],[-2.5811,48.0205],[-2.5820,48.0193],[-2.5769,48.0194],[-2.5766,48.0179],[-2.5756,48.0182],[-2.5759,48.0196],[-2.5732,48.0187],[-2.5693,48.0214],[-2.5642,48.0178],[-2.5691,48.0145],[-2.5656,48.0154],[-2.5666,48.0124],[-2.5600,48.0112],[-2.5581,48.0124],[-2.5557,48.0125],[-2.5553,48.0113],[-2.5522,48.0123],[-2.5514,48.0117],[-2.5525,48.0094],[-2.5500,48.0088],[-2.5439,48.0144],[-2.5317,48.0141],[-2.5302,48.0136],[-2.5315,48.0130],[-2.5309,48.0117],[-2.5245,48.0105],[-2.5233,48.0119],[-2.5240,48.0104],[-2.5189,48.0136],[-2.5173,48.0099],[-2.5190,48.0095],[-2.5177,48.0088],[-2.5149,48.0093],[-2.5179,48.0131],[-2.5094,48.0134],[-2.4994,48.0178],[-2.5042,48.0217],[-2.5056,48.0215],[-2.5073,48.0257],[-2.5102,48.0261],[-2.5125,48.0307],[-2.5106,48.0318],[-2.5160,48.0323],[-2.5164,48.0339],[-2.5181,48.0344],[-2.5168,48.0352],[-2.5200,48.0358],[-2.5176,48.0373],[-2.5189,48.0364],[-2.5199,48.0377],[-2.5210,48.0364],[-2.5220,48.0378],[-2.5227,48.0372],[-2.5241,48.0407],[-2.5232,48.0414],[-2.5268,48.0435],[-2.5257,48.0438],[-2.5297,48.0438],[-2.5316,48.0470],[-2.5329,48.0467],[-2.5336,48.0496],[-2.5322,48.0497],[-2.5326,48.0504],[-2.5377,48.0532],[-2.5359,48.0540],[-2.5346,48.0521],[-2.5352,48.0549],[-2.5337,48.0547],[-2.5349,48.0554],[-2.5399,48.0531],[-2.5466,48.0552],[-2.5453,48.0583],[-2.5424,48.0580],[-2.5446,48.0602],[-2.5449,48.0637],[-2.5496,48.0635],[-2.5505,48.0619],[-2.5629,48.0625],[-2.5670,48.0606],[-2.5682,48.0613],[-2.5694,48.0628],[-2.5682,48.0633],[-2.5683,48.0659],[-2.5606,48.0682],[-2.5635,48.0694],[-2.5639,48.0716],[-2.5615,48.0741],[-2.5611,48.0730],[-2.5595,48.0733],[-2.5601,48.0745],[-2.5647,48.0761],[-2.5634,48.0779],[-2.5610,48.0778],[-2.5601,48.0765],[-2.5603,48.0778],[-2.5579,48.0779],[-2.5620,48.0789],[-2.5656,48.0771],[-2.5668,48.0783],[-2.5708,48.0785]]]}},{"type":"Feature","properties":{"name":"Forêt intercommunale de Cap Kério"},"geometry":{"type":"Polygon","coordinates":[[[-2.9764,48.6270],[-2.9786,48.6280],[-2.9782,48.6313],[-2.9726,48.6314],[-2.9729,48.6335],[-2.9688,48.6326],[-2.9696,48.6310],[-2.9712,48.6313],[-2.9689,48.6297],[-2.9661,48.6323],[-2.9663,48.6296],[-2.9726,48.6300],[-2.9732,48.6285],[-2.9715,48.6280],[-2.9711,48.6292],[-2.9687,48.6289],[-2.9696,48.6275],[-2.9686,48.6272],[-2.9709,48.6268],[-2.9695,48.6257],[-2.9679,48.6272],[-2.9665,48.6269],[-2.9675,48.6255],[-2.9645,48.6259],[-2.9613,48.6283],[-2.9552,48.6284],[-2.9557,48.6293],[-2.9530,48.6285],[-2.9537,48.6275],[-2.9493,48.6281],[-2.9506,48.6240],[-2.9519,48.6234],[-2.9529,48.6247],[-2.9525,48.6217],[-2.9549,48.6213],[-2.9529,48.6215],[-2.9537,48.6205],[-2.9509,48.6197],[-2.9516,48.6182],[-2.9479,48.6154],[-2.9492,48.6126],[-2.9472,48.6116],[-2.9512,48.6107],[-2.9499,48.6095],[-2.9488,48.6100],[-2.9478,48.6070],[-2.9520,48.6076],[-2.9489,48.6087],[-2.9499,48.6094],[-2.9544,48.6066],[-2.9549,48.6075],[-2.9527,48.6088],[-2.9586,48.6076],[-2.9598,48.6092],[-2.9609,48.6088],[-2.9608,48.6105],[-2.9628,48.6093],[-2.9619,48.6085],[-2.9627,48.6080],[-2.9601,48.6072],[-2.9602,48.6061],[-2.9659,48.6082],[-2.9704,48.6081],[-2.9695,48.6101],[-2.9663,48.6102],[-2.9670,48.6109],[-2.9655,48.6114],[-2.9649,48.6133],[-2.9632,48.6128],[-2.9644,48.6123],[-2.9630,48.6117],[-2.9639,48.6112],[-2.9630,48.6100],[-2.9612,48.6110],[-2.9641,48.6142],[-2.9630,48.6145],[-2.9645,48.6152],[-2.9640,48.6164],[-2.9654,48.6160],[-2.9662,48.6132],[-2.9673,48.6146],[-2.9695,48.6147],[-2.9701,48.6166],[-2.9653,48.6198],[-2.9682,48.6195],[-2.9678,48.6180],[-2.9692,48.6189],[-2.9697,48.6200],[-2.9674,48.6204],[-2.9712,48.6232],[-2.9687,48.6252],[-2.9715,48.6264],[-2.9721,48.6250],[-2.9713,48.6245],[-2.9728,48.6229],[-2.9736,48.6237],[-2.9765,48.6226],[-2.9758,48.6235],[-2.9766,48.6240],[-2.9791,48.6237],[-2.9754,48.6259],[-2.9764,48.6270]]]}},{"type":"Feature","properties":{"name":"Forêt de Malaunay"},"geometry":{"type":"Polygon","coordinates":[[[-3.0569,48.5249],[-3.0550,48.5246],[-3.0560,48.5242],[-3.0543,48.5224],[-3.0542,48.5197],[-3.0517,48.5185],[-3.0495,48.5185],[-3.0471,48.5204],[-3.0482,48.5218],[-3.0443,48.5228],[-3.0437,48.5194],[-3.0450,48.5206],[-3.0469,48.5183],[-3.0443,48.5165],[-3.0464,48.5173],[-3.0483,48.5164],[-3.0494,48.5175],[-3.0515,48.5158],[-3.0482,48.5151],[-3.0490,48.5140],[-3.0553,48.5156],[-3.0559,48.5189],[-3.0618,48.5173],[-3.0681,48.5197],[-3.0690,48.5188],[-3.0692,48.5202],[-3.0731,48.5193],[-3.0750,48.5226],[-3.0737,48.5233],[-3.0733,48.5263],[-3.0751,48.5243],[-3.0756,48.5263],[-3.0792,48.5269],[-3.0778,48.5272],[-3.0794,48.5284],[-3.0741,48.5287],[-3.0721,48.5346],[-3.0706,48.5349],[-3.0720,48.5361],[-3.0715,48.5381],[-3.0688,48.5397],[-3.0570,48.5367],[-3.0594,48.5346],[-3.0578,48.5312],[-3.0552,48.5333],[-3.0583,48.5349],[-3.0560,48.5365],[-3.0542,48.5363],[-3.0566,48.5351],[-3.0557,48.5337],[-3.0529,48.5343],[-3.0535,48.5332],[-3.0578,48.5302],[-3.0563,48.5287],[-3.0592,48.5282],[-3.0572,48.5257],[-3.0604,48.5253],[-3.0588,48.5259],[-3.0594,48.5242],[-3.0569,48.5249]]]}},{"type":"Feature","properties":{"name":"Bois de la Salle"},"geometry":{"type":"Polygon","coordinates":[[[-2.9274,48.6259],[-2.9258,48.6275],[-2.9271,48.6288],[-2.9263,48.6291],[-2.9249,48.6291],[-2.9246,48.6273],[-2.9244,48.6290],[-2.9234,48.6291],[-2.9221,48.6256],[-2.9190,48.6253],[-2.9174,48.6263],[-2.9196,48.6285],[-2.9134,48.6291],[-2.9106,48.6267],[-2.9103,48.6288],[-2.9073,48.6283],[-2.9018,48.6233],[-2.9080,48.6181],[-2.9117,48.6176],[-2.9101,48.6152],[-2.9024,48.6130],[-2.9066,48.6114],[-2.9038,48.6097],[-2.9104,48.6091],[-2.9099,48.6080],[-2.9139,48.6061],[-2.9141,48.6081],[-2.9162,48.6086],[-2.9218,48.6073],[-2.9267,48.6132],[-2.9213,48.6133],[-2.9178,48.6105],[-2.9098,48.6095],[-2.9115,48.6132],[-2.9163,48.6123],[-2.9148,48.6141],[-2.9192,48.6137],[-2.9196,48.6172],[-2.9238,48.6164],[-2.9269,48.6224],[-2.9257,48.6227],[-2.9271,48.6241],[-2.9259,48.6256],[-2.9274,48.6259]]]}},{"type":"Feature","properties":{"name":"Forêt de Duault"},"geometry":{"type":"Polygon","coordinates":[[[-3.3685,48.3345],[-3.3697,48.3341],[-3.3710,48.3372],[-3.3755,48.3366],[-3.3721,48.3415],[-3.3731,48.3427],[-3.3767,48.3430],[-3.3772,48.3421],[-3.3813,48.3432],[-3.3813,48.3414],[-3.3819,48.3432],[-3.3844,48.3397],[-3.3885,48.3402],[-3.3918,48.3426],[-3.3923,48.3419],[-3.3927,48.3431],[-3.3946,48.3403],[-3.3956,48.3408],[-3.3947,48.3441],[-3.3988,48.3460],[-3.3976,48.3470],[-3.3960,48.3463],[-3.3971,48.3519],[-3.3951,48.3529],[-3.3961,48.3554],[-3.3938,48.3585],[-3.3960,48.3585],[-3.3959,48.3597],[-3.3983,48.3604],[-3.3992,48.3617],[-3.3983,48.3639],[-3.4006,48.3660],[-3.3984,48.3658],[-3.3990,48.3673],[-3.3937,48.3695],[-3.3937,48.3717],[-3.3923,48.3725],[-3.3954,48.3746],[-3.3909,48.3743],[-3.3869,48.3777],[-3.3870,48.3798],[-3.3919,48.3812],[-3.3894,48.3852],[-3.3876,48.3843],[-3.3888,48.3841],[-3.3877,48.3827],[-3.3852,48.3848],[-3.3856,48.3858],[-3.3801,48.3856],[-3.3743,48.3873],[-3.3739,48.3862],[-3.3708,48.3861],[-3.3663,48.3822],[-3.3662,48.3809],[-3.3702,48.3771],[-3.3683,48.3711],[-3.3723,48.3711],[-3.3744,48.3698],[-3.3742,48.3713],[-3.3777,48.3720],[-3.3771,48.3730],[-3.3746,48.3725],[-3.3748,48.3737],[-3.3779,48.3731],[-3.3770,48.3728],[-3.3793,48.3716],[-3.3795,48.3702],[-3.3782,48.3689],[-3.3756,48.3687],[-3.3800,48.3662],[-3.3779,48.3650],[-3.3763,48.3665],[-3.3762,48.3655],[-3.3776,48.3638],[-3.3801,48.3647],[-3.3840,48.3622],[-3.3836,48.3602],[-3.3809,48.3593],[-3.3818,48.3574],[-3.3791,48.3573],[-3.3809,48.3536],[-3.3780,48.3494],[-3.3794,48.3486],[-3.3771,48.3469],[-3.3780,48.3458],[-3.3758,48.3461],[-3.3750,48.3488],[-3.3700,48.3494],[-3.3662,48.3521],[-3.3634,48.3470],[-3.3649,48.3467],[-3.3625,48.3464],[-3.3627,48.3435],[-3.3657,48.3461],[-3.3680,48.3454],[-3.3682,48.3427],[-3.3696,48.3423],[-3.3660,48.3417],[-3.3687,48.3407],[-3.3682,48.3398],[-3.3648,48.3399],[-3.3658,48.3387],[-3.3645,48.3376],[-3.3671,48.3378],[-3.3668,48.3364],[-3.3691,48.3357],[-3.3685,48.3345]]]}},{"type":"Feature","properties":{"name":"Bois du Quélenec"},"geometry":{"type":"Polygon","coordinates":[[[-2.9976,48.2154],[-2.9906,48.2162],[-2.9911,48.2181],[-2.9955,48.2177],[-2.9923,48.2196],[-2.9929,48.2203],[-2.9885,48.2202],[-2.9901,48.2220],[-2.9886,48.2225],[-2.9866,48.2211],[-2.9848,48.2220],[-2.9820,48.2243],[-2.9844,48.2247],[-2.9843,48.2261],[-2.9775,48.2282],[-2.9800,48.2296],[-2.9847,48.2271],[-2.9844,48.2256],[-2.9883,48.2258],[-2.9912,48.2297],[-2.9870,48.2315],[-2.9858,48.2335],[-2.9900,48.2331],[-2.9913,48.2341],[-2.9901,48.2354],[-2.9967,48.2367],[-2.9900,48.2369],[-2.9882,48.2385],[-2.9845,48.2359],[-2.9831,48.2372],[-2.9865,48.2377],[-2.9836,48.2398],[-2.9756,48.2401],[-2.9777,48.2387],[-2.9766,48.2381],[-2.9719,48.2410],[-2.9688,48.2406],[-2.9766,48.2374],[-2.9810,48.2369],[-2.9783,48.2336],[-2.9670,48.2360],[-2.9690,48.2378],[-2.9635,48.2399],[-2.9657,48.2360],[-2.9645,48.2352],[-2.9667,48.2338],[-2.9651,48.2338],[-2.9654,48.2323],[-2.9680,48.2301],[-2.9663,48.2291],[-2.9696,48.2287],[-2.9667,48.2265],[-2.9645,48.2281],[-2.9624,48.2278],[-2.9648,48.2272],[-2.9657,48.2246],[-2.9557,48.2287],[-2.9569,48.2277],[-2.9562,48.2274],[-2.9618,48.2243],[-2.9609,48.2229],[-2.9565,48.2258],[-2.9577,48.2236],[-2.9492,48.2245],[-2.9441,48.2269],[-2.9435,48.2258],[-2.9466,48.2246],[-2.9400,48.2249],[-2.9484,48.2217],[-2.9518,48.2217],[-2.9485,48.2206],[-2.9455,48.2211],[-2.9460,48.2180],[-2.9509,48.2138],[-2.9543,48.2157],[-2.9568,48.2141],[-2.9549,48.2132],[-2.9588,48.2114],[-2.9624,48.2127],[-2.9591,48.2158],[-2.9580,48.2148],[-2.9572,48.2155],[-2.9564,48.2172],[-2.9572,48.2185],[-2.9549,48.2203],[-2.9598,48.2212],[-2.9617,48.2196],[-2.9603,48.2192],[-2.9610,48.2180],[-2.9648,48.2149],[-2.9723,48.2117],[-2.9688,48.2107],[-2.9641,48.2142],[-2.9628,48.2132],[-2.9686,48.2101],[-2.9693,48.2085],[-2.9678,48.2083],[-2.9709,48.2064],[-2.9697,48.2040],[-2.9727,48.2036],[-2.9709,48.2045],[-2.9728,48.2046],[-2.9742,48.2031],[-2.9784,48.2041],[-2.9781,48.2049],[-2.9832,48.2038],[-2.9816,48.2052],[-2.9754,48.2056],[-2.9753,48.2071],[-2.9739,48.2074],[-2.9797,48.2068],[-2.9797,48.2083],[-2.9769,48.2089],[-2.9805,48.2106],[-2.9759,48.2098],[-2.9784,48.2107],[-2.9773,48.2106],[-2.9784,48.2120],[-2.9732,48.2123],[-2.9754,48.2178],[-2.9793,48.2167],[-2.9763,48.2184],[-2.9793,48.2235],[-2.9777,48.2257],[-2.9824,48.2254],[-2.9788,48.2229],[-2.9811,48.2216],[-2.9904,48.2190],[-2.9893,48.2164],[-2.9998,48.2130],[-2.9997,48.2159],[-3.0039,48.2166],[-3.0020,48.2194],[-3.0057,48.2193],[-3.0064,48.2206],[-3.0093,48.2192],[-3.0139,48.2195],[-3.0152,48.2207],[-3.0150,48.2228],[-3.0220,48.2220],[-3.0213,48.2196],[-3.0244,48.2207],[-3.0248,48.2186],[-3.0283,48.2190],[-3.0343,48.2168],[-3.0520,48.2175],[-3.0597,48.2187],[-3.0596,48.2201],[-3.0641,48.2203],[-3.0636,48.2218],[-3.0596,48.2214],[-3.0591,48.2225],[-3.0569,48.2202],[-3.0518,48.2203],[-3.0496,48.2216],[-3.0430,48.2210],[-3.0352,48.2184],[-3.0344,48.2198],[-3.0309,48.2194],[-3.0280,48.2210],[-3.0252,48.2228],[-3.0252,48.2244],[-3.0184,48.2227],[-3.0133,48.2238],[-3.0133,48.2214],[-3.0074,48.2209],[-3.0079,48.2235],[-3.0111,48.2257],[-3.0076,48.2266],[-3.0038,48.2258],[-3.0053,48.2216],[-3.0007,48.2197],[-3.0025,48.2179],[-2.9981,48.2183],[-2.9976,48.2154]]]}},{"type":"Feature","properties":{"name":"Bois de Putenöe"},"geometry":{"type":"Polygon","coordinates":[[[-2.0323,48.0999],[-2.0322,48.0982],[-2.0342,48.0970],[-2.0311,48.0963],[-2.0303,48.0944],[-2.0315,48.0936],[-2.0281,48.0929],[-2.0286,48.0947],[-2.0262,48.0953],[-2.0228,48.0938],[-2.0236,48.0927],[-2.0210,48.0937],[-2.0175,48.0916],[-2.0132,48.0918],[-2.0164,48.0868],[-2.0144,48.0836],[-2.0157,48.0827],[-2.0199,48.0835],[-2.0198,48.0819],[-2.0209,48.0825],[-2.0197,48.0845],[-2.0276,48.0844],[-2.0291,48.0823],[-2.0287,48.0793],[-2.0386,48.0772],[-2.0355,48.0802],[-2.0367,48.0822],[-2.0394,48.0829],[-2.0355,48.0848],[-2.0359,48.0864],[-2.0337,48.0864],[-2.0361,48.0877],[-2.0343,48.0882],[-2.0340,48.0904],[-2.0466,48.0937],[-2.0444,48.0963],[-2.0456,48.0967],[-2.0461,48.0994],[-2.0428,48.0992],[-2.0414,48.1009],[-2.0417,48.0989],[-2.0381,48.0997],[-2.0381,48.1026],[-2.0395,48.1028],[-2.0370,48.1025],[-2.0365,48.1006],[-2.0320,48.1015],[-2.0319,48.1030],[-2.0332,48.1025],[-2.0334,48.1038],[-2.0272,48.1021],[-2.0323,48.0999]]]}},{"type":"Feature","properties":{"name":"Forêt de Boquen"},"geometry":{"type":"Polygon","coordinates":[[[-2.4879,48.3088],[-2.4862,48.3075],[-2.4880,48.3077],[-2.4863,48.3071],[-2.4845,48.3088],[-2.4810,48.3089],[-2.4710,48.3071],[-2.4702,48.3081],[-2.4712,48.3097],[-2.4653,48.3143],[-2.4690,48.3145],[-2.4682,48.3155],[-2.4643,48.3149],[-2.4562,48.3175],[-2.4571,48.3184],[-2.4557,48.3188],[-2.4582,48.3199],[-2.4515,48.3219],[-2.4545,48.3215],[-2.4507,48.3236],[-2.4491,48.3217],[-2.4438,48.3201],[-2.4439,48.3190],[-2.4482,48.3192],[-2.4465,48.3180],[-2.4473,48.3172],[-2.4441,48.3186],[-2.4432,48.3176],[-2.4365,48.3181],[-2.4315,48.3210],[-2.4263,48.3220],[-2.4200,48.3197],[-2.4198,48.3225],[-2.4179,48.3243],[-2.4074,48.3238],[-2.4072,48.3221],[-2.4029,48.3218],[-2.4040,48.3204],[-2.4063,48.3205],[-2.4062,48.3217],[-2.4182,48.3231],[-2.4180,48.3220],[-2.4151,48.3211],[-2.4101,48.3210],[-2.4117,48.3201],[-2.4101,48.3191],[-2.4161,48.3190],[-2.4155,48.3155],[-2.4208,48.3130],[-2.4210,48.3108],[-2.4270,48.3061],[-2.4272,48.3043],[-2.4228,48.3028],[-2.4233,48.3057],[-2.4206,48.3053],[-2.4211,48.3079],[-2.4195,48.3093],[-2.4142,48.3085],[-2.4182,48.3066],[-2.4181,48.3049],[-2.4203,48.3035],[-2.4187,48.3017],[-2.4182,48.3034],[-2.4156,48.3031],[-2.4150,48.3039],[-2.4170,48.3047],[-2.4154,48.3060],[-2.4068,48.3081],[-2.4001,48.3059],[-2.4002,48.3040],[-2.4023,48.3026],[-2.4007,48.3020],[-2.4004,48.2996],[-2.3957,48.2995],[-2.3923,48.3043],[-2.3897,48.3024],[-2.3908,48.3008],[-2.3932,48.3010],[-2.3947,48.2986],[-2.3914,48.2961],[-2.3955,48.2975],[-2.3938,48.2943],[-2.3971,48.2945],[-2.3970,48.2928],[-2.3940,48.2916],[-2.3963,48.2919],[-2.3964,48.2905],[-2.3977,48.2916],[-2.4008,48.2915],[-2.4001,48.2930],[-2.4012,48.2931],[-2.3987,48.2925],[-2.3981,48.2943],[-2.4012,48.2935],[-2.4017,48.2954],[-2.3984,48.2970],[-2.4011,48.2968],[-2.4012,48.2988],[-2.4029,48.2988],[-2.4015,48.2995],[-2.4044,48.3009],[-2.4096,48.3005],[-2.4086,48.2976],[-2.4119,48.2961],[-2.4162,48.2976],[-2.4172,48.2963],[-2.4169,48.2979],[-2.4212,48.2977],[-2.4207,48.2989],[-2.4272,48.3002],[-2.4296,48.2993],[-2.4302,48.3010],[-2.4341,48.3032],[-2.4343,48.3048],[-2.4291,48.3042],[-2.4309,48.3070],[-2.4292,48.3072],[-2.4286,48.3088],[-2.4307,48.3097],[-2.4357,48.3165],[-2.4367,48.3162],[-2.4340,48.3111],[-2.4362,48.3114],[-2.4396,48.3153],[-2.4446,48.3147],[-2.4405,48.3078],[-2.4410,48.3001],[-2.4399,48.2964],[-2.4445,48.2977],[-2.4481,48.2954],[-2.4569,48.2960],[-2.4637,48.3011],[-2.4692,48.2986],[-2.4733,48.2986],[-2.4726,48.2976],[-2.4741,48.2967],[-2.4737,48.2978],[-2.4818,48.2991],[-2.4820,48.3002],[-2.4863,48.3001],[-2.4863,48.3045],[-2.4881,48.3046],[-2.4885,48.3030],[-2.4892,48.3038],[-2.4888,48.3070],[-2.4900,48.3087],[-2.4887,48.3079],[-2.4881,48.3088],[-2.4879,48.3088]]]}}]}