{"type":"FeatureCollection","features":[{"type":"Feature","properties":{"name":"Tabary"},"geometry":{"type":"Polygon","coordinates":[[[1.0894,45.2887],[1.0893,45.2868],[1.0865,45.2885],[1.0858,45.2872],[1.0865,45.2894],[1.0855,45.2894],[1.0878,45.2928],[1.0865,45.2967],[1.0869,45.2927],[1.0842,45.2915],[1.0839,45.2886],[1.0797,45.2902],[1.0835,45.2912],[1.0818,45.2930],[1.0801,45.2926],[1.0808,45.2940],[1.0789,45.2943],[1.0770,45.2928],[1.0773,45.2945],[1.0793,45.2945],[1.0769,45.2959],[1.0799,45.2964],[1.0795,45.2987],[1.0823,45.2971],[1.0866,45.2988],[1.0864,45.2969],[1.0879,45.2987],[1.0869,45.2990],[1.0881,45.3024],[1.0859,45.3031],[1.0885,45.3031],[1.0880,45.3042],[1.0865,45.3053],[1.0858,45.3040],[1.0806,45.3046],[1.0794,45.3057],[1.0824,45.3071],[1.0841,45.3094],[1.0828,45.3099],[1.0851,45.3120],[1.0804,45.3124],[1.0815,45.3086],[1.0781,45.3087],[1.0782,45.3077],[1.0761,45.3066],[1.0755,45.3075],[1.0779,45.3098],[1.0765,45.3097],[1.0767,45.3113],[1.0750,45.3117],[1.0739,45.3100],[1.0721,45.3105],[1.0732,45.3115],[1.0719,45.3125],[1.0715,45.3095],[1.0745,45.3068],[1.0686,45.3070],[1.0718,45.3050],[1.0702,45.3045],[1.0678,45.3069],[1.0677,45.3058],[1.0666,45.3068],[1.0670,45.3056],[1.0625,45.3064],[1.0619,45.3073],[1.0641,45.3085],[1.0625,45.3090],[1.0593,45.3079],[1.0588,45.3064],[1.0561,45.3072],[1.0566,45.3064],[1.0509,45.3053],[1.0451,45.3016],[1.0426,45.3019],[1.0446,45.3033],[1.0423,45.3036],[1.0468,45.3135],[1.0515,45.3122],[1.0489,45.3153],[1.0495,45.3182],[1.0455,45.3193],[1.0465,45.3196],[1.0437,45.3231],[1.0441,45.3251],[1.0460,45.3246],[1.0481,45.3268],[1.0482,45.3255],[1.0517,45.3258],[1.0539,45.3231],[1.0562,45.3231],[1.0539,45.3226],[1.0569,45.3221],[1.0557,45.3216],[1.0565,45.3208],[1.0581,45.3210],[1.0580,45.3230],[1.0614,45.3216],[1.0606,45.3203],[1.0617,45.3186],[1.0648,45.3190],[1.0642,45.3196],[1.0666,45.3217],[1.0689,45.3196],[1.0690,45.3213],[1.0715,45.3211],[1.0691,45.3197],[1.0697,45.3172],[1.0707,45.3179],[1.0701,45.3191],[1.0748,45.3196],[1.0744,45.3218],[1.0773,45.3230],[1.0781,45.3195],[1.0836,45.3182],[1.0864,45.3140],[1.0890,45.3150],[1.0922,45.3130],[1.0916,45.3124],[1.0928,45.3130],[1.0971,45.3113],[1.0948,45.3097],[1.0975,45.3104],[1.0978,45.3088],[1.0984,45.3099],[1.0979,45.3079],[1.1017,45.3054],[1.0990,45.3042],[1.0978,45.3055],[1.0954,45.3053],[1.0958,45.3044],[1.0929,45.3040],[1.0933,45.3028],[1.0911,45.3021],[1.0927,45.3017],[1.0911,45.3018],[1.0920,45.3014],[1.0911,45.2993],[1.0899,45.2990],[1.0913,45.2970],[1.0888,45.2982],[1.0879,45.2965],[1.0906,45.2932],[1.0904,45.2908],[1.0873,45.2905],[1.0894,45.2887]]]}},{"type":"Feature","properties":{"name":"Bois Brûlé"},"geometry":{"type":"Polygon","coordinates":[[[0.1196,45.5828],[0.1215,45.5837],[0.1234,45.5826],[0.1221,45.5813],[0.1277,45.5795],[0.1277,45.5823],[0.1289,45.5821],[0.1284,45.5787],[0.1214,45.5772],[0.1232,45.5789],[0.1208,45.5815],[0.1191,45.5816],[0.1197,45.5824],[0.1170,45.5833],[0.1157,45.5809],[0.1109,45.5836],[0.1101,45.5810],[0.1071,45.5821],[0.0992,45.5789],[0.1017,45.5831],[0.1019,45.5820],[0.1037,45.5817],[0.1045,45.5842],[0.1028,45.5854],[0.1032,45.5881],[0.1050,45.5893],[0.1049,45.5922],[0.1067,45.5916],[0.1090,45.5938],[0.1079,45.5959],[0.1126,45.5976],[0.1125,45.6008],[0.1181,45.6018],[0.1188,45.6033],[0.1176,45.6041],[0.1214,45.6036],[0.1216,45.6010],[0.1257,45.6008],[0.1276,45.5971],[0.1320,45.5959],[0.1330,45.5959],[0.1333,45.5978],[0.1324,45.5990],[0.1340,45.5978],[0.1360,45.5997],[0.1339,45.6012],[0.1342,45.6034],[0.1322,45.6040],[0.1326,45.6050],[0.1371,45.6039],[0.1358,45.6031],[0.1379,45.6036],[0.1394,45.6011],[0.1370,45.6008],[0.1345,45.5977],[0.1398,45.5956],[0.1366,45.5912],[0.1379,45.5905],[0.1360,45.5879],[0.1371,45.5903],[0.1326,45.5913],[0.1282,45.5898],[0.1332,45.5884],[0.1336,45.5872],[0.1355,45.5875],[0.1298,45.5852],[0.1277,45.5851],[0.1285,45.5871],[0.1231,45.5873],[0.1220,45.5862],[0.1237,45.5834],[0.1178,45.5855],[0.1182,45.5865],[0.1154,45.5863],[0.1196,45.5828]]]}},{"type":"Feature","properties":{"name":"Bois-des-Vergnaud"},"geometry":{"type":"Polygon","coordinates":[[[1.2660,45.4706],[1.2681,45.4668],[1.2651,45.4644],[1.2661,45.4635],[1.2679,45.4645],[1.2669,45.4625],[1.2698,45.4614],[1.2660,45.4607],[1.2626,45.4552],[1.2664,45.4548],[1.2670,45.4541],[1.2653,45.4537],[1.2676,45.4526],[1.2675,45.4514],[1.2658,45.4520],[1.2639,45.4504],[1.2641,45.4490],[1.2622,45.4486],[1.2601,45.4505],[1.2557,45.4482],[1.2561,45.4496],[1.2546,45.4499],[1.2520,45.4462],[1.2527,45.4456],[1.2548,45.4481],[1.2561,45.4468],[1.2588,45.4476],[1.2577,45.4468],[1.2592,45.4465],[1.2578,45.4462],[1.2593,45.4458],[1.2588,45.4448],[1.2538,45.4462],[1.2539,45.4452],[1.2574,45.4441],[1.2565,45.4385],[1.2614,45.4390],[1.2601,45.4381],[1.2631,45.4329],[1.2569,45.4318],[1.2560,45.4299],[1.2577,45.4290],[1.2583,45.4300],[1.2640,45.4254],[1.2604,45.4270],[1.2616,45.4260],[1.2604,45.4247],[1.2649,45.4228],[1.2589,45.4236],[1.2579,45.4248],[1.2538,45.4243],[1.2519,45.4277],[1.2553,45.4282],[1.2529,45.4312],[1.2507,45.4308],[1.2542,45.4350],[1.2518,45.4365],[1.2521,45.4404],[1.2485,45.4409],[1.2505,45.4429],[1.2494,45.4444],[1.2512,45.4448],[1.2512,45.4459],[1.2465,45.4480],[1.2484,45.4496],[1.2460,45.4497],[1.2469,45.4507],[1.2445,45.4519],[1.2469,45.4516],[1.2470,45.4530],[1.2432,45.4539],[1.2448,45.4546],[1.2458,45.4581],[1.2388,45.4606],[1.2418,45.4629],[1.2410,45.4635],[1.2426,45.4629],[1.2412,45.4605],[1.2435,45.4589],[1.2465,45.4597],[1.2483,45.4566],[1.2506,45.4578],[1.2493,45.4567],[1.2517,45.4555],[1.2498,45.4529],[1.2524,45.4508],[1.2591,45.4539],[1.2594,45.4551],[1.2616,45.4529],[1.2611,45.4562],[1.2647,45.4599],[1.2636,45.4609],[1.2592,45.4590],[1.2589,45.4620],[1.2621,45.4624],[1.2595,45.4644],[1.2571,45.4645],[1.2592,45.4655],[1.2589,45.4671],[1.2618,45.4684],[1.2609,45.4697],[1.2631,45.4718],[1.2645,45.4721],[1.2660,45.4706]]]}},{"type":"Feature","properties":{"name":"Lacaud"},"geometry":{"type":"Polygon","coordinates":[[[0.1828,45.4434],[0.1904,45.4413],[0.1932,45.4388],[0.2015,45.4355],[0.2005,45.4327],[0.2105,45.4364],[0.2161,45.4366],[0.2159,45.4357],[0.2084,45.4331],[0.2088,45.4314],[0.2110,45.4310],[0.2139,45.4319],[0.2158,45.4342],[0.2163,45.4334],[0.2204,45.4339],[0.2213,45.4345],[0.2206,45.4363],[0.2255,45.4365],[0.2279,45.4343],[0.2272,45.4324],[0.2174,45.4295],[0.2166,45.4284],[0.2192,45.4265],[0.2138,45.4254],[0.2139,45.4245],[0.2209,45.4240],[0.2226,45.4255],[0.2235,45.4228],[0.2322,45.4235],[0.2317,45.4220],[0.2271,45.4225],[0.2226,45.4213],[0.2210,45.4232],[0.2138,45.4230],[0.2142,45.4207],[0.2168,45.4213],[0.2182,45.4197],[0.2148,45.4179],[0.2151,45.4158],[0.2216,45.4163],[0.2217,45.4143],[0.2201,45.4142],[0.2199,45.4151],[0.2167,45.4142],[0.2169,45.4112],[0.2152,45.4098],[0.2224,45.4086],[0.2216,45.4073],[0.2187,45.4076],[0.2144,45.4035],[0.2124,45.4078],[0.2115,45.4075],[0.2118,45.4021],[0.2220,45.4044],[0.2234,45.4032],[0.2184,45.4011],[0.2136,45.4009],[0.2152,45.3995],[0.2145,45.3979],[0.2164,45.3976],[0.2162,45.3966],[0.2136,45.3963],[0.2120,45.3997],[0.2104,45.3999],[0.2095,45.3980],[0.2132,45.3955],[0.2100,45.3946],[0.2101,45.3901],[0.2165,45.3917],[0.2168,45.3898],[0.2148,45.3891],[0.2155,45.3880],[0.2089,45.3866],[0.2092,45.3835],[0.2055,45.3814],[0.2061,45.3782],[0.2141,45.3795],[0.2159,45.3777],[0.2140,45.3767],[0.2150,45.3748],[0.2165,45.3753],[0.2179,45.3739],[0.2148,45.3710],[0.2218,45.3673],[0.2189,45.3659],[0.2196,45.3649],[0.2251,45.3668],[0.2252,45.3659],[0.2240,45.3641],[0.2173,45.3644],[0.2180,45.3604],[0.2153,45.3576],[0.2116,45.3568],[0.2083,45.3589],[0.2071,45.3581],[0.2069,45.3551],[0.2150,45.3523],[0.2144,45.3514],[0.2120,45.3519],[0.2110,45.3496],[0.2083,45.3516],[0.2079,45.3536],[0.2031,45.3559],[0.2032,45.3509],[0.1999,45.3506],[0.2022,45.3576],[0.1987,45.3596],[0.1956,45.3593],[0.1958,45.3613],[0.1944,45.3605],[0.1906,45.3611],[0.1909,45.3623],[0.1939,45.3618],[0.1944,45.3625],[0.1928,45.3638],[0.1943,45.3644],[0.1975,45.3636],[0.1978,45.3620],[0.2019,45.3629],[0.2032,45.3618],[0.2067,45.3641],[0.2060,45.3656],[0.2091,45.3662],[0.2101,45.3647],[0.2122,45.3645],[0.2130,45.3655],[0.2115,45.3665],[0.2126,45.3672],[0.2161,45.3671],[0.2133,45.3689],[0.2116,45.3678],[0.2105,45.3690],[0.2021,45.3700],[0.2039,45.3721],[0.2062,45.3700],[0.2089,45.3703],[0.2106,45.3736],[0.2091,45.3752],[0.2104,45.3761],[0.2079,45.3770],[0.2037,45.3759],[0.1995,45.3778],[0.2007,45.3803],[0.2049,45.3833],[0.1992,45.3881],[0.2022,45.3898],[0.2057,45.3897],[0.2070,45.3919],[0.2047,45.3922],[0.2038,45.3910],[0.2002,45.3903],[0.1984,45.3912],[0.1992,45.3936],[0.1970,45.3931],[0.1972,45.3882],[0.2018,45.3850],[0.2012,45.3842],[0.1980,45.3839],[0.1992,45.3857],[0.1972,45.3866],[0.1920,45.3854],[0.1905,45.3831],[0.1876,45.3827],[0.1868,45.3844],[0.1838,45.3838],[0.1845,45.3820],[0.1831,45.3797],[0.1801,45.3836],[0.1744,45.3802],[0.1738,45.3790],[0.1754,45.3787],[0.1751,45.3777],[0.1728,45.3786],[0.1721,45.3751],[0.1650,45.3763],[0.1670,45.3766],[0.1664,45.3782],[0.1685,45.3787],[0.1685,45.3802],[0.1704,45.3805],[0.1711,45.3788],[0.1738,45.3802],[0.1745,45.3821],[0.1726,45.3822],[0.1730,45.3838],[0.1752,45.3852],[0.1729,45.3847],[0.1744,45.3852],[0.1714,45.3890],[0.1694,45.3891],[0.1674,45.3913],[0.1710,45.3904],[0.1723,45.3925],[0.1727,45.3897],[0.1740,45.3891],[0.1749,45.3914],[0.1766,45.3908],[0.1770,45.3874],[0.1821,45.3848],[0.1871,45.3857],[0.1875,45.3865],[0.1859,45.3868],[0.1868,45.3882],[0.1945,45.3877],[0.1928,45.3899],[0.1854,45.3922],[0.1855,45.3942],[0.1887,45.3947],[0.1878,45.3963],[0.1903,45.3992],[0.1875,45.4023],[0.1845,45.4009],[0.1848,45.4034],[0.1875,45.4041],[0.1958,45.3999],[0.1972,45.3983],[0.1937,45.3965],[0.1946,45.3947],[0.1965,45.3943],[0.1969,45.3961],[0.1984,45.3955],[0.2004,45.3971],[0.2036,45.3950],[0.2037,45.3966],[0.2052,45.3967],[0.2051,45.3991],[0.2023,45.4020],[0.1974,45.4001],[0.1902,45.4046],[0.1921,45.4061],[0.1948,45.4039],[0.1958,45.4044],[0.1945,45.4067],[0.1956,45.4074],[0.1952,45.4099],[0.1877,45.4107],[0.1872,45.4123],[0.1911,45.4134],[0.1883,45.4156],[0.1899,45.4176],[0.1935,45.4160],[0.1934,45.4138],[0.1956,45.4108],[0.1972,45.4112],[0.1967,45.4134],[0.1985,45.4136],[0.1996,45.4161],[0.1963,45.4153],[0.1964,45.4172],[0.1980,45.4188],[0.2016,45.4181],[0.1999,45.4201],[0.2020,45.4224],[0.2039,45.4226],[0.2100,45.4194],[0.2070,45.4148],[0.2028,45.4141],[0.2040,45.4118],[0.1986,45.4129],[0.1998,45.4094],[0.2037,45.4099],[0.2027,45.4084],[0.2048,45.4079],[0.2051,45.4066],[0.1995,45.4076],[0.1961,45.4060],[0.1985,45.4031],[0.1996,45.4045],[0.2025,45.4050],[0.2052,45.4030],[0.2065,45.4044],[0.2083,45.4044],[0.2083,45.4057],[0.2064,45.4061],[0.2064,45.4078],[0.2115,45.4092],[0.2098,45.4148],[0.2128,45.4191],[0.2116,45.4198],[0.2116,45.4221],[0.2097,45.4226],[0.2094,45.4246],[0.2063,45.4266],[0.2021,45.4238],[0.1971,45.4259],[0.1926,45.4222],[0.1915,45.4240],[0.1924,45.4250],[0.1911,45.4262],[0.1936,45.4267],[0.1930,45.4279],[0.1854,45.4282],[0.1850,45.4310],[0.1796,45.4300],[0.1771,45.4308],[0.1748,45.4286],[0.1710,45.4303],[0.1711,45.4313],[0.1766,45.4314],[0.1760,45.4332],[0.1771,45.4344],[0.1781,45.4333],[0.1797,45.4336],[0.1796,45.4348],[0.1821,45.4349],[0.1824,45.4334],[0.1855,45.4342],[0.1858,45.4376],[0.1838,45.4393],[0.1817,45.4386],[0.1800,45.4413],[0.1828,45.4434]]]}},{"type":"Feature","properties":{"name":"Bois du Grand Bardou"},"geometry":{"type":"Polygon","coordinates":[[[0.0419,45.0704],[0.0444,45.0697],[0.0430,45.0683],[0.0445,45.0675],[0.0482,45.0719],[0.0500,45.0716],[0.0487,45.0694],[0.0492,45.0663],[0.0471,45.0643],[0.0468,45.0617],[0.0485,45.0602],[0.0501,45.0602],[0.0501,45.0627],[0.0536,45.0615],[0.0532,45.0595],[0.0491,45.0588],[0.0454,45.0600],[0.0418,45.0590],[0.0450,45.0569],[0.0475,45.0575],[0.0485,45.0559],[0.0505,45.0559],[0.0553,45.0433],[0.0589,45.0427],[0.0614,45.0453],[0.0655,45.0413],[0.0677,45.0432],[0.0717,45.0419],[0.0713,45.0402],[0.0732,45.0401],[0.0732,45.0412],[0.0765,45.0412],[0.0773,45.0430],[0.0820,45.0426],[0.0838,45.0443],[0.0858,45.0442],[0.0867,45.0452],[0.0852,45.0464],[0.0857,45.0482],[0.0830,45.0486],[0.0850,45.0508],[0.0909,45.0486],[0.0903,45.0445],[0.0936,45.0374],[0.0866,45.0368],[0.0860,45.0339],[0.0817,45.0335],[0.0811,45.0356],[0.0735,45.0374],[0.0732,45.0395],[0.0720,45.0395],[0.0730,45.0366],[0.0698,45.0363],[0.0706,45.0356],[0.0684,45.0344],[0.0679,45.0358],[0.0642,45.0362],[0.0645,45.0346],[0.0603,45.0348],[0.0599,45.0375],[0.0568,45.0388],[0.0568,45.0376],[0.0557,45.0380],[0.0494,45.0506],[0.0473,45.0508],[0.0441,45.0555],[0.0406,45.0570],[0.0407,45.0625],[0.0391,45.0640],[0.0349,45.0634],[0.0348,45.0656],[0.0383,45.0677],[0.0374,45.0699],[0.0419,45.0704]]]}},{"type":"Feature","properties":{"name":"Bois de Rétabout"},"geometry":{"type":"Polygon","coordinates":[[[1.0714,45.5960],[1.0706,45.5924],[1.0725,45.5915],[1.0711,45.5907],[1.0681,45.5919],[1.0622,45.5856],[1.0608,45.5861],[1.0623,45.5872],[1.0617,45.5881],[1.0605,45.5893],[1.0595,45.5887],[1.0590,45.5864],[1.0606,45.5839],[1.0596,45.5837],[1.0600,45.5787],[1.0634,45.5815],[1.0725,45.5842],[1.0709,45.5851],[1.0719,45.5858],[1.0697,45.5865],[1.0714,45.5876],[1.0738,45.5868],[1.0777,45.5882],[1.0764,45.5887],[1.0777,45.5905],[1.0798,45.5900],[1.0815,45.5917],[1.0813,45.5899],[1.0827,45.5899],[1.0835,45.5928],[1.0813,45.5935],[1.0842,45.5939],[1.0810,45.5958],[1.0840,45.5955],[1.0892,45.6007],[1.0915,45.5986],[1.0879,45.5983],[1.0870,45.5963],[1.0925,45.5947],[1.0928,45.5915],[1.0886,45.5929],[1.0934,45.5900],[1.0916,45.5890],[1.0889,45.5915],[1.0885,45.5904],[1.0792,45.5866],[1.0770,45.5867],[1.0777,45.5850],[1.0803,45.5860],[1.0811,45.5849],[1.0768,45.5837],[1.0764,45.5848],[1.0751,45.5844],[1.0697,45.5817],[1.0696,45.5800],[1.0643,45.5798],[1.0635,45.5761],[1.0609,45.5754],[1.0571,45.5753],[1.0566,45.5769],[1.0508,45.5788],[1.0562,45.5824],[1.0557,45.5837],[1.0517,45.5828],[1.0484,45.5812],[1.0432,45.5727],[1.0385,45.5714],[1.0373,45.5686],[1.0330,45.5692],[1.0314,45.5730],[1.0350,45.5763],[1.0423,45.5787],[1.0421,45.5816],[1.0447,45.5842],[1.0447,45.5877],[1.0463,45.5876],[1.0476,45.5853],[1.0517,45.5890],[1.0541,45.5872],[1.0580,45.5878],[1.0556,45.5899],[1.0527,45.5899],[1.0534,45.5948],[1.0513,45.5955],[1.0512,45.5929],[1.0487,45.5933],[1.0487,45.5964],[1.0507,45.5964],[1.0527,45.5998],[1.0539,45.5994],[1.0532,45.5981],[1.0600,45.5973],[1.0618,45.5952],[1.0611,45.5932],[1.0567,45.5909],[1.0573,45.5901],[1.0677,45.5928],[1.0674,45.5947],[1.0714,45.5960]]]}},{"type":"Feature","properties":{"name":"La Forêt de Planche"},"geometry":{"type":"Polygon","coordinates":[[[0.4310,45.1940],[0.4307,45.1901],[0.4364,45.1901],[0.4390,45.1865],[0.4379,45.1838],[0.4401,45.1822],[0.4387,45.1824],[0.4387,45.1814],[0.4343,45.1823],[0.4366,45.1837],[0.4355,45.1847],[0.4330,45.1836],[0.4322,45.1847],[0.4347,45.1866],[0.4282,45.1849],[0.4281,45.1863],[0.4275,45.1849],[0.4256,45.1890],[0.4270,45.1902],[0.4236,45.1911],[0.4221,45.1928],[0.4205,45.1917],[0.4211,45.1908],[0.4172,45.1914],[0.4148,45.1894],[0.4108,45.1912],[0.4087,45.1901],[0.4092,45.1884],[0.4115,45.1880],[0.4109,45.1868],[0.4138,45.1884],[0.4120,45.1862],[0.4118,45.1830],[0.4107,45.1815],[0.4076,45.1824],[0.4053,45.1814],[0.4049,45.1796],[0.4075,45.1794],[0.4073,45.1782],[0.4026,45.1766],[0.4047,45.1745],[0.4073,45.1747],[0.4075,45.1734],[0.4064,45.1734],[0.4073,45.1724],[0.4032,45.1700],[0.4041,45.1690],[0.4025,45.1676],[0.4000,45.1669],[0.3993,45.1681],[0.3978,45.1668],[0.3976,45.1679],[0.3956,45.1675],[0.3945,45.1686],[0.3956,45.1736],[0.3930,45.1753],[0.3919,45.1799],[0.3907,45.1804],[0.3930,45.1810],[0.3923,45.1836],[0.3952,45.1849],[0.3956,45.1882],[0.3999,45.1906],[0.4047,45.1887],[0.4054,45.1915],[0.4024,45.1907],[0.4027,45.1932],[0.4015,45.1939],[0.4004,45.1921],[0.3964,45.1922],[0.3967,45.1946],[0.3929,45.1939],[0.3917,45.1954],[0.3883,45.1909],[0.3885,45.1888],[0.3894,45.1885],[0.3907,45.1910],[0.3923,45.1885],[0.3911,45.1887],[0.3908,45.1874],[0.3878,45.1885],[0.3873,45.1868],[0.3900,45.1860],[0.3876,45.1828],[0.3856,45.1835],[0.3854,45.1878],[0.3881,45.1906],[0.3882,45.1948],[0.3909,45.1977],[0.3942,45.1970],[0.3965,45.1982],[0.3960,45.2002],[0.3987,45.2011],[0.4007,45.1996],[0.3983,45.1995],[0.4002,45.1967],[0.4023,45.1977],[0.4026,45.1995],[0.4065,45.2010],[0.4077,45.1983],[0.4110,45.1969],[0.4105,45.1997],[0.4130,45.1998],[0.4128,45.2020],[0.4148,45.2022],[0.4175,45.1995],[0.4184,45.2005],[0.4153,45.2039],[0.4179,45.2055],[0.4174,45.2069],[0.4207,45.2073],[0.4237,45.2095],[0.4282,45.2043],[0.4253,45.2009],[0.4258,45.1991],[0.4275,45.1986],[0.4280,45.1964],[0.4310,45.1940]]]}},{"type":"Feature","properties":{"name":"Forêt domaniale de Bois Blanc"},"geometry":{"type":"Polygon","coordinates":[[[0.2991,45.6443],[0.3034,45.6485],[0.3036,45.6524],[0.3024,45.6523],[0.3017,45.6542],[0.2967,45.6584],[0.3010,45.6594],[0.3030,45.6585],[0.3028,45.6600],[0.2989,45.6603],[0.2980,45.6636],[0.2939,45.6633],[0.2943,45.6671],[0.2938,45.6647],[0.2895,45.6660],[0.2934,45.6678],[0.2914,45.6704],[0.2928,45.6710],[0.2902,45.6702],[0.2888,45.6717],[0.2896,45.6728],[0.2869,45.6722],[0.2890,45.6750],[0.2867,45.6722],[0.2834,45.6752],[0.2804,45.6751],[0.2819,45.6747],[0.2811,45.6739],[0.2745,45.6753],[0.2753,45.6737],[0.2739,45.6735],[0.2759,45.6720],[0.2729,45.6717],[0.2741,45.6709],[0.2725,45.6695],[0.2717,45.6695],[0.2732,45.6707],[0.2705,45.6695],[0.2696,45.6704],[0.2688,45.6686],[0.2633,45.6669],[0.2629,45.6659],[0.2669,45.6652],[0.2668,45.6641],[0.2697,45.6670],[0.2724,45.6668],[0.2731,45.6653],[0.2710,45.6654],[0.2697,45.6635],[0.2637,45.6610],[0.2667,45.6608],[0.2635,45.6606],[0.2676,45.6600],[0.2707,45.6574],[0.2765,45.6583],[0.2758,45.6565],[0.2735,45.6570],[0.2754,45.6558],[0.2723,45.6542],[0.2699,45.6546],[0.2721,45.6535],[0.2713,45.6509],[0.2694,45.6501],[0.2751,45.6498],[0.2724,45.6493],[0.2730,45.6475],[0.2736,45.6483],[0.2768,45.6464],[0.2777,45.6470],[0.2762,45.6480],[0.2788,45.6491],[0.2812,45.6482],[0.2817,45.6467],[0.2827,45.6472],[0.2815,45.6461],[0.2824,45.6455],[0.2866,45.6494],[0.2991,45.6443]]]}},{"type":"Feature","properties":{"name":"Forêt domaniale de la Braconne"},"geometry":{"type":"Polygon","coordinates":[[[0.3250,45.7617],[0.3222,45.7622],[0.3220,45.7655],[0.3232,45.7668],[0.3272,45.7673],[0.3218,45.7676],[0.3209,45.7708],[0.3225,45.7721],[0.3199,45.7723],[0.3211,45.7733],[0.3201,45.7740],[0.3174,45.7726],[0.3167,45.7747],[0.3139,45.7744],[0.3121,45.7790],[0.3149,45.7786],[0.3147,45.7794],[0.3176,45.7802],[0.3182,45.7790],[0.3216,45.7798],[0.3225,45.7812],[0.3193,45.7819],[0.3194,45.7808],[0.3173,45.7836],[0.3200,45.7849],[0.3160,45.7840],[0.3142,45.7876],[0.3120,45.7883],[0.3133,45.7895],[0.3139,45.7885],[0.3171,45.7893],[0.3163,45.7901],[0.3121,45.7901],[0.3109,45.7919],[0.3083,45.7905],[0.3072,45.7913],[0.3081,45.7923],[0.3064,45.7933],[0.3045,45.7910],[0.3046,45.7932],[0.2998,45.7939],[0.2971,45.7911],[0.2868,45.7884],[0.2857,45.7906],[0.2800,45.7890],[0.2768,45.7898],[0.2759,45.7912],[0.2772,45.7921],[0.2751,45.7913],[0.2710,45.7955],[0.2622,45.7910],[0.2668,45.7899],[0.2639,45.7867],[0.2650,45.7842],[0.2691,45.7822],[0.2683,45.7808],[0.2668,45.7812],[0.2678,45.7802],[0.2648,45.7811],[0.2675,45.7794],[0.2618,45.7800],[0.2617,45.7811],[0.2614,45.7800],[0.2585,45.7808],[0.2598,45.7799],[0.2580,45.7798],[0.2597,45.7795],[0.2593,45.7782],[0.2641,45.7792],[0.2650,45.7751],[0.2692,45.7756],[0.2671,45.7728],[0.2659,45.7743],[0.2659,45.7720],[0.2646,45.7721],[0.2632,45.7696],[0.2664,45.7668],[0.2646,45.7629],[0.2631,45.7630],[0.2631,45.7643],[0.2615,45.7628],[0.2649,45.7618],[0.2657,45.7571],[0.2714,45.7573],[0.2807,45.7466],[0.2816,45.7447],[0.2782,45.7438],[0.2783,45.7408],[0.2813,45.7407],[0.2790,45.7361],[0.2796,45.7328],[0.2782,45.7329],[0.2802,45.7303],[0.2803,45.7313],[0.2857,45.7330],[0.2858,45.7318],[0.2827,45.7304],[0.2838,45.7291],[0.2862,45.7304],[0.2873,45.7260],[0.2856,45.7254],[0.2870,45.7249],[0.2884,45.7217],[0.2893,45.7218],[0.2831,45.7721],[0.2899,45.7724],[0.2946,45.7201],[0.2958,45.7174],[0.2910,45.7161],[0.2915,45.7138],[0.2897,45.7113],[0.2898,45.7088],[0.2872,45.7079],[0.2860,45.7045],[0.2872,45.7026],[0.2852,45.7022],[0.2877,45.7017],[0.2881,45.6993],[0.2846,45.6973],[0.2798,45.6982],[0.2790,45.6966],[0.2798,45.6947],[0.2817,45.6948],[0.2832,45.6932],[0.2825,45.6904],[0.2853,45.6856],[0.2884,45.6849],[0.2887,45.6838],[0.2866,45.6840],[0.2869,45.6827],[0.2935,45.6804],[0.2914,45.6756],[0.2921,45.6743],[0.2944,45.6730],[0.2964,45.6747],[0.2950,45.6732],[0.2984,45.6720],[0.3012,45.6740],[0.3020,45.6769],[0.3042,45.6771],[0.3061,45.6762],[0.3049,45.6733],[0.3060,45.6741],[0.3095,45.6725],[0.3119,45.6729],[0.3115,45.6715],[0.3141,45.6708],[0.3128,45.6695],[0.3152,45.6707],[0.3163,45.6647],[0.3122,45.6625],[0.3129,45.6618],[0.3201,45.6633],[0.3260,45.6595],[0.3233,45.6634],[0.3212,45.6635],[0.3235,45.6650],[0.3233,45.6663],[0.3199,45.6660],[0.3196,45.6681],[0.3166,45.6672],[0.3171,45.6685],[0.3160,45.6695],[0.3251,45.6708],[0.3231,45.6725],[0.3237,45.6739],[0.3216,45.6752],[0.3206,45.6732],[0.3219,45.6758],[0.3243,45.6755],[0.3241,45.6789],[0.3298,45.6814],[0.3336,45.6808],[0.3326,45.6826],[0.3384,45.6849],[0.3396,45.6888],[0.3391,45.6945],[0.3407,45.6989],[0.3405,45.6999],[0.3387,45.6998],[0.3377,45.6953],[0.3361,45.6965],[0.3350,45.6956],[0.3277,45.6972],[0.3324,45.6990],[0.3293,45.6991],[0.3294,45.7001],[0.3334,45.6995],[0.3321,45.7012],[0.3342,45.7031],[0.3313,45.7034],[0.3316,45.7053],[0.3335,45.7049],[0.3350,45.7060],[0.3336,45.7047],[0.3348,45.7043],[0.3380,45.7060],[0.3380,45.7088],[0.3366,45.7071],[0.3368,45.7088],[0.3355,45.7089],[0.3343,45.7071],[0.3331,45.7074],[0.3328,45.7057],[0.3312,45.7071],[0.3302,45.7035],[0.3247,45.7041],[0.3243,45.7083],[0.3252,45.7093],[0.3290,45.7084],[0.3315,45.7096],[0.3313,45.7120],[0.3326,45.7131],[0.3353,45.7118],[0.3365,45.7127],[0.3322,45.7135],[0.3331,45.7144],[0.3319,45.7153],[0.3335,45.7151],[0.3322,45.7162],[0.3327,45.7184],[0.3284,45.7167],[0.3296,45.7206],[0.3289,45.7217],[0.3262,45.7181],[0.3243,45.7176],[0.3237,45.7209],[0.3220,45.7207],[0.3221,45.7192],[0.3189,45.7190],[0.3202,45.7182],[0.3193,45.7176],[0.3172,45.7192],[0.3118,45.7196],[0.3283,45.7250],[0.3288,45.7260],[0.3271,45.7267],[0.3308,45.7292],[0.3284,45.7297],[0.3281,45.7313],[0.3299,45.7315],[0.3318,45.7361],[0.3333,45.7360],[0.3360,45.7389],[0.3331,45.7417],[0.3346,45.7424],[0.3322,45.7428],[0.3316,45.7458],[0.3335,45.7516],[0.3321,45.7514],[0.3318,45.7550],[0.3337,45.7571],[0.3314,45.7579],[0.3329,45.7583],[0.3311,45.7607],[0.3250,45.7617]]]}},{"type":"Feature","properties":{"name":"Bois des Chaillats"},"geometry":{"type":"Polygon","coordinates":[[[0.3977,45.6738],[0.4018,45.6737],[0.4033,45.6719],[0.4016,45.6713],[0.4020,45.6701],[0.4007,45.6703],[0.4023,45.6692],[0.4038,45.6694],[0.4041,45.6716],[0.4059,45.6723],[0.4071,45.6705],[0.4061,45.6695],[0.4088,45.6665],[0.4100,45.6716],[0.4080,45.6739],[0.4093,45.6764],[0.4091,45.6749],[0.4111,45.6737],[0.4106,45.6707],[0.4116,45.6706],[0.4099,45.6666],[0.4114,45.6629],[0.4093,45.6625],[0.4157,45.6622],[0.4156,45.6607],[0.4173,45.6597],[0.4178,45.6624],[0.4156,45.6624],[0.4153,45.6637],[0.4174,45.6658],[0.4200,45.6655],[0.4205,45.6647],[0.4182,45.6629],[0.4188,45.6623],[0.4213,45.6632],[0.4250,45.6619],[0.4233,45.6571],[0.4250,45.6560],[0.4231,45.6546],[0.4261,45.6560],[0.4296,45.6545],[0.4304,45.6573],[0.4259,45.6566],[0.4246,45.6590],[0.4265,45.6618],[0.4277,45.6607],[0.4261,45.6602],[0.4260,45.6583],[0.4322,45.6602],[0.4296,45.6611],[0.4303,45.6642],[0.4317,45.6639],[0.4330,45.6663],[0.4356,45.6659],[0.4323,45.6641],[0.4376,45.6615],[0.4371,45.6606],[0.4388,45.6623],[0.4363,45.6629],[0.4362,45.6642],[0.4450,45.6623],[0.4441,45.6589],[0.4422,45.6596],[0.4409,45.6579],[0.4387,45.6588],[0.4344,45.6569],[0.4330,45.6548],[0.4335,45.6517],[0.4312,45.6508],[0.4305,45.6523],[0.4289,45.6522],[0.4268,45.6508],[0.4300,45.6515],[0.4315,45.6491],[0.4340,45.6502],[0.4336,45.6516],[0.4392,45.6517],[0.4388,45.6483],[0.4363,45.6473],[0.4343,45.6501],[0.4335,45.6474],[0.4381,45.6453],[0.4471,45.6462],[0.4478,45.6413],[0.4499,45.6412],[0.4500,45.6397],[0.4494,45.6386],[0.4461,45.6382],[0.4489,45.6374],[0.4487,45.6362],[0.4445,45.6369],[0.4451,45.6355],[0.4440,45.6356],[0.4436,45.6395],[0.4420,45.6393],[0.4407,45.6357],[0.4379,45.6354],[0.4377,45.6375],[0.4349,45.6373],[0.4341,45.6353],[0.4293,45.6327],[0.4260,45.6332],[0.4258,45.6320],[0.4272,45.6316],[0.4244,45.6304],[0.4222,45.6309],[0.4230,45.6320],[0.4218,45.6329],[0.4188,45.6300],[0.4175,45.6311],[0.4117,45.6296],[0.4108,45.6264],[0.4110,45.6286],[0.4074,45.6310],[0.4085,45.6295],[0.4079,45.6275],[0.4044,45.6274],[0.4058,45.6300],[0.4041,45.6303],[0.4053,45.6326],[0.4082,45.6333],[0.4090,45.6351],[0.4074,45.6355],[0.4081,45.6375],[0.4043,45.6365],[0.4032,45.6380],[0.4066,45.6390],[0.4070,45.6418],[0.4098,45.6414],[0.4102,45.6432],[0.4122,45.6441],[0.4101,45.6440],[0.4125,45.6465],[0.4110,45.6485],[0.4069,45.6499],[0.4058,45.6485],[0.4048,45.6492],[0.4015,45.6478],[0.4022,45.6453],[0.4044,45.6454],[0.4033,45.6440],[0.4000,45.6454],[0.3978,45.6448],[0.4012,45.6430],[0.4034,45.6438],[0.4036,45.6416],[0.3959,45.6428],[0.3948,45.6418],[0.3968,45.6409],[0.3940,45.6406],[0.3941,45.6448],[0.3964,45.6450],[0.3926,45.6473],[0.3901,45.6466],[0.3912,45.6458],[0.3902,45.6436],[0.3883,45.6437],[0.3854,45.6400],[0.3867,45.6412],[0.3883,45.6403],[0.3886,45.6420],[0.3908,45.6417],[0.3890,45.6413],[0.3917,45.6405],[0.3915,45.6386],[0.3941,45.6382],[0.3925,45.6373],[0.3957,45.6378],[0.3965,45.6365],[0.3987,45.6375],[0.3996,45.6347],[0.3990,45.6364],[0.3956,45.6346],[0.3949,45.6364],[0.3934,45.6357],[0.3935,45.6367],[0.3886,45.6384],[0.3884,45.6400],[0.3872,45.6381],[0.3891,45.6368],[0.3874,45.6357],[0.3907,45.6351],[0.3892,45.6345],[0.3905,45.6333],[0.3869,45.6333],[0.3857,45.6354],[0.3840,45.6351],[0.3849,45.6363],[0.3864,45.6354],[0.3887,45.6367],[0.3835,45.6390],[0.3820,45.6381],[0.3868,45.6436],[0.3833,45.6479],[0.3759,45.6462],[0.3727,45.6468],[0.3714,45.6483],[0.3750,45.6492],[0.3766,45.6480],[0.3756,45.6522],[0.3801,45.6547],[0.3814,45.6535],[0.3766,45.6514],[0.3774,45.6505],[0.3812,45.6522],[0.3828,45.6515],[0.3818,45.6512],[0.3830,45.6483],[0.3850,45.6467],[0.3876,45.6476],[0.3891,45.6459],[0.3879,45.6473],[0.3890,45.6497],[0.3868,45.6508],[0.3861,45.6496],[0.3860,45.6518],[0.3843,45.6520],[0.3859,45.6532],[0.3874,45.6526],[0.3857,45.6554],[0.3851,45.6543],[0.3831,45.6543],[0.3855,45.6569],[0.3873,45.6567],[0.3893,45.6543],[0.3885,45.6532],[0.3899,45.6523],[0.3885,45.6519],[0.3926,45.6500],[0.3956,45.6496],[0.3977,45.6509],[0.3985,45.6541],[0.4000,45.6545],[0.4001,45.6519],[0.4022,45.6544],[0.3980,45.6555],[0.3976,45.6569],[0.3993,45.6569],[0.3980,45.6574],[0.3994,45.6583],[0.3978,45.6581],[0.3973,45.6605],[0.3941,45.6583],[0.3906,45.6593],[0.3873,45.6578],[0.3893,45.6605],[0.3880,45.6617],[0.3907,45.6617],[0.3904,45.6603],[0.3941,45.6597],[0.3951,45.6615],[0.3990,45.6633],[0.3981,45.6642],[0.3989,45.6646],[0.3958,45.6666],[0.3912,45.6665],[0.3893,45.6697],[0.3856,45.6680],[0.3831,45.6685],[0.3822,45.6707],[0.3853,45.6694],[0.3891,45.6711],[0.3931,45.6669],[0.3989,45.6679],[0.3997,45.6657],[0.4017,45.6661],[0.3995,45.6687],[0.3997,45.6709],[0.3922,45.6722],[0.3928,45.6739],[0.3977,45.6738]]]}},{"type":"Feature","properties":{"name":"Les Fieux"},"geometry":{"type":"Polygon","coordinates":[[[0.7872,45.2329],[0.7884,45.2335],[0.7866,45.2347],[0.7882,45.2349],[0.7880,45.2362],[0.7895,45.2356],[0.7881,45.2364],[0.7902,45.2375],[0.7918,45.2366],[0.7913,45.2331],[0.7893,45.2324],[0.7903,45.2306],[0.7879,45.2263],[0.7856,45.2288],[0.7846,45.2283],[0.7869,45.2251],[0.7856,45.2233],[0.7863,45.2218],[0.7839,45.2203],[0.7847,45.2177],[0.7809,45.2155],[0.7768,45.2172],[0.7729,45.2159],[0.7747,45.2146],[0.7734,45.2126],[0.7784,45.2107],[0.7729,45.2101],[0.7758,45.2085],[0.7736,45.2059],[0.7723,45.2071],[0.7701,45.2052],[0.7701,45.2026],[0.7685,45.2010],[0.7679,45.2054],[0.7661,45.2047],[0.7655,45.2067],[0.7689,45.2071],[0.7692,45.2083],[0.7666,45.2088],[0.7657,45.2107],[0.7677,45.2116],[0.7674,45.2126],[0.7618,45.2146],[0.7606,45.2124],[0.7582,45.2142],[0.7608,45.2161],[0.7659,45.2145],[0.7560,45.2176],[0.7535,45.2174],[0.7543,45.2171],[0.7535,45.2164],[0.7512,45.2172],[0.7533,45.2191],[0.7560,45.2193],[0.7556,45.2207],[0.7571,45.2212],[0.7583,45.2202],[0.7571,45.2196],[0.7614,45.2201],[0.7584,45.2184],[0.7647,45.2162],[0.7622,45.2193],[0.7633,45.2208],[0.7671,45.2192],[0.7667,45.2203],[0.7627,45.2222],[0.7580,45.2208],[0.7640,45.2248],[0.7665,45.2238],[0.7658,45.2224],[0.7678,45.2236],[0.7675,45.2205],[0.7728,45.2180],[0.7740,45.2198],[0.7726,45.2215],[0.7698,45.2208],[0.7713,45.2221],[0.7700,45.2241],[0.7717,45.2254],[0.7746,45.2224],[0.7767,45.2224],[0.7777,45.2232],[0.7755,45.2254],[0.7780,45.2266],[0.7768,45.2280],[0.7797,45.2285],[0.7785,45.2298],[0.7746,45.2281],[0.7761,45.2270],[0.7740,45.2267],[0.7735,45.2258],[0.7747,45.2248],[0.7673,45.2263],[0.7658,45.2251],[0.7638,45.2257],[0.7664,45.2261],[0.7607,45.2272],[0.7597,45.2270],[0.7605,45.2256],[0.7596,45.2245],[0.7586,45.2250],[0.7595,45.2269],[0.7580,45.2277],[0.7583,45.2308],[0.7539,45.2328],[0.7575,45.2342],[0.7598,45.2323],[0.7616,45.2331],[0.7627,45.2315],[0.7616,45.2318],[0.7617,45.2307],[0.7636,45.2294],[0.7626,45.2312],[0.7648,45.2321],[0.7656,45.2305],[0.7689,45.2296],[0.7752,45.2301],[0.7756,45.2326],[0.7778,45.2319],[0.7780,45.2354],[0.7807,45.2348],[0.7814,45.2320],[0.7825,45.2332],[0.7872,45.2329]]]}}]}