{"type":"FeatureCollection","features":[{"type":"Feature","properties":{"name":"Forêt du Risoux"},"geometry":{"type":"Polygon","coordinates":[[[6.0307,46.5213],[6.0321,46.5226],[6.0313,46.5233],[6.0347,46.5236],[6.0362,46.5258],[6.0449,46.5312],[6.0441,46.5320],[6.0468,46.5327],[6.0551,46.5392],[6.0532,46.5415],[6.0558,46.5408],[6.0567,46.5417],[6.0556,46.5426],[6.0598,46.5433],[6.0578,46.5439],[6.0585,46.5449],[6.0587,46.5438],[6.0605,46.5435],[6.0602,46.5453],[6.0626,46.5451],[6.0629,46.5472],[6.0645,46.5477],[6.0578,46.5466],[6.0532,46.5486],[6.0521,46.5505],[6.0574,46.5491],[6.0562,46.5502],[6.0567,46.5513],[6.0589,46.5512],[6.0599,46.5529],[6.0615,46.5511],[6.0644,46.5520],[6.0672,46.5510],[6.0711,46.5562],[6.0804,46.5504],[6.0712,46.5564],[6.0720,46.5566],[6.0760,46.5549],[6.0766,46.5564],[6.0800,46.5547],[6.0810,46.5506],[6.0801,46.5504],[6.0815,46.5503],[6.0803,46.5548],[6.0739,46.5580],[6.0785,46.5590],[6.0712,46.5615],[6.0723,46.5637],[6.0707,46.5640],[6.0709,46.5651],[6.0743,46.5661],[6.0761,46.5637],[6.0738,46.5622],[6.0785,46.5598],[6.0774,46.5623],[6.0806,46.5613],[6.0802,46.5621],[6.0834,46.5636],[6.0805,46.5660],[6.0854,46.5645],[6.0909,46.5663],[6.0907,46.5672],[6.0927,46.5665],[6.0909,46.5657],[6.0929,46.5645],[6.0939,46.5664],[6.0916,46.5681],[6.0938,46.5682],[6.0957,46.5702],[6.0976,46.5690],[6.0982,46.5721],[6.1047,46.5750],[6.1085,46.5788],[6.1094,46.5804],[6.1073,46.5803],[6.1108,46.5831],[6.1083,46.5855],[6.1099,46.5862],[6.1124,46.5845],[6.1170,46.5879],[6.1180,46.5871],[6.1154,46.5845],[6.1171,46.5850],[6.1225,46.5942],[6.1251,46.5946],[6.1241,46.5953],[6.1262,46.5961],[6.1248,46.5969],[6.1221,46.5959],[6.1219,46.5969],[6.1264,46.6017],[6.1257,46.6031],[6.1270,46.6050],[6.1350,46.6099],[6.1345,46.6116],[6.1363,46.6135],[6.1409,46.6155],[6.1402,46.6189],[6.1427,46.6217],[6.1415,46.6250],[6.1423,46.6315],[6.1435,46.6326],[6.1418,46.6342],[6.1434,46.6372],[6.1466,46.6383],[6.1458,46.6392],[6.1478,46.6393],[6.1516,46.6367],[6.1491,46.6360],[6.1499,46.6352],[6.1524,46.6364],[6.1544,46.6356],[6.1565,46.6376],[6.1577,46.6369],[6.1569,46.6385],[6.1538,46.6368],[6.1537,46.6357],[6.1518,46.6370],[6.1491,46.6438],[6.1446,46.6489],[6.1428,46.6530],[6.1457,46.6507],[6.1489,46.6529],[6.1517,46.6501],[6.1546,46.6460],[6.1541,46.6450],[6.1490,46.6461],[6.1506,46.6456],[6.1495,46.6433],[6.1533,46.6419],[6.1537,46.6408],[6.1583,46.6423],[6.1561,46.6458],[6.1580,46.6466],[6.1613,46.6420],[6.1661,46.6411],[6.1665,46.6421],[6.1633,46.6451],[6.1638,46.6462],[6.1591,46.6490],[6.1620,46.6500],[6.1634,46.6490],[6.1617,46.6505],[6.1593,46.6501],[6.1632,46.6561],[6.1666,46.6548],[6.1679,46.6528],[6.1686,46.6537],[6.1692,46.6522],[6.1673,46.6505],[6.1641,46.6514],[6.1625,46.6503],[6.1652,46.6495],[6.1638,46.6485],[6.1659,46.6458],[6.1712,46.6457],[6.1700,46.6487],[6.1727,46.6492],[6.1740,46.6473],[6.1742,46.6489],[6.1769,46.6501],[6.2128,46.6404],[6.2075,46.6354],[6.2057,46.6348],[6.2041,46.6361],[6.1995,46.6344],[6.2006,46.6335],[6.1959,46.6294],[6.1963,46.6281],[6.1790,46.6200],[6.1783,46.6156],[6.1653,46.6101],[6.1612,46.6100],[6.1538,46.6038],[6.1481,46.6022],[6.1265,46.5899],[6.1219,46.5841],[6.1105,46.5764],[6.1437,46.5539],[6.1419,46.5523],[6.1443,46.5535],[6.1452,46.5529],[6.1441,46.5515],[6.1459,46.5525],[6.1475,46.5514],[6.1464,46.5494],[6.1434,46.5494],[6.1385,46.5433],[6.1279,46.5373],[6.1251,46.5395],[6.1216,46.5380],[6.1215,46.5397],[6.1131,46.5356],[6.1033,46.5279],[6.1082,46.5265],[6.1068,46.5241],[6.1077,46.5227],[6.0895,46.5085],[6.0808,46.5101],[6.0798,46.5071],[6.0849,46.5076],[6.0845,46.5060],[6.0801,46.5039],[6.0740,46.5083],[6.0739,46.5064],[6.0766,46.5032],[6.0756,46.5014],[6.0732,46.5006],[6.0733,46.5020],[6.0757,46.5025],[6.0737,46.5043],[6.0711,46.5038],[6.0717,46.5022],[6.0687,46.5010],[6.0680,46.5039],[6.0646,46.5030],[6.0685,46.5060],[6.0618,46.5020],[6.0650,46.5030],[6.0632,46.5021],[6.0644,46.5006],[6.0657,46.5011],[6.0666,46.4993],[6.0572,46.4950],[6.0541,46.4953],[6.0532,46.4960],[6.0549,46.4982],[6.0506,46.5040],[6.0458,46.5044],[6.0446,46.5072],[6.0429,46.5074],[6.0433,46.5086],[6.0415,46.5095],[6.0423,46.5113],[6.0397,46.5132],[6.0390,46.5184],[6.0431,46.5224],[6.0454,46.5224],[6.0506,46.5267],[6.0522,46.5294],[6.0415,46.5241],[6.0413,46.5260],[6.0372,46.5240],[6.0308,46.5163],[6.0275,46.5158],[6.0273,46.5195],[6.0307,46.5213]]]}},{"type":"Feature","properties":{"name":"Bois de Ban"},"geometry":{"type":"Polygon","coordinates":[[[6.8020,46.6006],[6.7925,46.5992],[6.7927,46.6004],[6.7881,46.6032],[6.7883,46.6054],[6.7919,46.6040],[6.7927,46.6056],[6.7956,46.6055],[6.7965,46.6076],[6.7987,46.6078],[6.7997,46.6106],[6.8025,46.6128],[6.7995,46.6168],[6.7993,46.6191],[6.7997,46.6211],[6.8009,46.6202],[6.8022,46.6215],[6.8019,46.6188],[6.8060,46.6150],[6.8065,46.6138],[6.8051,46.6147],[6.8070,46.6098],[6.8061,46.6075],[6.8070,46.6072],[6.8051,46.6033],[6.8048,46.6041],[6.8040,46.6033],[6.8048,46.6028],[6.8029,46.5996],[6.8075,46.6011],[6.8089,46.6038],[6.8105,46.6041],[6.8090,46.6034],[6.8085,46.6005],[6.8063,46.5995],[6.8040,46.5934],[6.8005,46.5907],[6.7995,46.5876],[6.7999,46.5893],[6.7983,46.5887],[6.7993,46.5906],[6.7941,46.5911],[6.7899,46.5937],[6.7886,46.5930],[6.7899,46.5939],[6.7938,46.5922],[6.7955,46.5930],[6.7957,46.5945],[6.7934,46.5959],[6.7947,46.5972],[6.7944,46.5989],[6.7990,46.5998],[6.7999,46.5995],[6.7987,46.5985],[6.7991,46.5972],[6.8013,46.5976],[6.8020,46.6006]]]}},{"type":"Feature","properties":{"name":"Bois Communal des Rachotte"},"geometry":{"type":"Polygon","coordinates":[[[6.8441,47.1992],[6.8454,47.1976],[6.8398,47.1959],[6.8440,47.1946],[6.8412,47.1918],[6.8388,47.1916],[6.8388,47.1894],[6.8352,47.1937],[6.8244,47.1905],[6.8199,47.1937],[6.8134,47.1930],[6.8076,47.1974],[6.8093,47.1985],[6.8100,47.1972],[6.8121,47.1974],[6.8183,47.1995],[6.8182,47.2013],[6.8193,47.2017],[6.8198,47.2006],[6.8311,47.2009],[6.8384,47.2021],[6.8400,47.1998],[6.8411,47.2006],[6.8441,47.1992]]]}},{"type":"Feature","properties":{"name":"Bois des Fouchères"},"geometry":{"type":"Polygon","coordinates":[[[5.8806,47.2900],[5.8848,47.2878],[5.8861,47.2898],[5.8844,47.2907],[5.8851,47.2912],[5.8872,47.2903],[5.8872,47.2888],[5.8894,47.2893],[5.8891,47.2879],[5.8933,47.2888],[5.8948,47.2876],[5.8911,47.2876],[5.8946,47.2859],[5.8942,47.2834],[5.8958,47.2804],[5.8987,47.2816],[5.8985,47.2788],[5.8897,47.2753],[5.8862,47.2756],[5.8879,47.2772],[5.8848,47.2800],[5.8815,47.2768],[5.8787,47.2777],[5.8777,47.2803],[5.8782,47.2769],[5.8760,47.2758],[5.8728,47.2791],[5.8706,47.2797],[5.8699,47.2816],[5.8650,47.2822],[5.8604,47.2809],[5.8571,47.2823],[5.8449,47.2768],[5.8424,47.2784],[5.8373,47.2782],[5.8347,47.2796],[5.8330,47.2827],[5.8361,47.2841],[5.8622,47.2859],[5.8806,47.2900]]]}},{"type":"Feature","properties":{"name":"Bois d\u0027Aglans"},"geometry":{"type":"Polygon","coordinates":[[[6.0908,47.1992],[6.0925,47.1983],[6.0927,47.1955],[6.0888,47.1973],[6.0902,47.1939],[6.0850,47.1868],[6.0765,47.1872],[6.0761,47.1886],[6.0705,47.1876],[6.0693,47.1927],[6.0677,47.1928],[6.0674,47.1966],[6.0618,47.1940],[6.0606,47.1963],[6.0597,47.1952],[6.0585,47.1957],[6.0606,47.1970],[6.0616,47.1955],[6.0628,47.1975],[6.0674,47.1988],[6.0688,47.2011],[6.0706,47.2010],[6.0704,47.2032],[6.0729,47.2038],[6.0734,47.2028],[6.0715,47.2020],[6.0791,47.2020],[6.0778,47.2015],[6.0785,47.1999],[6.0772,47.1993],[6.0751,47.2009],[6.0753,47.1998],[6.0726,47.1977],[6.0805,47.1984],[6.0802,47.1995],[6.0826,47.1989],[6.0834,47.2010],[6.0871,47.1985],[6.0893,47.2000],[6.0908,47.1992]]]}},{"type":"Feature","properties":{"name":"Bois des Fouchères"},"geometry":{"type":"Polygon","coordinates":[[[5.8801,47.2905],[5.8637,47.2869],[5.8340,47.2845],[5.8329,47.2861],[5.8319,47.2845],[5.8143,47.2837],[5.8106,47.2887],[5.8118,47.2907],[5.8146,47.2911],[5.8146,47.2922],[5.8179,47.2932],[5.8183,47.2946],[5.8215,47.2954],[5.8206,47.2948],[5.8248,47.2946],[5.8238,47.2942],[5.8257,47.2929],[5.8252,47.2921],[5.8279,47.2921],[5.8288,47.2901],[5.8314,47.2901],[5.8270,47.2932],[5.8296,47.2951],[5.8315,47.2939],[5.8357,47.2945],[5.8363,47.2934],[5.8338,47.2915],[5.8363,47.2913],[5.8350,47.2905],[5.8363,47.2898],[5.8416,47.2916],[5.8410,47.2925],[5.8467,47.2910],[5.8516,47.2952],[5.8544,47.2939],[5.8559,47.2948],[5.8548,47.2935],[5.8578,47.2929],[5.8593,47.2943],[5.8597,47.2916],[5.8619,47.2897],[5.8682,47.2939],[5.8743,47.2953],[5.8771,47.2943],[5.8776,47.2911],[5.8797,47.2922],[5.8788,47.2916],[5.8801,47.2905]]]}},{"type":"Feature","properties":{"name":"Bois de Blusseret"},"geometry":{"type":"Polygon","coordinates":[[[6.4203,47.5578],[6.4177,47.5567],[6.4191,47.5584],[6.4129,47.5578],[6.4130,47.5600],[6.4100,47.5622],[6.4090,47.5606],[6.4063,47.5605],[6.4028,47.5630],[6.3976,47.5606],[6.3932,47.5634],[6.3926,47.5665],[6.3912,47.5639],[6.3907,47.5656],[6.3922,47.5681],[6.3929,47.5668],[6.3951,47.5675],[6.3958,47.5715],[6.3982,47.5741],[6.3980,47.5726],[6.4005,47.5728],[6.3966,47.5762],[6.3978,47.5783],[6.3964,47.5799],[6.3984,47.5788],[6.3982,47.5773],[6.3994,47.5776],[6.3986,47.5766],[6.4030,47.5777],[6.4007,47.5779],[6.4046,47.5830],[6.4078,47.5853],[6.4092,47.5809],[6.4114,47.5794],[6.4143,47.5810],[6.4234,47.5789],[6.4214,47.5821],[6.4272,47.5850],[6.4352,47.5824],[6.4396,47.5788],[6.4413,47.5788],[6.4413,47.5798],[6.4387,47.5837],[6.4427,47.5824],[6.4433,47.5805],[6.4410,47.5771],[6.4418,47.5761],[6.4403,47.5759],[6.4400,47.5771],[6.4382,47.5738],[6.4388,47.5761],[6.4366,47.5764],[6.4355,47.5738],[6.4361,47.5721],[6.4380,47.5721],[6.4313,47.5673],[6.4302,47.5677],[6.4311,47.5670],[6.4303,47.5657],[6.4268,47.5626],[6.4228,47.5619],[6.4213,47.5605],[6.4228,47.5588],[6.4186,47.5599],[6.4203,47.5578]]]}},{"type":"Feature","properties":{"name":"Bois Monsieur"},"geometry":{"type":"Polygon","coordinates":[[[5.9060,47.1979],[5.9078,47.2007],[5.9106,47.2020],[5.9081,47.2015],[5.9091,47.2035],[5.9175,47.2110],[5.9321,47.2098],[5.9418,47.2140],[5.9413,47.2132],[5.9433,47.2122],[5.9405,47.2083],[5.9445,47.2066],[5.9461,47.2080],[5.9453,47.2097],[5.9467,47.2122],[5.9509,47.2101],[5.9559,47.2156],[5.9575,47.2163],[5.9598,47.2144],[5.9575,47.2155],[5.9560,47.2148],[5.9586,47.2131],[5.9568,47.2125],[5.9570,47.2114],[5.9582,47.2119],[5.9583,47.2096],[5.9555,47.2100],[5.9586,47.2074],[5.9603,47.2081],[5.9597,47.2065],[5.9583,47.2059],[5.9569,47.2076],[5.9531,47.2073],[5.9536,47.2033],[5.9519,47.2037],[5.9502,47.2016],[5.9486,47.2021],[5.9496,47.2006],[5.9475,47.1988],[5.9493,47.1977],[5.9471,47.1975],[5.9463,47.1925],[5.9423,47.1902],[5.9397,47.1908],[5.9389,47.1855],[5.9354,47.1859],[5.9384,47.1907],[5.9425,47.1922],[5.9395,47.1943],[5.9404,47.1955],[5.9381,47.1979],[5.9315,47.1941],[5.9315,47.1922],[5.9335,47.1919],[5.9326,47.1889],[5.9339,47.1887],[5.9324,47.1868],[5.9269,47.1886],[5.9276,47.1956],[5.9298,47.1959],[5.9324,47.1990],[5.9295,47.2002],[5.9305,47.2021],[5.9274,47.2030],[5.9233,47.1994],[5.9208,47.1989],[5.9193,47.2000],[5.9184,47.1994],[5.9190,47.2002],[5.9160,47.1996],[5.9213,47.2024],[5.9208,47.2035],[5.9245,47.2059],[5.9249,47.2074],[5.9200,47.2049],[5.9204,47.2033],[5.9117,47.2002],[5.9141,47.1998],[5.9136,47.1974],[5.9099,47.1974],[5.9117,47.1983],[5.9104,47.1995],[5.9088,47.1983],[5.9098,47.1978],[5.9090,47.1964],[5.9060,47.1979]]]}},{"type":"Feature","properties":{"name":"Forêt domaniale de Levier"},"geometry":{"type":"Polygon","coordinates":[[[6.0786,46.9409],[6.0799,46.9398],[6.0888,46.9393],[6.0875,46.9383],[6.0894,46.9386],[6.0912,46.9372],[6.0959,46.9389],[6.0974,46.9368],[6.0966,46.9356],[6.0976,46.9351],[6.0960,46.9331],[6.0983,46.9314],[6.0942,46.9190],[6.0937,46.9071],[6.0930,46.9059],[6.0925,46.9068],[6.0902,46.9063],[6.0893,46.9080],[6.0893,46.9061],[6.0806,46.9025],[6.0791,46.9023],[6.0774,46.9043],[6.0793,46.9021],[6.0780,46.9016],[6.0759,46.9030],[6.0775,46.9014],[6.0760,46.9007],[6.0745,46.9018],[6.0674,46.8974],[6.0656,46.8977],[6.0648,46.9002],[6.0659,46.9030],[6.0616,46.9036],[6.0648,46.9062],[6.0647,46.9085],[6.0665,46.9090],[6.0700,46.9073],[6.0694,46.9132],[6.0610,46.9110],[6.0610,46.9134],[6.0587,46.9136],[6.0591,46.9119],[6.0537,46.9154],[6.0556,46.9158],[6.0561,46.9177],[6.0577,46.9157],[6.0608,46.9156],[6.0603,46.9179],[6.0585,46.9170],[6.0568,46.9187],[6.0604,46.9217],[6.0586,46.9227],[6.0647,46.9242],[6.0626,46.9252],[6.0661,46.9273],[6.0665,46.9288],[6.0709,46.9282],[6.0730,46.9302],[6.0752,46.9294],[6.0727,46.9337],[6.0735,46.9345],[6.0715,46.9345],[6.0728,46.9353],[6.0721,46.9364],[6.0705,46.9381],[6.0686,46.9377],[6.0680,46.9393],[6.0696,46.9405],[6.0786,46.9409]]]}},{"type":"Feature","properties":{"name":"Bois de la Côte de l\u0027Heute"},"geometry":{"type":"Polygon","coordinates":[[[5.6542,46.6296],[5.6580,46.6253],[5.6590,46.6188],[5.6600,46.6173],[5.6619,46.6174],[5.6602,46.6196],[5.6623,46.6210],[5.6598,46.6235],[5.6621,46.6267],[5.6619,46.6288],[5.6692,46.6346],[5.6616,46.6292],[5.6594,46.6300],[5.6584,46.6351],[5.6592,46.6326],[5.6642,46.6361],[5.6590,46.6357],[5.6594,46.6374],[5.6568,46.6360],[5.6573,46.6380],[5.6554,46.6381],[5.6562,46.6362],[5.6544,46.6368],[5.6547,46.6355],[5.6534,46.6348],[5.6497,46.6397],[5.6500,46.6366],[5.6488,46.6390],[5.6464,46.6398],[5.6457,46.6427],[5.6484,46.6421],[5.6490,46.6407],[5.6483,46.6419],[5.6498,46.6412],[5.6498,46.6424],[5.6484,46.6430],[5.6489,46.6446],[5.6473,46.6446],[5.6477,46.6455],[5.6440,46.6487],[5.6464,46.6495],[5.6429,46.6500],[5.6429,46.6516],[5.6443,46.6537],[5.6465,46.6539],[5.6494,46.6520],[5.6516,46.6527],[5.6460,46.6584],[5.6466,46.6598],[5.6496,46.6593],[5.6472,46.6591],[5.6484,46.6570],[5.6531,46.6561],[5.6551,46.6535],[5.6548,46.6548],[5.6621,46.6500],[5.6630,46.6526],[5.6657,46.6522],[5.6640,46.6529],[5.6655,46.6543],[5.6637,46.6548],[5.6658,46.6565],[5.6652,46.6571],[5.6698,46.6559],[5.6714,46.6572],[5.6735,46.6568],[5.6747,46.6551],[5.6738,46.6529],[5.6749,46.6524],[5.6722,46.6484],[5.6676,46.6448],[5.6789,46.6401],[5.6773,46.6416],[5.6801,46.6432],[5.6785,46.6408],[5.6795,46.6407],[5.6826,46.6484],[5.6871,46.6515],[5.6874,46.6548],[5.6916,46.6609],[5.6968,46.6660],[5.7038,46.6694],[5.7021,46.6703],[5.7008,46.6692],[5.6999,46.6705],[5.6962,46.6677],[5.6909,46.6697],[5.6887,46.6657],[5.6900,46.6654],[5.6922,46.6676],[5.6932,46.6663],[5.6906,46.6637],[5.6879,46.6640],[5.6888,46.6655],[5.6864,46.6646],[5.6870,46.6636],[5.6838,46.6632],[5.6833,46.6614],[5.6820,46.6621],[5.6828,46.6635],[5.6811,46.6640],[5.6835,46.6656],[5.6817,46.6663],[5.6827,46.6673],[5.6812,46.6696],[5.6809,46.6646],[5.6786,46.6673],[5.6788,46.6654],[5.6760,46.6651],[5.6755,46.6625],[5.6715,46.6622],[5.6733,46.6599],[5.6712,46.6604],[5.6704,46.6578],[5.6685,46.6593],[5.6696,46.6603],[5.6644,46.6624],[5.6667,46.6622],[5.6673,46.6642],[5.6640,46.6653],[5.6649,46.6672],[5.6635,46.6671],[5.6634,46.6681],[5.6645,46.6693],[5.6688,46.6681],[5.6679,46.6659],[5.6699,46.6644],[5.6730,46.6641],[5.6759,46.6660],[5.6776,46.6700],[5.6793,46.6690],[5.6806,46.6699],[5.6805,46.6716],[5.6829,46.6716],[5.6847,46.6696],[5.6946,46.6753],[5.6929,46.6777],[5.6840,46.6728],[5.6791,46.6737],[5.6784,46.6748],[5.6798,46.6866],[5.6849,46.6852],[5.6850,46.6835],[5.6851,46.6855],[5.6868,46.6852],[5.6856,46.6856],[5.6873,46.6872],[5.6894,46.6859],[5.6883,46.6834],[5.6900,46.6831],[5.6928,46.6839],[5.6944,46.6863],[5.6940,46.6881],[5.6865,46.6901],[5.6877,46.6913],[5.6865,46.6909],[5.6864,46.6922],[5.6903,46.6911],[5.6900,46.6927],[5.7067,46.6939],[5.7072,46.6924],[5.7054,46.6900],[5.7050,46.6864],[5.7038,46.6851],[5.7036,46.6884],[5.6975,46.6862],[5.7011,46.6818],[5.6958,46.6790],[5.6998,46.6711],[5.7040,46.6734],[5.7062,46.6721],[5.7072,46.6725],[5.7062,46.6814],[5.7191,46.6771],[5.7207,46.6805],[5.7183,46.6838],[5.7211,46.6852],[5.7227,46.6890],[5.7267,46.6921],[5.7250,46.6929],[5.7260,46.6937],[5.7243,46.6939],[5.7249,46.6955],[5.7263,46.6953],[5.7282,46.6911],[5.7310,46.6938],[5.7387,46.6978],[5.7420,46.6982],[5.7528,46.7045],[5.7528,46.7014],[5.7502,46.6994],[5.7513,46.6978],[5.7501,46.6913],[5.7408,46.6859],[5.7352,46.6778],[5.7285,46.6718],[5.7235,46.6624],[5.7267,46.6632],[5.7192,46.6600],[5.7223,46.6605],[5.7204,46.6583],[5.7189,46.6528],[5.7144,46.6498],[5.7143,46.6519],[5.7082,46.6481],[5.7106,46.6500],[5.7082,46.6508],[5.7092,46.6527],[5.7083,46.6537],[5.7054,46.6542],[5.7017,46.6517],[5.6990,46.6529],[5.6976,46.6502],[5.7003,46.6505],[5.6993,46.6486],[5.6939,46.6469],[5.6943,46.6454],[5.6855,46.6414],[5.6838,46.6391],[5.6846,46.6383],[5.6836,46.6390],[5.6773,46.6350],[5.6711,46.6233],[5.6675,46.6218],[5.6680,46.6203],[5.6699,46.6201],[5.6684,46.6156],[5.6702,46.6146],[5.6688,46.6149],[5.6698,46.6118],[5.6709,46.6097],[5.6729,46.6097],[5.6729,46.6062],[5.6714,46.6061],[5.6712,46.6043],[5.6711,46.5977],[5.6694,46.5940],[5.6675,46.5985],[5.6673,46.5953],[5.6659,46.5978],[5.6608,46.6010],[5.6617,46.5991],[5.6515,46.6000],[5.6544,46.6032],[5.6536,46.6049],[5.6506,46.6016],[5.6476,46.6021],[5.6490,46.6039],[5.6494,46.6108],[5.6519,46.6140],[5.6549,46.6155],[5.6523,46.6167],[5.6532,46.6182],[5.6518,46.6180],[5.6523,46.6158],[5.6495,46.6188],[5.6513,46.6196],[5.6512,46.6215],[5.6471,46.6263],[5.6493,46.6271],[5.6515,46.6260],[5.6555,46.6217],[5.6543,46.6196],[5.6549,46.6179],[5.6571,46.6174],[5.6570,46.6187],[5.6560,46.6186],[5.6570,46.6213],[5.6555,46.6209],[5.6571,46.6225],[5.6556,46.6220],[5.6536,46.6246],[5.6525,46.6267],[5.6543,46.6276],[5.6520,46.6307],[5.6542,46.6296]]]}},{"type":"Feature","properties":{"name":"Forêt de la Menère"},"geometry":{"type":"Polygon","coordinates":[[[5.9293,47.2269],[5.9254,47.2201],[5.9176,47.2188],[5.9158,47.2202],[5.9160,47.2180],[5.9085,47.2096],[5.9029,47.2099],[5.9067,47.2108],[5.9068,47.2124],[5.9077,47.2125],[5.9076,47.2108],[5.9100,47.2106],[5.9052,47.2158],[5.9064,47.2179],[5.9034,47.2187],[5.8940,47.2138],[5.8966,47.2096],[5.9005,47.2117],[5.9027,47.2092],[5.8965,47.2073],[5.8943,47.2073],[5.8969,47.2084],[5.8943,47.2090],[5.8933,47.2108],[5.8844,47.2072],[5.8875,47.2060],[5.8824,47.2069],[5.8840,47.2077],[5.8826,47.2087],[5.8804,47.2076],[5.8815,47.2089],[5.8796,47.2074],[5.8822,47.2110],[5.8782,47.2127],[5.8779,47.2116],[5.8799,47.2113],[5.8778,47.2084],[5.8763,47.2093],[5.8787,47.2114],[5.8763,47.2103],[5.8772,47.2116],[5.8758,47.2124],[5.8764,47.2132],[5.8751,47.2126],[5.8796,47.2167],[5.8816,47.2158],[5.8793,47.2146],[5.8816,47.2133],[5.8851,47.2145],[5.8849,47.2157],[5.8864,47.2144],[5.8864,47.2159],[5.8867,47.2145],[5.8922,47.2138],[5.8921,47.2156],[5.8943,47.2181],[5.8962,47.2174],[5.8958,47.2160],[5.8973,47.2168],[5.8973,47.2186],[5.8987,47.2185],[5.9025,47.2224],[5.9012,47.2231],[5.9045,47.2246],[5.9054,47.2242],[5.9049,47.2226],[5.9096,47.2251],[5.9154,47.2222],[5.9157,47.2209],[5.9200,47.2229],[5.9205,47.2254],[5.9293,47.2269]]]}},{"type":"Feature","properties":{"name":"Forêt d\u0027Arne"},"geometry":{"type":"Polygon","coordinates":[[[5.7559,47.1916],[5.7592,47.1914],[5.7550,47.1896],[5.7549,47.1880],[5.7508,47.1844],[5.7501,47.1827],[5.7526,47.1806],[5.7448,47.1773],[5.7525,47.1704],[5.7542,47.1732],[5.7500,47.1767],[5.7526,47.1779],[5.7549,47.1768],[5.7528,47.1765],[5.7574,47.1750],[5.7581,47.1729],[5.7602,47.1721],[5.7587,47.1702],[5.7549,47.1689],[5.7554,47.1679],[5.7546,47.1688],[5.7491,47.1674],[5.7495,47.1665],[5.7441,47.1661],[5.7420,47.1722],[5.7384,47.1715],[5.7370,47.1748],[5.7377,47.1779],[5.7402,47.1792],[5.7402,47.1819],[5.7394,47.1840],[5.7382,47.1842],[5.7366,47.1837],[5.7393,47.1827],[5.7382,47.1804],[5.7264,47.1770],[5.7252,47.1746],[5.7157,47.1704],[5.7160,47.1689],[5.7204,47.1698],[5.7238,47.1725],[5.7276,47.1714],[5.7282,47.1698],[5.7336,47.1703],[5.7402,47.1644],[5.7293,47.1597],[5.7301,47.1576],[5.7283,47.1559],[5.7257,47.1563],[5.7248,47.1620],[5.7266,47.1671],[5.7255,47.1700],[5.7170,47.1658],[5.7127,47.1619],[5.7112,47.1629],[5.7017,47.1605],[5.7019,47.1585],[5.6988,47.1625],[5.6974,47.1614],[5.6995,47.1559],[5.6982,47.1541],[5.7007,47.1538],[5.6973,47.1536],[5.6964,47.1546],[5.6979,47.1575],[5.6970,47.1612],[5.6950,47.1624],[5.6918,47.1607],[5.6906,47.1617],[5.6866,47.1613],[5.6840,47.1583],[5.6862,47.1571],[5.6836,47.1566],[5.6820,47.1584],[5.6778,47.1570],[5.6751,47.1590],[5.6739,47.1574],[5.6714,47.1584],[5.6730,47.1600],[5.6723,47.1604],[5.6745,47.1606],[5.6708,47.1615],[5.6700,47.1631],[5.6716,47.1613],[5.6728,47.1617],[5.6700,47.1646],[5.6656,47.1630],[5.6631,47.1646],[5.6586,47.1558],[5.6528,47.1521],[5.6457,47.1511],[5.6479,47.1509],[5.6463,47.1506],[5.6467,47.1492],[5.6367,47.1504],[5.6345,47.1550],[5.6344,47.1602],[5.6420,47.1621],[5.6459,47.1643],[5.6456,47.1663],[5.6657,47.1747],[5.6739,47.1765],[5.6769,47.1725],[5.6776,47.1739],[5.6844,47.1737],[5.6838,47.1749],[5.6804,47.1741],[5.6792,47.1762],[5.6812,47.1767],[5.6804,47.1782],[5.6831,47.1798],[5.6850,47.1778],[5.6870,47.1785],[5.6889,47.1757],[5.6916,47.1764],[5.6893,47.1791],[5.6839,47.1808],[5.6877,47.1824],[5.7075,47.1861],[5.7089,47.1850],[5.7074,47.1817],[5.7093,47.1802],[5.7096,47.1855],[5.7240,47.1872],[5.7395,47.1861],[5.7396,47.1842],[5.7403,47.1863],[5.7559,47.1916]]]}},{"type":"Feature","properties":{"name":"Bois de Malrocher"},"geometry":{"type":"Polygon","coordinates":[[[5.8045,46.8171],[5.8018,46.8158],[5.8049,46.8142],[5.8047,46.8120],[5.8079,46.8049],[5.8060,46.8017],[5.8034,46.8006],[5.7990,46.8001],[5.7970,46.8012],[5.7935,46.8000],[5.7955,46.7935],[5.7915,46.7944],[5.7926,46.7923],[5.7916,46.7907],[5.7965,46.7910],[5.7971,46.7897],[5.7954,46.7904],[5.7950,46.7894],[5.7991,46.7879],[5.7975,46.7869],[5.7977,46.7884],[5.7966,46.7886],[5.7901,46.7864],[5.7916,46.7922],[5.7861,46.8070],[5.7795,46.8085],[5.7790,46.8110],[5.7851,46.8105],[5.7847,46.8168],[5.7862,46.8212],[5.7908,46.8203],[5.7937,46.8227],[5.7993,46.8228],[5.8016,46.8220],[5.8022,46.8192],[5.8045,46.8171]]]}},{"type":"Feature","properties":{"name":"Forêt domaniale de l\u0027Argançon"},"geometry":{"type":"Polygon","coordinates":[[[5.6884,46.9497],[5.6832,46.9503],[5.6796,46.9487],[5.6781,46.9509],[5.6744,46.9503],[5.6610,46.9639],[5.6603,46.9622],[5.6568,46.9624],[5.6547,46.9674],[5.6461,46.9753],[5.6486,46.9739],[5.6501,46.9744],[5.6462,46.9785],[5.6498,46.9788],[5.6517,46.9853],[5.6566,46.9868],[5.6558,46.9864],[5.6567,46.9839],[5.6638,46.9856],[5.6639,46.9839],[5.6657,46.9838],[5.6680,46.9848],[5.6675,46.9862],[5.6720,46.9856],[5.6742,46.9878],[5.6887,46.9741],[5.7012,46.9710],[5.6979,46.9783],[5.6985,46.9794],[5.6998,46.9757],[5.6991,46.9789],[5.7020,46.9794],[5.7012,46.9821],[5.7021,46.9848],[5.7001,46.9854],[5.7001,46.9839],[5.6991,46.9861],[5.7045,46.9868],[5.7055,46.9882],[5.7055,46.9869],[5.7103,46.9875],[5.7092,46.9907],[5.7075,46.9904],[5.7063,46.9928],[5.7112,46.9921],[5.7108,46.9930],[5.7134,46.9915],[5.7170,46.9945],[5.7239,46.9946],[5.7224,46.9936],[5.7230,46.9922],[5.7210,46.9926],[5.7209,46.9898],[5.7272,46.9916],[5.7277,46.9863],[5.7311,46.9798],[5.7323,46.9817],[5.7305,46.9844],[5.7318,46.9854],[5.7298,46.9875],[5.7304,46.9897],[5.7283,46.9935],[5.7300,46.9935],[5.7309,46.9964],[5.7326,46.9968],[5.7346,46.9960],[5.7356,46.9970],[5.7348,46.9946],[5.7364,46.9948],[5.7362,46.9936],[5.7411,46.9867],[5.7443,46.9878],[5.7466,46.9909],[5.7469,46.9937],[5.7495,46.9941],[5.7518,46.9927],[5.7536,46.9942],[5.7574,46.9936],[5.7569,46.9944],[5.7580,46.9936],[5.7568,46.9934],[5.7574,46.9923],[5.7551,46.9930],[5.7558,46.9899],[5.7647,46.9893],[5.7651,46.9907],[5.7675,46.9922],[5.7692,46.9919],[5.7698,46.9931],[5.7736,46.9911],[5.7749,46.9871],[5.7754,46.9903],[5.7871,46.9858],[5.7900,46.9835],[5.7803,46.9812],[5.7792,46.9791],[5.7768,46.9845],[5.7762,46.9833],[5.7782,46.9793],[5.7830,46.9746],[5.7827,46.9725],[5.7783,46.9721],[5.7784,46.9711],[5.7733,46.9685],[5.7728,46.9701],[5.7701,46.9689],[5.7734,46.9681],[5.7718,46.9679],[5.7721,46.9665],[5.7686,46.9680],[5.7637,46.9659],[5.7584,46.9698],[5.7655,46.9684],[5.7671,46.9693],[5.7675,46.9681],[5.7684,46.9698],[5.7684,46.9685],[5.7698,46.9686],[5.7695,46.9696],[5.7614,46.9708],[5.7591,46.9747],[5.7541,46.9768],[5.7508,46.9756],[5.7470,46.9779],[5.7450,46.9757],[5.7434,46.9789],[5.7402,46.9773],[5.7424,46.9737],[5.7342,46.9751],[5.7336,46.9715],[5.7352,46.9687],[5.7288,46.9648],[5.7254,46.9658],[5.7277,46.9665],[5.7207,46.9752],[5.7171,46.9732],[5.7063,46.9708],[5.7075,46.9687],[5.7116,46.9691],[5.7133,46.9672],[5.7090,46.9639],[5.7127,46.9646],[5.7148,46.9668],[5.7171,46.9651],[5.7125,46.9644],[5.7065,46.9600],[5.7066,46.9572],[5.7095,46.9566],[5.7076,46.9558],[5.7066,46.9532],[5.7075,46.9513],[5.7051,46.9505],[5.7071,46.9497],[5.7065,46.9470],[5.7011,46.9459],[5.6998,46.9467],[5.6951,46.9450],[5.6997,46.9480],[5.6984,46.9534],[5.7004,46.9542],[5.6964,46.9573],[5.6956,46.9570],[5.6979,46.9535],[5.6956,46.9521],[5.6943,46.9531],[5.6897,46.9495],[5.6884,46.9497]]]}},{"type":"Feature","properties":{"name":"Forêt de Chaux"},"geometry":{"type":"Polygon","coordinates":[[[5.7333,47.0376],[5.7276,47.0390],[5.7278,47.0364],[5.7240,47.0351],[5.7244,47.0311],[5.7235,47.0308],[5.7221,47.0313],[5.7218,47.0341],[5.7145,47.0354],[5.7138,47.0373],[5.7095,47.0361],[5.7112,47.0339],[5.7080,47.0351],[5.7083,47.0337],[5.7063,47.0336],[5.7055,47.0353],[5.7025,47.0364],[5.6992,47.0363],[5.6984,47.0343],[5.6962,47.0341],[5.6931,47.0444],[5.6880,47.0433],[5.6922,47.0332],[5.6910,47.0341],[5.6884,47.0325],[5.6869,47.0331],[5.6863,47.0312],[5.6854,47.0327],[5.6784,47.0320],[5.6778,47.0301],[5.6688,47.0318],[5.6685,47.0304],[5.6672,47.0305],[5.6682,47.0296],[5.6653,47.0306],[5.6644,47.0290],[5.6665,47.0282],[5.6658,47.0269],[5.6633,47.0267],[5.6657,47.0279],[5.6611,47.0285],[5.6536,47.0264],[5.6507,47.0270],[5.6461,47.0235],[5.6428,47.0235],[5.6436,47.0257],[5.6377,47.0256],[5.6336,47.0227],[5.6341,47.0205],[5.6318,47.0193],[5.6334,47.0184],[5.6404,47.0192],[5.6342,47.0169],[5.6326,47.0178],[5.6331,47.0167],[5.6321,47.0163],[5.6316,47.0174],[5.6272,47.0161],[5.6290,47.0141],[5.6325,47.0137],[5.6295,47.0137],[5.6258,47.0156],[5.6296,47.0136],[5.6284,47.0128],[5.6264,47.0138],[5.6280,47.0128],[5.6126,47.0172],[5.6111,47.0157],[5.6140,47.0149],[5.6070,47.0168],[5.6050,47.0156],[5.6057,47.0139],[5.6042,47.0129],[5.6003,47.0118],[5.5990,47.0140],[5.5978,47.0117],[5.5989,47.0154],[5.5970,47.0164],[5.6092,47.0173],[5.6104,47.0184],[5.6098,47.0201],[5.6039,47.0231],[5.6002,47.0241],[5.5986,47.0233],[5.5987,47.0242],[5.5967,47.0246],[5.5877,47.0203],[5.5861,47.0178],[5.5873,47.0201],[5.5854,47.0179],[5.5857,47.0201],[5.5847,47.0203],[5.5825,47.0182],[5.5823,47.0201],[5.5800,47.0219],[5.5836,47.0252],[5.5820,47.0260],[5.5855,47.0269],[5.5868,47.0247],[5.5911,47.0257],[5.5859,47.0336],[5.5805,47.0321],[5.5823,47.0293],[5.5754,47.0274],[5.5755,47.0315],[5.5673,47.0362],[5.5652,47.0387],[5.5595,47.0400],[5.5538,47.0394],[5.5463,47.0362],[5.5470,47.0349],[5.5503,47.0342],[5.5407,47.0362],[5.5379,47.0337],[5.5306,47.0321],[5.5222,47.0342],[5.5209,47.0353],[5.5255,47.0345],[5.5267,47.0357],[5.5267,47.0348],[5.5315,47.0351],[5.5308,47.0342],[5.5322,47.0333],[5.5371,47.0341],[5.5382,47.0355],[5.5307,47.0391],[5.5282,47.0378],[5.5256,47.0396],[5.5246,47.0385],[5.5232,47.0390],[5.5216,47.0357],[5.5215,47.0374],[5.5191,47.0384],[5.5226,47.0383],[5.5215,47.0392],[5.5230,47.0413],[5.5221,47.0426],[5.5260,47.0418],[5.5296,47.0453],[5.5232,47.0465],[5.5287,47.0479],[5.5257,47.0520],[5.5187,47.0504],[5.5180,47.0478],[5.5193,47.0455],[5.5169,47.0433],[5.5089,47.0462],[5.5103,47.0460],[5.5127,47.0484],[5.5081,47.0497],[5.5088,47.0503],[5.5136,47.0501],[5.5050,47.0580],[5.5023,47.0581],[5.5003,47.0545],[5.4947,47.0573],[5.4991,47.0680],[5.5064,47.0698],[5.5036,47.0717],[5.5036,47.0752],[5.5052,47.0756],[5.5047,47.0763],[5.5191,47.0739],[5.5194,47.0755],[5.5167,47.0763],[5.5195,47.0757],[5.5212,47.0782],[5.5186,47.0787],[5.5168,47.0765],[5.5173,47.0785],[5.5153,47.0783],[5.5147,47.0801],[5.5128,47.0803],[5.5134,47.0811],[5.5214,47.0790],[5.5276,47.0822],[5.5379,47.0843],[5.5372,47.0863],[5.5388,47.0848],[5.5390,47.0872],[5.5391,47.0845],[5.5433,47.0867],[5.5435,47.0878],[5.5368,47.0930],[5.5433,47.0891],[5.5448,47.0897],[5.5448,47.0885],[5.5489,47.0922],[5.5545,47.0914],[5.5574,47.0942],[5.5584,47.0929],[5.5607,47.0968],[5.5644,47.0985],[5.5674,47.0982],[5.5683,47.0991],[5.5671,47.0998],[5.5764,47.0970],[5.5840,47.0994],[5.5836,47.1004],[5.5780,47.0992],[5.5754,47.1039],[5.5785,47.1063],[5.5764,47.1069],[5.5794,47.1072],[5.5787,47.1083],[5.5813,47.1121],[5.5795,47.1130],[5.5818,47.1132],[5.5819,47.1143],[5.5795,47.1152],[5.5816,47.1160],[5.5810,47.1166],[5.5827,47.1187],[5.5909,47.1221],[5.5882,47.1239],[5.6025,47.1270],[5.6031,47.1244],[5.5954,47.1238],[5.5985,47.1236],[5.5937,47.1229],[5.5971,47.1213],[5.5926,47.1201],[5.5971,47.1211],[5.5989,47.1197],[5.5984,47.1188],[5.6003,47.1190],[5.6028,47.1200],[5.6017,47.1216],[5.6032,47.1214],[5.6024,47.1208],[5.6058,47.1170],[5.6114,47.1148],[5.6113,47.1164],[5.6072,47.1189],[5.6089,47.1179],[5.6095,47.1195],[5.6166,47.1230],[5.6147,47.1277],[5.6120,47.1300],[5.6117,47.1321],[5.6224,47.1359],[5.6235,47.1360],[5.6241,47.1339],[5.6295,47.1361],[5.6238,47.1363],[5.6422,47.1345],[5.6447,47.1330],[5.6431,47.1331],[5.6439,47.1318],[5.6426,47.1280],[5.6447,47.1279],[5.6446,47.1256],[5.6459,47.1277],[5.6494,47.1252],[5.6535,47.1262],[5.6535,47.1274],[5.6556,47.1270],[5.6581,47.1239],[5.6677,47.1234],[5.6672,47.1251],[5.6778,47.1277],[5.6790,47.1272],[5.6784,47.1243],[5.6811,47.1244],[5.6828,47.1289],[5.6798,47.1285],[5.6821,47.1294],[5.6820,47.1316],[5.6868,47.1295],[5.6838,47.1289],[5.6818,47.1242],[5.6872,47.1250],[5.6866,47.1219],[5.6884,47.1219],[5.6917,47.1253],[5.6987,47.1246],[5.7020,47.1263],[5.7007,47.1236],[5.7032,47.1250],[5.7009,47.1235],[5.7097,47.1198],[5.7102,47.1206],[5.7093,47.1207],[5.7108,47.1208],[5.7126,47.1238],[5.7142,47.1233],[5.7144,47.1242],[5.7134,47.1239],[5.7158,47.1256],[5.7154,47.1267],[5.7170,47.1263],[5.7147,47.1296],[5.7153,47.1322],[5.7161,47.1318],[5.7150,47.1338],[5.7148,47.1321],[5.7118,47.1330],[5.7102,47.1351],[5.6972,47.1332],[5.7122,47.1359],[5.7169,47.1344],[5.7157,47.1332],[5.7170,47.1328],[5.7158,47.1308],[5.7171,47.1271],[5.7229,47.1281],[5.7258,47.1251],[5.7283,47.1267],[5.7289,47.1290],[5.7270,47.1274],[5.7270,47.1327],[5.7308,47.1338],[5.7299,47.1353],[5.7316,47.1340],[5.7346,47.1347],[5.7380,47.1367],[5.7381,47.1388],[5.7416,47.1382],[5.7562,47.1411],[5.7570,47.1428],[5.7594,47.1416],[5.7613,47.1423],[5.7597,47.1447],[5.7579,47.1433],[5.7565,47.1435],[5.7569,47.1444],[5.7582,47.1452],[5.7578,47.1439],[5.7607,47.1464],[5.7608,47.1455],[5.7624,47.1486],[5.7623,47.1454],[5.7660,47.1444],[5.7669,47.1461],[5.7711,47.1466],[5.7733,47.1490],[5.7713,47.1511],[5.7876,47.1515],[5.7870,47.1529],[5.7879,47.1515],[5.7901,47.1551],[5.7908,47.1535],[5.7951,47.1559],[5.7958,47.1541],[5.8011,47.1562],[5.8070,47.1535],[5.8078,47.1544],[5.8080,47.1507],[5.8068,47.1499],[5.8076,47.1480],[5.8134,47.1497],[5.8165,47.1478],[5.8179,47.1492],[5.8191,47.1487],[5.8173,47.1473],[5.8250,47.1402],[5.8292,47.1420],[5.8325,47.1416],[5.8314,47.1407],[5.8325,47.1365],[5.8344,47.1364],[5.8350,47.1352],[5.8344,47.1362],[5.8336,47.1354],[5.8332,47.1325],[5.8241,47.1323],[5.8236,47.1312],[5.8267,47.1286],[5.8265,47.1273],[5.8242,47.1297],[5.8197,47.1313],[5.8231,47.1323],[5.8219,47.1329],[5.8230,47.1364],[5.8193,47.1364],[5.8204,47.1357],[5.8184,47.1356],[5.8196,47.1353],[5.8169,47.1335],[5.8177,47.1327],[5.8162,47.1335],[5.8119,47.1260],[5.8133,47.1259],[5.8127,47.1242],[5.8113,47.1245],[5.8096,47.1224],[5.8108,47.1228],[5.8105,47.1217],[5.8073,47.1195],[5.8058,47.1165],[5.8069,47.1191],[5.8055,47.1192],[5.8047,47.1160],[5.8054,47.1169],[5.8056,47.1157],[5.8009,47.1091],[5.8004,47.1040],[5.7991,47.1027],[5.7968,47.1039],[5.7955,47.1028],[5.7974,47.1034],[5.7994,47.1020],[5.7988,47.0984],[5.7980,47.0976],[5.7979,47.1008],[5.7981,47.0991],[5.7958,47.0959],[5.7998,47.0957],[5.7921,47.0914],[5.7880,47.0863],[5.7889,47.0855],[5.7879,47.0860],[5.7813,47.0789],[5.7826,47.0688],[5.7916,47.0596],[5.7893,47.0594],[5.7892,47.0578],[5.7850,47.0544],[5.7890,47.0544],[5.7923,47.0522],[5.7933,47.0533],[5.7965,47.0519],[5.8019,47.0547],[5.8023,47.0527],[5.7946,47.0498],[5.7956,47.0484],[5.7901,47.0463],[5.7881,47.0430],[5.7891,47.0427],[5.7874,47.0416],[5.7866,47.0427],[5.7869,47.0412],[5.7845,47.0438],[5.7818,47.0438],[5.7825,47.0422],[5.7782,47.0527],[5.7597,47.0460],[5.7568,47.0471],[5.7547,47.0498],[5.7457,47.0522],[5.7465,47.0513],[5.7455,47.0494],[5.7484,47.0492],[5.7474,47.0429],[5.7486,47.0425],[5.7423,47.0373],[5.7356,47.0376],[5.7350,47.0363],[5.7330,47.0366],[5.7333,47.0376]]]}},{"type":"Feature","properties":{"name":"Bois du Jorat"},"geometry":{"type":"Polygon","coordinates":[[[6.6889,46.5648],[6.6877,46.5690],[6.6851,46.5702],[6.6890,46.5771],[6.6892,46.5709],[6.6899,46.5695],[6.6900,46.5738],[6.6934,46.5655],[6.7004,46.5684],[6.7009,46.5698],[6.6998,46.5707],[6.7014,46.5733],[6.7081,46.5710],[6.7210,46.5746],[6.7214,46.5769],[6.7247,46.5793],[6.7276,46.5781],[6.7289,46.5800],[6.7344,46.5786],[6.7363,46.5820],[6.7380,46.5813],[6.7374,46.5824],[6.7400,46.5823],[6.7376,46.5831],[6.7396,46.5854],[6.7387,46.5873],[6.7425,46.5890],[6.7438,46.5884],[6.7424,46.5894],[6.7387,46.5887],[6.7368,46.5869],[6.7321,46.5872],[6.7346,46.5864],[6.7302,46.5842],[6.7357,46.5856],[6.7327,46.5838],[6.7282,46.5839],[6.7240,46.5797],[6.7220,46.5794],[6.7237,46.5814],[6.7239,46.5839],[6.7257,46.5852],[6.7276,46.5840],[6.7297,46.5870],[6.7261,46.5884],[6.7283,46.5894],[6.7277,46.5909],[6.7297,46.5920],[6.7272,46.5929],[6.7300,46.5974],[6.7268,46.5976],[6.7252,46.5999],[6.7281,46.6012],[6.7271,46.6004],[6.7285,46.6001],[6.7277,46.5993],[6.7288,46.5979],[6.7289,46.5991],[6.7318,46.6001],[6.7392,46.6072],[6.7410,46.6074],[6.7384,46.6086],[6.7378,46.6069],[6.7365,46.6075],[6.7382,46.6062],[6.7358,46.6047],[6.7337,46.6050],[6.7348,46.6042],[6.7325,46.6047],[6.7326,46.6067],[6.7314,46.6048],[6.7307,46.6060],[6.7301,46.6049],[6.7284,46.6057],[6.7304,46.6067],[6.7287,46.6083],[6.7298,46.6090],[6.7291,46.6096],[6.7258,46.6086],[6.7290,46.6145],[6.7329,46.6170],[6.7300,46.6201],[6.7299,46.6247],[6.7278,46.6212],[6.7222,46.6229],[6.7203,46.6206],[6.7193,46.6219],[6.7221,46.6250],[6.7197,46.6229],[6.7190,46.6235],[6.7213,46.6262],[6.7164,46.6276],[6.7165,46.6227],[6.7145,46.6182],[6.7114,46.6206],[6.7109,46.6196],[6.7135,46.6158],[6.7110,46.6148],[6.7067,46.6167],[6.7056,46.6189],[6.7055,46.6157],[6.7032,46.6161],[6.7022,46.6200],[6.7043,46.6218],[6.7012,46.6245],[6.6996,46.6327],[6.7003,46.6354],[6.7020,46.6358],[6.7038,46.6321],[6.7054,46.6338],[6.7033,46.6339],[6.7029,46.6360],[6.7074,46.6398],[6.7083,46.6449],[6.7142,46.6475],[6.7086,46.6467],[6.7071,46.6451],[6.7075,46.6460],[6.7050,46.6471],[6.7068,46.6446],[6.7048,46.6437],[6.7059,46.6422],[6.7050,46.6398],[6.6994,46.6367],[6.6954,46.6316],[6.6973,46.6328],[6.6980,46.6309],[6.6954,46.6291],[6.6963,46.6266],[6.6947,46.6225],[6.6929,46.6214],[6.6927,46.6176],[6.6903,46.6154],[6.6867,46.6163],[6.6863,46.6129],[6.6900,46.6126],[6.6915,46.6145],[6.6929,46.6131],[6.6919,46.6114],[6.6935,46.6102],[6.6935,46.6033],[6.6944,46.6052],[6.6961,46.6052],[6.6978,46.6071],[6.7029,46.6063],[6.6966,46.6035],[6.6945,46.5987],[6.6925,46.5989],[6.6919,46.5963],[6.6942,46.5950],[6.6909,46.5944],[6.6894,46.5956],[6.6854,46.5954],[6.6853,46.5967],[6.6824,46.5954],[6.6818,46.5992],[6.6807,46.5966],[6.6782,46.5969],[6.6699,46.5917],[6.6617,46.5915],[6.6665,46.5905],[6.6618,46.5905],[6.6635,46.5894],[6.6606,46.5880],[6.6609,46.5872],[6.6549,46.5881],[6.6536,46.5862],[6.6532,46.5875],[6.6492,46.5862],[6.6488,46.5828],[6.6476,46.5823],[6.6490,46.5819],[6.6488,46.5808],[6.6468,46.5799],[6.6470,46.5819],[6.6465,46.5797],[6.6422,46.5785],[6.6390,46.5753],[6.6357,46.5776],[6.6352,46.5767],[6.6352,46.5753],[6.6364,46.5750],[6.6353,46.5730],[6.6353,46.5665],[6.6371,46.5643],[6.6382,46.5657],[6.6372,46.5673],[6.6395,46.5676],[6.6389,46.5688],[6.6404,46.5680],[6.6418,46.5698],[6.6498,46.5726],[6.6525,46.5707],[6.6516,46.5724],[6.6542,46.5735],[6.6496,46.5735],[6.6507,46.5759],[6.6533,46.5764],[6.6549,46.5751],[6.6567,46.5759],[6.6574,46.5743],[6.6596,46.5745],[6.6587,46.5727],[6.6573,46.5739],[6.6585,46.5728],[6.6578,46.5698],[6.6595,46.5695],[6.6569,46.5682],[6.6574,46.5675],[6.6559,46.5667],[6.6570,46.5661],[6.6540,46.5637],[6.6570,46.5613],[6.6511,46.5573],[6.6472,46.5558],[6.6393,46.5561],[6.6383,46.5541],[6.6369,46.5568],[6.6382,46.5588],[6.6371,46.5597],[6.6364,46.5553],[6.6384,46.5534],[6.6401,46.5543],[6.6382,46.5522],[6.6397,46.5524],[6.6432,46.5497],[6.6473,46.5503],[6.6451,46.5499],[6.6464,46.5515],[6.6442,46.5502],[6.6417,46.5510],[6.6411,46.5522],[6.6427,46.5541],[6.6457,46.5541],[6.6505,46.5566],[6.6540,46.5534],[6.6573,46.5535],[6.6589,46.5493],[6.6587,46.5525],[6.6611,46.5547],[6.6592,46.5569],[6.6629,46.5597],[6.6649,46.5598],[6.6659,46.5571],[6.6695,46.5556],[6.6682,46.5569],[6.6695,46.5580],[6.6686,46.5597],[6.6666,46.5596],[6.6654,46.5617],[6.6640,46.5609],[6.6619,46.5618],[6.6693,46.5656],[6.6723,46.5645],[6.6739,46.5664],[6.6769,46.5662],[6.6791,46.5614],[6.6806,46.5618],[6.6794,46.5647],[6.6833,46.5625],[6.6889,46.5648]]]}},{"type":"Feature","properties":{"name":"Bois aux Allemands"},"geometry":{"type":"Polygon","coordinates":[[[6.6618,46.5905],[6.6629,46.5907],[6.6604,46.5929],[6.6638,46.5923],[6.6696,46.5977],[6.6719,46.5980],[6.6684,46.5975],[6.6656,46.6019],[6.6597,46.6029],[6.6529,46.6009],[6.6486,46.5971],[6.6508,46.5952],[6.6539,46.5960],[6.6541,46.5998],[6.6592,46.6024],[6.6584,46.5993],[6.6612,46.5965],[6.6575,46.5950],[6.6536,46.5956],[6.6546,46.5945],[6.6510,46.5946],[6.6505,46.5933],[6.6492,46.5937],[6.6495,46.5948],[6.6486,46.5928],[6.6464,46.5921],[6.6460,46.5935],[6.6445,46.5911],[6.6402,46.5923],[6.6370,46.5965],[6.6355,46.5962],[6.6376,46.5960],[6.6379,46.5943],[6.6343,46.5955],[6.6356,46.5971],[6.6352,46.6008],[6.6374,46.6054],[6.6386,46.6052],[6.6375,46.6061],[6.6400,46.6075],[6.6408,46.6147],[6.6432,46.6137],[6.6436,46.6103],[6.6451,46.6116],[6.6479,46.6104],[6.6481,46.6096],[6.6458,46.6089],[6.6475,46.6078],[6.6435,46.6046],[6.6485,46.6028],[6.6505,46.6043],[6.6582,46.6056],[6.6598,46.6082],[6.6567,46.6087],[6.6510,46.6047],[6.6478,46.6062],[6.6487,46.6071],[6.6512,46.6065],[6.6528,46.6088],[6.6509,46.6107],[6.6495,46.6102],[6.6496,46.6125],[6.6487,46.6119],[6.6456,46.6143],[6.6475,46.6154],[6.6447,46.6166],[6.6479,46.6182],[6.6549,46.6153],[6.6534,46.6156],[6.6494,46.6205],[6.6492,46.6193],[6.6475,46.6197],[6.6486,46.6202],[6.6483,46.6214],[6.6500,46.6218],[6.6483,46.6223],[6.6506,46.6254],[6.6540,46.6260],[6.6539,46.6277],[6.6523,46.6281],[6.6544,46.6343],[6.6521,46.6365],[6.6454,46.6392],[6.6426,46.6390],[6.6418,46.6405],[6.6414,46.6395],[6.6450,46.6370],[6.6435,46.6349],[6.6430,46.6303],[6.6403,46.6266],[6.6447,46.6263],[6.6437,46.6216],[6.6448,46.6192],[6.6418,46.6158],[6.6373,46.6140],[6.6365,46.6123],[6.6326,46.6145],[6.6257,46.6024],[6.6301,46.6091],[6.6322,46.6094],[6.6308,46.6064],[6.6326,46.6058],[6.6330,46.6024],[6.6309,46.6003],[6.6324,46.6013],[6.6333,46.5994],[6.6305,46.5950],[6.6340,46.5946],[6.6327,46.5918],[6.6365,46.5931],[6.6362,46.5899],[6.6452,46.5903],[6.6527,46.5945],[6.6529,46.5932],[6.6574,46.5939],[6.6602,46.5905],[6.6618,46.5905]]]}},{"type":"Feature","properties":{"name":"Forêt de Bouleyres"},"geometry":{"type":"Polygon","coordinates":[[[7.0973,46.6147],[7.0939,46.6150],[7.0909,46.6104],[7.0915,46.6086],[7.0951,46.6074],[7.0928,46.6057],[7.0929,46.6038],[7.0909,46.6028],[7.0882,46.6035],[7.0844,46.6009],[7.0828,46.6010],[7.0826,46.6021],[7.0798,46.6020],[7.0797,46.6039],[7.0753,46.6038],[7.0707,46.6087],[7.0738,46.6055],[7.0764,46.6100],[7.0702,46.6126],[7.0680,46.6111],[7.0703,46.6090],[7.0671,46.6116],[7.0681,46.6159],[7.0732,46.6211],[7.0781,46.6201],[7.0834,46.6212],[7.0798,46.6203],[7.0812,46.6189],[7.0795,46.6184],[7.0812,46.6169],[7.0830,46.6174],[7.0822,46.6166],[7.0842,46.6170],[7.0848,46.6191],[7.0835,46.6189],[7.0856,46.6209],[7.0850,46.6192],[7.0863,46.6197],[7.0891,46.6173],[7.0869,46.6151],[7.0886,46.6150],[7.0889,46.6170],[7.0898,46.6170],[7.0901,46.6139],[7.0850,46.6069],[7.0872,46.6058],[7.0906,46.6125],[7.0925,46.6130],[7.0915,46.6143],[7.0922,46.6156],[7.0964,46.6157],[7.0973,46.6147]]]}},{"type":"Feature","properties":{"name":"Forêt du Grand Belmont"},"geometry":{"type":"Polygon","coordinates":[[[7.0322,46.8426],[7.0360,46.8442],[7.0381,46.8475],[7.0373,46.8482],[7.0354,46.8466],[7.0331,46.8489],[7.0349,46.8497],[7.0344,46.8511],[7.0357,46.8525],[7.0310,46.8517],[7.0276,46.8557],[7.0220,46.8542],[7.0233,46.8555],[7.0208,46.8552],[7.0224,46.8585],[7.0199,46.8561],[7.0203,46.8525],[7.0186,46.8490],[7.0223,46.8516],[7.0219,46.8526],[7.0244,46.8532],[7.0269,46.8517],[7.0236,46.8465],[7.0218,46.8464],[7.0236,46.8455],[7.0187,46.8436],[7.0197,46.8418],[7.0174,46.8409],[7.0152,46.8432],[7.0090,46.8422],[7.0092,46.8442],[7.0010,46.8398],[7.0003,46.8376],[7.0022,46.8355],[7.0083,46.8377],[7.0066,46.8396],[7.0081,46.8408],[7.0123,46.8387],[7.0098,46.8377],[7.0104,46.8364],[7.0136,46.8356],[7.0142,46.8373],[7.0147,46.8363],[7.0213,46.8356],[7.0270,46.8369],[7.0273,46.8359],[7.0252,46.8355],[7.0268,46.8338],[7.0315,46.8342],[7.0344,46.8361],[7.0402,46.8372],[7.0385,46.8387],[7.0405,46.8392],[7.0351,46.8387],[7.0334,46.8403],[7.0353,46.8413],[7.0333,46.8408],[7.0322,46.8426]]]}},{"type":"Feature","properties":{"name":"Forêt du Risoux"},"geometry":{"type":"Polygon","coordinates":[[[6.1382,46.5577],[6.1105,46.5764],[6.1219,46.5841],[6.1265,46.5899],[6.1481,46.6022],[6.1538,46.6038],[6.1612,46.6100],[6.1648,46.6102],[6.1929,46.5987],[6.1894,46.5948],[6.1822,46.5939],[6.1839,46.5932],[6.1814,46.5934],[6.1780,46.5912],[6.1777,46.5896],[6.1806,46.5899],[6.1756,46.5863],[6.1870,46.5929],[6.1881,46.5928],[6.1883,46.5904],[6.1902,46.5906],[6.1824,46.5857],[6.1867,46.5859],[6.1860,46.5846],[6.1846,46.5854],[6.1853,46.5846],[6.1831,46.5835],[6.1778,46.5837],[6.1780,46.5822],[6.1795,46.5828],[6.1786,46.5821],[6.1794,46.5802],[6.1743,46.5757],[6.1746,46.5742],[6.1730,46.5735],[6.1730,46.5745],[6.1703,46.5744],[6.1731,46.5767],[6.1709,46.5768],[6.1706,46.5755],[6.1677,46.5745],[6.1712,46.5739],[6.1694,46.5718],[6.1696,46.5704],[6.1634,46.5674],[6.1712,46.5700],[6.1736,46.5730],[6.1764,46.5739],[6.1774,46.5731],[6.1830,46.5770],[6.1789,46.5757],[6.1782,46.5764],[6.1805,46.5789],[6.1784,46.5785],[6.1815,46.5822],[6.1848,46.5822],[6.1833,46.5805],[6.1892,46.5845],[6.1843,46.5796],[6.1904,46.5849],[6.1974,46.5887],[6.1994,46.5890],[6.1998,46.5879],[6.2009,46.5889],[6.1993,46.5892],[6.2022,46.5915],[6.2061,46.5899],[6.1846,46.5760],[6.1825,46.5735],[6.1577,46.5585],[6.1565,46.5555],[6.1505,46.5523],[6.1525,46.5522],[6.1531,46.5510],[6.1514,46.5497],[6.1489,46.5498],[6.1499,46.5498],[6.1484,46.5510],[6.1504,46.5523],[6.1475,46.5514],[6.1459,46.5525],[6.1471,46.5539],[6.1452,46.5529],[6.1382,46.5577]]]}},{"type":"Feature","properties":{"name":"La Fuvelle"},"geometry":{"type":"Polygon","coordinates":[[[6.3621,46.8106],[6.3607,46.8068],[6.3564,46.8015],[6.3601,46.8067],[6.3601,46.8087],[6.3580,46.8091],[6.3536,46.8070],[6.3516,46.8086],[6.3528,46.8094],[6.3499,46.8092],[6.3530,46.8057],[6.3539,46.8061],[6.3552,46.8024],[6.3559,46.8029],[6.3555,46.7976],[6.3531,46.7988],[6.3533,46.7967],[6.3448,46.7986],[6.3470,46.8021],[6.3497,46.8019],[6.3490,46.8030],[6.3431,46.7990],[6.3444,46.7972],[6.3433,46.7985],[6.3395,46.7979],[6.3374,46.7992],[6.3386,46.7982],[6.3342,46.7987],[6.3369,46.7963],[6.3336,46.7947],[6.3287,46.7944],[6.3234,46.7958],[6.3246,46.7943],[6.3259,46.7951],[6.3336,46.7938],[6.3300,46.7920],[6.3319,46.7908],[6.3296,46.7909],[6.3298,46.7898],[6.3281,46.7894],[6.3274,46.7909],[6.3250,46.7895],[6.3272,46.7851],[6.3255,46.7843],[6.3261,46.7833],[6.3176,46.7839],[6.3168,46.7859],[6.3133,46.7870],[6.3136,46.7852],[6.3073,46.7828],[6.2917,46.7852],[6.2877,46.7842],[6.2901,46.7872],[6.2913,46.7866],[6.2932,46.7886],[6.2953,46.7883],[6.3016,46.7922],[6.3047,46.7965],[6.3104,46.8007],[6.3097,46.8020],[6.3192,46.8046],[6.3185,46.8066],[6.3218,46.8083],[6.3202,46.8094],[6.3205,46.8114],[6.3176,46.8131],[6.3222,46.8140],[6.3239,46.8120],[6.3219,46.8106],[6.3243,46.8097],[6.3283,46.8121],[6.3339,46.8177],[6.3376,46.8242],[6.3398,46.8249],[6.3392,46.8239],[6.3409,46.8243],[6.3419,46.8229],[6.3393,46.8228],[6.3355,46.8171],[6.3376,46.8175],[6.3390,46.8164],[6.3400,46.8188],[6.3409,46.8186],[6.3404,46.8152],[6.3448,46.8148],[6.3443,46.8182],[6.3483,46.8170],[6.3478,46.8187],[6.3493,46.8181],[6.3502,46.8194],[6.3475,46.8222],[6.3511,46.8229],[6.3537,46.8271],[6.3560,46.8267],[6.3559,46.8299],[6.3543,46.8306],[6.3582,46.8325],[6.3594,46.8317],[6.3593,46.8331],[6.3623,46.8344],[6.3636,46.8333],[6.3605,46.8295],[6.3616,46.8278],[6.3681,46.8303],[6.3707,46.8198],[6.3701,46.8180],[6.3648,46.8144],[6.3621,46.8106]]]}},{"type":"Feature","properties":{"name":"Forêt de Vaivres"},"geometry":{"type":"Polygon","coordinates":[[[5.6865,46.8295],[5.6875,46.8284],[5.6896,46.8303],[5.6945,46.8299],[5.6944,46.8271],[5.6924,46.8250],[5.6945,46.8250],[5.6944,46.8240],[5.6913,46.8238],[5.6863,46.8205],[5.6874,46.8200],[5.6827,46.8200],[5.6791,46.8183],[5.6779,46.8215],[5.6732,46.8203],[5.6692,46.8228],[5.6689,46.8253],[5.6652,46.8270],[5.6629,46.8233],[5.6562,46.8228],[5.6557,46.8257],[5.6583,46.8274],[5.6526,46.8259],[5.6525,46.8270],[5.6539,46.8271],[5.6518,46.8289],[5.6529,46.8340],[5.6567,46.8371],[5.6595,46.8422],[5.6721,46.8403],[5.6673,46.8358],[5.6615,46.8366],[5.6585,46.8330],[5.6605,46.8315],[5.6599,46.8297],[5.6677,46.8345],[5.6698,46.8339],[5.6719,46.8350],[5.6715,46.8364],[5.6753,46.8390],[5.6774,46.8379],[5.6769,46.8364],[5.6780,46.8374],[5.6816,46.8367],[5.6802,46.8349],[5.6816,46.8338],[5.6856,46.8337],[5.6845,46.8332],[5.6865,46.8295]]]}},{"type":"Feature","properties":{"name":"Bois de Ville-du-Pont"},"geometry":{"type":"Polygon","coordinates":[[[6.5134,47.0081],[6.5069,47.0079],[6.4929,47.0012],[6.4922,46.9994],[6.4946,47.0000],[6.4959,46.9961],[6.5015,46.9953],[6.5044,46.9963],[6.5070,46.9931],[6.5094,46.9938],[6.5112,46.9923],[6.5351,47.0065],[6.5343,47.0079],[6.5302,47.0054],[6.5278,47.0079],[6.5358,47.0121],[6.5252,47.0130],[6.5188,47.0110],[6.5181,47.0116],[6.5195,47.0121],[6.5167,47.0121],[6.5172,47.0109],[6.5144,47.0092],[6.5172,47.0079],[6.5237,47.0079],[6.5180,47.0068],[6.5167,47.0057],[6.5215,47.0064],[6.5189,47.0058],[6.5180,47.0032],[6.5219,47.0044],[6.5166,47.0018],[6.5125,47.0037],[6.5154,47.0067],[6.5134,47.0081]]]}},{"type":"Feature","properties":{"name":"Bois d\u0027Aiglepierre"},"geometry":{"type":"Polygon","coordinates":[[[5.7930,46.9623],[5.7994,46.9671],[5.8057,46.9752],[5.8079,46.9764],[5.8123,46.9740],[5.8128,46.9728],[5.8118,46.9741],[5.8113,46.9717],[5.8131,46.9709],[5.8131,46.9697],[5.8066,46.9688],[5.8128,46.9693],[5.8122,46.9685],[5.8134,46.9687],[5.8137,46.9673],[5.8133,46.9683],[5.8122,46.9673],[5.8136,46.9652],[5.8120,46.9658],[5.8129,46.9649],[5.8060,46.9620],[5.8113,46.9628],[5.8125,46.9645],[5.8132,46.9630],[5.8122,46.9617],[5.8141,46.9620],[5.8114,46.9602],[5.8113,46.9620],[5.8103,46.9624],[5.8110,46.9611],[5.8096,46.9608],[5.8093,46.9589],[5.8063,46.9592],[5.8066,46.9558],[5.8036,46.9564],[5.8029,46.9553],[5.8043,46.9547],[5.8027,46.9542],[5.8045,46.9545],[5.8060,46.9518],[5.8044,46.9493],[5.8017,46.9507],[5.8012,46.9490],[5.7975,46.9487],[5.7988,46.9498],[5.7976,46.9533],[5.7952,46.9525],[5.7939,46.9537],[5.7940,46.9524],[5.7925,46.9540],[5.7939,46.9510],[5.7923,46.9531],[5.7899,46.9529],[5.7910,46.9558],[5.7940,46.9551],[5.7901,46.9570],[5.7930,46.9623]]]}},{"type":"Feature","properties":{"name":"Forêt de Chailluz"},"geometry":{"type":"Polygon","coordinates":[[[6.0569,47.3060],[6.0753,47.3139],[6.0837,47.3164],[6.0838,47.3152],[6.0862,47.3161],[6.0850,47.3166],[6.1176,47.3249],[6.1153,47.3226],[6.1148,47.3236],[6.1133,47.3229],[6.1147,47.3222],[6.1131,47.3210],[6.1067,47.3188],[6.1009,47.3174],[6.0991,47.3178],[6.1025,47.3187],[6.0933,47.3184],[6.0907,47.3171],[6.0971,47.3179],[6.0871,47.3167],[6.0806,47.3136],[6.0803,47.3125],[6.0901,47.3164],[6.0815,47.3124],[6.0789,47.3092],[6.0809,47.3090],[6.0799,47.3096],[6.0832,47.3109],[6.0841,47.3105],[6.0818,47.3102],[6.0821,47.3091],[6.0856,47.3092],[6.0845,47.3100],[6.0863,47.3108],[6.0867,47.3096],[6.0889,47.3102],[6.0861,47.3090],[6.0871,47.3073],[6.0842,47.3045],[6.0867,47.3065],[6.0873,47.3055],[6.0859,47.3035],[6.0785,47.2985],[6.0767,47.2949],[6.0729,47.2933],[6.0765,47.2972],[6.0705,47.2914],[6.0687,47.2874],[6.0604,47.2788],[6.0478,47.2730],[6.0481,47.2715],[6.0461,47.2711],[6.0365,47.2755],[6.0351,47.2748],[6.0280,47.2782],[6.0260,47.2808],[6.0253,47.2796],[6.0236,47.2802],[6.0245,47.2805],[6.0235,47.2835],[6.0244,47.2825],[6.0254,47.2833],[6.0249,47.2885],[6.0232,47.2911],[6.0230,47.2895],[6.0206,47.2890],[6.0219,47.2910],[6.0207,47.2922],[6.0129,47.2862],[6.0135,47.2819],[6.0108,47.2766],[6.0116,47.2784],[6.0084,47.2769],[6.0013,47.2788],[6.0041,47.2803],[6.0017,47.2823],[5.9999,47.2802],[5.9984,47.2804],[5.9987,47.2794],[5.9973,47.2798],[6.0024,47.2843],[6.0118,47.2878],[6.0208,47.2955],[6.0312,47.2994],[6.0371,47.3035],[6.0569,47.3060]]]}},{"type":"Feature","properties":{"name":"Forêt Communale de Montlebon"},"geometry":{"type":"Polygon","coordinates":[[[6.5989,47.0225],[6.5999,47.0250],[6.6048,47.0266],[6.6036,47.0279],[6.5995,47.0255],[6.5975,47.0256],[6.5956,47.0230],[6.5961,47.0217],[6.5915,47.0229],[6.5928,47.0248],[6.5911,47.0252],[6.5926,47.0286],[6.5925,47.0266],[6.5959,47.0302],[6.6008,47.0322],[6.6026,47.0304],[6.6023,47.0316],[6.6046,47.0316],[6.6099,47.0349],[6.6181,47.0374],[6.6169,47.0391],[6.6186,47.0375],[6.6188,47.0391],[6.6198,47.0383],[6.6255,47.0400],[6.6248,47.0420],[6.6256,47.0406],[6.6260,47.0420],[6.6263,47.0403],[6.6279,47.0416],[6.6268,47.0420],[6.6289,47.0422],[6.6281,47.0427],[6.6324,47.0434],[6.6272,47.0451],[6.6273,47.0466],[6.6336,47.0440],[6.6415,47.0466],[6.6431,47.0448],[6.6395,47.0449],[6.6392,47.0414],[6.6320,47.0386],[6.6271,47.0346],[6.6251,47.0352],[6.6221,47.0339],[6.6208,47.0317],[6.6221,47.0308],[6.6209,47.0301],[6.6210,47.0281],[6.6197,47.0291],[6.6207,47.0307],[6.6192,47.0307],[6.6201,47.0297],[6.6186,47.0302],[6.6189,47.0293],[6.6157,47.0275],[6.6168,47.0275],[6.5989,47.0225]]]}},{"type":"Feature","properties":{"name":"Bois du Croz"},"geometry":{"type":"Polygon","coordinates":[[[6.0402,46.6689],[6.0357,46.6707],[6.0426,46.6740],[6.0437,46.6763],[6.0468,46.6773],[6.0534,46.6833],[6.0609,46.6875],[6.0600,46.6895],[6.0611,46.6904],[6.0624,46.6882],[6.0686,46.6908],[6.0638,46.6919],[6.0648,46.6933],[6.0633,46.6936],[6.0791,46.7017],[6.0855,46.6963],[6.0965,46.6994],[6.1106,46.7072],[6.1152,46.7003],[6.1170,46.7025],[6.1228,46.7045],[6.1256,46.7034],[6.1178,46.7008],[6.1189,46.6993],[6.1269,46.7026],[6.1240,46.7009],[6.1279,46.6997],[6.1246,46.6977],[6.1216,46.6971],[6.1189,46.6984],[6.1180,46.6976],[6.1189,46.6971],[6.1175,46.6964],[6.1153,46.6984],[6.1131,46.6981],[6.1096,46.6972],[6.1051,46.6938],[6.0995,46.6962],[6.0933,46.6942],[6.0949,46.6928],[6.0974,46.6944],[6.1014,46.6937],[6.0989,46.6915],[6.1008,46.6901],[6.0951,46.6874],[6.0879,46.6884],[6.0835,46.6874],[6.0761,46.6899],[6.0688,46.6895],[6.0673,46.6881],[6.0719,46.6833],[6.0763,46.6856],[6.0848,46.6848],[6.0829,46.6833],[6.0874,46.6824],[6.0876,46.6811],[6.0860,46.6807],[6.0868,46.6789],[6.0896,46.6791],[6.0895,46.6813],[6.0922,46.6809],[6.0918,46.6821],[6.0927,46.6820],[6.0940,46.6799],[6.0920,46.6794],[6.0903,46.6776],[6.0912,46.6767],[6.0890,46.6759],[6.0906,46.6758],[6.0888,46.6752],[6.0921,46.6761],[6.0933,46.6739],[6.0901,46.6730],[6.0890,46.6720],[6.0895,46.6706],[6.0866,46.6703],[6.0885,46.6706],[6.0874,46.6717],[6.0782,46.6707],[6.0765,46.6723],[6.0709,46.6691],[6.0675,46.6702],[6.0585,46.6663],[6.0565,46.6660],[6.0525,46.6683],[6.0517,46.6668],[6.0529,46.6657],[6.0513,46.6655],[6.0431,46.6693],[6.0402,46.6689]]]}},{"type":"Feature","properties":{"name":"Forêt Domaniale de Mouchard"},"geometry":{"type":"Polygon","coordinates":[[[5.7798,46.9454],[5.7725,46.9393],[5.7647,46.9356],[5.7594,46.9396],[5.7556,46.9393],[5.7536,46.9373],[5.7546,46.9373],[5.7544,46.9355],[5.7570,46.9336],[5.7547,46.9323],[5.7527,46.9334],[5.7538,46.9364],[5.7509,46.9351],[5.7514,46.9374],[5.7489,46.9379],[5.7416,46.9312],[5.7386,46.9321],[5.7343,46.9300],[5.7319,46.9313],[5.7293,46.9309],[5.7290,46.9260],[5.7265,46.9263],[5.7251,46.9243],[5.7225,46.9260],[5.7209,46.9250],[5.7197,46.9258],[5.7215,46.9312],[5.7197,46.9298],[5.7128,46.9302],[5.7143,46.9317],[5.7126,46.9327],[5.7155,46.9326],[5.7140,46.9336],[5.7148,46.9350],[5.7186,46.9337],[5.7186,46.9357],[5.7170,46.9362],[5.7181,46.9368],[5.7166,46.9381],[5.7172,46.9393],[5.7155,46.9400],[5.7162,46.9408],[5.7152,46.9405],[5.7157,46.9427],[5.7176,46.9417],[5.7167,46.9407],[5.7197,46.9428],[5.7211,46.9413],[5.7308,46.9438],[5.7318,46.9430],[5.7342,46.9460],[5.7336,46.9434],[5.7353,46.9442],[5.7356,46.9431],[5.7382,46.9448],[5.7344,46.9468],[5.7378,46.9502],[5.7372,46.9507],[5.7404,46.9524],[5.7389,46.9527],[5.7403,46.9548],[5.7372,46.9537],[5.7376,46.9556],[5.7360,46.9564],[5.7414,46.9592],[5.7428,46.9566],[5.7449,46.9573],[5.7418,46.9600],[5.7430,46.9603],[5.7419,46.9621],[5.7433,46.9627],[5.7465,46.9616],[5.7484,46.9639],[5.7497,46.9624],[5.7480,46.9611],[5.7502,46.9602],[5.7552,46.9611],[5.7587,46.9631],[5.7588,46.9645],[5.7575,46.9649],[5.7588,46.9665],[5.7561,46.9672],[5.7565,46.9687],[5.7544,46.9678],[5.7583,46.9698],[5.7636,46.9658],[5.7635,46.9619],[5.7696,46.9625],[5.7731,46.9616],[5.7778,46.9635],[5.7840,46.9618],[5.7861,46.9586],[5.7860,46.9548],[5.7806,46.9466],[5.7791,46.9465],[5.7798,46.9454]]]}},{"type":"Feature","properties":{"name":"Forêt domaniale de Vaivre"},"geometry":{"type":"Polygon","coordinates":[[[5.6604,46.8434],[5.6426,46.8457],[5.6411,46.8484],[5.6424,46.8497],[5.6420,46.8486],[5.6448,46.8485],[5.6448,46.8497],[5.6399,46.8498],[5.6437,46.8501],[5.6519,46.8467],[5.6536,46.8472],[5.6434,46.8516],[5.6454,46.8551],[5.6433,46.8556],[5.6436,46.8570],[5.6454,46.8561],[5.6473,46.8601],[5.6547,46.8608],[5.6581,46.8597],[5.6626,46.8559],[5.6609,46.8545],[5.6638,46.8525],[5.6635,46.8516],[5.6532,46.8532],[5.6505,46.8512],[5.6527,46.8503],[5.6549,46.8522],[5.6591,46.8510],[5.6611,46.8499],[5.6603,46.8474],[5.6648,46.8466],[5.6669,46.8517],[5.6693,46.8506],[5.6707,46.8518],[5.6747,46.8497],[5.6794,46.8506],[5.6810,46.8495],[5.6802,46.8473],[5.6856,46.8427],[5.6697,46.8469],[5.6651,46.8464],[5.6604,46.8434]]]}},{"type":"Feature","properties":{"name":"Forêt de la Joux"},"geometry":{"type":"Polygon","coordinates":[[[6.1344,46.8604],[6.1340,46.8565],[6.1296,46.8556],[6.1344,46.8522],[6.1335,46.8512],[6.1348,46.8505],[6.1323,46.8466],[6.1334,46.8466],[6.1262,46.8419],[6.1219,46.8412],[6.1229,46.8392],[6.1198,46.8382],[6.1193,46.8413],[6.1169,46.8424],[6.1128,46.8431],[6.1094,46.8409],[6.1082,46.8417],[6.1030,46.8371],[6.1036,46.8352],[6.0938,46.8296],[6.0863,46.8299],[6.0877,46.8337],[6.0861,46.8352],[6.0988,46.8351],[6.0993,46.8370],[6.0886,46.8383],[6.0857,46.8360],[6.0838,46.8362],[6.0816,46.8389],[6.0835,46.8386],[6.0819,46.8432],[6.0837,46.8446],[6.0818,46.8441],[6.0817,46.8456],[6.0778,46.8466],[6.0757,46.8497],[6.0685,46.8489],[6.0662,46.8514],[6.0655,46.8496],[6.0627,46.8484],[6.0650,46.8474],[6.0634,46.8458],[6.0649,46.8464],[6.0647,46.8450],[6.0658,46.8445],[6.0629,46.8422],[6.0634,46.8409],[6.0611,46.8405],[6.0612,46.8388],[6.0646,46.8416],[6.0610,46.8370],[6.0598,46.8361],[6.0607,46.8372],[6.0587,46.8387],[6.0563,46.8374],[6.0567,46.8391],[6.0590,46.8391],[6.0594,46.8408],[6.0522,46.8384],[6.0501,46.8363],[6.0506,46.8352],[6.0531,46.8356],[6.0523,46.8340],[6.0535,46.8343],[6.0522,46.8305],[6.0499,46.8310],[6.0435,46.8286],[6.0442,46.8295],[6.0417,46.8311],[6.0451,46.8342],[6.0441,46.8358],[6.0361,46.8338],[6.0347,46.8317],[6.0354,46.8295],[6.0338,46.8285],[6.0356,46.8263],[6.0354,46.8245],[6.0387,46.8223],[6.0369,46.8203],[6.0306,46.8186],[6.0288,46.8223],[6.0253,46.8204],[6.0222,46.8216],[6.0210,46.8209],[6.0230,46.8132],[6.0243,46.8129],[6.0218,46.8102],[6.0189,46.8092],[6.0149,46.8105],[6.0131,46.8096],[6.0140,46.8083],[6.0126,46.8075],[6.0095,46.8085],[6.0083,46.8075],[6.0071,46.8088],[6.0045,46.8049],[6.0039,46.8057],[5.9998,46.8013],[6.0024,46.8017],[6.0042,46.8000],[6.0018,46.7981],[6.0036,46.7966],[5.9998,46.7973],[5.9984,46.8002],[5.9940,46.7957],[5.9933,46.7933],[5.9908,46.7951],[5.9899,46.7940],[5.9852,46.7935],[5.9859,46.7919],[5.9834,46.7900],[5.9847,46.7894],[5.9842,46.7885],[5.9887,46.7909],[5.9899,46.7928],[5.9928,46.7933],[5.9887,46.7905],[5.9908,46.7912],[5.9893,46.7900],[5.9907,46.7897],[5.9929,46.7924],[5.9941,46.7921],[5.9942,46.7893],[5.9913,46.7872],[5.9917,46.7854],[5.9886,46.7826],[5.9904,46.7814],[5.9836,46.7783],[5.9815,46.7807],[5.9762,46.7790],[5.9736,46.7807],[5.9758,46.7830],[5.9763,46.7815],[5.9833,46.7814],[5.9837,46.7849],[5.9807,46.7891],[5.9792,46.7879],[5.9817,46.7915],[5.9821,46.7948],[5.9835,46.7968],[5.9865,46.7969],[5.9915,46.8010],[5.9978,46.8088],[5.9908,46.8019],[5.9912,46.8045],[5.9865,46.8078],[5.9897,46.8095],[5.9821,46.8096],[5.9801,46.8076],[5.9862,46.8049],[5.9846,46.8031],[5.9799,46.8035],[5.9790,46.8066],[5.9746,46.8069],[5.9728,46.8136],[5.9713,46.8142],[5.9727,46.8094],[5.9711,46.8101],[5.9715,46.8085],[5.9700,46.8082],[5.9721,46.8009],[5.9719,46.7968],[5.9709,46.7967],[5.9710,46.7919],[5.9697,46.7928],[5.9698,46.7913],[5.9714,46.7905],[5.9695,46.7877],[5.9682,46.7757],[5.9680,46.7782],[5.9658,46.7734],[5.9628,46.7719],[5.9641,46.7704],[5.9634,46.7693],[5.9453,46.7654],[5.9386,46.7675],[5.9401,46.7674],[5.9380,46.7694],[5.9391,46.7712],[5.9423,46.7698],[5.9431,46.7720],[5.9462,46.7716],[5.9459,46.7690],[5.9476,46.7689],[5.9486,46.7718],[5.9475,46.7734],[5.9438,46.7730],[5.9447,46.7738],[5.9436,46.7766],[5.9472,46.7765],[5.9460,46.7780],[5.9421,46.7788],[5.9428,46.7796],[5.9411,46.7819],[5.9420,46.7839],[5.9410,46.7880],[5.9428,46.7894],[5.9425,46.7910],[5.9410,46.7915],[5.9438,46.7928],[5.9449,46.7921],[5.9457,46.7938],[5.9415,46.7964],[5.9433,46.7962],[5.9425,46.7972],[5.9435,46.7980],[5.9447,46.7971],[5.9463,46.7989],[5.9436,46.7991],[5.9422,46.7975],[5.9411,46.7994],[5.9383,46.8005],[5.9374,46.8020],[5.9417,46.8021],[5.9399,46.8035],[5.9391,46.8028],[5.9396,46.8043],[5.9365,46.8050],[5.9373,46.8075],[5.9350,46.8080],[5.9352,46.8097],[5.9416,46.8129],[5.9441,46.8120],[5.9463,46.8141],[5.9472,46.8132],[5.9493,46.8150],[5.9504,46.8145],[5.9507,46.8154],[5.9489,46.8159],[5.9507,46.8157],[5.9519,46.8175],[5.9508,46.8177],[5.9511,46.8186],[5.9488,46.8183],[5.9519,46.8219],[5.9504,46.8235],[5.9529,46.8247],[5.9527,46.8264],[5.9546,46.8283],[5.9562,46.8283],[5.9629,46.8335],[5.9623,46.8343],[5.9635,46.8353],[5.9677,46.8362],[5.9705,46.8299],[5.9711,46.8308],[5.9708,46.8359],[5.9683,46.8378],[5.9707,46.8425],[5.9684,46.8461],[5.9636,46.8471],[5.9687,46.8484],[5.9681,46.8499],[5.9696,46.8511],[5.9700,46.8543],[5.9677,46.8566],[5.9700,46.8560],[5.9685,46.8570],[5.9706,46.8583],[5.9662,46.8591],[5.9675,46.8597],[5.9682,46.8586],[5.9699,46.8604],[5.9682,46.8615],[5.9726,46.8605],[5.9745,46.8577],[5.9723,46.8610],[5.9682,46.8618],[5.9699,46.8651],[5.9693,46.8674],[5.9709,46.8688],[5.9700,46.8699],[5.9718,46.8701],[5.9696,46.8716],[5.9724,46.8723],[5.9724,46.8745],[5.9709,46.8750],[5.9726,46.8761],[5.9749,46.8749],[5.9753,46.8760],[5.9732,46.8784],[5.9787,46.8809],[5.9810,46.8800],[5.9819,46.8805],[5.9809,46.8821],[5.9829,46.8826],[5.9822,46.8836],[5.9836,46.8844],[5.9860,46.8848],[5.9889,46.8825],[5.9920,46.8823],[5.9943,46.8840],[5.9921,46.8867],[5.9945,46.8856],[5.9962,46.8919],[5.9976,46.8928],[5.9936,46.8938],[5.9939,46.8959],[5.9916,46.8957],[5.9962,46.8971],[5.9970,46.8987],[5.9949,46.9003],[5.9980,46.9048],[5.9961,46.9082],[5.9969,46.9101],[6.0018,46.9096],[6.0001,46.9081],[6.0069,46.9101],[6.0120,46.9074],[6.0159,46.9126],[6.0153,46.9142],[6.0212,46.9131],[6.0322,46.9136],[6.0339,46.9101],[6.0302,46.9094],[6.0306,46.9072],[6.0328,46.9067],[6.0328,46.9026],[6.0312,46.9003],[6.0321,46.8989],[6.0260,46.9000],[6.0266,46.8975],[6.0198,46.8968],[6.0227,46.8942],[6.0305,46.8975],[6.0371,46.8965],[6.0385,46.8938],[6.0405,46.8960],[6.0402,46.8950],[6.0415,46.8942],[6.0477,46.8969],[6.0534,46.8959],[6.0576,46.8987],[6.0570,46.8996],[6.0602,46.9023],[6.0654,46.8999],[6.0656,46.8977],[6.0674,46.8974],[6.0615,46.8900],[6.0599,46.8896],[6.0601,46.8884],[6.0564,46.8866],[6.0549,46.8873],[6.0550,46.8859],[6.0533,46.8851],[6.0552,46.8842],[6.0521,46.8832],[6.0491,46.8803],[6.0523,46.8818],[6.0549,46.8798],[6.0494,46.8780],[6.0454,46.8738],[6.0330,46.8656],[6.0343,46.8623],[6.0248,46.8565],[6.0259,46.8528],[6.0339,46.8557],[6.0348,46.8536],[6.0337,46.8525],[6.0289,46.8523],[6.0325,46.8496],[6.0373,46.8514],[6.0410,46.8508],[6.0408,46.8521],[6.0376,46.8531],[6.0451,46.8573],[6.0626,46.8612],[6.0640,46.8599],[6.0681,46.8615],[6.0671,46.8625],[6.0684,46.8644],[6.0723,46.8651],[6.0780,46.8651],[6.0767,46.8601],[6.0804,46.8599],[6.0830,46.8572],[6.0817,46.8529],[6.0853,46.8550],[6.0881,46.8539],[6.0892,46.8548],[6.0910,46.8533],[6.0985,46.8558],[6.0998,46.8545],[6.1008,46.8553],[6.1037,46.8544],[6.1067,46.8560],[6.1077,46.8591],[6.1089,46.8589],[6.1083,46.8605],[6.1181,46.8611],[6.1169,46.8580],[6.1194,46.8572],[6.1198,46.8591],[6.1238,46.8598],[6.1224,46.8617],[6.1272,46.8604],[6.1317,46.8631],[6.1314,46.8622],[6.1344,46.8604]]]}}]}