{"type":"FeatureCollection","features":[{"type":"Feature","properties":{"name":"Bois de Rosgrand"},"geometry":{"type":"Polygon","coordinates":[[[-3.4713,47.8865],[-3.4718,47.8885],[-3.4741,47.8895],[-3.4738,47.8918],[-3.4672,47.8910],[-3.4697,47.8935],[-3.4783,47.8917],[-3.4776,47.8905],[-3.4814,47.8887],[-3.4943,47.8884],[-3.4974,47.8903],[-3.4956,47.8903],[-3.4951,47.8926],[-3.4940,47.8928],[-3.4956,47.8935],[-3.4918,47.8949],[-3.4931,47.8979],[-3.4967,47.8978],[-3.4973,47.8993],[-3.5041,47.8993],[-3.5031,47.8989],[-3.5035,47.8971],[-3.5016,47.8963],[-3.5034,47.8960],[-3.5058,47.8980],[-3.5059,47.8965],[-3.5013,47.8904],[-3.5039,47.8900],[-3.5042,47.8909],[-3.5027,47.8913],[-3.5075,47.8924],[-3.5040,47.8889],[-3.5063,47.8890],[-3.5073,47.8873],[-3.5027,47.8881],[-3.5019,47.8867],[-3.5051,47.8858],[-3.5101,47.8862],[-3.5100,47.8872],[-3.5117,47.8869],[-3.5115,47.8856],[-3.5169,47.8847],[-3.5190,47.8854],[-3.5186,47.8875],[-3.5161,47.8875],[-3.5188,47.8877],[-3.5200,47.8892],[-3.5222,47.8886],[-3.5205,47.8879],[-3.5237,47.8866],[-3.5243,47.8849],[-3.5285,47.8852],[-3.5242,47.8819],[-3.5225,47.8843],[-3.5243,47.8808],[-3.5314,47.8792],[-3.5289,47.8771],[-3.5280,47.8791],[-3.5197,47.8782],[-3.5191,47.8770],[-3.5051,47.8791],[-3.5028,47.8824],[-3.5005,47.8828],[-3.4999,47.8846],[-3.4977,47.8844],[-3.4985,47.8854],[-3.4964,47.8865],[-3.4945,47.8852],[-3.4956,47.8842],[-3.4940,47.8845],[-3.4892,47.8806],[-3.4840,47.8827],[-3.4825,47.8849],[-3.4847,47.8859],[-3.4849,47.8840],[-3.4888,47.8820],[-3.4936,47.8849],[-3.4916,47.8855],[-3.4919,47.8866],[-3.4879,47.8875],[-3.4878,47.8866],[-3.4795,47.8857],[-3.4778,47.8869],[-3.4713,47.8865]]]}},{"type":"Feature","properties":{"name":"Coat An Diarzou"},"geometry":{"type":"Polygon","coordinates":[[[-3.6406,48.5727],[-3.6389,48.5710],[-3.6386,48.5673],[-3.6398,48.5658],[-3.6393,48.5688],[-3.6401,48.5658],[-3.6413,48.5658],[-3.6400,48.5702],[-3.6413,48.5720],[-3.6462,48.5678],[-3.6496,48.5680],[-3.6462,48.5706],[-3.6485,48.5721],[-3.6462,48.5757],[-3.6475,48.5770],[-3.6507,48.5763],[-3.6518,48.5743],[-3.6536,48.5747],[-3.6592,48.5727],[-3.6589,48.5712],[-3.6567,48.5712],[-3.6597,48.5680],[-3.6607,48.5682],[-3.6600,48.5706],[-3.6613,48.5706],[-3.6614,48.5721],[-3.6681,48.5685],[-3.6684,48.5667],[-3.6721,48.5685],[-3.6723,48.5696],[-3.6687,48.5724],[-3.6690,48.5739],[-3.6647,48.5741],[-3.6640,48.5716],[-3.6612,48.5732],[-3.6616,48.5745],[-3.6599,48.5762],[-3.6614,48.5775],[-3.6578,48.5781],[-3.6573,48.5770],[-3.6528,48.5793],[-3.6535,48.5816],[-3.6549,48.5800],[-3.6573,48.5817],[-3.6575,48.5833],[-3.6529,48.5831],[-3.6519,48.5845],[-3.6543,48.5860],[-3.6563,48.5895],[-3.6558,48.5911],[-3.6546,48.5898],[-3.6510,48.5893],[-3.6502,48.5911],[-3.6492,48.5909],[-3.6475,48.5889],[-3.6461,48.5905],[-3.6472,48.5933],[-3.6456,48.5948],[-3.6478,48.5959],[-3.6449,48.5958],[-3.6441,48.5972],[-3.6462,48.6015],[-3.6461,48.6044],[-3.6448,48.6039],[-3.6431,48.6055],[-3.6432,48.6067],[-3.6444,48.6062],[-3.6439,48.6090],[-3.6491,48.6102],[-3.6513,48.6125],[-3.6536,48.6121],[-3.6563,48.6149],[-3.6612,48.6127],[-3.6602,48.6099],[-3.6619,48.6090],[-3.6636,48.6128],[-3.6631,48.6148],[-3.6580,48.6168],[-3.6575,48.6192],[-3.6547,48.6202],[-3.6570,48.6213],[-3.6567,48.6229],[-3.6552,48.6235],[-3.6549,48.6264],[-3.6529,48.6263],[-3.6539,48.6259],[-3.6527,48.6230],[-3.6436,48.6224],[-3.6497,48.6189],[-3.6508,48.6213],[-3.6532,48.6198],[-3.6520,48.6178],[-3.6478,48.6157],[-3.6493,48.6140],[-3.6481,48.6119],[-3.6429,48.6120],[-3.6418,48.6125],[-3.6424,48.6134],[-3.6391,48.6145],[-3.6362,48.6129],[-3.6355,48.6108],[-3.6381,48.6099],[-3.6376,48.6082],[-3.6350,48.6091],[-3.6333,48.6074],[-3.6315,48.6082],[-3.6268,48.6117],[-3.6246,48.6153],[-3.6199,48.6165],[-3.6201,48.6131],[-3.6225,48.6133],[-3.6243,48.6106],[-3.6260,48.6107],[-3.6282,48.6079],[-3.6324,48.6061],[-3.6328,48.6050],[-3.6306,48.6044],[-3.6339,48.6034],[-3.6321,48.5981],[-3.6272,48.5981],[-3.6259,48.5995],[-3.6300,48.6013],[-3.6302,48.6028],[-3.6286,48.6032],[-3.6284,48.6060],[-3.6266,48.6072],[-3.6250,48.6066],[-3.6260,48.6034],[-3.6221,48.6004],[-3.6229,48.5982],[-3.6212,48.5980],[-3.6232,48.5973],[-3.6240,48.5941],[-3.6257,48.5950],[-3.6264,48.5918],[-3.6303,48.5916],[-3.6293,48.5888],[-3.6323,48.5896],[-3.6333,48.5841],[-3.6304,48.5825],[-3.6325,48.5811],[-3.6310,48.5789],[-3.6335,48.5828],[-3.6355,48.5824],[-3.6346,48.5833],[-3.6372,48.5838],[-3.6367,48.5856],[-3.6341,48.5836],[-3.6361,48.5881],[-3.6351,48.5891],[-3.6367,48.5888],[-3.6347,48.5906],[-3.6379,48.5875],[-3.6407,48.5891],[-3.6393,48.5907],[-3.6412,48.5905],[-3.6441,48.5870],[-3.6442,48.5789],[-3.6348,48.5740],[-3.6377,48.5668],[-3.6383,48.5731],[-3.6420,48.5738],[-3.6422,48.5727],[-3.6406,48.5727]]]}},{"type":"Feature","properties":{"name":"Bois de Coatlosquet"},"geometry":{"type":"Polygon","coordinates":[[[-3.8623,48.4790],[-3.8595,48.4803],[-3.8606,48.4822],[-3.8623,48.4806],[-3.8606,48.4849],[-3.8598,48.4839],[-3.8502,48.4866],[-3.8519,48.4840],[-3.8499,48.4841],[-3.8466,48.4809],[-3.8450,48.4820],[-3.8435,48.4812],[-3.8452,48.4802],[-3.8425,48.4768],[-3.8396,48.4772],[-3.8417,48.4758],[-3.8405,48.4733],[-3.8384,48.4734],[-3.8356,48.4758],[-3.8363,48.4789],[-3.8301,48.4788],[-3.8256,48.4752],[-3.8255,48.4737],[-3.8277,48.4718],[-3.8252,48.4708],[-3.8286,48.4700],[-3.8280,48.4692],[-3.8312,48.4669],[-3.8336,48.4678],[-3.8361,48.4663],[-3.8373,48.4684],[-3.8404,48.4684],[-3.8387,48.4688],[-3.8396,48.4696],[-3.8420,48.4698],[-3.8420,48.4686],[-3.8437,48.4708],[-3.8447,48.4700],[-3.8447,48.4715],[-3.8463,48.4696],[-3.8446,48.4684],[-3.8470,48.4678],[-3.8466,48.4696],[-3.8485,48.4690],[-3.8507,48.4703],[-3.8528,48.4696],[-3.8528,48.4677],[-3.8568,48.4678],[-3.8542,48.4684],[-3.8545,48.4719],[-3.8593,48.4729],[-3.8622,48.4765],[-3.8622,48.4775],[-3.8608,48.4775],[-3.8623,48.4790]]]}},{"type":"Feature","properties":{"name":"Bois du Gars"},"geometry":{"type":"Polygon","coordinates":[[[-4.2273,48.3297],[-4.2297,48.3391],[-4.2119,48.3434],[-4.2135,48.3442],[-4.2098,48.3436],[-4.2053,48.3443],[-4.2052,48.3453],[-4.2011,48.3448],[-4.1999,48.3428],[-4.1961,48.3412],[-4.2003,48.3405],[-4.2027,48.3343],[-4.2060,48.3328],[-4.2088,48.3337],[-4.2135,48.3304],[-4.2134,48.3275],[-4.2011,48.3279],[-4.2080,48.3273],[-4.2066,48.3251],[-4.2095,48.3234],[-4.2129,48.3266],[-4.2186,48.3255],[-4.2222,48.3275],[-4.2258,48.3274],[-4.2244,48.3287],[-4.2273,48.3297]]]}},{"type":"Feature","properties":{"name":"Forêt départementale de Beffou"},"geometry":{"type":"Polygon","coordinates":[[[-3.5002,48.5077],[-3.5056,48.5067],[-3.5068,48.5047],[-3.4993,48.5031],[-3.5047,48.5035],[-3.5048,48.4996],[-3.4976,48.4975],[-3.4999,48.4961],[-3.4970,48.4945],[-3.5030,48.4896],[-3.5061,48.4889],[-3.5033,48.4865],[-3.5089,48.4857],[-3.5088,48.4870],[-3.5104,48.4876],[-3.5104,48.4860],[-3.5133,48.4861],[-3.5132,48.4880],[-3.5148,48.4879],[-3.5158,48.4855],[-3.5122,48.4829],[-3.5106,48.4841],[-3.5111,48.4822],[-3.5086,48.4807],[-3.5077,48.4764],[-3.5107,48.4778],[-3.5142,48.4763],[-3.5165,48.4767],[-3.5204,48.4805],[-3.5181,48.4807],[-3.5185,48.4844],[-3.5224,48.4842],[-3.5227,48.4858],[-3.5259,48.4878],[-3.5265,48.4900],[-3.5230,48.4915],[-3.5224,48.4945],[-3.5237,48.4963],[-3.5217,48.4960],[-3.5211,48.4935],[-3.5197,48.4931],[-3.5146,48.4933],[-3.5145,48.4953],[-3.5126,48.4951],[-3.5115,48.4926],[-3.5098,48.4929],[-3.5104,48.4941],[-3.5063,48.4964],[-3.5100,48.4972],[-3.5066,48.4978],[-3.5060,48.4997],[-3.5087,48.5030],[-3.5085,48.5068],[-3.5146,48.5019],[-3.5126,48.5010],[-3.5141,48.5008],[-3.5128,48.4990],[-3.5172,48.5004],[-3.5154,48.5017],[-3.5148,48.5047],[-3.5176,48.5038],[-3.5244,48.5045],[-3.5248,48.5073],[-3.5164,48.5077],[-3.5152,48.5063],[-3.5109,48.5074],[-3.5112,48.5094],[-3.5057,48.5101],[-3.5049,48.5101],[-3.5059,48.5084],[-3.5002,48.5077]]]}},{"type":"Feature","properties":{"name":"Koad Toullaeron"},"geometry":{"type":"Polygon","coordinates":[[[-3.6558,48.1795],[-3.6546,48.1791],[-3.6557,48.1782],[-3.6534,48.1753],[-3.6499,48.1748],[-3.6538,48.1769],[-3.6526,48.1776],[-3.6415,48.1736],[-3.6401,48.1737],[-3.6395,48.1753],[-3.6350,48.1733],[-3.6338,48.1707],[-3.6369,48.1697],[-3.6364,48.1661],[-3.6302,48.1683],[-3.6294,48.1656],[-3.6264,48.1647],[-3.6301,48.1638],[-3.6310,48.1622],[-3.6291,48.1596],[-3.6245,48.1595],[-3.6392,48.1584],[-3.6313,48.1602],[-3.6333,48.1645],[-3.6359,48.1652],[-3.6431,48.1617],[-3.6507,48.1649],[-3.6530,48.1679],[-3.6547,48.1678],[-3.6559,48.1662],[-3.6614,48.1668],[-3.6625,48.1710],[-3.6590,48.1725],[-3.6608,48.1743],[-3.6603,48.1759],[-3.6627,48.1776],[-3.6589,48.1767],[-3.6566,48.1778],[-3.6575,48.1791],[-3.6558,48.1795]]]}},{"type":"Feature","properties":{"name":"Bois d\u0027amour"},"geometry":{"type":"Polygon","coordinates":[[[-3.7322,47.8854],[-3.7281,47.8802],[-3.7276,47.8786],[-3.7290,47.8782],[-3.7251,47.8753],[-3.7213,47.8761],[-3.7179,47.8808],[-3.7136,47.8806],[-3.7141,47.8794],[-3.7166,47.8797],[-3.7185,47.8769],[-3.7152,47.8748],[-3.7197,47.8759],[-3.7204,47.8743],[-3.7253,47.8737],[-3.7235,47.8709],[-3.7260,47.8693],[-3.7258,47.8679],[-3.7234,47.8692],[-3.7212,47.8686],[-3.7252,47.8662],[-3.7272,47.8623],[-3.7346,47.8618],[-3.7344,47.8569],[-3.7356,47.8594],[-3.7426,47.8577],[-3.7441,47.8587],[-3.7355,47.8604],[-3.7357,47.8617],[-3.7374,47.8605],[-3.7440,47.8599],[-3.7458,47.8575],[-3.7475,47.8579],[-3.7482,47.8585],[-3.7451,47.8613],[-3.7367,47.8614],[-3.7388,47.8639],[-3.7416,47.8631],[-3.7418,47.8640],[-3.7462,47.8633],[-3.7493,47.8643],[-3.7483,47.8656],[-3.7427,47.8654],[-3.7424,47.8705],[-3.7415,47.8706],[-3.7406,47.8656],[-3.7304,47.8675],[-3.7305,47.8703],[-3.7286,47.8700],[-3.7278,47.8725],[-3.7295,47.8744],[-3.7286,47.8750],[-3.7321,47.8775],[-3.7325,47.8798],[-3.7298,47.8785],[-3.7323,47.8823],[-3.7385,47.8814],[-3.7421,47.8785],[-3.7494,47.8796],[-3.7511,47.8790],[-3.7513,47.8763],[-3.7525,47.8775],[-3.7613,47.8761],[-3.7639,47.8771],[-3.7569,47.8777],[-3.7534,47.8796],[-3.7562,47.8811],[-3.7433,47.8808],[-3.7408,47.8836],[-3.7336,47.8838],[-3.7344,47.8851],[-3.7322,47.8854]]]}},{"type":"Feature","properties":{"name":"Forêt domaniale de Saint-Cadou"},"geometry":{"type":"Polygon","coordinates":[[[-3.9972,48.3659],[-3.9928,48.3642],[-3.9780,48.3619],[-3.9767,48.3646],[-3.9824,48.3637],[-3.9836,48.3669],[-3.9815,48.3690],[-3.9846,48.3703],[-3.9828,48.3718],[-3.9777,48.3720],[-3.9779,48.3730],[-3.9748,48.3740],[-3.9820,48.3755],[-3.9933,48.3689],[-3.9933,48.3717],[-3.9950,48.3736],[-3.9937,48.3761],[-3.9963,48.3777],[-4.0032,48.3770],[-4.0041,48.3782],[-4.0035,48.3767],[-4.0079,48.3752],[-4.0071,48.3733],[-4.0122,48.3723],[-4.0103,48.3697],[-4.0121,48.3686],[-4.0091,48.3650],[-3.9972,48.3659]]]}},{"type":"Feature","properties":{"name":"Stangala"},"geometry":{"type":"Polygon","coordinates":[[[-4.0661,48.0315],[-4.0718,48.0295],[-4.0707,48.0288],[-4.0720,48.0279],[-4.0739,48.0281],[-4.0730,48.0269],[-4.0760,48.0275],[-4.0742,48.0280],[-4.0753,48.0286],[-4.0777,48.0282],[-4.0783,48.0268],[-4.0768,48.0277],[-4.0757,48.0264],[-4.0780,48.0257],[-4.0785,48.0269],[-4.0807,48.0251],[-4.0832,48.0251],[-4.0814,48.0248],[-4.0821,48.0239],[-4.0851,48.0251],[-4.0835,48.0227],[-4.0837,48.0240],[-4.0823,48.0236],[-4.0832,48.0226],[-4.0819,48.0216],[-4.0810,48.0241],[-4.0781,48.0238],[-4.0798,48.0235],[-4.0792,48.0213],[-4.0793,48.0229],[-4.0770,48.0227],[-4.0786,48.0199],[-4.0778,48.0193],[-4.0791,48.0204],[-4.0787,48.0188],[-4.0771,48.0199],[-4.0775,48.0208],[-4.0719,48.0170],[-4.0684,48.0172],[-4.0703,48.0152],[-4.0685,48.0151],[-4.0693,48.0140],[-4.0689,48.0149],[-4.0666,48.0144],[-4.0688,48.0142],[-4.0669,48.0124],[-4.0659,48.0143],[-4.0641,48.0135],[-4.0626,48.0150],[-4.0622,48.0132],[-4.0615,48.0142],[-4.0561,48.0139],[-4.0600,48.0148],[-4.0582,48.0155],[-4.0581,48.0170],[-4.0532,48.0187],[-4.0559,48.0180],[-4.0542,48.0188],[-4.0601,48.0219],[-4.0563,48.0242],[-4.0536,48.0252],[-4.0521,48.0242],[-4.0452,48.0275],[-4.0457,48.0294],[-4.0488,48.0269],[-4.0515,48.0272],[-4.0507,48.0259],[-4.0528,48.0269],[-4.0512,48.0279],[-4.0529,48.0286],[-4.0526,48.0296],[-4.0481,48.0278],[-4.0493,48.0283],[-4.0472,48.0288],[-4.0496,48.0287],[-4.0496,48.0296],[-4.0407,48.0305],[-4.0396,48.0284],[-4.0408,48.0278],[-4.0392,48.0283],[-4.0387,48.0271],[-4.0377,48.0272],[-4.0391,48.0283],[-4.0379,48.0282],[-4.0383,48.0308],[-4.0367,48.0294],[-4.0370,48.0327],[-4.0393,48.0335],[-4.0476,48.0344],[-4.0510,48.0323],[-4.0579,48.0341],[-4.0584,48.0347],[-4.0566,48.0343],[-4.0579,48.0351],[-4.0564,48.0388],[-4.0581,48.0452],[-4.0592,48.0432],[-4.0583,48.0423],[-4.0596,48.0426],[-4.0601,48.0477],[-4.0620,48.0462],[-4.0601,48.0473],[-4.0613,48.0462],[-4.0596,48.0450],[-4.0610,48.0436],[-4.0589,48.0413],[-4.0605,48.0410],[-4.0584,48.0406],[-4.0580,48.0379],[-4.0592,48.0362],[-4.0615,48.0375],[-4.0627,48.0389],[-4.0608,48.0397],[-4.0616,48.0405],[-4.0680,48.0391],[-4.0641,48.0385],[-4.0616,48.0365],[-4.0633,48.0344],[-4.0650,48.0349],[-4.0654,48.0335],[-4.0618,48.0317],[-4.0661,48.0315]]]}},{"type":"Feature","properties":{"name":"Forêt de Coat-an-Hay"},"geometry":{"type":"Polygon","coordinates":[[[-3.3911,48.5084],[-3.3969,48.5090],[-3.4000,48.5127],[-3.3986,48.5158],[-3.4006,48.5155],[-3.4014,48.5181],[-3.4032,48.5165],[-3.4087,48.5171],[-3.4084,48.5184],[-3.4075,48.5175],[-3.4056,48.5181],[-3.4098,48.5210],[-3.4046,48.5205],[-3.4047,48.5189],[-3.4021,48.5212],[-3.4021,48.5189],[-3.3943,48.5231],[-3.3913,48.5220],[-3.3885,48.5230],[-3.3886,48.5214],[-3.3859,48.5192],[-3.3868,48.5180],[-3.3799,48.5152],[-3.3763,48.5166],[-3.3737,48.5157],[-3.3697,48.5172],[-3.3705,48.5184],[-3.3601,48.5195],[-3.3579,48.5181],[-3.3567,48.5188],[-3.3629,48.5216],[-3.3641,48.5202],[-3.3670,48.5218],[-3.3683,48.5198],[-3.3701,48.5209],[-3.3726,48.5198],[-3.3742,48.5245],[-3.3772,48.5249],[-3.3711,48.5261],[-3.3731,48.5276],[-3.3698,48.5300],[-3.3609,48.5267],[-3.3598,48.5296],[-3.3630,48.5297],[-3.3591,48.5306],[-3.3612,48.5315],[-3.3586,48.5324],[-3.3589,48.5339],[-3.3613,48.5349],[-3.3576,48.5360],[-3.3613,48.5358],[-3.3619,48.5373],[-3.3566,48.5368],[-3.3576,48.5339],[-3.3480,48.5317],[-3.3457,48.5273],[-3.3381,48.5277],[-3.3366,48.5244],[-3.3310,48.5258],[-3.3303,48.5245],[-3.3268,48.5252],[-3.3287,48.5269],[-3.3316,48.5270],[-3.3319,48.5286],[-3.3282,48.5315],[-3.3215,48.5304],[-3.3145,48.5308],[-3.3118,48.5297],[-3.3128,48.5283],[-3.3082,48.5249],[-3.3214,48.5232],[-3.3238,48.5205],[-3.3233,48.5181],[-3.3349,48.5159],[-3.3342,48.5150],[-3.3361,48.5133],[-3.3431,48.5107],[-3.3471,48.5109],[-3.3459,48.5098],[-3.3526,48.5105],[-3.3535,48.5093],[-3.3516,48.5083],[-3.3584,48.5048],[-3.3607,48.5057],[-3.3607,48.5069],[-3.3572,48.5081],[-3.3608,48.5094],[-3.3667,48.5083],[-3.3702,48.5090],[-3.3723,48.5077],[-3.3711,48.5089],[-3.3721,48.5095],[-3.3745,48.5086],[-3.3724,48.5073],[-3.3753,48.5058],[-3.3802,48.5072],[-3.3805,48.5082],[-3.3849,48.5077],[-3.3861,48.5049],[-3.3876,48.5062],[-3.3870,48.5069],[-3.3900,48.5067],[-3.3911,48.5083],[-3.3934,48.5078],[-3.3911,48.5084]]]}},{"type":"Feature","properties":{"name":"Forêt domaniale de Landévennec"},"geometry":{"type":"Polygon","coordinates":[[[-4.2724,48.2960],[-4.2873,48.2974],[-4.3071,48.2975],[-4.3210,48.2918],[-4.3307,48.2902],[-4.3364,48.2864],[-4.3321,48.2858],[-4.3316,48.2849],[-4.3333,48.2846],[-4.3318,48.2830],[-4.3273,48.2830],[-4.3238,48.2845],[-4.3208,48.2829],[-4.3201,48.2840],[-4.3191,48.2827],[-4.3181,48.2840],[-4.3180,48.2823],[-4.3162,48.2843],[-4.3130,48.2848],[-4.3131,48.2867],[-4.3117,48.2879],[-4.3128,48.2878],[-4.3110,48.2889],[-4.3112,48.2917],[-4.3070,48.2952],[-4.2980,48.2949],[-4.2952,48.2930],[-4.2947,48.2943],[-4.2929,48.2931],[-4.2888,48.2956],[-4.2871,48.2955],[-4.2867,48.2933],[-4.2864,48.2951],[-4.2800,48.2941],[-4.2754,48.2947],[-4.2753,48.2960],[-4.2715,48.2952],[-4.2724,48.2960]]]}},{"type":"Feature","properties":{"name":"Forêt de Cascadec"},"geometry":{"type":"Polygon","coordinates":[[[-3.6806,48.0103],[-3.6765,48.0127],[-3.6761,48.0101],[-3.6783,48.0110],[-3.6789,48.0102],[-3.6780,48.0092],[-3.6764,48.0098],[-3.6734,48.0051],[-3.6759,48.0054],[-3.6752,48.0046],[-3.6767,48.0018],[-3.6787,48.0010],[-3.6839,48.0066],[-3.6814,48.0016],[-3.6856,48.0003],[-3.6809,48.0013],[-3.6791,47.9981],[-3.6817,47.9968],[-3.6834,47.9985],[-3.6876,47.9993],[-3.6874,47.9979],[-3.6831,47.9970],[-3.6854,47.9966],[-3.6814,47.9928],[-3.6821,47.9918],[-3.6905,48.0026],[-3.6914,48.0013],[-3.6859,47.9955],[-3.6833,47.9904],[-3.6860,47.9894],[-3.6900,47.9902],[-3.6921,47.9889],[-3.6933,47.9898],[-3.6951,47.9882],[-3.6959,47.9907],[-3.6979,47.9920],[-3.6920,47.9938],[-3.6905,47.9920],[-3.6901,47.9957],[-3.6912,47.9937],[-3.6949,47.9954],[-3.6939,47.9960],[-3.6963,47.9978],[-3.6968,47.9962],[-3.6978,47.9980],[-3.6994,47.9967],[-3.6958,47.9943],[-3.6987,47.9942],[-3.7024,47.9989],[-3.7000,48.0009],[-3.6987,47.9998],[-3.6975,48.0009],[-3.6978,47.9991],[-3.6957,47.9997],[-3.6974,48.0015],[-3.6951,48.0012],[-3.6966,48.0022],[-3.6946,48.0020],[-3.6946,48.0036],[-3.6986,48.0056],[-3.6979,48.0087],[-3.6936,48.0083],[-3.6964,48.0071],[-3.6931,48.0061],[-3.6930,48.0049],[-3.6904,48.0081],[-3.6910,48.0103],[-3.6901,48.0087],[-3.6874,48.0102],[-3.6908,48.0107],[-3.6899,48.0118],[-3.6915,48.0131],[-3.6899,48.0136],[-3.6928,48.0150],[-3.6918,48.0158],[-3.6882,48.0147],[-3.6898,48.0162],[-3.6878,48.0163],[-3.6881,48.0188],[-3.6867,48.0181],[-3.6888,48.0211],[-3.6865,48.0189],[-3.6846,48.0204],[-3.6860,48.0179],[-3.6848,48.0191],[-3.6853,48.0175],[-3.6842,48.0170],[-3.6860,48.0136],[-3.6841,48.0146],[-3.6820,48.0115],[-3.6820,48.0143],[-3.6798,48.0137],[-3.6811,48.0129],[-3.6806,48.0103]]]}},{"type":"Feature","properties":{"name":"Bois de Trogorre"},"geometry":{"type":"Polygon","coordinates":[[[-3.4556,48.5242],[-3.4492,48.5253],[-3.4515,48.5246],[-3.4508,48.5223],[-3.4482,48.5213],[-3.4475,48.5224],[-3.4460,48.5221],[-3.4471,48.5234],[-3.4433,48.5239],[-3.4443,48.5224],[-3.4435,48.5219],[-3.4432,48.5240],[-3.4420,48.5236],[-3.4425,48.5245],[-3.4370,48.5296],[-3.4385,48.5246],[-3.4401,48.5245],[-3.4414,48.5213],[-3.4392,48.5211],[-3.4389,48.5187],[-3.4458,48.5163],[-3.4401,48.5146],[-3.4471,48.5106],[-3.4544,48.5101],[-3.4538,48.5084],[-3.4592,48.5095],[-3.4590,48.5071],[-3.4633,48.5051],[-3.4641,48.5056],[-3.4626,48.5071],[-3.4637,48.5080],[-3.4628,48.5099],[-3.4517,48.5153],[-3.4526,48.5170],[-3.4565,48.5183],[-3.4596,48.5166],[-3.4555,48.5219],[-3.4576,48.5214],[-3.4601,48.5236],[-3.4624,48.5211],[-3.4644,48.5233],[-3.4664,48.5226],[-3.4665,48.5214],[-3.4708,48.5223],[-3.4712,48.5212],[-3.4713,48.5239],[-3.4672,48.5242],[-3.4708,48.5260],[-3.4734,48.5229],[-3.4743,48.5240],[-3.4758,48.5236],[-3.4719,48.5255],[-3.4738,48.5262],[-3.4713,48.5264],[-3.4728,48.5273],[-3.4670,48.5284],[-3.4685,48.5299],[-3.4664,48.5282],[-3.4670,48.5294],[-3.4648,48.5294],[-3.4671,48.5304],[-3.4652,48.5302],[-3.4654,48.5323],[-3.4620,48.5261],[-3.4582,48.5266],[-3.4556,48.5242]]]}},{"type":"Feature","properties":{"name":"Bois du Névet"},"geometry":{"type":"Polygon","coordinates":[[[-4.2466,48.0784],[-4.2452,48.0776],[-4.2439,48.0788],[-4.2479,48.0800],[-4.2482,48.0782],[-4.2505,48.0793],[-4.2511,48.0783],[-4.2486,48.0775],[-4.2526,48.0723],[-4.2502,48.0765],[-4.2538,48.0784],[-4.2535,48.0771],[-4.2564,48.0746],[-4.2606,48.0772],[-4.2569,48.0772],[-4.2575,48.0799],[-4.2558,48.0809],[-4.2591,48.0816],[-4.2596,48.0807],[-4.2578,48.0788],[-4.2615,48.0784],[-4.2608,48.0795],[-4.2644,48.0819],[-4.2635,48.0809],[-4.2643,48.0802],[-4.2624,48.0794],[-4.2632,48.0788],[-4.2679,48.0844],[-4.2652,48.0857],[-4.2651,48.0842],[-4.2588,48.0819],[-4.2582,48.0827],[-4.2599,48.0846],[-4.2590,48.0848],[-4.2605,48.0858],[-4.2600,48.0871],[-4.2560,48.0885],[-4.2542,48.0878],[-4.2584,48.0858],[-4.2570,48.0845],[-4.2547,48.0863],[-4.2540,48.0851],[-4.2459,48.0866],[-4.2449,48.0869],[-4.2479,48.0902],[-4.2449,48.0907],[-4.2460,48.0932],[-4.2434,48.0935],[-4.2444,48.0918],[-4.2415,48.0920],[-4.2420,48.0941],[-4.2403,48.0925],[-4.2384,48.0944],[-4.2355,48.0948],[-4.2343,48.0917],[-4.2392,48.0927],[-4.2385,48.0917],[-4.2403,48.0897],[-4.2336,48.0884],[-4.2331,48.0896],[-4.2324,48.0881],[-4.2216,48.0914],[-4.2204,48.0902],[-4.2228,48.0849],[-4.2230,48.0830],[-4.2212,48.0821],[-4.2226,48.0804],[-4.2177,48.0798],[-4.2258,48.0791],[-4.2233,48.0767],[-4.2239,48.0761],[-4.2270,48.0771],[-4.2261,48.0782],[-4.2295,48.0787],[-4.2335,48.0765],[-4.2347,48.0773],[-4.2350,48.0758],[-4.2329,48.0750],[-4.2337,48.0746],[-4.2354,48.0748],[-4.2358,48.0773],[-4.2380,48.0752],[-4.2374,48.0736],[-4.2485,48.0720],[-4.2453,48.0749],[-4.2465,48.0776],[-4.2488,48.0770],[-4.2466,48.0784]]]}},{"type":"Feature","properties":{"name":"Forêt d\u0027Huelgoat"},"geometry":{"type":"Polygon","coordinates":[[[-3.7263,48.3585],[-3.7346,48.3571],[-3.7386,48.3600],[-3.7364,48.3615],[-3.7382,48.3616],[-3.7380,48.3630],[-3.7421,48.3647],[-3.7423,48.3631],[-3.7461,48.3632],[-3.7438,48.3645],[-3.7452,48.3649],[-3.7443,48.3648],[-3.7447,48.3661],[-3.7464,48.3653],[-3.7477,48.3673],[-3.7463,48.3687],[-3.7470,48.3708],[-3.7456,48.3726],[-3.7464,48.3750],[-3.7476,48.3739],[-3.7479,48.3751],[-3.7467,48.3765],[-3.7478,48.3765],[-3.7454,48.3775],[-3.7490,48.3795],[-3.7497,48.3817],[-3.7475,48.3808],[-3.7475,48.3833],[-3.7464,48.3833],[-3.7469,48.3809],[-3.7449,48.3806],[-3.7449,48.3815],[-3.7462,48.3852],[-3.7488,48.3852],[-3.7482,48.3865],[-3.7436,48.3845],[-3.7430,48.3816],[-3.7402,48.3824],[-3.7403,48.3848],[-3.7388,48.3834],[-3.7372,48.3840],[-3.7383,48.3830],[-3.7373,48.3819],[-3.7350,48.3820],[-3.7367,48.3829],[-3.7355,48.3842],[-3.7348,48.3822],[-3.7328,48.3819],[-3.7335,48.3795],[-3.7398,48.3817],[-3.7392,48.3802],[-3.7378,48.3802],[-3.7384,48.3796],[-3.7361,48.3796],[-3.7383,48.3769],[-3.7359,48.3773],[-3.7392,48.3759],[-3.7374,48.3738],[-3.7336,48.3732],[-3.7339,48.3722],[-3.7323,48.3735],[-3.7316,48.3712],[-3.7301,48.3714],[-3.7301,48.3732],[-3.7287,48.3725],[-3.7276,48.3699],[-3.7304,48.3684],[-3.7293,48.3664],[-3.7219,48.3681],[-3.7201,48.3655],[-3.7154,48.3657],[-3.7183,48.3643],[-3.7188,48.3633],[-3.7174,48.3630],[-3.7174,48.3618],[-3.7190,48.3616],[-3.7141,48.3628],[-3.7162,48.3645],[-3.7145,48.3651],[-3.7135,48.3632],[-3.7125,48.3635],[-3.7137,48.3648],[-3.7068,48.3643],[-3.7050,48.3625],[-3.7095,48.3587],[-3.7130,48.3584],[-3.7142,48.3562],[-3.7157,48.3575],[-3.7120,48.3596],[-3.7122,48.3612],[-3.7192,48.3592],[-3.7201,48.3576],[-3.7187,48.3539],[-3.7220,48.3541],[-3.7248,48.3516],[-3.7220,48.3487],[-3.7271,48.3499],[-3.7322,48.3471],[-3.7355,48.3481],[-3.7392,48.3466],[-3.7392,48.3490],[-3.7434,48.3491],[-3.7400,48.3511],[-3.7391,48.3500],[-3.7377,48.3516],[-3.7369,48.3496],[-3.7263,48.3585]]]}},{"type":"Feature","properties":{"name":"Forêt du Cranou"},"geometry":{"type":"Polygon","coordinates":[[[-4.1207,48.3018],[-4.1301,48.2998],[-4.1248,48.2965],[-4.1304,48.2951],[-4.1320,48.2979],[-4.1339,48.2984],[-4.1317,48.2981],[-4.1321,48.2994],[-4.1305,48.2989],[-4.1304,48.2997],[-4.1342,48.3002],[-4.1334,48.3011],[-4.1370,48.3009],[-4.1394,48.3031],[-4.1363,48.3016],[-4.1314,48.3026],[-4.1257,48.3019],[-4.1229,48.3041],[-4.1240,48.3054],[-4.1229,48.3059],[-4.1244,48.3060],[-4.1237,48.3069],[-4.1253,48.3086],[-4.1227,48.3076],[-4.1228,48.3086],[-4.1210,48.3083],[-4.1208,48.3067],[-4.1190,48.3061],[-4.1152,48.3069],[-4.1187,48.3089],[-4.1177,48.3102],[-4.1212,48.3126],[-4.1137,48.3143],[-4.1149,48.3128],[-4.1110,48.3132],[-4.1094,48.3143],[-4.1092,48.3163],[-4.1169,48.3142],[-4.1164,48.3156],[-4.1175,48.3161],[-4.1239,48.3167],[-4.1173,48.3186],[-4.1243,48.3199],[-4.1242,48.3210],[-4.1279,48.3227],[-4.1376,48.3201],[-4.1292,48.3173],[-4.1290,48.3159],[-4.1295,48.3170],[-4.1324,48.3153],[-4.1322,48.3168],[-4.1380,48.3197],[-4.1452,48.3185],[-4.1264,48.3245],[-4.1236,48.3221],[-4.1197,48.3224],[-4.1182,48.3240],[-4.1165,48.3221],[-4.1116,48.3223],[-4.1096,48.3218],[-4.1106,48.3208],[-4.1077,48.3205],[-4.1061,48.3211],[-4.1034,48.3191],[-4.1060,48.3212],[-4.1018,48.3257],[-4.0971,48.3253],[-4.0961,48.3264],[-4.0957,48.3251],[-4.0906,48.3240],[-4.0883,48.3249],[-4.0765,48.3228],[-4.0760,48.3239],[-4.0742,48.3235],[-4.0744,48.3222],[-4.0698,48.3213],[-4.0685,48.3188],[-4.0609,48.3189],[-4.0647,48.3156],[-4.0629,48.3146],[-4.0608,48.3161],[-4.0593,48.3147],[-4.0711,48.3083],[-4.0707,48.3048],[-4.0720,48.3047],[-4.0732,48.3074],[-4.0766,48.3089],[-4.0789,48.3083],[-4.0776,48.3071],[-4.0800,48.3077],[-4.0775,48.3041],[-4.0787,48.3037],[-4.0805,48.3075],[-4.0800,48.3094],[-4.0825,48.3080],[-4.0895,48.3088],[-4.0908,48.3077],[-4.0884,48.3070],[-4.0883,48.3044],[-4.0940,48.3036],[-4.0957,48.3052],[-4.0972,48.3046],[-4.0948,48.3024],[-4.0985,48.3019],[-4.0977,48.3037],[-4.0991,48.3054],[-4.0952,48.3062],[-4.1003,48.3052],[-4.1006,48.3032],[-4.1017,48.3053],[-4.1032,48.3043],[-4.0972,48.3128],[-4.0982,48.3154],[-4.1032,48.3192],[-4.0985,48.3154],[-4.0974,48.3130],[-4.1034,48.3043],[-4.1034,48.3060],[-4.1051,48.3059],[-4.1023,48.3066],[-4.1063,48.3080],[-4.1115,48.3077],[-4.1107,48.3088],[-4.1132,48.3074],[-4.1106,48.3071],[-4.1116,48.3062],[-4.1136,48.3068],[-4.1187,48.3032],[-4.1180,48.3023],[-4.1207,48.3018]]]}},{"type":"Feature","properties":{"name":"Forêt du Nivot"},"geometry":{"type":"Polygon","coordinates":[[[-4.0335,48.3231],[-4.0292,48.3240],[-4.0343,48.3282],[-4.0327,48.3286],[-4.0286,48.3246],[-4.0260,48.3253],[-4.0279,48.3242],[-4.0258,48.3244],[-4.0253,48.3264],[-4.0152,48.3284],[-4.0193,48.3317],[-4.0162,48.3326],[-4.0163,48.3343],[-4.0140,48.3333],[-4.0153,48.3323],[-4.0136,48.3297],[-4.0105,48.3299],[-4.0129,48.3311],[-4.0132,48.3328],[-4.0095,48.3354],[-4.0066,48.3341],[-4.0078,48.3328],[-4.0016,48.3326],[-4.0033,48.3305],[-4.0061,48.3310],[-4.0080,48.3297],[-4.0063,48.3261],[-4.0070,48.3239],[-4.0084,48.3242],[-4.0100,48.3282],[-4.0150,48.3257],[-4.0126,48.3186],[-4.0075,48.3200],[-4.0048,48.3194],[-4.0021,48.3164],[-4.0043,48.3149],[-4.0115,48.3131],[-4.0141,48.3151],[-4.0177,48.3146],[-4.0154,48.3151],[-4.0167,48.3157],[-4.0147,48.3172],[-4.0172,48.3202],[-4.0255,48.3162],[-4.0299,48.3191],[-4.0298,48.3209],[-4.0335,48.3202],[-4.0343,48.3214],[-4.0353,48.3204],[-4.0360,48.3212],[-4.0351,48.3217],[-4.0378,48.3232],[-4.0344,48.3243],[-4.0355,48.3232],[-4.0335,48.3231]]]}},{"type":"Feature","properties":{"name":"Forêt de Carnoët"},"geometry":{"type":"Polygon","coordinates":[[[-3.5378,47.8559],[-3.5340,47.8534],[-3.5326,47.8537],[-3.5304,47.8482],[-3.5290,47.8477],[-3.5298,47.8473],[-3.5277,47.8470],[-3.5290,47.8454],[-3.5279,47.8439],[-3.5316,47.8431],[-3.5364,47.8381],[-3.5399,47.8374],[-3.5415,47.8301],[-3.5408,47.8244],[-3.5420,47.8225],[-3.5432,47.8226],[-3.5427,47.8215],[-3.5401,47.8224],[-3.5348,47.8204],[-3.5377,47.8164],[-3.5359,47.8130],[-3.5244,47.8091],[-3.5269,47.8055],[-3.5292,47.8060],[-3.5333,47.8043],[-3.5276,47.8032],[-3.5272,47.8041],[-3.5206,47.8037],[-3.5234,47.8016],[-3.5215,47.7996],[-3.5220,47.7985],[-3.5272,47.7970],[-3.5290,47.7922],[-3.5296,47.7935],[-3.5285,47.7948],[-3.5314,47.7961],[-3.5283,47.7969],[-3.5316,47.7977],[-3.5290,47.7978],[-3.5290,47.7997],[-3.5250,47.7989],[-3.5241,47.8019],[-3.5311,47.8004],[-3.5293,47.8014],[-3.5293,47.8029],[-3.5326,47.8032],[-3.5315,47.8002],[-3.5329,47.7998],[-3.5317,47.7997],[-3.5333,47.7983],[-3.5332,47.7998],[-3.5363,47.7999],[-3.5364,47.8018],[-3.5376,47.8013],[-3.5369,47.7997],[-3.5400,47.8003],[-3.5394,47.7991],[-3.5403,47.7989],[-3.5408,47.8002],[-3.5436,47.7995],[-3.5414,47.8019],[-3.5448,47.8025],[-3.5461,47.8016],[-3.5455,47.8000],[-3.5477,47.8007],[-3.5465,47.8019],[-3.5533,47.8022],[-3.5460,47.8029],[-3.5473,47.8034],[-3.5453,47.8053],[-3.5445,47.8041],[-3.5431,47.8046],[-3.5477,47.8081],[-3.5451,47.8079],[-3.5452,47.8091],[-3.5430,47.8094],[-3.5429,47.8110],[-3.5394,47.8099],[-3.5423,47.8089],[-3.5422,47.8080],[-3.5394,47.8089],[-3.5363,47.8079],[-3.5382,47.8054],[-3.5332,47.8068],[-3.5323,47.8092],[-3.5348,47.8079],[-3.5367,47.8088],[-3.5447,47.8151],[-3.5551,47.8168],[-3.5574,47.8153],[-3.5594,47.8175],[-3.5610,47.8156],[-3.5613,47.8174],[-3.5630,47.8179],[-3.5602,47.8194],[-3.5628,47.8189],[-3.5641,47.8219],[-3.5680,47.8231],[-3.5701,47.8255],[-3.5692,47.8255],[-3.5690,47.8279],[-3.5658,47.8282],[-3.5686,47.8310],[-3.5654,47.8323],[-3.5667,47.8332],[-3.5649,47.8359],[-3.5664,47.8368],[-3.5634,47.8392],[-3.5649,47.8425],[-3.5452,47.8470],[-3.5465,47.8480],[-3.5417,47.8478],[-3.5399,47.8491],[-3.5409,47.8499],[-3.5397,47.8516],[-3.5365,47.8523],[-3.5384,47.8544],[-3.5404,47.8535],[-3.5405,47.8554],[-3.5463,47.8556],[-3.5472,47.8530],[-3.5460,47.8515],[-3.5472,47.8507],[-3.5486,47.8522],[-3.5483,47.8558],[-3.5457,47.8584],[-3.5413,47.8592],[-3.5406,47.8579],[-3.5426,47.8564],[-3.5378,47.8559]]]}},{"type":"Feature","properties":{"name":"Bois du Roual"},"geometry":{"type":"Polygon","coordinates":[[[-4.2640,48.4144],[-4.2612,48.4167],[-4.2596,48.4161],[-4.2599,48.4185],[-4.2570,48.4156],[-4.2579,48.4149],[-4.2565,48.4150],[-4.2574,48.4147],[-4.2559,48.4148],[-4.2553,48.4163],[-4.2543,48.4154],[-4.2522,48.4163],[-4.2522,48.4175],[-4.2556,48.4191],[-4.2540,48.4200],[-4.2567,48.4198],[-4.2577,48.4218],[-4.2548,48.4229],[-4.2528,48.4226],[-4.2534,48.4213],[-4.2522,48.4217],[-4.2532,48.4237],[-4.2560,48.4245],[-4.2525,48.4254],[-4.2509,48.4227],[-4.2489,48.4231],[-4.2496,48.4219],[-4.2488,48.4230],[-4.2478,48.4217],[-4.2500,48.4214],[-4.2501,48.4197],[-4.2468,48.4210],[-4.2444,48.4190],[-4.2457,48.4188],[-4.2451,48.4180],[-4.2434,48.4190],[-4.2403,48.4171],[-4.2451,48.4179],[-4.2455,48.4158],[-4.2439,48.4162],[-4.2425,48.4147],[-4.2491,48.4168],[-4.2484,48.4155],[-4.2499,48.4159],[-4.2514,48.4145],[-4.2469,48.4152],[-4.2467,48.4118],[-4.2449,48.4108],[-4.2433,48.4118],[-4.2388,48.4112],[-4.2420,48.4095],[-4.2448,48.4100],[-4.2444,48.4085],[-4.2471,48.4097],[-4.2502,48.4091],[-4.2529,48.4105],[-4.2616,48.4053],[-4.2601,48.4037],[-4.2629,48.4018],[-4.2641,48.4023],[-4.2647,48.3994],[-4.2695,48.3984],[-4.2691,48.3995],[-4.2710,48.4016],[-4.2673,48.4013],[-4.2661,48.4019],[-4.2669,48.4026],[-4.2647,48.4030],[-4.2654,48.4037],[-4.2631,48.4037],[-4.2645,48.4059],[-4.2654,48.4038],[-4.2704,48.4042],[-4.2658,48.4077],[-4.2656,48.4094],[-4.2673,48.4100],[-4.2658,48.4100],[-4.2661,48.4113],[-4.2630,48.4130],[-4.2640,48.4141],[-4.2660,48.4126],[-4.2640,48.4144]]]}},{"type":"Feature","properties":{"name":"Forêt de Duault"},"geometry":{"type":"Polygon","coordinates":[[[-3.3685,48.3345],[-3.3697,48.3341],[-3.3710,48.3372],[-3.3755,48.3366],[-3.3721,48.3415],[-3.3731,48.3427],[-3.3767,48.3430],[-3.3772,48.3421],[-3.3813,48.3432],[-3.3813,48.3414],[-3.3819,48.3432],[-3.3844,48.3397],[-3.3885,48.3402],[-3.3918,48.3426],[-3.3923,48.3419],[-3.3927,48.3431],[-3.3946,48.3403],[-3.3956,48.3408],[-3.3947,48.3441],[-3.3988,48.3460],[-3.3976,48.3470],[-3.3960,48.3463],[-3.3971,48.3519],[-3.3951,48.3529],[-3.3961,48.3554],[-3.3938,48.3585],[-3.3960,48.3585],[-3.3959,48.3597],[-3.3983,48.3604],[-3.3992,48.3617],[-3.3983,48.3639],[-3.4006,48.3660],[-3.3984,48.3658],[-3.3990,48.3673],[-3.3937,48.3695],[-3.3937,48.3717],[-3.3923,48.3725],[-3.3954,48.3746],[-3.3909,48.3743],[-3.3869,48.3777],[-3.3870,48.3798],[-3.3919,48.3812],[-3.3894,48.3852],[-3.3876,48.3843],[-3.3888,48.3841],[-3.3877,48.3827],[-3.3852,48.3848],[-3.3856,48.3858],[-3.3801,48.3856],[-3.3743,48.3873],[-3.3739,48.3862],[-3.3708,48.3861],[-3.3663,48.3822],[-3.3662,48.3809],[-3.3702,48.3771],[-3.3683,48.3711],[-3.3723,48.3711],[-3.3744,48.3698],[-3.3742,48.3713],[-3.3777,48.3720],[-3.3771,48.3730],[-3.3746,48.3725],[-3.3748,48.3737],[-3.3779,48.3731],[-3.3770,48.3728],[-3.3793,48.3716],[-3.3795,48.3702],[-3.3782,48.3689],[-3.3756,48.3687],[-3.3800,48.3662],[-3.3779,48.3650],[-3.3763,48.3665],[-3.3762,48.3655],[-3.3776,48.3638],[-3.3801,48.3647],[-3.3840,48.3622],[-3.3836,48.3602],[-3.3809,48.3593],[-3.3818,48.3574],[-3.3791,48.3573],[-3.3809,48.3536],[-3.3780,48.3494],[-3.3794,48.3486],[-3.3771,48.3469],[-3.3780,48.3458],[-3.3758,48.3461],[-3.3750,48.3488],[-3.3700,48.3494],[-3.3662,48.3521],[-3.3634,48.3470],[-3.3649,48.3467],[-3.3625,48.3464],[-3.3627,48.3435],[-3.3657,48.3461],[-3.3680,48.3454],[-3.3682,48.3427],[-3.3696,48.3423],[-3.3660,48.3417],[-3.3687,48.3407],[-3.3682,48.3398],[-3.3648,48.3399],[-3.3658,48.3387],[-3.3645,48.3376],[-3.3671,48.3378],[-3.3668,48.3364],[-3.3691,48.3357],[-3.3685,48.3345]]]}},{"type":"Feature","properties":{"name":"Forêt de Pontcallec"},"geometry":{"type":"Polygon","coordinates":[[[-3.3405,47.9745],[-3.3434,47.9669],[-3.3497,47.9628],[-3.3497,47.9546],[-3.3522,47.9523],[-3.3523,47.9488],[-3.3557,47.9453],[-3.3602,47.9435],[-3.3663,47.9469],[-3.3684,47.9499],[-3.3732,47.9523],[-3.3757,47.9521],[-3.3734,47.9528],[-3.3740,47.9559],[-3.3722,47.9580],[-3.3738,47.9589],[-3.3719,47.9582],[-3.3715,47.9593],[-3.3727,47.9644],[-3.3741,47.9657],[-3.3724,47.9655],[-3.3723,47.9637],[-3.3709,47.9633],[-3.3691,47.9685],[-3.3674,47.9679],[-3.3690,47.9673],[-3.3679,47.9662],[-3.3695,47.9653],[-3.3638,47.9655],[-3.3623,47.9668],[-3.3622,47.9653],[-3.3671,47.9637],[-3.3574,47.9650],[-3.3547,47.9672],[-3.3572,47.9723],[-3.3550,47.9713],[-3.3517,47.9724],[-3.3542,47.9771],[-3.3533,47.9769],[-3.3532,47.9786],[-3.3492,47.9777],[-3.3524,47.9770],[-3.3521,47.9759],[-3.3503,47.9761],[-3.3500,47.9745],[-3.3489,47.9749],[-3.3486,47.9729],[-3.3463,47.9821],[-3.3443,47.9782],[-3.3453,47.9818],[-3.3427,47.9800],[-3.3403,47.9821],[-3.3400,47.9800],[-3.3366,47.9800],[-3.3375,47.9768],[-3.3405,47.9745]]]}},{"type":"Feature","properties":{"name":"Forêt Domaniale de Coatloc\u0027h"},"geometry":{"type":"Polygon","coordinates":[[[-3.7255,47.9974],[-3.7232,47.9941],[-3.7241,47.9908],[-3.7317,47.9915],[-3.7386,47.9887],[-3.7439,47.9891],[-3.7502,47.9870],[-3.7507,47.9861],[-3.7491,47.9845],[-3.7502,47.9844],[-3.7487,47.9844],[-3.7471,47.9808],[-3.7505,47.9795],[-3.7481,47.9759],[-3.7501,47.9728],[-3.7511,47.9733],[-3.7504,47.9760],[-3.7549,47.9798],[-3.7499,47.9835],[-3.7507,47.9847],[-3.7523,47.9844],[-3.7500,47.9853],[-3.7525,47.9855],[-3.7540,47.9870],[-3.7563,47.9867],[-3.7550,47.9889],[-3.7516,47.9905],[-3.7531,47.9953],[-3.7552,47.9966],[-3.7559,47.9991],[-3.7485,48.0022],[-3.7310,48.0041],[-3.7284,48.0036],[-3.7238,48.0002],[-3.7255,47.9974]]]}}]}