{"type":"FeatureCollection","features":[{"type":"Feature","properties":{"name":"Forêt de Fabas"},"geometry":{"type":"Polygon","coordinates":[[[0.8393,43.3001],[0.8381,43.3018],[0.8432,43.3052],[0.8441,43.3074],[0.8504,43.3074],[0.8525,43.3086],[0.8516,43.3095],[0.8531,43.3095],[0.8525,43.3113],[0.8555,43.3107],[0.8555,43.3129],[0.8598,43.3120],[0.8673,43.3138],[0.8765,43.3117],[0.8738,43.3076],[0.8746,43.3070],[0.8736,43.3075],[0.8749,43.3095],[0.8700,43.3057],[0.8658,43.3052],[0.8671,43.3043],[0.8646,43.3021],[0.8623,43.3025],[0.8629,43.3010],[0.8548,43.2975],[0.8525,43.2946],[0.8468,43.2952],[0.8393,43.3001]]]}},{"type":"Feature","properties":{"name":"Forêt de Pénicas"},"geometry":{"type":"Polygon","coordinates":[[[1.9983,42.7779],[2.0015,42.7713],[1.9990,42.7708],[1.9999,42.7677],[2.0025,42.7678],[2.0019,42.7689],[2.0034,42.7700],[2.0053,42.7672],[2.0093,42.7680],[2.0180,42.7667],[2.0169,42.7662],[2.0174,42.7646],[2.0114,42.7642],[2.0118,42.7634],[2.0104,42.7630],[2.0090,42.7647],[2.0078,42.7634],[2.0077,42.7619],[2.0091,42.7624],[2.0109,42.7605],[2.0098,42.7582],[2.0109,42.7561],[2.0092,42.7548],[2.0102,42.7541],[2.0087,42.7519],[2.0095,42.7502],[2.0084,42.7513],[2.0032,42.7494],[2.0018,42.7516],[2.0029,42.7520],[1.9946,42.7531],[1.9941,42.7556],[1.9900,42.7564],[1.9902,42.7583],[1.9829,42.7626],[1.9825,42.7648],[1.9786,42.7697],[1.9813,42.7711],[1.9811,42.7721],[1.9734,42.7737],[1.9769,42.7749],[1.9856,42.7744],[1.9876,42.7753],[1.9866,42.7776],[1.9931,42.7798],[1.9983,42.7779]]]}},{"type":"Feature","properties":{"name":"Bois du Cirier"},"geometry":{"type":"Polygon","coordinates":[[[1.4748,42.8384],[1.4731,42.8357],[1.4737,42.8344],[1.4771,42.8327],[1.4814,42.8329],[1.4824,42.8306],[1.4813,42.8284],[1.4744,42.8271],[1.4732,42.8257],[1.4690,42.8267],[1.4672,42.8251],[1.4671,42.8271],[1.4664,42.8260],[1.4652,42.8265],[1.4627,42.8299],[1.4633,42.8334],[1.4596,42.8314],[1.4574,42.8319],[1.4566,42.8298],[1.4524,42.8301],[1.4565,42.8382],[1.4748,42.8384]]]}},{"type":"Feature","properties":{"name":"Forêt de Gailles"},"geometry":{"type":"Polygon","coordinates":[[[2.0522,42.7907],[2.0556,42.7876],[2.0605,42.7893],[2.0613,42.7925],[2.0636,42.7916],[2.0621,42.7846],[2.0641,42.7824],[2.0605,42.7820],[2.0588,42.7802],[2.0651,42.7754],[2.0606,42.7711],[2.0541,42.7717],[2.0520,42.7733],[2.0502,42.7723],[2.0382,42.7732],[2.0387,42.7770],[2.0481,42.7828],[2.0382,42.7853],[2.0336,42.7939],[2.0391,42.7944],[2.0478,42.7892],[2.0498,42.7902],[2.0485,42.7923],[2.0517,42.7918],[2.0522,42.7907]]]}},{"type":"Feature","properties":{"name":"Forêt domaniale de Comefroide-Picaussel"},"geometry":{"type":"Polygon","coordinates":[[[2.0194,42.8744],[2.0142,42.8760],[2.0131,42.8754],[2.0130,42.8725],[2.0107,42.8728],[2.0094,42.8697],[1.9944,42.8729],[1.9870,42.8712],[1.9818,42.8774],[1.9892,42.8760],[1.9917,42.8783],[1.9986,42.8792],[2.0069,42.8821],[2.0127,42.8820],[2.0210,42.8776],[2.0253,42.8772],[2.0268,42.8732],[2.0329,42.8716],[2.0340,42.8694],[2.0397,42.8658],[2.0423,42.8667],[2.0492,42.8659],[2.0614,42.8610],[2.0658,42.8623],[2.0674,42.8583],[2.0587,42.8553],[2.0533,42.8567],[2.0490,42.8567],[2.0470,42.8554],[2.0462,42.8563],[2.0386,42.8562],[2.0304,42.8588],[2.0267,42.8584],[2.0235,42.8642],[2.0242,42.8668],[2.0219,42.8717],[2.0224,42.8726],[2.0198,42.8731],[2.0194,42.8744]]]}},{"type":"Feature","properties":{"name":"Bois du Roc de Marty"},"geometry":{"type":"Polygon","coordinates":[[[1.5708,42.8176],[1.5614,42.8158],[1.5571,42.8167],[1.5579,42.8151],[1.5562,42.8145],[1.5538,42.8174],[1.5490,42.8186],[1.5485,42.8203],[1.5449,42.8214],[1.5391,42.8174],[1.5367,42.8180],[1.5343,42.8158],[1.5283,42.8147],[1.5282,42.8192],[1.5244,42.8166],[1.5241,42.8194],[1.5230,42.8197],[1.5199,42.8163],[1.5184,42.8185],[1.5169,42.8180],[1.5159,42.8188],[1.5168,42.8195],[1.5144,42.8205],[1.5152,42.8223],[1.5136,42.8205],[1.5118,42.8212],[1.5116,42.8227],[1.5131,42.8234],[1.5118,42.8245],[1.5132,42.8298],[1.5112,42.8290],[1.5127,42.8271],[1.5101,42.8280],[1.5122,42.8270],[1.5112,42.8260],[1.5099,42.8269],[1.5110,42.8258],[1.5103,42.8250],[1.5082,42.8268],[1.5058,42.8258],[1.5050,42.8264],[1.5061,42.8277],[1.5043,42.8292],[1.5033,42.8284],[1.5052,42.8272],[1.5036,42.8255],[1.5020,42.8258],[1.5035,42.8274],[1.4933,42.8308],[1.4944,42.8332],[1.4954,42.8331],[1.4958,42.8360],[1.4982,42.8365],[1.5015,42.8399],[1.5054,42.8377],[1.5150,42.8414],[1.5129,42.8427],[1.5070,42.8423],[1.4895,42.8454],[1.4879,42.8449],[1.4871,42.8419],[1.4795,42.8392],[1.4565,42.8382],[1.4546,42.8338],[1.4520,42.8337],[1.4477,42.8386],[1.4467,42.8432],[1.4500,42.8447],[1.4492,42.8465],[1.4501,42.8481],[1.4508,42.8467],[1.4522,42.8477],[1.4540,42.8455],[1.4565,42.8451],[1.4550,42.8437],[1.4577,42.8428],[1.4596,42.8439],[1.4601,42.8395],[1.4618,42.8387],[1.4612,42.8428],[1.4642,42.8422],[1.4663,42.8434],[1.4662,42.8424],[1.4677,42.8420],[1.4697,42.8433],[1.4711,42.8424],[1.4685,42.8445],[1.4702,42.8471],[1.4708,42.8451],[1.4739,42.8441],[1.4719,42.8424],[1.4750,42.8423],[1.4774,42.8435],[1.4773,42.8468],[1.4789,42.8459],[1.4888,42.8471],[1.4832,42.8523],[1.4738,42.8542],[1.4743,42.8567],[1.4769,42.8563],[1.4790,42.8590],[1.4866,42.8561],[1.4872,42.8552],[1.4859,42.8544],[1.4879,42.8528],[1.4898,42.8541],[1.4951,42.8498],[1.4979,42.8502],[1.4976,42.8483],[1.5029,42.8483],[1.4994,42.8509],[1.5016,42.8517],[1.5035,42.8498],[1.5082,42.8481],[1.5118,42.8496],[1.5123,42.8518],[1.5183,42.8543],[1.5144,42.8579],[1.5181,42.8602],[1.5213,42.8585],[1.5202,42.8606],[1.5218,42.8619],[1.5233,42.8604],[1.5257,42.8611],[1.5307,42.8571],[1.5352,42.8596],[1.5243,42.8636],[1.5206,42.8635],[1.5191,42.8611],[1.5147,42.8614],[1.5141,42.8602],[1.5130,42.8613],[1.5104,42.8594],[1.5097,42.8616],[1.5071,42.8608],[1.5073,42.8628],[1.5028,42.8646],[1.5049,42.8660],[1.5039,42.8679],[1.4967,42.8695],[1.4950,42.8680],[1.4950,42.8703],[1.4936,42.8713],[1.4955,42.8732],[1.4952,42.8744],[1.4888,42.8754],[1.4886,42.8767],[1.4965,42.8814],[1.4981,42.8831],[1.4972,42.8839],[1.4986,42.8863],[1.5031,42.8870],[1.5096,42.8847],[1.5108,42.8859],[1.5083,42.8871],[1.5077,42.8891],[1.5046,42.8895],[1.5050,42.8917],[1.5038,42.8922],[1.5013,42.8915],[1.5009,42.8893],[1.4979,42.8897],[1.4977,42.8877],[1.4962,42.8867],[1.4941,42.8884],[1.4959,42.8902],[1.4922,42.8888],[1.4919,42.8900],[1.4885,42.8901],[1.4901,42.8930],[1.4838,42.8944],[1.4822,42.8964],[1.4804,42.8961],[1.4806,42.8940],[1.4760,42.8952],[1.4750,42.8960],[1.4777,42.9002],[1.4798,42.8992],[1.4798,42.8976],[1.4820,42.8986],[1.4864,42.8963],[1.4862,42.8954],[1.4888,42.8957],[1.4900,42.8943],[1.4906,42.8953],[1.4948,42.8938],[1.4950,42.8949],[1.5011,42.8965],[1.5013,42.8945],[1.5041,42.8937],[1.5076,42.8949],[1.5129,42.8943],[1.5119,42.8926],[1.5059,42.8928],[1.5085,42.8907],[1.5110,42.8905],[1.5126,42.8908],[1.5158,42.8947],[1.5199,42.8908],[1.5216,42.8909],[1.5171,42.8959],[1.5203,42.8977],[1.5219,42.8963],[1.5227,42.8974],[1.5248,42.8957],[1.5232,42.8947],[1.5239,42.8922],[1.5259,42.8921],[1.5256,42.8953],[1.5272,42.8961],[1.5308,42.8932],[1.5323,42.8933],[1.5343,42.8899],[1.5359,42.8926],[1.5336,42.8973],[1.5372,42.8977],[1.5384,42.9000],[1.5397,42.9000],[1.5398,42.8980],[1.5410,42.8972],[1.5392,42.8929],[1.5407,42.8911],[1.5417,42.8917],[1.5409,42.8956],[1.5471,42.8966],[1.5456,42.8942],[1.5474,42.8934],[1.5482,42.8914],[1.5448,42.8906],[1.5436,42.8889],[1.5441,42.8866],[1.5461,42.8861],[1.5461,42.8885],[1.5500,42.8896],[1.5533,42.8890],[1.5589,42.8844],[1.5580,42.8801],[1.5525,42.8805],[1.5545,42.8825],[1.5530,42.8858],[1.5494,42.8835],[1.5497,42.8855],[1.5484,42.8857],[1.5474,42.8832],[1.5453,42.8819],[1.5383,42.8852],[1.5384,42.8865],[1.5422,42.8868],[1.5418,42.8905],[1.5386,42.8891],[1.5375,42.8869],[1.5360,42.8888],[1.5351,42.8877],[1.5356,42.8853],[1.5425,42.8826],[1.5431,42.8807],[1.5415,42.8797],[1.5261,42.8794],[1.5148,42.8822],[1.5197,42.8854],[1.5223,42.8849],[1.5231,42.8865],[1.5273,42.8868],[1.5250,42.8893],[1.5298,42.8884],[1.5274,42.8912],[1.5237,42.8905],[1.5242,42.8875],[1.5188,42.8884],[1.5190,42.8873],[1.5152,42.8859],[1.5104,42.8886],[1.5100,42.8877],[1.5144,42.8848],[1.5137,42.8832],[1.5120,42.8837],[1.5097,42.8832],[1.5106,42.8821],[1.5096,42.8817],[1.5060,42.8818],[1.5023,42.8834],[1.4999,42.8822],[1.4990,42.8835],[1.4980,42.8805],[1.4992,42.8797],[1.5009,42.8806],[1.5042,42.8784],[1.5077,42.8791],[1.5069,42.8797],[1.5090,42.8805],[1.5100,42.8793],[1.5157,42.8795],[1.5161,42.8787],[1.5132,42.8771],[1.5160,42.8766],[1.5174,42.8777],[1.5159,42.8740],[1.5207,42.8734],[1.5173,42.8724],[1.5168,42.8711],[1.5157,42.8725],[1.5125,42.8721],[1.5121,42.8710],[1.5136,42.8702],[1.5127,42.8675],[1.5146,42.8704],[1.5204,42.8691],[1.5217,42.8715],[1.5269,42.8733],[1.5267,42.8749],[1.5298,42.8768],[1.5312,42.8764],[1.5279,42.8729],[1.5295,42.8710],[1.5306,42.8720],[1.5330,42.8719],[1.5341,42.8705],[1.5381,42.8715],[1.5383,42.8700],[1.5399,42.8707],[1.5404,42.8728],[1.5414,42.8694],[1.5490,42.8678],[1.5552,42.8675],[1.5546,42.8690],[1.5569,42.8674],[1.5629,42.8685],[1.5640,42.8697],[1.5636,42.8716],[1.5655,42.8706],[1.5662,42.8678],[1.5685,42.8657],[1.5668,42.8657],[1.5671,42.8636],[1.5630,42.8640],[1.5655,42.8646],[1.5641,42.8669],[1.5626,42.8639],[1.5637,42.8619],[1.5617,42.8609],[1.5581,42.8604],[1.5525,42.8574],[1.5520,42.8585],[1.5554,42.8602],[1.5524,42.8628],[1.5527,42.8602],[1.5438,42.8602],[1.5431,42.8588],[1.5451,42.8579],[1.5466,42.8548],[1.5493,42.8556],[1.5483,42.8572],[1.5507,42.8561],[1.5506,42.8542],[1.5534,42.8534],[1.5538,42.8549],[1.5571,42.8555],[1.5587,42.8545],[1.5614,42.8560],[1.5614,42.8579],[1.5625,42.8573],[1.5668,42.8589],[1.5697,42.8564],[1.5652,42.8571],[1.5644,42.8548],[1.5561,42.8529],[1.5690,42.8512],[1.5707,42.8496],[1.5711,42.8511],[1.5787,42.8528],[1.5796,42.8503],[1.5819,42.8503],[1.5830,42.8490],[1.5834,42.8516],[1.5809,42.8528],[1.5826,42.8542],[1.5847,42.8519],[1.5888,42.8522],[1.5877,42.8513],[1.5891,42.8506],[1.5873,42.8504],[1.5901,42.8502],[1.5910,42.8484],[1.5877,42.8489],[1.5827,42.8464],[1.5837,42.8455],[1.5894,42.8467],[1.5911,42.8455],[1.5882,42.8458],[1.5858,42.8441],[1.5877,42.8441],[1.5847,42.8410],[1.5743,42.8396],[1.5663,42.8404],[1.5641,42.8391],[1.5665,42.8377],[1.5553,42.8387],[1.5579,42.8375],[1.5567,42.8353],[1.5593,42.8327],[1.5588,42.8320],[1.5619,42.8318],[1.5615,42.8335],[1.5650,42.8352],[1.5684,42.8331],[1.5647,42.8328],[1.5627,42.8260],[1.5650,42.8235],[1.5681,42.8229],[1.5693,42.8214],[1.5678,42.8213],[1.5676,42.8201],[1.5706,42.8197],[1.5708,42.8176]]]}},{"type":"Feature","properties":{"name":"Forêt d\u0027Eaunes"},"geometry":{"type":"Polygon","coordinates":[[[1.3400,43.4078],[1.3454,43.4080],[1.3461,43.4102],[1.3475,43.4087],[1.3480,43.4102],[1.3493,43.4090],[1.3539,43.4104],[1.3500,43.4120],[1.3513,43.4128],[1.3507,43.4166],[1.3476,43.4168],[1.3496,43.4182],[1.3475,43.4201],[1.3442,43.4195],[1.3370,43.4147],[1.3342,43.4111],[1.3353,43.4091],[1.3332,43.4087],[1.3338,43.4075],[1.3312,43.4055],[1.3315,43.4042],[1.3347,43.4029],[1.3445,43.4028],[1.3499,43.4033],[1.3496,43.4047],[1.3518,43.4055],[1.3520,43.4040],[1.3554,43.4036],[1.3564,43.4054],[1.3534,43.4059],[1.3551,43.4066],[1.3492,43.4048],[1.3487,43.4067],[1.3566,43.4098],[1.3472,43.4070],[1.3419,43.4074],[1.3424,43.4059],[1.3346,43.4056],[1.3384,43.4081],[1.3400,43.4078]]]}},{"type":"Feature","properties":{"name":"Forêt de Buzet"},"geometry":{"type":"Polygon","coordinates":[[[1.5699,43.7837],[1.5675,43.7806],[1.5653,43.7737],[1.5663,43.7711],[1.5638,43.7663],[1.5704,43.7551],[1.5708,43.7525],[1.5733,43.7510],[1.5852,43.7506],[1.5860,43.7485],[1.5820,43.7488],[1.5834,43.7463],[1.5774,43.7469],[1.5839,43.7420],[1.5851,43.7430],[1.5839,43.7437],[1.5849,43.7466],[1.5870,43.7477],[1.5918,43.7440],[1.5972,43.7454],[1.5914,43.7514],[1.5992,43.7553],[1.5972,43.7567],[1.5973,43.7583],[1.5988,43.7557],[1.5979,43.7579],[1.5995,43.7569],[1.5965,43.7630],[1.5974,43.7637],[1.5908,43.7677],[1.5917,43.7685],[1.5858,43.7751],[1.5852,43.7776],[1.5820,43.7801],[1.5808,43.7840],[1.5776,43.7865],[1.5845,43.7857],[1.5848,43.7865],[1.5740,43.7880],[1.5727,43.7871],[1.5738,43.7867],[1.5699,43.7837]]]}},{"type":"Feature","properties":{"name":"Foret de Campuzan"},"geometry":{"type":"Polygon","coordinates":[[[0.4294,43.2986],[0.4333,43.2985],[0.4374,43.3017],[0.4536,43.2994],[0.4524,43.2928],[0.4508,43.2911],[0.4471,43.2887],[0.4452,43.2891],[0.4421,43.2856],[0.4429,43.2847],[0.4411,43.2850],[0.4394,43.2834],[0.4402,43.2829],[0.4274,43.2799],[0.4267,43.2772],[0.4242,43.2785],[0.4298,43.2885],[0.4313,43.2947],[0.4191,43.2974],[0.4189,43.2987],[0.4294,43.2986]]]}},{"type":"Feature","properties":{"name":"Forêt du Burgaud"},"geometry":{"type":"Polygon","coordinates":[[[1.1154,43.7969],[1.1153,43.7981],[1.1289,43.7974],[1.1248,43.7920],[1.1255,43.7891],[1.1328,43.7902],[1.1289,43.7910],[1.1367,43.7917],[1.1355,43.7913],[1.1350,43.7870],[1.1270,43.7870],[1.1276,43.7839],[1.1168,43.7837],[1.1128,43.7813],[1.1035,43.7836],[1.1040,43.7854],[1.1029,43.7855],[1.1062,43.7872],[1.1044,43.7876],[1.1043,43.7887],[1.1083,43.7873],[1.1118,43.7884],[1.1115,43.7892],[1.1135,43.7887],[1.1123,43.7903],[1.1159,43.7911],[1.1170,43.7942],[1.1154,43.7969]]]}},{"type":"Feature","properties":{"name":"Forêt domaniale d\u0027Agre"},"geometry":{"type":"Polygon","coordinates":[[[1.2573,43.9270],[1.2588,43.9236],[1.2583,43.9207],[1.2583,43.9225],[1.2557,43.9227],[1.2562,43.9208],[1.2582,43.9206],[1.2581,43.9147],[1.2566,43.9145],[1.2576,43.9154],[1.2556,43.9172],[1.2563,43.9190],[1.2522,43.9198],[1.2531,43.9209],[1.2492,43.9211],[1.2493,43.9236],[1.2514,43.9241],[1.2505,43.9276],[1.2436,43.9302],[1.2421,43.9321],[1.2424,43.9349],[1.2392,43.9377],[1.2437,43.9376],[1.2511,43.9279],[1.2566,43.9275],[1.2550,43.9348],[1.2658,43.9388],[1.2648,43.9415],[1.2537,43.9392],[1.2541,43.9456],[1.2564,43.9491],[1.2537,43.9552],[1.2586,43.9563],[1.2580,43.9592],[1.2596,43.9619],[1.2567,43.9680],[1.2514,43.9704],[1.2500,43.9698],[1.2533,43.9741],[1.2497,43.9761],[1.2510,43.9768],[1.2499,43.9774],[1.2519,43.9801],[1.2535,43.9786],[1.2557,43.9795],[1.2543,43.9804],[1.2635,43.9743],[1.2800,43.9602],[1.2801,43.9590],[1.2841,43.9572],[1.2809,43.9555],[1.2822,43.9546],[1.2844,43.9568],[1.2885,43.9528],[1.2760,43.9411],[1.2886,43.9527],[1.2986,43.9371],[1.2976,43.9364],[1.2980,43.9346],[1.2957,43.9329],[1.2982,43.9317],[1.2976,43.9303],[1.2943,43.9311],[1.2910,43.9296],[1.2923,43.9287],[1.2913,43.9277],[1.2881,43.9287],[1.2832,43.9255],[1.2812,43.9285],[1.2833,43.9301],[1.2827,43.9318],[1.2785,43.9308],[1.2776,43.9323],[1.2733,43.9316],[1.2736,43.9285],[1.2705,43.9276],[1.2716,43.9251],[1.2711,43.9215],[1.2686,43.9218],[1.2691,43.9253],[1.2673,43.9273],[1.2654,43.9278],[1.2622,43.9261],[1.2602,43.9275],[1.2573,43.9270]]]}},{"type":"Feature","properties":{"name":"Forêt domaniale de Callong-Mirailles"},"geometry":{"type":"Polygon","coordinates":[[[2.0676,42.8755],[2.0681,42.8765],[2.0652,42.8776],[2.0652,42.8791],[2.0747,42.8813],[2.0811,42.8811],[2.0805,42.8792],[2.0838,42.8764],[2.1067,42.8658],[2.1112,42.8618],[2.1063,42.8626],[2.1027,42.8613],[2.0811,42.8684],[2.0717,42.8701],[2.0679,42.8726],[2.0676,42.8755]]]}},{"type":"Feature","properties":{"name":"Forêt Royale de l\u0027Agre"},"geometry":{"type":"Polygon","coordinates":[[[2.0595,42.8901],[2.0650,42.8955],[2.0704,42.8933],[2.0776,42.8956],[2.0815,42.8938],[2.0840,42.8940],[2.0860,42.8911],[2.0826,42.8901],[2.0825,42.8875],[2.0842,42.8868],[2.0798,42.8823],[2.0798,42.8801],[2.0823,42.8769],[2.0901,42.8756],[2.0992,42.8796],[2.1063,42.8776],[2.1093,42.8751],[2.1063,42.8729],[2.1081,42.8739],[2.1085,42.8716],[2.1048,42.8716],[2.1021,42.8733],[2.1027,42.8743],[2.1012,42.8740],[2.1021,42.8729],[2.1008,42.8723],[2.1009,42.8705],[2.0941,42.8711],[2.1042,42.8668],[2.1027,42.8681],[2.1031,42.8695],[2.1059,42.8691],[2.1049,42.8669],[2.1113,42.8639],[2.1042,42.8622],[2.1013,42.8602],[2.0887,42.8635],[2.0811,42.8684],[2.0772,42.8687],[2.0741,42.8708],[2.0775,42.8721],[2.0757,42.8747],[2.0768,42.8755],[2.0795,42.8741],[2.0811,42.8763],[2.0730,42.8813],[2.0707,42.8786],[2.0734,42.8756],[2.0710,42.8756],[2.0676,42.8758],[2.0590,42.8820],[2.0557,42.8814],[2.0544,42.8825],[2.0558,42.8844],[2.0612,42.8861],[2.0595,42.8901]]]}},{"type":"Feature","properties":{"name":"Bois d\u0027Auch"},"geometry":{"type":"Polygon","coordinates":[[[0.5274,43.6510],[0.5272,43.6499],[0.5289,43.6500],[0.5275,43.6493],[0.5262,43.6514],[0.5226,43.6529],[0.5220,43.6516],[0.5272,43.6492],[0.5261,43.6478],[0.5202,43.6489],[0.5187,43.6477],[0.5197,43.6491],[0.5176,43.6508],[0.5131,43.6495],[0.5116,43.6481],[0.5119,43.6467],[0.5064,43.6491],[0.5079,43.6536],[0.5031,43.6566],[0.5043,43.6570],[0.5034,43.6579],[0.5058,43.6586],[0.5031,43.6582],[0.5070,43.6597],[0.5069,43.6608],[0.5095,43.6596],[0.5109,43.6635],[0.5122,43.6638],[0.5107,43.6647],[0.5127,43.6652],[0.5095,43.6653],[0.5083,43.6672],[0.5112,43.6677],[0.5082,43.6674],[0.5073,43.6688],[0.5097,43.6690],[0.5073,43.6693],[0.5114,43.6696],[0.5101,43.6694],[0.5123,43.6666],[0.5149,43.6660],[0.5151,43.6634],[0.5165,43.6668],[0.5178,43.6663],[0.5158,43.6629],[0.5170,43.6602],[0.5187,43.6599],[0.5183,43.6613],[0.5200,43.6621],[0.5224,43.6604],[0.5250,43.6611],[0.5267,43.6551],[0.5292,43.6540],[0.5274,43.6510]]]}},{"type":"Feature","properties":{"name":"Dreulhe"},"geometry":{"type":"Polygon","coordinates":[[[2.0888,43.6059],[2.0870,43.6070],[2.0845,43.6060],[2.0860,43.6053],[2.0818,43.6029],[2.0802,43.5995],[2.0724,43.5971],[2.0751,43.5942],[2.0747,43.5967],[2.0760,43.5968],[2.0764,43.5954],[2.0825,43.5949],[2.0799,43.5951],[2.0797,43.5922],[2.0779,43.5926],[2.0779,43.5915],[2.0797,43.5917],[2.0786,43.5903],[2.0803,43.5891],[2.0776,43.5895],[2.0777,43.5876],[2.0736,43.5888],[2.0729,43.5877],[2.0696,43.5874],[2.0686,43.5882],[2.0706,43.5894],[2.0674,43.5911],[2.0680,43.5924],[2.0709,43.5920],[2.0719,43.5907],[2.0769,43.5906],[2.0689,43.5950],[2.0680,43.5968],[2.0692,43.5972],[2.0680,43.5982],[2.0717,43.6000],[2.0753,43.5990],[2.0788,43.5998],[2.0812,43.6016],[2.0805,43.6033],[2.0821,43.6057],[2.0779,43.6075],[2.0827,43.6065],[2.0833,43.6096],[2.0818,43.6102],[2.0842,43.6113],[2.0847,43.6140],[2.0838,43.6159],[2.0789,43.6168],[2.0764,43.6144],[2.0713,43.6148],[2.0707,43.6135],[2.0676,43.6145],[2.0672,43.6103],[2.0655,43.6084],[2.0669,43.6078],[2.0667,43.6053],[2.0643,43.6056],[2.0659,43.6119],[2.0628,43.6128],[2.0627,43.6141],[2.0653,43.6152],[2.0656,43.6170],[2.0692,43.6183],[2.0694,43.6198],[2.0684,43.6200],[2.0700,43.6232],[2.0686,43.6239],[2.0702,43.6248],[2.0779,43.6198],[2.0925,43.6180],[2.0849,43.6173],[2.0752,43.6199],[2.0846,43.6169],[2.0865,43.6145],[2.0933,43.6154],[2.0929,43.6169],[2.0965,43.6154],[2.0892,43.6145],[2.0880,43.6121],[2.0852,43.6116],[2.0868,43.6082],[2.0899,43.6106],[2.0939,43.6105],[2.0973,43.6085],[2.0959,43.6040],[2.0869,43.6036],[2.0875,43.6051],[2.0895,43.6049],[2.0888,43.6059]]]}}]}