{"type":"FeatureCollection","features":[{"type":"Feature","properties":{"name":"Forêt de Fabas"},"geometry":{"type":"Polygon","coordinates":[[[0.8393,43.3001],[0.8381,43.3018],[0.8432,43.3052],[0.8441,43.3074],[0.8504,43.3074],[0.8525,43.3086],[0.8516,43.3095],[0.8531,43.3095],[0.8525,43.3113],[0.8555,43.3107],[0.8555,43.3129],[0.8598,43.3120],[0.8673,43.3138],[0.8765,43.3117],[0.8738,43.3076],[0.8746,43.3070],[0.8736,43.3075],[0.8749,43.3095],[0.8700,43.3057],[0.8658,43.3052],[0.8671,43.3043],[0.8646,43.3021],[0.8623,43.3025],[0.8629,43.3010],[0.8548,43.2975],[0.8525,43.2946],[0.8468,43.2952],[0.8393,43.3001]]]}},{"type":"Feature","properties":{"name":"Foret de Campuzan"},"geometry":{"type":"Polygon","coordinates":[[[0.4294,43.2986],[0.4333,43.2985],[0.4374,43.3017],[0.4536,43.2994],[0.4524,43.2928],[0.4508,43.2911],[0.4471,43.2887],[0.4452,43.2891],[0.4421,43.2856],[0.4429,43.2847],[0.4411,43.2850],[0.4394,43.2834],[0.4402,43.2829],[0.4274,43.2799],[0.4267,43.2772],[0.4242,43.2785],[0.4298,43.2885],[0.4313,43.2947],[0.4191,43.2974],[0.4189,43.2987],[0.4294,43.2986]]]}},{"type":"Feature","properties":{"name":"Bois de Marmajou"},"geometry":{"type":"Polygon","coordinates":[[[0.0607,43.4419],[0.0586,43.4406],[0.0553,43.4444],[0.0595,43.4453],[0.0630,43.4430],[0.0616,43.4422],[0.0639,43.4407],[0.0692,43.4395],[0.0705,43.4363],[0.0735,43.4369],[0.0716,43.4364],[0.0729,43.4358],[0.0720,43.4355],[0.0724,43.4339],[0.0706,43.4338],[0.0709,43.4325],[0.0697,43.4324],[0.0698,43.4338],[0.0672,43.4366],[0.0652,43.4364],[0.0661,43.4373],[0.0645,43.4367],[0.0666,43.4333],[0.0629,43.4356],[0.0616,43.4348],[0.0624,43.4302],[0.0668,43.4308],[0.0679,43.4231],[0.0711,43.4229],[0.0729,43.4212],[0.0720,43.4197],[0.0727,43.4184],[0.0691,43.4183],[0.0684,43.4167],[0.0671,43.4204],[0.0695,43.4199],[0.0706,43.4215],[0.0661,43.4212],[0.0705,43.4224],[0.0645,43.4220],[0.0645,43.4208],[0.0664,43.4203],[0.0641,43.4202],[0.0658,43.4187],[0.0629,43.4155],[0.0612,43.4177],[0.0593,43.4170],[0.0610,43.4201],[0.0599,43.4214],[0.0570,43.4213],[0.0549,43.4189],[0.0542,43.4247],[0.0527,43.4247],[0.0486,43.4380],[0.0512,43.4394],[0.0481,43.4398],[0.0508,43.4399],[0.0519,43.4423],[0.0529,43.4400],[0.0529,43.4427],[0.0542,43.4429],[0.0549,43.4403],[0.0555,43.4424],[0.0587,43.4394],[0.0604,43.4399],[0.0617,43.4378],[0.0609,43.4369],[0.0629,43.4372],[0.0607,43.4419]]]}},{"type":"Feature","properties":{"name":"Forêt du Burgaud"},"geometry":{"type":"Polygon","coordinates":[[[1.1154,43.7969],[1.1153,43.7981],[1.1289,43.7974],[1.1248,43.7920],[1.1255,43.7891],[1.1328,43.7902],[1.1289,43.7910],[1.1367,43.7917],[1.1355,43.7913],[1.1350,43.7870],[1.1270,43.7870],[1.1276,43.7839],[1.1168,43.7837],[1.1128,43.7813],[1.1035,43.7836],[1.1040,43.7854],[1.1029,43.7855],[1.1062,43.7872],[1.1044,43.7876],[1.1043,43.7887],[1.1083,43.7873],[1.1118,43.7884],[1.1115,43.7892],[1.1135,43.7887],[1.1123,43.7903],[1.1159,43.7911],[1.1170,43.7942],[1.1154,43.7969]]]}},{"type":"Feature","properties":{"name":"Bois d\u0027Auch"},"geometry":{"type":"Polygon","coordinates":[[[0.5274,43.6510],[0.5272,43.6499],[0.5289,43.6500],[0.5275,43.6493],[0.5262,43.6514],[0.5226,43.6529],[0.5220,43.6516],[0.5272,43.6492],[0.5261,43.6478],[0.5202,43.6489],[0.5187,43.6477],[0.5197,43.6491],[0.5176,43.6508],[0.5131,43.6495],[0.5116,43.6481],[0.5119,43.6467],[0.5064,43.6491],[0.5079,43.6536],[0.5031,43.6566],[0.5043,43.6570],[0.5034,43.6579],[0.5058,43.6586],[0.5031,43.6582],[0.5070,43.6597],[0.5069,43.6608],[0.5095,43.6596],[0.5109,43.6635],[0.5122,43.6638],[0.5107,43.6647],[0.5127,43.6652],[0.5095,43.6653],[0.5083,43.6672],[0.5112,43.6677],[0.5082,43.6674],[0.5073,43.6688],[0.5097,43.6690],[0.5073,43.6693],[0.5114,43.6696],[0.5101,43.6694],[0.5123,43.6666],[0.5149,43.6660],[0.5151,43.6634],[0.5165,43.6668],[0.5178,43.6663],[0.5158,43.6629],[0.5170,43.6602],[0.5187,43.6599],[0.5183,43.6613],[0.5200,43.6621],[0.5224,43.6604],[0.5250,43.6611],[0.5267,43.6551],[0.5292,43.6540],[0.5274,43.6510]]]}}]}