{"type":"FeatureCollection","features":[{"type":"Feature","properties":{"name":"Bois Noir"},"geometry":{"type":"Polygon","coordinates":[[[2.7651,43.9615],[2.7596,43.9584],[2.7553,43.9602],[2.7546,43.9626],[2.7487,43.9623],[2.7457,43.9640],[2.7493,43.9667],[2.7454,43.9661],[2.7452,43.9676],[2.7481,43.9672],[2.7513,43.9696],[2.7484,43.9690],[2.7489,43.9682],[2.7479,43.9678],[2.7462,43.9701],[2.7471,43.9712],[2.7489,43.9709],[2.7507,43.9725],[2.7503,43.9710],[2.7521,43.9717],[2.7570,43.9689],[2.7523,43.9647],[2.7550,43.9636],[2.7565,43.9679],[2.7594,43.9697],[2.7617,43.9733],[2.7600,43.9745],[2.7566,43.9738],[2.7558,43.9731],[2.7585,43.9714],[2.7568,43.9703],[2.7538,43.9721],[2.7528,43.9751],[2.7519,43.9745],[2.7535,43.9740],[2.7508,43.9727],[2.7468,43.9750],[2.7437,43.9745],[2.7429,43.9754],[2.7444,43.9767],[2.7478,43.9762],[2.7509,43.9775],[2.7477,43.9772],[2.7438,43.9793],[2.7455,43.9804],[2.7450,43.9787],[2.7463,43.9803],[2.7496,43.9802],[2.7459,43.9808],[2.7477,43.9826],[2.7500,43.9825],[2.7517,43.9861],[2.7558,43.9861],[2.7560,43.9846],[2.7531,43.9842],[2.7545,43.9838],[2.7540,43.9826],[2.7648,43.9827],[2.7667,43.9787],[2.7659,43.9811],[2.7718,43.9821],[2.7754,43.9803],[2.7734,43.9789],[2.7745,43.9775],[2.7755,43.9808],[2.7781,43.9795],[2.7783,43.9806],[2.7766,43.9812],[2.7789,43.9814],[2.7789,43.9834],[2.7813,43.9855],[2.7825,43.9832],[2.7802,43.9806],[2.7789,43.9749],[2.7766,43.9736],[2.7810,43.9694],[2.7792,43.9701],[2.7778,43.9685],[2.7771,43.9705],[2.7755,43.9699],[2.7725,43.9723],[2.7729,43.9739],[2.7693,43.9738],[2.7691,43.9707],[2.7711,43.9690],[2.7752,43.9687],[2.7750,43.9665],[2.7726,43.9646],[2.7744,43.9668],[2.7712,43.9687],[2.7683,43.9675],[2.7701,43.9664],[2.7690,43.9651],[2.7663,43.9654],[2.7687,43.9636],[2.7645,43.9641],[2.7659,43.9633],[2.7651,43.9615]]]}},{"type":"Feature","properties":{"name":"Bois de Perié"},"geometry":{"type":"Polygon","coordinates":[[[3.8826,43.7605],[3.8873,43.7573],[3.8891,43.7524],[3.8933,43.7496],[3.8930,43.7479],[3.8914,43.7487],[3.8889,43.7472],[3.8895,43.7446],[3.8925,43.7440],[3.8962,43.7452],[3.8971,43.7460],[3.8961,43.7465],[3.8982,43.7476],[3.9004,43.7455],[3.8997,43.7433],[3.9012,43.7396],[3.8971,43.7383],[3.8926,43.7391],[3.8866,43.7346],[3.8827,43.7355],[3.8802,43.7325],[3.8804,43.7303],[3.8828,43.7287],[3.8819,43.7252],[3.8745,43.7257],[3.8745,43.7289],[3.8697,43.7311],[3.8678,43.7334],[3.8731,43.7325],[3.8730,43.7345],[3.8758,43.7387],[3.8747,43.7429],[3.8713,43.7414],[3.8699,43.7433],[3.8646,43.7431],[3.8620,43.7460],[3.8615,43.7498],[3.8657,43.7510],[3.8650,43.7479],[3.8683,43.7460],[3.8766,43.7498],[3.8784,43.7500],[3.8781,43.7487],[3.8803,43.7469],[3.8838,43.7498],[3.8885,43.7487],[3.8891,43.7492],[3.8875,43.7502],[3.8835,43.7507],[3.8814,43.7527],[3.8822,43.7556],[3.8797,43.7577],[3.8826,43.7605]]]}},{"type":"Feature","properties":{"name":"Massif forestier de Baillarguet"},"geometry":{"type":"Polygon","coordinates":[[[3.8722,43.6754],[3.8738,43.6748],[3.8766,43.6772],[3.8792,43.6777],[3.8786,43.6747],[3.8825,43.6751],[3.8791,43.6714],[3.8818,43.6705],[3.8822,43.6691],[3.8779,43.6659],[3.8816,43.6677],[3.8822,43.6666],[3.8803,43.6658],[3.8812,43.6644],[3.8803,43.6629],[3.8785,43.6652],[3.8801,43.6629],[3.8785,43.6628],[3.8750,43.6600],[3.8759,43.6593],[3.8794,43.6625],[3.8810,43.6617],[3.8804,43.6599],[3.8786,43.6594],[3.8798,43.6581],[3.8766,43.6585],[3.8755,43.6551],[3.8736,43.6552],[3.8716,43.6558],[3.8720,43.6577],[3.8699,43.6572],[3.8679,43.6592],[3.8675,43.6554],[3.8646,43.6553],[3.8633,43.6597],[3.8660,43.6598],[3.8639,43.6667],[3.8666,43.6682],[3.8639,43.6662],[3.8655,43.6638],[3.8653,43.6659],[3.8686,43.6682],[3.8678,43.6739],[3.8708,43.6743],[3.8691,43.6754],[3.8711,43.6762],[3.8722,43.6754]]]}},{"type":"Feature","properties":{"name":"Bois de la Mothe"},"geometry":{"type":"Polygon","coordinates":[[[3.0828,44.0138],[3.0882,44.0151],[3.0931,44.0129],[3.1018,44.0126],[3.1044,44.0136],[3.1085,44.0123],[3.1130,44.0148],[3.1148,44.0122],[3.1132,44.0098],[3.1191,44.0071],[3.1217,44.0075],[3.1279,44.0008],[3.1314,44.0013],[3.1337,43.9983],[3.1361,43.9974],[3.1290,43.9945],[3.1277,43.9930],[3.1285,43.9921],[3.1407,43.9925],[3.1423,43.9904],[3.1485,43.9885],[3.1510,43.9908],[3.1517,43.9890],[3.1550,43.9897],[3.1544,43.9861],[3.1583,43.9841],[3.1614,43.9840],[3.1642,43.9814],[3.1670,43.9836],[3.1680,43.9830],[3.1671,43.9819],[3.1690,43.9805],[3.1723,43.9812],[3.1723,43.9823],[3.1702,43.9823],[3.1701,43.9843],[3.1653,43.9860],[3.1717,43.9855],[3.1734,43.9847],[3.1741,43.9814],[3.1773,43.9808],[3.1777,43.9792],[3.1716,43.9798],[3.1680,43.9782],[3.1671,43.9766],[3.1659,43.9778],[3.1646,43.9766],[3.1651,43.9756],[3.1625,43.9754],[3.1633,43.9736],[3.1662,43.9727],[3.1643,43.9726],[3.1643,43.9695],[3.1538,43.9675],[3.1544,43.9693],[3.1535,43.9708],[3.1560,43.9717],[3.1537,43.9733],[3.1537,43.9774],[3.1558,43.9787],[3.1571,43.9742],[3.1585,43.9758],[3.1571,43.9796],[3.1556,43.9802],[3.1575,43.9817],[3.1539,43.9832],[3.1515,43.9873],[3.1460,43.9876],[3.1446,43.9865],[3.1412,43.9874],[3.1392,43.9901],[3.1369,43.9899],[3.1357,43.9882],[3.1344,43.9911],[3.1317,43.9910],[3.1317,43.9891],[3.1303,43.9884],[3.1308,43.9902],[3.1281,43.9906],[3.1284,43.9916],[3.1240,43.9942],[3.1258,43.9962],[3.1306,43.9974],[3.1312,43.9993],[3.1257,43.9985],[3.1261,43.9997],[3.1232,44.0003],[3.1162,43.9999],[3.1146,43.9988],[3.1163,43.9976],[3.1140,43.9990],[3.1121,43.9978],[3.1075,43.9980],[3.1064,43.9986],[3.1082,43.9992],[3.1069,43.9998],[3.1102,44.0006],[3.1091,44.0013],[3.1112,44.0050],[3.1187,44.0045],[3.1201,44.0019],[3.1208,44.0043],[3.1141,44.0064],[3.1137,44.0077],[3.1058,44.0044],[3.1070,44.0055],[3.1058,44.0057],[3.1068,44.0064],[3.1063,44.0076],[3.1086,44.0069],[3.1090,44.0090],[3.1042,44.0095],[3.1039,44.0085],[3.1051,44.0091],[3.1057,44.0079],[3.1045,44.0051],[3.1041,44.0096],[3.1027,44.0108],[3.0951,44.0116],[3.0912,44.0105],[3.0887,44.0127],[3.0857,44.0132],[3.0850,44.0123],[3.0828,44.0128],[3.0828,44.0138]]]}},{"type":"Feature","properties":{"name":"Bois de Veyran"},"geometry":{"type":"Polygon","coordinates":[[[3.0831,43.4581],[3.0846,43.4557],[3.0829,43.4558],[3.0825,43.4545],[3.0850,43.4532],[3.0856,43.4510],[3.0875,43.4518],[3.0874,43.4553],[3.0902,43.4553],[3.0907,43.4569],[3.0937,43.4575],[3.0922,43.4551],[3.0932,43.4534],[3.0965,43.4570],[3.0988,43.4547],[3.0982,43.4524],[3.1053,43.4516],[3.1053,43.4503],[3.1023,43.4498],[3.1009,43.4471],[3.1024,43.4431],[3.1072,43.4385],[3.1043,43.4370],[3.1029,43.4402],[3.1001,43.4403],[3.0986,43.4437],[3.0953,43.4435],[3.0948,43.4452],[3.0937,43.4439],[3.0916,43.4451],[3.0965,43.4420],[3.0964,43.4410],[3.0987,43.4411],[3.1001,43.4396],[3.0893,43.4376],[3.0860,43.4393],[3.0824,43.4456],[3.0840,43.4451],[3.0848,43.4461],[3.0821,43.4458],[3.0859,43.4483],[3.0842,43.4503],[3.0847,43.4516],[3.0790,43.4543],[3.0812,43.4579],[3.0831,43.4581]]]}},{"type":"Feature","properties":{"name":"Bois de Valène"},"geometry":{"type":"Polygon","coordinates":[[[3.7725,43.7204],[3.7731,43.7185],[3.7768,43.7173],[3.7795,43.7185],[3.7807,43.7157],[3.7829,43.7160],[3.7850,43.7139],[3.7825,43.7114],[3.7842,43.7080],[3.7784,43.7066],[3.7782,43.7047],[3.7754,43.7032],[3.7813,43.7003],[3.7828,43.6943],[3.7784,43.6911],[3.7763,43.6910],[3.7743,43.6939],[3.7708,43.6945],[3.7684,43.6884],[3.7658,43.6899],[3.7655,43.6925],[3.7672,43.6942],[3.7661,43.6960],[3.7593,43.6915],[3.7585,43.6926],[3.7620,43.6947],[3.7583,43.6964],[3.7630,43.6987],[3.7627,43.7007],[3.7672,43.7064],[3.7627,43.7061],[3.7619,43.7072],[3.7630,43.7088],[3.7614,43.7100],[3.7483,43.7087],[3.7419,43.7103],[3.7419,43.7116],[3.7460,43.7143],[3.7493,43.7124],[3.7550,43.7147],[3.7618,43.7141],[3.7631,43.7177],[3.7669,43.7175],[3.7707,43.7190],[3.7705,43.7205],[3.7725,43.7204]]]}},{"type":"Feature","properties":{"name":"Bois de Lafage"},"geometry":{"type":"Polygon","coordinates":[[[3.0369,43.6242],[3.0335,43.6241],[3.0300,43.6220],[3.0314,43.6236],[3.0283,43.6246],[3.0277,43.6234],[3.0217,43.6218],[3.0186,43.6235],[3.0166,43.6231],[3.0169,43.6203],[3.0201,43.6201],[3.0227,43.6166],[3.0273,43.6160],[3.0295,43.6134],[3.0321,43.6155],[3.0368,43.6168],[3.0422,43.6155],[3.0408,43.6141],[3.0444,43.6124],[3.0481,43.6121],[3.0435,43.6089],[3.0380,43.6110],[3.0366,43.6085],[3.0383,43.6080],[3.0383,43.6067],[3.0349,43.6071],[3.0293,43.6054],[3.0287,43.6074],[3.0303,43.6092],[3.0276,43.6129],[3.0261,43.6121],[3.0232,43.6133],[3.0216,43.6122],[3.0236,43.6091],[3.0197,43.6084],[3.0201,43.6019],[3.0169,43.5989],[3.0200,43.5993],[3.0219,43.6025],[3.0243,43.6035],[3.0233,43.6003],[3.0254,43.5941],[3.0267,43.5935],[3.0258,43.6010],[3.0285,43.6010],[3.0297,43.6025],[3.0307,43.6010],[3.0281,43.5986],[3.0305,43.5905],[3.0239,43.5925],[3.0250,43.5909],[3.0228,43.5914],[3.0257,43.5897],[3.0208,43.5889],[3.0220,43.5912],[3.0207,43.5899],[3.0204,43.5913],[3.0226,43.5929],[3.0229,43.5961],[3.0188,43.5965],[3.0194,43.5946],[3.0176,43.5977],[3.0150,43.5944],[3.0171,43.5933],[3.0157,43.5934],[3.0163,43.5913],[3.0149,43.5912],[3.0126,43.5948],[3.0161,43.5869],[3.0112,43.5841],[3.0091,43.5916],[3.0136,43.5902],[3.0105,43.5930],[3.0119,43.5943],[3.0084,43.5980],[3.0089,43.6009],[3.0072,43.6021],[3.0090,43.6026],[3.0090,43.6049],[3.0066,43.6030],[3.0038,43.6031],[3.0034,43.6043],[3.0070,43.6074],[3.0036,43.6079],[3.0015,43.6062],[3.0024,43.6048],[2.9989,43.6063],[2.9995,43.6042],[2.9976,43.6025],[3.0010,43.6033],[3.0001,43.6023],[3.0009,43.6014],[2.9985,43.6004],[2.9999,43.6002],[2.9992,43.5978],[3.0037,43.6000],[3.0062,43.5996],[3.0023,43.5991],[3.0036,43.5949],[3.0021,43.5935],[3.0030,43.5928],[3.0070,43.5942],[3.0069,43.5907],[3.0080,43.5905],[3.0083,43.5882],[3.0075,43.5873],[3.0086,43.5862],[3.0079,43.5853],[3.0026,43.5847],[3.0017,43.5857],[3.0001,43.5838],[2.9976,43.5852],[2.9970,43.5874],[2.9927,43.5897],[2.9914,43.5926],[2.9928,43.5940],[2.9911,43.5947],[2.9911,43.5927],[2.9901,43.5927],[2.9891,43.5996],[2.9878,43.5968],[2.9881,43.5936],[2.9909,43.5915],[2.9941,43.5857],[2.9914,43.5819],[2.9925,43.5816],[2.9861,43.5802],[2.9831,43.5824],[2.9852,43.5794],[2.9825,43.5783],[2.9816,43.5804],[2.9831,43.5824],[2.9808,43.5831],[2.9807,43.5869],[2.9842,43.5885],[2.9826,43.5882],[2.9818,43.5906],[2.9821,43.5881],[2.9810,43.5879],[2.9753,43.5905],[2.9759,43.5876],[2.9797,43.5848],[2.9801,43.5831],[2.9728,43.5881],[2.9746,43.5852],[2.9802,43.5820],[2.9758,43.5831],[2.9787,43.5809],[2.9774,43.5800],[2.9751,43.5811],[2.9754,43.5824],[2.9768,43.5819],[2.9745,43.5852],[2.9739,43.5805],[2.9745,43.5783],[2.9763,43.5774],[2.9699,43.5760],[2.9685,43.5769],[2.9691,43.5740],[2.9666,43.5732],[2.9690,43.5728],[2.9673,43.5733],[2.9680,43.5709],[2.9717,43.5705],[2.9745,43.5739],[2.9801,43.5735],[2.9832,43.5770],[2.9872,43.5758],[2.9874,43.5744],[2.9914,43.5770],[2.9971,43.5772],[2.9993,43.5762],[3.0002,43.5788],[3.0021,43.5784],[3.0008,43.5796],[3.0087,43.5797],[3.0115,43.5809],[3.0118,43.5824],[3.0169,43.5809],[3.0174,43.5820],[3.0192,43.5806],[3.0203,43.5824],[3.0194,43.5841],[3.0208,43.5845],[3.0232,43.5826],[3.0225,43.5799],[3.0247,43.5798],[3.0256,43.5832],[3.0275,43.5845],[3.0295,43.5830],[3.0285,43.5828],[3.0289,43.5813],[3.0238,43.5759],[3.0254,43.5755],[3.0232,43.5741],[3.0265,43.5729],[3.0238,43.5729],[3.0231,43.5709],[3.0265,43.5724],[3.0273,43.5769],[3.0339,43.5827],[3.0390,43.5806],[3.0445,43.5819],[3.0454,43.5800],[3.0512,43.5823],[3.0499,43.5836],[3.0521,43.5844],[3.0535,43.5833],[3.0575,43.5863],[3.0598,43.5864],[3.0586,43.5837],[3.0608,43.5828],[3.0701,43.5850],[3.0742,43.5867],[3.0744,43.5879],[3.0803,43.5884],[3.0776,43.5885],[3.0780,43.5896],[3.0825,43.5889],[3.0814,43.5921],[3.0789,43.5932],[3.0782,43.5974],[3.0726,43.5961],[3.0693,43.5974],[3.0674,43.5940],[3.0677,43.5913],[3.0651,43.5894],[3.0621,43.5909],[3.0592,43.5887],[3.0558,43.5902],[3.0575,43.5944],[3.0567,43.5962],[3.0531,43.5977],[3.0521,43.5962],[3.0491,43.5977],[3.0485,43.6011],[3.0503,43.6049],[3.0494,43.6083],[3.0506,43.6097],[3.0544,43.6101],[3.0527,43.6121],[3.0539,43.6138],[3.0584,43.6136],[3.0627,43.6155],[3.0604,43.6050],[3.0581,43.6030],[3.0590,43.6004],[3.0650,43.6026],[3.0747,43.5996],[3.0754,43.6016],[3.0741,43.6036],[3.0700,43.6045],[3.0753,43.6045],[3.0771,43.6067],[3.0722,43.6056],[3.0710,43.6062],[3.0713,43.6088],[3.0750,43.6077],[3.0734,43.6096],[3.0743,43.6103],[3.0761,43.6082],[3.0776,43.6086],[3.0743,43.6107],[3.0740,43.6152],[3.0722,43.6153],[3.0719,43.6180],[3.0691,43.6193],[3.0672,43.6224],[3.0650,43.6217],[3.0634,43.6231],[3.0549,43.6228],[3.0530,43.6253],[3.0494,43.6251],[3.0488,43.6275],[3.0357,43.6300],[3.0326,43.6277],[3.0376,43.6280],[3.0381,43.6269],[3.0311,43.6272],[3.0378,43.6259],[3.0389,43.6269],[3.0429,43.6266],[3.0397,43.6262],[3.0424,43.6250],[3.0377,43.6254],[3.0369,43.6242]]]}},{"type":"Feature","properties":{"name":"Forêt domaniale de Saint-Guilhem-Le-Désert"},"geometry":{"type":"Polygon","coordinates":[[[3.5637,43.7830],[3.5660,43.7837],[3.5668,43.7854],[3.5643,43.7845],[3.5630,43.7863],[3.5609,43.7860],[3.5619,43.7842],[3.5610,43.7840],[3.5534,43.7843],[3.5461,43.7820],[3.5428,43.7797],[3.5408,43.7823],[3.5281,43.7823],[3.5348,43.7897],[3.5382,43.7910],[3.5435,43.7857],[3.5452,43.7878],[3.5550,43.7929],[3.5573,43.7907],[3.5661,43.7959],[3.5670,43.7952],[3.5652,43.7932],[3.5663,43.7919],[3.5718,43.7937],[3.5735,43.7882],[3.5673,43.7827],[3.5637,43.7830]]]}}]}