{"type":"FeatureCollection","features":[{"type":"Feature","properties":{"name":"Forêt domaniale de Saint-Aubin-du-Cormier"},"geometry":{"type":"Polygon","coordinates":[[[-1.4323,48.2804],[-1.4505,48.2841],[-1.4662,48.2848],[-1.4675,48.2888],[-1.4748,48.2924],[-1.4755,48.2853],[-1.4779,48.2861],[-1.4811,48.2834],[-1.5049,48.2852],[-1.5093,48.2878],[-1.5132,48.2880],[-1.5114,48.2893],[-1.5126,48.2904],[-1.5147,48.2888],[-1.5171,48.2890],[-1.5160,48.2873],[-1.5221,48.2839],[-1.5199,48.2830],[-1.5189,48.2807],[-1.5162,48.2807],[-1.5180,48.2749],[-1.5119,48.2738],[-1.5118,48.2728],[-1.5032,48.2744],[-1.4423,48.2704],[-1.4420,48.2725],[-1.4406,48.2731],[-1.4327,48.2717],[-1.4319,48.2763],[-1.4292,48.2755],[-1.4256,48.2763],[-1.4290,48.2774],[-1.4260,48.2781],[-1.4275,48.2792],[-1.4290,48.2797],[-1.4305,48.2783],[-1.4323,48.2804]]]}},{"type":"Feature","properties":{"name":"Bois de Chinsève"},"geometry":{"type":"Polygon","coordinates":[[[-1.5997,48.2805],[-1.5943,48.2844],[-1.5816,48.2872],[-1.5760,48.2840],[-1.5717,48.2796],[-1.5733,48.2803],[-1.5768,48.2781],[-1.5745,48.2778],[-1.5752,48.2771],[-1.5741,48.2766],[-1.5827,48.2685],[-1.5869,48.2708],[-1.5838,48.2719],[-1.5852,48.2753],[-1.5875,48.2754],[-1.5860,48.2745],[-1.5870,48.2740],[-1.5903,48.2766],[-1.5970,48.2754],[-1.5970,48.2777],[-1.6000,48.2782],[-1.5997,48.2805]]]}},{"type":"Feature","properties":{"name":"Bois de Broons"},"geometry":{"type":"Polygon","coordinates":[[[-2.2734,48.2979],[-2.2726,48.2958],[-2.2713,48.2967],[-2.2687,48.2956],[-2.2703,48.2939],[-2.2711,48.2945],[-2.2706,48.2934],[-2.2666,48.2948],[-2.2619,48.2924],[-2.2629,48.2912],[-2.2603,48.2908],[-2.2588,48.2862],[-2.2597,48.2857],[-2.2584,48.2852],[-2.2614,48.2831],[-2.2595,48.2836],[-2.2579,48.2819],[-2.2542,48.2812],[-2.2512,48.2823],[-2.2498,48.2800],[-2.2502,48.2728],[-2.2529,48.2741],[-2.2528,48.2758],[-2.2548,48.2760],[-2.2553,48.2774],[-2.2554,48.2763],[-2.2576,48.2774],[-2.2587,48.2757],[-2.2611,48.2761],[-2.2613,48.2752],[-2.2623,48.2762],[-2.2622,48.2752],[-2.2679,48.2740],[-2.2668,48.2766],[-2.2636,48.2761],[-2.2606,48.2798],[-2.2639,48.2819],[-2.2612,48.2838],[-2.2609,48.2859],[-2.2658,48.2881],[-2.2676,48.2912],[-2.2732,48.2910],[-2.2767,48.2947],[-2.2821,48.2949],[-2.2825,48.2894],[-2.2860,48.2883],[-2.2862,48.2871],[-2.2825,48.2873],[-2.2824,48.2858],[-2.2859,48.2856],[-2.2846,48.2843],[-2.2920,48.2817],[-2.2919,48.2806],[-2.2941,48.2811],[-2.2942,48.2822],[-2.2874,48.2844],[-2.2866,48.2857],[-2.2899,48.2850],[-2.2924,48.2874],[-2.2877,48.2870],[-2.2870,48.2889],[-2.2830,48.2905],[-2.2831,48.2931],[-2.2875,48.2936],[-2.2837,48.2938],[-2.2846,48.2963],[-2.2838,48.2967],[-2.2855,48.2972],[-2.2809,48.2969],[-2.2823,48.2979],[-2.2797,48.2980],[-2.2764,48.3006],[-2.2749,48.2997],[-2.2753,48.2984],[-2.2734,48.2979]]]}},{"type":"Feature","properties":{"name":"Forêt de Javardan"},"geometry":{"type":"Polygon","coordinates":[[[-1.3969,47.8116],[-1.3952,47.8094],[-1.3933,47.8116],[-1.3868,47.8095],[-1.3794,47.8099],[-1.3797,47.8088],[-1.3735,47.8067],[-1.3752,47.8032],[-1.3697,47.8023],[-1.3685,47.8015],[-1.3705,47.7993],[-1.3677,47.7980],[-1.3715,47.7992],[-1.3725,47.7978],[-1.3712,47.7967],[-1.3766,47.7950],[-1.3820,47.7950],[-1.3818,47.7942],[-1.3850,47.7953],[-1.3814,47.7987],[-1.3873,47.7998],[-1.3883,47.7984],[-1.3912,47.7981],[-1.3850,47.7954],[-1.3903,47.7958],[-1.3897,47.7969],[-1.4017,47.8022],[-1.4041,47.8012],[-1.4039,47.7997],[-1.4009,47.7996],[-1.4012,47.7981],[-1.4049,47.7986],[-1.4055,47.7998],[-1.4088,47.7995],[-1.4102,47.7964],[-1.4145,47.7968],[-1.4138,47.7986],[-1.4116,47.7977],[-1.4114,47.8003],[-1.4091,47.8003],[-1.4063,47.8035],[-1.4046,47.8028],[-1.4030,47.8041],[-1.4077,47.8071],[-1.3969,47.8116]]]}},{"type":"Feature","properties":{"name":"Lande de l\u0027Épine"},"geometry":{"type":"Polygon","coordinates":[[[-2.2280,47.8867],[-2.2250,47.8867],[-2.2249,47.8853],[-2.2282,47.8844],[-2.2254,47.8841],[-2.2259,47.8827],[-2.2241,47.8798],[-2.2214,47.8788],[-2.2202,47.8789],[-2.2219,47.8802],[-2.2217,47.8839],[-2.2193,47.8858],[-2.2149,47.8868],[-2.2151,47.8881],[-2.2092,47.8865],[-2.2089,47.8818],[-2.2114,47.8816],[-2.2119,47.8802],[-2.2168,47.8798],[-2.2167,47.8785],[-2.2198,47.8779],[-2.2194,47.8757],[-2.2219,47.8756],[-2.2219,47.8747],[-2.2234,47.8760],[-2.2243,47.8750],[-2.2291,47.8765],[-2.2379,47.8759],[-2.2375,47.8770],[-2.2439,47.8772],[-2.2455,47.8762],[-2.2454,47.8773],[-2.2492,47.8789],[-2.2482,47.8805],[-2.2439,47.8815],[-2.2446,47.8839],[-2.2421,47.8849],[-2.2397,47.8829],[-2.2427,47.8820],[-2.2426,47.8802],[-2.2381,47.8800],[-2.2380,47.8817],[-2.2328,47.8855],[-2.2311,47.8843],[-2.2280,47.8867]]]}},{"type":"Feature","properties":{"name":"Forêt d\u0027Ombrée"},"geometry":{"type":"Polygon","coordinates":[[[-1.0361,47.7454],[-1.0324,47.7450],[-1.0280,47.7405],[-1.0289,47.7378],[-1.0272,47.7371],[-1.0287,47.7363],[-1.0262,47.7357],[-1.0262,47.7342],[-1.0292,47.7336],[-1.0285,47.7316],[-1.0254,47.7324],[-1.0244,47.7301],[-1.0213,47.7288],[-1.0152,47.7293],[-0.9958,47.7245],[-0.9937,47.7237],[-0.9958,47.7231],[-0.9960,47.7194],[-0.9890,47.7175],[-0.9937,47.7142],[-0.9988,47.7136],[-0.9976,47.7126],[-1.0017,47.7145],[-1.0006,47.7136],[-1.0040,47.7130],[-1.0002,47.7119],[-1.0029,47.7117],[-1.0308,47.7218],[-1.0401,47.7235],[-1.0416,47.7220],[-1.0575,47.7262],[-1.0698,47.7307],[-1.0688,47.7328],[-1.0704,47.7348],[-1.0701,47.7371],[-1.0736,47.7373],[-1.0739,47.7392],[-1.0719,47.7421],[-1.0724,47.7459],[-1.0720,47.7449],[-1.0665,47.7449],[-1.0654,47.7455],[-1.0660,47.7472],[-1.0636,47.7478],[-1.0609,47.7475],[-1.0565,47.7491],[-1.0528,47.7483],[-1.0512,47.7459],[-1.0466,47.7459],[-1.0465,47.7446],[-1.0387,47.7458],[-1.0394,47.7441],[-1.0365,47.7438],[-1.0361,47.7454]]]}},{"type":"Feature","properties":{"name":"Bois des Gravelles"},"geometry":{"type":"Polygon","coordinates":[[[-0.9651,48.1020],[-0.9689,48.0981],[-0.9693,48.0956],[-0.9673,48.0954],[-0.9672,48.0941],[-0.9689,48.0939],[-0.9698,48.0918],[-0.9729,48.0918],[-0.9727,48.0897],[-0.9688,48.0911],[-0.9675,48.0901],[-0.9698,48.0837],[-0.9719,48.0815],[-0.9738,48.0819],[-0.9755,48.0778],[-0.9893,48.0772],[-0.9883,48.0780],[-0.9894,48.0797],[-0.9917,48.0796],[-0.9947,48.0851],[-0.9872,48.0994],[-0.9953,48.0845],[-0.9993,48.0902],[-0.9962,48.0910],[-0.9965,48.0933],[-0.9988,48.0934],[-0.9999,48.0955],[-1.0035,48.0953],[-0.9994,48.1010],[-0.9987,48.1037],[-0.9917,48.1044],[-0.9910,48.1018],[-0.9897,48.1045],[-0.9830,48.1086],[-0.9837,48.1096],[-0.9824,48.1103],[-0.9815,48.1093],[-0.9787,48.1111],[-0.9780,48.1098],[-0.9794,48.1103],[-0.9824,48.1061],[-0.9800,48.1055],[-0.9775,48.1088],[-0.9775,48.1068],[-0.9651,48.1020]]]}},{"type":"Feature","properties":{"name":"Bois de Thiouzé"},"geometry":{"type":"Polygon","coordinates":[[[-1.6376,47.7406],[-1.6379,47.7425],[-1.6338,47.7435],[-1.6264,47.7570],[-1.6246,47.7556],[-1.6242,47.7527],[-1.6218,47.7537],[-1.6243,47.7517],[-1.6235,47.7502],[-1.6170,47.7509],[-1.6188,47.7546],[-1.6198,47.7545],[-1.6186,47.7553],[-1.6175,47.7532],[-1.6153,47.7540],[-1.6156,47.7526],[-1.6149,47.7536],[-1.6091,47.7535],[-1.6115,47.7570],[-1.6101,47.7568],[-1.6102,47.7549],[-1.6074,47.7556],[-1.6065,47.7541],[-1.6082,47.7523],[-1.6109,47.7522],[-1.6105,47.7509],[-1.6171,47.7498],[-1.6160,47.7480],[-1.6177,47.7455],[-1.6126,47.7443],[-1.6089,47.7408],[-1.6119,47.7384],[-1.6100,47.7374],[-1.6112,47.7358],[-1.6189,47.7368],[-1.6204,47.7353],[-1.6229,47.7356],[-1.6218,47.7338],[-1.6264,47.7335],[-1.6300,47.7346],[-1.6300,47.7364],[-1.6358,47.7389],[-1.6388,47.7355],[-1.6390,47.7376],[-1.6430,47.7430],[-1.6414,47.7455],[-1.6400,47.7454],[-1.6397,47.7430],[-1.6382,47.7431],[-1.6393,47.7423],[-1.6376,47.7406]]]}},{"type":"Feature","properties":{"name":"Forêt de Chanveaux"},"geometry":{"type":"Polygon","coordinates":[[[-1.1587,47.6653],[-1.1514,47.6656],[-1.1529,47.6637],[-1.1508,47.6624],[-1.1504,47.6612],[-1.1516,47.6608],[-1.1494,47.6605],[-1.1506,47.6576],[-1.1478,47.6566],[-1.1503,47.6561],[-1.1486,47.6555],[-1.1499,47.6552],[-1.1496,47.6538],[-1.1455,47.6539],[-1.1393,47.6442],[-1.1423,47.6448],[-1.1484,47.6363],[-1.1526,47.6384],[-1.1523,47.6374],[-1.1564,47.6361],[-1.1592,47.6378],[-1.1572,47.6403],[-1.1634,47.6398],[-1.1626,47.6417],[-1.1612,47.6420],[-1.1622,47.6425],[-1.1597,47.6430],[-1.1568,47.6415],[-1.1563,47.6430],[-1.1593,47.6447],[-1.1559,47.6434],[-1.1558,47.6464],[-1.1588,47.6467],[-1.1597,47.6493],[-1.1673,47.6483],[-1.1755,47.6499],[-1.1761,47.6557],[-1.1666,47.6545],[-1.1626,47.6599],[-1.1596,47.6605],[-1.1606,47.6615],[-1.1692,47.6593],[-1.1773,47.6596],[-1.1739,47.6611],[-1.1745,47.6603],[-1.1706,47.6595],[-1.1608,47.6617],[-1.1668,47.6623],[-1.1683,47.6639],[-1.1664,47.6654],[-1.1675,47.6663],[-1.1640,47.6665],[-1.1641,47.6647],[-1.1587,47.6653]]]}},{"type":"Feature","properties":{"name":"Forêt de Domnaiche"},"geometry":{"type":"Polygon","coordinates":[[[-1.5472,47.6754],[-1.5568,47.6758],[-1.5695,47.6788],[-1.5729,47.6835],[-1.5783,47.6850],[-1.5773,47.6872],[-1.5786,47.6870],[-1.5791,47.6848],[-1.5811,47.6848],[-1.5814,47.6828],[-1.5878,47.6832],[-1.5862,47.6860],[-1.5871,47.6867],[-1.5834,47.6884],[-1.5830,47.6870],[-1.5796,47.6873],[-1.5783,47.6893],[-1.5765,47.6879],[-1.5747,47.6899],[-1.5628,47.6869],[-1.5613,47.6957],[-1.5622,47.6984],[-1.5585,47.6995],[-1.5599,47.6951],[-1.5503,47.6961],[-1.5482,47.6996],[-1.5485,47.7012],[-1.5470,47.7023],[-1.5422,47.7009],[-1.5410,47.7047],[-1.5389,47.7045],[-1.5375,47.7026],[-1.5404,47.7012],[-1.5387,47.7003],[-1.5389,47.6988],[-1.5425,47.6983],[-1.5374,47.6966],[-1.5389,47.6947],[-1.5349,47.6891],[-1.5318,47.6871],[-1.5278,47.6876],[-1.5225,47.6823],[-1.5209,47.6825],[-1.5217,47.6815],[-1.5201,47.6790],[-1.5171,47.6804],[-1.5166,47.6793],[-1.5309,47.6769],[-1.5341,47.6774],[-1.5381,47.6756],[-1.5429,47.6757],[-1.5446,47.6741],[-1.5449,47.6753],[-1.5472,47.6754]]]}},{"type":"Feature","properties":{"name":"Forêt du Pertre"},"geometry":{"type":"Polygon","coordinates":[[[-1.0902,48.0472],[-1.0893,48.0482],[-1.0923,48.0505],[-1.0903,48.0539],[-1.0934,48.0558],[-1.0923,48.0579],[-1.0901,48.0571],[-1.0888,48.0586],[-1.0905,48.0596],[-1.0922,48.0580],[-1.0982,48.0605],[-1.0967,48.0619],[-1.0986,48.0683],[-1.0938,48.0691],[-1.0964,48.0726],[-1.0945,48.0741],[-1.0870,48.0759],[-1.0813,48.0732],[-1.0792,48.0739],[-1.0774,48.0763],[-1.0819,48.0791],[-1.0793,48.0815],[-1.0805,48.0836],[-1.0795,48.0883],[-1.0752,48.0882],[-1.0720,48.0890],[-1.0719,48.0903],[-1.0655,48.0876],[-1.0637,48.0890],[-1.0632,48.0868],[-1.0548,48.0851],[-1.0592,48.0808],[-1.0527,48.0802],[-1.0534,48.0791],[-1.0467,48.0833],[-1.0431,48.0808],[-1.0444,48.0779],[-1.0413,48.0764],[-1.0464,48.0744],[-1.0411,48.0698],[-1.0460,48.0673],[-1.0435,48.0646],[-1.0372,48.0630],[-1.0364,48.0561],[-1.0451,48.0536],[-1.0455,48.0554],[-1.0431,48.0579],[-1.0455,48.0599],[-1.0462,48.0589],[-1.0448,48.0581],[-1.0469,48.0578],[-1.0485,48.0591],[-1.0560,48.0573],[-1.0567,48.0564],[-1.0542,48.0540],[-1.0591,48.0503],[-1.0583,48.0488],[-1.0616,48.0498],[-1.0630,48.0462],[-1.0684,48.0440],[-1.0703,48.0449],[-1.0710,48.0436],[-1.0807,48.0442],[-1.0887,48.0478],[-1.0902,48.0472]]]}},{"type":"Feature","properties":{"name":"Forêt de Corbinière"},"geometry":{"type":"Polygon","coordinates":[[[-1.8436,47.7681],[-1.8359,47.7773],[-1.8251,47.7792],[-1.8226,47.7794],[-1.8225,47.7783],[-1.8245,47.7783],[-1.8224,47.7758],[-1.8303,47.7736],[-1.8294,47.7726],[-1.8263,47.7730],[-1.8263,47.7702],[-1.8143,47.7718],[-1.8104,47.7758],[-1.8133,47.7757],[-1.8129,47.7773],[-1.8079,47.7779],[-1.8088,47.7770],[-1.8063,47.7766],[-1.8083,47.7733],[-1.7982,47.7730],[-1.7986,47.7745],[-1.7969,47.7725],[-1.7971,47.7712],[-1.7987,47.7710],[-1.7986,47.7695],[-1.8044,47.7710],[-1.8140,47.7710],[-1.8126,47.7695],[-1.8141,47.7690],[-1.8123,47.7677],[-1.8145,47.7670],[-1.8173,47.7687],[-1.8195,47.7682],[-1.8185,47.7668],[-1.8202,47.7664],[-1.8264,47.7688],[-1.8378,47.7659],[-1.8436,47.7681]]]}},{"type":"Feature","properties":{"name":"Forêt de la Guerche"},"geometry":{"type":"Polygon","coordinates":[[[-1.1671,47.9254],[-1.1687,47.9196],[-1.1741,47.9192],[-1.1735,47.9160],[-1.1754,47.9139],[-1.1746,47.9120],[-1.1765,47.9075],[-1.1762,47.9029],[-1.1805,47.9024],[-1.1819,47.9003],[-1.1823,47.8941],[-1.1912,47.8934],[-1.1922,47.8913],[-1.1940,47.8898],[-1.1972,47.8897],[-1.1988,47.8873],[-1.1993,47.8849],[-1.1976,47.8842],[-1.1971,47.8772],[-1.1921,47.8729],[-1.1951,47.8732],[-1.1957,47.8746],[-1.1987,47.8738],[-1.1971,47.8757],[-1.2009,47.8772],[-1.2033,47.8705],[-1.1974,47.8691],[-1.1965,47.8704],[-1.1911,47.8706],[-1.1891,47.8700],[-1.1886,47.8667],[-1.1946,47.8648],[-1.1980,47.8600],[-1.2010,47.8581],[-1.1997,47.8567],[-1.1958,47.8580],[-1.1944,47.8556],[-1.1935,47.8608],[-1.1908,47.8613],[-1.1917,47.8593],[-1.1900,47.8588],[-1.1912,47.8553],[-1.1891,47.8540],[-1.1907,47.8534],[-1.1923,47.8543],[-1.1960,47.8534],[-1.1979,47.8549],[-1.2021,47.8552],[-1.2031,47.8560],[-1.2023,47.8571],[-1.2048,47.8564],[-1.2053,47.8585],[-1.2076,47.8566],[-1.2106,47.8564],[-1.2125,47.8570],[-1.2111,47.8582],[-1.2145,47.8577],[-1.2198,47.8591],[-1.2357,47.8665],[-1.2359,47.8642],[-1.2414,47.8657],[-1.2401,47.8682],[-1.2451,47.8695],[-1.2513,47.8635],[-1.2517,47.8658],[-1.2496,47.8677],[-1.2428,47.8703],[-1.2443,47.8718],[-1.2495,47.8717],[-1.2508,47.8704],[-1.2567,47.8690],[-1.2589,47.8623],[-1.2732,47.8643],[-1.2767,47.8662],[-1.2806,47.8647],[-1.2806,47.8637],[-1.2850,47.8630],[-1.2909,47.8642],[-1.2954,47.8662],[-1.2981,47.8717],[-1.2972,47.8743],[-1.3069,47.8792],[-1.3070,47.8808],[-1.3031,47.8863],[-1.3013,47.8864],[-1.3025,47.8881],[-1.3007,47.8931],[-1.2986,47.8930],[-1.2976,47.8945],[-1.2944,47.8930],[-1.2941,47.8946],[-1.2901,47.8943],[-1.2881,47.8927],[-1.2852,47.8919],[-1.2843,47.8927],[-1.2832,47.8913],[-1.2776,47.8898],[-1.2763,47.8932],[-1.2671,47.8940],[-1.2625,47.8917],[-1.2629,47.8907],[-1.2577,47.8903],[-1.2573,47.8883],[-1.2555,47.8877],[-1.2512,47.8903],[-1.2378,47.8932],[-1.2185,47.8945],[-1.2125,47.8969],[-1.2137,47.8992],[-1.2120,47.8996],[-1.2064,47.8983],[-1.2048,47.9013],[-1.2016,47.9006],[-1.2003,47.9015],[-1.1999,47.9041],[-1.2010,47.9052],[-1.1996,47.9055],[-1.1988,47.9086],[-1.1998,47.9102],[-1.1984,47.9113],[-1.1905,47.9111],[-1.1888,47.9141],[-1.1906,47.9154],[-1.1896,47.9171],[-1.1844,47.9151],[-1.1831,47.9161],[-1.1844,47.9179],[-1.1828,47.9189],[-1.1827,47.9236],[-1.1762,47.9271],[-1.1741,47.9261],[-1.1710,47.9276],[-1.1671,47.9254]]]}},{"type":"Feature","properties":{"name":"Forêt de Coëtquen"},"geometry":{"type":"Polygon","coordinates":[[[-1.9591,48.4615],[-1.9620,48.4565],[-1.9610,48.4548],[-1.9591,48.4587],[-1.9560,48.4587],[-1.9552,48.4615],[-1.9507,48.4616],[-1.9504,48.4604],[-1.9469,48.4612],[-1.9365,48.4570],[-1.9433,48.4559],[-1.9416,48.4548],[-1.9446,48.4531],[-1.9427,48.4526],[-1.9445,48.4525],[-1.9445,48.4501],[-1.9426,48.4488],[-1.9436,48.4492],[-1.9444,48.4462],[-1.9415,48.4456],[-1.9468,48.4464],[-1.9507,48.4426],[-1.9493,48.4401],[-1.9506,48.4400],[-1.9514,48.4426],[-1.9517,48.4398],[-1.9561,48.4366],[-1.9587,48.4386],[-1.9594,48.4376],[-1.9591,48.4388],[-1.9613,48.4380],[-1.9606,48.4363],[-1.9621,48.4368],[-1.9649,48.4340],[-1.9648,48.4357],[-1.9664,48.4352],[-1.9652,48.4388],[-1.9670,48.4401],[-1.9671,48.4423],[-1.9715,48.4427],[-1.9706,48.4385],[-1.9754,48.4364],[-1.9733,48.4340],[-1.9749,48.4339],[-1.9770,48.4359],[-1.9806,48.4336],[-1.9791,48.4354],[-1.9806,48.4363],[-1.9788,48.4359],[-1.9778,48.4383],[-1.9784,48.4397],[-1.9819,48.4384],[-1.9813,48.4409],[-1.9799,48.4396],[-1.9790,48.4412],[-1.9793,48.4394],[-1.9764,48.4411],[-1.9794,48.4422],[-1.9794,48.4445],[-1.9752,48.4425],[-1.9739,48.4463],[-1.9656,48.4466],[-1.9655,48.4484],[-1.9675,48.4478],[-1.9743,48.4516],[-1.9721,48.4516],[-1.9726,48.4529],[-1.9709,48.4535],[-1.9659,48.4520],[-1.9658,48.4536],[-1.9636,48.4539],[-1.9653,48.4543],[-1.9634,48.4552],[-1.9673,48.4554],[-1.9661,48.4566],[-1.9633,48.4563],[-1.9628,48.4577],[-1.9639,48.4578],[-1.9621,48.4579],[-1.9626,48.4599],[-1.9599,48.4617],[-1.9606,48.4628],[-1.9591,48.4643],[-1.9545,48.4641],[-1.9581,48.4636],[-1.9591,48.4615]]]}},{"type":"Feature","properties":{"name":"Forêt de la Corbière"},"geometry":{"type":"Polygon","coordinates":[[[-1.4019,48.1583],[-1.3861,48.1557],[-1.3869,48.1537],[-1.3827,48.1521],[-1.3709,48.1499],[-1.3661,48.1495],[-1.3632,48.1517],[-1.3548,48.1480],[-1.3522,48.1454],[-1.3521,48.1437],[-1.3575,48.1415],[-1.3638,48.1412],[-1.3660,48.1382],[-1.3701,48.1384],[-1.3693,48.1373],[-1.3795,48.1336],[-1.3902,48.1372],[-1.3962,48.1385],[-1.3972,48.1377],[-1.3974,48.1390],[-1.3989,48.1384],[-1.3999,48.1397],[-1.3978,48.1409],[-1.4004,48.1420],[-1.4094,48.1544],[-1.4024,48.1570],[-1.4019,48.1583]]]}},{"type":"Feature","properties":{"name":"Forêt domaniale de Fougères"},"geometry":{"type":"Polygon","coordinates":[[[-1.1895,48.3959],[-1.1912,48.3981],[-1.1911,48.4010],[-1.1886,48.4022],[-1.1865,48.4074],[-1.1795,48.4097],[-1.1772,48.4120],[-1.1675,48.4085],[-1.1656,48.4056],[-1.1664,48.4081],[-1.1643,48.4107],[-1.1629,48.4088],[-1.1613,48.4093],[-1.1615,48.4107],[-1.1568,48.4114],[-1.1573,48.4101],[-1.1555,48.4085],[-1.1544,48.4096],[-1.1507,48.4088],[-1.1461,48.4103],[-1.1416,48.4091],[-1.1389,48.4107],[-1.1378,48.4099],[-1.1385,48.4090],[-1.1315,48.4084],[-1.1243,48.4043],[-1.1214,48.3965],[-1.1225,48.3986],[-1.1226,48.3957],[-1.1217,48.3956],[-1.1235,48.3954],[-1.1252,48.3916],[-1.1308,48.3891],[-1.1350,48.3893],[-1.1339,48.3879],[-1.1396,48.3855],[-1.1408,48.3864],[-1.1429,48.3848],[-1.1451,48.3852],[-1.1482,48.3832],[-1.1474,48.3825],[-1.1485,48.3816],[-1.1530,48.3817],[-1.1549,48.3806],[-1.1526,48.3785],[-1.1599,48.3757],[-1.1575,48.3743],[-1.1607,48.3732],[-1.1587,48.3719],[-1.1676,48.3700],[-1.1671,48.3693],[-1.1693,48.3682],[-1.1701,48.3695],[-1.1718,48.3693],[-1.1763,48.3663],[-1.1756,48.3693],[-1.1804,48.3709],[-1.1795,48.3770],[-1.1876,48.3752],[-1.1915,48.3765],[-1.1947,48.3751],[-1.1965,48.3759],[-1.1959,48.3787],[-1.1969,48.3801],[-1.1942,48.3821],[-1.1983,48.3819],[-1.1964,48.3851],[-1.1978,48.3883],[-1.1952,48.3890],[-1.1953,48.3908],[-1.1895,48.3959]]]}},{"type":"Feature","properties":{"name":"Forêt domaniale de Montauban De Bretagne"},"geometry":{"type":"Polygon","coordinates":[[[-2.0792,48.2171],[-2.0844,48.2177],[-2.0835,48.2196],[-2.0845,48.2198],[-2.0843,48.2230],[-2.0823,48.2235],[-2.0824,48.2250],[-2.0867,48.2236],[-2.0903,48.2320],[-2.0945,48.2328],[-2.0935,48.2356],[-2.0870,48.2336],[-2.0830,48.2286],[-2.0844,48.2267],[-2.0789,48.2250],[-2.0795,48.2231],[-2.0751,48.2218],[-2.0643,48.2212],[-2.0617,48.2226],[-2.0542,48.2227],[-2.0520,48.2241],[-2.0411,48.2248],[-2.0358,48.2264],[-2.0195,48.2233],[-2.0131,48.2198],[-2.0128,48.2177],[-2.0145,48.2163],[-2.0094,48.2122],[-2.0105,48.2110],[-2.0097,48.2100],[-2.0002,48.2087],[-1.9997,48.2067],[-2.0018,48.2049],[-2.0077,48.2052],[-2.0103,48.2034],[-2.0252,48.2055],[-2.0248,48.2063],[-2.0281,48.2074],[-2.0275,48.2086],[-2.0311,48.2092],[-2.0284,48.2101],[-2.0278,48.2125],[-2.0262,48.2118],[-2.0249,48.2165],[-2.0266,48.2168],[-2.0261,48.2195],[-2.0325,48.2215],[-2.0421,48.2184],[-2.0459,48.2185],[-2.0464,48.2167],[-2.0477,48.2165],[-2.0523,48.2193],[-2.0545,48.2189],[-2.0547,48.2177],[-2.0632,48.2194],[-2.0710,48.2170],[-2.0753,48.2189],[-2.0792,48.2171]]]}},{"type":"Feature","properties":{"name":"Bois des Mézières"},"geometry":{"type":"Polygon","coordinates":[[[-2.1241,48.3781],[-2.1223,48.3792],[-2.1234,48.3793],[-2.1230,48.3816],[-2.1242,48.3823],[-2.1258,48.3812],[-2.1262,48.3822],[-2.1230,48.3821],[-2.1214,48.3798],[-2.1203,48.3801],[-2.1207,48.3813],[-2.1198,48.3801],[-2.1152,48.3816],[-2.1192,48.3825],[-2.1156,48.3824],[-2.1155,48.3839],[-2.1137,48.3820],[-2.1077,48.3817],[-2.1082,48.3830],[-2.1071,48.3835],[-2.1098,48.3853],[-2.1016,48.3846],[-2.0999,48.3860],[-2.1017,48.3880],[-2.0971,48.3906],[-2.0990,48.3910],[-2.0985,48.3925],[-2.1004,48.3936],[-2.1045,48.3933],[-2.1030,48.3929],[-2.1045,48.3921],[-2.1116,48.3936],[-2.1115,48.3924],[-2.1131,48.3921],[-2.1151,48.3967],[-2.1173,48.3945],[-2.1144,48.3947],[-2.1149,48.3927],[-2.1188,48.3940],[-2.1192,48.3964],[-2.1201,48.3947],[-2.1220,48.3947],[-2.1191,48.3969],[-2.1109,48.3973],[-2.1118,48.3972],[-2.1087,48.3958],[-2.1067,48.3967],[-2.1077,48.3984],[-2.1104,48.3987],[-2.1088,48.3993],[-2.1096,48.3995],[-2.1040,48.3970],[-2.1025,48.3981],[-2.1038,48.4002],[-2.1061,48.4007],[-2.1061,48.4034],[-2.1096,48.4059],[-2.1079,48.4075],[-2.1103,48.4105],[-2.1099,48.4131],[-2.1088,48.4133],[-2.1085,48.4101],[-2.1057,48.4104],[-2.1077,48.4099],[-2.1040,48.4052],[-2.1007,48.4059],[-2.0997,48.4043],[-2.0982,48.4084],[-2.1014,48.4087],[-2.0960,48.4098],[-2.0959,48.4066],[-2.0988,48.4070],[-2.0979,48.4014],[-2.0959,48.4017],[-2.0961,48.4034],[-2.0933,48.4029],[-2.0921,48.4066],[-2.0877,48.4073],[-2.0880,48.4059],[-2.0904,48.4053],[-2.0879,48.4043],[-2.0869,48.4051],[-2.0894,48.4017],[-2.0965,48.3994],[-2.0953,48.3986],[-2.0949,48.3995],[-2.0950,48.3966],[-2.0933,48.3964],[-2.0932,48.3984],[-2.0945,48.3988],[-2.0874,48.3977],[-2.0884,48.4001],[-2.0851,48.3990],[-2.0870,48.3972],[-2.0886,48.3976],[-2.0884,48.3957],[-2.0892,48.3977],[-2.0929,48.3982],[-2.0927,48.3962],[-2.0913,48.3961],[-2.0921,48.3978],[-2.0913,48.3979],[-2.0906,48.3951],[-2.0883,48.3953],[-2.0921,48.3939],[-2.0890,48.3933],[-2.0920,48.3921],[-2.0897,48.3918],[-2.0939,48.3922],[-2.0982,48.3983],[-2.0969,48.4000],[-2.1013,48.4010],[-2.1047,48.4037],[-2.1018,48.4008],[-2.0983,48.3997],[-2.0990,48.3985],[-2.0972,48.3968],[-2.0980,48.3954],[-2.0965,48.3930],[-2.0989,48.3937],[-2.0932,48.3909],[-2.0977,48.3891],[-2.0995,48.3856],[-2.1025,48.3840],[-2.0992,48.3852],[-2.0968,48.3890],[-2.0941,48.3886],[-2.0943,48.3895],[-2.0874,48.3910],[-2.0891,48.3922],[-2.0860,48.3922],[-2.0846,48.3916],[-2.0849,48.3906],[-2.0940,48.3894],[-2.0927,48.3866],[-2.0951,48.3886],[-2.0959,48.3869],[-2.0970,48.3877],[-2.0984,48.3863],[-2.0965,48.3866],[-2.0980,48.3856],[-2.0975,48.3843],[-2.0999,48.3842],[-2.1008,48.3822],[-2.1018,48.3817],[-2.1032,48.3834],[-2.1060,48.3823],[-2.1069,48.3783],[-2.1092,48.3796],[-2.1093,48.3814],[-2.1103,48.3796],[-2.1139,48.3794],[-2.1142,48.3808],[-2.1164,48.3790],[-2.1241,48.3781]]]}},{"type":"Feature","properties":{"name":"Forêt de Juigné"},"geometry":{"type":"Polygon","coordinates":[[[-1.1802,47.7009],[-1.1880,47.7017],[-1.1892,47.6992],[-1.1891,47.6959],[-1.1852,47.6921],[-1.1853,47.6875],[-1.1936,47.6870],[-1.1946,47.6861],[-1.1934,47.6837],[-1.1968,47.6848],[-1.1994,47.6834],[-1.1997,47.6759],[-1.1923,47.6733],[-1.1913,47.6709],[-1.2008,47.6710],[-1.2024,47.6726],[-1.2096,47.6729],[-1.2147,47.6787],[-1.2130,47.6815],[-1.2146,47.6823],[-1.2123,47.6850],[-1.2147,47.6866],[-1.2169,47.6848],[-1.2188,47.6856],[-1.2160,47.6864],[-1.2153,47.6889],[-1.2170,47.6897],[-1.2222,47.6874],[-1.2235,47.6894],[-1.2255,47.6896],[-1.2267,47.6878],[-1.2230,47.6866],[-1.2242,47.6855],[-1.2225,47.6836],[-1.2244,47.6795],[-1.2218,47.6804],[-1.2226,47.6773],[-1.2218,47.6760],[-1.2269,47.6750],[-1.2280,47.6724],[-1.2308,47.6743],[-1.2317,47.6736],[-1.2303,47.6758],[-1.2314,47.6759],[-1.2312,47.6771],[-1.2356,47.6769],[-1.2407,47.6786],[-1.2422,47.6761],[-1.2437,47.6769],[-1.2416,47.6790],[-1.2435,47.6788],[-1.2446,47.6803],[-1.2649,47.6763],[-1.2755,47.6796],[-1.2760,47.6813],[-1.2791,47.6820],[-1.2856,47.6812],[-1.2866,47.6856],[-1.2903,47.6861],[-1.2897,47.6897],[-1.2824,47.6891],[-1.2821,47.6913],[-1.2796,47.6913],[-1.2788,47.6956],[-1.2764,47.6948],[-1.2775,47.6949],[-1.2784,47.6925],[-1.2761,47.6927],[-1.2769,47.6907],[-1.2751,47.6904],[-1.2750,47.6885],[-1.2459,47.6905],[-1.2489,47.6930],[-1.2418,47.6953],[-1.2439,47.6969],[-1.2423,47.6970],[-1.2421,47.6987],[-1.2381,47.6995],[-1.2400,47.7012],[-1.2382,47.7039],[-1.2387,47.7051],[-1.2283,47.7047],[-1.2263,47.7067],[-1.2260,47.7078],[-1.2272,47.7073],[-1.2273,47.7083],[-1.2234,47.7089],[-1.2229,47.7112],[-1.2212,47.7118],[-1.2209,47.7103],[-1.2192,47.7100],[-1.2214,47.7055],[-1.2161,47.7043],[-1.2105,47.7058],[-1.2065,47.7098],[-1.2012,47.7094],[-1.1963,47.7111],[-1.1946,47.7124],[-1.1954,47.7144],[-1.1911,47.7123],[-1.1807,47.7112],[-1.1816,47.7085],[-1.1790,47.7084],[-1.1802,47.7009]]]}},{"type":"Feature","properties":{"name":"Forêt du Theil de Bretagne"},"geometry":{"type":"Polygon","coordinates":[[[-1.4061,47.9119],[-1.3991,47.9074],[-1.4011,47.9048],[-1.4070,47.9057],[-1.4094,47.9043],[-1.4132,47.9055],[-1.4145,47.9044],[-1.4111,47.9030],[-1.4108,47.9000],[-1.4090,47.9001],[-1.4102,47.8976],[-1.4086,47.8975],[-1.4016,47.9035],[-1.4026,47.8996],[-1.4091,47.8932],[-1.4117,47.8936],[-1.4123,47.8956],[-1.4188,47.8959],[-1.4226,47.8976],[-1.4296,47.8986],[-1.4339,47.8978],[-1.4344,47.8990],[-1.4381,47.9003],[-1.4397,47.9030],[-1.4501,47.9043],[-1.4487,47.9063],[-1.4503,47.9065],[-1.4498,47.9076],[-1.4470,47.9079],[-1.4469,47.9066],[-1.4451,47.9063],[-1.4445,47.9080],[-1.4316,47.9056],[-1.4279,47.9064],[-1.4276,47.9055],[-1.4245,47.9059],[-1.4201,47.9086],[-1.4196,47.9119],[-1.4151,47.9095],[-1.4127,47.9100],[-1.4096,47.9137],[-1.4061,47.9119]]]}},{"type":"Feature","properties":{"name":"Forêt de Bourgouët"},"geometry":{"type":"Polygon","coordinates":[[[-1.6374,48.3626],[-1.6393,48.3618],[-1.6368,48.3601],[-1.6368,48.3576],[-1.6346,48.3599],[-1.6335,48.3580],[-1.6280,48.3547],[-1.6272,48.3560],[-1.6250,48.3556],[-1.6234,48.3582],[-1.6221,48.3580],[-1.6241,48.3544],[-1.6203,48.3555],[-1.6130,48.3546],[-1.6135,48.3522],[-1.6102,48.3518],[-1.6082,48.3540],[-1.6044,48.3486],[-1.6079,48.3471],[-1.6086,48.3511],[-1.6101,48.3505],[-1.6088,48.3483],[-1.6164,48.3458],[-1.6173,48.3476],[-1.6199,48.3467],[-1.6189,48.3450],[-1.6203,48.3435],[-1.6229,48.3450],[-1.6240,48.3438],[-1.6240,48.3453],[-1.6323,48.3450],[-1.6238,48.3458],[-1.6249,48.3465],[-1.6322,48.3469],[-1.6374,48.3457],[-1.6395,48.3503],[-1.6364,48.3532],[-1.6358,48.3552],[-1.6368,48.3552],[-1.6451,48.3494],[-1.6438,48.3479],[-1.6449,48.3462],[-1.6506,48.3445],[-1.6539,48.3494],[-1.6562,48.3497],[-1.6556,48.3550],[-1.6579,48.3548],[-1.6571,48.3560],[-1.6592,48.3568],[-1.6642,48.3552],[-1.6619,48.3566],[-1.6627,48.3581],[-1.6648,48.3587],[-1.6660,48.3574],[-1.6695,48.3594],[-1.6721,48.3591],[-1.6728,48.3602],[-1.6705,48.3610],[-1.6714,48.3624],[-1.6694,48.3628],[-1.6714,48.3681],[-1.6817,48.3683],[-1.6802,48.3729],[-1.6804,48.3763],[-1.6780,48.3758],[-1.6769,48.3791],[-1.6746,48.3800],[-1.6722,48.3789],[-1.6656,48.3795],[-1.6637,48.3766],[-1.6615,48.3799],[-1.6600,48.3797],[-1.6610,48.3775],[-1.6552,48.3722],[-1.6510,48.3738],[-1.6518,48.3781],[-1.6503,48.3783],[-1.6506,48.3760],[-1.6481,48.3745],[-1.6470,48.3715],[-1.6437,48.3711],[-1.6395,48.3682],[-1.6339,48.3673],[-1.6351,48.3652],[-1.6410,48.3670],[-1.6490,48.3668],[-1.6480,48.3647],[-1.6467,48.3660],[-1.6422,48.3666],[-1.6367,48.3642],[-1.6374,48.3626]]]}},{"type":"Feature","properties":{"name":"Forêt domaniale du Mesnil"},"geometry":{"type":"Polygon","coordinates":[[[-1.8682,48.4938],[-1.8606,48.4976],[-1.8589,48.4946],[-1.8559,48.4946],[-1.8571,48.4939],[-1.8568,48.4909],[-1.8536,48.4900],[-1.8522,48.4913],[-1.8492,48.4883],[-1.8486,48.4826],[-1.8452,48.4799],[-1.8421,48.4821],[-1.8400,48.4822],[-1.8393,48.4782],[-1.8391,48.4795],[-1.8375,48.4792],[-1.8385,48.4790],[-1.8381,48.4770],[-1.8432,48.4730],[-1.8511,48.4699],[-1.8511,48.4689],[-1.8473,48.4686],[-1.8523,48.4656],[-1.8532,48.4641],[-1.8518,48.4635],[-1.8565,48.4628],[-1.8578,48.4633],[-1.8551,48.4650],[-1.8590,48.4640],[-1.8592,48.4653],[-1.8615,48.4651],[-1.8615,48.4699],[-1.8602,48.4712],[-1.8615,48.4728],[-1.8631,48.4706],[-1.8668,48.4721],[-1.8683,48.4709],[-1.8698,48.4726],[-1.8722,48.4715],[-1.8698,48.4730],[-1.8731,48.4732],[-1.8710,48.4738],[-1.8796,48.4772],[-1.8762,48.4781],[-1.8759,48.4762],[-1.8742,48.4765],[-1.8752,48.4810],[-1.8701,48.4818],[-1.8701,48.4830],[-1.8774,48.4819],[-1.8806,48.4846],[-1.8810,48.4865],[-1.8792,48.4864],[-1.8742,48.4907],[-1.8763,48.4904],[-1.8769,48.4933],[-1.8682,48.4938]]]}},{"type":"Feature","properties":{"name":"Forêt d\u0027Araize"},"geometry":{"type":"Polygon","coordinates":[[[-1.2716,47.7963],[-1.2664,47.7959],[-1.2627,47.7933],[-1.2621,47.7966],[-1.2540,47.7963],[-1.2505,47.7972],[-1.2461,47.8009],[-1.2408,47.8024],[-1.2370,47.7998],[-1.2375,47.7950],[-1.2351,47.7946],[-1.2383,47.7949],[-1.2407,47.7935],[-1.2448,47.7793],[-1.2624,47.7898],[-1.2457,47.7794],[-1.2494,47.7773],[-1.2655,47.7824],[-1.2661,47.7855],[-1.2601,47.7844],[-1.2577,47.7854],[-1.2584,47.7859],[-1.2655,47.7869],[-1.2668,47.7859],[-1.2734,47.7877],[-1.2717,47.7890],[-1.2752,47.7898],[-1.2744,47.7903],[-1.2683,47.7886],[-1.2620,47.7904],[-1.2579,47.7897],[-1.2618,47.7911],[-1.2580,47.7928],[-1.2585,47.7935],[-1.2645,47.7916],[-1.2716,47.7963]]]}},{"type":"Feature","properties":{"name":"Forêt domaniale de Villecartier"},"geometry":{"type":"Polygon","coordinates":[[[-1.5819,48.4836],[-1.5811,48.4826],[-1.5830,48.4818],[-1.5823,48.4800],[-1.5779,48.4811],[-1.5786,48.4824],[-1.5755,48.4827],[-1.5765,48.4866],[-1.5727,48.4880],[-1.5715,48.4873],[-1.5724,48.4894],[-1.5736,48.4894],[-1.5723,48.4902],[-1.5765,48.4948],[-1.5806,48.4932],[-1.5772,48.4957],[-1.5782,48.4973],[-1.5794,48.4960],[-1.5782,48.5014],[-1.5821,48.4995],[-1.5799,48.5027],[-1.5827,48.5035],[-1.5821,48.5044],[-1.5777,48.5040],[-1.5742,48.5067],[-1.5740,48.5022],[-1.5760,48.5021],[-1.5735,48.5003],[-1.5769,48.4965],[-1.5734,48.4942],[-1.5712,48.4947],[-1.5726,48.4933],[-1.5717,48.4901],[-1.5671,48.4913],[-1.5619,48.4859],[-1.5588,48.4870],[-1.5489,48.4849],[-1.5490,48.4840],[-1.5456,48.4849],[-1.5454,48.4833],[-1.5483,48.4818],[-1.5437,48.4832],[-1.5420,48.4806],[-1.5406,48.4825],[-1.5390,48.4782],[-1.5360,48.4780],[-1.5370,48.4698],[-1.5299,48.4665],[-1.5247,48.4656],[-1.5242,48.4648],[-1.5259,48.4639],[-1.5241,48.4592],[-1.5290,48.4602],[-1.5292,48.4581],[-1.5337,48.4569],[-1.5371,48.4579],[-1.5399,48.4558],[-1.5419,48.4577],[-1.5423,48.4600],[-1.5458,48.4617],[-1.5477,48.4602],[-1.5518,48.4606],[-1.5528,48.4595],[-1.5553,48.4624],[-1.5735,48.4619],[-1.5778,48.4655],[-1.5774,48.4601],[-1.5790,48.4592],[-1.5782,48.4570],[-1.5809,48.4587],[-1.5862,48.4585],[-1.5881,48.4640],[-1.5901,48.4642],[-1.5904,48.4651],[-1.5891,48.4653],[-1.5919,48.4699],[-1.5898,48.4708],[-1.5901,48.4765],[-1.5847,48.4790],[-1.5833,48.4838],[-1.5819,48.4836]]]}},{"type":"Feature","properties":{"name":"Forêt de la Bourdonnaye"},"geometry":{"type":"Polygon","coordinates":[[[-2.1911,47.8427],[-2.1918,47.8451],[-2.1961,47.8458],[-2.1956,47.8467],[-2.1983,47.8458],[-2.1980,47.8466],[-2.1997,47.8467],[-2.2046,47.8446],[-2.2069,47.8452],[-2.2088,47.8424],[-2.2074,47.8396],[-2.2056,47.8388],[-2.2001,47.8405],[-2.1991,47.8394],[-2.1983,47.8412],[-2.1953,47.8408],[-2.1933,47.8422],[-2.1910,47.8415],[-2.1913,47.8398],[-2.1882,47.8371],[-2.1871,47.8378],[-2.1891,47.8391],[-2.1825,47.8421],[-2.1823,47.8405],[-2.1854,47.8391],[-2.1826,47.8369],[-2.1838,47.8356],[-2.1855,47.8362],[-2.1838,47.8341],[-2.1924,47.8331],[-2.1976,47.8350],[-2.1977,47.8332],[-2.2001,47.8335],[-2.1999,47.8323],[-2.1941,47.8314],[-2.1929,47.8328],[-2.1879,47.8331],[-2.1859,47.8316],[-2.1833,47.8317],[-2.1813,47.8285],[-2.1755,47.8275],[-2.1773,47.8289],[-2.1767,47.8298],[-2.1733,47.8295],[-2.1739,47.8311],[-2.1758,47.8306],[-2.1753,47.8321],[-2.1684,47.8340],[-2.1674,47.8368],[-2.1657,47.8325],[-2.1639,47.8333],[-2.1660,47.8345],[-2.1641,47.8346],[-2.1636,47.8381],[-2.1599,47.8352],[-2.1558,47.8365],[-2.1564,47.8382],[-2.1613,47.8401],[-2.1561,47.8432],[-2.1579,47.8465],[-2.1572,47.8528],[-2.1464,47.8530],[-2.1472,47.8546],[-2.1443,47.8535],[-2.1436,47.8553],[-2.1448,47.8570],[-2.1425,47.8580],[-2.1434,47.8589],[-2.1442,47.8577],[-2.1481,47.8623],[-2.1474,47.8612],[-2.1485,47.8603],[-2.1494,47.8617],[-2.1513,47.8615],[-2.1526,47.8578],[-2.1543,47.8567],[-2.1627,47.8561],[-2.1628,47.8600],[-2.1610,47.8605],[-2.1637,47.8638],[-2.1621,47.8643],[-2.1626,47.8660],[-2.1598,47.8666],[-2.1606,47.8674],[-2.1567,47.8692],[-2.1583,47.8697],[-2.1572,47.8714],[-2.1537,47.8723],[-2.1568,47.8725],[-2.1615,47.8708],[-2.1619,47.8695],[-2.1607,47.8689],[-2.1635,47.8657],[-2.1680,47.8648],[-2.1683,47.8615],[-2.1658,47.8584],[-2.1671,47.8577],[-2.1746,47.8608],[-2.1731,47.8585],[-2.1762,47.8559],[-2.1797,47.8562],[-2.1802,47.8511],[-2.1842,47.8491],[-2.1815,47.8490],[-2.1854,47.8476],[-2.1844,47.8459],[-2.1821,47.8465],[-2.1835,47.8444],[-2.1911,47.8427]]]}},{"type":"Feature","properties":{"name":"La Forêt Pavée"},"geometry":{"type":"Polygon","coordinates":[[[-1.3909,47.6544],[-1.3825,47.6566],[-1.3850,47.6553],[-1.3802,47.6560],[-1.3808,47.6533],[-1.3799,47.6518],[-1.3817,47.6504],[-1.3817,47.6469],[-1.3749,47.6470],[-1.3714,47.6488],[-1.3701,47.6481],[-1.3677,47.6515],[-1.3642,47.6525],[-1.3657,47.6546],[-1.3646,47.6538],[-1.3626,47.6546],[-1.3624,47.6583],[-1.3597,47.6583],[-1.3570,47.6608],[-1.3541,47.6598],[-1.3530,47.6612],[-1.3512,47.6611],[-1.3507,47.6629],[-1.3564,47.6670],[-1.3621,47.6672],[-1.3620,47.6661],[-1.3639,47.6661],[-1.3637,47.6679],[-1.3660,47.6681],[-1.3654,47.6703],[-1.3682,47.6710],[-1.3696,47.6680],[-1.3797,47.6666],[-1.3802,47.6694],[-1.3822,47.6694],[-1.3847,47.6718],[-1.3907,47.6717],[-1.3938,47.6730],[-1.3946,47.6705],[-1.3924,47.6686],[-1.3924,47.6664],[-1.3941,47.6665],[-1.3949,47.6632],[-1.3966,47.6651],[-1.3973,47.6622],[-1.4025,47.6603],[-1.4030,47.6570],[-1.4139,47.6568],[-1.4222,47.6615],[-1.4248,47.6593],[-1.4254,47.6602],[-1.4272,47.6594],[-1.4261,47.6605],[-1.4293,47.6601],[-1.4346,47.6565],[-1.4380,47.6568],[-1.4395,47.6538],[-1.4392,47.6519],[-1.4351,47.6499],[-1.4313,47.6503],[-1.4231,47.6539],[-1.4172,47.6538],[-1.4137,47.6508],[-1.4066,47.6519],[-1.4022,47.6550],[-1.3909,47.6544]]]}},{"type":"Feature","properties":{"name":"Bois de Cranne"},"geometry":{"type":"Polygon","coordinates":[[[-1.7088,48.2641],[-1.6987,48.2640],[-1.6988,48.2620],[-1.7004,48.2619],[-1.7001,48.2600],[-1.6983,48.2602],[-1.6986,48.2613],[-1.6958,48.2616],[-1.6973,48.2624],[-1.6982,48.2653],[-1.6962,48.2657],[-1.6961,48.2644],[-1.6927,48.2664],[-1.6891,48.2663],[-1.6866,48.2708],[-1.6840,48.2707],[-1.6830,48.2683],[-1.6810,48.2683],[-1.6800,48.2667],[-1.6819,48.2640],[-1.6786,48.2630],[-1.6802,48.2620],[-1.6801,48.2605],[-1.6772,48.2592],[-1.6785,48.2591],[-1.6775,48.2577],[-1.6784,48.2577],[-1.6765,48.2568],[-1.6781,48.2566],[-1.6772,48.2560],[-1.6786,48.2547],[-1.6833,48.2556],[-1.6836,48.2538],[-1.6897,48.2568],[-1.6969,48.2575],[-1.7015,48.2565],[-1.7015,48.2576],[-1.7054,48.2585],[-1.7073,48.2575],[-1.7067,48.2586],[-1.7098,48.2579],[-1.7120,48.2594],[-1.7122,48.2574],[-1.7168,48.2580],[-1.7162,48.2573],[-1.7173,48.2565],[-1.7209,48.2585],[-1.7196,48.2618],[-1.7143,48.2633],[-1.7133,48.2650],[-1.7088,48.2641]]]}},{"type":"Feature","properties":{"name":"Forêt domaniale de Liffré"},"geometry":{"type":"Polygon","coordinates":[[[-1.4167,48.2154],[-1.4178,48.2167],[-1.4246,48.2175],[-1.4261,48.2154],[-1.4247,48.2130],[-1.4219,48.2126],[-1.4205,48.2098],[-1.4252,48.2074],[-1.4253,48.2058],[-1.4308,48.2053],[-1.4414,48.2105],[-1.4477,48.2065],[-1.4526,48.2094],[-1.4520,48.2126],[-1.4496,48.2146],[-1.4693,48.2235],[-1.4675,48.2243],[-1.4691,48.2252],[-1.4694,48.2235],[-1.4803,48.2279],[-1.4657,48.2360],[-1.4633,48.2331],[-1.4610,48.2326],[-1.4613,48.2306],[-1.4591,48.2294],[-1.4595,48.2280],[-1.4477,48.2254],[-1.4481,48.2291],[-1.4470,48.2304],[-1.4415,48.2288],[-1.4377,48.2296],[-1.4306,48.2281],[-1.4261,48.2301],[-1.4217,48.2295],[-1.4204,48.2313],[-1.4220,48.2319],[-1.4211,48.2330],[-1.4157,48.2301],[-1.4124,48.2306],[-1.4180,48.2264],[-1.4173,48.2255],[-1.4130,48.2245],[-1.4111,48.2257],[-1.4167,48.2154]]]}},{"type":"Feature","properties":{"name":"Forêt de Chevré"},"geometry":{"type":"Polygon","coordinates":[[[-1.4173,48.1462],[-1.4137,48.1433],[-1.4123,48.1442],[-1.4123,48.1428],[-1.4113,48.1428],[-1.4120,48.1465],[-1.4101,48.1456],[-1.4058,48.1473],[-1.4040,48.1465],[-1.4099,48.1547],[-1.4130,48.1533],[-1.4161,48.1539],[-1.4148,48.1553],[-1.4102,48.1551],[-1.4203,48.1618],[-1.4267,48.1613],[-1.4319,48.1590],[-1.4352,48.1612],[-1.4404,48.1613],[-1.4411,48.1597],[-1.4426,48.1599],[-1.4418,48.1617],[-1.4406,48.1614],[-1.4394,48.1644],[-1.4472,48.1657],[-1.4517,48.1677],[-1.4513,48.1685],[-1.4534,48.1655],[-1.4678,48.1694],[-1.4706,48.1637],[-1.4733,48.1653],[-1.4790,48.1651],[-1.4792,48.1667],[-1.4780,48.1667],[-1.4904,48.1683],[-1.4969,48.1719],[-1.4977,48.1703],[-1.4994,48.1727],[-1.5013,48.1711],[-1.4985,48.1694],[-1.4980,48.1673],[-1.4938,48.1671],[-1.4905,48.1655],[-1.4911,48.1624],[-1.4873,48.1617],[-1.4890,48.1608],[-1.4860,48.1602],[-1.4863,48.1585],[-1.4834,48.1548],[-1.4716,48.1540],[-1.4687,48.1519],[-1.4711,48.1496],[-1.4687,48.1496],[-1.4693,48.1486],[-1.4681,48.1470],[-1.4697,48.1476],[-1.4698,48.1465],[-1.4667,48.1462],[-1.4641,48.1432],[-1.4658,48.1398],[-1.4636,48.1386],[-1.4631,48.1367],[-1.4555,48.1418],[-1.4534,48.1417],[-1.4534,48.1408],[-1.4520,48.1417],[-1.4508,48.1404],[-1.4456,48.1409],[-1.4444,48.1363],[-1.4408,48.1390],[-1.4377,48.1374],[-1.4378,48.1341],[-1.4373,48.1365],[-1.4367,48.1342],[-1.4357,48.1342],[-1.4361,48.1371],[-1.4342,48.1372],[-1.4341,48.1386],[-1.4305,48.1387],[-1.4294,48.1398],[-1.4304,48.1410],[-1.4255,48.1414],[-1.4261,48.1421],[-1.4192,48.1458],[-1.4190,48.1488],[-1.4173,48.1462]]]}},{"type":"Feature","properties":{"name":"Bois de Putenöe"},"geometry":{"type":"Polygon","coordinates":[[[-2.0323,48.0999],[-2.0322,48.0982],[-2.0342,48.0970],[-2.0311,48.0963],[-2.0303,48.0944],[-2.0315,48.0936],[-2.0281,48.0929],[-2.0286,48.0947],[-2.0262,48.0953],[-2.0228,48.0938],[-2.0236,48.0927],[-2.0210,48.0937],[-2.0175,48.0916],[-2.0132,48.0918],[-2.0164,48.0868],[-2.0144,48.0836],[-2.0157,48.0827],[-2.0199,48.0835],[-2.0198,48.0819],[-2.0209,48.0825],[-2.0197,48.0845],[-2.0276,48.0844],[-2.0291,48.0823],[-2.0287,48.0793],[-2.0386,48.0772],[-2.0355,48.0802],[-2.0367,48.0822],[-2.0394,48.0829],[-2.0355,48.0848],[-2.0359,48.0864],[-2.0337,48.0864],[-2.0361,48.0877],[-2.0343,48.0882],[-2.0340,48.0904],[-2.0466,48.0937],[-2.0444,48.0963],[-2.0456,48.0967],[-2.0461,48.0994],[-2.0428,48.0992],[-2.0414,48.1009],[-2.0417,48.0989],[-2.0381,48.0997],[-2.0381,48.1026],[-2.0395,48.1028],[-2.0370,48.1025],[-2.0365,48.1006],[-2.0320,48.1015],[-2.0319,48.1030],[-2.0332,48.1025],[-2.0334,48.1038],[-2.0272,48.1021],[-2.0323,48.0999]]]}},{"type":"Feature","properties":{"name":"Forêt de Teillay"},"geometry":{"type":"Polygon","coordinates":[[[-1.5039,47.7886],[-1.5014,47.7876],[-1.4906,47.7888],[-1.4902,47.7910],[-1.4880,47.7919],[-1.4877,47.7943],[-1.4841,47.7950],[-1.4830,47.7944],[-1.4835,47.7923],[-1.4816,47.7906],[-1.4751,47.7913],[-1.4749,47.7929],[-1.4677,47.7940],[-1.4715,47.7978],[-1.4688,47.7989],[-1.4694,47.8001],[-1.4707,47.7992],[-1.4706,47.8004],[-1.4727,47.8004],[-1.4730,47.8022],[-1.4850,47.8004],[-1.4859,47.8032],[-1.4875,47.8024],[-1.4861,47.8001],[-1.4913,47.8008],[-1.4911,47.7982],[-1.5001,47.7983],[-1.5030,47.8019],[-1.5108,47.8020],[-1.5132,47.8043],[-1.5127,47.8051],[-1.5208,47.8067],[-1.5208,47.8045],[-1.5251,47.8056],[-1.5333,47.8051],[-1.5342,47.8013],[-1.5375,47.8030],[-1.5398,47.8005],[-1.5406,47.8008],[-1.5394,47.8018],[-1.5412,47.8040],[-1.5446,47.8031],[-1.5497,47.8053],[-1.5517,47.8048],[-1.5510,47.8003],[-1.5535,47.7980],[-1.5536,47.7955],[-1.5504,47.7946],[-1.5504,47.7922],[-1.5533,47.7886],[-1.5583,47.7873],[-1.5600,47.7891],[-1.5586,47.7897],[-1.5610,47.7903],[-1.5683,47.7873],[-1.5600,47.7827],[-1.5645,47.7798],[-1.5780,47.7778],[-1.5823,47.7781],[-1.5829,47.7799],[-1.5885,47.7797],[-1.5901,47.7785],[-1.5938,47.7819],[-1.5985,47.7821],[-1.6006,47.7835],[-1.5982,47.7852],[-1.6021,47.7854],[-1.6036,47.7875],[-1.6084,47.7874],[-1.6091,47.7884],[-1.6068,47.7886],[-1.6097,47.7907],[-1.6151,47.7830],[-1.6116,47.7788],[-1.6045,47.7806],[-1.5972,47.7801],[-1.5975,47.7781],[-1.5926,47.7760],[-1.5943,47.7750],[-1.5943,47.7724],[-1.5964,47.7713],[-1.5934,47.7675],[-1.5977,47.7664],[-1.5953,47.7630],[-1.5891,47.7586],[-1.5852,47.7577],[-1.5717,47.7609],[-1.5551,47.7583],[-1.5553,47.7629],[-1.5576,47.7698],[-1.5544,47.7711],[-1.5518,47.7700],[-1.5512,47.7743],[-1.5477,47.7754],[-1.5363,47.7725],[-1.5354,47.7701],[-1.5298,47.7708],[-1.5297,47.7689],[-1.5314,47.7667],[-1.5307,47.7646],[-1.5259,47.7613],[-1.5217,47.7614],[-1.5224,47.7655],[-1.5192,47.7657],[-1.5165,47.7716],[-1.5245,47.7719],[-1.5240,47.7729],[-1.5257,47.7745],[-1.5252,47.7767],[-1.5180,47.7781],[-1.5169,47.7794],[-1.5184,47.7817],[-1.5171,47.7831],[-1.5082,47.7842],[-1.5091,47.7864],[-1.5049,47.7871],[-1.5039,47.7886]]]}},{"type":"Feature","properties":{"name":"Bois Du Haut de Tanouarn"},"geometry":{"type":"Polygon","coordinates":[[[-1.7645,48.3066],[-1.7680,48.3032],[-1.7720,48.3020],[-1.7720,48.3033],[-1.7673,48.3051],[-1.7679,48.3067],[-1.7618,48.3087],[-1.7611,48.3105],[-1.7630,48.3114],[-1.7636,48.3139],[-1.7627,48.3159],[-1.7601,48.3175],[-1.7625,48.3185],[-1.7593,48.3183],[-1.7578,48.3217],[-1.7714,48.3227],[-1.7723,48.3240],[-1.7692,48.3252],[-1.7708,48.3257],[-1.7701,48.3271],[-1.7732,48.3295],[-1.7742,48.3281],[-1.7749,48.3313],[-1.7794,48.3323],[-1.7773,48.3343],[-1.7777,48.3363],[-1.7812,48.3360],[-1.7811,48.3384],[-1.7697,48.3430],[-1.7707,48.3442],[-1.7690,48.3447],[-1.7762,48.3471],[-1.7773,48.3496],[-1.7725,48.3490],[-1.7688,48.3504],[-1.7692,48.3515],[-1.7612,48.3495],[-1.7589,48.3512],[-1.7587,48.3500],[-1.7562,48.3502],[-1.7553,48.3484],[-1.7513,48.3478],[-1.7510,48.3510],[-1.7500,48.3510],[-1.7461,48.3498],[-1.7469,48.3459],[-1.7455,48.3437],[-1.7472,48.3414],[-1.7454,48.3426],[-1.7317,48.3437],[-1.7296,48.3456],[-1.7258,48.3450],[-1.7267,48.3437],[-1.7285,48.3439],[-1.7305,48.3408],[-1.7321,48.3413],[-1.7348,48.3366],[-1.7432,48.3354],[-1.7432,48.3311],[-1.7413,48.3256],[-1.7470,48.3268],[-1.7549,48.3230],[-1.7536,48.3202],[-1.7448,48.3208],[-1.7447,48.3191],[-1.7430,48.3188],[-1.7435,48.3175],[-1.7491,48.3165],[-1.7475,48.3134],[-1.7253,48.3116],[-1.7538,48.3125],[-1.7610,48.3159],[-1.7626,48.3149],[-1.7629,48.3129],[-1.7610,48.3087],[-1.7645,48.3066]]]}}]}