{"type":"FeatureCollection","features":[{"type":"Feature","properties":{"name":"Bois de Paillet"},"geometry":{"type":"Polygon","coordinates":[[[1.1560,46.5369],[1.1591,46.5340],[1.1570,46.5335],[1.1586,46.5321],[1.1638,46.5380],[1.1676,46.5352],[1.1681,46.5343],[1.1651,46.5340],[1.1640,46.5305],[1.1670,46.5296],[1.1660,46.5282],[1.1675,46.5279],[1.1670,46.5254],[1.1681,46.5227],[1.1623,46.5198],[1.1634,46.5150],[1.1658,46.5183],[1.1704,46.5183],[1.1686,46.5168],[1.1686,46.5137],[1.1669,46.5127],[1.1635,46.5146],[1.1542,46.5044],[1.1570,46.5037],[1.1548,46.5030],[1.1566,46.4968],[1.1550,46.4963],[1.1537,46.4985],[1.1515,46.4986],[1.1510,46.5000],[1.1468,46.4980],[1.1477,46.4966],[1.1460,46.4958],[1.1484,46.4917],[1.1498,46.4921],[1.1506,46.4909],[1.1493,46.4905],[1.1501,46.4884],[1.1477,46.4880],[1.1456,46.4935],[1.1417,46.4929],[1.1414,46.4944],[1.1214,46.4934],[1.1208,46.4946],[1.1267,46.4973],[1.1269,46.4942],[1.1283,46.4934],[1.1294,46.4973],[1.1325,46.5000],[1.1385,46.4998],[1.1357,46.5038],[1.1387,46.5038],[1.1424,46.5124],[1.1451,46.5140],[1.1427,46.5152],[1.1316,46.5140],[1.1239,46.5159],[1.1224,46.5201],[1.1398,46.5339],[1.1454,46.5352],[1.1437,46.5358],[1.1449,46.5376],[1.1469,46.5371],[1.1467,46.5351],[1.1503,46.5346],[1.1502,46.5334],[1.1523,46.5326],[1.1560,46.5369]]]}},{"type":"Feature","properties":{"name":"Forêt de Saint-Paul"},"geometry":{"type":"Polygon","coordinates":[[[1.6063,47.0602],[1.6020,47.0620],[1.6002,47.0662],[1.5977,47.0669],[1.5967,47.0688],[1.5936,47.0696],[1.5969,47.0709],[1.6003,47.0767],[1.5980,47.0762],[1.5987,47.0752],[1.5970,47.0739],[1.5911,47.0727],[1.5849,47.0802],[1.5832,47.0915],[1.5845,47.0918],[1.5887,47.0873],[1.5849,47.0919],[1.5862,47.0912],[1.5932,47.0928],[1.5960,47.0890],[1.5936,47.0929],[1.6027,47.0936],[1.6075,47.0876],[1.6071,47.0848],[1.6081,47.0844],[1.6064,47.0812],[1.6103,47.0806],[1.6114,47.0825],[1.6129,47.0819],[1.6144,47.0787],[1.6141,47.0756],[1.6106,47.0617],[1.6063,47.0602]]]}},{"type":"Feature","properties":{"name":"Bois des Tailles"},"geometry":{"type":"Polygon","coordinates":[[[1.1958,46.5746],[1.1996,46.5751],[1.2013,46.5719],[1.1953,46.5723],[1.1953,46.5681],[1.1917,46.5676],[1.1857,46.5624],[1.1782,46.5631],[1.1767,46.5606],[1.1751,46.5613],[1.1699,46.5580],[1.1720,46.5632],[1.1679,46.5646],[1.1680,46.5668],[1.1655,46.5669],[1.1643,46.5642],[1.1648,46.5657],[1.1629,46.5665],[1.1640,46.5672],[1.1625,46.5684],[1.1645,46.5717],[1.1668,46.5710],[1.1668,46.5687],[1.1713,46.5681],[1.1746,46.5708],[1.1758,46.5695],[1.1793,46.5694],[1.1797,46.5707],[1.1816,46.5709],[1.1822,46.5699],[1.1860,46.5735],[1.1898,46.5717],[1.1958,46.5746]]]}},{"type":"Feature","properties":{"name":"Impasse de la Garenne"},"geometry":{"type":"Polygon","coordinates":[[[1.4039,46.6042],[1.4032,46.6054],[1.4053,46.6067],[1.4134,46.6052],[1.4100,46.6073],[1.4130,46.6076],[1.4119,46.6082],[1.4131,46.6092],[1.4145,46.6085],[1.4133,46.6076],[1.4177,46.6058],[1.4185,46.6065],[1.4174,46.6073],[1.4191,46.6067],[1.4210,46.6085],[1.4245,46.6065],[1.4273,46.6078],[1.4310,46.6048],[1.4332,46.6048],[1.4339,46.6094],[1.4359,46.6086],[1.4371,46.6097],[1.4357,46.6133],[1.4375,46.6139],[1.4390,46.6128],[1.4412,46.6152],[1.4429,46.6119],[1.4415,46.6120],[1.4418,46.6103],[1.4456,46.6099],[1.4473,46.6066],[1.4487,46.6074],[1.4525,46.6055],[1.4555,46.6065],[1.4569,46.6025],[1.4600,46.6026],[1.4604,46.6005],[1.4587,46.5994],[1.4587,46.5969],[1.4567,46.5961],[1.4550,46.5970],[1.4557,46.5958],[1.4534,46.5941],[1.4423,46.5941],[1.4430,46.5952],[1.4409,46.5963],[1.4417,46.5971],[1.4342,46.5984],[1.4335,46.5969],[1.4279,46.5972],[1.4234,46.5988],[1.4234,46.6002],[1.4215,46.6006],[1.4222,46.6023],[1.4206,46.6025],[1.4190,46.6000],[1.4121,46.6012],[1.4117,46.6026],[1.4111,46.6004],[1.4060,46.5997],[1.4036,46.6015],[1.4039,46.6042]]]}},{"type":"Feature","properties":{"name":"Bois de Chanteloube"},"geometry":{"type":"Polygon","coordinates":[[[1.8811,46.6913],[1.8801,46.6844],[1.8854,46.6822],[1.8819,46.6814],[1.8809,46.6829],[1.8821,46.6801],[1.8859,46.6806],[1.8841,46.6804],[1.8841,46.6781],[1.8804,46.6780],[1.8798,46.6796],[1.8777,46.6791],[1.8778,46.6780],[1.8749,46.6763],[1.8766,46.6760],[1.8757,46.6747],[1.8769,46.6745],[1.8765,46.6724],[1.8620,46.6734],[1.8644,46.6780],[1.8662,46.6786],[1.8651,46.6802],[1.8640,46.6798],[1.8628,46.6827],[1.8647,46.6852],[1.8632,46.6876],[1.8660,46.6905],[1.8643,46.6904],[1.8644,46.6933],[1.8674,46.6946],[1.8640,46.6962],[1.8641,46.6971],[1.8717,46.6942],[1.8731,46.6954],[1.8738,46.6945],[1.8719,46.6918],[1.8795,46.6905],[1.8811,46.6913]]]}},{"type":"Feature","properties":{"name":"Forêt de Gâtine"},"geometry":{"type":"Polygon","coordinates":[[[1.5443,47.1640],[1.5483,47.1649],[1.5510,47.1641],[1.5464,47.1613],[1.5442,47.1620],[1.5449,47.1632],[1.5418,47.1637],[1.5380,47.1602],[1.5354,47.1597],[1.5381,47.1567],[1.5360,47.1575],[1.5362,47.1558],[1.5309,47.1549],[1.5280,47.1577],[1.5269,47.1569],[1.5274,47.1558],[1.5246,47.1562],[1.5250,47.1546],[1.5118,47.1530],[1.5062,47.1509],[1.5056,47.1504],[1.5077,47.1495],[1.5018,47.1437],[1.5009,47.1443],[1.4964,47.1405],[1.4993,47.1395],[1.4989,47.1379],[1.4959,47.1375],[1.4996,47.1350],[1.4962,47.1318],[1.4977,47.1306],[1.4957,47.1295],[1.4936,47.1311],[1.4883,47.1306],[1.4825,47.1376],[1.4858,47.1389],[1.4840,47.1379],[1.4843,47.1356],[1.4915,47.1394],[1.4893,47.1413],[1.4903,47.1457],[1.4895,47.1494],[1.4949,47.1540],[1.4907,47.1609],[1.4921,47.1641],[1.4907,47.1689],[1.4911,47.1798],[1.4878,47.1805],[1.4878,47.1778],[1.4832,47.1804],[1.4820,47.1834],[1.4806,47.1831],[1.4811,47.1845],[1.4828,47.1843],[1.4783,47.1851],[1.4775,47.1867],[1.4857,47.1848],[1.4848,47.1875],[1.4893,47.1877],[1.4911,47.1894],[1.4949,47.1900],[1.4986,47.1959],[1.4987,47.2013],[1.5040,47.2027],[1.5031,47.2042],[1.5086,47.2043],[1.5067,47.2020],[1.5093,47.1999],[1.5101,47.2006],[1.5088,47.2026],[1.5109,47.2029],[1.5133,47.2014],[1.5111,47.2006],[1.5116,47.1998],[1.5197,47.1998],[1.5207,47.1987],[1.5186,47.1965],[1.5197,47.1952],[1.5185,47.1944],[1.5260,47.1915],[1.5306,47.1935],[1.5311,47.1950],[1.5299,47.1953],[1.5311,47.1970],[1.5275,47.1970],[1.5272,47.1979],[1.5318,47.2032],[1.5358,47.2027],[1.5361,47.2013],[1.5367,47.2024],[1.5357,47.1976],[1.5386,47.1967],[1.5389,47.1937],[1.5566,47.1672],[1.5521,47.1656],[1.5540,47.1665],[1.5535,47.1677],[1.5479,47.1690],[1.5443,47.1641],[1.5426,47.1642],[1.5443,47.1640]]]}},{"type":"Feature","properties":{"name":"Forêt de Choussy"},"geometry":{"type":"Polygon","coordinates":[[[1.4282,47.3170],[1.4318,47.3145],[1.4360,47.3143],[1.4377,47.3124],[1.4412,47.3134],[1.4431,47.3157],[1.4424,47.3168],[1.4471,47.3165],[1.4490,47.3193],[1.4506,47.3188],[1.4522,47.3202],[1.4518,47.3181],[1.4555,47.3170],[1.4570,47.3190],[1.4548,47.3204],[1.4601,47.3216],[1.4607,47.3177],[1.4597,47.3176],[1.4595,47.3207],[1.4559,47.3207],[1.4590,47.3178],[1.4556,47.3150],[1.4580,47.3144],[1.4603,47.3158],[1.4610,47.3145],[1.4586,47.3130],[1.4537,47.3152],[1.4509,47.3150],[1.4458,47.3120],[1.4468,47.3108],[1.4491,47.3114],[1.4496,47.3106],[1.4474,47.3090],[1.4518,47.3081],[1.4534,47.3058],[1.4548,47.3063],[1.4540,47.3077],[1.4557,47.3082],[1.4561,47.3048],[1.4574,47.3050],[1.4584,47.3011],[1.4597,47.3007],[1.4571,47.2995],[1.4611,47.2985],[1.4657,47.2943],[1.4724,47.2936],[1.4736,47.2922],[1.4609,47.2909],[1.4608,47.2920],[1.4629,47.2922],[1.4624,47.2934],[1.4595,47.2934],[1.4579,47.2928],[1.4579,47.2914],[1.4601,47.2883],[1.4664,47.2883],[1.4663,47.2909],[1.4678,47.2911],[1.4682,47.2888],[1.4731,47.2901],[1.4725,47.2915],[1.4746,47.2911],[1.4728,47.2875],[1.4682,47.2847],[1.4690,47.2831],[1.4676,47.2817],[1.4666,47.2836],[1.4643,47.2827],[1.4640,47.2841],[1.4657,47.2844],[1.4635,47.2870],[1.4621,47.2856],[1.4602,47.2872],[1.4458,47.2827],[1.4467,47.2805],[1.4446,47.2819],[1.4430,47.2809],[1.4417,47.2820],[1.4370,47.2820],[1.4369,47.2811],[1.4349,47.2857],[1.4363,47.2897],[1.4350,47.2917],[1.4324,47.2909],[1.4338,47.2891],[1.4315,47.2874],[1.4234,47.2850],[1.4205,47.2825],[1.4132,47.2819],[1.4117,47.2826],[1.4140,47.2854],[1.4113,47.2861],[1.4084,47.2853],[1.4091,47.2877],[1.4019,47.2871],[1.4034,47.2877],[1.4019,47.2884],[1.4000,47.2874],[1.4006,47.2939],[1.3995,47.2947],[1.3948,47.2944],[1.3953,47.2932],[1.3938,47.2931],[1.3889,47.2949],[1.3855,47.2943],[1.3897,47.2958],[1.3891,47.2978],[1.3855,47.2977],[1.3882,47.2993],[1.3858,47.3038],[1.3832,47.3041],[1.3808,47.3029],[1.3824,47.3024],[1.3777,47.2998],[1.3743,47.3022],[1.3765,47.3040],[1.3775,47.3038],[1.3767,47.3023],[1.3794,47.3031],[1.3812,47.3060],[1.3789,47.3065],[1.3857,47.3070],[1.3858,47.3079],[1.3838,47.3079],[1.3875,47.3109],[1.3865,47.3115],[1.3875,47.3142],[1.3843,47.3145],[1.3842,47.3157],[1.3904,47.3169],[1.3930,47.3157],[1.3913,47.3143],[1.3921,47.3131],[1.3908,47.3130],[1.3908,47.3113],[1.3927,47.3108],[1.3923,47.3081],[1.3860,47.3074],[1.3896,47.3072],[1.3890,47.3063],[1.3907,47.3059],[1.3906,47.3072],[1.4001,47.3083],[1.3980,47.3085],[1.3987,47.3106],[1.3979,47.3093],[1.3985,47.3108],[1.3969,47.3113],[1.3969,47.3130],[1.3976,47.3112],[1.3989,47.3129],[1.4033,47.3105],[1.4008,47.3130],[1.4029,47.3146],[1.4041,47.3127],[1.4031,47.3118],[1.4056,47.3102],[1.4004,47.3084],[1.4060,47.3091],[1.4203,47.3142],[1.4077,47.3109],[1.4079,47.3124],[1.4127,47.3144],[1.4172,47.3146],[1.4153,47.3163],[1.4179,47.3146],[1.4181,47.3159],[1.4202,47.3164],[1.4227,47.3154],[1.4251,47.3177],[1.4282,47.3170]]]}},{"type":"Feature","properties":{"name":"Forêt Domaniale de Thoux"},"geometry":{"type":"Polygon","coordinates":[[[2.3015,46.8725],[2.3030,46.8705],[2.3050,46.8705],[2.3044,46.8713],[2.3060,46.8699],[2.3009,46.8688],[2.2973,46.8662],[2.2956,46.8672],[2.2968,46.8658],[2.2940,46.8636],[2.2941,46.8685],[2.2902,46.8706],[2.2891,46.8728],[2.2854,46.8720],[2.2843,46.8698],[2.2869,46.8667],[2.2871,46.8644],[2.2858,46.8639],[2.2867,46.8657],[2.2846,46.8651],[2.2854,46.8640],[2.2846,46.8633],[2.2861,46.8629],[2.2792,46.8598],[2.2800,46.8585],[2.2781,46.8590],[2.2752,46.8564],[2.2764,46.8553],[2.2745,46.8559],[2.2749,46.8538],[2.2769,46.8529],[2.2755,46.8519],[2.2729,46.8516],[2.2723,46.8526],[2.2738,46.8550],[2.2702,46.8559],[2.2726,46.8569],[2.2701,46.8598],[2.2724,46.8603],[2.2722,46.8612],[2.2658,46.8640],[2.2668,46.8654],[2.2650,46.8669],[2.2581,46.8676],[2.2493,46.8637],[2.2524,46.8599],[2.2529,46.8554],[2.2497,46.8535],[2.2556,46.8513],[2.2516,46.8489],[2.2499,46.8462],[2.2462,46.8450],[2.2427,46.8466],[2.2420,46.8548],[2.2390,46.8609],[2.2369,46.8620],[2.2335,46.8587],[2.2307,46.8607],[2.2351,46.8625],[2.2407,46.8628],[2.2431,46.8711],[2.2410,46.8716],[2.2318,46.8649],[2.2336,46.8630],[2.2298,46.8618],[2.2262,46.8634],[2.2267,46.8666],[2.2242,46.8661],[2.2253,46.8623],[2.2183,46.8634],[2.2177,46.8646],[2.2123,46.8673],[2.2100,46.8669],[2.2080,46.8689],[2.2036,46.8653],[2.2054,46.8607],[2.2015,46.8609],[2.2025,46.8574],[2.2072,46.8564],[2.2078,46.8539],[2.2118,46.8556],[2.2125,46.8518],[2.2096,46.8512],[2.2099,46.8501],[2.2063,46.8474],[2.2033,46.8496],[2.2000,46.8470],[2.1944,46.8461],[2.1938,46.8470],[2.1984,46.8500],[2.1930,46.8538],[2.1905,46.8522],[2.1935,46.8468],[2.1871,46.8452],[2.1875,46.8461],[2.1858,46.8459],[2.1867,46.8430],[2.1824,46.8457],[2.1792,46.8442],[2.1770,46.8447],[2.1751,46.8429],[2.1763,46.8405],[2.1734,46.8420],[2.1691,46.8399],[2.1693,46.8388],[2.1743,46.8389],[2.1747,46.8371],[2.1791,46.8366],[2.1776,46.8356],[2.1804,46.8366],[2.1815,46.8351],[2.1767,46.8328],[2.1694,46.8318],[2.1604,46.8330],[2.1615,46.8340],[2.1608,46.8355],[2.1624,46.8363],[2.1609,46.8376],[2.1575,46.8364],[2.1584,46.8318],[2.1513,46.8302],[2.1520,46.8329],[2.1544,46.8327],[2.1497,46.8338],[2.1572,46.8358],[2.1559,46.8397],[2.1573,46.8401],[2.1581,46.8439],[2.1518,46.8433],[2.1493,46.8444],[2.1477,46.8435],[2.1497,46.8418],[2.1491,46.8411],[2.1382,46.8460],[2.1566,46.8554],[2.1550,46.8565],[2.1487,46.8532],[2.1528,46.8562],[2.1524,46.8580],[2.1510,46.8579],[2.1535,46.8591],[2.1512,46.8616],[2.1483,46.8624],[2.1491,46.8605],[2.1464,46.8587],[2.1462,46.8571],[2.1384,46.8542],[2.1418,46.8499],[2.1341,46.8440],[2.1349,46.8419],[2.1371,46.8440],[2.1379,46.8396],[2.1438,46.8390],[2.1420,46.8372],[2.1379,46.8391],[2.1332,46.8365],[2.1324,46.8375],[2.1338,46.8407],[2.1314,46.8393],[2.1319,46.8408],[2.1293,46.8410],[2.1293,46.8432],[2.1255,46.8424],[2.1260,46.8435],[2.1283,46.8431],[2.1257,46.8471],[2.1274,46.8478],[2.1260,46.8502],[2.1221,46.8510],[2.1233,46.8538],[2.1199,46.8537],[2.1201,46.8557],[2.1273,46.8620],[2.1368,46.8651],[2.1403,46.8679],[2.1430,46.8670],[2.1440,46.8682],[2.1428,46.8695],[2.1442,46.8684],[2.1496,46.8703],[2.1492,46.8690],[2.1507,46.8686],[2.1497,46.8674],[2.1513,46.8669],[2.1539,46.8688],[2.1564,46.8631],[2.1541,46.8640],[2.1538,46.8654],[2.1520,46.8641],[2.1528,46.8655],[2.1506,46.8659],[2.1512,46.8632],[2.1498,46.8657],[2.1465,46.8654],[2.1466,46.8645],[2.1481,46.8635],[2.1490,46.8642],[2.1489,46.8629],[2.1496,46.8642],[2.1520,46.8624],[2.1540,46.8629],[2.1545,46.8608],[2.1581,46.8595],[2.1589,46.8586],[2.1567,46.8566],[2.1594,46.8575],[2.1586,46.8555],[2.1627,46.8495],[2.1657,46.8487],[2.1635,46.8473],[2.1633,46.8440],[2.1675,46.8418],[2.1761,46.8470],[2.1806,46.8524],[2.1877,46.8496],[2.1873,46.8534],[2.1831,46.8552],[2.1840,46.8565],[2.1821,46.8576],[2.1782,46.8589],[2.1765,46.8577],[2.1779,46.8552],[2.1778,46.8510],[2.1756,46.8484],[2.1742,46.8501],[2.1767,46.8521],[2.1759,46.8563],[2.1743,46.8585],[2.1707,46.8597],[2.1779,46.8610],[2.1773,46.8627],[2.1788,46.8637],[2.1819,46.8629],[2.1861,46.8640],[2.1837,46.8661],[2.1873,46.8680],[2.1865,46.8692],[2.1846,46.8687],[2.1839,46.8704],[2.1854,46.8704],[2.1889,46.8728],[2.1887,46.8745],[2.1917,46.8757],[2.1925,46.8790],[2.1950,46.8800],[2.1942,46.8828],[2.1969,46.8858],[2.1989,46.8861],[2.2030,46.8816],[2.2080,46.8850],[2.2109,46.8846],[2.2149,46.8782],[2.2131,46.8774],[2.2166,46.8734],[2.2163,46.8767],[2.2265,46.8762],[2.2295,46.8844],[2.2156,46.9004],[2.2135,46.9001],[2.2141,46.9017],[2.2155,46.9017],[2.2155,46.9045],[2.2171,46.9046],[2.2176,46.9073],[2.2154,46.9078],[2.2191,46.9116],[2.2183,46.9122],[2.2216,46.9128],[2.2226,46.9149],[2.2256,46.9150],[2.2301,46.9184],[2.2299,46.9194],[2.2351,46.9206],[2.2355,46.9235],[2.2283,46.9262],[2.2264,46.9286],[2.2276,46.9296],[2.2259,46.9331],[2.2392,46.9328],[2.2373,46.9320],[2.2378,46.9295],[2.2412,46.9276],[2.2408,46.9260],[2.2514,46.9282],[2.2574,46.9317],[2.2524,46.9297],[2.2567,46.9331],[2.2605,46.9323],[2.2592,46.9274],[2.2562,46.9246],[2.2512,46.9281],[2.2456,46.9263],[2.2431,46.9219],[2.2479,46.9201],[2.2450,46.9165],[2.2462,46.9152],[2.2500,46.9163],[2.2554,46.9205],[2.2602,46.9135],[2.2655,46.9164],[2.2665,46.9198],[2.2721,46.9241],[2.2682,46.9203],[2.2728,46.9226],[2.2754,46.9203],[2.2836,46.9185],[2.2811,46.9177],[2.2816,46.9191],[2.2758,46.9196],[2.2704,46.9167],[2.2720,46.9147],[2.2667,46.9140],[2.2663,46.9160],[2.2611,46.9132],[2.2622,46.9115],[2.2653,46.9108],[2.2735,46.9122],[2.2759,46.9104],[2.2808,46.9123],[2.2873,46.9120],[2.2867,46.9145],[2.2879,46.9148],[2.2894,46.9068],[2.2924,46.9028],[2.2961,46.9021],[2.2967,46.9041],[2.2944,46.9051],[2.2970,46.9045],[2.2973,46.9025],[2.2941,46.8980],[2.2964,46.8966],[2.2940,46.8962],[2.2934,46.9015],[2.2900,46.9017],[2.2895,46.9036],[2.2836,46.9024],[2.2825,46.8998],[2.2799,46.8981],[2.2830,46.8964],[2.2805,46.8955],[2.2776,46.8987],[2.2795,46.8999],[2.2764,46.9000],[2.2764,46.8990],[2.2673,46.8966],[2.2708,46.8949],[2.2734,46.8958],[2.2745,46.8931],[2.2836,46.8948],[2.2845,46.8936],[2.2835,46.8933],[2.2849,46.8925],[2.2870,46.8934],[2.2864,46.8944],[2.2880,46.8941],[2.2888,46.8966],[2.2925,46.8968],[2.2965,46.8897],[2.2935,46.8895],[2.2926,46.8882],[2.2929,46.8896],[2.2953,46.8909],[2.2908,46.8889],[2.2843,46.8892],[2.2820,46.8881],[2.2816,46.8853],[2.2836,46.8840],[2.2766,46.8809],[2.2801,46.8814],[2.2788,46.8801],[2.2839,46.8786],[2.2874,46.8754],[2.2874,46.8738],[2.2919,46.8740],[2.2961,46.8757],[2.2954,46.8766],[2.3041,46.8796],[2.3060,46.8821],[2.3055,46.8837],[2.3080,46.8834],[2.3084,46.8825],[2.3031,46.8765],[2.3015,46.8725]]]}},{"type":"Feature","properties":{"name":"Les Grands Bois"},"geometry":{"type":"Polygon","coordinates":[[[1.6488,46.7291],[1.6458,46.7302],[1.6461,46.7314],[1.6478,46.7313],[1.6474,46.7303],[1.6613,46.7298],[1.6591,46.7253],[1.6607,46.7234],[1.6615,46.7177],[1.6540,46.7140],[1.6550,46.7119],[1.6568,46.7116],[1.6546,46.7063],[1.6528,46.7054],[1.6499,46.7070],[1.6492,46.7058],[1.6453,46.7054],[1.6443,46.7060],[1.6465,46.7083],[1.6398,46.7112],[1.6390,46.7100],[1.6403,46.7139],[1.6440,46.7100],[1.6455,46.7107],[1.6427,46.7131],[1.6431,46.7147],[1.6412,46.7151],[1.6454,46.7142],[1.6464,46.7152],[1.6442,46.7200],[1.6449,46.7216],[1.6413,46.7184],[1.6403,46.7194],[1.6414,46.7219],[1.6451,46.7219],[1.6488,46.7291]]]}},{"type":"Feature","properties":{"name":"La Forêt du Parc"},"geometry":{"type":"Polygon","coordinates":[[[1.1490,46.7078],[1.1509,46.7064],[1.1586,46.7057],[1.1591,46.7035],[1.1662,46.7043],[1.1663,46.7058],[1.1675,46.7061],[1.1664,46.7043],[1.1692,46.7026],[1.1690,46.7050],[1.1730,46.7049],[1.1729,46.7036],[1.1879,46.7051],[1.1880,46.7028],[1.1843,46.7018],[1.1831,46.7001],[1.1737,46.6980],[1.1725,46.6916],[1.1761,46.6934],[1.1771,46.6973],[1.1816,46.6966],[1.1793,46.6937],[1.1765,46.6927],[1.1795,46.6903],[1.1830,46.6844],[1.1857,46.6864],[1.1864,46.6893],[1.1877,46.6891],[1.1870,46.6873],[1.1916,46.6846],[1.1909,46.6811],[1.1887,46.6813],[1.1882,46.6791],[1.1799,46.6803],[1.1788,46.6789],[1.1806,46.6780],[1.1791,46.6768],[1.1794,46.6751],[1.1782,46.6757],[1.1790,46.6772],[1.1743,46.6777],[1.1761,46.6765],[1.1759,46.6729],[1.1773,46.6719],[1.1750,46.6698],[1.1733,46.6718],[1.1706,46.6725],[1.1695,46.6701],[1.1660,46.6747],[1.1593,46.6782],[1.1579,46.6757],[1.1568,46.6761],[1.1564,46.6772],[1.1588,46.6788],[1.1625,46.6876],[1.1612,46.6880],[1.1635,46.6902],[1.1682,46.6895],[1.1650,46.6870],[1.1699,46.6860],[1.1717,46.6868],[1.1752,46.6838],[1.1780,46.6855],[1.1745,46.6855],[1.1742,46.6865],[1.1772,46.6874],[1.1745,46.6893],[1.1724,46.6889],[1.1710,46.6908],[1.1684,46.6899],[1.1701,46.6915],[1.1677,46.6937],[1.1693,46.6986],[1.1603,46.6994],[1.1592,46.6958],[1.1565,46.6944],[1.1540,46.6956],[1.1561,46.6975],[1.1547,46.6981],[1.1517,46.6964],[1.1525,46.6951],[1.1513,46.6964],[1.1483,46.6967],[1.1486,46.6981],[1.1463,46.6988],[1.1471,46.7020],[1.1487,46.7019],[1.1486,46.7038],[1.1473,46.7041],[1.1485,46.7073],[1.1461,46.7075],[1.1481,46.7088],[1.1467,46.7092],[1.1446,46.7073],[1.1454,46.7083],[1.1444,46.7097],[1.1490,46.7078]]]}},{"type":"Feature","properties":{"name":"Bois de Sainte-Sévère"},"geometry":{"type":"Polygon","coordinates":[[[2.0758,46.5386],[2.0780,46.5367],[2.0767,46.5367],[2.0759,46.5343],[2.0795,46.5338],[2.0793,46.5315],[2.0712,46.5281],[2.0604,46.5296],[2.0520,46.5341],[2.0602,46.5363],[2.0580,46.5398],[2.0558,46.5394],[2.0563,46.5373],[2.0543,46.5367],[2.0493,46.5359],[2.0470,46.5377],[2.0517,46.5385],[2.0472,46.5393],[2.0517,46.5407],[2.0587,46.5482],[2.0605,46.5479],[2.0661,46.5534],[2.0692,46.5479],[2.0749,46.5417],[2.0774,46.5410],[2.0758,46.5386]]]}},{"type":"Feature","properties":{"name":"Forêt des Encheur"},"geometry":{"type":"Polygon","coordinates":[[[1.8810,46.6916],[1.8828,46.7006],[1.8779,46.7047],[1.8796,46.7058],[1.8793,46.7073],[1.8736,46.7129],[1.8744,46.7134],[1.8764,46.7113],[1.8796,46.7137],[1.8755,46.7151],[1.8777,46.7171],[1.8824,46.7160],[1.8826,46.7079],[1.8847,46.7084],[1.8873,46.7158],[1.8866,46.7127],[1.8915,46.7109],[1.8935,46.7123],[1.8928,46.7135],[1.8946,46.7130],[1.9001,46.7167],[1.9047,46.7217],[1.9009,46.7250],[1.9062,46.7239],[1.9100,46.7290],[1.9136,46.7302],[1.9120,46.7315],[1.9080,46.7314],[1.9088,46.7343],[1.9106,46.7355],[1.9162,46.7330],[1.9182,46.7334],[1.9195,46.7252],[1.9210,46.7244],[1.9216,46.7217],[1.9245,46.7216],[1.9213,46.7189],[1.9293,46.7174],[1.9229,46.7165],[1.9236,46.7155],[1.9211,46.7148],[1.9221,46.7134],[1.9156,46.7103],[1.9129,46.7109],[1.9127,46.7099],[1.9141,46.7095],[1.9107,46.7066],[1.9133,46.7078],[1.9147,46.7057],[1.9158,46.7059],[1.9135,46.7090],[1.9204,46.7125],[1.9179,46.7104],[1.9192,46.7082],[1.9222,46.7096],[1.9221,46.7106],[1.9248,46.7096],[1.9234,46.7076],[1.9235,46.7032],[1.9218,46.7036],[1.9228,46.7047],[1.9178,46.7053],[1.9181,46.7031],[1.9165,46.7027],[1.9202,46.7024],[1.9200,46.7011],[1.9184,46.7013],[1.9209,46.6979],[1.9178,46.6969],[1.9192,46.6953],[1.9176,46.6952],[1.9172,46.6967],[1.9143,46.6958],[1.9022,46.6896],[1.9015,46.6930],[1.9027,46.6953],[1.9010,46.6968],[1.8919,46.6923],[1.8913,46.6900],[1.8957,46.6885],[1.8953,46.6875],[1.8915,46.6880],[1.8897,46.6867],[1.8867,46.6884],[1.8898,46.6910],[1.8856,46.6945],[1.8810,46.6916]]]}},{"type":"Feature","properties":{"name":"Forêt de Garsanland"},"geometry":{"type":"Polygon","coordinates":[[[1.5984,47.1215],[1.5961,47.1250],[1.5904,47.1276],[1.5891,47.1308],[1.5929,47.1316],[1.5927,47.1339],[1.5857,47.1355],[1.5862,47.1365],[1.5825,47.1384],[1.5772,47.1394],[1.5757,47.1435],[1.5802,47.1458],[1.5840,47.1433],[1.5814,47.1409],[1.5824,47.1407],[1.5843,47.1432],[1.5802,47.1458],[1.5818,47.1448],[1.5831,47.1457],[1.5912,47.1417],[1.5961,47.1453],[1.5948,47.1459],[1.5979,47.1486],[1.5968,47.1487],[1.5974,47.1502],[1.6046,47.1522],[1.6074,47.1568],[1.6121,47.1585],[1.6111,47.1562],[1.6130,47.1558],[1.6068,47.1489],[1.6092,47.1482],[1.6089,47.1470],[1.6062,47.1475],[1.6083,47.1444],[1.6063,47.1423],[1.6095,47.1401],[1.6082,47.1380],[1.6130,47.1361],[1.6118,47.1353],[1.6141,47.1323],[1.6111,47.1318],[1.6110,47.1302],[1.6139,47.1288],[1.6124,47.1274],[1.6141,47.1278],[1.6149,47.1263],[1.6137,47.1253],[1.6139,47.1216],[1.6170,47.1216],[1.6178,47.1192],[1.6194,47.1189],[1.6186,47.1173],[1.6209,47.1162],[1.6197,47.1141],[1.6179,47.1145],[1.6187,47.1170],[1.6167,47.1174],[1.6154,47.1162],[1.6135,47.1183],[1.6143,47.1190],[1.6093,47.1165],[1.5984,47.1215]]]}}]}