{"type":"FeatureCollection","features":[{"type":"Feature","properties":{"name":"Forêt de Saunay"},"geometry":{"type":"Polygon","coordinates":[[[0.9653,47.6102],[0.9605,47.6176],[0.9615,47.6180],[0.9596,47.6193],[0.9611,47.6212],[0.9622,47.6195],[0.9617,47.6222],[0.9646,47.6291],[0.9608,47.6287],[0.9695,47.6332],[0.9712,47.6317],[0.9799,47.6353],[0.9817,47.6349],[0.9837,47.6320],[0.9892,47.6279],[0.9918,47.6274],[0.9910,47.6245],[0.9948,47.6238],[0.9923,47.6217],[0.9925,47.6201],[0.9947,47.6202],[0.9976,47.6144],[0.9942,47.6045],[0.9893,47.6079],[0.9872,47.6077],[0.9879,47.6060],[0.9757,47.6046],[0.9857,47.6080],[0.9818,47.6124],[0.9795,47.6109],[0.9728,47.6115],[0.9653,47.6102]]]}},{"type":"Feature","properties":{"name":"Bois de la Chaîne"},"geometry":{"type":"Polygon","coordinates":[[[1.0089,47.5847],[1.0113,47.5867],[1.0112,47.5850],[1.0144,47.5841],[1.0182,47.5848],[1.0189,47.5829],[1.0254,47.5793],[1.0245,47.5772],[1.0275,47.5775],[1.0297,47.5754],[1.0273,47.5734],[1.0241,47.5742],[1.0244,47.5770],[1.0155,47.5769],[1.0151,47.5739],[1.0128,47.5735],[1.0134,47.5749],[1.0122,47.5762],[1.0085,47.5759],[1.0020,47.5776],[0.9959,47.5767],[0.9870,47.5799],[0.9887,47.5829],[0.9928,47.5850],[0.9920,47.5862],[0.9995,47.5881],[0.9976,47.5892],[0.9978,47.5922],[0.9990,47.5932],[1.0027,47.5891],[1.0014,47.5884],[1.0034,47.5881],[1.0037,47.5846],[1.0089,47.5847]]]}},{"type":"Feature","properties":{"name":"Bois de Boizé"},"geometry":{"type":"Polygon","coordinates":[[[0.4958,47.1363],[0.4970,47.1347],[0.4938,47.1351],[0.4923,47.1340],[0.4921,47.1367],[0.4910,47.1369],[0.4893,47.1354],[0.4834,47.1348],[0.4834,47.1338],[0.4887,47.1340],[0.4867,47.1321],[0.4877,47.1313],[0.4922,47.1322],[0.5006,47.1310],[0.5020,47.1318],[0.5000,47.1327],[0.5027,47.1335],[0.5037,47.1319],[0.5029,47.1309],[0.5043,47.1306],[0.5089,47.1311],[0.5073,47.1323],[0.5109,47.1335],[0.5114,47.1323],[0.5127,47.1339],[0.5140,47.1333],[0.5147,47.1340],[0.5122,47.1350],[0.5128,47.1363],[0.5165,47.1340],[0.5181,47.1365],[0.5214,47.1349],[0.5166,47.1317],[0.5203,47.1297],[0.5152,47.1295],[0.5180,47.1279],[0.5151,47.1286],[0.5140,47.1264],[0.5118,47.1265],[0.5137,47.1256],[0.5099,47.1217],[0.5001,47.1198],[0.4993,47.1203],[0.5006,47.1221],[0.4980,47.1256],[0.4938,47.1241],[0.4871,47.1246],[0.4859,47.1204],[0.4870,47.1244],[0.4838,47.1239],[0.4869,47.1247],[0.4874,47.1296],[0.4834,47.1299],[0.4830,47.1330],[0.4789,47.1311],[0.4763,47.1318],[0.4745,47.1349],[0.4745,47.1359],[0.4767,47.1366],[0.4809,47.1340],[0.4804,47.1351],[0.4889,47.1368],[0.4884,47.1377],[0.4911,47.1399],[0.4907,47.1389],[0.4933,47.1368],[0.4958,47.1363]]]}},{"type":"Feature","properties":{"name":"Bois de Gâtines"},"geometry":{"type":"Polygon","coordinates":[[[0.8251,47.5749],[0.8300,47.5771],[0.8272,47.5797],[0.8287,47.5800],[0.8286,47.5812],[0.8369,47.5820],[0.8380,47.5806],[0.8405,47.5809],[0.8391,47.5800],[0.8405,47.5774],[0.8436,47.5774],[0.8473,47.5796],[0.8483,47.5792],[0.8473,47.5783],[0.8548,47.5765],[0.8607,47.5722],[0.8571,47.5689],[0.8591,47.5676],[0.8603,47.5684],[0.8594,47.5666],[0.8610,47.5670],[0.8537,47.5653],[0.8536,47.5669],[0.8498,47.5649],[0.8436,47.5693],[0.8461,47.5702],[0.8462,47.5720],[0.8370,47.5685],[0.8354,47.5672],[0.8351,47.5644],[0.8276,47.5657],[0.8236,47.5677],[0.8247,47.5689],[0.8225,47.5705],[0.8251,47.5749]]]}},{"type":"Feature","properties":{"name":"Bois de Boizé"},"geometry":{"type":"Polygon","coordinates":[[[0.5282,47.1295],[0.5318,47.1273],[0.5314,47.1253],[0.5297,47.1246],[0.5325,47.1248],[0.5332,47.1178],[0.5309,47.1165],[0.5292,47.1132],[0.5302,47.1124],[0.5309,47.1148],[0.5353,47.1156],[0.5375,47.1133],[0.5348,47.1110],[0.5357,47.1088],[0.5333,47.1090],[0.5366,47.1080],[0.5356,47.1065],[0.5312,47.1082],[0.5341,47.1099],[0.5238,47.1110],[0.5273,47.1119],[0.5254,47.1137],[0.5213,47.1112],[0.5197,47.1123],[0.5202,47.1129],[0.5184,47.1132],[0.5201,47.1146],[0.5205,47.1194],[0.5135,47.1227],[0.5125,47.1201],[0.5098,47.1185],[0.5104,47.1166],[0.5089,47.1142],[0.5055,47.1151],[0.5088,47.1193],[0.5070,47.1208],[0.5099,47.1217],[0.5137,47.1256],[0.5162,47.1259],[0.5177,47.1275],[0.5193,47.1260],[0.5235,47.1286],[0.5266,47.1269],[0.5282,47.1295]]]}},{"type":"Feature","properties":{"name":"Forêt Domaniale de Châtellerault"},"geometry":{"type":"Polygon","coordinates":[[[0.5135,46.8059],[0.5149,46.8059],[0.5171,46.7995],[0.5153,46.7988],[0.5159,46.7969],[0.5132,46.7949],[0.5141,46.7923],[0.5112,46.7887],[0.5242,46.7848],[0.5213,46.7802],[0.5147,46.7762],[0.5115,46.7769],[0.5075,46.7807],[0.5100,46.7822],[0.5089,46.7833],[0.5110,46.7854],[0.5037,46.7893],[0.5015,46.7893],[0.4983,46.7868],[0.4969,46.7878],[0.4996,46.7944],[0.4953,46.7981],[0.4919,46.7966],[0.4890,46.7979],[0.4899,46.8001],[0.4932,46.7995],[0.4932,46.8015],[0.4977,46.8026],[0.5001,46.8057],[0.4998,46.8071],[0.5038,46.8076],[0.5041,46.8063],[0.5078,46.8063],[0.5095,46.8078],[0.5125,46.8082],[0.5135,46.8059]]]}},{"type":"Feature","properties":{"name":"Forêt de Château-Renault"},"geometry":{"type":"Polygon","coordinates":[[[0.9605,47.6176],[0.9668,47.6084],[0.9666,47.6039],[0.9605,47.6020],[0.9597,47.6005],[0.9608,47.5994],[0.9580,47.5984],[0.9495,47.6001],[0.9534,47.6009],[0.9532,47.6039],[0.9497,47.6047],[0.9497,47.6030],[0.9476,47.6027],[0.9467,47.6041],[0.9439,47.6026],[0.9413,47.6057],[0.9366,47.6075],[0.9333,47.6114],[0.9301,47.6110],[0.9321,47.6134],[0.9323,47.6150],[0.9312,47.6155],[0.9332,47.6179],[0.9333,47.6203],[0.9419,47.6191],[0.9419,47.6181],[0.9444,47.6174],[0.9494,47.6174],[0.9526,47.6195],[0.9605,47.6176]]]}},{"type":"Feature","properties":{"name":"Forêt Domaniale de Chinon"},"geometry":{"type":"Polygon","coordinates":[[[0.3928,47.2614],[0.3907,47.2593],[0.3901,47.2563],[0.3949,47.2566],[0.3946,47.2552],[0.3960,47.2544],[0.3996,47.2560],[0.4002,47.2545],[0.4077,47.2545],[0.4066,47.2513],[0.4103,47.2502],[0.4106,47.2488],[0.4046,47.2489],[0.4041,47.2470],[0.4053,47.2464],[0.4108,47.2471],[0.4111,47.2460],[0.4127,47.2459],[0.4145,47.2469],[0.4152,47.2484],[0.4134,47.2490],[0.4144,47.2505],[0.4162,47.2506],[0.4144,47.2510],[0.4168,47.2512],[0.4160,47.2523],[0.4198,47.2538],[0.4213,47.2570],[0.4195,47.2574],[0.4203,47.2589],[0.4185,47.2593],[0.4174,47.2575],[0.4157,47.2590],[0.4168,47.2607],[0.4190,47.2596],[0.4245,47.2624],[0.4231,47.2547],[0.4208,47.2533],[0.4253,47.2510],[0.4250,47.2501],[0.4342,47.2506],[0.4364,47.2473],[0.4376,47.2488],[0.4371,47.2504],[0.4430,47.2515],[0.4480,47.2556],[0.4469,47.2534],[0.4478,47.2532],[0.4439,47.2492],[0.4453,47.2485],[0.4432,47.2476],[0.4477,47.2479],[0.4469,47.2457],[0.4445,47.2456],[0.4465,47.2437],[0.4440,47.2444],[0.4448,47.2436],[0.4432,47.2429],[0.4503,47.2397],[0.4550,47.2419],[0.4553,47.2441],[0.4619,47.2475],[0.4638,47.2505],[0.4650,47.2501],[0.4640,47.2488],[0.4650,47.2488],[0.4648,47.2472],[0.4690,47.2465],[0.4707,47.2491],[0.4702,47.2505],[0.4725,47.2495],[0.4723,47.2476],[0.4700,47.2465],[0.4699,47.2432],[0.4711,47.2429],[0.4691,47.2414],[0.4706,47.2410],[0.4711,47.2392],[0.4671,47.2417],[0.4647,47.2403],[0.4665,47.2428],[0.4641,47.2452],[0.4610,47.2448],[0.4590,47.2425],[0.4609,47.2417],[0.4608,47.2398],[0.4575,47.2401],[0.4708,47.2307],[0.4603,47.2259],[0.4551,47.2250],[0.4539,47.2211],[0.4502,47.2193],[0.4540,47.2200],[0.4546,47.2189],[0.4530,47.2155],[0.4501,47.2165],[0.4491,47.2150],[0.4515,47.2129],[0.4510,47.2111],[0.4491,47.2113],[0.4492,47.2095],[0.4510,47.2086],[0.4495,47.2084],[0.4495,47.2071],[0.4506,47.2072],[0.4505,47.2036],[0.4580,47.2040],[0.4576,47.1946],[0.4503,47.1942],[0.4498,47.1961],[0.4468,47.1961],[0.4466,47.1993],[0.4447,47.1994],[0.4437,47.1954],[0.4456,47.1941],[0.4453,47.1927],[0.4374,47.1926],[0.4354,47.1940],[0.4381,47.1959],[0.4375,47.1966],[0.4310,47.1974],[0.4316,47.1990],[0.4266,47.1990],[0.4350,47.2003],[0.4370,47.2048],[0.4324,47.2057],[0.4427,47.2068],[0.4450,47.2094],[0.4451,47.2136],[0.4462,47.2149],[0.4480,47.2148],[0.4484,47.2173],[0.4422,47.2161],[0.4420,47.2138],[0.4402,47.2134],[0.4392,47.2158],[0.4321,47.2143],[0.4295,47.2130],[0.4294,47.2112],[0.4233,47.2091],[0.4210,47.2109],[0.4212,47.2157],[0.4228,47.2162],[0.4251,47.2122],[0.4274,47.2126],[0.4273,47.2147],[0.4364,47.2175],[0.4363,47.2193],[0.4320,47.2222],[0.4278,47.2200],[0.4290,47.2188],[0.4238,47.2164],[0.4225,47.2173],[0.4156,47.2155],[0.4092,47.2211],[0.4121,47.2240],[0.4147,47.2201],[0.4165,47.2196],[0.4201,47.2225],[0.4193,47.2235],[0.4166,47.2234],[0.4215,47.2292],[0.4235,47.2286],[0.4241,47.2303],[0.4130,47.2298],[0.4137,47.2284],[0.4091,47.2301],[0.4066,47.2281],[0.4047,47.2279],[0.4047,47.2292],[0.3945,47.2283],[0.3995,47.2303],[0.4032,47.2349],[0.4034,47.2333],[0.4102,47.2347],[0.4096,47.2370],[0.4139,47.2377],[0.4165,47.2406],[0.4111,47.2384],[0.4097,47.2400],[0.4073,47.2385],[0.4051,47.2407],[0.4004,47.2359],[0.3964,47.2383],[0.3973,47.2389],[0.3965,47.2408],[0.3933,47.2415],[0.3948,47.2423],[0.3930,47.2438],[0.3858,47.2402],[0.3858,47.2390],[0.3720,47.2337],[0.3700,47.2341],[0.3715,47.2362],[0.3736,47.2364],[0.3732,47.2385],[0.3753,47.2387],[0.3757,47.2400],[0.3811,47.2397],[0.3700,47.2421],[0.3698,47.2404],[0.3643,47.2381],[0.3641,47.2366],[0.3666,47.2359],[0.3681,47.2324],[0.3666,47.2323],[0.3611,47.2329],[0.3581,47.2369],[0.3562,47.2360],[0.3571,47.2350],[0.3557,47.2331],[0.3501,47.2337],[0.3476,47.2372],[0.3518,47.2406],[0.3557,47.2485],[0.3565,47.2554],[0.3553,47.2590],[0.3572,47.2565],[0.3585,47.2578],[0.3555,47.2606],[0.3578,47.2638],[0.3569,47.2646],[0.3593,47.2645],[0.3582,47.2630],[0.3623,47.2604],[0.3642,47.2569],[0.3640,47.2547],[0.3584,47.2529],[0.3666,47.2544],[0.3684,47.2539],[0.3690,47.2523],[0.3710,47.2538],[0.3757,47.2538],[0.3734,47.2549],[0.3744,47.2560],[0.3765,47.2557],[0.3772,47.2576],[0.3833,47.2590],[0.3789,47.2553],[0.3838,47.2552],[0.3859,47.2558],[0.3836,47.2592],[0.3886,47.2604],[0.3889,47.2594],[0.3928,47.2614]]]}},{"type":"Feature","properties":{"name":"Forêt de Choussy"},"geometry":{"type":"Polygon","coordinates":[[[1.3516,47.3669],[1.3511,47.3646],[1.3606,47.3686],[1.3680,47.3631],[1.3734,47.3659],[1.3758,47.3653],[1.3751,47.3614],[1.3678,47.3581],[1.3692,47.3569],[1.3688,47.3537],[1.3743,47.3540],[1.3723,47.3575],[1.3745,47.3593],[1.3739,47.3564],[1.3757,47.3553],[1.3788,47.3558],[1.3780,47.3549],[1.3790,47.3528],[1.3836,47.3517],[1.3834,47.3493],[1.3859,47.3479],[1.3832,47.3457],[1.3808,47.3481],[1.3794,47.3469],[1.3802,47.3459],[1.3771,47.3447],[1.3764,47.3462],[1.3745,47.3466],[1.3758,47.3474],[1.3748,47.3488],[1.3669,47.3478],[1.3664,47.3492],[1.3631,47.3495],[1.3628,47.3481],[1.3503,47.3508],[1.3563,47.3523],[1.3604,47.3507],[1.3664,47.3577],[1.3575,47.3569],[1.3573,47.3548],[1.3554,47.3549],[1.3515,47.3524],[1.3499,47.3528],[1.3515,47.3547],[1.3493,47.3551],[1.3490,47.3567],[1.3433,47.3572],[1.3435,47.3590],[1.3368,47.3610],[1.3322,47.3560],[1.3347,47.3554],[1.3362,47.3532],[1.3346,47.3517],[1.3325,47.3548],[1.3210,47.3526],[1.3189,47.3509],[1.3213,47.3478],[1.3291,47.3471],[1.3316,47.3444],[1.3360,47.3468],[1.3382,47.3450],[1.3334,47.3428],[1.3299,47.3448],[1.3313,47.3456],[1.3291,47.3470],[1.3213,47.3477],[1.3186,47.3500],[1.3166,47.3493],[1.3196,47.3458],[1.3264,47.3423],[1.3320,47.3423],[1.3337,47.3412],[1.3379,47.3427],[1.3394,47.3417],[1.3356,47.3372],[1.3297,47.3391],[1.3268,47.3363],[1.3208,47.3346],[1.3188,47.3355],[1.3202,47.3364],[1.3193,47.3369],[1.3178,47.3359],[1.3153,47.3368],[1.3171,47.3343],[1.3186,47.3352],[1.3200,47.3339],[1.3145,47.3328],[1.3073,47.3371],[1.3040,47.3351],[1.3025,47.3371],[1.2991,47.3372],[1.2993,47.3388],[1.3023,47.3403],[1.3019,47.3413],[1.3035,47.3415],[1.3051,47.3393],[1.3065,47.3401],[1.3048,47.3412],[1.3067,47.3441],[1.3030,47.3447],[1.3056,47.3460],[1.3053,47.3474],[1.3037,47.3465],[1.3031,47.3473],[1.3057,47.3489],[1.2990,47.3503],[1.3018,47.3531],[1.3058,47.3520],[1.3081,47.3528],[1.3065,47.3517],[1.3091,47.3502],[1.3212,47.3554],[1.3310,47.3554],[1.3326,47.3589],[1.3308,47.3575],[1.3279,47.3595],[1.3321,47.3623],[1.3342,47.3613],[1.3457,47.3683],[1.3523,47.3691],[1.3514,47.3709],[1.3530,47.3711],[1.3540,47.3696],[1.3516,47.3669]]]}},{"type":"Feature","properties":{"name":"Forêt de Fontevrault"},"geometry":{"type":"Polygon","coordinates":[[[0.0801,47.1789],[0.0809,47.1798],[0.0815,47.1785],[0.0859,47.1767],[0.0886,47.1797],[0.0902,47.1788],[0.0893,47.1760],[0.0913,47.1757],[0.0898,47.1748],[0.0929,47.1738],[0.1044,47.1743],[0.1063,47.1769],[0.1080,47.1757],[0.1074,47.1731],[0.0999,47.1716],[0.0997,47.1696],[0.1057,47.1665],[0.1082,47.1689],[0.1116,47.1694],[0.1112,47.1680],[0.1129,47.1679],[0.1102,47.1675],[0.1096,47.1654],[0.1123,47.1650],[0.1097,47.1617],[0.1016,47.1578],[0.0854,47.1592],[0.0833,47.1627],[0.0819,47.1618],[0.0832,47.1599],[0.0821,47.1595],[0.0803,47.1623],[0.0762,47.1629],[0.0752,47.1594],[0.0736,47.1605],[0.0722,47.1600],[0.0726,47.1586],[0.0709,47.1581],[0.0716,47.1564],[0.0670,47.1561],[0.0664,47.1579],[0.0659,47.1567],[0.0634,47.1566],[0.0628,47.1605],[0.0742,47.1619],[0.0750,47.1632],[0.0687,47.1660],[0.0641,47.1655],[0.0646,47.1685],[0.0617,47.1712],[0.0593,47.1708],[0.0537,47.1653],[0.0487,47.1658],[0.0489,47.1630],[0.0479,47.1626],[0.0431,47.1641],[0.0403,47.1637],[0.0369,47.1608],[0.0360,47.1582],[0.0280,47.1660],[0.0258,47.1667],[0.0277,47.1705],[0.0312,47.1721],[0.0235,47.1784],[0.0263,47.1817],[0.0258,47.1784],[0.0295,47.1781],[0.0270,47.1772],[0.0342,47.1782],[0.0335,47.1767],[0.0379,47.1709],[0.0405,47.1717],[0.0456,47.1691],[0.0511,47.1712],[0.0540,47.1705],[0.0531,47.1695],[0.0546,47.1699],[0.0557,47.1708],[0.0537,47.1717],[0.0546,47.1723],[0.0532,47.1732],[0.0541,47.1766],[0.0533,47.1768],[0.0578,47.1776],[0.0573,47.1768],[0.0600,47.1750],[0.0630,47.1761],[0.0612,47.1799],[0.0637,47.1806],[0.0527,47.1827],[0.0486,47.1896],[0.0510,47.1908],[0.0494,47.1902],[0.0523,47.1898],[0.0525,47.1914],[0.0569,47.1925],[0.0546,47.1942],[0.0579,47.1983],[0.0697,47.1952],[0.0685,47.1937],[0.0690,47.1951],[0.0639,47.1956],[0.0636,47.1912],[0.0669,47.1903],[0.0677,47.1922],[0.0728,47.1916],[0.0707,47.1885],[0.0679,47.1895],[0.0663,47.1861],[0.0704,47.1861],[0.0739,47.1889],[0.0769,47.1872],[0.0785,47.1877],[0.0783,47.1864],[0.0765,47.1860],[0.0779,47.1853],[0.0784,47.1841],[0.0772,47.1838],[0.0796,47.1817],[0.0798,47.1800],[0.0762,47.1805],[0.0801,47.1789]]]}},{"type":"Feature","properties":{"name":"Bois de la Graine de Sapin"},"geometry":{"type":"Polygon","coordinates":[[[0.2180,47.4574],[0.2231,47.4560],[0.2218,47.4514],[0.2195,47.4520],[0.2217,47.4507],[0.2184,47.4514],[0.2188,47.4501],[0.2174,47.4492],[0.2200,47.4492],[0.2185,47.4481],[0.2212,47.4491],[0.2204,47.4463],[0.2133,47.4465],[0.2122,47.4442],[0.2141,47.4433],[0.2147,47.4404],[0.2120,47.4378],[0.2094,47.4389],[0.2084,47.4378],[0.2026,47.4372],[0.2003,47.4399],[0.1946,47.4420],[0.1962,47.4446],[0.1947,47.4452],[0.1915,47.4437],[0.1918,47.4424],[0.1884,47.4416],[0.1887,47.4396],[0.1849,47.4387],[0.1842,47.4400],[0.1868,47.4411],[0.1864,47.4427],[0.1846,47.4419],[0.1877,47.4438],[0.1878,47.4459],[0.1865,47.4472],[0.1820,47.4451],[0.1839,47.4438],[0.1828,47.4416],[0.1775,47.4406],[0.1770,47.4419],[0.1735,47.4389],[0.1697,47.4403],[0.1743,47.4444],[0.1784,47.4466],[0.1816,47.4466],[0.1811,47.4535],[0.1780,47.4509],[0.1794,47.4492],[0.1764,47.4487],[0.1773,47.4473],[0.1746,47.4460],[0.1726,47.4475],[0.1748,47.4486],[0.1747,47.4499],[0.1710,47.4496],[0.1711,47.4513],[0.1672,47.4538],[0.1705,47.4552],[0.1717,47.4571],[0.1683,47.4589],[0.1648,47.4585],[0.1664,47.4601],[0.1648,47.4604],[0.1695,47.4638],[0.1729,47.4635],[0.1730,47.4617],[0.1776,47.4624],[0.1771,47.4684],[0.1804,47.4692],[0.1819,47.4688],[0.1796,47.4648],[0.1826,47.4637],[0.1913,47.4667],[0.1975,47.4641],[0.1958,47.4606],[0.1967,47.4602],[0.2009,47.4606],[0.2000,47.4592],[0.2053,47.4579],[0.2063,47.4589],[0.2128,47.4587],[0.2106,47.4571],[0.2138,47.4548],[0.2154,47.4552],[0.2145,47.4558],[0.2160,47.4567],[0.2155,47.4575],[0.2180,47.4574]]]}},{"type":"Feature","properties":{"name":"Bois de Saint-Lomer"},"geometry":{"type":"Polygon","coordinates":[[[1.3295,47.4340],[1.3304,47.4314],[1.3347,47.4317],[1.3345,47.4299],[1.3361,47.4288],[1.3348,47.4272],[1.3329,47.4285],[1.3314,47.4276],[1.3306,47.4308],[1.3261,47.4299],[1.3289,47.4252],[1.3346,47.4247],[1.3375,47.4210],[1.3415,47.4218],[1.3395,47.4201],[1.3401,47.4188],[1.3429,47.4185],[1.3432,47.4172],[1.3449,47.4176],[1.3456,47.4199],[1.3484,47.4222],[1.3528,47.4233],[1.3554,47.4197],[1.3529,47.4176],[1.3569,47.4175],[1.3581,47.4155],[1.3536,47.4142],[1.3503,47.4105],[1.3447,47.4097],[1.3458,47.4077],[1.3469,47.4082],[1.3460,47.4058],[1.3436,47.4047],[1.3481,47.4042],[1.3416,47.3984],[1.3430,47.3973],[1.3412,47.3966],[1.3398,47.3941],[1.3370,47.3943],[1.3344,47.3966],[1.3363,47.3977],[1.3361,47.3989],[1.3392,47.3991],[1.3378,47.4005],[1.3398,47.4021],[1.3382,47.4045],[1.3342,47.4052],[1.3329,47.4075],[1.3312,47.4061],[1.3282,47.4075],[1.3266,47.4084],[1.3275,47.4092],[1.3261,47.4104],[1.3223,47.4102],[1.3220,47.4083],[1.3135,47.4074],[1.3141,47.4083],[1.3085,47.4102],[1.3091,47.4122],[1.3052,47.4134],[1.3058,47.4152],[1.3038,47.4185],[1.3133,47.4220],[1.3152,47.4198],[1.3220,47.4223],[1.3233,47.4286],[1.3248,47.4292],[1.3233,47.4315],[1.3295,47.4340]]]}},{"type":"Feature","properties":{"name":"Bois de la Couarde"},"geometry":{"type":"Polygon","coordinates":[[[0.9639,47.5779],[0.9637,47.5744],[0.9719,47.5730],[0.9755,47.5749],[0.9761,47.5739],[0.9721,47.5723],[0.9695,47.5657],[0.9583,47.5661],[0.9429,47.5724],[0.9530,47.5793],[0.9639,47.5779]]]}},{"type":"Feature","properties":{"name":"Forêt de Choussy"},"geometry":{"type":"Polygon","coordinates":[[[1.4282,47.3170],[1.4318,47.3145],[1.4360,47.3143],[1.4377,47.3124],[1.4412,47.3134],[1.4431,47.3157],[1.4424,47.3168],[1.4471,47.3165],[1.4490,47.3193],[1.4506,47.3188],[1.4522,47.3202],[1.4518,47.3181],[1.4555,47.3170],[1.4570,47.3190],[1.4548,47.3204],[1.4601,47.3216],[1.4607,47.3177],[1.4597,47.3176],[1.4595,47.3207],[1.4559,47.3207],[1.4590,47.3178],[1.4556,47.3150],[1.4580,47.3144],[1.4603,47.3158],[1.4610,47.3145],[1.4586,47.3130],[1.4537,47.3152],[1.4509,47.3150],[1.4458,47.3120],[1.4468,47.3108],[1.4491,47.3114],[1.4496,47.3106],[1.4474,47.3090],[1.4518,47.3081],[1.4534,47.3058],[1.4548,47.3063],[1.4540,47.3077],[1.4557,47.3082],[1.4561,47.3048],[1.4574,47.3050],[1.4584,47.3011],[1.4597,47.3007],[1.4571,47.2995],[1.4611,47.2985],[1.4657,47.2943],[1.4724,47.2936],[1.4736,47.2922],[1.4609,47.2909],[1.4608,47.2920],[1.4629,47.2922],[1.4624,47.2934],[1.4595,47.2934],[1.4579,47.2928],[1.4579,47.2914],[1.4601,47.2883],[1.4664,47.2883],[1.4663,47.2909],[1.4678,47.2911],[1.4682,47.2888],[1.4731,47.2901],[1.4725,47.2915],[1.4746,47.2911],[1.4728,47.2875],[1.4682,47.2847],[1.4690,47.2831],[1.4676,47.2817],[1.4666,47.2836],[1.4643,47.2827],[1.4640,47.2841],[1.4657,47.2844],[1.4635,47.2870],[1.4621,47.2856],[1.4602,47.2872],[1.4458,47.2827],[1.4467,47.2805],[1.4446,47.2819],[1.4430,47.2809],[1.4417,47.2820],[1.4370,47.2820],[1.4369,47.2811],[1.4349,47.2857],[1.4363,47.2897],[1.4350,47.2917],[1.4324,47.2909],[1.4338,47.2891],[1.4315,47.2874],[1.4234,47.2850],[1.4205,47.2825],[1.4132,47.2819],[1.4117,47.2826],[1.4140,47.2854],[1.4113,47.2861],[1.4084,47.2853],[1.4091,47.2877],[1.4019,47.2871],[1.4034,47.2877],[1.4019,47.2884],[1.4000,47.2874],[1.4006,47.2939],[1.3995,47.2947],[1.3948,47.2944],[1.3953,47.2932],[1.3938,47.2931],[1.3889,47.2949],[1.3855,47.2943],[1.3897,47.2958],[1.3891,47.2978],[1.3855,47.2977],[1.3882,47.2993],[1.3858,47.3038],[1.3832,47.3041],[1.3808,47.3029],[1.3824,47.3024],[1.3777,47.2998],[1.3743,47.3022],[1.3765,47.3040],[1.3775,47.3038],[1.3767,47.3023],[1.3794,47.3031],[1.3812,47.3060],[1.3789,47.3065],[1.3857,47.3070],[1.3858,47.3079],[1.3838,47.3079],[1.3875,47.3109],[1.3865,47.3115],[1.3875,47.3142],[1.3843,47.3145],[1.3842,47.3157],[1.3904,47.3169],[1.3930,47.3157],[1.3913,47.3143],[1.3921,47.3131],[1.3908,47.3130],[1.3908,47.3113],[1.3927,47.3108],[1.3923,47.3081],[1.3860,47.3074],[1.3896,47.3072],[1.3890,47.3063],[1.3907,47.3059],[1.3906,47.3072],[1.4001,47.3083],[1.3980,47.3085],[1.3987,47.3106],[1.3979,47.3093],[1.3985,47.3108],[1.3969,47.3113],[1.3969,47.3130],[1.3976,47.3112],[1.3989,47.3129],[1.4033,47.3105],[1.4008,47.3130],[1.4029,47.3146],[1.4041,47.3127],[1.4031,47.3118],[1.4056,47.3102],[1.4004,47.3084],[1.4060,47.3091],[1.4203,47.3142],[1.4077,47.3109],[1.4079,47.3124],[1.4127,47.3144],[1.4172,47.3146],[1.4153,47.3163],[1.4179,47.3146],[1.4181,47.3159],[1.4202,47.3164],[1.4227,47.3154],[1.4251,47.3177],[1.4282,47.3170]]]}},{"type":"Feature","properties":{"name":"Forêt de Bareilles"},"geometry":{"type":"Polygon","coordinates":[[[0.1463,47.5762],[0.1396,47.5666],[0.1422,47.5653],[0.1452,47.5673],[0.1493,47.5660],[0.1484,47.5642],[0.1529,47.5618],[0.1526,47.5603],[0.1619,47.5586],[0.1619,47.5524],[0.1579,47.5525],[0.1605,47.5509],[0.1571,47.5503],[0.1576,47.5487],[0.1541,47.5502],[0.1574,47.5508],[0.1568,47.5520],[0.1519,47.5503],[0.1520,47.5493],[0.1478,47.5514],[0.1451,47.5491],[0.1424,47.5516],[0.1358,47.5486],[0.1348,47.5494],[0.1366,47.5511],[0.1319,47.5513],[0.1283,47.5545],[0.1255,47.5525],[0.1230,47.5531],[0.1218,47.5576],[0.1248,47.5559],[0.1260,47.5591],[0.1333,47.5627],[0.1269,47.5642],[0.1273,47.5652],[0.1293,47.5646],[0.1277,47.5660],[0.1301,47.5701],[0.1325,47.5677],[0.1365,47.5670],[0.1318,47.5678],[0.1304,47.5696],[0.1307,47.5677],[0.1368,47.5660],[0.1451,47.5752],[0.1448,47.5778],[0.1488,47.5769],[0.1501,47.5733],[0.1531,47.5718],[0.1553,47.5737],[0.1600,47.5717],[0.1618,47.5731],[0.1652,47.5723],[0.1627,47.5704],[0.1600,47.5716],[0.1550,47.5704],[0.1554,47.5683],[0.1539,47.5680],[0.1524,47.5707],[0.1498,47.5700],[0.1510,47.5713],[0.1484,47.5730],[0.1474,47.5766],[0.1458,47.5772],[0.1463,47.5762]]]}},{"type":"Feature","properties":{"name":"Forêt d\u0027Amboise"},"geometry":{"type":"Polygon","coordinates":[[[1.0091,47.3691],[1.0088,47.3730],[1.0122,47.3719],[1.0113,47.3692],[1.0143,47.3696],[1.0167,47.3715],[1.0182,47.3685],[1.0211,47.3677],[1.0207,47.3667],[1.0240,47.3682],[1.0274,47.3736],[1.0288,47.3733],[1.0301,47.3702],[1.0311,47.3708],[1.0301,47.3721],[1.0341,47.3713],[1.0347,47.3704],[1.0309,47.3688],[1.0345,47.3663],[1.0364,47.3680],[1.0375,47.3655],[1.0429,47.3689],[1.0400,47.3708],[1.0436,47.3715],[1.0478,47.3677],[1.0405,47.3643],[1.0519,47.3628],[1.0537,47.3592],[1.0568,47.3579],[1.0596,47.3595],[1.0647,47.3543],[1.0624,47.3543],[1.0646,47.3528],[1.0625,47.3481],[1.0635,47.3469],[1.0586,47.3449],[1.0619,47.3439],[1.0615,47.3412],[1.0591,47.3412],[1.0609,47.3391],[1.0634,47.3386],[1.0623,47.3373],[1.0668,47.3366],[1.0669,47.3340],[1.0688,47.3374],[1.0660,47.3397],[1.0687,47.3416],[1.0686,47.3428],[1.0702,47.3428],[1.0699,47.3468],[1.0714,47.3468],[1.0729,47.3441],[1.0806,47.3444],[1.0814,47.3416],[1.0841,47.3430],[1.0834,47.3414],[1.0848,47.3416],[1.0857,47.3399],[1.0910,47.3420],[1.0908,47.3436],[1.0931,47.3453],[1.0911,47.3446],[1.0903,47.3450],[1.0911,47.3461],[1.0876,47.3471],[1.0884,47.3488],[1.0870,47.3501],[1.0891,47.3502],[1.0872,47.3508],[1.0896,47.3509],[1.0876,47.3535],[1.0848,47.3540],[1.0866,47.3581],[1.0896,47.3588],[1.0908,47.3604],[1.0895,47.3619],[1.0894,47.3660],[1.0918,47.3637],[1.0928,47.3652],[1.1007,47.3632],[1.1005,47.3608],[1.1044,47.3602],[1.1029,47.3584],[1.1064,47.3573],[1.1182,47.3609],[1.1136,47.3656],[1.1127,47.3693],[1.1192,47.3698],[1.1265,47.3745],[1.1253,47.3756],[1.1267,47.3778],[1.1283,47.3760],[1.1296,47.3774],[1.1329,47.3770],[1.1355,47.3789],[1.1373,47.3785],[1.1365,47.3794],[1.1413,47.3802],[1.1414,47.3783],[1.1487,47.3766],[1.1507,47.3787],[1.1471,47.3779],[1.1438,47.3806],[1.1453,47.3822],[1.1420,47.3811],[1.1367,47.3831],[1.1372,47.3875],[1.1389,47.3888],[1.1411,47.3873],[1.1406,47.3844],[1.1468,47.3841],[1.1493,47.3890],[1.1482,47.3908],[1.1449,47.3909],[1.1456,47.3899],[1.1433,47.3882],[1.1414,47.3891],[1.1420,47.3902],[1.1407,47.3915],[1.1357,47.3884],[1.1296,47.3911],[1.1285,47.3899],[1.1176,47.3957],[1.1186,47.3972],[1.1142,47.3975],[1.1144,47.3989],[1.1105,47.3972],[1.1101,47.3955],[1.0902,47.3941],[1.0879,47.3999],[1.0836,47.4000],[1.0763,47.4061],[1.0744,47.4055],[1.0736,47.4092],[1.0676,47.4093],[1.0661,47.4109],[1.0616,47.4098],[1.0615,47.4071],[1.0598,47.4107],[1.0575,47.4086],[1.0519,47.4078],[1.0510,47.4054],[1.0546,47.4001],[1.0535,47.3987],[1.0463,47.3983],[1.0420,47.3995],[1.0403,47.3964],[1.0370,47.3967],[1.0361,47.3952],[1.0338,47.3960],[1.0274,47.3905],[1.0242,47.3924],[1.0261,47.3934],[1.0229,47.3983],[1.0267,47.4009],[1.0225,47.4036],[1.0184,47.4026],[1.0186,47.3991],[1.0203,47.3972],[1.0182,47.3943],[1.0166,47.3950],[1.0140,47.3937],[1.0145,47.3924],[1.0191,47.3922],[1.0175,47.3897],[1.0003,47.3895],[0.9979,47.3924],[0.9944,47.3923],[0.9963,47.3911],[0.9915,47.3898],[0.9907,47.3960],[0.9863,47.3959],[0.9872,47.3939],[0.9844,47.3948],[0.9797,47.3942],[0.9828,47.3941],[0.9819,47.3939],[0.9820,47.3917],[0.9791,47.3903],[0.9793,47.3915],[0.9723,47.3905],[0.9711,47.3896],[0.9704,47.3852],[0.9682,47.3904],[0.9692,47.3918],[0.9517,47.3917],[0.9488,47.3907],[0.9464,47.3866],[0.9443,47.3873],[0.9435,47.3880],[0.9445,47.3896],[0.9429,47.3885],[0.9444,47.3898],[0.9426,47.3887],[0.9435,47.3902],[0.9410,47.3900],[0.9440,47.3913],[0.9491,47.3911],[0.9472,47.3918],[0.9469,47.3935],[0.9454,47.3924],[0.9445,47.3939],[0.9434,47.3932],[0.9413,47.3945],[0.9402,47.3956],[0.9414,47.3970],[0.9406,47.3975],[0.9365,47.3938],[0.9427,47.3913],[0.9404,47.3906],[0.9381,47.3925],[0.9369,47.3914],[0.9380,47.3897],[0.9360,47.3885],[0.9294,47.3884],[0.9302,47.3868],[0.9264,47.3849],[0.9223,47.3852],[0.9180,47.3816],[0.9146,47.3758],[0.9154,47.3716],[0.9246,47.3725],[0.9281,47.3708],[0.9323,47.3636],[0.9446,47.3652],[0.9476,47.3668],[0.9519,47.3639],[0.9538,47.3655],[0.9610,47.3651],[0.9616,47.3625],[0.9638,47.3626],[0.9637,47.3657],[0.9706,47.3658],[0.9722,47.3674],[0.9740,47.3668],[0.9777,47.3682],[0.9810,47.3667],[0.9804,47.3659],[0.9853,47.3660],[0.9878,47.3584],[0.9916,47.3598],[0.9924,47.3641],[0.9949,47.3657],[0.9973,47.3654],[0.9967,47.3643],[0.9977,47.3637],[1.0022,47.3631],[1.0036,47.3662],[1.0077,47.3641],[1.0112,47.3675],[1.0091,47.3691]]]}},{"type":"Feature","properties":{"name":"Bois de Saint-Laurent"},"geometry":{"type":"Polygon","coordinates":[[[0.7063,47.3074],[0.7034,47.3117],[0.6986,47.3095],[0.7029,47.3053],[0.7007,47.3038],[0.6983,47.3033],[0.6929,47.3050],[0.6894,47.3137],[0.6911,47.3223],[0.6918,47.3213],[0.6937,47.3221],[0.6929,47.3226],[0.6963,47.3230],[0.7037,47.3176],[0.7016,47.3187],[0.7029,47.3171],[0.7019,47.3165],[0.7037,47.3166],[0.7043,47.3183],[0.7091,47.3165],[0.7103,47.3142],[0.7098,47.3099],[0.7081,47.3108],[0.7102,47.3078],[0.7048,47.3062],[0.7063,47.3074]]]}},{"type":"Feature","properties":{"name":"Forêt de Larçay"},"geometry":{"type":"Polygon","coordinates":[[[0.8184,47.3062],[0.8120,47.3070],[0.8135,47.3091],[0.8119,47.3090],[0.8110,47.3071],[0.8027,47.3100],[0.7993,47.3094],[0.7788,47.3121],[0.7808,47.3130],[0.7753,47.3172],[0.7744,47.3193],[0.7784,47.3209],[0.7804,47.3201],[0.7850,47.3222],[0.7848,47.3230],[0.7882,47.3233],[0.7880,47.3259],[0.7846,47.3253],[0.7841,47.3305],[0.7799,47.3313],[0.7798,47.3262],[0.7785,47.3244],[0.7740,47.3258],[0.7743,47.3244],[0.7714,47.3226],[0.7685,47.3246],[0.7712,47.3243],[0.7723,47.3266],[0.7684,47.3247],[0.7665,47.3265],[0.7672,47.3279],[0.7637,47.3296],[0.7620,47.3288],[0.7580,47.3328],[0.7530,47.3337],[0.7539,47.3342],[0.7502,47.3355],[0.7484,47.3348],[0.7494,47.3337],[0.7469,47.3337],[0.7506,47.3369],[0.7574,47.3387],[0.7562,47.3405],[0.7547,47.3397],[0.7624,47.3434],[0.7620,47.3422],[0.7638,47.3418],[0.7638,47.3404],[0.7750,47.3404],[0.7769,47.3386],[0.7787,47.3397],[0.7791,47.3375],[0.7775,47.3375],[0.7702,47.3399],[0.7713,47.3376],[0.7738,47.3377],[0.7743,47.3354],[0.7819,47.3358],[0.7808,47.3392],[0.7868,47.3405],[0.7859,47.3389],[0.7894,47.3378],[0.7909,47.3313],[0.7923,47.3315],[0.7920,47.3334],[0.7953,47.3334],[0.7948,47.3304],[0.7973,47.3304],[0.7966,47.3282],[0.7976,47.3303],[0.7971,47.3281],[0.7985,47.3290],[0.7988,47.3274],[0.8009,47.3269],[0.8001,47.3252],[0.8028,47.3246],[0.8043,47.3166],[0.8092,47.3150],[0.8095,47.3159],[0.8111,47.3141],[0.8133,47.3147],[0.8151,47.3131],[0.8151,47.3112],[0.8164,47.3111],[0.8136,47.3097],[0.8164,47.3097],[0.8149,47.3087],[0.8169,47.3087],[0.8162,47.3067],[0.8189,47.3085],[0.8193,47.3073],[0.8183,47.3068],[0.8197,47.3057],[0.8184,47.3062]]]}},{"type":"Feature","properties":{"name":"Bois des Touches"},"geometry":{"type":"Polygon","coordinates":[[[0.6054,47.3572],[0.6074,47.3575],[0.6086,47.3559],[0.6074,47.3552],[0.6102,47.3549],[0.6065,47.3541],[0.6074,47.3533],[0.6061,47.3519],[0.6080,47.3518],[0.6076,47.3487],[0.6095,47.3486],[0.6072,47.3463],[0.6027,47.3454],[0.6004,47.3486],[0.5981,47.3482],[0.5976,47.3457],[0.5959,47.3456],[0.5947,47.3475],[0.5934,47.3450],[0.5950,47.3437],[0.5952,47.3383],[0.5923,47.3370],[0.5908,47.3385],[0.5919,47.3396],[0.5906,47.3412],[0.5927,47.3411],[0.5908,47.3417],[0.5903,47.3443],[0.5874,47.3467],[0.5900,47.3454],[0.5870,47.3480],[0.5876,47.3453],[0.5899,47.3437],[0.5890,47.3404],[0.5850,47.3386],[0.5838,47.3400],[0.5811,47.3364],[0.5820,47.3394],[0.5837,47.3403],[0.5833,47.3424],[0.5846,47.3430],[0.5835,47.3449],[0.5842,47.3472],[0.5801,47.3475],[0.5787,47.3492],[0.5863,47.3485],[0.5867,47.3502],[0.5838,47.3504],[0.5866,47.3514],[0.5871,47.3527],[0.5879,47.3520],[0.5889,47.3546],[0.5910,47.3561],[0.5967,47.3574],[0.5975,47.3566],[0.6011,47.3583],[0.6015,47.3575],[0.5992,47.3572],[0.6004,47.3550],[0.5983,47.3548],[0.6032,47.3538],[0.6044,47.3562],[0.6029,47.3571],[0.6046,47.3564],[0.6045,47.3574],[0.6054,47.3572]]]}},{"type":"Feature","properties":{"name":"Forêt de Villandry"},"geometry":{"type":"Polygon","coordinates":[[[0.5006,47.2980],[0.5084,47.2987],[0.5063,47.2982],[0.5092,47.2964],[0.5078,47.2977],[0.5097,47.2980],[0.5125,47.2902],[0.5157,47.2888],[0.5193,47.2926],[0.5285,47.2933],[0.5306,47.2951],[0.5308,47.2997],[0.5320,47.2982],[0.5335,47.2985],[0.5331,47.3000],[0.5351,47.3006],[0.5353,47.2977],[0.5377,47.2986],[0.5384,47.2972],[0.5374,47.2956],[0.5350,47.2952],[0.5340,47.2933],[0.5372,47.2925],[0.5340,47.2902],[0.5351,47.2875],[0.5384,47.2851],[0.5404,47.2857],[0.5420,47.2847],[0.5448,47.2863],[0.5467,47.2855],[0.5480,47.2837],[0.5464,47.2831],[0.5468,47.2815],[0.5489,47.2823],[0.5485,47.2845],[0.5515,47.2847],[0.5520,47.2834],[0.5544,47.2842],[0.5573,47.2784],[0.5601,47.2775],[0.5584,47.2761],[0.5530,47.2825],[0.5464,47.2792],[0.5409,47.2813],[0.5369,47.2809],[0.5373,47.2782],[0.5385,47.2774],[0.5341,47.2763],[0.5338,47.2748],[0.5413,47.2756],[0.5452,47.2739],[0.5443,47.2735],[0.5452,47.2726],[0.5399,47.2718],[0.5402,47.2690],[0.5381,47.2688],[0.5385,47.2677],[0.5370,47.2672],[0.5351,47.2687],[0.5314,47.2689],[0.5312,47.2701],[0.5273,47.2690],[0.5268,47.2750],[0.5239,47.2751],[0.5219,47.2774],[0.5222,47.2794],[0.5350,47.2814],[0.5347,47.2836],[0.5273,47.2826],[0.5268,47.2848],[0.5215,47.2816],[0.5205,47.2855],[0.5184,47.2862],[0.5024,47.2798],[0.4955,47.2842],[0.4920,47.2847],[0.4894,47.2833],[0.4859,47.2842],[0.4877,47.2877],[0.4896,47.2885],[0.4888,47.2895],[0.4902,47.2915],[0.4926,47.2919],[0.4911,47.2941],[0.4964,47.2943],[0.4953,47.2931],[0.4983,47.2897],[0.5001,47.2896],[0.5006,47.2919],[0.4985,47.2945],[0.5008,47.2954],[0.5006,47.2980]]]}},{"type":"Feature","properties":{"name":"Bois de Freschines"},"geometry":{"type":"Polygon","coordinates":[[[1.2262,47.6935],[1.2246,47.6915],[1.2262,47.6936],[1.2253,47.6949],[1.2222,47.6946],[1.2290,47.6958],[1.2296,47.6980],[1.2285,47.6974],[1.2288,47.6987],[1.2266,47.6996],[1.2256,47.6988],[1.2278,47.7084],[1.2331,47.7084],[1.2357,47.7064],[1.2403,47.7071],[1.2420,47.7057],[1.2468,47.7087],[1.2452,47.7113],[1.2497,47.7092],[1.2494,47.7079],[1.2525,47.7084],[1.2478,47.7110],[1.2533,47.7108],[1.2500,47.7100],[1.2524,47.7087],[1.2547,47.7094],[1.2537,47.7090],[1.2541,47.7107],[1.2551,47.7097],[1.2535,47.7080],[1.2559,47.7084],[1.2552,47.7075],[1.2592,47.7059],[1.2610,47.7065],[1.2600,47.7060],[1.2638,47.7040],[1.2640,47.7017],[1.2660,47.7024],[1.2653,47.7017],[1.2671,47.7003],[1.2740,47.7006],[1.2672,47.6973],[1.2657,47.6954],[1.2639,47.6961],[1.2641,47.6974],[1.2598,47.6961],[1.2599,47.6942],[1.2562,47.6946],[1.2562,47.6929],[1.2536,47.6910],[1.2552,47.6896],[1.2510,47.6872],[1.2516,47.6882],[1.2471,47.6875],[1.2466,47.6900],[1.2541,47.6935],[1.2559,47.6966],[1.2566,47.6950],[1.2596,47.6966],[1.2606,47.7000],[1.2577,47.6972],[1.2562,47.6971],[1.2578,47.6992],[1.2536,47.6990],[1.2416,47.6957],[1.2385,47.6960],[1.2365,47.6936],[1.2345,47.6944],[1.2330,47.6921],[1.2262,47.6935]]]}},{"type":"Feature","properties":{"name":"La Forêt du Parc"},"geometry":{"type":"Polygon","coordinates":[[[1.1490,46.7078],[1.1509,46.7064],[1.1586,46.7057],[1.1591,46.7035],[1.1662,46.7043],[1.1663,46.7058],[1.1675,46.7061],[1.1664,46.7043],[1.1692,46.7026],[1.1690,46.7050],[1.1730,46.7049],[1.1729,46.7036],[1.1879,46.7051],[1.1880,46.7028],[1.1843,46.7018],[1.1831,46.7001],[1.1737,46.6980],[1.1725,46.6916],[1.1761,46.6934],[1.1771,46.6973],[1.1816,46.6966],[1.1793,46.6937],[1.1765,46.6927],[1.1795,46.6903],[1.1830,46.6844],[1.1857,46.6864],[1.1864,46.6893],[1.1877,46.6891],[1.1870,46.6873],[1.1916,46.6846],[1.1909,46.6811],[1.1887,46.6813],[1.1882,46.6791],[1.1799,46.6803],[1.1788,46.6789],[1.1806,46.6780],[1.1791,46.6768],[1.1794,46.6751],[1.1782,46.6757],[1.1790,46.6772],[1.1743,46.6777],[1.1761,46.6765],[1.1759,46.6729],[1.1773,46.6719],[1.1750,46.6698],[1.1733,46.6718],[1.1706,46.6725],[1.1695,46.6701],[1.1660,46.6747],[1.1593,46.6782],[1.1579,46.6757],[1.1568,46.6761],[1.1564,46.6772],[1.1588,46.6788],[1.1625,46.6876],[1.1612,46.6880],[1.1635,46.6902],[1.1682,46.6895],[1.1650,46.6870],[1.1699,46.6860],[1.1717,46.6868],[1.1752,46.6838],[1.1780,46.6855],[1.1745,46.6855],[1.1742,46.6865],[1.1772,46.6874],[1.1745,46.6893],[1.1724,46.6889],[1.1710,46.6908],[1.1684,46.6899],[1.1701,46.6915],[1.1677,46.6937],[1.1693,46.6986],[1.1603,46.6994],[1.1592,46.6958],[1.1565,46.6944],[1.1540,46.6956],[1.1561,46.6975],[1.1547,46.6981],[1.1517,46.6964],[1.1525,46.6951],[1.1513,46.6964],[1.1483,46.6967],[1.1486,46.6981],[1.1463,46.6988],[1.1471,46.7020],[1.1487,46.7019],[1.1486,46.7038],[1.1473,46.7041],[1.1485,46.7073],[1.1461,46.7075],[1.1481,46.7088],[1.1467,46.7092],[1.1446,46.7073],[1.1454,46.7083],[1.1444,46.7097],[1.1490,46.7078]]]}},{"type":"Feature","properties":{"name":"Bois de Fléteau"},"geometry":{"type":"Polygon","coordinates":[[[0.8604,47.6029],[0.8616,47.5999],[0.8700,47.6019],[0.8746,47.6008],[0.8749,47.6031],[0.8787,47.6014],[0.8838,47.6016],[0.8818,47.5995],[0.8849,47.5980],[0.8875,47.5923],[0.8896,47.5928],[0.8905,47.5917],[0.8872,47.5907],[0.8870,47.5894],[0.8903,47.5890],[0.8870,47.5860],[0.8865,47.5894],[0.8852,47.5887],[0.8823,47.5904],[0.8809,47.5875],[0.8851,47.5885],[0.8858,47.5874],[0.8842,47.5869],[0.8846,47.5862],[0.8872,47.5856],[0.8797,47.5858],[0.8796,47.5870],[0.8773,47.5862],[0.8765,47.5876],[0.8732,47.5883],[0.8656,47.5817],[0.8644,47.5832],[0.8612,47.5824],[0.8566,47.5867],[0.8574,47.5903],[0.8591,47.5903],[0.8615,47.5930],[0.8569,47.5923],[0.8574,47.5951],[0.8619,47.5962],[0.8643,47.5941],[0.8717,47.5926],[0.8743,47.5944],[0.8725,47.5954],[0.8739,47.5962],[0.8734,47.5976],[0.8783,47.5970],[0.8809,47.5997],[0.8804,47.6008],[0.8802,47.5997],[0.8775,47.5996],[0.8765,47.5984],[0.8764,47.5995],[0.8699,47.5996],[0.8670,47.5969],[0.8643,47.5975],[0.8647,47.5992],[0.8619,47.5983],[0.8590,47.5993],[0.8600,47.6001],[0.8590,47.6025],[0.8604,47.6029]]]}},{"type":"Feature","properties":{"name":"Parc de Ménars"},"geometry":{"type":"Polygon","coordinates":[[[1.4173,47.6540],[1.4087,47.6476],[1.4057,47.6486],[1.4067,47.6495],[1.4045,47.6508],[1.3983,47.6491],[1.3878,47.6488],[1.3827,47.6518],[1.4002,47.6724],[1.4133,47.6620],[1.4173,47.6540]]]}},{"type":"Feature","properties":{"name":"Forêt de Beaumont"},"geometry":{"type":"Polygon","coordinates":[[[0.6815,47.5738],[0.6930,47.5697],[0.6908,47.5665],[0.6932,47.5649],[0.6884,47.5601],[0.6862,47.5606],[0.6877,47.5594],[0.6897,47.5606],[0.6897,47.5597],[0.6926,47.5594],[0.6949,47.5608],[0.6987,47.5589],[0.7007,47.5598],[0.7027,47.5591],[0.7056,47.5610],[0.7027,47.5624],[0.7042,47.5638],[0.7078,47.5619],[0.7038,47.5587],[0.7031,47.5565],[0.7080,47.5561],[0.7107,47.5589],[0.7119,47.5584],[0.7118,47.5554],[0.7138,47.5633],[0.7168,47.5680],[0.7208,47.5657],[0.7226,47.5677],[0.7199,47.5689],[0.7196,47.5708],[0.7245,47.5714],[0.7235,47.5730],[0.7209,47.5723],[0.7242,47.5758],[0.7260,47.5754],[0.7246,47.5738],[0.7291,47.5714],[0.7284,47.5698],[0.7324,47.5709],[0.7290,47.5738],[0.7307,47.5743],[0.7309,47.5765],[0.7333,47.5775],[0.7334,47.5765],[0.7360,47.5763],[0.7367,47.5793],[0.7323,47.5805],[0.7284,47.5786],[0.7288,47.5774],[0.7263,47.5776],[0.7238,47.5795],[0.7256,47.5810],[0.7242,47.5818],[0.7258,47.5883],[0.7342,47.5856],[0.7310,47.5846],[0.7324,47.5830],[0.7315,47.5819],[0.7333,47.5841],[0.7358,47.5831],[0.7371,47.5850],[0.7358,47.5840],[0.7344,47.5849],[0.7375,47.5858],[0.7359,47.5875],[0.7368,47.5885],[0.7386,47.5869],[0.7447,47.5855],[0.7484,47.5861],[0.7450,47.5893],[0.7508,47.5882],[0.7551,47.5896],[0.7526,47.5913],[0.7536,47.5931],[0.7444,47.5942],[0.7404,47.5937],[0.7401,47.5904],[0.7347,47.5899],[0.7342,47.5928],[0.7326,47.5914],[0.7299,47.5932],[0.7308,47.5943],[0.7362,47.5940],[0.7369,47.5975],[0.7321,47.5980],[0.7320,47.5994],[0.7355,47.5993],[0.7387,47.5972],[0.7399,47.5972],[0.7399,47.5988],[0.7470,47.5981],[0.7493,47.5959],[0.7539,47.5972],[0.7515,47.6006],[0.7478,47.6009],[0.7455,47.6030],[0.7471,47.6042],[0.7464,47.6058],[0.7340,47.6093],[0.7318,47.6117],[0.7349,47.6128],[0.7334,47.6149],[0.7294,47.6139],[0.7283,47.6154],[0.7271,47.6134],[0.7293,47.6127],[0.7270,47.6116],[0.7288,47.6099],[0.7310,47.6100],[0.7277,47.6066],[0.7292,47.6062],[0.7280,47.6048],[0.7263,47.6054],[0.7265,47.6064],[0.7250,47.6057],[0.7213,47.6073],[0.7205,47.6108],[0.7191,47.6099],[0.7200,47.6063],[0.7186,47.6050],[0.7213,47.6061],[0.7189,47.6026],[0.7238,47.6006],[0.7225,47.5984],[0.7125,47.5979],[0.7151,47.5997],[0.7132,47.5998],[0.7129,47.6015],[0.7118,47.6014],[0.7122,47.6000],[0.7099,47.5995],[0.7098,47.5975],[0.7043,47.5981],[0.7018,47.6005],[0.7006,47.5992],[0.6986,47.5997],[0.6983,47.5978],[0.6923,47.5976],[0.6939,47.5997],[0.6922,47.5998],[0.6893,47.6028],[0.6922,47.6028],[0.6955,47.6061],[0.6999,47.6070],[0.7022,47.6095],[0.6990,47.6117],[0.6934,47.6120],[0.6924,47.6124],[0.6934,47.6134],[0.6894,47.6138],[0.6891,47.6146],[0.6937,47.6173],[0.6865,47.6158],[0.6872,47.6141],[0.6854,47.6129],[0.6800,47.6134],[0.6814,47.6160],[0.6794,47.6165],[0.6797,47.6156],[0.6766,47.6149],[0.6761,47.6118],[0.6712,47.6114],[0.6675,47.6090],[0.6645,47.6102],[0.6608,47.6082],[0.6611,47.6072],[0.6505,47.6040],[0.6497,47.6020],[0.6523,47.6020],[0.6545,47.5991],[0.6537,47.5988],[0.6565,47.5979],[0.6544,47.5969],[0.6590,47.5949],[0.6590,47.5981],[0.6630,47.5990],[0.6627,47.6002],[0.6590,47.5995],[0.6565,47.6033],[0.6615,47.6054],[0.6619,47.6037],[0.6641,47.6053],[0.6658,47.6007],[0.6677,47.6009],[0.6668,47.5981],[0.6718,47.5958],[0.6720,47.5912],[0.6680,47.5898],[0.6653,47.5945],[0.6619,47.5936],[0.6608,47.5946],[0.6585,47.5931],[0.6625,47.5928],[0.6654,47.5898],[0.6633,47.5904],[0.6643,47.5892],[0.6633,47.5880],[0.6655,47.5874],[0.6659,47.5848],[0.6618,47.5838],[0.6628,47.5818],[0.6573,47.5802],[0.6605,47.5786],[0.6592,47.5774],[0.6624,47.5748],[0.6613,47.5738],[0.6638,47.5731],[0.6638,47.5750],[0.6677,47.5766],[0.6651,47.5810],[0.6734,47.5846],[0.6747,47.5843],[0.6741,47.5826],[0.6765,47.5830],[0.6752,47.5818],[0.6781,47.5795],[0.6774,47.5780],[0.6806,47.5759],[0.6815,47.5738]]]}},{"type":"Feature","properties":{"name":"Bois du Fou"},"geometry":{"type":"Polygon","coordinates":[[[0.4731,46.7181],[0.4770,46.7234],[0.4882,46.7246],[0.4906,46.7264],[0.4867,46.7285],[0.4940,46.7286],[0.4955,46.7292],[0.4936,46.7303],[0.4964,46.7311],[0.4988,46.7300],[0.4968,46.7288],[0.4976,46.7271],[0.4955,46.7272],[0.4947,46.7261],[0.4985,46.7239],[0.5000,46.7244],[0.5009,46.7236],[0.4987,46.7225],[0.5033,46.7189],[0.5048,46.7192],[0.5036,46.7187],[0.5040,46.7171],[0.5012,46.7178],[0.4943,46.7143],[0.4940,46.7124],[0.4975,46.7105],[0.5032,46.7125],[0.5015,46.7100],[0.5038,46.7085],[0.5018,46.7077],[0.4909,46.7117],[0.4881,46.7088],[0.4851,46.7109],[0.4877,46.7120],[0.4844,46.7156],[0.4751,46.7166],[0.4731,46.7181]]]}},{"type":"Feature","properties":{"name":"Bois de la Queue"},"geometry":{"type":"Polygon","coordinates":[[[1.1499,47.5786],[1.1453,47.5784],[1.1476,47.5774],[1.1512,47.5788],[1.1522,47.5740],[1.1551,47.5741],[1.1568,47.5715],[1.1585,47.5719],[1.1588,47.5693],[1.1607,47.5673],[1.1523,47.5637],[1.1478,47.5640],[1.1409,47.5717],[1.1424,47.5719],[1.1414,47.5751],[1.1396,47.5754],[1.1391,47.5772],[1.1363,47.5770],[1.1359,47.5793],[1.1304,47.5861],[1.1334,47.5860],[1.1359,47.5821],[1.1421,47.5842],[1.1441,47.5810],[1.1461,47.5811],[1.1499,47.5786]]]}}]}