{"type":"FeatureCollection","features":[{"type":"Feature","properties":{"name":"Foret Noire"},"geometry":{"type":"Polygon","coordinates":[[[5.6246,46.2121],[5.6263,46.2144],[5.6254,46.2136],[5.6248,46.2161],[5.6256,46.2176],[5.6285,46.2187],[5.6261,46.2203],[5.6247,46.2196],[5.6277,46.2209],[5.6282,46.2200],[5.6284,46.2215],[5.6270,46.2206],[5.6287,46.2220],[5.6248,46.2234],[5.6245,46.2251],[5.6273,46.2238],[5.6254,46.2235],[5.6279,46.2238],[5.6263,46.2246],[5.6351,46.2346],[5.6367,46.2386],[5.6399,46.2414],[5.6438,46.2422],[5.6436,46.2435],[5.6468,46.2438],[5.6510,46.2467],[5.6516,46.2458],[5.6553,46.2487],[5.6551,46.2529],[5.6563,46.2522],[5.6552,46.2495],[5.6577,46.2481],[5.6555,46.2449],[5.6516,46.2453],[5.6492,46.2439],[5.6537,46.2436],[5.6518,46.2411],[5.6528,46.2384],[5.6579,46.2403],[5.6622,46.2332],[5.6591,46.2277],[5.6601,46.2238],[5.6575,46.2227],[5.6541,46.2234],[5.6526,46.2222],[5.6519,46.2237],[5.6480,46.2229],[5.6409,46.2193],[5.6382,46.2218],[5.6391,46.2231],[5.6425,46.2232],[5.6396,46.2274],[5.6314,46.2239],[5.6326,46.2186],[5.6296,46.2123],[5.6331,46.2101],[5.6246,46.2121]]]}},{"type":"Feature","properties":{"name":"Forêt de la Combe"},"geometry":{"type":"Polygon","coordinates":[[[6.1028,46.4027],[6.0966,46.4107],[6.0912,46.4129],[6.0923,46.4119],[6.0901,46.4116],[6.0915,46.4113],[6.0900,46.4112],[6.0907,46.4105],[6.0877,46.4119],[6.0936,46.4139],[6.0917,46.4139],[6.0925,46.4145],[6.0964,46.4147],[6.0983,46.4114],[6.1059,46.4100],[6.1071,46.4132],[6.1137,46.4144],[6.1120,46.4121],[6.1122,46.4095],[6.1142,46.4073],[6.1117,46.4069],[6.1153,46.4051],[6.1176,46.4050],[6.1188,46.4067],[6.1194,46.4084],[6.1181,46.4103],[6.1197,46.4113],[6.1282,46.4093],[6.1219,46.4126],[6.1215,46.4148],[6.1251,46.4148],[6.1281,46.4128],[6.1354,46.4142],[6.1361,46.4157],[6.1346,46.4172],[6.1355,46.4180],[6.1444,46.4191],[6.1448,46.4201],[6.1412,46.4233],[6.1419,46.4249],[6.1445,46.4251],[6.1483,46.4277],[6.1504,46.4317],[6.1584,46.4326],[6.1506,46.4365],[6.1542,46.4370],[6.1529,46.4377],[6.1537,46.4385],[6.1501,46.4387],[6.1550,46.4414],[6.1509,46.4443],[6.1547,46.4452],[6.1555,46.4428],[6.1563,46.4448],[6.1638,46.4431],[6.1626,46.4413],[6.1656,46.4401],[6.1631,46.4382],[6.1624,46.4354],[6.1645,46.4381],[6.1703,46.4401],[6.1669,46.4382],[6.1682,46.4353],[6.1663,46.4320],[6.1717,46.4335],[6.1720,46.4353],[6.1723,46.4330],[6.1706,46.4285],[6.1788,46.4320],[6.1775,46.4304],[6.1788,46.4281],[6.1767,46.4248],[6.1752,46.4258],[6.1736,46.4251],[6.1801,46.4213],[6.1780,46.4197],[6.1753,46.4214],[6.1736,46.4186],[6.1700,46.4170],[6.1732,46.4169],[6.1767,46.4188],[6.1785,46.4173],[6.1775,46.4178],[6.1768,46.4167],[6.1761,46.4179],[6.1755,46.4165],[6.1730,46.4162],[6.1736,46.4148],[6.1722,46.4137],[6.1708,46.4154],[6.1717,46.4140],[6.1703,46.4137],[6.1699,46.4152],[6.1640,46.4155],[6.1652,46.4142],[6.1626,46.4138],[6.1637,46.4125],[6.1651,46.4133],[6.1660,46.4119],[6.1641,46.4106],[6.1603,46.4144],[6.1561,46.4130],[6.1549,46.4100],[6.1527,46.4098],[6.1501,46.4071],[6.1545,46.4045],[6.1511,46.4049],[6.1500,46.4069],[6.1457,46.4038],[6.1479,46.3991],[6.1460,46.3999],[6.1456,46.3985],[6.1499,46.3966],[6.1464,46.3954],[6.1470,46.3966],[6.1455,46.3939],[6.1441,46.3952],[6.1424,46.3949],[6.1438,46.3925],[6.1414,46.3933],[6.1414,46.3915],[6.1387,46.3937],[6.1375,46.3932],[6.1412,46.3907],[6.1375,46.3908],[6.1357,46.3885],[6.1130,46.4000],[6.1147,46.3975],[6.1138,46.3969],[6.1092,46.3996],[6.1069,46.3997],[6.1090,46.4018],[6.1086,46.4055],[6.1097,46.4062],[6.1056,46.4064],[6.1061,46.4033],[6.1050,46.4052],[6.1057,46.4062],[6.1042,46.4066],[6.1028,46.4027]]]}},{"type":"Feature","properties":{"name":"Bois Perriod"},"geometry":{"type":"Polygon","coordinates":[[[6.0278,46.2413],[6.0294,46.2436],[6.0319,46.2436],[6.0343,46.2475],[6.0359,46.2468],[6.0379,46.2486],[6.0415,46.2488],[6.0445,46.2538],[6.0491,46.2560],[6.0483,46.2565],[6.0506,46.2578],[6.0494,46.2584],[6.0567,46.2626],[6.0558,46.2638],[6.0577,46.2630],[6.0614,46.2654],[6.0591,46.2664],[6.0624,46.2661],[6.0610,46.2670],[6.0632,46.2681],[6.0610,46.2687],[6.0616,46.2703],[6.0629,46.2697],[6.0615,46.2708],[6.0599,46.2691],[6.0619,46.2741],[6.0590,46.2711],[6.0614,46.2751],[6.0589,46.2712],[6.0572,46.2719],[6.0586,46.2720],[6.0597,46.2752],[6.0613,46.2756],[6.0605,46.2766],[6.0614,46.2780],[6.0601,46.2773],[6.0599,46.2790],[6.0587,46.2784],[6.0592,46.2796],[6.0580,46.2800],[6.0588,46.2789],[6.0576,46.2787],[6.0552,46.2807],[6.0534,46.2790],[6.0555,46.2789],[6.0565,46.2770],[6.0528,46.2784],[6.0548,46.2769],[6.0527,46.2778],[6.0543,46.2753],[6.0525,46.2764],[6.0541,46.2751],[6.0511,46.2735],[6.0486,46.2744],[6.0526,46.2783],[6.0503,46.2795],[6.0506,46.2807],[6.0481,46.2802],[6.0483,46.2786],[6.0484,46.2798],[6.0463,46.2792],[6.0460,46.2776],[6.0457,46.2790],[6.0455,46.2767],[6.0443,46.2754],[6.0428,46.2759],[6.0444,46.2752],[6.0421,46.2758],[6.0418,46.2772],[6.0412,46.2760],[6.0402,46.2766],[6.0438,46.2779],[6.0434,46.2789],[6.0454,46.2807],[6.0433,46.2789],[6.0424,46.2790],[6.0437,46.2803],[6.0419,46.2793],[6.0439,46.2784],[6.0418,46.2776],[6.0390,46.2787],[6.0354,46.2747],[6.0356,46.2763],[6.0342,46.2727],[6.0406,46.2700],[6.0396,46.2708],[6.0415,46.2729],[6.0442,46.2717],[6.0388,46.2688],[6.0441,46.2710],[6.0459,46.2698],[6.0443,46.2673],[6.0452,46.2664],[6.0450,46.2677],[6.0475,46.2676],[6.0496,46.2652],[6.0479,46.2627],[6.0496,46.2647],[6.0501,46.2618],[6.0520,46.2637],[6.0510,46.2642],[6.0521,46.2679],[6.0510,46.2683],[6.0527,46.2693],[6.0543,46.2651],[6.0530,46.2628],[6.0510,46.2623],[6.0524,46.2618],[6.0505,46.2616],[6.0515,46.2608],[6.0509,46.2599],[6.0494,46.2608],[6.0477,46.2590],[6.0469,46.2578],[6.0483,46.2585],[6.0482,46.2573],[6.0462,46.2555],[6.0471,46.2568],[6.0454,46.2565],[6.0467,46.2583],[6.0438,46.2598],[6.0463,46.2581],[6.0448,46.2566],[6.0457,46.2551],[6.0421,46.2567],[6.0420,46.2579],[6.0414,46.2550],[6.0387,46.2568],[6.0402,46.2556],[6.0382,46.2547],[6.0403,46.2545],[6.0395,46.2536],[6.0418,46.2549],[6.0421,46.2565],[6.0456,46.2549],[6.0442,46.2539],[6.0436,46.2547],[6.0431,46.2517],[6.0429,46.2527],[6.0414,46.2503],[6.0397,46.2511],[6.0405,46.2492],[6.0338,46.2474],[6.0313,46.2438],[6.0276,46.2430],[6.0286,46.2425],[6.0278,46.2413],[6.0209,46.2368],[6.0172,46.2373],[6.0185,46.2362],[6.0175,46.2349],[6.0145,46.2395],[6.0127,46.2383],[6.0152,46.2384],[6.0144,46.2376],[6.0154,46.2358],[6.0137,46.2350],[6.0140,46.2365],[6.0124,46.2371],[6.0136,46.2345],[6.0118,46.2346],[6.0151,46.2326],[6.0176,46.2326],[6.0176,46.2341],[6.0243,46.2388],[6.0260,46.2386],[6.0248,46.2394],[6.0277,46.2412],[6.0278,46.2413]]]}},{"type":"Feature","properties":{"name":"Bois de Fougemagne"},"geometry":{"type":"Polygon","coordinates":[[[5.2980,46.4021],[5.2983,46.4059],[5.3000,46.4085],[5.2994,46.4126],[5.3249,46.4082],[5.3262,46.4014],[5.3195,46.3955],[5.3170,46.3949],[5.3058,46.4006],[5.2980,46.4021]]]}},{"type":"Feature","properties":{"name":"Forêt du Risoux"},"geometry":{"type":"Polygon","coordinates":[[[6.0307,46.5213],[6.0321,46.5226],[6.0313,46.5233],[6.0347,46.5236],[6.0362,46.5258],[6.0449,46.5312],[6.0441,46.5320],[6.0468,46.5327],[6.0551,46.5392],[6.0532,46.5415],[6.0558,46.5408],[6.0567,46.5417],[6.0556,46.5426],[6.0598,46.5433],[6.0578,46.5439],[6.0585,46.5449],[6.0587,46.5438],[6.0605,46.5435],[6.0602,46.5453],[6.0626,46.5451],[6.0629,46.5472],[6.0645,46.5477],[6.0578,46.5466],[6.0532,46.5486],[6.0521,46.5505],[6.0574,46.5491],[6.0562,46.5502],[6.0567,46.5513],[6.0589,46.5512],[6.0599,46.5529],[6.0615,46.5511],[6.0644,46.5520],[6.0672,46.5510],[6.0711,46.5562],[6.0804,46.5504],[6.0712,46.5564],[6.0720,46.5566],[6.0760,46.5549],[6.0766,46.5564],[6.0800,46.5547],[6.0810,46.5506],[6.0801,46.5504],[6.0815,46.5503],[6.0803,46.5548],[6.0739,46.5580],[6.0785,46.5590],[6.0712,46.5615],[6.0723,46.5637],[6.0707,46.5640],[6.0709,46.5651],[6.0743,46.5661],[6.0761,46.5637],[6.0738,46.5622],[6.0785,46.5598],[6.0774,46.5623],[6.0806,46.5613],[6.0802,46.5621],[6.0834,46.5636],[6.0805,46.5660],[6.0854,46.5645],[6.0909,46.5663],[6.0907,46.5672],[6.0927,46.5665],[6.0909,46.5657],[6.0929,46.5645],[6.0939,46.5664],[6.0916,46.5681],[6.0938,46.5682],[6.0957,46.5702],[6.0976,46.5690],[6.0982,46.5721],[6.1047,46.5750],[6.1085,46.5788],[6.1094,46.5804],[6.1073,46.5803],[6.1108,46.5831],[6.1083,46.5855],[6.1099,46.5862],[6.1124,46.5845],[6.1170,46.5879],[6.1180,46.5871],[6.1154,46.5845],[6.1171,46.5850],[6.1225,46.5942],[6.1251,46.5946],[6.1241,46.5953],[6.1262,46.5961],[6.1248,46.5969],[6.1221,46.5959],[6.1219,46.5969],[6.1264,46.6017],[6.1257,46.6031],[6.1270,46.6050],[6.1350,46.6099],[6.1345,46.6116],[6.1363,46.6135],[6.1409,46.6155],[6.1402,46.6189],[6.1427,46.6217],[6.1415,46.6250],[6.1423,46.6315],[6.1435,46.6326],[6.1418,46.6342],[6.1434,46.6372],[6.1466,46.6383],[6.1458,46.6392],[6.1478,46.6393],[6.1516,46.6367],[6.1491,46.6360],[6.1499,46.6352],[6.1524,46.6364],[6.1544,46.6356],[6.1565,46.6376],[6.1577,46.6369],[6.1569,46.6385],[6.1538,46.6368],[6.1537,46.6357],[6.1518,46.6370],[6.1491,46.6438],[6.1446,46.6489],[6.1428,46.6530],[6.1457,46.6507],[6.1489,46.6529],[6.1517,46.6501],[6.1546,46.6460],[6.1541,46.6450],[6.1490,46.6461],[6.1506,46.6456],[6.1495,46.6433],[6.1533,46.6419],[6.1537,46.6408],[6.1583,46.6423],[6.1561,46.6458],[6.1580,46.6466],[6.1613,46.6420],[6.1661,46.6411],[6.1665,46.6421],[6.1633,46.6451],[6.1638,46.6462],[6.1591,46.6490],[6.1620,46.6500],[6.1634,46.6490],[6.1617,46.6505],[6.1593,46.6501],[6.1632,46.6561],[6.1666,46.6548],[6.1679,46.6528],[6.1686,46.6537],[6.1692,46.6522],[6.1673,46.6505],[6.1641,46.6514],[6.1625,46.6503],[6.1652,46.6495],[6.1638,46.6485],[6.1659,46.6458],[6.1712,46.6457],[6.1700,46.6487],[6.1727,46.6492],[6.1740,46.6473],[6.1742,46.6489],[6.1769,46.6501],[6.2128,46.6404],[6.2075,46.6354],[6.2057,46.6348],[6.2041,46.6361],[6.1995,46.6344],[6.2006,46.6335],[6.1959,46.6294],[6.1963,46.6281],[6.1790,46.6200],[6.1783,46.6156],[6.1653,46.6101],[6.1612,46.6100],[6.1538,46.6038],[6.1481,46.6022],[6.1265,46.5899],[6.1219,46.5841],[6.1105,46.5764],[6.1437,46.5539],[6.1419,46.5523],[6.1443,46.5535],[6.1452,46.5529],[6.1441,46.5515],[6.1459,46.5525],[6.1475,46.5514],[6.1464,46.5494],[6.1434,46.5494],[6.1385,46.5433],[6.1279,46.5373],[6.1251,46.5395],[6.1216,46.5380],[6.1215,46.5397],[6.1131,46.5356],[6.1033,46.5279],[6.1082,46.5265],[6.1068,46.5241],[6.1077,46.5227],[6.0895,46.5085],[6.0808,46.5101],[6.0798,46.5071],[6.0849,46.5076],[6.0845,46.5060],[6.0801,46.5039],[6.0740,46.5083],[6.0739,46.5064],[6.0766,46.5032],[6.0756,46.5014],[6.0732,46.5006],[6.0733,46.5020],[6.0757,46.5025],[6.0737,46.5043],[6.0711,46.5038],[6.0717,46.5022],[6.0687,46.5010],[6.0680,46.5039],[6.0646,46.5030],[6.0685,46.5060],[6.0618,46.5020],[6.0650,46.5030],[6.0632,46.5021],[6.0644,46.5006],[6.0657,46.5011],[6.0666,46.4993],[6.0572,46.4950],[6.0541,46.4953],[6.0532,46.4960],[6.0549,46.4982],[6.0506,46.5040],[6.0458,46.5044],[6.0446,46.5072],[6.0429,46.5074],[6.0433,46.5086],[6.0415,46.5095],[6.0423,46.5113],[6.0397,46.5132],[6.0390,46.5184],[6.0431,46.5224],[6.0454,46.5224],[6.0506,46.5267],[6.0522,46.5294],[6.0415,46.5241],[6.0413,46.5260],[6.0372,46.5240],[6.0308,46.5163],[6.0275,46.5158],[6.0273,46.5195],[6.0307,46.5213]]]}},{"type":"Feature","properties":{"name":"Bois de Varignolle"},"geometry":{"type":"Polygon","coordinates":[[[5.2535,46.4716],[5.2574,46.4730],[5.2595,46.4724],[5.2572,46.4764],[5.2525,46.4763],[5.2520,46.4777],[5.2541,46.4785],[5.2505,46.4789],[5.2497,46.4797],[5.2509,46.4807],[5.2485,46.4806],[5.2505,46.4825],[5.2493,46.4827],[5.2499,46.4842],[5.2456,46.4855],[5.2459,46.4863],[5.2491,46.4855],[5.2523,46.4871],[5.2524,46.4889],[5.2547,46.4897],[5.2521,46.4902],[5.2556,46.4908],[5.2611,46.4960],[5.2676,46.4974],[5.2705,46.4966],[5.2695,46.4954],[5.2707,46.4945],[5.2645,46.4950],[5.2656,46.4935],[5.2644,46.4925],[5.2664,46.4915],[5.2661,46.4898],[5.2649,46.4901],[5.2652,46.4872],[5.2626,46.4875],[5.2619,46.4896],[5.2600,46.4898],[5.2609,46.4876],[5.2642,46.4862],[5.2647,46.4848],[5.2635,46.4845],[5.2645,46.4835],[5.2660,46.4833],[5.2653,46.4854],[5.2697,46.4838],[5.2688,46.4833],[5.2693,46.4803],[5.2676,46.4783],[5.2661,46.4787],[5.2661,46.4774],[5.2634,46.4785],[5.2673,46.4806],[5.2651,46.4817],[5.2642,46.4806],[5.2614,46.4812],[5.2615,46.4795],[5.2593,46.4800],[5.2602,46.4763],[5.2620,46.4759],[5.2598,46.4754],[5.2596,46.4713],[5.2620,46.4699],[5.2614,46.4684],[5.2632,46.4684],[5.2629,46.4661],[5.2644,46.4653],[5.2612,46.4640],[5.2561,46.4653],[5.2557,46.4638],[5.2540,46.4642],[5.2537,46.4670],[5.2522,46.4671],[5.2522,46.4649],[5.2494,46.4686],[5.2507,46.4692],[5.2509,46.4713],[5.2535,46.4716]]]}},{"type":"Feature","properties":{"name":"Bois de Rosnay"},"geometry":{"type":"Polygon","coordinates":[[[5.5992,46.7101],[5.6002,46.7086],[5.5995,46.7113],[5.6013,46.7128],[5.6002,46.7131],[5.6077,46.7215],[5.6101,46.7194],[5.6067,46.7193],[5.6109,46.7193],[5.6133,46.7171],[5.6085,46.7165],[5.6137,46.7164],[5.6172,46.7121],[5.6161,46.7094],[5.6070,46.7120],[5.6079,46.7137],[5.6054,46.7148],[5.6046,46.7130],[5.6070,46.7123],[5.6058,46.7104],[5.6007,46.7093],[5.6017,46.7093],[5.6004,46.7081],[5.6032,46.7078],[5.6064,46.7100],[5.6098,46.7035],[5.6113,46.7030],[5.6114,46.7020],[5.6093,46.7016],[5.6093,46.7006],[5.6124,46.7003],[5.6115,46.6960],[5.6085,46.6934],[5.6034,46.6985],[5.6002,46.6970],[5.6015,46.6990],[5.5993,46.6978],[5.6001,46.6997],[5.6030,46.6999],[5.5983,46.7053],[5.5985,46.7084],[5.5945,46.7103],[5.5982,46.7101],[5.5990,46.7115],[5.5992,46.7101]]]}},{"type":"Feature","properties":{"name":"Bois des Vernes"},"geometry":{"type":"Polygon","coordinates":[[[5.4171,46.7090],[5.4112,46.7070],[5.4096,46.7083],[5.4070,46.7145],[5.4113,46.7149],[5.4084,46.7167],[5.4110,46.7206],[5.4166,46.7206],[5.4137,46.7180],[5.4432,46.7181],[5.4346,46.7122],[5.4327,46.7126],[5.4344,46.7120],[5.4322,46.7106],[5.4269,46.7118],[5.4320,46.7105],[5.4290,46.7086],[5.4285,46.7099],[5.4217,46.7118],[5.4197,46.7094],[5.4162,46.7100],[5.4171,46.7090]]]}},{"type":"Feature","properties":{"name":"Bois des Fouchères"},"geometry":{"type":"Polygon","coordinates":[[[5.8806,47.2900],[5.8848,47.2878],[5.8861,47.2898],[5.8844,47.2907],[5.8851,47.2912],[5.8872,47.2903],[5.8872,47.2888],[5.8894,47.2893],[5.8891,47.2879],[5.8933,47.2888],[5.8948,47.2876],[5.8911,47.2876],[5.8946,47.2859],[5.8942,47.2834],[5.8958,47.2804],[5.8987,47.2816],[5.8985,47.2788],[5.8897,47.2753],[5.8862,47.2756],[5.8879,47.2772],[5.8848,47.2800],[5.8815,47.2768],[5.8787,47.2777],[5.8777,47.2803],[5.8782,47.2769],[5.8760,47.2758],[5.8728,47.2791],[5.8706,47.2797],[5.8699,47.2816],[5.8650,47.2822],[5.8604,47.2809],[5.8571,47.2823],[5.8449,47.2768],[5.8424,47.2784],[5.8373,47.2782],[5.8347,47.2796],[5.8330,47.2827],[5.8361,47.2841],[5.8622,47.2859],[5.8806,47.2900]]]}},{"type":"Feature","properties":{"name":"Bois d\u0027Aglans"},"geometry":{"type":"Polygon","coordinates":[[[6.0908,47.1992],[6.0925,47.1983],[6.0927,47.1955],[6.0888,47.1973],[6.0902,47.1939],[6.0850,47.1868],[6.0765,47.1872],[6.0761,47.1886],[6.0705,47.1876],[6.0693,47.1927],[6.0677,47.1928],[6.0674,47.1966],[6.0618,47.1940],[6.0606,47.1963],[6.0597,47.1952],[6.0585,47.1957],[6.0606,47.1970],[6.0616,47.1955],[6.0628,47.1975],[6.0674,47.1988],[6.0688,47.2011],[6.0706,47.2010],[6.0704,47.2032],[6.0729,47.2038],[6.0734,47.2028],[6.0715,47.2020],[6.0791,47.2020],[6.0778,47.2015],[6.0785,47.1999],[6.0772,47.1993],[6.0751,47.2009],[6.0753,47.1998],[6.0726,47.1977],[6.0805,47.1984],[6.0802,47.1995],[6.0826,47.1989],[6.0834,47.2010],[6.0871,47.1985],[6.0893,47.2000],[6.0908,47.1992]]]}},{"type":"Feature","properties":{"name":"Bois des Fouchères"},"geometry":{"type":"Polygon","coordinates":[[[5.8801,47.2905],[5.8637,47.2869],[5.8340,47.2845],[5.8329,47.2861],[5.8319,47.2845],[5.8143,47.2837],[5.8106,47.2887],[5.8118,47.2907],[5.8146,47.2911],[5.8146,47.2922],[5.8179,47.2932],[5.8183,47.2946],[5.8215,47.2954],[5.8206,47.2948],[5.8248,47.2946],[5.8238,47.2942],[5.8257,47.2929],[5.8252,47.2921],[5.8279,47.2921],[5.8288,47.2901],[5.8314,47.2901],[5.8270,47.2932],[5.8296,47.2951],[5.8315,47.2939],[5.8357,47.2945],[5.8363,47.2934],[5.8338,47.2915],[5.8363,47.2913],[5.8350,47.2905],[5.8363,47.2898],[5.8416,47.2916],[5.8410,47.2925],[5.8467,47.2910],[5.8516,47.2952],[5.8544,47.2939],[5.8559,47.2948],[5.8548,47.2935],[5.8578,47.2929],[5.8593,47.2943],[5.8597,47.2916],[5.8619,47.2897],[5.8682,47.2939],[5.8743,47.2953],[5.8771,47.2943],[5.8776,47.2911],[5.8797,47.2922],[5.8788,47.2916],[5.8801,47.2905]]]}},{"type":"Feature","properties":{"name":"Bois de Rosnay"},"geometry":{"type":"Polygon","coordinates":[[[5.6115,46.6960],[5.6124,46.7003],[5.6109,46.7017],[5.6113,46.7033],[5.6054,46.7102],[5.6069,46.7120],[5.6132,46.7105],[5.6135,46.7095],[5.6138,46.7104],[5.6155,46.7099],[5.6160,46.7091],[5.6142,46.7086],[5.6156,46.7080],[5.6154,46.7067],[5.6207,46.7079],[5.6204,46.7027],[5.6236,46.6960],[5.6219,46.6945],[5.6285,46.6924],[5.6269,46.6862],[5.6105,46.6923],[5.6115,46.6960]]]}},{"type":"Feature","properties":{"name":"Bois Monsieur"},"geometry":{"type":"Polygon","coordinates":[[[5.9060,47.1979],[5.9078,47.2007],[5.9106,47.2020],[5.9081,47.2015],[5.9091,47.2035],[5.9175,47.2110],[5.9321,47.2098],[5.9418,47.2140],[5.9413,47.2132],[5.9433,47.2122],[5.9405,47.2083],[5.9445,47.2066],[5.9461,47.2080],[5.9453,47.2097],[5.9467,47.2122],[5.9509,47.2101],[5.9559,47.2156],[5.9575,47.2163],[5.9598,47.2144],[5.9575,47.2155],[5.9560,47.2148],[5.9586,47.2131],[5.9568,47.2125],[5.9570,47.2114],[5.9582,47.2119],[5.9583,47.2096],[5.9555,47.2100],[5.9586,47.2074],[5.9603,47.2081],[5.9597,47.2065],[5.9583,47.2059],[5.9569,47.2076],[5.9531,47.2073],[5.9536,47.2033],[5.9519,47.2037],[5.9502,47.2016],[5.9486,47.2021],[5.9496,47.2006],[5.9475,47.1988],[5.9493,47.1977],[5.9471,47.1975],[5.9463,47.1925],[5.9423,47.1902],[5.9397,47.1908],[5.9389,47.1855],[5.9354,47.1859],[5.9384,47.1907],[5.9425,47.1922],[5.9395,47.1943],[5.9404,47.1955],[5.9381,47.1979],[5.9315,47.1941],[5.9315,47.1922],[5.9335,47.1919],[5.9326,47.1889],[5.9339,47.1887],[5.9324,47.1868],[5.9269,47.1886],[5.9276,47.1956],[5.9298,47.1959],[5.9324,47.1990],[5.9295,47.2002],[5.9305,47.2021],[5.9274,47.2030],[5.9233,47.1994],[5.9208,47.1989],[5.9193,47.2000],[5.9184,47.1994],[5.9190,47.2002],[5.9160,47.1996],[5.9213,47.2024],[5.9208,47.2035],[5.9245,47.2059],[5.9249,47.2074],[5.9200,47.2049],[5.9204,47.2033],[5.9117,47.2002],[5.9141,47.1998],[5.9136,47.1974],[5.9099,47.1974],[5.9117,47.1983],[5.9104,47.1995],[5.9088,47.1983],[5.9098,47.1978],[5.9090,47.1964],[5.9060,47.1979]]]}},{"type":"Feature","properties":{"name":"Forêt domaniale de Longchamp"},"geometry":{"type":"Polygon","coordinates":[[[5.2977,47.2567],[5.2970,47.2585],[5.3018,47.2596],[5.3015,47.2605],[5.3032,47.2611],[5.3000,47.2635],[5.3012,47.2639],[5.2988,47.2654],[5.2993,47.2663],[5.2968,47.2673],[5.2990,47.2692],[5.3009,47.2688],[5.3021,47.2707],[5.3012,47.2711],[5.3031,47.2729],[5.2979,47.2753],[5.2920,47.2730],[5.2879,47.2743],[5.2901,47.2761],[5.2826,47.2793],[5.2865,47.2819],[5.2841,47.2820],[5.2837,47.2832],[5.2884,47.2836],[5.2913,47.2860],[5.2899,47.2871],[5.2838,47.2869],[5.2823,47.2887],[5.2936,47.2868],[5.2958,47.2889],[5.2971,47.2882],[5.2990,47.2896],[5.2882,47.2938],[5.2876,47.2996],[5.2928,47.3011],[5.2906,47.3031],[5.2933,47.3014],[5.2956,47.3030],[5.2973,47.3001],[5.3011,47.3009],[5.3030,47.2990],[5.3040,47.2993],[5.3028,47.3007],[5.3040,47.3022],[5.3013,47.3034],[5.3003,47.3062],[5.3023,47.3071],[5.3049,47.3061],[5.3061,47.3084],[5.3100,47.3093],[5.3137,47.3123],[5.3163,47.3113],[5.3190,47.3128],[5.3253,47.3100],[5.3279,47.3111],[5.3236,47.3154],[5.3250,47.3172],[5.3222,47.3190],[5.3202,47.3182],[5.3215,47.3199],[5.3278,47.3204],[5.3557,47.3126],[5.3540,47.3094],[5.3502,47.3063],[5.3557,47.3062],[5.3544,47.3049],[5.3518,47.3053],[5.3525,47.3030],[5.3478,47.2982],[5.3514,47.3012],[5.3560,47.3027],[5.3590,47.3061],[5.3604,47.3050],[5.3626,47.3062],[5.3660,47.3013],[5.3656,47.3059],[5.3668,47.3073],[5.3724,47.3062],[5.3731,47.3029],[5.3758,47.3010],[5.3756,47.2999],[5.3783,47.2988],[5.3769,47.2974],[5.3810,47.2983],[5.3828,47.3012],[5.3856,47.2999],[5.3817,47.2987],[5.3821,47.2943],[5.3791,47.2977],[5.3764,47.2953],[5.3773,47.2931],[5.3817,47.2919],[5.3777,47.2856],[5.3761,47.2850],[5.3751,47.2861],[5.3754,47.2844],[5.3726,47.2832],[5.3717,47.2847],[5.3687,47.2850],[5.3665,47.2837],[5.3693,47.2809],[5.3689,47.2780],[5.3714,47.2766],[5.3676,47.2772],[5.3661,47.2752],[5.3701,47.2753],[5.3684,47.2746],[5.3700,47.2717],[5.3745,47.2715],[5.3726,47.2707],[5.3733,47.2685],[5.3771,47.2685],[5.3733,47.2684],[5.3721,47.2668],[5.3703,47.2690],[5.3693,47.2685],[5.3679,47.2662],[5.3703,47.2652],[5.3659,47.2665],[5.3659,47.2675],[5.3621,47.2671],[5.3633,47.2686],[5.3611,47.2694],[5.3614,47.2672],[5.3583,47.2663],[5.3574,47.2643],[5.3607,47.2658],[5.3663,47.2640],[5.3672,47.2646],[5.3668,47.2635],[5.3682,47.2629],[5.3643,47.2624],[5.3635,47.2607],[5.3644,47.2597],[5.3608,47.2584],[5.3583,47.2590],[5.3543,47.2624],[5.3507,47.2588],[5.3520,47.2565],[5.3497,47.2584],[5.3464,47.2580],[5.3420,47.2599],[5.3389,47.2548],[5.3426,47.2535],[5.3407,47.2486],[5.3418,47.2489],[5.3438,47.2451],[5.3495,47.2406],[5.3509,47.2424],[5.3559,47.2438],[5.3546,47.2453],[5.3562,47.2444],[5.3592,47.2467],[5.3637,47.2467],[5.3656,47.2479],[5.3644,47.2491],[5.3620,47.2492],[5.3610,47.2480],[5.3592,47.2494],[5.3578,47.2488],[5.3587,47.2495],[5.3561,47.2520],[5.3539,47.2516],[5.3553,47.2536],[5.3572,47.2537],[5.3584,47.2519],[5.3595,47.2527],[5.3617,47.2519],[5.3605,47.2528],[5.3611,47.2540],[5.3678,47.2509],[5.3701,47.2517],[5.3560,47.2345],[5.3531,47.2355],[5.3518,47.2328],[5.3539,47.2320],[5.3405,47.2172],[5.3191,47.2124],[5.3100,47.2130],[5.3118,47.2147],[5.3116,47.2162],[5.3086,47.2138],[5.3092,47.2130],[5.2942,47.2149],[5.2899,47.2198],[5.2912,47.2203],[5.2910,47.2239],[5.2943,47.2304],[5.2921,47.2314],[5.2885,47.2290],[5.2867,47.2316],[5.2889,47.2333],[5.2875,47.2346],[5.2894,47.2350],[5.2888,47.2367],[5.2830,47.2372],[5.2839,47.2358],[5.2814,47.2374],[5.2830,47.2396],[5.2814,47.2434],[5.2823,47.2456],[5.2860,47.2465],[5.2843,47.2489],[5.2856,47.2491],[5.2882,47.2556],[5.2917,47.2549],[5.2925,47.2522],[5.2943,47.2533],[5.2931,47.2512],[5.2950,47.2522],[5.2981,47.2477],[5.3020,47.2481],[5.3036,47.2467],[5.3052,47.2477],[5.3055,47.2506],[5.2977,47.2567]]]}},{"type":"Feature","properties":{"name":"Forêt domaniale de Levier"},"geometry":{"type":"Polygon","coordinates":[[[6.0786,46.9409],[6.0799,46.9398],[6.0888,46.9393],[6.0875,46.9383],[6.0894,46.9386],[6.0912,46.9372],[6.0959,46.9389],[6.0974,46.9368],[6.0966,46.9356],[6.0976,46.9351],[6.0960,46.9331],[6.0983,46.9314],[6.0942,46.9190],[6.0937,46.9071],[6.0930,46.9059],[6.0925,46.9068],[6.0902,46.9063],[6.0893,46.9080],[6.0893,46.9061],[6.0806,46.9025],[6.0791,46.9023],[6.0774,46.9043],[6.0793,46.9021],[6.0780,46.9016],[6.0759,46.9030],[6.0775,46.9014],[6.0760,46.9007],[6.0745,46.9018],[6.0674,46.8974],[6.0656,46.8977],[6.0648,46.9002],[6.0659,46.9030],[6.0616,46.9036],[6.0648,46.9062],[6.0647,46.9085],[6.0665,46.9090],[6.0700,46.9073],[6.0694,46.9132],[6.0610,46.9110],[6.0610,46.9134],[6.0587,46.9136],[6.0591,46.9119],[6.0537,46.9154],[6.0556,46.9158],[6.0561,46.9177],[6.0577,46.9157],[6.0608,46.9156],[6.0603,46.9179],[6.0585,46.9170],[6.0568,46.9187],[6.0604,46.9217],[6.0586,46.9227],[6.0647,46.9242],[6.0626,46.9252],[6.0661,46.9273],[6.0665,46.9288],[6.0709,46.9282],[6.0730,46.9302],[6.0752,46.9294],[6.0727,46.9337],[6.0735,46.9345],[6.0715,46.9345],[6.0728,46.9353],[6.0721,46.9364],[6.0705,46.9381],[6.0686,46.9377],[6.0680,46.9393],[6.0696,46.9405],[6.0786,46.9409]]]}},{"type":"Feature","properties":{"name":"Bois de la Côte de l\u0027Heute"},"geometry":{"type":"Polygon","coordinates":[[[5.6542,46.6296],[5.6580,46.6253],[5.6590,46.6188],[5.6600,46.6173],[5.6619,46.6174],[5.6602,46.6196],[5.6623,46.6210],[5.6598,46.6235],[5.6621,46.6267],[5.6619,46.6288],[5.6692,46.6346],[5.6616,46.6292],[5.6594,46.6300],[5.6584,46.6351],[5.6592,46.6326],[5.6642,46.6361],[5.6590,46.6357],[5.6594,46.6374],[5.6568,46.6360],[5.6573,46.6380],[5.6554,46.6381],[5.6562,46.6362],[5.6544,46.6368],[5.6547,46.6355],[5.6534,46.6348],[5.6497,46.6397],[5.6500,46.6366],[5.6488,46.6390],[5.6464,46.6398],[5.6457,46.6427],[5.6484,46.6421],[5.6490,46.6407],[5.6483,46.6419],[5.6498,46.6412],[5.6498,46.6424],[5.6484,46.6430],[5.6489,46.6446],[5.6473,46.6446],[5.6477,46.6455],[5.6440,46.6487],[5.6464,46.6495],[5.6429,46.6500],[5.6429,46.6516],[5.6443,46.6537],[5.6465,46.6539],[5.6494,46.6520],[5.6516,46.6527],[5.6460,46.6584],[5.6466,46.6598],[5.6496,46.6593],[5.6472,46.6591],[5.6484,46.6570],[5.6531,46.6561],[5.6551,46.6535],[5.6548,46.6548],[5.6621,46.6500],[5.6630,46.6526],[5.6657,46.6522],[5.6640,46.6529],[5.6655,46.6543],[5.6637,46.6548],[5.6658,46.6565],[5.6652,46.6571],[5.6698,46.6559],[5.6714,46.6572],[5.6735,46.6568],[5.6747,46.6551],[5.6738,46.6529],[5.6749,46.6524],[5.6722,46.6484],[5.6676,46.6448],[5.6789,46.6401],[5.6773,46.6416],[5.6801,46.6432],[5.6785,46.6408],[5.6795,46.6407],[5.6826,46.6484],[5.6871,46.6515],[5.6874,46.6548],[5.6916,46.6609],[5.6968,46.6660],[5.7038,46.6694],[5.7021,46.6703],[5.7008,46.6692],[5.6999,46.6705],[5.6962,46.6677],[5.6909,46.6697],[5.6887,46.6657],[5.6900,46.6654],[5.6922,46.6676],[5.6932,46.6663],[5.6906,46.6637],[5.6879,46.6640],[5.6888,46.6655],[5.6864,46.6646],[5.6870,46.6636],[5.6838,46.6632],[5.6833,46.6614],[5.6820,46.6621],[5.6828,46.6635],[5.6811,46.6640],[5.6835,46.6656],[5.6817,46.6663],[5.6827,46.6673],[5.6812,46.6696],[5.6809,46.6646],[5.6786,46.6673],[5.6788,46.6654],[5.6760,46.6651],[5.6755,46.6625],[5.6715,46.6622],[5.6733,46.6599],[5.6712,46.6604],[5.6704,46.6578],[5.6685,46.6593],[5.6696,46.6603],[5.6644,46.6624],[5.6667,46.6622],[5.6673,46.6642],[5.6640,46.6653],[5.6649,46.6672],[5.6635,46.6671],[5.6634,46.6681],[5.6645,46.6693],[5.6688,46.6681],[5.6679,46.6659],[5.6699,46.6644],[5.6730,46.6641],[5.6759,46.6660],[5.6776,46.6700],[5.6793,46.6690],[5.6806,46.6699],[5.6805,46.6716],[5.6829,46.6716],[5.6847,46.6696],[5.6946,46.6753],[5.6929,46.6777],[5.6840,46.6728],[5.6791,46.6737],[5.6784,46.6748],[5.6798,46.6866],[5.6849,46.6852],[5.6850,46.6835],[5.6851,46.6855],[5.6868,46.6852],[5.6856,46.6856],[5.6873,46.6872],[5.6894,46.6859],[5.6883,46.6834],[5.6900,46.6831],[5.6928,46.6839],[5.6944,46.6863],[5.6940,46.6881],[5.6865,46.6901],[5.6877,46.6913],[5.6865,46.6909],[5.6864,46.6922],[5.6903,46.6911],[5.6900,46.6927],[5.7067,46.6939],[5.7072,46.6924],[5.7054,46.6900],[5.7050,46.6864],[5.7038,46.6851],[5.7036,46.6884],[5.6975,46.6862],[5.7011,46.6818],[5.6958,46.6790],[5.6998,46.6711],[5.7040,46.6734],[5.7062,46.6721],[5.7072,46.6725],[5.7062,46.6814],[5.7191,46.6771],[5.7207,46.6805],[5.7183,46.6838],[5.7211,46.6852],[5.7227,46.6890],[5.7267,46.6921],[5.7250,46.6929],[5.7260,46.6937],[5.7243,46.6939],[5.7249,46.6955],[5.7263,46.6953],[5.7282,46.6911],[5.7310,46.6938],[5.7387,46.6978],[5.7420,46.6982],[5.7528,46.7045],[5.7528,46.7014],[5.7502,46.6994],[5.7513,46.6978],[5.7501,46.6913],[5.7408,46.6859],[5.7352,46.6778],[5.7285,46.6718],[5.7235,46.6624],[5.7267,46.6632],[5.7192,46.6600],[5.7223,46.6605],[5.7204,46.6583],[5.7189,46.6528],[5.7144,46.6498],[5.7143,46.6519],[5.7082,46.6481],[5.7106,46.6500],[5.7082,46.6508],[5.7092,46.6527],[5.7083,46.6537],[5.7054,46.6542],[5.7017,46.6517],[5.6990,46.6529],[5.6976,46.6502],[5.7003,46.6505],[5.6993,46.6486],[5.6939,46.6469],[5.6943,46.6454],[5.6855,46.6414],[5.6838,46.6391],[5.6846,46.6383],[5.6836,46.6390],[5.6773,46.6350],[5.6711,46.6233],[5.6675,46.6218],[5.6680,46.6203],[5.6699,46.6201],[5.6684,46.6156],[5.6702,46.6146],[5.6688,46.6149],[5.6698,46.6118],[5.6709,46.6097],[5.6729,46.6097],[5.6729,46.6062],[5.6714,46.6061],[5.6712,46.6043],[5.6711,46.5977],[5.6694,46.5940],[5.6675,46.5985],[5.6673,46.5953],[5.6659,46.5978],[5.6608,46.6010],[5.6617,46.5991],[5.6515,46.6000],[5.6544,46.6032],[5.6536,46.6049],[5.6506,46.6016],[5.6476,46.6021],[5.6490,46.6039],[5.6494,46.6108],[5.6519,46.6140],[5.6549,46.6155],[5.6523,46.6167],[5.6532,46.6182],[5.6518,46.6180],[5.6523,46.6158],[5.6495,46.6188],[5.6513,46.6196],[5.6512,46.6215],[5.6471,46.6263],[5.6493,46.6271],[5.6515,46.6260],[5.6555,46.6217],[5.6543,46.6196],[5.6549,46.6179],[5.6571,46.6174],[5.6570,46.6187],[5.6560,46.6186],[5.6570,46.6213],[5.6555,46.6209],[5.6571,46.6225],[5.6556,46.6220],[5.6536,46.6246],[5.6525,46.6267],[5.6543,46.6276],[5.6520,46.6307],[5.6542,46.6296]]]}},{"type":"Feature","properties":{"name":"Bois de la Chassagne"},"geometry":{"type":"Polygon","coordinates":[[[5.5124,46.8671],[5.5137,46.8681],[5.5129,46.8653],[5.5105,46.8653],[5.5072,46.8616],[5.5011,46.8642],[5.5000,46.8601],[5.5035,46.8592],[5.5034,46.8580],[5.4942,46.8601],[5.4978,46.8620],[5.4962,46.8634],[5.5007,46.8653],[5.4970,46.8666],[5.4971,46.8685],[5.4955,46.8668],[5.4891,46.8658],[5.4876,46.8689],[5.4823,46.8683],[5.4808,46.8715],[5.4785,46.8717],[5.4761,46.8696],[5.4761,46.8674],[5.4788,46.8666],[5.4794,46.8675],[5.4798,46.8639],[5.4828,46.8632],[5.4819,46.8618],[5.4801,46.8623],[5.4788,46.8608],[5.4769,46.8616],[5.4783,46.8604],[5.4767,46.8568],[5.4756,46.8573],[5.4764,46.8599],[5.4721,46.8619],[5.4707,46.8607],[5.4732,46.8587],[5.4739,46.8594],[5.4743,46.8578],[5.4676,46.8572],[5.4679,46.8590],[5.4699,46.8590],[5.4683,46.8603],[5.4691,46.8618],[5.4663,46.8616],[5.4653,46.8623],[5.4666,46.8637],[5.4651,46.8630],[5.4640,46.8649],[5.4691,46.8662],[5.4673,46.8670],[5.4686,46.8670],[5.4679,46.8685],[5.4629,46.8653],[5.4606,46.8653],[5.4592,46.8635],[5.4585,46.8649],[5.4675,46.8701],[5.4643,46.8720],[5.4624,46.8724],[5.4609,46.8710],[5.4536,46.8733],[5.4534,46.8721],[5.4558,46.8715],[5.4554,46.8698],[5.4519,46.8704],[5.4534,46.8715],[5.4519,46.8719],[5.4504,46.8714],[5.4515,46.8695],[5.4495,46.8707],[5.4464,46.8696],[5.4515,46.8743],[5.4492,46.8751],[5.4514,46.8772],[5.4499,46.8779],[5.4437,46.8732],[5.4427,46.8714],[5.4440,46.8704],[5.4435,46.8692],[5.4358,46.8699],[5.4419,46.8741],[5.4406,46.8757],[5.4428,46.8759],[5.4425,46.8768],[5.4476,46.8802],[5.4461,46.8815],[5.4472,46.8843],[5.4491,46.8855],[5.4529,46.8846],[5.4545,46.8826],[5.4535,46.8805],[5.4569,46.8802],[5.4588,46.8777],[5.4617,46.8835],[5.4649,46.8840],[5.4666,46.8883],[5.4645,46.8891],[5.4662,46.8887],[5.4656,46.8912],[5.4609,46.8906],[5.4579,46.8926],[5.4586,46.8939],[5.4570,46.8945],[5.4564,46.8935],[5.4530,46.8951],[5.4536,46.8936],[5.4511,46.8941],[5.4525,46.8932],[5.4506,46.8926],[5.4509,46.8888],[5.4497,46.8873],[5.4476,46.8907],[5.4452,46.8904],[5.4447,46.8871],[5.4428,46.8854],[5.4413,46.8861],[5.4425,46.8884],[5.4420,46.8906],[5.4369,46.8972],[5.4404,46.8991],[5.4401,46.8982],[5.4430,46.8971],[5.4482,46.8985],[5.4473,46.9011],[5.4457,46.9014],[5.4498,46.9063],[5.4485,46.9065],[5.4558,46.9117],[5.4544,46.9138],[5.4525,46.9128],[5.4535,46.9144],[5.4580,46.9120],[5.4608,46.9148],[5.4649,46.9150],[5.4620,46.9137],[5.4624,46.9127],[5.4611,46.9131],[5.4615,46.9115],[5.4596,46.9103],[5.4585,46.9111],[5.4494,46.9015],[5.4502,46.8991],[5.4568,46.8958],[5.4587,46.8981],[5.4584,46.8997],[5.4602,46.9003],[5.4584,46.9011],[5.4555,46.8994],[5.4545,46.9009],[5.4582,46.9024],[5.4627,46.9023],[5.4653,46.9046],[5.4675,46.9034],[5.4665,46.9059],[5.4633,46.9069],[5.4657,46.9096],[5.4674,46.9085],[5.4691,46.9102],[5.4687,46.9085],[5.4730,46.9069],[5.4724,46.9057],[5.4781,46.9038],[5.4793,46.9046],[5.4776,46.9067],[5.4741,46.9054],[5.4750,46.9106],[5.4736,46.9109],[5.4728,46.9147],[5.4748,46.9143],[5.4764,46.9118],[5.4775,46.9093],[5.4766,46.9079],[5.4844,46.9075],[5.4826,46.9080],[5.4825,46.9094],[5.4843,46.9089],[5.4831,46.9115],[5.4768,46.9102],[5.4792,46.9112],[5.4791,46.9147],[5.4767,46.9135],[5.4756,46.9150],[5.4767,46.9152],[5.4680,46.9136],[5.4668,46.9153],[5.4686,46.9162],[5.4692,46.9153],[5.4727,46.9166],[5.4723,46.9174],[5.4789,46.9171],[5.4795,46.9181],[5.4811,46.9157],[5.4813,46.9169],[5.4861,46.9191],[5.4878,46.9178],[5.4876,46.9206],[5.4906,46.9188],[5.4963,46.9219],[5.5050,46.9217],[5.5064,46.9207],[5.5060,46.9191],[5.5100,46.9189],[5.5092,46.9176],[5.5112,46.9160],[5.5091,46.9172],[5.5090,46.9156],[5.5104,46.9152],[5.5074,46.9162],[5.5060,46.9144],[5.5076,46.9133],[5.5027,46.9117],[5.5027,46.9101],[5.5062,46.9092],[5.5061,46.9072],[5.5085,46.9099],[5.5112,46.9082],[5.5165,46.9077],[5.5151,46.9090],[5.5115,46.9091],[5.5112,46.9120],[5.5075,46.9110],[5.5085,46.9135],[5.5076,46.9138],[5.5092,46.9149],[5.5088,46.9137],[5.5119,46.9127],[5.5150,46.9130],[5.5148,46.9152],[5.5128,46.9138],[5.5136,46.9151],[5.5114,46.9160],[5.5149,46.9186],[5.5157,46.9177],[5.5144,46.9161],[5.5160,46.9156],[5.5179,46.9157],[5.5188,46.9166],[5.5180,46.9171],[5.5194,46.9177],[5.5172,46.9147],[5.5197,46.9151],[5.5213,46.9057],[5.5188,46.8973],[5.5194,46.8962],[5.5194,46.8980],[5.5248,46.8914],[5.5282,46.8826],[5.5341,46.8776],[5.5301,46.8763],[5.5300,46.8773],[5.5279,46.8769],[5.5254,46.8787],[5.5250,46.8804],[5.5220,46.8807],[5.5218,46.8772],[5.5181,46.8800],[5.5155,46.8801],[5.5144,46.8773],[5.5191,46.8741],[5.5182,46.8731],[5.5191,46.8725],[5.5129,46.8731],[5.5110,46.8702],[5.5116,46.8683],[5.5093,46.8730],[5.5082,46.8701],[5.5090,46.8663],[5.5124,46.8671]]]}},{"type":"Feature","properties":{"name":"Forêt de la Menère"},"geometry":{"type":"Polygon","coordinates":[[[5.9293,47.2269],[5.9254,47.2201],[5.9176,47.2188],[5.9158,47.2202],[5.9160,47.2180],[5.9085,47.2096],[5.9029,47.2099],[5.9067,47.2108],[5.9068,47.2124],[5.9077,47.2125],[5.9076,47.2108],[5.9100,47.2106],[5.9052,47.2158],[5.9064,47.2179],[5.9034,47.2187],[5.8940,47.2138],[5.8966,47.2096],[5.9005,47.2117],[5.9027,47.2092],[5.8965,47.2073],[5.8943,47.2073],[5.8969,47.2084],[5.8943,47.2090],[5.8933,47.2108],[5.8844,47.2072],[5.8875,47.2060],[5.8824,47.2069],[5.8840,47.2077],[5.8826,47.2087],[5.8804,47.2076],[5.8815,47.2089],[5.8796,47.2074],[5.8822,47.2110],[5.8782,47.2127],[5.8779,47.2116],[5.8799,47.2113],[5.8778,47.2084],[5.8763,47.2093],[5.8787,47.2114],[5.8763,47.2103],[5.8772,47.2116],[5.8758,47.2124],[5.8764,47.2132],[5.8751,47.2126],[5.8796,47.2167],[5.8816,47.2158],[5.8793,47.2146],[5.8816,47.2133],[5.8851,47.2145],[5.8849,47.2157],[5.8864,47.2144],[5.8864,47.2159],[5.8867,47.2145],[5.8922,47.2138],[5.8921,47.2156],[5.8943,47.2181],[5.8962,47.2174],[5.8958,47.2160],[5.8973,47.2168],[5.8973,47.2186],[5.8987,47.2185],[5.9025,47.2224],[5.9012,47.2231],[5.9045,47.2246],[5.9054,47.2242],[5.9049,47.2226],[5.9096,47.2251],[5.9154,47.2222],[5.9157,47.2209],[5.9200,47.2229],[5.9205,47.2254],[5.9293,47.2269]]]}},{"type":"Feature","properties":{"name":"Forêt d\u0027Arne"},"geometry":{"type":"Polygon","coordinates":[[[5.7559,47.1916],[5.7592,47.1914],[5.7550,47.1896],[5.7549,47.1880],[5.7508,47.1844],[5.7501,47.1827],[5.7526,47.1806],[5.7448,47.1773],[5.7525,47.1704],[5.7542,47.1732],[5.7500,47.1767],[5.7526,47.1779],[5.7549,47.1768],[5.7528,47.1765],[5.7574,47.1750],[5.7581,47.1729],[5.7602,47.1721],[5.7587,47.1702],[5.7549,47.1689],[5.7554,47.1679],[5.7546,47.1688],[5.7491,47.1674],[5.7495,47.1665],[5.7441,47.1661],[5.7420,47.1722],[5.7384,47.1715],[5.7370,47.1748],[5.7377,47.1779],[5.7402,47.1792],[5.7402,47.1819],[5.7394,47.1840],[5.7382,47.1842],[5.7366,47.1837],[5.7393,47.1827],[5.7382,47.1804],[5.7264,47.1770],[5.7252,47.1746],[5.7157,47.1704],[5.7160,47.1689],[5.7204,47.1698],[5.7238,47.1725],[5.7276,47.1714],[5.7282,47.1698],[5.7336,47.1703],[5.7402,47.1644],[5.7293,47.1597],[5.7301,47.1576],[5.7283,47.1559],[5.7257,47.1563],[5.7248,47.1620],[5.7266,47.1671],[5.7255,47.1700],[5.7170,47.1658],[5.7127,47.1619],[5.7112,47.1629],[5.7017,47.1605],[5.7019,47.1585],[5.6988,47.1625],[5.6974,47.1614],[5.6995,47.1559],[5.6982,47.1541],[5.7007,47.1538],[5.6973,47.1536],[5.6964,47.1546],[5.6979,47.1575],[5.6970,47.1612],[5.6950,47.1624],[5.6918,47.1607],[5.6906,47.1617],[5.6866,47.1613],[5.6840,47.1583],[5.6862,47.1571],[5.6836,47.1566],[5.6820,47.1584],[5.6778,47.1570],[5.6751,47.1590],[5.6739,47.1574],[5.6714,47.1584],[5.6730,47.1600],[5.6723,47.1604],[5.6745,47.1606],[5.6708,47.1615],[5.6700,47.1631],[5.6716,47.1613],[5.6728,47.1617],[5.6700,47.1646],[5.6656,47.1630],[5.6631,47.1646],[5.6586,47.1558],[5.6528,47.1521],[5.6457,47.1511],[5.6479,47.1509],[5.6463,47.1506],[5.6467,47.1492],[5.6367,47.1504],[5.6345,47.1550],[5.6344,47.1602],[5.6420,47.1621],[5.6459,47.1643],[5.6456,47.1663],[5.6657,47.1747],[5.6739,47.1765],[5.6769,47.1725],[5.6776,47.1739],[5.6844,47.1737],[5.6838,47.1749],[5.6804,47.1741],[5.6792,47.1762],[5.6812,47.1767],[5.6804,47.1782],[5.6831,47.1798],[5.6850,47.1778],[5.6870,47.1785],[5.6889,47.1757],[5.6916,47.1764],[5.6893,47.1791],[5.6839,47.1808],[5.6877,47.1824],[5.7075,47.1861],[5.7089,47.1850],[5.7074,47.1817],[5.7093,47.1802],[5.7096,47.1855],[5.7240,47.1872],[5.7395,47.1861],[5.7396,47.1842],[5.7403,47.1863],[5.7559,47.1916]]]}},{"type":"Feature","properties":{"name":"Bois de Malrocher"},"geometry":{"type":"Polygon","coordinates":[[[5.8045,46.8171],[5.8018,46.8158],[5.8049,46.8142],[5.8047,46.8120],[5.8079,46.8049],[5.8060,46.8017],[5.8034,46.8006],[5.7990,46.8001],[5.7970,46.8012],[5.7935,46.8000],[5.7955,46.7935],[5.7915,46.7944],[5.7926,46.7923],[5.7916,46.7907],[5.7965,46.7910],[5.7971,46.7897],[5.7954,46.7904],[5.7950,46.7894],[5.7991,46.7879],[5.7975,46.7869],[5.7977,46.7884],[5.7966,46.7886],[5.7901,46.7864],[5.7916,46.7922],[5.7861,46.8070],[5.7795,46.8085],[5.7790,46.8110],[5.7851,46.8105],[5.7847,46.8168],[5.7862,46.8212],[5.7908,46.8203],[5.7937,46.8227],[5.7993,46.8228],[5.8016,46.8220],[5.8022,46.8192],[5.8045,46.8171]]]}},{"type":"Feature","properties":{"name":"Forêt domaniale du Ponchon"},"geometry":{"type":"Polygon","coordinates":[[[5.3166,47.0697],[5.3211,47.0714],[5.3236,47.0741],[5.3292,47.0756],[5.3338,47.0786],[5.3334,47.0804],[5.3258,47.0810],[5.3242,47.0822],[5.3242,47.0812],[5.3194,47.0837],[5.3181,47.0828],[5.3120,47.0859],[5.3089,47.0861],[5.3100,47.0890],[5.3085,47.0900],[5.3095,47.0907],[5.3040,47.0907],[5.3034,47.0963],[5.3012,47.0966],[5.2985,47.0948],[5.2992,47.0937],[5.2979,47.0917],[5.2957,47.0927],[5.2971,47.0951],[5.2942,47.0943],[5.2931,47.0958],[5.2901,47.0947],[5.2918,47.0935],[5.2886,47.0900],[5.2894,47.0881],[5.2903,47.0874],[5.2926,47.0886],[5.2940,47.0874],[5.2922,47.0857],[5.2970,47.0850],[5.2958,47.0835],[5.2939,47.0839],[5.2946,47.0826],[5.2934,47.0809],[5.2961,47.0800],[5.2961,47.0781],[5.2999,47.0776],[5.3000,47.0764],[5.2951,47.0765],[5.2929,47.0732],[5.2895,47.0742],[5.2850,47.0697],[5.2916,47.0647],[5.3037,47.0661],[5.3166,47.0697]]]}},{"type":"Feature","properties":{"name":"Forêt domaniale de l\u0027Argançon"},"geometry":{"type":"Polygon","coordinates":[[[5.6884,46.9497],[5.6832,46.9503],[5.6796,46.9487],[5.6781,46.9509],[5.6744,46.9503],[5.6610,46.9639],[5.6603,46.9622],[5.6568,46.9624],[5.6547,46.9674],[5.6461,46.9753],[5.6486,46.9739],[5.6501,46.9744],[5.6462,46.9785],[5.6498,46.9788],[5.6517,46.9853],[5.6566,46.9868],[5.6558,46.9864],[5.6567,46.9839],[5.6638,46.9856],[5.6639,46.9839],[5.6657,46.9838],[5.6680,46.9848],[5.6675,46.9862],[5.6720,46.9856],[5.6742,46.9878],[5.6887,46.9741],[5.7012,46.9710],[5.6979,46.9783],[5.6985,46.9794],[5.6998,46.9757],[5.6991,46.9789],[5.7020,46.9794],[5.7012,46.9821],[5.7021,46.9848],[5.7001,46.9854],[5.7001,46.9839],[5.6991,46.9861],[5.7045,46.9868],[5.7055,46.9882],[5.7055,46.9869],[5.7103,46.9875],[5.7092,46.9907],[5.7075,46.9904],[5.7063,46.9928],[5.7112,46.9921],[5.7108,46.9930],[5.7134,46.9915],[5.7170,46.9945],[5.7239,46.9946],[5.7224,46.9936],[5.7230,46.9922],[5.7210,46.9926],[5.7209,46.9898],[5.7272,46.9916],[5.7277,46.9863],[5.7311,46.9798],[5.7323,46.9817],[5.7305,46.9844],[5.7318,46.9854],[5.7298,46.9875],[5.7304,46.9897],[5.7283,46.9935],[5.7300,46.9935],[5.7309,46.9964],[5.7326,46.9968],[5.7346,46.9960],[5.7356,46.9970],[5.7348,46.9946],[5.7364,46.9948],[5.7362,46.9936],[5.7411,46.9867],[5.7443,46.9878],[5.7466,46.9909],[5.7469,46.9937],[5.7495,46.9941],[5.7518,46.9927],[5.7536,46.9942],[5.7574,46.9936],[5.7569,46.9944],[5.7580,46.9936],[5.7568,46.9934],[5.7574,46.9923],[5.7551,46.9930],[5.7558,46.9899],[5.7647,46.9893],[5.7651,46.9907],[5.7675,46.9922],[5.7692,46.9919],[5.7698,46.9931],[5.7736,46.9911],[5.7749,46.9871],[5.7754,46.9903],[5.7871,46.9858],[5.7900,46.9835],[5.7803,46.9812],[5.7792,46.9791],[5.7768,46.9845],[5.7762,46.9833],[5.7782,46.9793],[5.7830,46.9746],[5.7827,46.9725],[5.7783,46.9721],[5.7784,46.9711],[5.7733,46.9685],[5.7728,46.9701],[5.7701,46.9689],[5.7734,46.9681],[5.7718,46.9679],[5.7721,46.9665],[5.7686,46.9680],[5.7637,46.9659],[5.7584,46.9698],[5.7655,46.9684],[5.7671,46.9693],[5.7675,46.9681],[5.7684,46.9698],[5.7684,46.9685],[5.7698,46.9686],[5.7695,46.9696],[5.7614,46.9708],[5.7591,46.9747],[5.7541,46.9768],[5.7508,46.9756],[5.7470,46.9779],[5.7450,46.9757],[5.7434,46.9789],[5.7402,46.9773],[5.7424,46.9737],[5.7342,46.9751],[5.7336,46.9715],[5.7352,46.9687],[5.7288,46.9648],[5.7254,46.9658],[5.7277,46.9665],[5.7207,46.9752],[5.7171,46.9732],[5.7063,46.9708],[5.7075,46.9687],[5.7116,46.9691],[5.7133,46.9672],[5.7090,46.9639],[5.7127,46.9646],[5.7148,46.9668],[5.7171,46.9651],[5.7125,46.9644],[5.7065,46.9600],[5.7066,46.9572],[5.7095,46.9566],[5.7076,46.9558],[5.7066,46.9532],[5.7075,46.9513],[5.7051,46.9505],[5.7071,46.9497],[5.7065,46.9470],[5.7011,46.9459],[5.6998,46.9467],[5.6951,46.9450],[5.6997,46.9480],[5.6984,46.9534],[5.7004,46.9542],[5.6964,46.9573],[5.6956,46.9570],[5.6979,46.9535],[5.6956,46.9521],[5.6943,46.9531],[5.6897,46.9495],[5.6884,46.9497]]]}},{"type":"Feature","properties":{"name":"Forêt de Chaux"},"geometry":{"type":"Polygon","coordinates":[[[5.7333,47.0376],[5.7276,47.0390],[5.7278,47.0364],[5.7240,47.0351],[5.7244,47.0311],[5.7235,47.0308],[5.7221,47.0313],[5.7218,47.0341],[5.7145,47.0354],[5.7138,47.0373],[5.7095,47.0361],[5.7112,47.0339],[5.7080,47.0351],[5.7083,47.0337],[5.7063,47.0336],[5.7055,47.0353],[5.7025,47.0364],[5.6992,47.0363],[5.6984,47.0343],[5.6962,47.0341],[5.6931,47.0444],[5.6880,47.0433],[5.6922,47.0332],[5.6910,47.0341],[5.6884,47.0325],[5.6869,47.0331],[5.6863,47.0312],[5.6854,47.0327],[5.6784,47.0320],[5.6778,47.0301],[5.6688,47.0318],[5.6685,47.0304],[5.6672,47.0305],[5.6682,47.0296],[5.6653,47.0306],[5.6644,47.0290],[5.6665,47.0282],[5.6658,47.0269],[5.6633,47.0267],[5.6657,47.0279],[5.6611,47.0285],[5.6536,47.0264],[5.6507,47.0270],[5.6461,47.0235],[5.6428,47.0235],[5.6436,47.0257],[5.6377,47.0256],[5.6336,47.0227],[5.6341,47.0205],[5.6318,47.0193],[5.6334,47.0184],[5.6404,47.0192],[5.6342,47.0169],[5.6326,47.0178],[5.6331,47.0167],[5.6321,47.0163],[5.6316,47.0174],[5.6272,47.0161],[5.6290,47.0141],[5.6325,47.0137],[5.6295,47.0137],[5.6258,47.0156],[5.6296,47.0136],[5.6284,47.0128],[5.6264,47.0138],[5.6280,47.0128],[5.6126,47.0172],[5.6111,47.0157],[5.6140,47.0149],[5.6070,47.0168],[5.6050,47.0156],[5.6057,47.0139],[5.6042,47.0129],[5.6003,47.0118],[5.5990,47.0140],[5.5978,47.0117],[5.5989,47.0154],[5.5970,47.0164],[5.6092,47.0173],[5.6104,47.0184],[5.6098,47.0201],[5.6039,47.0231],[5.6002,47.0241],[5.5986,47.0233],[5.5987,47.0242],[5.5967,47.0246],[5.5877,47.0203],[5.5861,47.0178],[5.5873,47.0201],[5.5854,47.0179],[5.5857,47.0201],[5.5847,47.0203],[5.5825,47.0182],[5.5823,47.0201],[5.5800,47.0219],[5.5836,47.0252],[5.5820,47.0260],[5.5855,47.0269],[5.5868,47.0247],[5.5911,47.0257],[5.5859,47.0336],[5.5805,47.0321],[5.5823,47.0293],[5.5754,47.0274],[5.5755,47.0315],[5.5673,47.0362],[5.5652,47.0387],[5.5595,47.0400],[5.5538,47.0394],[5.5463,47.0362],[5.5470,47.0349],[5.5503,47.0342],[5.5407,47.0362],[5.5379,47.0337],[5.5306,47.0321],[5.5222,47.0342],[5.5209,47.0353],[5.5255,47.0345],[5.5267,47.0357],[5.5267,47.0348],[5.5315,47.0351],[5.5308,47.0342],[5.5322,47.0333],[5.5371,47.0341],[5.5382,47.0355],[5.5307,47.0391],[5.5282,47.0378],[5.5256,47.0396],[5.5246,47.0385],[5.5232,47.0390],[5.5216,47.0357],[5.5215,47.0374],[5.5191,47.0384],[5.5226,47.0383],[5.5215,47.0392],[5.5230,47.0413],[5.5221,47.0426],[5.5260,47.0418],[5.5296,47.0453],[5.5232,47.0465],[5.5287,47.0479],[5.5257,47.0520],[5.5187,47.0504],[5.5180,47.0478],[5.5193,47.0455],[5.5169,47.0433],[5.5089,47.0462],[5.5103,47.0460],[5.5127,47.0484],[5.5081,47.0497],[5.5088,47.0503],[5.5136,47.0501],[5.5050,47.0580],[5.5023,47.0581],[5.5003,47.0545],[5.4947,47.0573],[5.4991,47.0680],[5.5064,47.0698],[5.5036,47.0717],[5.5036,47.0752],[5.5052,47.0756],[5.5047,47.0763],[5.5191,47.0739],[5.5194,47.0755],[5.5167,47.0763],[5.5195,47.0757],[5.5212,47.0782],[5.5186,47.0787],[5.5168,47.0765],[5.5173,47.0785],[5.5153,47.0783],[5.5147,47.0801],[5.5128,47.0803],[5.5134,47.0811],[5.5214,47.0790],[5.5276,47.0822],[5.5379,47.0843],[5.5372,47.0863],[5.5388,47.0848],[5.5390,47.0872],[5.5391,47.0845],[5.5433,47.0867],[5.5435,47.0878],[5.5368,47.0930],[5.5433,47.0891],[5.5448,47.0897],[5.5448,47.0885],[5.5489,47.0922],[5.5545,47.0914],[5.5574,47.0942],[5.5584,47.0929],[5.5607,47.0968],[5.5644,47.0985],[5.5674,47.0982],[5.5683,47.0991],[5.5671,47.0998],[5.5764,47.0970],[5.5840,47.0994],[5.5836,47.1004],[5.5780,47.0992],[5.5754,47.1039],[5.5785,47.1063],[5.5764,47.1069],[5.5794,47.1072],[5.5787,47.1083],[5.5813,47.1121],[5.5795,47.1130],[5.5818,47.1132],[5.5819,47.1143],[5.5795,47.1152],[5.5816,47.1160],[5.5810,47.1166],[5.5827,47.1187],[5.5909,47.1221],[5.5882,47.1239],[5.6025,47.1270],[5.6031,47.1244],[5.5954,47.1238],[5.5985,47.1236],[5.5937,47.1229],[5.5971,47.1213],[5.5926,47.1201],[5.5971,47.1211],[5.5989,47.1197],[5.5984,47.1188],[5.6003,47.1190],[5.6028,47.1200],[5.6017,47.1216],[5.6032,47.1214],[5.6024,47.1208],[5.6058,47.1170],[5.6114,47.1148],[5.6113,47.1164],[5.6072,47.1189],[5.6089,47.1179],[5.6095,47.1195],[5.6166,47.1230],[5.6147,47.1277],[5.6120,47.1300],[5.6117,47.1321],[5.6224,47.1359],[5.6235,47.1360],[5.6241,47.1339],[5.6295,47.1361],[5.6238,47.1363],[5.6422,47.1345],[5.6447,47.1330],[5.6431,47.1331],[5.6439,47.1318],[5.6426,47.1280],[5.6447,47.1279],[5.6446,47.1256],[5.6459,47.1277],[5.6494,47.1252],[5.6535,47.1262],[5.6535,47.1274],[5.6556,47.1270],[5.6581,47.1239],[5.6677,47.1234],[5.6672,47.1251],[5.6778,47.1277],[5.6790,47.1272],[5.6784,47.1243],[5.6811,47.1244],[5.6828,47.1289],[5.6798,47.1285],[5.6821,47.1294],[5.6820,47.1316],[5.6868,47.1295],[5.6838,47.1289],[5.6818,47.1242],[5.6872,47.1250],[5.6866,47.1219],[5.6884,47.1219],[5.6917,47.1253],[5.6987,47.1246],[5.7020,47.1263],[5.7007,47.1236],[5.7032,47.1250],[5.7009,47.1235],[5.7097,47.1198],[5.7102,47.1206],[5.7093,47.1207],[5.7108,47.1208],[5.7126,47.1238],[5.7142,47.1233],[5.7144,47.1242],[5.7134,47.1239],[5.7158,47.1256],[5.7154,47.1267],[5.7170,47.1263],[5.7147,47.1296],[5.7153,47.1322],[5.7161,47.1318],[5.7150,47.1338],[5.7148,47.1321],[5.7118,47.1330],[5.7102,47.1351],[5.6972,47.1332],[5.7122,47.1359],[5.7169,47.1344],[5.7157,47.1332],[5.7170,47.1328],[5.7158,47.1308],[5.7171,47.1271],[5.7229,47.1281],[5.7258,47.1251],[5.7283,47.1267],[5.7289,47.1290],[5.7270,47.1274],[5.7270,47.1327],[5.7308,47.1338],[5.7299,47.1353],[5.7316,47.1340],[5.7346,47.1347],[5.7380,47.1367],[5.7381,47.1388],[5.7416,47.1382],[5.7562,47.1411],[5.7570,47.1428],[5.7594,47.1416],[5.7613,47.1423],[5.7597,47.1447],[5.7579,47.1433],[5.7565,47.1435],[5.7569,47.1444],[5.7582,47.1452],[5.7578,47.1439],[5.7607,47.1464],[5.7608,47.1455],[5.7624,47.1486],[5.7623,47.1454],[5.7660,47.1444],[5.7669,47.1461],[5.7711,47.1466],[5.7733,47.1490],[5.7713,47.1511],[5.7876,47.1515],[5.7870,47.1529],[5.7879,47.1515],[5.7901,47.1551],[5.7908,47.1535],[5.7951,47.1559],[5.7958,47.1541],[5.8011,47.1562],[5.8070,47.1535],[5.8078,47.1544],[5.8080,47.1507],[5.8068,47.1499],[5.8076,47.1480],[5.8134,47.1497],[5.8165,47.1478],[5.8179,47.1492],[5.8191,47.1487],[5.8173,47.1473],[5.8250,47.1402],[5.8292,47.1420],[5.8325,47.1416],[5.8314,47.1407],[5.8325,47.1365],[5.8344,47.1364],[5.8350,47.1352],[5.8344,47.1362],[5.8336,47.1354],[5.8332,47.1325],[5.8241,47.1323],[5.8236,47.1312],[5.8267,47.1286],[5.8265,47.1273],[5.8242,47.1297],[5.8197,47.1313],[5.8231,47.1323],[5.8219,47.1329],[5.8230,47.1364],[5.8193,47.1364],[5.8204,47.1357],[5.8184,47.1356],[5.8196,47.1353],[5.8169,47.1335],[5.8177,47.1327],[5.8162,47.1335],[5.8119,47.1260],[5.8133,47.1259],[5.8127,47.1242],[5.8113,47.1245],[5.8096,47.1224],[5.8108,47.1228],[5.8105,47.1217],[5.8073,47.1195],[5.8058,47.1165],[5.8069,47.1191],[5.8055,47.1192],[5.8047,47.1160],[5.8054,47.1169],[5.8056,47.1157],[5.8009,47.1091],[5.8004,47.1040],[5.7991,47.1027],[5.7968,47.1039],[5.7955,47.1028],[5.7974,47.1034],[5.7994,47.1020],[5.7988,47.0984],[5.7980,47.0976],[5.7979,47.1008],[5.7981,47.0991],[5.7958,47.0959],[5.7998,47.0957],[5.7921,47.0914],[5.7880,47.0863],[5.7889,47.0855],[5.7879,47.0860],[5.7813,47.0789],[5.7826,47.0688],[5.7916,47.0596],[5.7893,47.0594],[5.7892,47.0578],[5.7850,47.0544],[5.7890,47.0544],[5.7923,47.0522],[5.7933,47.0533],[5.7965,47.0519],[5.8019,47.0547],[5.8023,47.0527],[5.7946,47.0498],[5.7956,47.0484],[5.7901,47.0463],[5.7881,47.0430],[5.7891,47.0427],[5.7874,47.0416],[5.7866,47.0427],[5.7869,47.0412],[5.7845,47.0438],[5.7818,47.0438],[5.7825,47.0422],[5.7782,47.0527],[5.7597,47.0460],[5.7568,47.0471],[5.7547,47.0498],[5.7457,47.0522],[5.7465,47.0513],[5.7455,47.0494],[5.7484,47.0492],[5.7474,47.0429],[5.7486,47.0425],[5.7423,47.0373],[5.7356,47.0376],[5.7350,47.0363],[5.7330,47.0366],[5.7333,47.0376]]]}},{"type":"Feature","properties":{"name":"Bois du Fays"},"geometry":{"type":"Polygon","coordinates":[[[5.4574,46.8088],[5.4528,46.8112],[5.4538,46.8184],[5.4620,46.8277],[5.4702,46.8275],[5.4709,46.8265],[5.4715,46.8274],[5.4709,46.8260],[5.4679,46.8262],[5.4681,46.8227],[5.4738,46.8198],[5.4749,46.8205],[5.4744,46.8197],[5.4707,46.8202],[5.4705,46.8184],[5.4735,46.8194],[5.4727,46.8179],[5.4782,46.8174],[5.4785,46.8157],[5.4806,46.8149],[5.4789,46.8122],[5.4765,46.8128],[5.4771,46.8141],[5.4743,46.8138],[5.4725,46.8153],[5.4697,46.8126],[5.4661,46.8146],[5.4630,46.8110],[5.4605,46.8110],[5.4632,46.8093],[5.4613,46.8068],[5.4573,46.8058],[5.4556,46.8073],[5.4574,46.8088]]]}},{"type":"Feature","properties":{"name":"Forêt domaniale de Pourlans"},"geometry":{"type":"Polygon","coordinates":[[[5.2287,47.0012],[5.2288,47.0002],[5.2314,47.0003],[5.2318,47.0016],[5.2321,46.9991],[5.2388,46.9971],[5.2417,46.9941],[5.2406,46.9933],[5.2426,46.9926],[5.2420,46.9914],[5.2470,46.9901],[5.2456,46.9884],[5.2423,46.9880],[5.2481,46.9853],[5.2454,46.9857],[5.2448,46.9825],[5.2486,46.9825],[5.2497,46.9857],[5.2492,46.9819],[5.2516,46.9840],[5.2546,46.9842],[5.2550,46.9797],[5.2532,46.9785],[5.2562,46.9763],[5.2536,46.9741],[5.2567,46.9720],[5.2545,46.9709],[5.2588,46.9686],[5.2565,46.9672],[5.2598,46.9663],[5.2615,46.9643],[5.2580,46.9630],[5.2522,46.9651],[5.2491,46.9650],[5.2477,46.9634],[5.2469,46.9650],[5.2443,46.9654],[5.2445,46.9666],[5.2320,46.9659],[5.2341,46.9689],[5.2352,46.9683],[5.2289,46.9708],[5.2257,46.9692],[5.2269,46.9677],[5.2254,46.9688],[5.2229,46.9658],[5.2245,46.9636],[5.2230,46.9633],[5.2234,46.9620],[5.2182,46.9596],[5.2168,46.9610],[5.2185,46.9589],[5.2037,46.9583],[5.2009,46.9588],[5.2005,46.9614],[5.1977,46.9638],[5.1983,46.9663],[5.1973,46.9636],[5.1998,46.9617],[5.1929,46.9633],[5.1940,46.9622],[5.1925,46.9606],[5.1846,46.9625],[5.1848,46.9635],[5.1814,46.9632],[5.1825,46.9674],[5.1782,46.9688],[5.1774,46.9677],[5.1759,46.9680],[5.1729,46.9725],[5.1678,46.9729],[5.1686,46.9762],[5.1705,46.9752],[5.1760,46.9767],[5.1682,46.9798],[5.1696,46.9810],[5.1756,46.9773],[5.1815,46.9777],[5.1796,46.9793],[5.1805,46.9820],[5.1745,46.9830],[5.1754,46.9836],[5.1720,46.9858],[5.1771,46.9835],[5.1771,46.9844],[5.1806,46.9845],[5.1800,46.9868],[5.1822,46.9876],[5.1831,46.9866],[5.1825,46.9898],[5.1842,46.9883],[5.1884,46.9894],[5.1883,46.9921],[5.1945,46.9921],[5.2005,46.9907],[5.2013,46.9895],[5.2038,46.9907],[5.2063,46.9882],[5.2087,46.9891],[5.2093,46.9925],[5.2116,46.9938],[5.2096,46.9946],[5.2222,46.9985],[5.2245,47.0010],[5.2287,47.0012]]]}},{"type":"Feature","properties":{"name":"Forêt d\u0027Amont"},"geometry":{"type":"Polygon","coordinates":[[[5.5464,46.8660],[5.5461,46.8669],[5.5527,46.8687],[5.5643,46.8687],[5.5618,46.8642],[5.5676,46.8582],[5.5735,46.8563],[5.5697,46.8541],[5.5692,46.8508],[5.5655,46.8480],[5.5686,46.8493],[5.5648,46.8467],[5.5674,46.8478],[5.5612,46.8430],[5.5597,46.8453],[5.5626,46.8470],[5.5605,46.8488],[5.5569,46.8474],[5.5544,46.8491],[5.5536,46.8544],[5.5571,46.8548],[5.5540,46.8558],[5.5545,46.8577],[5.5521,46.8584],[5.5464,46.8660]]]}},{"type":"Feature","properties":{"name":"Forêt du Risoux"},"geometry":{"type":"Polygon","coordinates":[[[6.1382,46.5577],[6.1105,46.5764],[6.1219,46.5841],[6.1265,46.5899],[6.1481,46.6022],[6.1538,46.6038],[6.1612,46.6100],[6.1648,46.6102],[6.1929,46.5987],[6.1894,46.5948],[6.1822,46.5939],[6.1839,46.5932],[6.1814,46.5934],[6.1780,46.5912],[6.1777,46.5896],[6.1806,46.5899],[6.1756,46.5863],[6.1870,46.5929],[6.1881,46.5928],[6.1883,46.5904],[6.1902,46.5906],[6.1824,46.5857],[6.1867,46.5859],[6.1860,46.5846],[6.1846,46.5854],[6.1853,46.5846],[6.1831,46.5835],[6.1778,46.5837],[6.1780,46.5822],[6.1795,46.5828],[6.1786,46.5821],[6.1794,46.5802],[6.1743,46.5757],[6.1746,46.5742],[6.1730,46.5735],[6.1730,46.5745],[6.1703,46.5744],[6.1731,46.5767],[6.1709,46.5768],[6.1706,46.5755],[6.1677,46.5745],[6.1712,46.5739],[6.1694,46.5718],[6.1696,46.5704],[6.1634,46.5674],[6.1712,46.5700],[6.1736,46.5730],[6.1764,46.5739],[6.1774,46.5731],[6.1830,46.5770],[6.1789,46.5757],[6.1782,46.5764],[6.1805,46.5789],[6.1784,46.5785],[6.1815,46.5822],[6.1848,46.5822],[6.1833,46.5805],[6.1892,46.5845],[6.1843,46.5796],[6.1904,46.5849],[6.1974,46.5887],[6.1994,46.5890],[6.1998,46.5879],[6.2009,46.5889],[6.1993,46.5892],[6.2022,46.5915],[6.2061,46.5899],[6.1846,46.5760],[6.1825,46.5735],[6.1577,46.5585],[6.1565,46.5555],[6.1505,46.5523],[6.1525,46.5522],[6.1531,46.5510],[6.1514,46.5497],[6.1489,46.5498],[6.1499,46.5498],[6.1484,46.5510],[6.1504,46.5523],[6.1475,46.5514],[6.1459,46.5525],[6.1471,46.5539],[6.1452,46.5529],[6.1382,46.5577]]]}},{"type":"Feature","properties":{"name":"Forêt de Vaivres"},"geometry":{"type":"Polygon","coordinates":[[[5.6865,46.8295],[5.6875,46.8284],[5.6896,46.8303],[5.6945,46.8299],[5.6944,46.8271],[5.6924,46.8250],[5.6945,46.8250],[5.6944,46.8240],[5.6913,46.8238],[5.6863,46.8205],[5.6874,46.8200],[5.6827,46.8200],[5.6791,46.8183],[5.6779,46.8215],[5.6732,46.8203],[5.6692,46.8228],[5.6689,46.8253],[5.6652,46.8270],[5.6629,46.8233],[5.6562,46.8228],[5.6557,46.8257],[5.6583,46.8274],[5.6526,46.8259],[5.6525,46.8270],[5.6539,46.8271],[5.6518,46.8289],[5.6529,46.8340],[5.6567,46.8371],[5.6595,46.8422],[5.6721,46.8403],[5.6673,46.8358],[5.6615,46.8366],[5.6585,46.8330],[5.6605,46.8315],[5.6599,46.8297],[5.6677,46.8345],[5.6698,46.8339],[5.6719,46.8350],[5.6715,46.8364],[5.6753,46.8390],[5.6774,46.8379],[5.6769,46.8364],[5.6780,46.8374],[5.6816,46.8367],[5.6802,46.8349],[5.6816,46.8338],[5.6856,46.8337],[5.6845,46.8332],[5.6865,46.8295]]]}},{"type":"Feature","properties":{"name":"Forêt de Boichat"},"geometry":{"type":"Polygon","coordinates":[[[5.6111,46.8607],[5.6146,46.8633],[5.6197,46.8636],[5.6188,46.8628],[5.6203,46.8621],[5.6199,46.8599],[5.6145,46.8560],[5.6216,46.8544],[5.6221,46.8530],[5.6265,46.8507],[5.6259,46.8485],[5.6193,46.8432],[5.6227,46.8446],[5.6278,46.8492],[5.6301,46.8456],[5.6233,46.8433],[5.6190,46.8393],[5.6067,46.8323],[5.6053,46.8331],[5.6056,46.8345],[5.6090,46.8391],[5.6116,46.8402],[5.6153,46.8386],[5.6169,46.8404],[5.6169,46.8413],[5.6086,46.8424],[5.6068,46.8464],[5.6049,46.8466],[5.6071,46.8469],[5.6043,46.8471],[5.6070,46.8471],[5.6061,46.8512],[5.6103,46.8591],[5.6093,46.8593],[5.6120,46.8618],[5.6110,46.8622],[5.6127,46.8627],[5.6111,46.8607]]]}},{"type":"Feature","properties":{"name":"Bois d\u0027Aiglepierre"},"geometry":{"type":"Polygon","coordinates":[[[5.7930,46.9623],[5.7994,46.9671],[5.8057,46.9752],[5.8079,46.9764],[5.8123,46.9740],[5.8128,46.9728],[5.8118,46.9741],[5.8113,46.9717],[5.8131,46.9709],[5.8131,46.9697],[5.8066,46.9688],[5.8128,46.9693],[5.8122,46.9685],[5.8134,46.9687],[5.8137,46.9673],[5.8133,46.9683],[5.8122,46.9673],[5.8136,46.9652],[5.8120,46.9658],[5.8129,46.9649],[5.8060,46.9620],[5.8113,46.9628],[5.8125,46.9645],[5.8132,46.9630],[5.8122,46.9617],[5.8141,46.9620],[5.8114,46.9602],[5.8113,46.9620],[5.8103,46.9624],[5.8110,46.9611],[5.8096,46.9608],[5.8093,46.9589],[5.8063,46.9592],[5.8066,46.9558],[5.8036,46.9564],[5.8029,46.9553],[5.8043,46.9547],[5.8027,46.9542],[5.8045,46.9545],[5.8060,46.9518],[5.8044,46.9493],[5.8017,46.9507],[5.8012,46.9490],[5.7975,46.9487],[5.7988,46.9498],[5.7976,46.9533],[5.7952,46.9525],[5.7939,46.9537],[5.7940,46.9524],[5.7925,46.9540],[5.7939,46.9510],[5.7923,46.9531],[5.7899,46.9529],[5.7910,46.9558],[5.7940,46.9551],[5.7901,46.9570],[5.7930,46.9623]]]}},{"type":"Feature","properties":{"name":"Bois de la Mangette"},"geometry":{"type":"Polygon","coordinates":[[[5.6349,46.8384],[5.6346,46.8367],[5.6356,46.8364],[5.6337,46.8353],[5.6315,46.8358],[5.6321,46.8375],[5.6297,46.8380],[5.6294,46.8392],[5.6234,46.8415],[5.6223,46.8410],[5.6280,46.8384],[5.6268,46.8376],[5.6293,46.8369],[5.6321,46.8335],[5.6296,46.8328],[5.6308,46.8337],[5.6303,46.8347],[5.6291,46.8343],[5.6296,46.8313],[5.6284,46.8322],[5.6255,46.8313],[5.6279,46.8303],[5.6263,46.8293],[5.6234,46.8300],[5.6240,46.8289],[5.6224,46.8268],[5.6233,46.8287],[5.6207,46.8313],[5.6204,46.8264],[5.6167,46.8242],[5.6141,46.8239],[5.6157,46.8262],[5.6131,46.8280],[5.6105,46.8282],[5.6089,46.8263],[5.6084,46.8277],[5.6071,46.8261],[5.6063,46.8273],[5.6073,46.8290],[5.6052,46.8297],[5.6199,46.8389],[5.6235,46.8428],[5.6284,46.8448],[5.6324,46.8449],[5.6349,46.8425],[5.6334,46.8446],[5.6371,46.8448],[5.6357,46.8427],[5.6394,46.8421],[5.6392,46.8393],[5.6372,46.8398],[5.6377,46.8416],[5.6358,46.8421],[5.6340,46.8390],[5.6349,46.8384]]]}},{"type":"Feature","properties":{"name":"Forêt de Chailluz"},"geometry":{"type":"Polygon","coordinates":[[[6.0569,47.3060],[6.0753,47.3139],[6.0837,47.3164],[6.0838,47.3152],[6.0862,47.3161],[6.0850,47.3166],[6.1176,47.3249],[6.1153,47.3226],[6.1148,47.3236],[6.1133,47.3229],[6.1147,47.3222],[6.1131,47.3210],[6.1067,47.3188],[6.1009,47.3174],[6.0991,47.3178],[6.1025,47.3187],[6.0933,47.3184],[6.0907,47.3171],[6.0971,47.3179],[6.0871,47.3167],[6.0806,47.3136],[6.0803,47.3125],[6.0901,47.3164],[6.0815,47.3124],[6.0789,47.3092],[6.0809,47.3090],[6.0799,47.3096],[6.0832,47.3109],[6.0841,47.3105],[6.0818,47.3102],[6.0821,47.3091],[6.0856,47.3092],[6.0845,47.3100],[6.0863,47.3108],[6.0867,47.3096],[6.0889,47.3102],[6.0861,47.3090],[6.0871,47.3073],[6.0842,47.3045],[6.0867,47.3065],[6.0873,47.3055],[6.0859,47.3035],[6.0785,47.2985],[6.0767,47.2949],[6.0729,47.2933],[6.0765,47.2972],[6.0705,47.2914],[6.0687,47.2874],[6.0604,47.2788],[6.0478,47.2730],[6.0481,47.2715],[6.0461,47.2711],[6.0365,47.2755],[6.0351,47.2748],[6.0280,47.2782],[6.0260,47.2808],[6.0253,47.2796],[6.0236,47.2802],[6.0245,47.2805],[6.0235,47.2835],[6.0244,47.2825],[6.0254,47.2833],[6.0249,47.2885],[6.0232,47.2911],[6.0230,47.2895],[6.0206,47.2890],[6.0219,47.2910],[6.0207,47.2922],[6.0129,47.2862],[6.0135,47.2819],[6.0108,47.2766],[6.0116,47.2784],[6.0084,47.2769],[6.0013,47.2788],[6.0041,47.2803],[6.0017,47.2823],[5.9999,47.2802],[5.9984,47.2804],[5.9987,47.2794],[5.9973,47.2798],[6.0024,47.2843],[6.0118,47.2878],[6.0208,47.2955],[6.0312,47.2994],[6.0371,47.3035],[6.0569,47.3060]]]}},{"type":"Feature","properties":{"name":"Bois du Croz"},"geometry":{"type":"Polygon","coordinates":[[[6.0402,46.6689],[6.0357,46.6707],[6.0426,46.6740],[6.0437,46.6763],[6.0468,46.6773],[6.0534,46.6833],[6.0609,46.6875],[6.0600,46.6895],[6.0611,46.6904],[6.0624,46.6882],[6.0686,46.6908],[6.0638,46.6919],[6.0648,46.6933],[6.0633,46.6936],[6.0791,46.7017],[6.0855,46.6963],[6.0965,46.6994],[6.1106,46.7072],[6.1152,46.7003],[6.1170,46.7025],[6.1228,46.7045],[6.1256,46.7034],[6.1178,46.7008],[6.1189,46.6993],[6.1269,46.7026],[6.1240,46.7009],[6.1279,46.6997],[6.1246,46.6977],[6.1216,46.6971],[6.1189,46.6984],[6.1180,46.6976],[6.1189,46.6971],[6.1175,46.6964],[6.1153,46.6984],[6.1131,46.6981],[6.1096,46.6972],[6.1051,46.6938],[6.0995,46.6962],[6.0933,46.6942],[6.0949,46.6928],[6.0974,46.6944],[6.1014,46.6937],[6.0989,46.6915],[6.1008,46.6901],[6.0951,46.6874],[6.0879,46.6884],[6.0835,46.6874],[6.0761,46.6899],[6.0688,46.6895],[6.0673,46.6881],[6.0719,46.6833],[6.0763,46.6856],[6.0848,46.6848],[6.0829,46.6833],[6.0874,46.6824],[6.0876,46.6811],[6.0860,46.6807],[6.0868,46.6789],[6.0896,46.6791],[6.0895,46.6813],[6.0922,46.6809],[6.0918,46.6821],[6.0927,46.6820],[6.0940,46.6799],[6.0920,46.6794],[6.0903,46.6776],[6.0912,46.6767],[6.0890,46.6759],[6.0906,46.6758],[6.0888,46.6752],[6.0921,46.6761],[6.0933,46.6739],[6.0901,46.6730],[6.0890,46.6720],[6.0895,46.6706],[6.0866,46.6703],[6.0885,46.6706],[6.0874,46.6717],[6.0782,46.6707],[6.0765,46.6723],[6.0709,46.6691],[6.0675,46.6702],[6.0585,46.6663],[6.0565,46.6660],[6.0525,46.6683],[6.0517,46.6668],[6.0529,46.6657],[6.0513,46.6655],[6.0431,46.6693],[6.0402,46.6689]]]}},{"type":"Feature","properties":{"name":"Forêt Domaniale de Mouchard"},"geometry":{"type":"Polygon","coordinates":[[[5.7798,46.9454],[5.7725,46.9393],[5.7647,46.9356],[5.7594,46.9396],[5.7556,46.9393],[5.7536,46.9373],[5.7546,46.9373],[5.7544,46.9355],[5.7570,46.9336],[5.7547,46.9323],[5.7527,46.9334],[5.7538,46.9364],[5.7509,46.9351],[5.7514,46.9374],[5.7489,46.9379],[5.7416,46.9312],[5.7386,46.9321],[5.7343,46.9300],[5.7319,46.9313],[5.7293,46.9309],[5.7290,46.9260],[5.7265,46.9263],[5.7251,46.9243],[5.7225,46.9260],[5.7209,46.9250],[5.7197,46.9258],[5.7215,46.9312],[5.7197,46.9298],[5.7128,46.9302],[5.7143,46.9317],[5.7126,46.9327],[5.7155,46.9326],[5.7140,46.9336],[5.7148,46.9350],[5.7186,46.9337],[5.7186,46.9357],[5.7170,46.9362],[5.7181,46.9368],[5.7166,46.9381],[5.7172,46.9393],[5.7155,46.9400],[5.7162,46.9408],[5.7152,46.9405],[5.7157,46.9427],[5.7176,46.9417],[5.7167,46.9407],[5.7197,46.9428],[5.7211,46.9413],[5.7308,46.9438],[5.7318,46.9430],[5.7342,46.9460],[5.7336,46.9434],[5.7353,46.9442],[5.7356,46.9431],[5.7382,46.9448],[5.7344,46.9468],[5.7378,46.9502],[5.7372,46.9507],[5.7404,46.9524],[5.7389,46.9527],[5.7403,46.9548],[5.7372,46.9537],[5.7376,46.9556],[5.7360,46.9564],[5.7414,46.9592],[5.7428,46.9566],[5.7449,46.9573],[5.7418,46.9600],[5.7430,46.9603],[5.7419,46.9621],[5.7433,46.9627],[5.7465,46.9616],[5.7484,46.9639],[5.7497,46.9624],[5.7480,46.9611],[5.7502,46.9602],[5.7552,46.9611],[5.7587,46.9631],[5.7588,46.9645],[5.7575,46.9649],[5.7588,46.9665],[5.7561,46.9672],[5.7565,46.9687],[5.7544,46.9678],[5.7583,46.9698],[5.7636,46.9658],[5.7635,46.9619],[5.7696,46.9625],[5.7731,46.9616],[5.7778,46.9635],[5.7840,46.9618],[5.7861,46.9586],[5.7860,46.9548],[5.7806,46.9466],[5.7791,46.9465],[5.7798,46.9454]]]}},{"type":"Feature","properties":{"name":"Forêt domaniale de Vaivre"},"geometry":{"type":"Polygon","coordinates":[[[5.6604,46.8434],[5.6426,46.8457],[5.6411,46.8484],[5.6424,46.8497],[5.6420,46.8486],[5.6448,46.8485],[5.6448,46.8497],[5.6399,46.8498],[5.6437,46.8501],[5.6519,46.8467],[5.6536,46.8472],[5.6434,46.8516],[5.6454,46.8551],[5.6433,46.8556],[5.6436,46.8570],[5.6454,46.8561],[5.6473,46.8601],[5.6547,46.8608],[5.6581,46.8597],[5.6626,46.8559],[5.6609,46.8545],[5.6638,46.8525],[5.6635,46.8516],[5.6532,46.8532],[5.6505,46.8512],[5.6527,46.8503],[5.6549,46.8522],[5.6591,46.8510],[5.6611,46.8499],[5.6603,46.8474],[5.6648,46.8466],[5.6669,46.8517],[5.6693,46.8506],[5.6707,46.8518],[5.6747,46.8497],[5.6794,46.8506],[5.6810,46.8495],[5.6802,46.8473],[5.6856,46.8427],[5.6697,46.8469],[5.6651,46.8464],[5.6604,46.8434]]]}},{"type":"Feature","properties":{"name":"Forêt de la Joux"},"geometry":{"type":"Polygon","coordinates":[[[6.1344,46.8604],[6.1340,46.8565],[6.1296,46.8556],[6.1344,46.8522],[6.1335,46.8512],[6.1348,46.8505],[6.1323,46.8466],[6.1334,46.8466],[6.1262,46.8419],[6.1219,46.8412],[6.1229,46.8392],[6.1198,46.8382],[6.1193,46.8413],[6.1169,46.8424],[6.1128,46.8431],[6.1094,46.8409],[6.1082,46.8417],[6.1030,46.8371],[6.1036,46.8352],[6.0938,46.8296],[6.0863,46.8299],[6.0877,46.8337],[6.0861,46.8352],[6.0988,46.8351],[6.0993,46.8370],[6.0886,46.8383],[6.0857,46.8360],[6.0838,46.8362],[6.0816,46.8389],[6.0835,46.8386],[6.0819,46.8432],[6.0837,46.8446],[6.0818,46.8441],[6.0817,46.8456],[6.0778,46.8466],[6.0757,46.8497],[6.0685,46.8489],[6.0662,46.8514],[6.0655,46.8496],[6.0627,46.8484],[6.0650,46.8474],[6.0634,46.8458],[6.0649,46.8464],[6.0647,46.8450],[6.0658,46.8445],[6.0629,46.8422],[6.0634,46.8409],[6.0611,46.8405],[6.0612,46.8388],[6.0646,46.8416],[6.0610,46.8370],[6.0598,46.8361],[6.0607,46.8372],[6.0587,46.8387],[6.0563,46.8374],[6.0567,46.8391],[6.0590,46.8391],[6.0594,46.8408],[6.0522,46.8384],[6.0501,46.8363],[6.0506,46.8352],[6.0531,46.8356],[6.0523,46.8340],[6.0535,46.8343],[6.0522,46.8305],[6.0499,46.8310],[6.0435,46.8286],[6.0442,46.8295],[6.0417,46.8311],[6.0451,46.8342],[6.0441,46.8358],[6.0361,46.8338],[6.0347,46.8317],[6.0354,46.8295],[6.0338,46.8285],[6.0356,46.8263],[6.0354,46.8245],[6.0387,46.8223],[6.0369,46.8203],[6.0306,46.8186],[6.0288,46.8223],[6.0253,46.8204],[6.0222,46.8216],[6.0210,46.8209],[6.0230,46.8132],[6.0243,46.8129],[6.0218,46.8102],[6.0189,46.8092],[6.0149,46.8105],[6.0131,46.8096],[6.0140,46.8083],[6.0126,46.8075],[6.0095,46.8085],[6.0083,46.8075],[6.0071,46.8088],[6.0045,46.8049],[6.0039,46.8057],[5.9998,46.8013],[6.0024,46.8017],[6.0042,46.8000],[6.0018,46.7981],[6.0036,46.7966],[5.9998,46.7973],[5.9984,46.8002],[5.9940,46.7957],[5.9933,46.7933],[5.9908,46.7951],[5.9899,46.7940],[5.9852,46.7935],[5.9859,46.7919],[5.9834,46.7900],[5.9847,46.7894],[5.9842,46.7885],[5.9887,46.7909],[5.9899,46.7928],[5.9928,46.7933],[5.9887,46.7905],[5.9908,46.7912],[5.9893,46.7900],[5.9907,46.7897],[5.9929,46.7924],[5.9941,46.7921],[5.9942,46.7893],[5.9913,46.7872],[5.9917,46.7854],[5.9886,46.7826],[5.9904,46.7814],[5.9836,46.7783],[5.9815,46.7807],[5.9762,46.7790],[5.9736,46.7807],[5.9758,46.7830],[5.9763,46.7815],[5.9833,46.7814],[5.9837,46.7849],[5.9807,46.7891],[5.9792,46.7879],[5.9817,46.7915],[5.9821,46.7948],[5.9835,46.7968],[5.9865,46.7969],[5.9915,46.8010],[5.9978,46.8088],[5.9908,46.8019],[5.9912,46.8045],[5.9865,46.8078],[5.9897,46.8095],[5.9821,46.8096],[5.9801,46.8076],[5.9862,46.8049],[5.9846,46.8031],[5.9799,46.8035],[5.9790,46.8066],[5.9746,46.8069],[5.9728,46.8136],[5.9713,46.8142],[5.9727,46.8094],[5.9711,46.8101],[5.9715,46.8085],[5.9700,46.8082],[5.9721,46.8009],[5.9719,46.7968],[5.9709,46.7967],[5.9710,46.7919],[5.9697,46.7928],[5.9698,46.7913],[5.9714,46.7905],[5.9695,46.7877],[5.9682,46.7757],[5.9680,46.7782],[5.9658,46.7734],[5.9628,46.7719],[5.9641,46.7704],[5.9634,46.7693],[5.9453,46.7654],[5.9386,46.7675],[5.9401,46.7674],[5.9380,46.7694],[5.9391,46.7712],[5.9423,46.7698],[5.9431,46.7720],[5.9462,46.7716],[5.9459,46.7690],[5.9476,46.7689],[5.9486,46.7718],[5.9475,46.7734],[5.9438,46.7730],[5.9447,46.7738],[5.9436,46.7766],[5.9472,46.7765],[5.9460,46.7780],[5.9421,46.7788],[5.9428,46.7796],[5.9411,46.7819],[5.9420,46.7839],[5.9410,46.7880],[5.9428,46.7894],[5.9425,46.7910],[5.9410,46.7915],[5.9438,46.7928],[5.9449,46.7921],[5.9457,46.7938],[5.9415,46.7964],[5.9433,46.7962],[5.9425,46.7972],[5.9435,46.7980],[5.9447,46.7971],[5.9463,46.7989],[5.9436,46.7991],[5.9422,46.7975],[5.9411,46.7994],[5.9383,46.8005],[5.9374,46.8020],[5.9417,46.8021],[5.9399,46.8035],[5.9391,46.8028],[5.9396,46.8043],[5.9365,46.8050],[5.9373,46.8075],[5.9350,46.8080],[5.9352,46.8097],[5.9416,46.8129],[5.9441,46.8120],[5.9463,46.8141],[5.9472,46.8132],[5.9493,46.8150],[5.9504,46.8145],[5.9507,46.8154],[5.9489,46.8159],[5.9507,46.8157],[5.9519,46.8175],[5.9508,46.8177],[5.9511,46.8186],[5.9488,46.8183],[5.9519,46.8219],[5.9504,46.8235],[5.9529,46.8247],[5.9527,46.8264],[5.9546,46.8283],[5.9562,46.8283],[5.9629,46.8335],[5.9623,46.8343],[5.9635,46.8353],[5.9677,46.8362],[5.9705,46.8299],[5.9711,46.8308],[5.9708,46.8359],[5.9683,46.8378],[5.9707,46.8425],[5.9684,46.8461],[5.9636,46.8471],[5.9687,46.8484],[5.9681,46.8499],[5.9696,46.8511],[5.9700,46.8543],[5.9677,46.8566],[5.9700,46.8560],[5.9685,46.8570],[5.9706,46.8583],[5.9662,46.8591],[5.9675,46.8597],[5.9682,46.8586],[5.9699,46.8604],[5.9682,46.8615],[5.9726,46.8605],[5.9745,46.8577],[5.9723,46.8610],[5.9682,46.8618],[5.9699,46.8651],[5.9693,46.8674],[5.9709,46.8688],[5.9700,46.8699],[5.9718,46.8701],[5.9696,46.8716],[5.9724,46.8723],[5.9724,46.8745],[5.9709,46.8750],[5.9726,46.8761],[5.9749,46.8749],[5.9753,46.8760],[5.9732,46.8784],[5.9787,46.8809],[5.9810,46.8800],[5.9819,46.8805],[5.9809,46.8821],[5.9829,46.8826],[5.9822,46.8836],[5.9836,46.8844],[5.9860,46.8848],[5.9889,46.8825],[5.9920,46.8823],[5.9943,46.8840],[5.9921,46.8867],[5.9945,46.8856],[5.9962,46.8919],[5.9976,46.8928],[5.9936,46.8938],[5.9939,46.8959],[5.9916,46.8957],[5.9962,46.8971],[5.9970,46.8987],[5.9949,46.9003],[5.9980,46.9048],[5.9961,46.9082],[5.9969,46.9101],[6.0018,46.9096],[6.0001,46.9081],[6.0069,46.9101],[6.0120,46.9074],[6.0159,46.9126],[6.0153,46.9142],[6.0212,46.9131],[6.0322,46.9136],[6.0339,46.9101],[6.0302,46.9094],[6.0306,46.9072],[6.0328,46.9067],[6.0328,46.9026],[6.0312,46.9003],[6.0321,46.8989],[6.0260,46.9000],[6.0266,46.8975],[6.0198,46.8968],[6.0227,46.8942],[6.0305,46.8975],[6.0371,46.8965],[6.0385,46.8938],[6.0405,46.8960],[6.0402,46.8950],[6.0415,46.8942],[6.0477,46.8969],[6.0534,46.8959],[6.0576,46.8987],[6.0570,46.8996],[6.0602,46.9023],[6.0654,46.8999],[6.0656,46.8977],[6.0674,46.8974],[6.0615,46.8900],[6.0599,46.8896],[6.0601,46.8884],[6.0564,46.8866],[6.0549,46.8873],[6.0550,46.8859],[6.0533,46.8851],[6.0552,46.8842],[6.0521,46.8832],[6.0491,46.8803],[6.0523,46.8818],[6.0549,46.8798],[6.0494,46.8780],[6.0454,46.8738],[6.0330,46.8656],[6.0343,46.8623],[6.0248,46.8565],[6.0259,46.8528],[6.0339,46.8557],[6.0348,46.8536],[6.0337,46.8525],[6.0289,46.8523],[6.0325,46.8496],[6.0373,46.8514],[6.0410,46.8508],[6.0408,46.8521],[6.0376,46.8531],[6.0451,46.8573],[6.0626,46.8612],[6.0640,46.8599],[6.0681,46.8615],[6.0671,46.8625],[6.0684,46.8644],[6.0723,46.8651],[6.0780,46.8651],[6.0767,46.8601],[6.0804,46.8599],[6.0830,46.8572],[6.0817,46.8529],[6.0853,46.8550],[6.0881,46.8539],[6.0892,46.8548],[6.0910,46.8533],[6.0985,46.8558],[6.0998,46.8545],[6.1008,46.8553],[6.1037,46.8544],[6.1067,46.8560],[6.1077,46.8591],[6.1089,46.8589],[6.1083,46.8605],[6.1181,46.8611],[6.1169,46.8580],[6.1194,46.8572],[6.1198,46.8591],[6.1238,46.8598],[6.1224,46.8617],[6.1272,46.8604],[6.1317,46.8631],[6.1314,46.8622],[6.1344,46.8604]]]}},{"type":"Feature","properties":{"name":"Le Grand Bois"},"geometry":{"type":"Polygon","coordinates":[[[5.4686,46.7666],[5.4663,46.7690],[5.4621,46.7676],[5.4617,46.7693],[5.4601,46.7667],[5.4591,46.7668],[5.4594,46.7682],[5.4571,46.7688],[5.4543,46.7669],[5.4506,46.7682],[5.4480,46.7675],[5.4466,46.7652],[5.4437,46.7706],[5.4469,46.7723],[5.4445,46.7725],[5.4437,46.7751],[5.4452,46.7739],[5.4518,46.7746],[5.4467,46.7749],[5.4493,46.7780],[5.4486,46.7786],[5.4440,46.7759],[5.4454,46.7780],[5.4474,46.7792],[5.4516,46.7789],[5.4571,46.7836],[5.4571,46.7866],[5.4551,46.7883],[5.4576,46.7872],[5.4566,46.7910],[5.4572,46.7904],[5.4580,46.7919],[5.4565,46.7945],[5.4572,46.7966],[5.4589,46.7957],[5.4610,46.7908],[5.4589,46.7899],[5.4612,46.7903],[5.4626,46.7871],[5.4607,46.7867],[5.4628,46.7865],[5.4685,46.7731],[5.4642,46.7706],[5.4667,46.7693],[5.4675,46.7712],[5.4692,46.7715],[5.4711,46.7670],[5.4686,46.7666]]]}}]}