{"type":"FeatureCollection","features":[{"type":"Feature","properties":{"name":"Forêt du Mas d\u0027Agenais et de Sénestis"},"geometry":{"type":"Polygon","coordinates":[[[0.1671,44.4210],[0.1627,44.4148],[0.1634,44.4106],[0.1613,44.4109],[0.1608,44.4079],[0.1647,44.4065],[0.1619,44.4028],[0.1692,44.4022],[0.1676,44.4004],[0.1688,44.3960],[0.1659,44.3939],[0.1563,44.3939],[0.1539,44.3898],[0.1625,44.3909],[0.1771,44.3884],[0.1748,44.3849],[0.1752,44.3809],[0.1727,44.3750],[0.1753,44.3730],[0.1759,44.3695],[0.1851,44.3663],[0.1743,44.3676],[0.1741,44.3666],[0.1807,44.3650],[0.1904,44.3658],[0.1903,44.3645],[0.1926,44.3649],[0.1934,44.3674],[0.1964,44.3660],[0.1974,44.3630],[0.2017,44.3627],[0.2141,44.3673],[0.2163,44.3715],[0.2213,44.3722],[0.2211,44.3772],[0.2172,44.3741],[0.2136,44.3749],[0.2064,44.3738],[0.2066,44.3758],[0.2040,44.3760],[0.2042,44.3839],[0.1982,44.3888],[0.1867,44.4032],[0.1853,44.4033],[0.1839,44.4069],[0.1774,44.4148],[0.1686,44.4219],[0.1671,44.4210]]]}},{"type":"Feature","properties":{"name":"La Teste de Buch"},"geometry":{"type":"Polygon","coordinates":[[[-1.1610,44.5331],[-1.1639,44.5314],[-1.1618,44.5298],[-1.1646,44.5280],[-1.1661,44.5287],[-1.1672,44.5271],[-1.1668,44.5279],[-1.1719,44.5270],[-1.1749,44.5251],[-1.1756,44.5237],[-1.1741,44.5232],[-1.1792,44.5185],[-1.1864,44.5165],[-1.1899,44.5126],[-1.1947,44.5102],[-1.1954,44.5086],[-1.1919,44.5101],[-1.1917,44.5090],[-1.1929,44.5072],[-1.1957,44.5064],[-1.1973,44.5036],[-1.2012,44.5039],[-1.2008,44.5069],[-1.2035,44.5111],[-1.2012,44.5148],[-1.2062,44.5165],[-1.2086,44.5192],[-1.2070,44.5221],[-1.2081,44.5247],[-1.2113,44.5272],[-1.2103,44.5287],[-1.2112,44.5331],[-1.2069,44.5368],[-1.2071,44.5422],[-1.2056,44.5432],[-1.2074,44.5444],[-1.2062,44.5513],[-1.2082,44.5532],[-1.2110,44.5539],[-1.2117,44.5517],[-1.2138,44.5536],[-1.2130,44.5612],[-1.2107,44.5659],[-1.2066,44.5666],[-1.2060,44.5679],[-1.2095,44.5697],[-1.2094,44.5740],[-1.2141,44.5750],[-1.2128,44.5785],[-1.2153,44.5794],[-1.2144,44.5815],[-1.2126,44.5803],[-1.2118,44.5824],[-1.2140,44.5825],[-1.2125,44.5848],[-1.2101,44.5840],[-1.2078,44.5855],[-1.2109,44.5878],[-1.2043,44.5987],[-1.1969,44.5950],[-1.1852,44.5958],[-1.1834,44.5970],[-1.1783,44.5967],[-1.1741,44.5948],[-1.1630,44.5946],[-1.1577,44.5958],[-1.1542,44.5985],[-1.1499,44.5978],[-1.1455,44.5952],[-1.1398,44.5954],[-1.1349,44.5987],[-1.1355,44.6000],[-1.1408,44.5988],[-1.1381,44.6073],[-1.1367,44.6085],[-1.1316,44.6079],[-1.1303,44.5932],[-1.1314,44.5905],[-1.1343,44.5889],[-1.1490,44.5873],[-1.1494,44.5861],[-1.1530,44.5853],[-1.1510,44.5836],[-1.1528,44.5830],[-1.1531,44.5792],[-1.1513,44.5711],[-1.1533,44.5710],[-1.1534,44.5668],[-1.1557,44.5657],[-1.1575,44.5591],[-1.1604,44.5556],[-1.1615,44.5455],[-1.1634,44.5451],[-1.1631,44.5401],[-1.1651,44.5400],[-1.1655,44.5378],[-1.1633,44.5373],[-1.1610,44.5331]]]}},{"type":"Feature","properties":{"name":"Forêt de Cauneille"},"geometry":{"type":"Polygon","coordinates":[[[-1.0913,43.5966],[-1.0893,43.5962],[-1.0895,43.5919],[-1.0907,43.5923],[-1.0898,43.5936],[-1.0912,43.5926],[-1.0954,43.5933],[-1.0893,43.5894],[-1.0914,43.5882],[-1.0901,43.5877],[-1.0903,43.5863],[-1.0878,43.5867],[-1.0873,43.5882],[-1.0851,43.5872],[-1.0850,43.5890],[-1.0841,43.5890],[-1.0840,43.5867],[-1.0821,43.5865],[-1.0825,43.5844],[-1.0794,43.5848],[-1.0787,43.5834],[-1.0820,43.5833],[-1.0812,43.5828],[-1.0774,43.5827],[-1.0785,43.5856],[-1.0751,43.5845],[-1.0755,43.5854],[-1.0744,43.5858],[-1.0755,43.5867],[-1.0733,43.5862],[-1.0731,43.5878],[-1.0743,43.5878],[-1.0715,43.5881],[-1.0691,43.5905],[-1.0675,43.5895],[-1.0679,43.5884],[-1.0653,43.5885],[-1.0655,43.5897],[-1.0686,43.5914],[-1.0673,43.5922],[-1.0657,43.5922],[-1.0657,43.5909],[-1.0638,43.5897],[-1.0613,43.5920],[-1.0585,43.5897],[-1.0616,43.5904],[-1.0630,43.5879],[-1.0580,43.5895],[-1.0576,43.5886],[-1.0573,43.5876],[-1.0626,43.5876],[-1.0630,43.5856],[-1.0608,43.5870],[-1.0598,43.5855],[-1.0578,43.5854],[-1.0637,43.5852],[-1.0606,43.5826],[-1.0705,43.5760],[-1.0697,43.5752],[-1.0728,43.5724],[-1.0687,43.5721],[-1.0691,43.5698],[-1.0784,43.5684],[-1.0826,43.5696],[-1.0801,43.5669],[-1.0753,43.5663],[-1.0664,43.5693],[-1.0665,43.5674],[-1.0652,43.5671],[-1.0625,43.5707],[-1.0608,43.5709],[-1.0604,43.5680],[-1.0633,43.5662],[-1.0604,43.5650],[-1.0582,43.5668],[-1.0568,43.5656],[-1.0550,43.5663],[-1.0572,43.5691],[-1.0537,43.5713],[-1.0514,43.5700],[-1.0526,43.5646],[-1.0419,43.5633],[-1.0411,43.5636],[-1.0422,43.5669],[-1.0471,43.5664],[-1.0486,43.5716],[-1.0455,43.5713],[-1.0454,43.5722],[-1.0496,43.5755],[-1.0468,43.5795],[-1.0455,43.5793],[-1.0465,43.5764],[-1.0455,43.5755],[-1.0403,43.5801],[-1.0369,43.5806],[-1.0322,43.5808],[-1.0324,43.5769],[-1.0310,43.5741],[-1.0361,43.5729],[-1.0360,43.5709],[-1.0402,43.5648],[-1.0354,43.5664],[-1.0364,43.5646],[-1.0401,43.5636],[-1.0390,43.5627],[-1.0342,43.5623],[-1.0310,43.5653],[-1.0239,43.5683],[-1.0215,43.5729],[-1.0170,43.5754],[-1.0181,43.5782],[-1.0153,43.5797],[-1.0118,43.5787],[-1.0136,43.5775],[-1.0069,43.5729],[-1.0036,43.5733],[-1.0027,43.5721],[-1.0096,43.5700],[-1.0095,43.5683],[-1.0121,43.5680],[-1.0150,43.5710],[-1.0135,43.5724],[-1.0095,43.5730],[-1.0144,43.5746],[-1.0186,43.5712],[-1.0174,43.5691],[-1.0152,43.5686],[-1.0146,43.5665],[-1.0190,43.5656],[-1.0187,43.5678],[-1.0210,43.5685],[-1.0238,43.5617],[-1.0251,43.5617],[-1.0254,43.5603],[-1.0301,43.5603],[-1.0294,43.5581],[-1.0324,43.5565],[-1.0402,43.5566],[-1.0381,43.5600],[-1.0391,43.5609],[-1.0419,43.5589],[-1.0433,43.5594],[-1.0424,43.5613],[-1.0461,43.5630],[-1.0478,43.5627],[-1.0476,43.5605],[-1.0560,43.5604],[-1.0575,43.5636],[-1.0605,43.5623],[-1.0617,43.5630],[-1.0619,43.5604],[-1.0641,43.5585],[-1.0633,43.5568],[-1.0651,43.5528],[-1.0682,43.5506],[-1.0652,43.5499],[-1.0637,43.5515],[-1.0635,43.5540],[-1.0618,43.5546],[-1.0624,43.5529],[-1.0607,43.5526],[-1.0616,43.5516],[-1.0604,43.5509],[-1.0666,43.5482],[-1.0730,43.5507],[-1.0756,43.5551],[-1.0748,43.5571],[-1.0694,43.5525],[-1.0678,43.5526],[-1.0665,43.5546],[-1.0679,43.5562],[-1.0670,43.5581],[-1.0742,43.5647],[-1.0807,43.5620],[-1.0831,43.5585],[-1.0830,43.5570],[-1.0814,43.5564],[-1.0796,43.5576],[-1.0776,43.5566],[-1.0791,43.5558],[-1.0777,43.5522],[-1.0834,43.5510],[-1.0830,43.5496],[-1.0785,43.5492],[-1.0842,43.5495],[-1.0842,43.5486],[-1.0850,43.5500],[-1.0902,43.5499],[-1.0890,43.5529],[-1.0893,43.5507],[-1.0865,43.5505],[-1.0855,43.5525],[-1.0872,43.5537],[-1.0832,43.5527],[-1.0817,43.5538],[-1.0852,43.5558],[-1.0883,43.5544],[-1.0889,43.5550],[-1.0871,43.5554],[-1.0880,43.5563],[-1.0895,43.5545],[-1.0912,43.5544],[-1.0924,43.5557],[-1.0900,43.5560],[-1.0905,43.5593],[-1.0888,43.5613],[-1.0903,43.5636],[-1.0861,43.5629],[-1.0859,43.5602],[-1.0843,43.5611],[-1.0839,43.5641],[-1.0894,43.5655],[-1.0940,43.5625],[-1.0934,43.5590],[-1.0960,43.5606],[-1.0953,43.5589],[-1.1005,43.5598],[-1.1002,43.5588],[-1.1014,43.5589],[-1.1004,43.5582],[-1.1028,43.5592],[-1.1021,43.5586],[-1.1061,43.5583],[-1.1028,43.5564],[-1.1020,43.5575],[-1.0962,43.5576],[-1.0998,43.5564],[-1.0994,43.5553],[-1.1026,43.5561],[-1.1012,43.5543],[-1.0978,43.5537],[-1.0992,43.5523],[-1.0991,43.5534],[-1.1041,43.5551],[-1.1087,43.5592],[-1.1046,43.5624],[-1.1020,43.5607],[-1.0995,43.5618],[-1.0989,43.5638],[-1.0935,43.5655],[-1.0943,43.5699],[-1.0932,43.5710],[-1.0886,43.5689],[-1.0873,43.5698],[-1.0866,43.5721],[-1.0887,43.5750],[-1.0862,43.5788],[-1.0924,43.5801],[-1.0928,43.5814],[-1.0907,43.5832],[-1.0924,43.5843],[-1.0980,43.5847],[-1.0981,43.5861],[-1.0958,43.5876],[-1.0960,43.5894],[-1.0921,43.5910],[-1.0973,43.5906],[-1.0997,43.5934],[-1.0960,43.5962],[-1.0942,43.5955],[-1.0913,43.5966]]]}},{"type":"Feature","properties":{"name":"Forêt du Pignada"},"geometry":{"type":"Polygon","coordinates":[[[-1.5155,43.5035],[-1.5078,43.5042],[-1.5050,43.5059],[-1.5057,43.5079],[-1.5046,43.5080],[-1.5056,43.5107],[-1.5070,43.5095],[-1.5072,43.5115],[-1.5055,43.5126],[-1.5073,43.5144],[-1.5049,43.5156],[-1.5065,43.5171],[-1.5044,43.5179],[-1.5044,43.5204],[-1.5076,43.5196],[-1.5062,43.5208],[-1.5066,43.5226],[-1.5086,43.5235],[-1.5101,43.5225],[-1.5098,43.5251],[-1.5118,43.5259],[-1.5171,43.5238],[-1.5153,43.5237],[-1.5162,43.5204],[-1.5145,43.5211],[-1.5162,43.5201],[-1.5158,43.5173],[-1.5170,43.5164],[-1.5157,43.5157],[-1.5160,43.5132],[-1.5211,43.5091],[-1.5214,43.5063],[-1.5241,43.5040],[-1.5202,43.5060],[-1.5189,43.5044],[-1.5204,43.5047],[-1.5204,43.5023],[-1.5256,43.5030],[-1.5277,43.5005],[-1.5259,43.5015],[-1.5200,43.5013],[-1.5155,43.5035]]]}}]}