{"type":"FeatureCollection","features":[{"type":"Feature","properties":{"name":"Le Bois Noir"},"geometry":{"type":"Polygon","coordinates":[[[4.3881,45.4051],[4.3915,45.4026],[4.3952,45.4045],[4.4023,45.4015],[4.4182,45.4003],[4.4232,45.3988],[4.4221,45.3981],[4.4235,45.3988],[4.4256,45.3975],[4.4236,45.3961],[4.4253,45.3924],[4.4330,45.3913],[4.4354,45.3926],[4.4372,45.3901],[4.4361,45.3904],[4.4360,45.3884],[4.4368,45.3891],[4.4381,45.3867],[4.4348,45.3860],[4.4322,45.3869],[4.4319,45.3881],[4.4282,45.3884],[4.4272,45.3898],[4.4243,45.3889],[4.4190,45.3907],[4.4139,45.3939],[4.4135,45.3959],[4.4121,45.3939],[4.4109,45.3952],[4.4020,45.3950],[4.3975,45.3986],[4.3995,45.3975],[4.3989,45.3990],[4.3969,45.4001],[4.3945,45.3993],[4.3936,45.4012],[4.3875,45.3978],[4.3887,45.4001],[4.3877,45.4012],[4.3825,45.4020],[4.3842,45.4047],[4.3881,45.4051]]]}},{"type":"Feature","properties":{"name":"Bois du Four"},"geometry":{"type":"Polygon","coordinates":[[[4.2490,45.4459],[4.2494,45.4428],[4.2518,45.4417],[4.2482,45.4379],[4.2452,45.4386],[4.2424,45.4371],[4.2438,45.4353],[4.2432,45.4347],[4.2468,45.4332],[4.2458,45.4285],[4.2499,45.4239],[4.2407,45.4245],[4.2405,45.4254],[4.2426,45.4260],[4.2438,45.4245],[4.2457,45.4253],[4.2413,45.4279],[4.2377,45.4254],[4.2394,45.4248],[4.2389,45.4230],[4.2401,45.4228],[4.2382,45.4209],[4.2425,45.4168],[4.2471,45.4206],[4.2425,45.4201],[4.2460,45.4228],[4.2444,45.4227],[4.2503,45.4225],[4.2442,45.4157],[4.2380,45.4140],[4.2367,45.4150],[4.2369,45.4173],[4.2316,45.4180],[4.2314,45.4198],[4.2284,45.4202],[4.2283,45.4211],[4.2312,45.4223],[4.2304,45.4236],[4.2258,45.4227],[4.2262,45.4205],[4.2244,45.4211],[4.2222,45.4189],[4.2205,45.4189],[4.2197,45.4213],[4.2164,45.4212],[4.2204,45.4267],[4.2221,45.4261],[4.2271,45.4280],[4.2292,45.4305],[4.2305,45.4353],[4.2288,45.4366],[4.2303,45.4382],[4.2337,45.4381],[4.2348,45.4368],[4.2371,45.4405],[4.2413,45.4409],[4.2444,45.4437],[4.2454,45.4434],[4.2445,45.4407],[4.2458,45.4402],[4.2464,45.4438],[4.2443,45.4457],[4.2490,45.4459]]]}},{"type":"Feature","properties":{"name":"Tourvéon"},"geometry":{"type":"Polygon","coordinates":[[[4.4969,46.1551],[4.4954,46.1583],[4.4927,46.1591],[4.4939,46.1612],[4.4986,46.1632],[4.4956,46.1637],[4.4968,46.1653],[4.4944,46.1677],[4.4944,46.1695],[4.5021,46.1712],[4.5036,46.1692],[4.5049,46.1721],[4.5134,46.1765],[4.5150,46.1762],[4.5156,46.1735],[4.5193,46.1728],[4.5173,46.1678],[4.5151,46.1664],[4.5173,46.1583],[4.5156,46.1583],[4.5165,46.1574],[4.5138,46.1542],[4.5098,46.1539],[4.5086,46.1520],[4.5047,46.1514],[4.5012,46.1519],[4.4969,46.1551]]]}},{"type":"Feature","properties":{"name":"Forêt sectionale des Cheix de Valcivières"},"geometry":{"type":"Polygon","coordinates":[[[3.8056,45.5756],[3.8037,45.5775],[3.8037,45.5794],[3.8021,45.5798],[3.8005,45.5789],[3.8010,45.5778],[3.7996,45.5778],[3.8027,45.5768],[3.7940,45.5774],[3.7914,45.5756],[3.7907,45.5723],[3.7884,45.5744],[3.7887,45.5777],[3.7821,45.5776],[3.7792,45.5790],[3.7796,45.5809],[3.7775,45.5831],[3.7782,45.5852],[3.7769,45.5856],[3.7792,45.5878],[3.7776,45.5881],[3.7778,45.5893],[3.7852,45.5875],[3.7871,45.5859],[3.7890,45.5876],[3.7925,45.5871],[3.7981,45.5855],[3.8009,45.5833],[3.8048,45.5830],[3.8091,45.5797],[3.8068,45.5788],[3.8084,45.5787],[3.8079,45.5776],[3.8133,45.5733],[3.8100,45.5733],[3.8056,45.5756]]]}},{"type":"Feature","properties":{"name":"Bois du Barthelemy"},"geometry":{"type":"Polygon","coordinates":[[[4.6426,45.7270],[4.6441,45.7284],[4.6431,45.7287],[4.6461,45.7296],[4.6466,45.7309],[4.6489,45.7304],[4.6474,45.7324],[4.6489,45.7326],[4.6420,45.7336],[4.6416,45.7349],[4.6366,45.7331],[4.6364,45.7342],[4.6341,45.7339],[4.6322,45.7355],[4.6330,45.7369],[4.6345,45.7367],[4.6350,45.7385],[4.6224,45.7422],[4.6208,45.7398],[4.6180,45.7395],[4.6189,45.7384],[4.6176,45.7381],[4.6178,45.7360],[4.6212,45.7364],[4.6224,45.7352],[4.6191,45.7352],[4.6190,45.7338],[4.6166,45.7333],[4.6131,45.7349],[4.6113,45.7343],[4.6131,45.7342],[4.6119,45.7326],[4.6128,45.7318],[4.6103,45.7330],[4.6078,45.7296],[4.6057,45.7299],[4.6094,45.7281],[4.6111,45.7300],[4.6111,45.7286],[4.6119,45.7295],[4.6100,45.7309],[4.6125,45.7301],[4.6124,45.7312],[4.6141,45.7308],[4.6121,45.7290],[4.6136,45.7295],[4.6137,45.7285],[4.6154,45.7296],[4.6136,45.7297],[4.6140,45.7305],[4.6163,45.7301],[4.6159,45.7317],[4.6176,45.7309],[4.6218,45.7328],[4.6232,45.7318],[4.6214,45.7320],[4.6222,45.7310],[4.6213,45.7299],[4.6167,45.7275],[4.6153,45.7282],[4.6143,45.7277],[4.6157,45.7272],[4.6140,45.7269],[4.6121,45.7290],[4.6119,45.7273],[4.6099,45.7269],[4.6110,45.7251],[4.6172,45.7250],[4.6161,45.7264],[4.6192,45.7268],[4.6206,45.7283],[4.6241,45.7273],[4.6249,45.7282],[4.6236,45.7304],[4.6287,45.7269],[4.6304,45.7275],[4.6304,45.7287],[4.6323,45.7286],[4.6328,45.7261],[4.6296,45.7266],[4.6336,45.7244],[4.6370,45.7284],[4.6335,45.7282],[4.6344,45.7297],[4.6331,45.7292],[4.6339,45.7301],[4.6332,45.7313],[4.6367,45.7309],[4.6395,45.7323],[4.6415,45.7315],[4.6408,45.7306],[4.6436,45.7305],[4.6399,45.7290],[4.6406,45.7298],[4.6396,45.7303],[4.6367,45.7297],[4.6382,45.7276],[4.6360,45.7271],[4.6356,45.7256],[4.6370,45.7250],[4.6382,45.7266],[4.6423,45.7267],[4.6420,45.7279],[4.6426,45.7270]]]}},{"type":"Feature","properties":{"name":"Forêt communale indivise de Charrier et Autres"},"geometry":{"type":"Polygon","coordinates":[[[3.8353,45.4631],[3.8373,45.4623],[3.8366,45.4639],[3.8430,45.4581],[3.8445,45.4581],[3.8439,45.4567],[3.8459,45.4508],[3.8433,45.4483],[3.8435,45.4393],[3.8446,45.4374],[3.8342,45.4346],[3.8360,45.4369],[3.8331,45.4431],[3.8342,45.4444],[3.8353,45.4440],[3.8344,45.4445],[3.8366,45.4473],[3.8346,45.4505],[3.8367,45.4499],[3.8362,45.4514],[3.8337,45.4525],[3.8346,45.4548],[3.8320,45.4585],[3.8344,45.4594],[3.8353,45.4631]]]}},{"type":"Feature","properties":{"name":"Forêt de Lespinasse"},"geometry":{"type":"Polygon","coordinates":[[[3.9794,46.1500],[3.9752,46.1489],[3.9763,46.1465],[3.9784,46.1482],[3.9798,46.1476],[3.9744,46.1451],[3.9760,46.1461],[3.9744,46.1481],[3.9706,46.1496],[3.9690,46.1530],[3.9668,46.1519],[3.9638,46.1530],[3.9624,46.1560],[3.9597,46.1571],[3.9602,46.1592],[3.9529,46.1568],[3.9524,46.1593],[3.9492,46.1590],[3.9484,46.1606],[3.9459,46.1608],[3.9464,46.1637],[3.9513,46.1684],[3.9538,46.1693],[3.9528,46.1694],[3.9560,46.1687],[3.9573,46.1654],[3.9600,46.1677],[3.9591,46.1704],[3.9613,46.1686],[3.9641,46.1689],[3.9661,46.1718],[3.9711,46.1696],[3.9717,46.1705],[3.9698,46.1719],[3.9730,46.1739],[3.9751,46.1729],[3.9771,46.1747],[3.9801,46.1707],[3.9823,46.1711],[3.9818,46.1719],[3.9838,46.1712],[3.9828,46.1718],[3.9839,46.1735],[3.9821,46.1761],[3.9837,46.1762],[3.9835,46.1745],[3.9863,46.1714],[3.9850,46.1713],[3.9880,46.1693],[3.9883,46.1704],[3.9900,46.1691],[3.9913,46.1703],[3.9905,46.1684],[3.9872,46.1673],[3.9884,46.1666],[3.9889,46.1637],[3.9863,46.1652],[3.9839,46.1647],[3.9837,46.1634],[3.9887,46.1618],[3.9908,46.1638],[3.9919,46.1626],[3.9940,46.1639],[3.9947,46.1630],[3.9927,46.1611],[3.9911,46.1614],[3.9911,46.1595],[3.9887,46.1584],[3.9857,46.1618],[3.9792,46.1610],[3.9811,46.1609],[3.9817,46.1593],[3.9836,46.1600],[3.9872,46.1574],[3.9868,46.1551],[3.9892,46.1551],[3.9883,46.1543],[3.9933,46.1517],[3.9894,46.1493],[3.9869,46.1508],[3.9868,46.1490],[3.9851,46.1509],[3.9857,46.1527],[3.9841,46.1568],[3.9847,46.1537],[3.9826,46.1532],[3.9840,46.1511],[3.9833,46.1500],[3.9811,46.1502],[3.9826,46.1534],[3.9828,46.1566],[3.9816,46.1578],[3.9770,46.1568],[3.9775,46.1556],[3.9763,46.1555],[3.9773,46.1517],[3.9794,46.1500]]]}}]}