{"type":"FeatureCollection","features":[{"type":"Feature","properties":{"name":"Forêt de Javardan"},"geometry":{"type":"Polygon","coordinates":[[[-1.3969,47.8116],[-1.3952,47.8094],[-1.3933,47.8116],[-1.3868,47.8095],[-1.3794,47.8099],[-1.3797,47.8088],[-1.3735,47.8067],[-1.3752,47.8032],[-1.3697,47.8023],[-1.3685,47.8015],[-1.3705,47.7993],[-1.3677,47.7980],[-1.3715,47.7992],[-1.3725,47.7978],[-1.3712,47.7967],[-1.3766,47.7950],[-1.3820,47.7950],[-1.3818,47.7942],[-1.3850,47.7953],[-1.3814,47.7987],[-1.3873,47.7998],[-1.3883,47.7984],[-1.3912,47.7981],[-1.3850,47.7954],[-1.3903,47.7958],[-1.3897,47.7969],[-1.4017,47.8022],[-1.4041,47.8012],[-1.4039,47.7997],[-1.4009,47.7996],[-1.4012,47.7981],[-1.4049,47.7986],[-1.4055,47.7998],[-1.4088,47.7995],[-1.4102,47.7964],[-1.4145,47.7968],[-1.4138,47.7986],[-1.4116,47.7977],[-1.4114,47.8003],[-1.4091,47.8003],[-1.4063,47.8035],[-1.4046,47.8028],[-1.4030,47.8041],[-1.4077,47.8071],[-1.3969,47.8116]]]}},{"type":"Feature","properties":{"name":"Forêt de l\u0027Arche"},"geometry":{"type":"Polygon","coordinates":[[[-1.4750,47.5588],[-1.4714,47.5574],[-1.4652,47.5641],[-1.4511,47.5655],[-1.4498,47.5675],[-1.4430,47.5654],[-1.4288,47.5676],[-1.4260,47.5668],[-1.4276,47.5652],[-1.4254,47.5642],[-1.4305,47.5630],[-1.4327,47.5607],[-1.4393,47.5618],[-1.4389,47.5594],[-1.4414,47.5605],[-1.4414,47.5583],[-1.4426,47.5603],[-1.4467,47.5585],[-1.4504,47.5592],[-1.4536,47.5557],[-1.4557,47.5560],[-1.4548,47.5538],[-1.4566,47.5572],[-1.4621,47.5567],[-1.4615,47.5540],[-1.4647,47.5524],[-1.4658,47.5547],[-1.4681,47.5538],[-1.4706,47.5554],[-1.4774,47.5555],[-1.4789,47.5545],[-1.4774,47.5544],[-1.4756,47.5512],[-1.4838,47.5514],[-1.4850,47.5517],[-1.4854,47.5535],[-1.4830,47.5531],[-1.4828,47.5556],[-1.4924,47.5566],[-1.4750,47.5588]]]}},{"type":"Feature","properties":{"name":"Forêt de la Groulaie"},"geometry":{"type":"Polygon","coordinates":[[[-1.7207,47.4447],[-1.7235,47.4437],[-1.7408,47.4464],[-1.7567,47.4505],[-1.7603,47.4533],[-1.7597,47.4517],[-1.7636,47.4510],[-1.7650,47.4543],[-1.7673,47.4542],[-1.7676,47.4575],[-1.7698,47.4582],[-1.7699,47.4663],[-1.7663,47.4631],[-1.7642,47.4645],[-1.7617,47.4629],[-1.7635,47.4605],[-1.7590,47.4599],[-1.7589,47.4610],[-1.7572,47.4613],[-1.7560,47.4608],[-1.7575,47.4588],[-1.7542,47.4577],[-1.7533,47.4582],[-1.7545,47.4591],[-1.7497,47.4590],[-1.7548,47.4599],[-1.7534,47.4619],[-1.7427,47.4580],[-1.7391,47.4583],[-1.7308,47.4622],[-1.7310,47.4613],[-1.7288,47.4608],[-1.7298,47.4595],[-1.7204,47.4560],[-1.7159,47.4490],[-1.7112,47.4490],[-1.7103,47.4476],[-1.7101,47.4461],[-1.7116,47.4459],[-1.7158,47.4487],[-1.7154,47.4478],[-1.7169,47.4483],[-1.7207,47.4447]]]}},{"type":"Feature","properties":{"name":"Forêt d\u0027Ombrée"},"geometry":{"type":"Polygon","coordinates":[[[-1.0361,47.7454],[-1.0324,47.7450],[-1.0280,47.7405],[-1.0289,47.7378],[-1.0272,47.7371],[-1.0287,47.7363],[-1.0262,47.7357],[-1.0262,47.7342],[-1.0292,47.7336],[-1.0285,47.7316],[-1.0254,47.7324],[-1.0244,47.7301],[-1.0213,47.7288],[-1.0152,47.7293],[-0.9958,47.7245],[-0.9937,47.7237],[-0.9958,47.7231],[-0.9960,47.7194],[-0.9890,47.7175],[-0.9937,47.7142],[-0.9988,47.7136],[-0.9976,47.7126],[-1.0017,47.7145],[-1.0006,47.7136],[-1.0040,47.7130],[-1.0002,47.7119],[-1.0029,47.7117],[-1.0308,47.7218],[-1.0401,47.7235],[-1.0416,47.7220],[-1.0575,47.7262],[-1.0698,47.7307],[-1.0688,47.7328],[-1.0704,47.7348],[-1.0701,47.7371],[-1.0736,47.7373],[-1.0739,47.7392],[-1.0719,47.7421],[-1.0724,47.7459],[-1.0720,47.7449],[-1.0665,47.7449],[-1.0654,47.7455],[-1.0660,47.7472],[-1.0636,47.7478],[-1.0609,47.7475],[-1.0565,47.7491],[-1.0528,47.7483],[-1.0512,47.7459],[-1.0466,47.7459],[-1.0465,47.7446],[-1.0387,47.7458],[-1.0394,47.7441],[-1.0365,47.7438],[-1.0361,47.7454]]]}},{"type":"Feature","properties":{"name":"Forêt de la Bretesche - Missillac"},"geometry":{"type":"Polygon","coordinates":[[[-2.1534,47.5089],[-2.1547,47.5073],[-2.1589,47.5077],[-2.1577,47.5105],[-2.1603,47.5106],[-2.1603,47.5144],[-2.1684,47.5143],[-2.1690,47.5129],[-2.1735,47.5137],[-2.1739,47.5123],[-2.1815,47.5135],[-2.1818,47.5118],[-2.1865,47.5115],[-2.1841,47.5100],[-2.1868,47.5074],[-2.1843,47.5027],[-2.1827,47.5029],[-2.1831,47.5014],[-2.1880,47.4991],[-2.1915,47.5008],[-2.1920,47.5038],[-2.1960,47.5021],[-2.1963,47.5001],[-2.2023,47.5014],[-2.1993,47.5030],[-2.2022,47.5066],[-2.1942,47.5077],[-2.1925,47.5118],[-2.1773,47.5160],[-2.1638,47.5149],[-2.1585,47.5179],[-2.1591,47.5146],[-2.1546,47.5140],[-2.1530,47.5110],[-2.1534,47.5089]]]}},{"type":"Feature","properties":{"name":"Bois de Thiouzé"},"geometry":{"type":"Polygon","coordinates":[[[-1.6376,47.7406],[-1.6379,47.7425],[-1.6338,47.7435],[-1.6264,47.7570],[-1.6246,47.7556],[-1.6242,47.7527],[-1.6218,47.7537],[-1.6243,47.7517],[-1.6235,47.7502],[-1.6170,47.7509],[-1.6188,47.7546],[-1.6198,47.7545],[-1.6186,47.7553],[-1.6175,47.7532],[-1.6153,47.7540],[-1.6156,47.7526],[-1.6149,47.7536],[-1.6091,47.7535],[-1.6115,47.7570],[-1.6101,47.7568],[-1.6102,47.7549],[-1.6074,47.7556],[-1.6065,47.7541],[-1.6082,47.7523],[-1.6109,47.7522],[-1.6105,47.7509],[-1.6171,47.7498],[-1.6160,47.7480],[-1.6177,47.7455],[-1.6126,47.7443],[-1.6089,47.7408],[-1.6119,47.7384],[-1.6100,47.7374],[-1.6112,47.7358],[-1.6189,47.7368],[-1.6204,47.7353],[-1.6229,47.7356],[-1.6218,47.7338],[-1.6264,47.7335],[-1.6300,47.7346],[-1.6300,47.7364],[-1.6358,47.7389],[-1.6388,47.7355],[-1.6390,47.7376],[-1.6430,47.7430],[-1.6414,47.7455],[-1.6400,47.7454],[-1.6397,47.7430],[-1.6382,47.7431],[-1.6393,47.7423],[-1.6376,47.7406]]]}},{"type":"Feature","properties":{"name":"Forêt de la Madeleine"},"geometry":{"type":"Polygon","coordinates":[[[-2.1569,47.4558],[-2.1617,47.4538],[-2.1555,47.4497],[-2.1543,47.4516],[-2.1559,47.4525],[-2.1540,47.4527],[-2.1543,47.4556],[-2.1513,47.4566],[-2.1371,47.4530],[-2.1355,47.4448],[-2.1386,47.4427],[-2.1437,47.4418],[-2.1522,47.4430],[-2.1502,47.4445],[-2.1534,47.4459],[-2.1556,47.4444],[-2.1537,47.4450],[-2.1552,47.4433],[-2.1586,47.4438],[-2.1580,47.4425],[-2.1590,47.4420],[-2.1591,47.4455],[-2.1622,47.4464],[-2.1661,47.4510],[-2.1647,47.4551],[-2.1676,47.4571],[-2.1642,47.4564],[-2.1630,47.4579],[-2.1617,47.4553],[-2.1569,47.4558]]]}},{"type":"Feature","properties":{"name":"Forêt de Chanveaux"},"geometry":{"type":"Polygon","coordinates":[[[-1.1587,47.6653],[-1.1514,47.6656],[-1.1529,47.6637],[-1.1508,47.6624],[-1.1504,47.6612],[-1.1516,47.6608],[-1.1494,47.6605],[-1.1506,47.6576],[-1.1478,47.6566],[-1.1503,47.6561],[-1.1486,47.6555],[-1.1499,47.6552],[-1.1496,47.6538],[-1.1455,47.6539],[-1.1393,47.6442],[-1.1423,47.6448],[-1.1484,47.6363],[-1.1526,47.6384],[-1.1523,47.6374],[-1.1564,47.6361],[-1.1592,47.6378],[-1.1572,47.6403],[-1.1634,47.6398],[-1.1626,47.6417],[-1.1612,47.6420],[-1.1622,47.6425],[-1.1597,47.6430],[-1.1568,47.6415],[-1.1563,47.6430],[-1.1593,47.6447],[-1.1559,47.6434],[-1.1558,47.6464],[-1.1588,47.6467],[-1.1597,47.6493],[-1.1673,47.6483],[-1.1755,47.6499],[-1.1761,47.6557],[-1.1666,47.6545],[-1.1626,47.6599],[-1.1596,47.6605],[-1.1606,47.6615],[-1.1692,47.6593],[-1.1773,47.6596],[-1.1739,47.6611],[-1.1745,47.6603],[-1.1706,47.6595],[-1.1608,47.6617],[-1.1668,47.6623],[-1.1683,47.6639],[-1.1664,47.6654],[-1.1675,47.6663],[-1.1640,47.6665],[-1.1641,47.6647],[-1.1587,47.6653]]]}},{"type":"Feature","properties":{"name":"Forêt de Domnaiche"},"geometry":{"type":"Polygon","coordinates":[[[-1.5472,47.6754],[-1.5568,47.6758],[-1.5695,47.6788],[-1.5729,47.6835],[-1.5783,47.6850],[-1.5773,47.6872],[-1.5786,47.6870],[-1.5791,47.6848],[-1.5811,47.6848],[-1.5814,47.6828],[-1.5878,47.6832],[-1.5862,47.6860],[-1.5871,47.6867],[-1.5834,47.6884],[-1.5830,47.6870],[-1.5796,47.6873],[-1.5783,47.6893],[-1.5765,47.6879],[-1.5747,47.6899],[-1.5628,47.6869],[-1.5613,47.6957],[-1.5622,47.6984],[-1.5585,47.6995],[-1.5599,47.6951],[-1.5503,47.6961],[-1.5482,47.6996],[-1.5485,47.7012],[-1.5470,47.7023],[-1.5422,47.7009],[-1.5410,47.7047],[-1.5389,47.7045],[-1.5375,47.7026],[-1.5404,47.7012],[-1.5387,47.7003],[-1.5389,47.6988],[-1.5425,47.6983],[-1.5374,47.6966],[-1.5389,47.6947],[-1.5349,47.6891],[-1.5318,47.6871],[-1.5278,47.6876],[-1.5225,47.6823],[-1.5209,47.6825],[-1.5217,47.6815],[-1.5201,47.6790],[-1.5171,47.6804],[-1.5166,47.6793],[-1.5309,47.6769],[-1.5341,47.6774],[-1.5381,47.6756],[-1.5429,47.6757],[-1.5446,47.6741],[-1.5449,47.6753],[-1.5472,47.6754]]]}},{"type":"Feature","properties":{"name":"Forêt d\u0027Ancenis"},"geometry":{"type":"Polygon","coordinates":[[[-1.3459,47.5545],[-1.3358,47.5548],[-1.2987,47.5494],[-1.2983,47.5512],[-1.2966,47.5510],[-1.2961,47.5521],[-1.2918,47.5512],[-1.2925,47.5533],[-1.2916,47.5516],[-1.2887,47.5530],[-1.2883,47.5520],[-1.2833,47.5520],[-1.2823,47.5533],[-1.2778,47.5513],[-1.2732,47.5516],[-1.2750,47.5531],[-1.2702,47.5532],[-1.2669,47.5512],[-1.2694,47.5506],[-1.2668,47.5494],[-1.2667,47.5476],[-1.2716,47.5431],[-1.2756,47.5442],[-1.2805,47.5422],[-1.2786,47.5391],[-1.2808,47.5376],[-1.2769,47.5370],[-1.2747,47.5347],[-1.2787,47.5327],[-1.2830,47.5329],[-1.2829,47.5376],[-1.2880,47.5388],[-1.2948,47.5381],[-1.2939,47.5400],[-1.2949,47.5407],[-1.2986,47.5393],[-1.3041,47.5413],[-1.3004,47.5393],[-1.3024,47.5392],[-1.3056,47.5423],[-1.3041,47.5428],[-1.3050,47.5431],[-1.3071,47.5430],[-1.3066,47.5382],[-1.3087,47.5347],[-1.3102,47.5374],[-1.3110,47.5342],[-1.3164,47.5352],[-1.3186,47.5368],[-1.3198,47.5426],[-1.3180,47.5437],[-1.3197,47.5450],[-1.3205,47.5431],[-1.3236,47.5440],[-1.3247,47.5430],[-1.3269,47.5450],[-1.3319,47.5462],[-1.3348,47.5447],[-1.3366,47.5456],[-1.3392,47.5435],[-1.3404,47.5460],[-1.3490,47.5464],[-1.3459,47.5545]]]}},{"type":"Feature","properties":{"name":"Forêt de Corbinière"},"geometry":{"type":"Polygon","coordinates":[[[-1.8436,47.7681],[-1.8359,47.7773],[-1.8251,47.7792],[-1.8226,47.7794],[-1.8225,47.7783],[-1.8245,47.7783],[-1.8224,47.7758],[-1.8303,47.7736],[-1.8294,47.7726],[-1.8263,47.7730],[-1.8263,47.7702],[-1.8143,47.7718],[-1.8104,47.7758],[-1.8133,47.7757],[-1.8129,47.7773],[-1.8079,47.7779],[-1.8088,47.7770],[-1.8063,47.7766],[-1.8083,47.7733],[-1.7982,47.7730],[-1.7986,47.7745],[-1.7969,47.7725],[-1.7971,47.7712],[-1.7987,47.7710],[-1.7986,47.7695],[-1.8044,47.7710],[-1.8140,47.7710],[-1.8126,47.7695],[-1.8141,47.7690],[-1.8123,47.7677],[-1.8145,47.7670],[-1.8173,47.7687],[-1.8195,47.7682],[-1.8185,47.7668],[-1.8202,47.7664],[-1.8264,47.7688],[-1.8378,47.7659],[-1.8436,47.7681]]]}},{"type":"Feature","properties":{"name":"Forêt de la Guerche"},"geometry":{"type":"Polygon","coordinates":[[[-1.1671,47.9254],[-1.1687,47.9196],[-1.1741,47.9192],[-1.1735,47.9160],[-1.1754,47.9139],[-1.1746,47.9120],[-1.1765,47.9075],[-1.1762,47.9029],[-1.1805,47.9024],[-1.1819,47.9003],[-1.1823,47.8941],[-1.1912,47.8934],[-1.1922,47.8913],[-1.1940,47.8898],[-1.1972,47.8897],[-1.1988,47.8873],[-1.1993,47.8849],[-1.1976,47.8842],[-1.1971,47.8772],[-1.1921,47.8729],[-1.1951,47.8732],[-1.1957,47.8746],[-1.1987,47.8738],[-1.1971,47.8757],[-1.2009,47.8772],[-1.2033,47.8705],[-1.1974,47.8691],[-1.1965,47.8704],[-1.1911,47.8706],[-1.1891,47.8700],[-1.1886,47.8667],[-1.1946,47.8648],[-1.1980,47.8600],[-1.2010,47.8581],[-1.1997,47.8567],[-1.1958,47.8580],[-1.1944,47.8556],[-1.1935,47.8608],[-1.1908,47.8613],[-1.1917,47.8593],[-1.1900,47.8588],[-1.1912,47.8553],[-1.1891,47.8540],[-1.1907,47.8534],[-1.1923,47.8543],[-1.1960,47.8534],[-1.1979,47.8549],[-1.2021,47.8552],[-1.2031,47.8560],[-1.2023,47.8571],[-1.2048,47.8564],[-1.2053,47.8585],[-1.2076,47.8566],[-1.2106,47.8564],[-1.2125,47.8570],[-1.2111,47.8582],[-1.2145,47.8577],[-1.2198,47.8591],[-1.2357,47.8665],[-1.2359,47.8642],[-1.2414,47.8657],[-1.2401,47.8682],[-1.2451,47.8695],[-1.2513,47.8635],[-1.2517,47.8658],[-1.2496,47.8677],[-1.2428,47.8703],[-1.2443,47.8718],[-1.2495,47.8717],[-1.2508,47.8704],[-1.2567,47.8690],[-1.2589,47.8623],[-1.2732,47.8643],[-1.2767,47.8662],[-1.2806,47.8647],[-1.2806,47.8637],[-1.2850,47.8630],[-1.2909,47.8642],[-1.2954,47.8662],[-1.2981,47.8717],[-1.2972,47.8743],[-1.3069,47.8792],[-1.3070,47.8808],[-1.3031,47.8863],[-1.3013,47.8864],[-1.3025,47.8881],[-1.3007,47.8931],[-1.2986,47.8930],[-1.2976,47.8945],[-1.2944,47.8930],[-1.2941,47.8946],[-1.2901,47.8943],[-1.2881,47.8927],[-1.2852,47.8919],[-1.2843,47.8927],[-1.2832,47.8913],[-1.2776,47.8898],[-1.2763,47.8932],[-1.2671,47.8940],[-1.2625,47.8917],[-1.2629,47.8907],[-1.2577,47.8903],[-1.2573,47.8883],[-1.2555,47.8877],[-1.2512,47.8903],[-1.2378,47.8932],[-1.2185,47.8945],[-1.2125,47.8969],[-1.2137,47.8992],[-1.2120,47.8996],[-1.2064,47.8983],[-1.2048,47.9013],[-1.2016,47.9006],[-1.2003,47.9015],[-1.1999,47.9041],[-1.2010,47.9052],[-1.1996,47.9055],[-1.1988,47.9086],[-1.1998,47.9102],[-1.1984,47.9113],[-1.1905,47.9111],[-1.1888,47.9141],[-1.1906,47.9154],[-1.1896,47.9171],[-1.1844,47.9151],[-1.1831,47.9161],[-1.1844,47.9179],[-1.1828,47.9189],[-1.1827,47.9236],[-1.1762,47.9271],[-1.1741,47.9261],[-1.1710,47.9276],[-1.1671,47.9254]]]}},{"type":"Feature","properties":{"name":"Forêt du Parc"},"geometry":{"type":"Polygon","coordinates":[[[-1.8744,47.5538],[-1.8764,47.5518],[-1.8793,47.5515],[-1.8803,47.5497],[-1.8840,47.5497],[-1.8851,47.5481],[-1.8876,47.5486],[-1.8867,47.5500],[-1.8885,47.5494],[-1.8900,47.5507],[-1.8892,47.5535],[-1.8917,47.5536],[-1.8926,47.5498],[-1.9010,47.5473],[-1.9014,47.5486],[-1.8989,47.5489],[-1.8997,47.5538],[-1.8964,47.5562],[-1.8954,47.5551],[-1.8964,47.5525],[-1.8953,47.5524],[-1.8964,47.5521],[-1.8952,47.5518],[-1.8964,47.5514],[-1.8933,47.5508],[-1.8927,47.5530],[-1.8940,47.5528],[-1.8954,47.5555],[-1.8909,47.5618],[-1.8833,47.5627],[-1.8819,47.5608],[-1.8744,47.5601],[-1.8731,47.5612],[-1.8747,47.5613],[-1.8738,47.5637],[-1.8663,47.5617],[-1.8682,47.5607],[-1.8734,47.5625],[-1.8738,47.5616],[-1.8691,47.5591],[-1.8718,47.5579],[-1.8710,47.5563],[-1.8723,47.5544],[-1.8744,47.5538]]]}},{"type":"Feature","properties":{"name":"Forêt de Saint-Mars-la-Jaille"},"geometry":{"type":"Polygon","coordinates":[[[-1.2610,47.5232],[-1.2685,47.5234],[-1.2690,47.5257],[-1.2799,47.5261],[-1.2805,47.5247],[-1.2879,47.5248],[-1.2876,47.5260],[-1.2799,47.5264],[-1.2788,47.5297],[-1.2869,47.5289],[-1.2870,47.5279],[-1.2890,47.5277],[-1.2877,47.5303],[-1.2902,47.5312],[-1.2987,47.5313],[-1.2994,47.5330],[-1.3017,47.5326],[-1.3016,47.5337],[-1.3049,47.5324],[-1.3061,47.5335],[-1.3030,47.5358],[-1.2926,47.5348],[-1.2845,47.5378],[-1.2827,47.5372],[-1.2830,47.5329],[-1.2740,47.5341],[-1.2702,47.5378],[-1.2699,47.5397],[-1.2711,47.5404],[-1.2704,47.5420],[-1.2716,47.5431],[-1.2704,47.5439],[-1.2693,47.5427],[-1.2607,47.5514],[-1.2579,47.5522],[-1.2639,47.5467],[-1.2539,47.5433],[-1.2554,47.5410],[-1.2510,47.5422],[-1.2491,47.5404],[-1.2484,47.5393],[-1.2493,47.5403],[-1.2531,47.5382],[-1.2571,47.5380],[-1.2554,47.5346],[-1.2567,47.5323],[-1.2552,47.5299],[-1.2519,47.5300],[-1.2492,47.5280],[-1.2469,47.5276],[-1.2470,47.5296],[-1.2453,47.5301],[-1.2454,47.5266],[-1.2490,47.5249],[-1.2446,47.5243],[-1.2484,47.5239],[-1.2489,47.5212],[-1.2494,47.5226],[-1.2506,47.5218],[-1.2497,47.5199],[-1.2548,47.5196],[-1.2540,47.5226],[-1.2554,47.5242],[-1.2540,47.5256],[-1.2610,47.5232]]]}},{"type":"Feature","properties":{"name":"Forêt de la Foucaudière"},"geometry":{"type":"Polygon","coordinates":[[[-1.1622,47.2702],[-1.1634,47.2701],[-1.1639,47.2684],[-1.1658,47.2683],[-1.1651,47.2664],[-1.1686,47.2660],[-1.1695,47.2710],[-1.1731,47.2707],[-1.1724,47.2683],[-1.1741,47.2681],[-1.1738,47.2656],[-1.1815,47.2658],[-1.1867,47.2639],[-1.2015,47.2632],[-1.2029,47.2629],[-1.2038,47.2606],[-1.2064,47.2619],[-1.2048,47.2637],[-1.2032,47.2627],[-1.2013,47.2657],[-1.2029,47.2663],[-1.2027,47.2701],[-1.1999,47.2703],[-1.1999,47.2728],[-1.1986,47.2723],[-1.1944,47.2750],[-1.1921,47.2747],[-1.1902,47.2772],[-1.1913,47.2778],[-1.1895,47.2786],[-1.1831,47.2771],[-1.1750,47.2781],[-1.1757,47.2767],[-1.1742,47.2763],[-1.1768,47.2758],[-1.1773,47.2744],[-1.1753,47.2744],[-1.1719,47.2756],[-1.1700,47.2748],[-1.1705,47.2771],[-1.1676,47.2783],[-1.1672,47.2764],[-1.1612,47.2782],[-1.1598,47.2714],[-1.1601,47.2703],[-1.1622,47.2702]]]}},{"type":"Feature","properties":{"name":"Forêt de Juigné"},"geometry":{"type":"Polygon","coordinates":[[[-1.1802,47.7009],[-1.1880,47.7017],[-1.1892,47.6992],[-1.1891,47.6959],[-1.1852,47.6921],[-1.1853,47.6875],[-1.1936,47.6870],[-1.1946,47.6861],[-1.1934,47.6837],[-1.1968,47.6848],[-1.1994,47.6834],[-1.1997,47.6759],[-1.1923,47.6733],[-1.1913,47.6709],[-1.2008,47.6710],[-1.2024,47.6726],[-1.2096,47.6729],[-1.2147,47.6787],[-1.2130,47.6815],[-1.2146,47.6823],[-1.2123,47.6850],[-1.2147,47.6866],[-1.2169,47.6848],[-1.2188,47.6856],[-1.2160,47.6864],[-1.2153,47.6889],[-1.2170,47.6897],[-1.2222,47.6874],[-1.2235,47.6894],[-1.2255,47.6896],[-1.2267,47.6878],[-1.2230,47.6866],[-1.2242,47.6855],[-1.2225,47.6836],[-1.2244,47.6795],[-1.2218,47.6804],[-1.2226,47.6773],[-1.2218,47.6760],[-1.2269,47.6750],[-1.2280,47.6724],[-1.2308,47.6743],[-1.2317,47.6736],[-1.2303,47.6758],[-1.2314,47.6759],[-1.2312,47.6771],[-1.2356,47.6769],[-1.2407,47.6786],[-1.2422,47.6761],[-1.2437,47.6769],[-1.2416,47.6790],[-1.2435,47.6788],[-1.2446,47.6803],[-1.2649,47.6763],[-1.2755,47.6796],[-1.2760,47.6813],[-1.2791,47.6820],[-1.2856,47.6812],[-1.2866,47.6856],[-1.2903,47.6861],[-1.2897,47.6897],[-1.2824,47.6891],[-1.2821,47.6913],[-1.2796,47.6913],[-1.2788,47.6956],[-1.2764,47.6948],[-1.2775,47.6949],[-1.2784,47.6925],[-1.2761,47.6927],[-1.2769,47.6907],[-1.2751,47.6904],[-1.2750,47.6885],[-1.2459,47.6905],[-1.2489,47.6930],[-1.2418,47.6953],[-1.2439,47.6969],[-1.2423,47.6970],[-1.2421,47.6987],[-1.2381,47.6995],[-1.2400,47.7012],[-1.2382,47.7039],[-1.2387,47.7051],[-1.2283,47.7047],[-1.2263,47.7067],[-1.2260,47.7078],[-1.2272,47.7073],[-1.2273,47.7083],[-1.2234,47.7089],[-1.2229,47.7112],[-1.2212,47.7118],[-1.2209,47.7103],[-1.2192,47.7100],[-1.2214,47.7055],[-1.2161,47.7043],[-1.2105,47.7058],[-1.2065,47.7098],[-1.2012,47.7094],[-1.1963,47.7111],[-1.1946,47.7124],[-1.1954,47.7144],[-1.1911,47.7123],[-1.1807,47.7112],[-1.1816,47.7085],[-1.1790,47.7084],[-1.1802,47.7009]]]}},{"type":"Feature","properties":{"name":"Forêt du Cellier"},"geometry":{"type":"Polygon","coordinates":[[[-1.3904,47.3387],[-1.3914,47.3380],[-1.3902,47.3371],[-1.3867,47.3380],[-1.3956,47.3339],[-1.3941,47.3352],[-1.3956,47.3361],[-1.3943,47.3376],[-1.3988,47.3383],[-1.3896,47.3447],[-1.3873,47.3435],[-1.3854,47.3449],[-1.3874,47.3463],[-1.3825,47.3498],[-1.3915,47.3531],[-1.3922,47.3540],[-1.3905,47.3557],[-1.3926,47.3571],[-1.3898,47.3590],[-1.3877,47.3577],[-1.3839,47.3582],[-1.3844,47.3574],[-1.3812,47.3553],[-1.3826,47.3543],[-1.3792,47.3520],[-1.3733,47.3561],[-1.3749,47.3571],[-1.3735,47.3580],[-1.3758,47.3597],[-1.3728,47.3612],[-1.3710,47.3601],[-1.3664,47.3632],[-1.3650,47.3624],[-1.3642,47.3632],[-1.3656,47.3638],[-1.3607,47.3657],[-1.3595,47.3651],[-1.3602,47.3643],[-1.3573,47.3647],[-1.3590,47.3616],[-1.3566,47.3594],[-1.3585,47.3575],[-1.3532,47.3567],[-1.3522,47.3585],[-1.3480,47.3596],[-1.3467,47.3570],[-1.3475,47.3565],[-1.3451,47.3549],[-1.3452,47.3536],[-1.3495,47.3540],[-1.3458,47.3526],[-1.3519,47.3528],[-1.3508,47.3513],[-1.3608,47.3480],[-1.3655,47.3508],[-1.3670,47.3493],[-1.3669,47.3470],[-1.3686,47.3494],[-1.3665,47.3513],[-1.3647,47.3508],[-1.3653,47.3516],[-1.3640,47.3522],[-1.3659,47.3528],[-1.3652,47.3550],[-1.3662,47.3536],[-1.3672,47.3540],[-1.3668,47.3516],[-1.3737,47.3548],[-1.3756,47.3510],[-1.3723,47.3494],[-1.3740,47.3488],[-1.3763,47.3503],[-1.3787,47.3480],[-1.3741,47.3450],[-1.3701,47.3480],[-1.3691,47.3474],[-1.3712,47.3457],[-1.3680,47.3449],[-1.3700,47.3440],[-1.3718,47.3450],[-1.3741,47.3421],[-1.3804,47.3399],[-1.3832,47.3402],[-1.3853,47.3387],[-1.3849,47.3394],[-1.3880,47.3401],[-1.3904,47.3387]]]}},{"type":"Feature","properties":{"name":"Forêt d\u0027Araize"},"geometry":{"type":"Polygon","coordinates":[[[-1.2716,47.7963],[-1.2664,47.7959],[-1.2627,47.7933],[-1.2621,47.7966],[-1.2540,47.7963],[-1.2505,47.7972],[-1.2461,47.8009],[-1.2408,47.8024],[-1.2370,47.7998],[-1.2375,47.7950],[-1.2351,47.7946],[-1.2383,47.7949],[-1.2407,47.7935],[-1.2448,47.7793],[-1.2624,47.7898],[-1.2457,47.7794],[-1.2494,47.7773],[-1.2655,47.7824],[-1.2661,47.7855],[-1.2601,47.7844],[-1.2577,47.7854],[-1.2584,47.7859],[-1.2655,47.7869],[-1.2668,47.7859],[-1.2734,47.7877],[-1.2717,47.7890],[-1.2752,47.7898],[-1.2744,47.7903],[-1.2683,47.7886],[-1.2620,47.7904],[-1.2579,47.7897],[-1.2618,47.7911],[-1.2580,47.7928],[-1.2585,47.7935],[-1.2645,47.7916],[-1.2716,47.7963]]]}},{"type":"Feature","properties":{"name":"Forêt de la Bourdonnaye"},"geometry":{"type":"Polygon","coordinates":[[[-2.1911,47.8427],[-2.1918,47.8451],[-2.1961,47.8458],[-2.1956,47.8467],[-2.1983,47.8458],[-2.1980,47.8466],[-2.1997,47.8467],[-2.2046,47.8446],[-2.2069,47.8452],[-2.2088,47.8424],[-2.2074,47.8396],[-2.2056,47.8388],[-2.2001,47.8405],[-2.1991,47.8394],[-2.1983,47.8412],[-2.1953,47.8408],[-2.1933,47.8422],[-2.1910,47.8415],[-2.1913,47.8398],[-2.1882,47.8371],[-2.1871,47.8378],[-2.1891,47.8391],[-2.1825,47.8421],[-2.1823,47.8405],[-2.1854,47.8391],[-2.1826,47.8369],[-2.1838,47.8356],[-2.1855,47.8362],[-2.1838,47.8341],[-2.1924,47.8331],[-2.1976,47.8350],[-2.1977,47.8332],[-2.2001,47.8335],[-2.1999,47.8323],[-2.1941,47.8314],[-2.1929,47.8328],[-2.1879,47.8331],[-2.1859,47.8316],[-2.1833,47.8317],[-2.1813,47.8285],[-2.1755,47.8275],[-2.1773,47.8289],[-2.1767,47.8298],[-2.1733,47.8295],[-2.1739,47.8311],[-2.1758,47.8306],[-2.1753,47.8321],[-2.1684,47.8340],[-2.1674,47.8368],[-2.1657,47.8325],[-2.1639,47.8333],[-2.1660,47.8345],[-2.1641,47.8346],[-2.1636,47.8381],[-2.1599,47.8352],[-2.1558,47.8365],[-2.1564,47.8382],[-2.1613,47.8401],[-2.1561,47.8432],[-2.1579,47.8465],[-2.1572,47.8528],[-2.1464,47.8530],[-2.1472,47.8546],[-2.1443,47.8535],[-2.1436,47.8553],[-2.1448,47.8570],[-2.1425,47.8580],[-2.1434,47.8589],[-2.1442,47.8577],[-2.1481,47.8623],[-2.1474,47.8612],[-2.1485,47.8603],[-2.1494,47.8617],[-2.1513,47.8615],[-2.1526,47.8578],[-2.1543,47.8567],[-2.1627,47.8561],[-2.1628,47.8600],[-2.1610,47.8605],[-2.1637,47.8638],[-2.1621,47.8643],[-2.1626,47.8660],[-2.1598,47.8666],[-2.1606,47.8674],[-2.1567,47.8692],[-2.1583,47.8697],[-2.1572,47.8714],[-2.1537,47.8723],[-2.1568,47.8725],[-2.1615,47.8708],[-2.1619,47.8695],[-2.1607,47.8689],[-2.1635,47.8657],[-2.1680,47.8648],[-2.1683,47.8615],[-2.1658,47.8584],[-2.1671,47.8577],[-2.1746,47.8608],[-2.1731,47.8585],[-2.1762,47.8559],[-2.1797,47.8562],[-2.1802,47.8511],[-2.1842,47.8491],[-2.1815,47.8490],[-2.1854,47.8476],[-2.1844,47.8459],[-2.1821,47.8465],[-2.1835,47.8444],[-2.1911,47.8427]]]}},{"type":"Feature","properties":{"name":"Forêt de Saffré"},"geometry":{"type":"Polygon","coordinates":[[[-1.5185,47.4991],[-1.5170,47.4968],[-1.5158,47.4989],[-1.5127,47.4981],[-1.5220,47.4917],[-1.5235,47.4926],[-1.5205,47.4951],[-1.5257,47.4958],[-1.5278,47.4937],[-1.5241,47.4904],[-1.5267,47.4884],[-1.5298,47.4900],[-1.5372,47.4894],[-1.5382,47.4917],[-1.5364,47.4939],[-1.5374,47.4946],[-1.5384,47.4933],[-1.5404,47.4932],[-1.5400,47.4954],[-1.5423,47.4964],[-1.5407,47.4966],[-1.5409,47.4993],[-1.5429,47.4990],[-1.5441,47.5022],[-1.5400,47.4996],[-1.5365,47.5007],[-1.5377,47.5039],[-1.5403,47.5028],[-1.5406,47.5088],[-1.5395,47.5092],[-1.5273,47.5084],[-1.5240,47.5095],[-1.5243,47.5105],[-1.5193,47.5110],[-1.5196,47.5091],[-1.5175,47.5098],[-1.5066,47.5069],[-1.5082,47.5024],[-1.5135,47.5034],[-1.5185,47.4991]]]}},{"type":"Feature","properties":{"name":"Forêt domaniale du Gâvre"},"geometry":{"type":"Polygon","coordinates":[[[-1.8365,47.4853],[-1.8510,47.4859],[-1.8564,47.4889],[-1.8659,47.4981],[-1.8643,47.4985],[-1.8651,47.4996],[-1.8671,47.4992],[-1.8724,47.5045],[-1.8676,47.5094],[-1.8711,47.5130],[-1.8667,47.5124],[-1.8697,47.5166],[-1.8644,47.5188],[-1.8623,47.5176],[-1.8634,47.5166],[-1.8585,47.5131],[-1.8564,47.5153],[-1.8546,47.5144],[-1.8530,47.5164],[-1.8384,47.5224],[-1.8406,47.5240],[-1.8380,47.5226],[-1.8292,47.5266],[-1.8295,47.5341],[-1.8278,47.5365],[-1.8293,47.5377],[-1.8278,47.5388],[-1.8266,47.5380],[-1.8198,47.5459],[-1.8033,47.5482],[-1.7919,47.5521],[-1.7886,47.5544],[-1.7914,47.5557],[-1.7937,47.5533],[-1.8015,47.5565],[-1.8010,47.5578],[-1.7983,47.5569],[-1.7974,47.5586],[-1.7868,47.5572],[-1.7919,47.5595],[-1.7973,47.5604],[-1.7982,47.5589],[-1.8013,47.5594],[-1.8026,47.5582],[-1.8056,47.5592],[-1.8056,47.5613],[-1.8044,47.5611],[-1.8033,47.5640],[-1.8007,47.5634],[-1.8020,47.5610],[-1.8005,47.5609],[-1.8007,47.5598],[-1.7964,47.5612],[-1.7971,47.5647],[-1.7951,47.5639],[-1.7937,47.5673],[-1.7977,47.5689],[-1.7982,47.5680],[-1.7959,47.5671],[-1.7973,47.5647],[-1.8024,47.5674],[-1.7981,47.5701],[-1.8047,47.5733],[-1.8018,47.5772],[-1.7967,47.5790],[-1.7864,47.5741],[-1.7734,47.5800],[-1.7652,47.5798],[-1.7640,47.5814],[-1.7619,47.5811],[-1.7632,47.5795],[-1.7555,47.5799],[-1.7521,47.5778],[-1.7412,47.5762],[-1.7462,47.5627],[-1.7543,47.5611],[-1.7611,47.5621],[-1.7617,47.5596],[-1.7629,47.5596],[-1.7629,47.5584],[-1.7599,47.5588],[-1.7647,47.5526],[-1.7587,47.5441],[-1.7604,47.5434],[-1.7593,47.5424],[-1.7613,47.5413],[-1.7645,47.5419],[-1.7659,47.5403],[-1.7639,47.5398],[-1.7692,47.5338],[-1.7758,47.5354],[-1.7741,47.5390],[-1.7763,47.5397],[-1.7783,47.5362],[-1.7776,47.5353],[-1.7792,47.5355],[-1.7800,47.5380],[-1.7808,47.5372],[-1.7798,47.5354],[-1.7717,47.5343],[-1.7775,47.5331],[-1.7787,47.5343],[-1.7817,47.5339],[-1.7782,47.5301],[-1.7744,47.5291],[-1.7707,47.5313],[-1.7713,47.5298],[-1.7685,47.5278],[-1.7673,47.5218],[-1.7589,47.5204],[-1.7575,47.5220],[-1.7580,47.5199],[-1.7552,47.5199],[-1.7545,47.5214],[-1.7531,47.5188],[-1.7510,47.5191],[-1.7543,47.5161],[-1.7535,47.5138],[-1.7546,47.5146],[-1.7561,47.5131],[-1.7614,47.5122],[-1.7604,47.5084],[-1.7613,47.5040],[-1.7653,47.5047],[-1.7612,47.5058],[-1.7623,47.5091],[-1.7695,47.5078],[-1.7734,47.5084],[-1.7702,47.5051],[-1.7689,47.5058],[-1.7655,47.5047],[-1.7694,47.5047],[-1.7749,47.5018],[-1.7790,47.5015],[-1.7802,47.5009],[-1.7782,47.4991],[-1.7795,47.4998],[-1.7846,47.4964],[-1.8047,47.4974],[-1.8116,47.4958],[-1.8171,47.4963],[-1.8197,47.4991],[-1.8214,47.4984],[-1.8206,47.4971],[-1.8223,47.4979],[-1.8282,47.4951],[-1.8276,47.4945],[-1.8288,47.4945],[-1.8341,47.4855],[-1.8358,47.4869],[-1.8365,47.4853]]]}},{"type":"Feature","properties":{"name":"La Forêt Pavée"},"geometry":{"type":"Polygon","coordinates":[[[-1.3909,47.6544],[-1.3825,47.6566],[-1.3850,47.6553],[-1.3802,47.6560],[-1.3808,47.6533],[-1.3799,47.6518],[-1.3817,47.6504],[-1.3817,47.6469],[-1.3749,47.6470],[-1.3714,47.6488],[-1.3701,47.6481],[-1.3677,47.6515],[-1.3642,47.6525],[-1.3657,47.6546],[-1.3646,47.6538],[-1.3626,47.6546],[-1.3624,47.6583],[-1.3597,47.6583],[-1.3570,47.6608],[-1.3541,47.6598],[-1.3530,47.6612],[-1.3512,47.6611],[-1.3507,47.6629],[-1.3564,47.6670],[-1.3621,47.6672],[-1.3620,47.6661],[-1.3639,47.6661],[-1.3637,47.6679],[-1.3660,47.6681],[-1.3654,47.6703],[-1.3682,47.6710],[-1.3696,47.6680],[-1.3797,47.6666],[-1.3802,47.6694],[-1.3822,47.6694],[-1.3847,47.6718],[-1.3907,47.6717],[-1.3938,47.6730],[-1.3946,47.6705],[-1.3924,47.6686],[-1.3924,47.6664],[-1.3941,47.6665],[-1.3949,47.6632],[-1.3966,47.6651],[-1.3973,47.6622],[-1.4025,47.6603],[-1.4030,47.6570],[-1.4139,47.6568],[-1.4222,47.6615],[-1.4248,47.6593],[-1.4254,47.6602],[-1.4272,47.6594],[-1.4261,47.6605],[-1.4293,47.6601],[-1.4346,47.6565],[-1.4380,47.6568],[-1.4395,47.6538],[-1.4392,47.6519],[-1.4351,47.6499],[-1.4313,47.6503],[-1.4231,47.6539],[-1.4172,47.6538],[-1.4137,47.6508],[-1.4066,47.6519],[-1.4022,47.6550],[-1.3909,47.6544]]]}},{"type":"Feature","properties":{"name":"Forêt de Teillay"},"geometry":{"type":"Polygon","coordinates":[[[-1.5039,47.7886],[-1.5014,47.7876],[-1.4906,47.7888],[-1.4902,47.7910],[-1.4880,47.7919],[-1.4877,47.7943],[-1.4841,47.7950],[-1.4830,47.7944],[-1.4835,47.7923],[-1.4816,47.7906],[-1.4751,47.7913],[-1.4749,47.7929],[-1.4677,47.7940],[-1.4715,47.7978],[-1.4688,47.7989],[-1.4694,47.8001],[-1.4707,47.7992],[-1.4706,47.8004],[-1.4727,47.8004],[-1.4730,47.8022],[-1.4850,47.8004],[-1.4859,47.8032],[-1.4875,47.8024],[-1.4861,47.8001],[-1.4913,47.8008],[-1.4911,47.7982],[-1.5001,47.7983],[-1.5030,47.8019],[-1.5108,47.8020],[-1.5132,47.8043],[-1.5127,47.8051],[-1.5208,47.8067],[-1.5208,47.8045],[-1.5251,47.8056],[-1.5333,47.8051],[-1.5342,47.8013],[-1.5375,47.8030],[-1.5398,47.8005],[-1.5406,47.8008],[-1.5394,47.8018],[-1.5412,47.8040],[-1.5446,47.8031],[-1.5497,47.8053],[-1.5517,47.8048],[-1.5510,47.8003],[-1.5535,47.7980],[-1.5536,47.7955],[-1.5504,47.7946],[-1.5504,47.7922],[-1.5533,47.7886],[-1.5583,47.7873],[-1.5600,47.7891],[-1.5586,47.7897],[-1.5610,47.7903],[-1.5683,47.7873],[-1.5600,47.7827],[-1.5645,47.7798],[-1.5780,47.7778],[-1.5823,47.7781],[-1.5829,47.7799],[-1.5885,47.7797],[-1.5901,47.7785],[-1.5938,47.7819],[-1.5985,47.7821],[-1.6006,47.7835],[-1.5982,47.7852],[-1.6021,47.7854],[-1.6036,47.7875],[-1.6084,47.7874],[-1.6091,47.7884],[-1.6068,47.7886],[-1.6097,47.7907],[-1.6151,47.7830],[-1.6116,47.7788],[-1.6045,47.7806],[-1.5972,47.7801],[-1.5975,47.7781],[-1.5926,47.7760],[-1.5943,47.7750],[-1.5943,47.7724],[-1.5964,47.7713],[-1.5934,47.7675],[-1.5977,47.7664],[-1.5953,47.7630],[-1.5891,47.7586],[-1.5852,47.7577],[-1.5717,47.7609],[-1.5551,47.7583],[-1.5553,47.7629],[-1.5576,47.7698],[-1.5544,47.7711],[-1.5518,47.7700],[-1.5512,47.7743],[-1.5477,47.7754],[-1.5363,47.7725],[-1.5354,47.7701],[-1.5298,47.7708],[-1.5297,47.7689],[-1.5314,47.7667],[-1.5307,47.7646],[-1.5259,47.7613],[-1.5217,47.7614],[-1.5224,47.7655],[-1.5192,47.7657],[-1.5165,47.7716],[-1.5245,47.7719],[-1.5240,47.7729],[-1.5257,47.7745],[-1.5252,47.7767],[-1.5180,47.7781],[-1.5169,47.7794],[-1.5184,47.7817],[-1.5171,47.7831],[-1.5082,47.7842],[-1.5091,47.7864],[-1.5049,47.7871],[-1.5039,47.7886]]]}},{"type":"Feature","properties":{"name":"Forêt de Vioreau"},"geometry":{"type":"Polygon","coordinates":[[[-1.3982,47.5328],[-1.3962,47.5240],[-1.3977,47.5245],[-1.3971,47.5279],[-1.4000,47.5296],[-1.4034,47.5286],[-1.4030,47.5247],[-1.4094,47.5259],[-1.4058,47.5276],[-1.4046,47.5263],[-1.4047,47.5287],[-1.4087,47.5286],[-1.4111,47.5265],[-1.4170,47.5268],[-1.4152,47.5304],[-1.4166,47.5306],[-1.4171,47.5279],[-1.4200,47.5283],[-1.4217,47.5301],[-1.4194,47.5288],[-1.4181,47.5313],[-1.4205,47.5314],[-1.4210,47.5328],[-1.4281,47.5304],[-1.4328,47.5323],[-1.4334,47.5335],[-1.4310,47.5358],[-1.4329,47.5370],[-1.4309,47.5384],[-1.4349,47.5418],[-1.4347,47.5439],[-1.4376,47.5426],[-1.4358,47.5440],[-1.4401,47.5451],[-1.4313,47.5482],[-1.4297,47.5467],[-1.4218,47.5513],[-1.4230,47.5539],[-1.4214,47.5581],[-1.4219,47.5604],[-1.4241,47.5605],[-1.4223,47.5613],[-1.4260,47.5615],[-1.4201,47.5629],[-1.4207,47.5665],[-1.4236,47.5673],[-1.4233,47.5683],[-1.4210,47.5682],[-1.4177,47.5642],[-1.4134,47.5619],[-1.4138,47.5610],[-1.4089,47.5600],[-1.4099,47.5549],[-1.4062,47.5528],[-1.4061,47.5510],[-1.4054,47.5520],[-1.4060,47.5498],[-1.3990,47.5409],[-1.3991,47.5399],[-1.4039,47.5388],[-1.4057,47.5361],[-1.4024,47.5360],[-1.4026,47.5320],[-1.3982,47.5328]]]}},{"type":"Feature","properties":{"name":"Forêt du Parc Soubise"},"geometry":{"type":"Polygon","coordinates":[[[-1.0688,46.8149],[-1.0701,46.8168],[-1.0775,46.8149],[-1.0758,46.8169],[-1.0789,46.8184],[-1.0836,46.8178],[-1.0864,46.8208],[-1.0886,46.8169],[-1.0919,46.8181],[-1.0915,46.8155],[-1.0949,46.8200],[-1.1052,46.8225],[-1.0997,46.8257],[-1.0996,46.8280],[-1.0985,46.8276],[-1.0972,46.8291],[-1.0951,46.8284],[-1.0951,46.8328],[-1.0922,46.8383],[-1.0807,46.8383],[-1.0800,46.8369],[-1.0809,46.8359],[-1.0839,46.8373],[-1.0862,46.8359],[-1.0777,46.8318],[-1.0782,46.8300],[-1.0725,46.8337],[-1.0672,46.8299],[-1.0646,46.8304],[-1.0600,46.8280],[-1.0563,46.8274],[-1.0519,46.8293],[-1.0501,46.8262],[-1.0481,46.8258],[-1.0472,46.8275],[-1.0441,46.8285],[-1.0376,46.8214],[-1.0380,46.8201],[-1.0449,46.8203],[-1.0484,46.8181],[-1.0543,46.8198],[-1.0611,46.8180],[-1.0593,46.8158],[-1.0620,46.8150],[-1.0595,46.8120],[-1.0620,46.8111],[-1.0602,46.8081],[-1.0641,46.8046],[-1.0656,46.8046],[-1.0655,46.8129],[-1.0688,46.8149]]]}},{"type":"Feature","properties":{"name":"Forêt de Touvois"},"geometry":{"type":"Polygon","coordinates":[[[-1.6576,46.9037],[-1.6563,46.9063],[-1.6515,46.9097],[-1.6533,46.9094],[-1.6536,46.9115],[-1.6558,46.9109],[-1.6547,46.9153],[-1.6451,46.9138],[-1.6459,46.9166],[-1.6436,46.9194],[-1.6450,46.9209],[-1.6424,46.9229],[-1.6436,46.9179],[-1.6424,46.9172],[-1.6441,46.9161],[-1.6417,46.9146],[-1.6416,46.9161],[-1.6376,46.9173],[-1.6353,46.9216],[-1.6353,46.9246],[-1.6408,46.9279],[-1.6362,46.9272],[-1.6343,46.9256],[-1.6347,46.9247],[-1.6314,46.9232],[-1.6316,46.9252],[-1.6313,46.9242],[-1.6293,46.9245],[-1.6331,46.9203],[-1.6326,46.9195],[-1.6354,46.9187],[-1.6320,46.9179],[-1.6356,46.9182],[-1.6381,46.9162],[-1.6381,46.9141],[-1.6396,46.9139],[-1.6385,46.9101],[-1.6354,46.9111],[-1.6361,46.9121],[-1.6351,46.9119],[-1.6344,46.9146],[-1.6317,46.9154],[-1.6322,46.9125],[-1.6302,46.9122],[-1.6324,46.9109],[-1.6347,46.9113],[-1.6297,46.9052],[-1.6328,46.9053],[-1.6370,46.9083],[-1.6372,46.9063],[-1.6390,46.9063],[-1.6373,46.9054],[-1.6387,46.9026],[-1.6442,46.9029],[-1.6452,46.9046],[-1.6464,46.9031],[-1.6480,46.9042],[-1.6494,46.9031],[-1.6471,46.9014],[-1.6473,46.9024],[-1.6387,46.9024],[-1.6374,46.9009],[-1.6382,46.8948],[-1.6373,46.8925],[-1.6412,46.8939],[-1.6511,46.8933],[-1.6553,46.8963],[-1.6578,46.8965],[-1.6586,46.8979],[-1.6564,46.9024],[-1.6576,46.9037]]]}},{"type":"Feature","properties":{"name":"Forêt de Grasla"},"geometry":{"type":"Polygon","coordinates":[[[-1.3156,46.8618],[-1.3092,46.8612],[-1.3024,46.8537],[-1.3233,46.8456],[-1.3268,46.8468],[-1.3298,46.8503],[-1.3253,46.8524],[-1.3256,46.8544],[-1.3271,46.8544],[-1.3259,46.8553],[-1.3299,46.8566],[-1.3315,46.8559],[-1.3332,46.8573],[-1.3358,46.8551],[-1.3359,46.8568],[-1.3373,46.8570],[-1.3359,46.8572],[-1.3346,46.8632],[-1.3312,46.8631],[-1.3328,46.8671],[-1.3272,46.8655],[-1.3261,46.8690],[-1.3205,46.8713],[-1.3187,46.8712],[-1.3126,46.8648],[-1.3150,46.8635],[-1.3133,46.8624],[-1.3156,46.8618]]]}},{"type":"Feature","properties":{"name":"Forêt de Grand-Landes"},"geometry":{"type":"Polygon","coordinates":[[[-1.6426,46.8637],[-1.6423,46.8676],[-1.6446,46.8679],[-1.6412,46.8691],[-1.6405,46.8706],[-1.6422,46.8715],[-1.6404,46.8725],[-1.6351,46.8717],[-1.6362,46.8729],[-1.6320,46.8768],[-1.6329,46.8784],[-1.6270,46.8762],[-1.6259,46.8737],[-1.6231,46.8735],[-1.6229,46.8711],[-1.6206,46.8696],[-1.6213,46.8675],[-1.6175,46.8667],[-1.6201,46.8650],[-1.6187,46.8633],[-1.6203,46.8618],[-1.6230,46.8628],[-1.6261,46.8611],[-1.6233,46.8609],[-1.6239,46.8593],[-1.6259,46.8600],[-1.6266,46.8590],[-1.6283,46.8600],[-1.6268,46.8597],[-1.6270,46.8605],[-1.6305,46.8620],[-1.6346,46.8611],[-1.6348,46.8598],[-1.6360,46.8615],[-1.6397,46.8613],[-1.6370,46.8642],[-1.6378,46.8660],[-1.6388,46.8656],[-1.6382,46.8639],[-1.6395,46.8649],[-1.6426,46.8637]]]}},{"type":"Feature","properties":{"name":"Forêt de Rocheservière"},"geometry":{"type":"Polygon","coordinates":[[[-1.5804,46.9505],[-1.5819,46.9508],[-1.5846,46.9482],[-1.5793,46.9449],[-1.5747,46.9447],[-1.5756,46.9442],[-1.5742,46.9428],[-1.5710,46.9426],[-1.5678,46.9394],[-1.5658,46.9407],[-1.5624,46.9399],[-1.5587,46.9373],[-1.5624,46.9350],[-1.5579,46.9343],[-1.5528,46.9312],[-1.5537,46.9306],[-1.5493,46.9286],[-1.5516,46.9278],[-1.5501,46.9253],[-1.5560,46.9263],[-1.5571,46.9280],[-1.5594,46.9267],[-1.5619,46.9274],[-1.5616,46.9286],[-1.5626,46.9276],[-1.5669,46.9288],[-1.5717,46.9320],[-1.5705,46.9326],[-1.5738,46.9349],[-1.5707,46.9369],[-1.5723,46.9383],[-1.5716,46.9370],[-1.5730,46.9358],[-1.5744,46.9367],[-1.5764,46.9356],[-1.5773,46.9368],[-1.5748,46.9377],[-1.5767,46.9381],[-1.5750,46.9394],[-1.5746,46.9433],[-1.5805,46.9428],[-1.5828,46.9449],[-1.5844,46.9434],[-1.5859,46.9438],[-1.5853,46.9448],[-1.5887,46.9437],[-1.5852,46.9457],[-1.5866,46.9470],[-1.5861,46.9496],[-1.5809,46.9519],[-1.5835,46.9553],[-1.5813,46.9540],[-1.5801,46.9546],[-1.5811,46.9540],[-1.5795,46.9523],[-1.5811,46.9511],[-1.5804,46.9505]]]}},{"type":"Feature","properties":{"name":"Forêt domaniale des Pays de Monts"},"geometry":{"type":"Polygon","coordinates":[[[-2.1504,46.8878],[-2.1523,46.8836],[-2.1541,46.8839],[-2.1521,46.8805],[-2.1512,46.8812],[-2.1502,46.8798],[-2.1482,46.8743],[-2.1494,46.8727],[-2.1461,46.8684],[-2.1474,46.8680],[-2.1455,46.8653],[-2.1450,46.8597],[-2.1424,46.8525],[-2.1424,46.8513],[-2.1445,46.8510],[-2.1443,46.8349],[-2.1421,46.8350],[-2.1411,46.8275],[-2.1392,46.8276],[-2.1402,46.8312],[-2.1381,46.8329],[-2.1374,46.8370],[-2.1386,46.8397],[-2.1361,46.8406],[-2.1365,46.8416],[-2.1399,46.8419],[-2.1404,46.8441],[-2.1361,46.8421],[-2.1362,46.8409],[-2.1349,46.8413],[-2.1360,46.8400],[-2.1318,46.8386],[-2.1315,46.8417],[-2.1348,46.8416],[-2.1332,46.8443],[-2.1271,46.8520],[-2.1236,46.8532],[-2.1247,46.8541],[-2.1219,46.8555],[-2.1224,46.8565],[-2.1203,46.8562],[-2.1201,46.8550],[-2.1188,46.8557],[-2.1205,46.8567],[-2.1199,46.8581],[-2.1175,46.8583],[-2.1174,46.8599],[-2.1194,46.8604],[-2.1202,46.8638],[-2.1232,46.8633],[-2.1246,46.8643],[-2.1209,46.8662],[-2.1247,46.8688],[-2.1233,46.8747],[-2.1265,46.8835],[-2.1239,46.8853],[-2.1258,46.8891],[-2.1287,46.8903],[-2.1303,46.8861],[-2.1350,46.8853],[-2.1336,46.8828],[-2.1357,46.8820],[-2.1354,46.8805],[-2.1330,46.8803],[-2.1337,46.8787],[-2.1364,46.8808],[-2.1364,46.8839],[-2.1390,46.8842],[-2.1385,46.8870],[-2.1427,46.8896],[-2.1497,46.8889],[-2.1429,46.8876],[-2.1422,46.8860],[-2.1410,46.8865],[-2.1501,46.8852],[-2.1444,46.8821],[-2.1448,46.8807],[-2.1492,46.8812],[-2.1504,46.8878]]]}},{"type":"Feature","properties":{"name":"Forêt de Princé"},"geometry":{"type":"Polygon","coordinates":[[[-1.8867,47.1627],[-1.8900,47.1636],[-1.8883,47.1625],[-1.8906,47.1611],[-1.8880,47.1585],[-1.8846,47.1610],[-1.8861,47.1591],[-1.8817,47.1548],[-1.8833,47.1516],[-1.8805,47.1530],[-1.8789,47.1516],[-1.8796,47.1465],[-1.8816,47.1475],[-1.8864,47.1460],[-1.8845,47.1488],[-1.8817,47.1496],[-1.8841,47.1499],[-1.8831,47.1524],[-1.8859,47.1544],[-1.8840,47.1514],[-1.8897,47.1487],[-1.8927,47.1489],[-1.8954,47.1512],[-1.8988,47.1503],[-1.8974,47.1524],[-1.9018,47.1549],[-1.9063,47.1536],[-1.9101,47.1497],[-1.9117,47.1502],[-1.9102,47.1479],[-1.9115,47.1465],[-1.9134,47.1474],[-1.9119,47.1501],[-1.9130,47.1507],[-1.9145,47.1495],[-1.9165,47.1505],[-1.9145,47.1530],[-1.9112,47.1541],[-1.9111,47.1567],[-1.9100,47.1564],[-1.9094,47.1535],[-1.9071,47.1548],[-1.9078,47.1572],[-1.9067,47.1580],[-1.9110,47.1624],[-1.9090,47.1661],[-1.9101,47.1664],[-1.9061,47.1697],[-1.9048,47.1687],[-1.9064,47.1676],[-1.9014,47.1661],[-1.9008,47.1698],[-1.8982,47.1697],[-1.8969,47.1675],[-1.8973,47.1644],[-1.9008,47.1645],[-1.9010,47.1635],[-1.8959,47.1630],[-1.8971,47.1705],[-1.8996,47.1718],[-1.8957,47.1712],[-1.8919,47.1727],[-1.8912,47.1709],[-1.8923,47.1690],[-1.8896,47.1692],[-1.8899,47.1648],[-1.8873,47.1651],[-1.8867,47.1627]]]}},{"type":"Feature","properties":{"name":"Forêt de Machecoul"},"geometry":{"type":"Polygon","coordinates":[[[-1.7484,47.0257],[-1.7469,47.0258],[-1.7502,47.0281],[-1.7458,47.0297],[-1.7441,47.0317],[-1.7446,47.0326],[-1.7431,47.0304],[-1.7400,47.0302],[-1.7395,47.0279],[-1.7350,47.0271],[-1.7366,47.0244],[-1.7410,47.0258],[-1.7409,47.0275],[-1.7460,47.0257],[-1.7441,47.0250],[-1.7458,47.0237],[-1.7431,47.0226],[-1.7413,47.0245],[-1.7403,47.0242],[-1.7418,47.0227],[-1.7394,47.0228],[-1.7399,47.0205],[-1.7371,47.0205],[-1.7368,47.0195],[-1.7383,47.0192],[-1.7379,47.0172],[-1.7389,47.0172],[-1.7375,47.0167],[-1.7375,47.0153],[-1.7419,47.0161],[-1.7390,47.0155],[-1.7386,47.0134],[-1.7400,47.0132],[-1.7402,47.0145],[-1.7473,47.0139],[-1.7458,47.0157],[-1.7434,47.0160],[-1.7467,47.0168],[-1.7480,47.0141],[-1.7506,47.0138],[-1.7507,47.0118],[-1.7550,47.0127],[-1.7576,47.0095],[-1.7560,47.0091],[-1.7581,47.0086],[-1.7590,47.0113],[-1.7548,47.0154],[-1.7591,47.0151],[-1.7524,47.0182],[-1.7551,47.0189],[-1.7485,47.0198],[-1.7495,47.0226],[-1.7464,47.0226],[-1.7473,47.0255],[-1.7560,47.0233],[-1.7582,47.0196],[-1.7669,47.0194],[-1.7684,47.0173],[-1.7706,47.0179],[-1.7703,47.0211],[-1.7743,47.0203],[-1.7731,47.0246],[-1.7687,47.0228],[-1.7628,47.0240],[-1.7615,47.0220],[-1.7553,47.0237],[-1.7563,47.0262],[-1.7548,47.0281],[-1.7554,47.0307],[-1.7531,47.0302],[-1.7547,47.0283],[-1.7526,47.0267],[-1.7484,47.0257]]]}},{"type":"Feature","properties":{"name":"Forêt de Touffou"},"geometry":{"type":"Polygon","coordinates":[[[-1.4820,47.1349],[-1.4784,47.1340],[-1.4794,47.1338],[-1.4769,47.1314],[-1.4741,47.1313],[-1.4730,47.1306],[-1.4742,47.1300],[-1.4717,47.1286],[-1.4691,47.1297],[-1.4683,47.1276],[-1.4699,47.1279],[-1.4717,47.1242],[-1.4736,47.1244],[-1.4720,47.1258],[-1.4746,47.1254],[-1.4727,47.1233],[-1.4753,47.1255],[-1.4813,47.1228],[-1.4802,47.1218],[-1.4856,47.1246],[-1.4879,47.1232],[-1.4841,47.1206],[-1.4860,47.1196],[-1.4843,47.1186],[-1.4850,47.1182],[-1.4916,47.1220],[-1.4880,47.1252],[-1.4924,47.1226],[-1.4979,47.1269],[-1.4992,47.1260],[-1.5043,47.1307],[-1.4992,47.1319],[-1.4951,47.1316],[-1.4940,47.1301],[-1.4952,47.1295],[-1.4907,47.1296],[-1.4920,47.1325],[-1.4883,47.1354],[-1.4820,47.1349]]]}}]}