{"type":"FeatureCollection","features":[{"type":"Feature","properties":{"name":"Forêt du Mas d\u0027Agenais et de Sénestis"},"geometry":{"type":"Polygon","coordinates":[[[0.1671,44.4210],[0.1627,44.4148],[0.1634,44.4106],[0.1613,44.4109],[0.1608,44.4079],[0.1647,44.4065],[0.1619,44.4028],[0.1692,44.4022],[0.1676,44.4004],[0.1688,44.3960],[0.1659,44.3939],[0.1563,44.3939],[0.1539,44.3898],[0.1625,44.3909],[0.1771,44.3884],[0.1748,44.3849],[0.1752,44.3809],[0.1727,44.3750],[0.1753,44.3730],[0.1759,44.3695],[0.1851,44.3663],[0.1743,44.3676],[0.1741,44.3666],[0.1807,44.3650],[0.1904,44.3658],[0.1903,44.3645],[0.1926,44.3649],[0.1934,44.3674],[0.1964,44.3660],[0.1974,44.3630],[0.2017,44.3627],[0.2141,44.3673],[0.2163,44.3715],[0.2213,44.3722],[0.2211,44.3772],[0.2172,44.3741],[0.2136,44.3749],[0.2064,44.3738],[0.2066,44.3758],[0.2040,44.3760],[0.2042,44.3839],[0.1982,44.3888],[0.1867,44.4032],[0.1853,44.4033],[0.1839,44.4069],[0.1774,44.4148],[0.1686,44.4219],[0.1671,44.4210]]]}}]}