{"type":"FeatureCollection","features":[{"type":"Feature","properties":{"name":"Forêt du mont Aigoual"},"geometry":{"type":"Polygon","coordinates":[[[3.5238,44.1018],[3.5245,44.1053],[3.5339,44.1046],[3.5316,44.1072],[3.5270,44.1070],[3.5276,44.1112],[3.5291,44.1124],[3.5240,44.1164],[3.5239,44.1184],[3.5290,44.1193],[3.5292,44.1244],[3.5272,44.1245],[3.5206,44.1295],[3.5191,44.1294],[3.5206,44.1263],[3.5193,44.1260],[3.5106,44.1272],[3.5067,44.1293],[3.5071,44.1321],[3.5030,44.1305],[3.5042,44.1328],[3.5032,44.1367],[3.5019,44.1367],[3.5020,44.1338],[3.4954,44.1288],[3.4956,44.1268],[3.4917,44.1262],[3.4944,44.1300],[3.4930,44.1320],[3.4962,44.1359],[3.4948,44.1397],[3.4978,44.1389],[3.4999,44.1402],[3.5036,44.1373],[3.5061,44.1383],[3.5077,44.1373],[3.5058,44.1353],[3.5087,44.1339],[3.5166,44.1350],[3.5183,44.1340],[3.5177,44.1313],[3.5218,44.1314],[3.5198,44.1362],[3.5143,44.1409],[3.5166,44.1427],[3.5161,44.1446],[3.5140,44.1436],[3.5125,44.1450],[3.5160,44.1465],[3.5223,44.1454],[3.5218,44.1463],[3.5238,44.1480],[3.5228,44.1494],[3.5208,44.1494],[3.5187,44.1476],[3.5187,44.1499],[3.5163,44.1484],[3.5156,44.1512],[3.5116,44.1478],[3.5122,44.1507],[3.5110,44.1540],[3.5129,44.1530],[3.5128,44.1517],[3.5153,44.1531],[3.5210,44.1525],[3.5244,44.1503],[3.5249,44.1487],[3.5276,44.1485],[3.5249,44.1468],[3.5250,44.1449],[3.5298,44.1430],[3.5313,44.1409],[3.5351,44.1414],[3.5406,44.1402],[3.5470,44.1469],[3.5394,44.1461],[3.5389,44.1473],[3.5400,44.1481],[3.5434,44.1483],[3.5418,44.1501],[3.5397,44.1490],[3.5351,44.1505],[3.5365,44.1533],[3.5406,44.1520],[3.5367,44.1553],[3.5366,44.1587],[3.5403,44.1627],[3.5453,44.1636],[3.5493,44.1612],[3.5452,44.1610],[3.5428,44.1565],[3.5454,44.1535],[3.5484,44.1545],[3.5500,44.1516],[3.5543,44.1519],[3.5541,44.1505],[3.5561,44.1501],[3.5580,44.1473],[3.5628,44.1448],[3.5645,44.1413],[3.5641,44.1369],[3.5622,44.1367],[3.5601,44.1385],[3.5551,44.1387],[3.5608,44.1370],[3.5612,44.1341],[3.5636,44.1339],[3.5638,44.1317],[3.5687,44.1302],[3.5690,44.1279],[3.5677,44.1271],[3.5671,44.1242],[3.5602,44.1251],[3.5587,44.1196],[3.5525,44.1168],[3.5517,44.1211],[3.5505,44.1208],[3.5511,44.1166],[3.5415,44.1175],[3.5414,44.1195],[3.5456,44.1234],[3.5411,44.1236],[3.5422,44.1217],[3.5403,44.1216],[3.5410,44.1175],[3.5438,44.1144],[3.5455,44.1141],[3.5418,44.1170],[3.5473,44.1149],[3.5462,44.1144],[3.5494,44.1144],[3.5476,44.1160],[3.5492,44.1163],[3.5537,44.1156],[3.5523,44.1143],[3.5498,44.1155],[3.5488,44.1121],[3.5472,44.1115],[3.5460,44.1078],[3.5479,44.1058],[3.5444,44.1040],[3.5417,44.1048],[3.5410,44.1031],[3.5387,44.1027],[3.5373,44.1040],[3.5338,44.1028],[3.5276,44.1032],[3.5261,44.1013],[3.5238,44.1018]]]}}]}