{"type":"FeatureCollection","features":[{"type":"Feature","properties":{"name":"Forêt de Javardan"},"geometry":{"type":"Polygon","coordinates":[[[-1.3969,47.8116],[-1.3952,47.8094],[-1.3933,47.8116],[-1.3868,47.8095],[-1.3794,47.8099],[-1.3797,47.8088],[-1.3735,47.8067],[-1.3752,47.8032],[-1.3697,47.8023],[-1.3685,47.8015],[-1.3705,47.7993],[-1.3677,47.7980],[-1.3715,47.7992],[-1.3725,47.7978],[-1.3712,47.7967],[-1.3766,47.7950],[-1.3820,47.7950],[-1.3818,47.7942],[-1.3850,47.7953],[-1.3814,47.7987],[-1.3873,47.7998],[-1.3883,47.7984],[-1.3912,47.7981],[-1.3850,47.7954],[-1.3903,47.7958],[-1.3897,47.7969],[-1.4017,47.8022],[-1.4041,47.8012],[-1.4039,47.7997],[-1.4009,47.7996],[-1.4012,47.7981],[-1.4049,47.7986],[-1.4055,47.7998],[-1.4088,47.7995],[-1.4102,47.7964],[-1.4145,47.7968],[-1.4138,47.7986],[-1.4116,47.7977],[-1.4114,47.8003],[-1.4091,47.8003],[-1.4063,47.8035],[-1.4046,47.8028],[-1.4030,47.8041],[-1.4077,47.8071],[-1.3969,47.8116]]]}},{"type":"Feature","properties":{"name":"Forêt d\u0027Ombrée"},"geometry":{"type":"Polygon","coordinates":[[[-1.0361,47.7454],[-1.0324,47.7450],[-1.0280,47.7405],[-1.0289,47.7378],[-1.0272,47.7371],[-1.0287,47.7363],[-1.0262,47.7357],[-1.0262,47.7342],[-1.0292,47.7336],[-1.0285,47.7316],[-1.0254,47.7324],[-1.0244,47.7301],[-1.0213,47.7288],[-1.0152,47.7293],[-0.9958,47.7245],[-0.9937,47.7237],[-0.9958,47.7231],[-0.9960,47.7194],[-0.9890,47.7175],[-0.9937,47.7142],[-0.9988,47.7136],[-0.9976,47.7126],[-1.0017,47.7145],[-1.0006,47.7136],[-1.0040,47.7130],[-1.0002,47.7119],[-1.0029,47.7117],[-1.0308,47.7218],[-1.0401,47.7235],[-1.0416,47.7220],[-1.0575,47.7262],[-1.0698,47.7307],[-1.0688,47.7328],[-1.0704,47.7348],[-1.0701,47.7371],[-1.0736,47.7373],[-1.0739,47.7392],[-1.0719,47.7421],[-1.0724,47.7459],[-1.0720,47.7449],[-1.0665,47.7449],[-1.0654,47.7455],[-1.0660,47.7472],[-1.0636,47.7478],[-1.0609,47.7475],[-1.0565,47.7491],[-1.0528,47.7483],[-1.0512,47.7459],[-1.0466,47.7459],[-1.0465,47.7446],[-1.0387,47.7458],[-1.0394,47.7441],[-1.0365,47.7438],[-1.0361,47.7454]]]}},{"type":"Feature","properties":{"name":"Forêt de Chanveaux"},"geometry":{"type":"Polygon","coordinates":[[[-1.1587,47.6653],[-1.1514,47.6656],[-1.1529,47.6637],[-1.1508,47.6624],[-1.1504,47.6612],[-1.1516,47.6608],[-1.1494,47.6605],[-1.1506,47.6576],[-1.1478,47.6566],[-1.1503,47.6561],[-1.1486,47.6555],[-1.1499,47.6552],[-1.1496,47.6538],[-1.1455,47.6539],[-1.1393,47.6442],[-1.1423,47.6448],[-1.1484,47.6363],[-1.1526,47.6384],[-1.1523,47.6374],[-1.1564,47.6361],[-1.1592,47.6378],[-1.1572,47.6403],[-1.1634,47.6398],[-1.1626,47.6417],[-1.1612,47.6420],[-1.1622,47.6425],[-1.1597,47.6430],[-1.1568,47.6415],[-1.1563,47.6430],[-1.1593,47.6447],[-1.1559,47.6434],[-1.1558,47.6464],[-1.1588,47.6467],[-1.1597,47.6493],[-1.1673,47.6483],[-1.1755,47.6499],[-1.1761,47.6557],[-1.1666,47.6545],[-1.1626,47.6599],[-1.1596,47.6605],[-1.1606,47.6615],[-1.1692,47.6593],[-1.1773,47.6596],[-1.1739,47.6611],[-1.1745,47.6603],[-1.1706,47.6595],[-1.1608,47.6617],[-1.1668,47.6623],[-1.1683,47.6639],[-1.1664,47.6654],[-1.1675,47.6663],[-1.1640,47.6665],[-1.1641,47.6647],[-1.1587,47.6653]]]}},{"type":"Feature","properties":{"name":"Forêt d\u0027Ancenis"},"geometry":{"type":"Polygon","coordinates":[[[-1.3459,47.5545],[-1.3358,47.5548],[-1.2987,47.5494],[-1.2983,47.5512],[-1.2966,47.5510],[-1.2961,47.5521],[-1.2918,47.5512],[-1.2925,47.5533],[-1.2916,47.5516],[-1.2887,47.5530],[-1.2883,47.5520],[-1.2833,47.5520],[-1.2823,47.5533],[-1.2778,47.5513],[-1.2732,47.5516],[-1.2750,47.5531],[-1.2702,47.5532],[-1.2669,47.5512],[-1.2694,47.5506],[-1.2668,47.5494],[-1.2667,47.5476],[-1.2716,47.5431],[-1.2756,47.5442],[-1.2805,47.5422],[-1.2786,47.5391],[-1.2808,47.5376],[-1.2769,47.5370],[-1.2747,47.5347],[-1.2787,47.5327],[-1.2830,47.5329],[-1.2829,47.5376],[-1.2880,47.5388],[-1.2948,47.5381],[-1.2939,47.5400],[-1.2949,47.5407],[-1.2986,47.5393],[-1.3041,47.5413],[-1.3004,47.5393],[-1.3024,47.5392],[-1.3056,47.5423],[-1.3041,47.5428],[-1.3050,47.5431],[-1.3071,47.5430],[-1.3066,47.5382],[-1.3087,47.5347],[-1.3102,47.5374],[-1.3110,47.5342],[-1.3164,47.5352],[-1.3186,47.5368],[-1.3198,47.5426],[-1.3180,47.5437],[-1.3197,47.5450],[-1.3205,47.5431],[-1.3236,47.5440],[-1.3247,47.5430],[-1.3269,47.5450],[-1.3319,47.5462],[-1.3348,47.5447],[-1.3366,47.5456],[-1.3392,47.5435],[-1.3404,47.5460],[-1.3490,47.5464],[-1.3459,47.5545]]]}},{"type":"Feature","properties":{"name":"Forêt de Saint-Mars-la-Jaille"},"geometry":{"type":"Polygon","coordinates":[[[-1.2610,47.5232],[-1.2685,47.5234],[-1.2690,47.5257],[-1.2799,47.5261],[-1.2805,47.5247],[-1.2879,47.5248],[-1.2876,47.5260],[-1.2799,47.5264],[-1.2788,47.5297],[-1.2869,47.5289],[-1.2870,47.5279],[-1.2890,47.5277],[-1.2877,47.5303],[-1.2902,47.5312],[-1.2987,47.5313],[-1.2994,47.5330],[-1.3017,47.5326],[-1.3016,47.5337],[-1.3049,47.5324],[-1.3061,47.5335],[-1.3030,47.5358],[-1.2926,47.5348],[-1.2845,47.5378],[-1.2827,47.5372],[-1.2830,47.5329],[-1.2740,47.5341],[-1.2702,47.5378],[-1.2699,47.5397],[-1.2711,47.5404],[-1.2704,47.5420],[-1.2716,47.5431],[-1.2704,47.5439],[-1.2693,47.5427],[-1.2607,47.5514],[-1.2579,47.5522],[-1.2639,47.5467],[-1.2539,47.5433],[-1.2554,47.5410],[-1.2510,47.5422],[-1.2491,47.5404],[-1.2484,47.5393],[-1.2493,47.5403],[-1.2531,47.5382],[-1.2571,47.5380],[-1.2554,47.5346],[-1.2567,47.5323],[-1.2552,47.5299],[-1.2519,47.5300],[-1.2492,47.5280],[-1.2469,47.5276],[-1.2470,47.5296],[-1.2453,47.5301],[-1.2454,47.5266],[-1.2490,47.5249],[-1.2446,47.5243],[-1.2484,47.5239],[-1.2489,47.5212],[-1.2494,47.5226],[-1.2506,47.5218],[-1.2497,47.5199],[-1.2548,47.5196],[-1.2540,47.5226],[-1.2554,47.5242],[-1.2540,47.5256],[-1.2610,47.5232]]]}},{"type":"Feature","properties":{"name":"Forêt de la Foucaudière"},"geometry":{"type":"Polygon","coordinates":[[[-1.1622,47.2702],[-1.1634,47.2701],[-1.1639,47.2684],[-1.1658,47.2683],[-1.1651,47.2664],[-1.1686,47.2660],[-1.1695,47.2710],[-1.1731,47.2707],[-1.1724,47.2683],[-1.1741,47.2681],[-1.1738,47.2656],[-1.1815,47.2658],[-1.1867,47.2639],[-1.2015,47.2632],[-1.2029,47.2629],[-1.2038,47.2606],[-1.2064,47.2619],[-1.2048,47.2637],[-1.2032,47.2627],[-1.2013,47.2657],[-1.2029,47.2663],[-1.2027,47.2701],[-1.1999,47.2703],[-1.1999,47.2728],[-1.1986,47.2723],[-1.1944,47.2750],[-1.1921,47.2747],[-1.1902,47.2772],[-1.1913,47.2778],[-1.1895,47.2786],[-1.1831,47.2771],[-1.1750,47.2781],[-1.1757,47.2767],[-1.1742,47.2763],[-1.1768,47.2758],[-1.1773,47.2744],[-1.1753,47.2744],[-1.1719,47.2756],[-1.1700,47.2748],[-1.1705,47.2771],[-1.1676,47.2783],[-1.1672,47.2764],[-1.1612,47.2782],[-1.1598,47.2714],[-1.1601,47.2703],[-1.1622,47.2702]]]}},{"type":"Feature","properties":{"name":"Forêt de Juigné"},"geometry":{"type":"Polygon","coordinates":[[[-1.1802,47.7009],[-1.1880,47.7017],[-1.1892,47.6992],[-1.1891,47.6959],[-1.1852,47.6921],[-1.1853,47.6875],[-1.1936,47.6870],[-1.1946,47.6861],[-1.1934,47.6837],[-1.1968,47.6848],[-1.1994,47.6834],[-1.1997,47.6759],[-1.1923,47.6733],[-1.1913,47.6709],[-1.2008,47.6710],[-1.2024,47.6726],[-1.2096,47.6729],[-1.2147,47.6787],[-1.2130,47.6815],[-1.2146,47.6823],[-1.2123,47.6850],[-1.2147,47.6866],[-1.2169,47.6848],[-1.2188,47.6856],[-1.2160,47.6864],[-1.2153,47.6889],[-1.2170,47.6897],[-1.2222,47.6874],[-1.2235,47.6894],[-1.2255,47.6896],[-1.2267,47.6878],[-1.2230,47.6866],[-1.2242,47.6855],[-1.2225,47.6836],[-1.2244,47.6795],[-1.2218,47.6804],[-1.2226,47.6773],[-1.2218,47.6760],[-1.2269,47.6750],[-1.2280,47.6724],[-1.2308,47.6743],[-1.2317,47.6736],[-1.2303,47.6758],[-1.2314,47.6759],[-1.2312,47.6771],[-1.2356,47.6769],[-1.2407,47.6786],[-1.2422,47.6761],[-1.2437,47.6769],[-1.2416,47.6790],[-1.2435,47.6788],[-1.2446,47.6803],[-1.2649,47.6763],[-1.2755,47.6796],[-1.2760,47.6813],[-1.2791,47.6820],[-1.2856,47.6812],[-1.2866,47.6856],[-1.2903,47.6861],[-1.2897,47.6897],[-1.2824,47.6891],[-1.2821,47.6913],[-1.2796,47.6913],[-1.2788,47.6956],[-1.2764,47.6948],[-1.2775,47.6949],[-1.2784,47.6925],[-1.2761,47.6927],[-1.2769,47.6907],[-1.2751,47.6904],[-1.2750,47.6885],[-1.2459,47.6905],[-1.2489,47.6930],[-1.2418,47.6953],[-1.2439,47.6969],[-1.2423,47.6970],[-1.2421,47.6987],[-1.2381,47.6995],[-1.2400,47.7012],[-1.2382,47.7039],[-1.2387,47.7051],[-1.2283,47.7047],[-1.2263,47.7067],[-1.2260,47.7078],[-1.2272,47.7073],[-1.2273,47.7083],[-1.2234,47.7089],[-1.2229,47.7112],[-1.2212,47.7118],[-1.2209,47.7103],[-1.2192,47.7100],[-1.2214,47.7055],[-1.2161,47.7043],[-1.2105,47.7058],[-1.2065,47.7098],[-1.2012,47.7094],[-1.1963,47.7111],[-1.1946,47.7124],[-1.1954,47.7144],[-1.1911,47.7123],[-1.1807,47.7112],[-1.1816,47.7085],[-1.1790,47.7084],[-1.1802,47.7009]]]}},{"type":"Feature","properties":{"name":"Forêt du Cellier"},"geometry":{"type":"Polygon","coordinates":[[[-1.3904,47.3387],[-1.3914,47.3380],[-1.3902,47.3371],[-1.3867,47.3380],[-1.3956,47.3339],[-1.3941,47.3352],[-1.3956,47.3361],[-1.3943,47.3376],[-1.3988,47.3383],[-1.3896,47.3447],[-1.3873,47.3435],[-1.3854,47.3449],[-1.3874,47.3463],[-1.3825,47.3498],[-1.3915,47.3531],[-1.3922,47.3540],[-1.3905,47.3557],[-1.3926,47.3571],[-1.3898,47.3590],[-1.3877,47.3577],[-1.3839,47.3582],[-1.3844,47.3574],[-1.3812,47.3553],[-1.3826,47.3543],[-1.3792,47.3520],[-1.3733,47.3561],[-1.3749,47.3571],[-1.3735,47.3580],[-1.3758,47.3597],[-1.3728,47.3612],[-1.3710,47.3601],[-1.3664,47.3632],[-1.3650,47.3624],[-1.3642,47.3632],[-1.3656,47.3638],[-1.3607,47.3657],[-1.3595,47.3651],[-1.3602,47.3643],[-1.3573,47.3647],[-1.3590,47.3616],[-1.3566,47.3594],[-1.3585,47.3575],[-1.3532,47.3567],[-1.3522,47.3585],[-1.3480,47.3596],[-1.3467,47.3570],[-1.3475,47.3565],[-1.3451,47.3549],[-1.3452,47.3536],[-1.3495,47.3540],[-1.3458,47.3526],[-1.3519,47.3528],[-1.3508,47.3513],[-1.3608,47.3480],[-1.3655,47.3508],[-1.3670,47.3493],[-1.3669,47.3470],[-1.3686,47.3494],[-1.3665,47.3513],[-1.3647,47.3508],[-1.3653,47.3516],[-1.3640,47.3522],[-1.3659,47.3528],[-1.3652,47.3550],[-1.3662,47.3536],[-1.3672,47.3540],[-1.3668,47.3516],[-1.3737,47.3548],[-1.3756,47.3510],[-1.3723,47.3494],[-1.3740,47.3488],[-1.3763,47.3503],[-1.3787,47.3480],[-1.3741,47.3450],[-1.3701,47.3480],[-1.3691,47.3474],[-1.3712,47.3457],[-1.3680,47.3449],[-1.3700,47.3440],[-1.3718,47.3450],[-1.3741,47.3421],[-1.3804,47.3399],[-1.3832,47.3402],[-1.3853,47.3387],[-1.3849,47.3394],[-1.3880,47.3401],[-1.3904,47.3387]]]}},{"type":"Feature","properties":{"name":"Forêt d\u0027Araize"},"geometry":{"type":"Polygon","coordinates":[[[-1.2716,47.7963],[-1.2664,47.7959],[-1.2627,47.7933],[-1.2621,47.7966],[-1.2540,47.7963],[-1.2505,47.7972],[-1.2461,47.8009],[-1.2408,47.8024],[-1.2370,47.7998],[-1.2375,47.7950],[-1.2351,47.7946],[-1.2383,47.7949],[-1.2407,47.7935],[-1.2448,47.7793],[-1.2624,47.7898],[-1.2457,47.7794],[-1.2494,47.7773],[-1.2655,47.7824],[-1.2661,47.7855],[-1.2601,47.7844],[-1.2577,47.7854],[-1.2584,47.7859],[-1.2655,47.7869],[-1.2668,47.7859],[-1.2734,47.7877],[-1.2717,47.7890],[-1.2752,47.7898],[-1.2744,47.7903],[-1.2683,47.7886],[-1.2620,47.7904],[-1.2579,47.7897],[-1.2618,47.7911],[-1.2580,47.7928],[-1.2585,47.7935],[-1.2645,47.7916],[-1.2716,47.7963]]]}},{"type":"Feature","properties":{"name":"La Forêt Pavée"},"geometry":{"type":"Polygon","coordinates":[[[-1.3909,47.6544],[-1.3825,47.6566],[-1.3850,47.6553],[-1.3802,47.6560],[-1.3808,47.6533],[-1.3799,47.6518],[-1.3817,47.6504],[-1.3817,47.6469],[-1.3749,47.6470],[-1.3714,47.6488],[-1.3701,47.6481],[-1.3677,47.6515],[-1.3642,47.6525],[-1.3657,47.6546],[-1.3646,47.6538],[-1.3626,47.6546],[-1.3624,47.6583],[-1.3597,47.6583],[-1.3570,47.6608],[-1.3541,47.6598],[-1.3530,47.6612],[-1.3512,47.6611],[-1.3507,47.6629],[-1.3564,47.6670],[-1.3621,47.6672],[-1.3620,47.6661],[-1.3639,47.6661],[-1.3637,47.6679],[-1.3660,47.6681],[-1.3654,47.6703],[-1.3682,47.6710],[-1.3696,47.6680],[-1.3797,47.6666],[-1.3802,47.6694],[-1.3822,47.6694],[-1.3847,47.6718],[-1.3907,47.6717],[-1.3938,47.6730],[-1.3946,47.6705],[-1.3924,47.6686],[-1.3924,47.6664],[-1.3941,47.6665],[-1.3949,47.6632],[-1.3966,47.6651],[-1.3973,47.6622],[-1.4025,47.6603],[-1.4030,47.6570],[-1.4139,47.6568],[-1.4222,47.6615],[-1.4248,47.6593],[-1.4254,47.6602],[-1.4272,47.6594],[-1.4261,47.6605],[-1.4293,47.6601],[-1.4346,47.6565],[-1.4380,47.6568],[-1.4395,47.6538],[-1.4392,47.6519],[-1.4351,47.6499],[-1.4313,47.6503],[-1.4231,47.6539],[-1.4172,47.6538],[-1.4137,47.6508],[-1.4066,47.6519],[-1.4022,47.6550],[-1.3909,47.6544]]]}},{"type":"Feature","properties":{"name":"Forêt de Fontevrault"},"geometry":{"type":"Polygon","coordinates":[[[0.0801,47.1789],[0.0809,47.1798],[0.0815,47.1785],[0.0859,47.1767],[0.0886,47.1797],[0.0902,47.1788],[0.0893,47.1760],[0.0913,47.1757],[0.0898,47.1748],[0.0929,47.1738],[0.1044,47.1743],[0.1063,47.1769],[0.1080,47.1757],[0.1074,47.1731],[0.0999,47.1716],[0.0997,47.1696],[0.1057,47.1665],[0.1082,47.1689],[0.1116,47.1694],[0.1112,47.1680],[0.1129,47.1679],[0.1102,47.1675],[0.1096,47.1654],[0.1123,47.1650],[0.1097,47.1617],[0.1016,47.1578],[0.0854,47.1592],[0.0833,47.1627],[0.0819,47.1618],[0.0832,47.1599],[0.0821,47.1595],[0.0803,47.1623],[0.0762,47.1629],[0.0752,47.1594],[0.0736,47.1605],[0.0722,47.1600],[0.0726,47.1586],[0.0709,47.1581],[0.0716,47.1564],[0.0670,47.1561],[0.0664,47.1579],[0.0659,47.1567],[0.0634,47.1566],[0.0628,47.1605],[0.0742,47.1619],[0.0750,47.1632],[0.0687,47.1660],[0.0641,47.1655],[0.0646,47.1685],[0.0617,47.1712],[0.0593,47.1708],[0.0537,47.1653],[0.0487,47.1658],[0.0489,47.1630],[0.0479,47.1626],[0.0431,47.1641],[0.0403,47.1637],[0.0369,47.1608],[0.0360,47.1582],[0.0280,47.1660],[0.0258,47.1667],[0.0277,47.1705],[0.0312,47.1721],[0.0235,47.1784],[0.0263,47.1817],[0.0258,47.1784],[0.0295,47.1781],[0.0270,47.1772],[0.0342,47.1782],[0.0335,47.1767],[0.0379,47.1709],[0.0405,47.1717],[0.0456,47.1691],[0.0511,47.1712],[0.0540,47.1705],[0.0531,47.1695],[0.0546,47.1699],[0.0557,47.1708],[0.0537,47.1717],[0.0546,47.1723],[0.0532,47.1732],[0.0541,47.1766],[0.0533,47.1768],[0.0578,47.1776],[0.0573,47.1768],[0.0600,47.1750],[0.0630,47.1761],[0.0612,47.1799],[0.0637,47.1806],[0.0527,47.1827],[0.0486,47.1896],[0.0510,47.1908],[0.0494,47.1902],[0.0523,47.1898],[0.0525,47.1914],[0.0569,47.1925],[0.0546,47.1942],[0.0579,47.1983],[0.0697,47.1952],[0.0685,47.1937],[0.0690,47.1951],[0.0639,47.1956],[0.0636,47.1912],[0.0669,47.1903],[0.0677,47.1922],[0.0728,47.1916],[0.0707,47.1885],[0.0679,47.1895],[0.0663,47.1861],[0.0704,47.1861],[0.0739,47.1889],[0.0769,47.1872],[0.0785,47.1877],[0.0783,47.1864],[0.0765,47.1860],[0.0779,47.1853],[0.0784,47.1841],[0.0772,47.1838],[0.0796,47.1817],[0.0798,47.1800],[0.0762,47.1805],[0.0801,47.1789]]]}},{"type":"Feature","properties":{"name":"Bois de la Graine de Sapin"},"geometry":{"type":"Polygon","coordinates":[[[0.2180,47.4574],[0.2231,47.4560],[0.2218,47.4514],[0.2195,47.4520],[0.2217,47.4507],[0.2184,47.4514],[0.2188,47.4501],[0.2174,47.4492],[0.2200,47.4492],[0.2185,47.4481],[0.2212,47.4491],[0.2204,47.4463],[0.2133,47.4465],[0.2122,47.4442],[0.2141,47.4433],[0.2147,47.4404],[0.2120,47.4378],[0.2094,47.4389],[0.2084,47.4378],[0.2026,47.4372],[0.2003,47.4399],[0.1946,47.4420],[0.1962,47.4446],[0.1947,47.4452],[0.1915,47.4437],[0.1918,47.4424],[0.1884,47.4416],[0.1887,47.4396],[0.1849,47.4387],[0.1842,47.4400],[0.1868,47.4411],[0.1864,47.4427],[0.1846,47.4419],[0.1877,47.4438],[0.1878,47.4459],[0.1865,47.4472],[0.1820,47.4451],[0.1839,47.4438],[0.1828,47.4416],[0.1775,47.4406],[0.1770,47.4419],[0.1735,47.4389],[0.1697,47.4403],[0.1743,47.4444],[0.1784,47.4466],[0.1816,47.4466],[0.1811,47.4535],[0.1780,47.4509],[0.1794,47.4492],[0.1764,47.4487],[0.1773,47.4473],[0.1746,47.4460],[0.1726,47.4475],[0.1748,47.4486],[0.1747,47.4499],[0.1710,47.4496],[0.1711,47.4513],[0.1672,47.4538],[0.1705,47.4552],[0.1717,47.4571],[0.1683,47.4589],[0.1648,47.4585],[0.1664,47.4601],[0.1648,47.4604],[0.1695,47.4638],[0.1729,47.4635],[0.1730,47.4617],[0.1776,47.4624],[0.1771,47.4684],[0.1804,47.4692],[0.1819,47.4688],[0.1796,47.4648],[0.1826,47.4637],[0.1913,47.4667],[0.1975,47.4641],[0.1958,47.4606],[0.1967,47.4602],[0.2009,47.4606],[0.2000,47.4592],[0.2053,47.4579],[0.2063,47.4589],[0.2128,47.4587],[0.2106,47.4571],[0.2138,47.4548],[0.2154,47.4552],[0.2145,47.4558],[0.2160,47.4567],[0.2155,47.4575],[0.2180,47.4574]]]}},{"type":"Feature","properties":{"name":"Forêt de Bareilles"},"geometry":{"type":"Polygon","coordinates":[[[0.1463,47.5762],[0.1396,47.5666],[0.1422,47.5653],[0.1452,47.5673],[0.1493,47.5660],[0.1484,47.5642],[0.1529,47.5618],[0.1526,47.5603],[0.1619,47.5586],[0.1619,47.5524],[0.1579,47.5525],[0.1605,47.5509],[0.1571,47.5503],[0.1576,47.5487],[0.1541,47.5502],[0.1574,47.5508],[0.1568,47.5520],[0.1519,47.5503],[0.1520,47.5493],[0.1478,47.5514],[0.1451,47.5491],[0.1424,47.5516],[0.1358,47.5486],[0.1348,47.5494],[0.1366,47.5511],[0.1319,47.5513],[0.1283,47.5545],[0.1255,47.5525],[0.1230,47.5531],[0.1218,47.5576],[0.1248,47.5559],[0.1260,47.5591],[0.1333,47.5627],[0.1269,47.5642],[0.1273,47.5652],[0.1293,47.5646],[0.1277,47.5660],[0.1301,47.5701],[0.1325,47.5677],[0.1365,47.5670],[0.1318,47.5678],[0.1304,47.5696],[0.1307,47.5677],[0.1368,47.5660],[0.1451,47.5752],[0.1448,47.5778],[0.1488,47.5769],[0.1501,47.5733],[0.1531,47.5718],[0.1553,47.5737],[0.1600,47.5717],[0.1618,47.5731],[0.1652,47.5723],[0.1627,47.5704],[0.1600,47.5716],[0.1550,47.5704],[0.1554,47.5683],[0.1539,47.5680],[0.1524,47.5707],[0.1498,47.5700],[0.1510,47.5713],[0.1484,47.5730],[0.1474,47.5766],[0.1458,47.5772],[0.1463,47.5762]]]}},{"type":"Feature","properties":{"name":"Forêt du Pugle"},"geometry":{"type":"Polygon","coordinates":[[[-0.0107,47.6252],[-0.0091,47.6236],[-0.0082,47.6253],[-0.0005,47.6235],[0.0043,47.6270],[0.0052,47.6293],[0.0037,47.6298],[0.0101,47.6349],[0.0021,47.6427],[0.0102,47.6351],[0.0144,47.6401],[0.0055,47.6446],[-0.0052,47.6479],[-0.0200,47.6492],[-0.0302,47.6534],[-0.0252,47.6479],[-0.0192,47.6351],[-0.0146,47.6311],[-0.0107,47.6252]]]}},{"type":"Feature","properties":{"name":"Bois de Briançon"},"geometry":{"type":"Polygon","coordinates":[[[-0.3622,47.5064],[-0.3598,47.5060],[-0.3589,47.5043],[-0.3584,47.5060],[-0.3573,47.5058],[-0.3549,47.5022],[-0.3499,47.5013],[-0.3474,47.4984],[-0.3392,47.4992],[-0.3393,47.4968],[-0.3348,47.4979],[-0.3339,47.4944],[-0.3385,47.4927],[-0.3364,47.4919],[-0.3392,47.4896],[-0.3374,47.4888],[-0.3377,47.4854],[-0.3422,47.4850],[-0.3497,47.4866],[-0.3508,47.4847],[-0.3493,47.4928],[-0.3531,47.4916],[-0.3530,47.4930],[-0.3545,47.4920],[-0.3583,47.4929],[-0.3570,47.4951],[-0.3586,47.4939],[-0.3616,47.4950],[-0.3648,47.4944],[-0.3654,47.4962],[-0.3627,47.4965],[-0.3640,47.4982],[-0.3699,47.4954],[-0.3722,47.4966],[-0.3734,47.4987],[-0.3708,47.4988],[-0.3709,47.5000],[-0.3677,47.5019],[-0.3723,47.5008],[-0.3706,47.5036],[-0.3622,47.5064]]]}},{"type":"Feature","properties":{"name":"Forêt de Chambiers"},"geometry":{"type":"Polygon","coordinates":[[[-0.2489,47.6516],[-0.2503,47.6509],[-0.2498,47.6481],[-0.2510,47.6468],[-0.2501,47.6441],[-0.2479,47.6439],[-0.2466,47.6418],[-0.2496,47.6385],[-0.2478,47.6375],[-0.2465,47.6393],[-0.2425,47.6395],[-0.2407,47.6370],[-0.2434,47.6346],[-0.2485,47.6336],[-0.2487,47.6314],[-0.2463,47.6301],[-0.2395,47.6325],[-0.2370,47.6313],[-0.2293,47.6348],[-0.2230,47.6323],[-0.2238,47.6305],[-0.2282,47.6300],[-0.2271,47.6267],[-0.2283,47.6254],[-0.2264,47.6228],[-0.2319,47.6189],[-0.2313,47.6124],[-0.2365,47.6121],[-0.2389,47.6166],[-0.2354,47.6185],[-0.2371,47.6218],[-0.2354,47.6222],[-0.2361,47.6238],[-0.2341,47.6251],[-0.2351,47.6273],[-0.2412,47.6270],[-0.2449,47.6232],[-0.2420,47.6195],[-0.2433,47.6175],[-0.2460,47.6173],[-0.2481,47.6176],[-0.2481,47.6202],[-0.2501,47.6197],[-0.2508,47.6212],[-0.2550,47.6203],[-0.2520,47.6261],[-0.2543,47.6272],[-0.2563,47.6265],[-0.2575,47.6278],[-0.2597,47.6264],[-0.2609,47.6277],[-0.2607,47.6297],[-0.2556,47.6318],[-0.2563,47.6345],[-0.2592,47.6348],[-0.2613,47.6404],[-0.2612,47.6417],[-0.2589,47.6409],[-0.2600,47.6446],[-0.2614,47.6453],[-0.2594,47.6510],[-0.2536,47.6536],[-0.2489,47.6516]]]}},{"type":"Feature","properties":{"name":"Forêt de Brissac"},"geometry":{"type":"Polygon","coordinates":[[[-0.4572,47.3229],[-0.4551,47.3205],[-0.4556,47.3189],[-0.4545,47.3186],[-0.4552,47.3168],[-0.4486,47.3149],[-0.4501,47.3129],[-0.4522,47.3137],[-0.4529,47.3124],[-0.4552,47.3125],[-0.4562,47.3079],[-0.4583,47.3120],[-0.4599,47.3117],[-0.4599,47.3133],[-0.4616,47.3105],[-0.4675,47.3082],[-0.4678,47.3061],[-0.4747,47.3053],[-0.4725,47.3029],[-0.4735,47.3002],[-0.4703,47.2997],[-0.4678,47.3011],[-0.4668,47.3003],[-0.4719,47.2968],[-0.4698,47.2990],[-0.4727,47.2995],[-0.4744,47.2971],[-0.4820,47.2925],[-0.4859,47.2927],[-0.4864,47.2943],[-0.4896,47.2949],[-0.4873,47.2933],[-0.4907,47.2927],[-0.4935,47.2946],[-0.4870,47.3024],[-0.4936,47.3036],[-0.4928,47.3058],[-0.4971,47.3091],[-0.4946,47.3100],[-0.4984,47.3114],[-0.4991,47.3142],[-0.5044,47.3180],[-0.5007,47.3205],[-0.5009,47.3216],[-0.4994,47.3208],[-0.4972,47.3217],[-0.4899,47.3187],[-0.4888,47.3200],[-0.4855,47.3183],[-0.4768,47.3185],[-0.4730,47.3209],[-0.4676,47.3215],[-0.4661,47.3207],[-0.4669,47.3194],[-0.4620,47.3217],[-0.4611,47.3212],[-0.4595,47.3241],[-0.4625,47.3269],[-0.4632,47.3302],[-0.4601,47.3345],[-0.4542,47.3368],[-0.4498,47.3334],[-0.4516,47.3323],[-0.4531,47.3288],[-0.4490,47.3311],[-0.4481,47.3332],[-0.4451,47.3330],[-0.4445,47.3311],[-0.4434,47.3319],[-0.4430,47.3304],[-0.4417,47.3308],[-0.4441,47.3293],[-0.4422,47.3290],[-0.4428,47.3265],[-0.4417,47.3246],[-0.4515,47.3229],[-0.4487,47.3218],[-0.4486,47.3204],[-0.4436,47.3214],[-0.4457,47.3190],[-0.4443,47.3171],[-0.4528,47.3198],[-0.4565,47.3237],[-0.4556,47.3257],[-0.4574,47.3234],[-0.4602,47.3230],[-0.4572,47.3229]]]}},{"type":"Feature","properties":{"name":"Forêt de Valles"},"geometry":{"type":"Polygon","coordinates":[[[-0.7662,47.8103],[-0.7664,47.8088],[-0.7681,47.8079],[-0.7645,47.8044],[-0.7628,47.8032],[-0.7587,47.8049],[-0.7579,47.8042],[-0.7597,47.8041],[-0.7553,47.8007],[-0.7540,47.7973],[-0.7520,47.7971],[-0.7508,47.7990],[-0.7487,47.7976],[-0.7497,47.7941],[-0.7527,47.7933],[-0.7488,47.7912],[-0.7452,47.7916],[-0.7440,47.7932],[-0.7467,47.7863],[-0.7488,47.7862],[-0.7506,47.7901],[-0.7555,47.7915],[-0.7575,47.7952],[-0.7572,47.7901],[-0.7596,47.7910],[-0.7604,47.7954],[-0.7655,47.7946],[-0.7663,47.7930],[-0.7660,47.7946],[-0.7678,47.7944],[-0.7683,47.7928],[-0.7703,47.7921],[-0.7704,47.7961],[-0.7688,47.7984],[-0.7692,47.8021],[-0.7747,47.8039],[-0.7736,47.8050],[-0.7765,47.8066],[-0.7753,47.8076],[-0.7709,47.8056],[-0.7762,47.8120],[-0.7742,47.8126],[-0.7729,47.8114],[-0.7699,47.8126],[-0.7698,47.8138],[-0.7684,47.8134],[-0.7688,47.8110],[-0.7662,47.8103]]]}},{"type":"Feature","properties":{"name":"Forêt de Bécon"},"geometry":{"type":"Polygon","coordinates":[[[-0.7307,47.4630],[-0.7331,47.4611],[-0.7309,47.4607],[-0.7290,47.4585],[-0.7298,47.4571],[-0.7262,47.4582],[-0.7228,47.4570],[-0.7204,47.4545],[-0.7205,47.4527],[-0.7171,47.4517],[-0.7170,47.4499],[-0.7198,47.4491],[-0.7201,47.4521],[-0.7230,47.4518],[-0.7252,47.4506],[-0.7228,47.4487],[-0.7240,47.4461],[-0.7586,47.4406],[-0.7596,47.4419],[-0.7557,47.4423],[-0.7532,47.4473],[-0.7562,47.4500],[-0.7550,47.4509],[-0.7596,47.4530],[-0.7606,47.4531],[-0.7600,47.4518],[-0.7631,47.4525],[-0.7639,47.4513],[-0.7684,47.4534],[-0.7733,47.4531],[-0.7740,47.4547],[-0.7768,47.4547],[-0.7769,47.4565],[-0.7810,47.4550],[-0.7830,47.4555],[-0.7823,47.4570],[-0.7784,47.4561],[-0.7794,47.4569],[-0.7781,47.4601],[-0.7829,47.4616],[-0.7828,47.4638],[-0.7847,47.4646],[-0.7785,47.4662],[-0.7777,47.4640],[-0.7754,47.4643],[-0.7753,47.4630],[-0.7733,47.4623],[-0.7780,47.4611],[-0.7731,47.4595],[-0.7740,47.4580],[-0.7719,47.4569],[-0.7650,47.4633],[-0.7469,47.4615],[-0.7433,47.4625],[-0.7433,47.4646],[-0.7393,47.4631],[-0.7378,47.4649],[-0.7375,47.4630],[-0.7395,47.4619],[-0.7369,47.4590],[-0.7337,47.4640],[-0.7307,47.4630]]]}},{"type":"Feature","properties":{"name":"Forêt de Milly"},"geometry":{"type":"Polygon","coordinates":[[[-0.2958,47.2757],[-0.3015,47.2705],[-0.3055,47.2745],[-0.3051,47.2758],[-0.3074,47.2764],[-0.3040,47.2764],[-0.3048,47.2777],[-0.3068,47.2773],[-0.3108,47.2800],[-0.3082,47.2815],[-0.3057,47.2811],[-0.3065,47.2830],[-0.3008,47.2840],[-0.2976,47.2868],[-0.2902,47.2863],[-0.2911,47.2843],[-0.2897,47.2863],[-0.2849,47.2837],[-0.2853,47.2826],[-0.2819,47.2817],[-0.2788,47.2871],[-0.2662,47.2838],[-0.2673,47.2822],[-0.2701,47.2824],[-0.2727,47.2792],[-0.2714,47.2778],[-0.2735,47.2776],[-0.2772,47.2724],[-0.2745,47.2713],[-0.2790,47.2684],[-0.2791,47.2702],[-0.2810,47.2695],[-0.2812,47.2673],[-0.2821,47.2680],[-0.2847,47.2667],[-0.2874,47.2680],[-0.2848,47.2693],[-0.2870,47.2703],[-0.2864,47.2711],[-0.2889,47.2712],[-0.2888,47.2725],[-0.2958,47.2757]]]}},{"type":"Feature","properties":{"name":"Forêt de Beaulieu"},"geometry":{"type":"Polygon","coordinates":[[[-0.5167,47.3191],[-0.5177,47.3172],[-0.5275,47.3126],[-0.5252,47.3110],[-0.5268,47.3101],[-0.5295,47.3115],[-0.5281,47.3126],[-0.5300,47.3131],[-0.5298,47.3112],[-0.5375,47.3100],[-0.5362,47.3125],[-0.5405,47.3108],[-0.5466,47.3132],[-0.5513,47.3133],[-0.5516,47.3149],[-0.5546,47.3160],[-0.5566,47.3133],[-0.5516,47.3133],[-0.5566,47.3123],[-0.5574,47.3109],[-0.5654,47.3138],[-0.5719,47.3114],[-0.5722,47.3102],[-0.5737,47.3131],[-0.5774,47.3133],[-0.5770,47.3146],[-0.5786,47.3146],[-0.5769,47.3168],[-0.5780,47.3175],[-0.5883,47.3175],[-0.5876,47.3184],[-0.5895,47.3195],[-0.5935,47.3275],[-0.5966,47.3309],[-0.5963,47.3318],[-0.5876,47.3306],[-0.5890,47.3278],[-0.5835,47.3270],[-0.5827,47.3285],[-0.5770,47.3288],[-0.5703,47.3261],[-0.5708,47.3249],[-0.5694,47.3243],[-0.5709,47.3237],[-0.5583,47.3249],[-0.5570,47.3260],[-0.5487,47.3227],[-0.5472,47.3240],[-0.5486,47.3268],[-0.5444,47.3277],[-0.5478,47.3302],[-0.5451,47.3336],[-0.5453,47.3360],[-0.5416,47.3369],[-0.5416,47.3356],[-0.5370,47.3352],[-0.5318,47.3383],[-0.5279,47.3384],[-0.5254,47.3346],[-0.5185,47.3340],[-0.5180,47.3296],[-0.5144,47.3265],[-0.5178,47.3262],[-0.5167,47.3246],[-0.5151,47.3253],[-0.5139,47.3244],[-0.5116,47.3260],[-0.5127,47.3228],[-0.5099,47.3242],[-0.5074,47.3198],[-0.5120,47.3207],[-0.5130,47.3187],[-0.5167,47.3191]]]}},{"type":"Feature","properties":{"name":"Forêt de Vezins"},"geometry":{"type":"Polygon","coordinates":[[[-0.6718,47.0451],[-0.6691,47.0450],[-0.6733,47.0458],[-0.6728,47.0495],[-0.6749,47.0521],[-0.6736,47.0544],[-0.6688,47.0530],[-0.6677,47.0542],[-0.6689,47.0553],[-0.6725,47.0551],[-0.6710,47.0566],[-0.6713,47.0584],[-0.6698,47.0580],[-0.6710,47.0587],[-0.6703,47.0607],[-0.6674,47.0619],[-0.6700,47.0628],[-0.6696,47.0641],[-0.6682,47.0633],[-0.6654,47.0643],[-0.6650,47.0673],[-0.6577,47.0667],[-0.6590,47.0682],[-0.6615,47.0682],[-0.6605,47.0689],[-0.6613,47.0695],[-0.6603,47.0713],[-0.6549,47.0728],[-0.6549,47.0744],[-0.6573,47.0761],[-0.6563,47.0777],[-0.6501,47.0804],[-0.6557,47.0840],[-0.6597,47.0841],[-0.6585,47.0859],[-0.6631,47.0889],[-0.6636,47.0858],[-0.6650,47.0852],[-0.6629,47.0846],[-0.6639,47.0826],[-0.6621,47.0809],[-0.6645,47.0793],[-0.6677,47.0792],[-0.6740,47.0815],[-0.6746,47.0802],[-0.6709,47.0759],[-0.6772,47.0755],[-0.6787,47.0758],[-0.6780,47.0771],[-0.6804,47.0775],[-0.6825,47.0796],[-0.6879,47.0803],[-0.6911,47.0791],[-0.6930,47.0804],[-0.6920,47.0809],[-0.6936,47.0824],[-0.6896,47.0822],[-0.6904,47.0803],[-0.6835,47.0805],[-0.6856,47.0821],[-0.6873,47.0879],[-0.6925,47.0859],[-0.6905,47.0871],[-0.6913,47.0881],[-0.6885,47.0887],[-0.6931,47.0902],[-0.6951,47.0898],[-0.6927,47.0892],[-0.6978,47.0845],[-0.6950,47.0825],[-0.6973,47.0809],[-0.7003,47.0844],[-0.7021,47.0835],[-0.7028,47.0849],[-0.7043,47.0837],[-0.7062,47.0862],[-0.7116,47.0846],[-0.7114,47.0855],[-0.7128,47.0856],[-0.7119,47.0869],[-0.7202,47.0864],[-0.7208,47.0848],[-0.7187,47.0839],[-0.7173,47.0850],[-0.7153,47.0833],[-0.7182,47.0811],[-0.7211,47.0833],[-0.7231,47.0716],[-0.7186,47.0693],[-0.7185,47.0716],[-0.7124,47.0722],[-0.7112,47.0752],[-0.7002,47.0781],[-0.7077,47.0718],[-0.7049,47.0706],[-0.7054,47.0688],[-0.7012,47.0681],[-0.7025,47.0657],[-0.7059,47.0645],[-0.7039,47.0625],[-0.7132,47.0587],[-0.7086,47.0564],[-0.7055,47.0508],[-0.7062,47.0493],[-0.7032,47.0495],[-0.7038,47.0485],[-0.7008,47.0467],[-0.6901,47.0445],[-0.6884,47.0460],[-0.6915,47.0471],[-0.6908,47.0497],[-0.6884,47.0492],[-0.6864,47.0507],[-0.6885,47.0520],[-0.6863,47.0534],[-0.6827,47.0517],[-0.6841,47.0529],[-0.6827,47.0540],[-0.6799,47.0530],[-0.6784,47.0537],[-0.6734,47.0478],[-0.6742,47.0455],[-0.6718,47.0451]]]}},{"type":"Feature","properties":{"name":"Forêt de Nuaillé"},"geometry":{"type":"Polygon","coordinates":[[[-0.7312,47.0918],[-0.7323,47.0880],[-0.7314,47.0844],[-0.7207,47.0855],[-0.7231,47.0716],[-0.7285,47.0716],[-0.7292,47.0705],[-0.7313,47.0712],[-0.7318,47.0735],[-0.7364,47.0731],[-0.7416,47.0749],[-0.7434,47.0772],[-0.7413,47.0786],[-0.7383,47.0765],[-0.7336,47.0811],[-0.7417,47.0847],[-0.7429,47.0816],[-0.7503,47.0828],[-0.7490,47.0837],[-0.7545,47.0867],[-0.7604,47.0836],[-0.7650,47.0824],[-0.7675,47.0832],[-0.7721,47.0782],[-0.7828,47.0754],[-0.7933,47.0682],[-0.7981,47.0673],[-0.8034,47.0637],[-0.8076,47.0633],[-0.8105,47.0646],[-0.8096,47.0670],[-0.8141,47.0673],[-0.8150,47.0684],[-0.8112,47.0680],[-0.8066,47.0725],[-0.8094,47.0739],[-0.8067,47.0744],[-0.8087,47.0757],[-0.8093,47.0796],[-0.8152,47.0814],[-0.8102,47.0845],[-0.8068,47.0820],[-0.8062,47.0859],[-0.8041,47.0879],[-0.7948,47.0879],[-0.7891,47.0893],[-0.7849,47.0880],[-0.7842,47.0899],[-0.7869,47.0915],[-0.7843,47.0932],[-0.7827,47.0927],[-0.7834,47.0918],[-0.7772,47.0923],[-0.7751,47.0897],[-0.7693,47.0891],[-0.7656,47.0933],[-0.7635,47.0929],[-0.7540,47.0965],[-0.7517,47.0961],[-0.7527,47.0948],[-0.7493,47.0944],[-0.7500,47.0938],[-0.7441,47.0934],[-0.7430,47.0919],[-0.7404,47.0927],[-0.7380,47.0908],[-0.7353,47.0922],[-0.7312,47.0918]]]}}]}