{"type":"FeatureCollection","features":[{"type":"Feature","properties":{"name":"Forêt domaniale de Saint-Sever"},"geometry":{"type":"Polygon","coordinates":[[[-1.0547,48.8215],[-1.0572,48.8195],[-1.0581,48.8159],[-1.0657,48.8123],[-1.0670,48.8135],[-1.0666,48.8147],[-1.0762,48.8140],[-1.0777,48.8181],[-1.0763,48.8188],[-1.0783,48.8214],[-1.0769,48.8223],[-1.0874,48.8293],[-1.0818,48.8290],[-1.0865,48.8301],[-1.0845,48.8343],[-1.0807,48.8341],[-1.0732,48.8368],[-1.0671,48.8349],[-1.0596,48.8354],[-1.0571,48.8335],[-1.0585,48.8352],[-1.0529,48.8366],[-1.0547,48.8215]]]}},{"type":"Feature","properties":{"name":"Forêt de Coëtquen"},"geometry":{"type":"Polygon","coordinates":[[[-1.9591,48.4615],[-1.9620,48.4565],[-1.9610,48.4548],[-1.9591,48.4587],[-1.9560,48.4587],[-1.9552,48.4615],[-1.9507,48.4616],[-1.9504,48.4604],[-1.9469,48.4612],[-1.9365,48.4570],[-1.9433,48.4559],[-1.9416,48.4548],[-1.9446,48.4531],[-1.9427,48.4526],[-1.9445,48.4525],[-1.9445,48.4501],[-1.9426,48.4488],[-1.9436,48.4492],[-1.9444,48.4462],[-1.9415,48.4456],[-1.9468,48.4464],[-1.9507,48.4426],[-1.9493,48.4401],[-1.9506,48.4400],[-1.9514,48.4426],[-1.9517,48.4398],[-1.9561,48.4366],[-1.9587,48.4386],[-1.9594,48.4376],[-1.9591,48.4388],[-1.9613,48.4380],[-1.9606,48.4363],[-1.9621,48.4368],[-1.9649,48.4340],[-1.9648,48.4357],[-1.9664,48.4352],[-1.9652,48.4388],[-1.9670,48.4401],[-1.9671,48.4423],[-1.9715,48.4427],[-1.9706,48.4385],[-1.9754,48.4364],[-1.9733,48.4340],[-1.9749,48.4339],[-1.9770,48.4359],[-1.9806,48.4336],[-1.9791,48.4354],[-1.9806,48.4363],[-1.9788,48.4359],[-1.9778,48.4383],[-1.9784,48.4397],[-1.9819,48.4384],[-1.9813,48.4409],[-1.9799,48.4396],[-1.9790,48.4412],[-1.9793,48.4394],[-1.9764,48.4411],[-1.9794,48.4422],[-1.9794,48.4445],[-1.9752,48.4425],[-1.9739,48.4463],[-1.9656,48.4466],[-1.9655,48.4484],[-1.9675,48.4478],[-1.9743,48.4516],[-1.9721,48.4516],[-1.9726,48.4529],[-1.9709,48.4535],[-1.9659,48.4520],[-1.9658,48.4536],[-1.9636,48.4539],[-1.9653,48.4543],[-1.9634,48.4552],[-1.9673,48.4554],[-1.9661,48.4566],[-1.9633,48.4563],[-1.9628,48.4577],[-1.9639,48.4578],[-1.9621,48.4579],[-1.9626,48.4599],[-1.9599,48.4617],[-1.9606,48.4628],[-1.9591,48.4643],[-1.9545,48.4641],[-1.9581,48.4636],[-1.9591,48.4615]]]}},{"type":"Feature","properties":{"name":"Bois du Gast"},"geometry":{"type":"Polygon","coordinates":[[[-1.0486,48.7921],[-1.0511,48.7918],[-1.0506,48.7936],[-1.0521,48.7949],[-1.0526,48.7941],[-1.0604,48.7978],[-1.0636,48.7973],[-1.0680,48.7987],[-1.0692,48.7971],[-1.0678,48.7947],[-1.0650,48.7936],[-1.0584,48.7950],[-1.0589,48.7922],[-1.0632,48.7910],[-1.0622,48.7887],[-1.0650,48.7893],[-1.0640,48.7900],[-1.0653,48.7909],[-1.0664,48.7905],[-1.0651,48.7895],[-1.0673,48.7896],[-1.0660,48.7879],[-1.0636,48.7876],[-1.0625,48.7832],[-1.0586,48.7810],[-1.0504,48.7795],[-1.0501,48.7759],[-1.0520,48.7755],[-1.0418,48.7738],[-1.0368,48.7702],[-1.0384,48.7678],[-1.0356,48.7652],[-1.0303,48.7661],[-1.0281,48.7685],[-1.0291,48.7685],[-1.0297,48.7720],[-1.0317,48.7731],[-1.0309,48.7742],[-1.0329,48.7752],[-1.0326,48.7766],[-1.0272,48.7763],[-1.0244,48.7787],[-1.0344,48.7806],[-1.0359,48.7823],[-1.0354,48.7841],[-1.0338,48.7844],[-1.0345,48.7853],[-1.0371,48.7844],[-1.0449,48.7930],[-1.0486,48.7921]]]}},{"type":"Feature","properties":{"name":"Forêt domaniale du Mesnil"},"geometry":{"type":"Polygon","coordinates":[[[-1.8682,48.4938],[-1.8606,48.4976],[-1.8589,48.4946],[-1.8559,48.4946],[-1.8571,48.4939],[-1.8568,48.4909],[-1.8536,48.4900],[-1.8522,48.4913],[-1.8492,48.4883],[-1.8486,48.4826],[-1.8452,48.4799],[-1.8421,48.4821],[-1.8400,48.4822],[-1.8393,48.4782],[-1.8391,48.4795],[-1.8375,48.4792],[-1.8385,48.4790],[-1.8381,48.4770],[-1.8432,48.4730],[-1.8511,48.4699],[-1.8511,48.4689],[-1.8473,48.4686],[-1.8523,48.4656],[-1.8532,48.4641],[-1.8518,48.4635],[-1.8565,48.4628],[-1.8578,48.4633],[-1.8551,48.4650],[-1.8590,48.4640],[-1.8592,48.4653],[-1.8615,48.4651],[-1.8615,48.4699],[-1.8602,48.4712],[-1.8615,48.4728],[-1.8631,48.4706],[-1.8668,48.4721],[-1.8683,48.4709],[-1.8698,48.4726],[-1.8722,48.4715],[-1.8698,48.4730],[-1.8731,48.4732],[-1.8710,48.4738],[-1.8796,48.4772],[-1.8762,48.4781],[-1.8759,48.4762],[-1.8742,48.4765],[-1.8752,48.4810],[-1.8701,48.4818],[-1.8701,48.4830],[-1.8774,48.4819],[-1.8806,48.4846],[-1.8810,48.4865],[-1.8792,48.4864],[-1.8742,48.4907],[-1.8763,48.4904],[-1.8769,48.4933],[-1.8682,48.4938]]]}},{"type":"Feature","properties":{"name":"Forêt domaniale de Villecartier"},"geometry":{"type":"Polygon","coordinates":[[[-1.5819,48.4836],[-1.5811,48.4826],[-1.5830,48.4818],[-1.5823,48.4800],[-1.5779,48.4811],[-1.5786,48.4824],[-1.5755,48.4827],[-1.5765,48.4866],[-1.5727,48.4880],[-1.5715,48.4873],[-1.5724,48.4894],[-1.5736,48.4894],[-1.5723,48.4902],[-1.5765,48.4948],[-1.5806,48.4932],[-1.5772,48.4957],[-1.5782,48.4973],[-1.5794,48.4960],[-1.5782,48.5014],[-1.5821,48.4995],[-1.5799,48.5027],[-1.5827,48.5035],[-1.5821,48.5044],[-1.5777,48.5040],[-1.5742,48.5067],[-1.5740,48.5022],[-1.5760,48.5021],[-1.5735,48.5003],[-1.5769,48.4965],[-1.5734,48.4942],[-1.5712,48.4947],[-1.5726,48.4933],[-1.5717,48.4901],[-1.5671,48.4913],[-1.5619,48.4859],[-1.5588,48.4870],[-1.5489,48.4849],[-1.5490,48.4840],[-1.5456,48.4849],[-1.5454,48.4833],[-1.5483,48.4818],[-1.5437,48.4832],[-1.5420,48.4806],[-1.5406,48.4825],[-1.5390,48.4782],[-1.5360,48.4780],[-1.5370,48.4698],[-1.5299,48.4665],[-1.5247,48.4656],[-1.5242,48.4648],[-1.5259,48.4639],[-1.5241,48.4592],[-1.5290,48.4602],[-1.5292,48.4581],[-1.5337,48.4569],[-1.5371,48.4579],[-1.5399,48.4558],[-1.5419,48.4577],[-1.5423,48.4600],[-1.5458,48.4617],[-1.5477,48.4602],[-1.5518,48.4606],[-1.5528,48.4595],[-1.5553,48.4624],[-1.5735,48.4619],[-1.5778,48.4655],[-1.5774,48.4601],[-1.5790,48.4592],[-1.5782,48.4570],[-1.5809,48.4587],[-1.5862,48.4585],[-1.5881,48.4640],[-1.5901,48.4642],[-1.5904,48.4651],[-1.5891,48.4653],[-1.5919,48.4699],[-1.5898,48.4708],[-1.5901,48.4765],[-1.5847,48.4790],[-1.5833,48.4838],[-1.5819,48.4836]]]}},{"type":"Feature","properties":{"name":"Forêt domaniale de Saint-Sever"},"geometry":{"type":"Polygon","coordinates":[[[-1.0546,48.8214],[-1.0521,48.8359],[-1.0464,48.8374],[-1.0456,48.8365],[-1.0468,48.8354],[-1.0455,48.8348],[-1.0424,48.8378],[-1.0388,48.8371],[-1.0382,48.8344],[-1.0448,48.8305],[-1.0443,48.8294],[-1.0458,48.8289],[-1.0457,48.8276],[-1.0403,48.8291],[-1.0405,48.8320],[-1.0387,48.8307],[-1.0364,48.8314],[-1.0354,48.8302],[-1.0370,48.8299],[-1.0361,48.8294],[-1.0411,48.8276],[-1.0381,48.8264],[-1.0372,48.8286],[-1.0323,48.8281],[-1.0324,48.8302],[-1.0309,48.8316],[-1.0275,48.8323],[-1.0235,48.8304],[-1.0245,48.8306],[-1.0257,48.8285],[-1.0256,48.8265],[-1.0220,48.8265],[-1.0214,48.8255],[-1.0196,48.8263],[-1.0202,48.8253],[-1.0175,48.8244],[-1.0182,48.8238],[-1.0170,48.8231],[-1.0190,48.8208],[-1.0167,48.8202],[-1.0134,48.8219],[-1.0103,48.8205],[-1.0087,48.8221],[-1.0063,48.8193],[-0.9992,48.8191],[-0.9990,48.8169],[-0.9958,48.8145],[-0.9978,48.8144],[-0.9971,48.8118],[-1.0010,48.8082],[-1.0012,48.8040],[-1.0039,48.8018],[-1.0083,48.8027],[-1.0113,48.8012],[-1.0133,48.8018],[-1.0133,48.8033],[-1.0168,48.8015],[-1.0210,48.8046],[-1.0236,48.8030],[-1.0288,48.8075],[-1.0322,48.8045],[-1.0340,48.8048],[-1.0342,48.8081],[-1.0378,48.8121],[-1.0342,48.8122],[-1.0349,48.8150],[-1.0367,48.8157],[-1.0420,48.8140],[-1.0476,48.8088],[-1.0491,48.8048],[-1.0525,48.8049],[-1.0558,48.8001],[-1.0608,48.7995],[-1.0622,48.8013],[-1.0730,48.8012],[-1.0768,48.8057],[-1.0773,48.8082],[-1.0739,48.8099],[-1.0740,48.8109],[-1.0718,48.8100],[-1.0718,48.8084],[-1.0697,48.8086],[-1.0699,48.8103],[-1.0711,48.8102],[-1.0703,48.8112],[-1.0583,48.8157],[-1.0571,48.8195],[-1.0546,48.8214]]]}},{"type":"Feature","properties":{"name":"Forêt de la Lande Pourrie"},"geometry":{"type":"Polygon","coordinates":[[[-0.8337,48.6390],[-0.8317,48.6359],[-0.8386,48.6323],[-0.8324,48.6326],[-0.8313,48.6289],[-0.8333,48.6315],[-0.8349,48.6309],[-0.8344,48.6292],[-0.8369,48.6290],[-0.8362,48.6271],[-0.8383,48.6266],[-0.8422,48.6289],[-0.8437,48.6281],[-0.8501,48.6296],[-0.8513,48.6275],[-0.8507,48.6259],[-0.8520,48.6264],[-0.8524,48.6235],[-0.8544,48.6213],[-0.8557,48.6213],[-0.8540,48.6233],[-0.8552,48.6273],[-0.8516,48.6292],[-0.8501,48.6358],[-0.8563,48.6339],[-0.8548,48.6326],[-0.8672,48.6260],[-0.8688,48.6258],[-0.8716,48.6280],[-0.8759,48.6259],[-0.8791,48.6259],[-0.8788,48.6247],[-0.8758,48.6253],[-0.8697,48.6236],[-0.8727,48.6221],[-0.8797,48.6229],[-0.8823,48.6248],[-0.8839,48.6245],[-0.8846,48.6228],[-0.8877,48.6223],[-0.8905,48.6243],[-0.8894,48.6260],[-0.8877,48.6245],[-0.8859,48.6261],[-0.8937,48.6277],[-0.8947,48.6275],[-0.8937,48.6260],[-0.8946,48.6240],[-0.8955,48.6269],[-0.8980,48.6263],[-0.8971,48.6276],[-0.9011,48.6306],[-0.8962,48.6342],[-0.8889,48.6356],[-0.8851,48.6399],[-0.8859,48.6419],[-0.8838,48.6422],[-0.8804,48.6401],[-0.8771,48.6419],[-0.8767,48.6398],[-0.8740,48.6391],[-0.8776,48.6382],[-0.8768,48.6355],[-0.8723,48.6364],[-0.8730,48.6373],[-0.8671,48.6364],[-0.8646,48.6391],[-0.8618,48.6400],[-0.8558,48.6387],[-0.8564,48.6380],[-0.8512,48.6382],[-0.8479,48.6359],[-0.8474,48.6379],[-0.8439,48.6394],[-0.8397,48.6375],[-0.8337,48.6390]]]}},{"type":"Feature","properties":{"name":"Bois du Hommet"},"geometry":{"type":"Polygon","coordinates":[[[-1.2025,49.2087],[-1.2058,49.2083],[-1.2022,49.2025],[-1.2047,49.2020],[-1.2037,49.1989],[-1.2053,49.1972],[-1.2157,49.1961],[-1.2177,49.1965],[-1.2179,49.1977],[-1.2248,49.1993],[-1.2232,49.2025],[-1.2241,49.2055],[-1.2181,49.2087],[-1.2183,49.2097],[-1.2141,49.2107],[-1.2144,49.2120],[-1.2103,49.2152],[-1.2064,49.2119],[-1.2058,49.2094],[-1.2025,49.2087]]]}},{"type":"Feature","properties":{"name":"Bois de Baugis"},"geometry":{"type":"Polygon","coordinates":[[[-0.8075,49.1758],[-0.8020,49.1742],[-0.8031,49.1735],[-0.8007,49.1725],[-0.8020,49.1712],[-0.7981,49.1704],[-0.8002,49.1651],[-0.8038,49.1631],[-0.8024,49.1616],[-0.8072,49.1622],[-0.8178,49.1588],[-0.8230,49.1613],[-0.8202,49.1658],[-0.8218,49.1681],[-0.8075,49.1758]]]}},{"type":"Feature","properties":{"name":"Bois d\u0027Etenclin"},"geometry":{"type":"Polygon","coordinates":[[[-1.5239,49.3345],[-1.5226,49.3302],[-1.5185,49.3300],[-1.5216,49.3339],[-1.5167,49.3343],[-1.5157,49.3337],[-1.5180,49.3327],[-1.5168,49.3298],[-1.5117,49.3289],[-1.5063,49.3300],[-1.5038,49.3287],[-1.5033,49.3275],[-1.5050,49.3251],[-1.5065,49.3240],[-1.5081,49.3246],[-1.5131,49.3214],[-1.5111,49.3189],[-1.5133,49.3162],[-1.5120,49.3154],[-1.5130,49.3145],[-1.5213,49.3133],[-1.5231,49.3139],[-1.5214,49.3154],[-1.5191,49.3149],[-1.5182,49.3168],[-1.5280,49.3185],[-1.5286,49.3165],[-1.5306,49.3165],[-1.5325,49.3179],[-1.5340,49.3225],[-1.5344,49.3215],[-1.5357,49.3219],[-1.5342,49.3226],[-1.5330,49.3274],[-1.5296,49.3287],[-1.5295,49.3321],[-1.5239,49.3345]]]}},{"type":"Feature","properties":{"name":"Bois de Buron"},"geometry":{"type":"Polygon","coordinates":[[[-0.7121,48.9924],[-0.7149,48.9920],[-0.7151,48.9936],[-0.7069,48.9985],[-0.7143,49.0001],[-0.7178,48.9986],[-0.7193,48.9992],[-0.7130,49.0021],[-0.7135,49.0032],[-0.7079,49.0024],[-0.7076,49.0036],[-0.7047,49.0038],[-0.7018,49.0023],[-0.6965,49.0035],[-0.6908,49.0069],[-0.6817,49.0082],[-0.6844,49.0069],[-0.6821,49.0047],[-0.6672,49.0033],[-0.6688,49.0018],[-0.6752,49.0017],[-0.6722,49.0008],[-0.6724,48.9996],[-0.6905,48.9982],[-0.6901,48.9991],[-0.6922,48.9997],[-0.6934,48.9991],[-0.6919,48.9988],[-0.6930,48.9975],[-0.7025,48.9988],[-0.7031,48.9979],[-0.7016,48.9974],[-0.7015,48.9952],[-0.7121,48.9924]]]}},{"type":"Feature","properties":{"name":"Forêt du Mont Castre"},"geometry":{"type":"Polygon","coordinates":[[[-1.4850,49.2905],[-1.4835,49.2943],[-1.4845,49.2955],[-1.4769,49.2968],[-1.4749,49.2926],[-1.4729,49.2958],[-1.4713,49.2952],[-1.4734,49.2923],[-1.4709,49.2918],[-1.4691,49.2943],[-1.4646,49.2926],[-1.4669,49.2909],[-1.4624,49.2893],[-1.4597,49.2903],[-1.4620,49.2892],[-1.4557,49.2882],[-1.4537,49.2865],[-1.4536,49.2847],[-1.4616,49.2794],[-1.4608,49.2779],[-1.4590,49.2779],[-1.4614,49.2782],[-1.4599,49.2769],[-1.4615,49.2761],[-1.4595,49.2760],[-1.4671,49.2749],[-1.4667,49.2724],[-1.4701,49.2724],[-1.4682,49.2719],[-1.4679,49.2705],[-1.4703,49.2698],[-1.4688,49.2678],[-1.4700,49.2691],[-1.4731,49.2688],[-1.4713,49.2701],[-1.4750,49.2719],[-1.4761,49.2709],[-1.4791,49.2718],[-1.4783,49.2696],[-1.4834,49.2747],[-1.4834,49.2768],[-1.4844,49.2768],[-1.4835,49.2787],[-1.4855,49.2784],[-1.4865,49.2804],[-1.4900,49.2808],[-1.4887,49.2832],[-1.4906,49.2837],[-1.4889,49.2854],[-1.4920,49.2868],[-1.4899,49.2880],[-1.4872,49.2874],[-1.4876,49.2866],[-1.4783,49.2851],[-1.4739,49.2867],[-1.4745,49.2888],[-1.4774,49.2890],[-1.4742,49.2897],[-1.4771,49.2913],[-1.4786,49.2913],[-1.4787,49.2899],[-1.4850,49.2905]]]}},{"type":"Feature","properties":{"name":"Bois de Limors"},"geometry":{"type":"Polygon","coordinates":[[[-1.4584,49.3395],[-1.4610,49.3378],[-1.4631,49.3401],[-1.4669,49.3381],[-1.4735,49.3374],[-1.4731,49.3387],[-1.4771,49.3414],[-1.4882,49.3417],[-1.4906,49.3396],[-1.4920,49.3419],[-1.4933,49.3412],[-1.4938,49.3422],[-1.4955,49.3406],[-1.4965,49.3426],[-1.4948,49.3444],[-1.4936,49.3435],[-1.4919,49.3448],[-1.4943,49.3467],[-1.4928,49.3475],[-1.4897,49.3462],[-1.4899,49.3480],[-1.4870,49.3484],[-1.4884,49.3490],[-1.4857,49.3511],[-1.4864,49.3517],[-1.4733,49.3567],[-1.4740,49.3575],[-1.4728,49.3584],[-1.4717,49.3577],[-1.4622,49.3626],[-1.4500,49.3616],[-1.4498,49.3599],[-1.4522,49.3597],[-1.4461,49.3581],[-1.4479,49.3552],[-1.4437,49.3528],[-1.4542,49.3478],[-1.4412,49.3499],[-1.4480,49.3444],[-1.4523,49.3435],[-1.4527,49.3421],[-1.4571,49.3430],[-1.4568,49.3402],[-1.4533,49.3407],[-1.4521,49.3390],[-1.4584,49.3395]]]}},{"type":"Feature","properties":{"name":"Forêt de Pirou"},"geometry":{"type":"Polygon","coordinates":[[[-1.5329,49.1578],[-1.5325,49.1570],[-1.5361,49.1574],[-1.5377,49.1535],[-1.5354,49.1524],[-1.5389,49.1515],[-1.5401,49.1533],[-1.5441,49.1530],[-1.5429,49.1541],[-1.5461,49.1553],[-1.5498,49.1553],[-1.5506,49.1542],[-1.5503,49.1553],[-1.5558,49.1573],[-1.5524,49.1585],[-1.5493,49.1565],[-1.5507,49.1597],[-1.5498,49.1594],[-1.5482,49.1618],[-1.5458,49.1615],[-1.5471,49.1627],[-1.5491,49.1624],[-1.5473,49.1633],[-1.5512,49.1637],[-1.5500,49.1654],[-1.5509,49.1659],[-1.5501,49.1659],[-1.5517,49.1742],[-1.5540,49.1741],[-1.5566,49.1778],[-1.5302,49.1738],[-1.5299,49.1747],[-1.5308,49.1720],[-1.5247,49.1719],[-1.5260,49.1684],[-1.5316,49.1696],[-1.5332,49.1651],[-1.5363,49.1656],[-1.5374,49.1630],[-1.5300,49.1649],[-1.5335,49.1639],[-1.5345,49.1616],[-1.5338,49.1638],[-1.5362,49.1632],[-1.5369,49.1614],[-1.5347,49.1614],[-1.5355,49.1593],[-1.5329,49.1578]]]}}]}