{"type":"FeatureCollection","features":[{"type":"Feature","properties":{"name":"Bois du Troudeix"},"geometry":{"type":"Polygon","coordinates":[[[5.2504,47.8281],[5.2526,47.8283],[5.2530,47.8268],[5.2495,47.8224],[5.2502,47.8216],[5.2437,47.8201],[5.2484,47.8199],[5.2486,47.8139],[5.2462,47.8125],[5.2491,47.8139],[5.2504,47.8195],[5.2529,47.8234],[5.2562,47.8229],[5.2546,47.8242],[5.2555,47.8243],[5.2578,47.8223],[5.2541,47.8225],[5.2515,47.8192],[5.2509,47.8163],[5.2531,47.8159],[5.2526,47.8129],[5.2550,47.8121],[5.2502,47.8130],[5.2496,47.8120],[5.2520,47.8084],[5.2518,47.8042],[5.2538,47.8023],[5.2500,47.8008],[5.2583,47.7982],[5.2612,47.7958],[5.2620,47.7933],[5.2554,47.7919],[5.2511,47.7935],[5.2452,47.7938],[5.2453,47.7995],[5.2489,47.8003],[5.2452,47.8020],[5.2390,47.8025],[5.2286,47.7995],[5.2235,47.8038],[5.2207,47.8028],[5.2225,47.8044],[5.2221,47.8087],[5.2177,47.8090],[5.2275,47.8140],[5.2266,47.8165],[5.2279,47.8169],[5.2288,47.8155],[5.2288,47.8175],[5.2355,47.8179],[5.2370,47.8190],[5.2374,47.8179],[5.2430,47.8211],[5.2476,47.8220],[5.2492,47.8236],[5.2479,47.8247],[5.2519,47.8271],[5.2494,47.8263],[5.2504,47.8281]]]}},{"type":"Feature","properties":{"name":"Bois de Bussières"},"geometry":{"type":"Polygon","coordinates":[[[5.5635,47.8014],[5.5611,47.8003],[5.5638,47.7970],[5.5679,47.7969],[5.5702,47.7981],[5.5739,47.7976],[5.5746,47.7960],[5.5776,47.7962],[5.5746,47.7937],[5.5716,47.7945],[5.5669,47.7930],[5.5700,47.7924],[5.5675,47.7920],[5.5678,47.7906],[5.5742,47.7930],[5.5780,47.7912],[5.5744,47.7915],[5.5728,47.7888],[5.5730,47.7858],[5.5763,47.7849],[5.5718,47.7850],[5.5719,47.7839],[5.5698,47.7869],[5.5673,47.7870],[5.5687,47.7833],[5.5652,47.7823],[5.5647,47.7781],[5.5612,47.7783],[5.5649,47.7765],[5.5627,47.7719],[5.5650,47.7700],[5.5646,47.7684],[5.5623,47.7669],[5.5609,47.7610],[5.5562,47.7565],[5.5545,47.7571],[5.5521,47.7556],[5.5564,47.7600],[5.5596,47.7615],[5.5606,47.7638],[5.5569,47.7645],[5.5520,47.7619],[5.5506,47.7635],[5.5541,47.7640],[5.5524,47.7655],[5.5541,47.7665],[5.5519,47.7678],[5.5502,47.7661],[5.5472,47.7654],[5.5460,47.7594],[5.5418,47.7579],[5.5436,47.7569],[5.5412,47.7563],[5.5424,47.7548],[5.5376,47.7548],[5.5375,47.7526],[5.5363,47.7528],[5.5355,47.7514],[5.5322,47.7520],[5.5310,47.7509],[5.5328,47.7511],[5.5308,47.7499],[5.5290,47.7507],[5.5304,47.7518],[5.5272,47.7531],[5.5254,47.7513],[5.5233,47.7519],[5.5207,47.7511],[5.5153,47.7458],[5.5146,47.7463],[5.5205,47.7517],[5.5196,47.7522],[5.5153,47.7490],[5.5137,47.7502],[5.5127,47.7495],[5.5108,47.7516],[5.5141,47.7536],[5.5174,47.7529],[5.5185,47.7542],[5.5160,47.7546],[5.5139,47.7572],[5.5128,47.7564],[5.5121,47.7585],[5.5138,47.7587],[5.5094,47.7605],[5.5118,47.7611],[5.5028,47.7617],[5.4971,47.7670],[5.5006,47.7676],[5.4995,47.7697],[5.5002,47.7728],[5.5060,47.7767],[5.5053,47.7775],[5.4994,47.7748],[5.5091,47.7824],[5.5070,47.7855],[5.5073,47.7827],[5.5066,47.7841],[5.5050,47.7839],[5.5020,47.7801],[5.4974,47.7799],[5.4988,47.7798],[5.4998,47.7822],[5.5029,47.7842],[5.4979,47.7902],[5.4978,47.7946],[5.4996,47.7948],[5.5001,47.7914],[5.5028,47.7899],[5.5015,47.7952],[5.5022,47.7973],[5.5003,47.7974],[5.5010,47.7992],[5.4993,47.8005],[5.5000,47.8040],[5.5016,47.8037],[5.5002,47.8010],[5.5019,47.7991],[5.5093,47.7992],[5.5065,47.7972],[5.5056,47.7978],[5.5070,47.7964],[5.5044,47.7959],[5.5065,47.7924],[5.5074,47.7929],[5.5072,47.7899],[5.5091,47.7888],[5.5168,47.7954],[5.5160,47.7975],[5.5183,47.7982],[5.5203,47.7976],[5.5181,47.7965],[5.5199,47.7908],[5.5192,47.7900],[5.5217,47.7888],[5.5244,47.7897],[5.5215,47.7945],[5.5232,47.7953],[5.5254,47.7942],[5.5254,47.7956],[5.5271,47.7949],[5.5276,47.7930],[5.5319,47.7915],[5.5308,47.7895],[5.5341,47.7885],[5.5401,47.7954],[5.5366,47.7968],[5.5340,47.7942],[5.5324,47.7944],[5.5324,47.7987],[5.5307,47.7985],[5.5334,47.8017],[5.5326,47.8024],[5.5378,47.8009],[5.5376,47.8029],[5.5440,47.8018],[5.5422,47.8042],[5.5437,47.8050],[5.5429,47.8060],[5.5416,47.8049],[5.5346,47.8062],[5.5356,47.8043],[5.5336,47.8028],[5.5333,47.8058],[5.5343,47.8064],[5.5322,47.8072],[5.5298,47.8059],[5.5289,47.8069],[5.5321,47.8089],[5.5333,47.8087],[5.5316,47.8074],[5.5344,47.8085],[5.5452,47.8068],[5.5635,47.8014]]]}},{"type":"Feature","properties":{"name":"Grande Réserve"},"geometry":{"type":"Polygon","coordinates":[[[4.4811,48.0237],[4.4847,48.0256],[4.4830,48.0255],[4.4836,48.0263],[4.4874,48.0266],[4.4908,48.0287],[4.4905,48.0317],[4.4862,48.0320],[4.4910,48.0353],[4.4928,48.0352],[4.4924,48.0337],[4.4938,48.0330],[4.5045,48.0351],[4.4995,48.0324],[4.5013,48.0306],[4.4996,48.0305],[4.5005,48.0300],[4.4988,48.0270],[4.5004,48.0260],[4.5064,48.0282],[4.5083,48.0275],[4.5191,48.0300],[4.5202,48.0323],[4.5176,48.0334],[4.5301,48.0418],[4.5356,48.0439],[4.5386,48.0530],[4.5426,48.0508],[4.5409,48.0504],[4.5444,48.0478],[4.5463,48.0484],[4.5468,48.0475],[4.5454,48.0468],[4.5468,48.0449],[4.5488,48.0447],[4.5487,48.0477],[4.5502,48.0479],[4.5515,48.0460],[4.5496,48.0440],[4.5533,48.0369],[4.5518,48.0350],[4.5480,48.0383],[4.5466,48.0377],[4.5501,48.0327],[4.5527,48.0254],[4.5520,48.0213],[4.5568,48.0201],[4.5619,48.0231],[4.5626,48.0213],[4.5651,48.0209],[4.5660,48.0275],[4.5716,48.0277],[4.5737,48.0262],[4.5733,48.0276],[4.5803,48.0352],[4.5829,48.0335],[4.5824,48.0314],[4.5777,48.0288],[4.5739,48.0232],[4.5804,48.0128],[4.5780,48.0115],[4.5824,48.0106],[4.5765,48.0115],[4.5793,48.0128],[4.5778,48.0143],[4.5755,48.0134],[4.5753,48.0120],[4.5689,48.0118],[4.5657,48.0136],[4.5688,48.0111],[4.5663,48.0112],[4.5666,48.0122],[4.5640,48.0133],[4.5607,48.0120],[4.5623,48.0135],[4.5609,48.0150],[4.5565,48.0132],[4.5606,48.0104],[4.5648,48.0094],[4.5568,48.0081],[4.5568,48.0068],[4.5597,48.0045],[4.5600,47.9998],[4.5632,47.9976],[4.5602,47.9965],[4.5611,47.9928],[4.5679,47.9961],[4.5705,47.9956],[4.5715,47.9982],[4.5761,47.9967],[4.5729,47.9916],[4.5644,47.9883],[4.5673,47.9865],[4.5667,47.9854],[4.5612,47.9845],[4.5630,47.9795],[4.5649,47.9792],[4.5698,47.9819],[4.5721,47.9812],[4.5754,47.9841],[4.5810,47.9833],[4.5820,47.9853],[4.5862,47.9877],[4.5923,47.9888],[4.5914,47.9878],[4.5936,47.9862],[4.5904,47.9846],[4.5931,47.9839],[4.5952,47.9854],[4.5968,47.9842],[4.5972,47.9810],[4.6004,47.9758],[4.6136,47.9779],[4.6148,47.9765],[4.6168,47.9766],[4.6105,47.9728],[4.6126,47.9719],[4.6262,47.9747],[4.6302,47.9796],[4.6355,47.9814],[4.6371,47.9802],[4.6367,47.9792],[4.6318,47.9754],[4.6358,47.9751],[4.6315,47.9672],[4.6390,47.9675],[4.6384,47.9639],[4.6353,47.9616],[4.6365,47.9597],[4.6354,47.9587],[4.6234,47.9526],[4.6339,47.9567],[4.6330,47.9555],[4.6364,47.9557],[4.6350,47.9532],[4.6369,47.9525],[4.6392,47.9538],[4.6411,47.9501],[4.6334,47.9457],[4.6300,47.9409],[4.6329,47.9394],[4.6300,47.9374],[4.6170,47.9397],[4.6093,47.9377],[4.6018,47.9406],[4.6010,47.9438],[4.5954,47.9455],[4.5933,47.9428],[4.5876,47.9450],[4.5860,47.9393],[4.5808,47.9344],[4.5807,47.9312],[4.5774,47.9278],[4.5751,47.9266],[4.5737,47.9273],[4.5738,47.9264],[4.5678,47.9275],[4.5687,47.9308],[4.5709,47.9326],[4.5769,47.9337],[4.5779,47.9354],[4.5696,47.9341],[4.5740,47.9385],[4.5723,47.9413],[4.5685,47.9436],[4.5629,47.9411],[4.5594,47.9362],[4.5601,47.9341],[4.5585,47.9306],[4.5537,47.9276],[4.5504,47.9274],[4.5485,47.9287],[4.5497,47.9312],[4.5554,47.9334],[4.5513,47.9339],[4.5495,47.9324],[4.5436,47.9324],[4.5435,47.9339],[4.5414,47.9330],[4.5372,47.9353],[4.5359,47.9332],[4.5348,47.9336],[4.5360,47.9361],[4.5388,47.9370],[4.5371,47.9383],[4.5341,47.9366],[4.5339,47.9344],[4.5321,47.9353],[4.5297,47.9335],[4.5349,47.9335],[4.5338,47.9325],[4.5270,47.9330],[4.5422,47.9419],[4.5366,47.9411],[4.5524,47.9481],[4.5491,47.9484],[4.5470,47.9509],[4.5406,47.9498],[4.5410,47.9525],[4.5381,47.9530],[4.5360,47.9553],[4.5423,47.9537],[4.5408,47.9547],[4.5412,47.9558],[4.5395,47.9557],[4.5395,47.9587],[4.5360,47.9593],[4.5363,47.9579],[4.5349,47.9575],[4.5331,47.9589],[4.5335,47.9602],[4.5366,47.9626],[4.5378,47.9656],[4.5404,47.9663],[4.5427,47.9653],[4.5430,47.9668],[4.5469,47.9661],[4.5515,47.9639],[4.5423,47.9682],[4.5382,47.9671],[4.5374,47.9687],[4.5341,47.9695],[4.5243,47.9694],[4.5243,47.9709],[4.5273,47.9728],[4.5331,47.9731],[4.5344,47.9721],[4.5330,47.9755],[4.5370,47.9754],[4.5349,47.9753],[4.5361,47.9736],[4.5475,47.9740],[4.5501,47.9721],[4.5476,47.9707],[4.5457,47.9715],[4.5422,47.9705],[4.5416,47.9719],[4.5433,47.9723],[4.5419,47.9729],[4.5384,47.9718],[4.5399,47.9696],[4.5460,47.9702],[4.5493,47.9695],[4.5491,47.9683],[4.5538,47.9679],[4.5483,47.9706],[4.5506,47.9728],[4.5599,47.9734],[4.5523,47.9741],[4.5548,47.9753],[4.5471,47.9761],[4.5463,47.9778],[4.5402,47.9809],[4.5369,47.9800],[4.5367,47.9816],[4.5272,47.9804],[4.5177,47.9816],[4.5179,47.9829],[4.5226,47.9864],[4.5197,47.9870],[4.5106,47.9843],[4.5107,47.9857],[4.5141,47.9880],[4.5157,47.9874],[4.5189,47.9888],[4.5212,47.9919],[4.5150,47.9900],[4.5099,47.9903],[4.5127,47.9919],[4.5169,47.9915],[4.5200,47.9928],[4.5224,47.9963],[4.5207,47.9983],[4.5195,47.9979],[4.5206,47.9961],[4.5185,47.9944],[4.5085,47.9913],[4.5066,47.9942],[4.5020,47.9929],[4.4960,47.9935],[4.4961,47.9950],[4.4998,47.9961],[4.4991,47.9971],[4.4910,47.9953],[4.4882,47.9975],[4.4891,47.9996],[4.4877,48.0006],[4.4819,47.9978],[4.4763,48.0001],[4.4747,48.0025],[4.4780,48.0069],[4.4747,48.0110],[4.4689,48.0141],[4.4726,48.0157],[4.4682,48.0162],[4.4692,48.0165],[4.4671,48.0175],[4.4729,48.0222],[4.4715,48.0184],[4.4764,48.0190],[4.4811,48.0237]]]}},{"type":"Feature","properties":{"name":"Bois de la Faye"},"geometry":{"type":"Polygon","coordinates":[[[4.8412,47.9401],[4.8425,47.9412],[4.8360,47.9429],[4.8328,47.9418],[4.8335,47.9436],[4.8302,47.9467],[4.8157,47.9458],[4.8296,47.9479],[4.8333,47.9499],[4.8325,47.9510],[4.8259,47.9483],[4.8340,47.9517],[4.8336,47.9536],[4.8345,47.9539],[4.8361,47.9519],[4.8411,47.9534],[4.8400,47.9517],[4.8418,47.9496],[4.8499,47.9529],[4.8546,47.9500],[4.8563,47.9509],[4.8614,47.9504],[4.8595,47.9494],[4.8652,47.9417],[4.8690,47.9432],[4.8703,47.9423],[4.8675,47.9413],[4.8692,47.9411],[4.8673,47.9405],[4.8653,47.9348],[4.8615,47.9324],[4.8632,47.9310],[4.8600,47.9293],[4.8596,47.9276],[4.8561,47.9270],[4.8564,47.9252],[4.8538,47.9273],[4.8556,47.9274],[4.8532,47.9300],[4.8464,47.9282],[4.8470,47.9218],[4.8436,47.9223],[4.8414,47.9247],[4.8429,47.9267],[4.8407,47.9303],[4.8448,47.9340],[4.8418,47.9363],[4.8459,47.9374],[4.8412,47.9401]]]}},{"type":"Feature","properties":{"name":"La Trémont"},"geometry":{"type":"Polygon","coordinates":[[[5.4475,48.4791],[5.4505,48.4836],[5.4499,48.4858],[5.4449,48.4862],[5.4470,48.4865],[5.4432,48.4878],[5.4423,48.4900],[5.4402,48.4904],[5.4325,48.4870],[5.4268,48.4805],[5.4275,48.4773],[5.4309,48.4759],[5.4331,48.4712],[5.4475,48.4791]]]}},{"type":"Feature","properties":{"name":"Forêt communale de Void Vacon"},"geometry":{"type":"Polygon","coordinates":[[[5.6715,48.6880],[5.6766,48.6871],[5.6769,48.6850],[5.6806,48.6838],[5.6838,48.6797],[5.6806,48.6778],[5.6819,48.6714],[5.6770,48.6686],[5.6754,48.6700],[5.6754,48.6685],[5.6745,48.6698],[5.6739,48.6683],[5.6713,48.6678],[5.6740,48.6663],[5.6708,48.6644],[5.6704,48.6614],[5.6676,48.6607],[5.6675,48.6588],[5.6716,48.6561],[5.6842,48.6585],[5.6813,48.6574],[5.6841,48.6577],[5.6729,48.6534],[5.6641,48.6537],[5.6694,48.6518],[5.6682,48.6503],[5.6651,48.6511],[5.6608,48.6482],[5.6614,48.6441],[5.6571,48.6444],[5.6572,48.6427],[5.6560,48.6426],[5.6561,48.6439],[5.6544,48.6432],[5.6537,48.6407],[5.6572,48.6408],[5.6554,48.6358],[5.6507,48.6357],[5.6488,48.6383],[5.6476,48.6348],[5.6438,48.6366],[5.6421,48.6361],[5.6447,48.6303],[5.6358,48.6313],[5.6342,48.6320],[5.6338,48.6347],[5.6314,48.6345],[5.6272,48.6317],[5.6272,48.6298],[5.6311,48.6259],[5.6473,48.6248],[5.6462,48.6221],[5.6412,48.6198],[5.6345,48.6217],[5.6331,48.6205],[5.6327,48.6181],[5.6373,48.6156],[5.6329,48.6119],[5.6313,48.6088],[5.6269,48.6060],[5.6287,48.6037],[5.6287,48.6007],[5.6371,48.6006],[5.6369,48.6018],[5.6425,48.6027],[5.6449,48.6017],[5.6537,48.6037],[5.6537,48.6048],[5.6515,48.6048],[5.6526,48.6078],[5.6509,48.6097],[5.6530,48.6139],[5.6539,48.6094],[5.6555,48.6094],[5.6555,48.6077],[5.6569,48.6078],[5.6570,48.6046],[5.6594,48.6035],[5.6560,48.6034],[5.6567,48.6026],[5.6541,48.6022],[5.6535,48.6004],[5.6507,48.6021],[5.6446,48.5978],[5.6519,48.5966],[5.6496,48.5943],[5.6548,48.5970],[5.6547,48.5956],[5.6499,48.5942],[5.6508,48.5924],[5.6486,48.5914],[5.6488,48.5880],[5.6463,48.5873],[5.6460,48.5894],[5.6426,48.5889],[5.6446,48.5930],[5.6484,48.5947],[5.6454,48.5962],[5.6419,48.5931],[5.6427,48.5960],[5.6398,48.5973],[5.6425,48.5990],[5.6419,48.5998],[5.6310,48.5986],[5.6312,48.5963],[5.6248,48.5989],[5.6213,48.5989],[5.6199,48.5967],[5.6258,48.5952],[5.6241,48.5930],[5.6205,48.5921],[5.6121,48.5910],[5.5960,48.5917],[5.5929,48.5898],[5.5918,48.5906],[5.5934,48.5928],[5.5903,48.5971],[5.5945,48.5997],[5.5871,48.5976],[5.5836,48.6037],[5.5869,48.6039],[5.5838,48.6066],[5.5827,48.6055],[5.5817,48.6063],[5.5845,48.6109],[5.5939,48.6203],[5.5988,48.6337],[5.6031,48.6364],[5.6049,48.6361],[5.6040,48.6367],[5.6054,48.6377],[5.6148,48.6356],[5.6202,48.6363],[5.6287,48.6404],[5.6265,48.6414],[5.6214,48.6408],[5.6151,48.6427],[5.6150,48.6394],[5.6215,48.6398],[5.6174,48.6379],[5.6083,48.6412],[5.6125,48.6489],[5.6117,48.6542],[5.6154,48.6523],[5.6256,48.6518],[5.6242,48.6585],[5.6185,48.6588],[5.6196,48.6568],[5.6192,48.6538],[5.6163,48.6549],[5.6175,48.6562],[5.6130,48.6580],[5.6127,48.6616],[5.6147,48.6677],[5.6175,48.6672],[5.6181,48.6654],[5.6158,48.6627],[5.6166,48.6616],[5.6242,48.6631],[5.6252,48.6646],[5.6223,48.6662],[5.6283,48.6685],[5.6311,48.6634],[5.6352,48.6642],[5.6324,48.6701],[5.6303,48.6696],[5.6292,48.6714],[5.6312,48.6716],[5.6301,48.6736],[5.6317,48.6735],[5.6320,48.6713],[5.6322,48.6735],[5.6353,48.6753],[5.6363,48.6747],[5.6342,48.6681],[5.6372,48.6646],[5.6425,48.6665],[5.6551,48.6656],[5.6535,48.6686],[5.6470,48.6680],[5.6444,48.6716],[5.6462,48.6731],[5.6494,48.6722],[5.6511,48.6745],[5.6496,48.6756],[5.6530,48.6742],[5.6517,48.6741],[5.6521,48.6715],[5.6583,48.6747],[5.6507,48.6792],[5.6507,48.6817],[5.6488,48.6826],[5.6497,48.6829],[5.6389,48.6834],[5.6368,48.6847],[5.6551,48.6850],[5.6556,48.6838],[5.6543,48.6837],[5.6556,48.6827],[5.6610,48.6827],[5.6622,48.6842],[5.6700,48.6855],[5.6694,48.6877],[5.6659,48.6873],[5.6678,48.6883],[5.6715,48.6880]]]}},{"type":"Feature","properties":{"name":"La Fouée Forêt communale de Chalaines"},"geometry":{"type":"Polygon","coordinates":[[[5.7027,48.6025],[5.7083,48.6003],[5.7135,48.5951],[5.7142,48.5897],[5.7164,48.5858],[5.7151,48.5852],[5.7209,48.5799],[5.7200,48.5795],[5.7218,48.5773],[5.7234,48.5705],[5.7192,48.5708],[5.7189,48.5739],[5.7150,48.5737],[5.7131,48.5765],[5.7047,48.5736],[5.6960,48.5746],[5.6937,48.5760],[5.6942,48.5781],[5.7002,48.5807],[5.7022,48.5811],[5.7002,48.5785],[5.7026,48.5793],[5.7032,48.5809],[5.7014,48.5844],[5.7021,48.5887],[5.6990,48.5949],[5.6993,48.5965],[5.7013,48.5967],[5.7017,48.5991],[5.7004,48.6003],[5.7021,48.6011],[5.7008,48.6021],[5.7027,48.6025]]]}},{"type":"Feature","properties":{"name":"Bois de Tréveray"},"geometry":{"type":"Polygon","coordinates":[[[5.3691,48.5992],[5.3702,48.5975],[5.3688,48.5948],[5.3701,48.5943],[5.3717,48.5962],[5.3726,48.5952],[5.3706,48.5928],[5.3719,48.5914],[5.3704,48.5906],[5.3724,48.5894],[5.3731,48.5868],[5.3681,48.5829],[5.3678,48.5838],[5.3651,48.5824],[5.3543,48.5863],[5.3483,48.5867],[5.3489,48.5878],[5.3508,48.5870],[5.3523,48.5879],[5.3505,48.5906],[5.3511,48.5922],[5.3480,48.5935],[5.3445,48.5981],[5.3537,48.6010],[5.3554,48.6036],[5.3608,48.6027],[5.3629,48.6049],[5.3642,48.6047],[5.3632,48.6019],[5.3650,48.6014],[5.3650,48.5988],[5.3668,48.5975],[5.3691,48.5992]]]}},{"type":"Feature","properties":{"name":"Forêt de Lentilles"},"geometry":{"type":"Polygon","coordinates":[[[4.6661,48.5141],[4.6701,48.5135],[4.6698,48.5122],[4.6612,48.5103],[4.6548,48.5054],[4.6515,48.5044],[4.6517,48.5009],[4.6495,48.4979],[4.6428,48.4941],[4.6513,48.4955],[4.6573,48.4926],[4.6545,48.4904],[4.6486,48.4904],[4.6424,48.4879],[4.6439,48.4860],[4.6411,48.4860],[4.6395,48.4874],[4.6319,48.4846],[4.6320,48.4859],[4.6277,48.4867],[4.6303,48.4899],[4.6296,48.4904],[4.6246,48.4916],[4.6239,48.4886],[4.6195,48.4892],[4.6205,48.4900],[4.6189,48.4919],[4.6215,48.4953],[4.6190,48.4965],[4.6198,48.5001],[4.6161,48.4999],[4.6200,48.5005],[4.6232,48.5035],[4.6256,48.5035],[4.6245,48.5059],[4.6289,48.5076],[4.6289,48.5094],[4.6321,48.5121],[4.6306,48.5130],[4.6325,48.5141],[4.6323,48.5154],[4.6402,48.5178],[4.6402,48.5197],[4.6450,48.5193],[4.6429,48.5175],[4.6488,48.5166],[4.6485,48.5185],[4.6507,48.5184],[4.6524,48.5159],[4.6556,48.5157],[4.6567,48.5177],[4.6604,48.5177],[4.6610,48.5190],[4.6613,48.5178],[4.6645,48.5172],[4.6638,48.5136],[4.6661,48.5141]]]}},{"type":"Feature","properties":{"name":"Bois Vauguyot"},"geometry":{"type":"Polygon","coordinates":[[[5.5096,48.6895],[5.5151,48.6855],[5.5102,48.6856],[5.5096,48.6841],[5.5028,48.6810],[5.4993,48.6813],[5.4979,48.6834],[5.4923,48.6828],[5.4917,48.6842],[5.4896,48.6841],[5.4884,48.6889],[5.4909,48.6918],[5.4967,48.6949],[5.5102,48.6987],[5.5050,48.6963],[5.5040,48.6956],[5.5055,48.6951],[5.5020,48.6929],[5.5080,48.6928],[5.5096,48.6895]]]}},{"type":"Feature","properties":{"name":"Forêt domaniale de Mathons"},"geometry":{"type":"Polygon","coordinates":[[[5.0547,48.4113],[5.0543,48.4092],[5.0573,48.4056],[5.0627,48.4074],[5.0644,48.4029],[5.0484,48.4017],[5.0382,48.3964],[5.0329,48.3912],[5.0219,48.4016],[5.0173,48.4028],[5.0098,48.4011],[5.0085,48.4029],[5.0118,48.4036],[5.0118,48.4172],[5.0205,48.4190],[5.0325,48.4158],[5.0354,48.4166],[5.0472,48.4157],[5.0552,48.4121],[5.0547,48.4113]]]}},{"type":"Feature","properties":{"name":"Forêt Domaniale de Montiers sur Saulx"},"geometry":{"type":"Polygon","coordinates":[[[5.2885,48.5599],[5.3196,48.5621],[5.3276,48.5486],[5.3317,48.5339],[5.3460,48.5306],[5.3470,48.5272],[5.3446,48.5227],[5.3455,48.5193],[5.3304,48.5230],[5.3278,48.5226],[5.3253,48.5152],[5.3202,48.5148],[5.3162,48.5164],[5.3081,48.5133],[5.3063,48.5152],[5.2881,48.5174],[5.2917,48.5246],[5.2911,48.5289],[5.2775,48.5346],[5.2806,48.5374],[5.2806,48.5407],[5.2831,48.5462],[5.2772,48.5585],[5.2885,48.5599]]]}},{"type":"Feature","properties":{"name":"Forêt Communale de Morley"},"geometry":{"type":"Polygon","coordinates":[[[5.2120,48.5830],[5.1908,48.5722],[5.2123,48.5532],[5.2194,48.5560],[5.2190,48.5653],[5.2163,48.5673],[5.2262,48.5725],[5.2229,48.5728],[5.2208,48.5765],[5.2233,48.5778],[5.2333,48.5765],[5.2379,48.5776],[5.2374,48.5812],[5.2288,48.5833],[5.2217,48.5842],[5.2120,48.5830]]]}},{"type":"Feature","properties":{"name":"Forêt de Grammont"},"geometry":{"type":"Polygon","coordinates":[[[5.3088,48.5314],[5.3195,48.5366],[5.3273,48.5378],[5.3312,48.5335],[5.3456,48.5302],[5.3464,48.5272],[5.3438,48.5227],[5.3450,48.5197],[5.3301,48.5233],[5.3270,48.5229],[5.3261,48.5205],[5.3070,48.5221],[5.3088,48.5314]]]}},{"type":"Feature","properties":{"name":"Le Haut Bois"},"geometry":{"type":"Polygon","coordinates":[[[5.5217,48.6293],[5.5282,48.6304],[5.5310,48.6296],[5.5330,48.6326],[5.5428,48.6360],[5.5485,48.6341],[5.5500,48.6312],[5.5488,48.6304],[5.5515,48.6267],[5.5523,48.6224],[5.5502,48.6218],[5.5516,48.6187],[5.5493,48.6191],[5.5485,48.6177],[5.5521,48.6166],[5.5517,48.6153],[5.5417,48.6138],[5.5325,48.6168],[5.5271,48.6169],[5.5245,48.6197],[5.5232,48.6256],[5.5215,48.6261],[5.5230,48.6266],[5.5224,48.6276],[5.5208,48.6271],[5.5217,48.6293]]]}},{"type":"Feature","properties":{"name":"Bois de Laneuville aux Rupt"},"geometry":{"type":"Polygon","coordinates":[[[5.5580,48.7223],[5.5679,48.7289],[5.5738,48.7310],[5.5873,48.7293],[5.5869,48.7237],[5.5852,48.7221],[5.5907,48.7195],[5.5848,48.7170],[5.5762,48.7179],[5.5700,48.7167],[5.5673,48.7140],[5.5562,48.7104],[5.5489,48.7108],[5.5519,48.7133],[5.5462,48.7147],[5.5437,48.7183],[5.5580,48.7223]]]}},{"type":"Feature","properties":{"name":"Bois de Pagny"},"geometry":{"type":"Polygon","coordinates":[[[5.7610,48.5221],[5.7451,48.5260],[5.7448,48.5296],[5.7402,48.5318],[5.7416,48.5321],[5.7411,48.5329],[5.7433,48.5321],[5.7409,48.5343],[5.7452,48.5381],[5.7371,48.5446],[5.7418,48.5492],[5.7405,48.5496],[5.7445,48.5497],[5.7454,48.5510],[5.7490,48.5501],[5.7480,48.5488],[5.7519,48.5458],[5.7548,48.5466],[5.7532,48.5455],[5.7550,48.5434],[5.7531,48.5429],[5.7515,48.5366],[5.7485,48.5334],[5.7472,48.5342],[5.7436,48.5332],[5.7451,48.5318],[5.7439,48.5319],[5.7527,48.5292],[5.7529,48.5306],[5.7555,48.5298],[5.7556,48.5308],[5.7529,48.5358],[5.7532,48.5389],[5.7590,48.5451],[5.7631,48.5446],[5.7636,48.5431],[5.7674,48.5444],[5.7685,48.5443],[5.7679,48.5431],[5.7759,48.5419],[5.7765,48.5381],[5.7743,48.5354],[5.7663,48.5354],[5.7610,48.5221]]]}},{"type":"Feature","properties":{"name":"Forêt communale de Sauvigny"},"geometry":{"type":"Polygon","coordinates":[[[5.7417,48.5077],[5.7420,48.5063],[5.7435,48.5074],[5.7464,48.5065],[5.7473,48.5047],[5.7504,48.5053],[5.7501,48.5040],[5.7529,48.4998],[5.7418,48.4955],[5.7310,48.4943],[5.7301,48.4933],[5.7312,48.4920],[5.7331,48.4916],[5.7413,48.4944],[5.7485,48.4944],[5.7512,48.4965],[5.7493,48.4938],[5.7422,48.4925],[5.7395,48.4895],[5.7486,48.4911],[5.7494,48.4901],[5.7472,48.4853],[5.7509,48.4847],[5.7553,48.4918],[5.7650,48.4966],[5.7659,48.5047],[5.7621,48.5102],[5.7627,48.5144],[5.7617,48.5156],[5.7417,48.5077]]]}},{"type":"Feature","properties":{"name":"Forêt domaniale de Vau"},"geometry":{"type":"Polygon","coordinates":[[[5.6192,48.5446],[5.6212,48.5427],[5.6272,48.5417],[5.6269,48.5405],[5.6289,48.5389],[5.6269,48.5376],[5.6286,48.5344],[5.6296,48.5360],[5.6294,48.5337],[5.6332,48.5326],[5.6316,48.5322],[5.6332,48.5320],[5.6270,48.5271],[5.6376,48.5305],[5.6384,48.5312],[5.6374,48.5328],[5.6395,48.5329],[5.6397,48.5303],[5.6299,48.5261],[5.6259,48.5260],[5.6283,48.5245],[5.6278,48.5225],[5.6236,48.5260],[5.6209,48.5221],[5.6165,48.5208],[5.6165,48.5198],[5.6153,48.5207],[5.6171,48.5213],[5.6158,48.5236],[5.6198,48.5264],[5.6183,48.5272],[5.6137,48.5251],[5.6126,48.5263],[5.6138,48.5272],[5.6111,48.5292],[5.6236,48.5332],[5.6220,48.5365],[5.6158,48.5353],[5.6167,48.5335],[5.6064,48.5314],[5.6063,48.5333],[5.6027,48.5352],[5.5986,48.5350],[5.6007,48.5311],[5.6059,48.5315],[5.6058,48.5294],[5.6018,48.5278],[5.5990,48.5287],[5.5915,48.5251],[5.5880,48.5220],[5.5870,48.5184],[5.5889,48.5163],[5.5910,48.5163],[5.5903,48.5143],[5.5914,48.5134],[5.5942,48.5161],[5.5976,48.5169],[5.5979,48.5140],[5.5843,48.5111],[5.5813,48.5125],[5.5739,48.5119],[5.5714,48.5107],[5.5728,48.5105],[5.5718,48.5096],[5.5760,48.5097],[5.5820,48.5076],[5.5861,48.5032],[5.6023,48.5012],[5.6036,48.5003],[5.6019,48.4979],[5.6030,48.4957],[5.6039,48.4974],[5.6081,48.4976],[5.6179,48.5018],[5.6234,48.5005],[5.6163,48.4976],[5.6172,48.4921],[5.6140,48.4895],[5.6093,48.4891],[5.6055,48.4945],[5.5966,48.4905],[5.5984,48.4896],[5.5964,48.4903],[5.5962,48.4886],[5.5921,48.4893],[5.5937,48.4879],[5.5931,48.4867],[5.5946,48.4865],[5.5900,48.4841],[5.5909,48.4829],[5.5887,48.4808],[5.5917,48.4798],[5.5896,48.4776],[5.5949,48.4720],[5.5977,48.4712],[5.5987,48.4666],[5.6014,48.4672],[5.5928,48.4628],[5.5951,48.4604],[5.5937,48.4593],[5.5945,48.4577],[5.5915,48.4569],[5.5869,48.4598],[5.5846,48.4582],[5.5816,48.4585],[5.5825,48.4605],[5.5792,48.4599],[5.5776,48.4624],[5.5712,48.4641],[5.5691,48.4640],[5.5659,48.4612],[5.5663,48.4601],[5.5800,48.4583],[5.5811,48.4523],[5.5830,48.4520],[5.5796,48.4506],[5.5820,48.4482],[5.5804,48.4470],[5.5861,48.4447],[5.5873,48.4428],[5.5857,48.4422],[5.5866,48.4416],[5.5909,48.4423],[5.5897,48.4413],[5.5910,48.4401],[5.5894,48.4380],[5.5850,48.4343],[5.5826,48.4340],[5.5822,48.4323],[5.5782,48.4350],[5.5694,48.4367],[5.5704,48.4390],[5.5746,48.4401],[5.5611,48.4381],[5.5489,48.4384],[5.5443,48.4346],[5.5334,48.4325],[5.5348,48.4377],[5.5341,48.4386],[5.5398,48.4431],[5.5445,48.4437],[5.5382,48.4473],[5.5341,48.4475],[5.5342,48.4484],[5.5373,48.4502],[5.5425,48.4501],[5.5483,48.4476],[5.5501,48.4497],[5.5469,48.4528],[5.5400,48.4562],[5.5300,48.4513],[5.5262,48.4481],[5.5195,48.4475],[5.5186,48.4477],[5.5202,48.4496],[5.5279,48.4493],[5.5296,48.4526],[5.5289,48.4541],[5.5315,48.4559],[5.5292,48.4561],[5.5285,48.4577],[5.5272,48.4568],[5.5269,48.4587],[5.5250,48.4572],[5.5173,48.4559],[5.5158,48.4543],[5.5132,48.4561],[5.5125,48.4576],[5.5134,48.4587],[5.5170,48.4580],[5.5303,48.4636],[5.5357,48.4619],[5.5435,48.4626],[5.5480,48.4612],[5.5495,48.4617],[5.5526,48.4664],[5.5503,48.4684],[5.5507,48.4694],[5.5660,48.4692],[5.5690,48.4715],[5.5647,48.4748],[5.5588,48.4719],[5.5553,48.4736],[5.5489,48.4726],[5.5466,48.4751],[5.5369,48.4743],[5.5201,48.4705],[5.5157,48.4714],[5.5146,48.4747],[5.5091,48.4762],[5.5025,48.4764],[5.4994,48.4749],[5.4974,48.4760],[5.4978,48.4782],[5.5024,48.4867],[5.5021,48.4902],[5.4984,48.4923],[5.4983,48.4942],[5.5041,48.4954],[5.5100,48.5000],[5.5119,48.4996],[5.5099,48.4975],[5.5134,48.4948],[5.5106,48.4955],[5.5102,48.4934],[5.5124,48.4924],[5.5153,48.4930],[5.5137,48.4902],[5.5170,48.4888],[5.5171,48.4902],[5.5196,48.4906],[5.5194,48.4924],[5.5221,48.4930],[5.5206,48.4947],[5.5268,48.4928],[5.5324,48.4964],[5.5229,48.5029],[5.5188,48.5042],[5.5242,48.5057],[5.5130,48.5053],[5.5126,48.5111],[5.5146,48.5112],[5.5135,48.5108],[5.5138,48.5070],[5.5189,48.5072],[5.5217,48.5091],[5.5213,48.5062],[5.5254,48.5067],[5.5265,48.5085],[5.5295,48.5091],[5.5285,48.5079],[5.5295,48.5077],[5.5322,48.5099],[5.5332,48.5086],[5.5318,48.5072],[5.5332,48.5062],[5.5358,48.5069],[5.5365,48.5056],[5.5441,48.5083],[5.5457,48.5078],[5.5473,48.5095],[5.5470,48.5111],[5.5616,48.5104],[5.5523,48.5122],[5.5526,48.5137],[5.5479,48.5186],[5.5497,48.5180],[5.5447,48.5237],[5.5444,48.5257],[5.5399,48.5292],[5.5445,48.5278],[5.5474,48.5291],[5.5454,48.5275],[5.5492,48.5290],[5.5592,48.5288],[5.5617,48.5267],[5.5671,48.5284],[5.5676,48.5309],[5.5717,48.5336],[5.5770,48.5301],[5.5745,48.5324],[5.5755,48.5328],[5.5751,48.5343],[5.5736,48.5335],[5.5743,48.5349],[5.5708,48.5352],[5.5704,48.5375],[5.5774,48.5391],[5.5802,48.5366],[5.5855,48.5385],[5.5932,48.5362],[5.6043,48.5389],[5.6060,48.5416],[5.6192,48.5446]]]}},{"type":"Feature","properties":{"name":"Forêt du Val"},"geometry":{"type":"Polygon","coordinates":[[[4.9828,48.6224],[4.9864,48.6221],[4.9905,48.6247],[4.9866,48.6218],[4.9830,48.6217],[4.9819,48.6201],[4.9856,48.6196],[4.9920,48.6222],[4.9885,48.6173],[4.9894,48.6150],[4.9932,48.6144],[4.9851,48.6048],[4.9899,48.6026],[4.9942,48.6060],[5.0019,48.6027],[5.0050,48.6029],[5.0062,48.6038],[5.0063,48.6065],[5.0091,48.6074],[5.0129,48.6060],[5.0106,48.6051],[5.0118,48.6044],[5.0089,48.6037],[5.0122,48.6034],[5.0135,48.5993],[5.0180,48.5988],[5.0150,48.5970],[5.0162,48.5960],[5.0150,48.5909],[5.0211,48.5859],[5.0227,48.5828],[5.0229,48.5786],[5.0185,48.5764],[5.0204,48.5735],[5.0198,48.5709],[5.0279,48.5708],[5.0289,48.5672],[5.0255,48.5643],[5.0261,48.5625],[5.0371,48.5564],[5.0370,48.5545],[5.0351,48.5525],[5.0315,48.5517],[5.0300,48.5469],[5.0222,48.5454],[5.0237,48.5465],[5.0226,48.5481],[5.0207,48.5471],[5.0214,48.5461],[5.0190,48.5453],[5.0169,48.5475],[5.0197,48.5495],[5.0205,48.5485],[5.0233,48.5492],[5.0251,48.5483],[5.0197,48.5526],[5.0141,48.5525],[5.0069,48.5500],[5.0008,48.5510],[5.0005,48.5485],[4.9950,48.5464],[4.9939,48.5435],[4.9964,48.5418],[4.9962,48.5387],[5.0012,48.5375],[5.0030,48.5353],[4.9908,48.5295],[4.9868,48.5302],[4.9851,48.5271],[4.9827,48.5263],[4.9844,48.5244],[4.9822,48.5240],[4.9843,48.5228],[4.9812,48.5214],[4.9801,48.5195],[4.9809,48.5192],[4.9756,48.5204],[4.9745,48.5199],[4.9753,48.5185],[4.9740,48.5183],[4.9731,48.5205],[4.9685,48.5204],[4.9705,48.5180],[4.9737,48.5182],[4.9723,48.5173],[4.9728,48.5154],[4.9745,48.5157],[4.9747,48.5146],[4.9690,48.5125],[4.9694,48.5095],[4.9682,48.5079],[4.9655,48.5081],[4.9660,48.5067],[4.9603,48.5066],[4.9555,48.5044],[4.9536,48.5064],[4.9566,48.5079],[4.9556,48.5102],[4.9535,48.5095],[4.9524,48.5129],[4.9491,48.5115],[4.9479,48.5138],[4.9507,48.5149],[4.9486,48.5145],[4.9469,48.5159],[4.9501,48.5177],[4.9545,48.5167],[4.9605,48.5173],[4.9620,48.5161],[4.9637,48.5163],[4.9634,48.5174],[4.9657,48.5172],[4.9617,48.5213],[4.9627,48.5220],[4.9619,48.5246],[4.9602,48.5239],[4.9602,48.5251],[4.9556,48.5274],[4.9563,48.5292],[4.9592,48.5289],[4.9641,48.5313],[4.9650,48.5332],[4.9550,48.5391],[4.9523,48.5383],[4.9429,48.5397],[4.9405,48.5380],[4.9391,48.5408],[4.9242,48.5473],[4.9289,48.5478],[4.9296,48.5468],[4.9264,48.5466],[4.9324,48.5451],[4.9318,48.5484],[4.9359,48.5505],[4.9343,48.5560],[4.9276,48.5573],[4.9326,48.5566],[4.9353,48.5584],[4.9300,48.5591],[4.9296,48.5608],[4.9324,48.5650],[4.9312,48.5661],[4.9292,48.5649],[4.9259,48.5651],[4.9286,48.5668],[4.9207,48.5692],[4.9218,48.5696],[4.9219,48.5724],[4.9237,48.5700],[4.9259,48.5709],[4.9224,48.5731],[4.9245,48.5750],[4.9216,48.5768],[4.9212,48.5796],[4.9219,48.5816],[4.9259,48.5833],[4.9261,48.5849],[4.9213,48.5849],[4.9202,48.5878],[4.9116,48.5897],[4.9147,48.5922],[4.9140,48.5934],[4.9096,48.5922],[4.9136,48.5946],[4.9092,48.5930],[4.9115,48.5946],[4.9085,48.5954],[4.9126,48.5964],[4.9136,48.5988],[4.9095,48.6010],[4.9050,48.6003],[4.9049,48.5990],[4.9014,48.6002],[4.8960,48.5946],[4.8958,48.5985],[4.9039,48.6030],[4.9018,48.6057],[4.8950,48.6017],[4.8905,48.6048],[4.8930,48.6065],[4.8904,48.6079],[4.8670,48.6104],[4.8700,48.6132],[4.8810,48.6138],[4.8838,48.6112],[4.8890,48.6122],[4.8896,48.6114],[4.8921,48.6143],[4.8909,48.6149],[4.8934,48.6162],[4.8985,48.6142],[4.8990,48.6152],[4.9063,48.6145],[4.9044,48.6138],[4.9042,48.6097],[4.9047,48.6104],[4.9050,48.6077],[4.9065,48.6075],[4.9088,48.6080],[4.9088,48.6091],[4.9119,48.6084],[4.9131,48.6092],[4.9116,48.6086],[4.9112,48.6102],[4.9138,48.6107],[4.9110,48.6112],[4.9120,48.6135],[4.9098,48.6128],[4.9095,48.6151],[4.9142,48.6151],[4.9137,48.6140],[4.9163,48.6154],[4.9185,48.6146],[4.9190,48.6164],[4.9380,48.6215],[4.9376,48.6207],[4.9410,48.6202],[4.9415,48.6181],[4.9382,48.6146],[4.9404,48.6136],[4.9484,48.6140],[4.9484,48.6081],[4.9539,48.6080],[4.9545,48.6153],[4.9529,48.6161],[4.9534,48.6179],[4.9551,48.6179],[4.9534,48.6180],[4.9534,48.6201],[4.9550,48.6202],[4.9591,48.6171],[4.9577,48.6129],[4.9628,48.6108],[4.9647,48.6050],[4.9740,48.6035],[4.9787,48.6040],[4.9821,48.6073],[4.9764,48.6110],[4.9780,48.6128],[4.9832,48.6135],[4.9820,48.6155],[4.9771,48.6173],[4.9752,48.6141],[4.9706,48.6136],[4.9717,48.6114],[4.9635,48.6109],[4.9636,48.6118],[4.9649,48.6158],[4.9674,48.6178],[4.9679,48.6217],[4.9716,48.6213],[4.9729,48.6257],[4.9765,48.6234],[4.9828,48.6224]]]}},{"type":"Feature","properties":{"name":"Forêt Domaniale du Haut Juré"},"geometry":{"type":"Polygon","coordinates":[[[5.1322,48.7022],[5.1378,48.7043],[5.1405,48.7038],[5.1410,48.7049],[5.1421,48.7005],[5.1485,48.7007],[5.1572,48.7026],[5.1616,48.7075],[5.1616,48.7087],[5.1577,48.7081],[5.1590,48.7090],[5.1577,48.7100],[5.1585,48.7115],[5.1560,48.7114],[5.1568,48.7125],[5.1547,48.7141],[5.1580,48.7166],[5.1570,48.7191],[5.1582,48.7202],[5.1579,48.7220],[5.1555,48.7234],[5.1568,48.7247],[5.1555,48.7270],[5.1559,48.7312],[5.1622,48.7334],[5.1635,48.7318],[5.1694,48.7337],[5.1697,48.7348],[5.1651,48.7369],[5.1622,48.7421],[5.1644,48.7478],[5.1678,48.7495],[5.1672,48.7508],[5.1518,48.7503],[5.1479,48.7461],[5.1405,48.7514],[5.1434,48.7527],[5.1402,48.7577],[5.1374,48.7565],[5.1366,48.7574],[5.1385,48.7582],[5.1305,48.7549],[5.1297,48.7535],[5.1307,48.7514],[5.1351,48.7499],[5.1348,48.7457],[5.1373,48.7442],[5.1362,48.7404],[5.1346,48.7394],[5.1365,48.7352],[5.1358,48.7319],[5.1332,48.7290],[5.1329,48.7279],[5.1344,48.7271],[5.1325,48.7240],[5.1245,48.7221],[5.1295,48.7142],[5.1320,48.7125],[5.1269,48.7049],[5.1322,48.7022]]]}},{"type":"Feature","properties":{"name":"Forêt Domaniale de Ligny en Barrois"},"geometry":{"type":"Polygon","coordinates":[[[5.2638,48.6459],[5.2641,48.6431],[5.2616,48.6426],[5.2641,48.6392],[5.2626,48.6380],[5.2655,48.6377],[5.2634,48.6374],[5.2648,48.6343],[5.2583,48.6302],[5.2607,48.6302],[5.2648,48.6338],[5.2664,48.6326],[5.2609,48.6281],[5.2599,48.6259],[5.2520,48.6231],[5.2516,48.6209],[5.2582,48.6203],[5.2531,48.6155],[5.2406,48.6100],[5.2442,48.6070],[5.2415,48.6057],[5.2464,48.6043],[5.2471,48.6023],[5.2491,48.6020],[5.2476,48.6023],[5.2472,48.6045],[5.2498,48.6028],[5.2529,48.6029],[5.2561,48.6003],[5.2647,48.5979],[5.2651,48.5961],[5.2717,48.5949],[5.2631,48.5938],[5.2713,48.5933],[5.2724,48.5901],[5.2715,48.5887],[5.2741,48.5880],[5.2722,48.5913],[5.2739,48.5913],[5.2749,48.5930],[5.2744,48.5886],[5.2753,48.5892],[5.2769,48.5851],[5.2789,48.5858],[5.2838,48.5835],[5.2826,48.5824],[5.2845,48.5811],[5.2857,48.5806],[5.2896,48.5827],[5.2879,48.5830],[5.2907,48.5847],[5.2921,48.5837],[5.2916,48.5827],[5.2928,48.5845],[5.2923,48.5866],[5.2965,48.5892],[5.2972,48.5954],[5.2997,48.5977],[5.2987,48.5986],[5.2961,48.5979],[5.2966,48.5998],[5.2951,48.6003],[5.2956,48.6012],[5.2945,48.6005],[5.2913,48.6025],[5.2890,48.6025],[5.2896,48.6066],[5.2902,48.6051],[5.2943,48.6062],[5.2953,48.6044],[5.3023,48.6102],[5.2966,48.6079],[5.2942,48.6086],[5.2938,48.6107],[5.2954,48.6108],[5.2934,48.6123],[5.2961,48.6139],[5.2918,48.6143],[5.2921,48.6159],[5.2953,48.6161],[5.2952,48.6171],[5.2913,48.6176],[5.2898,48.6196],[5.2873,48.6199],[5.2811,48.6191],[5.2770,48.6208],[5.2756,48.6235],[5.2776,48.6241],[5.2762,48.6249],[5.2770,48.6256],[5.2812,48.6276],[5.2800,48.6286],[5.2835,48.6300],[5.2858,48.6341],[5.2919,48.6329],[5.2898,48.6340],[5.2912,48.6356],[5.2922,48.6351],[5.2997,48.6386],[5.3006,48.6375],[5.2988,48.6367],[5.3032,48.6354],[5.3012,48.6365],[5.3035,48.6373],[5.3067,48.6354],[5.3095,48.6368],[5.3082,48.6395],[5.3061,48.6391],[5.3034,48.6414],[5.2979,48.6417],[5.2974,48.6426],[5.2987,48.6435],[5.2972,48.6444],[5.2996,48.6465],[5.2960,48.6455],[5.2928,48.6468],[5.2969,48.6528],[5.2953,48.6520],[5.2919,48.6532],[5.2938,48.6541],[5.2956,48.6525],[5.2947,48.6537],[5.2981,48.6555],[5.3047,48.6627],[5.3108,48.6655],[5.3116,48.6667],[5.3101,48.6692],[5.3113,48.6709],[5.3083,48.6713],[5.3099,48.6769],[5.3048,48.6740],[5.3047,48.6711],[5.3034,48.6748],[5.3090,48.6794],[5.3081,48.6801],[5.3128,48.6827],[5.3105,48.6831],[5.3052,48.6801],[5.3021,48.6759],[5.2961,48.6724],[5.2600,48.6624],[5.2604,48.6617],[5.2539,48.6608],[5.2523,48.6560],[5.2539,48.6490],[5.2622,48.6483],[5.2632,48.6471],[5.2612,48.6463],[5.2632,48.6470],[5.2638,48.6459]]]}},{"type":"Feature","properties":{"name":"Forêt domaniale d\u0027Ageville"},"geometry":{"type":"Polygon","coordinates":[[[5.2752,48.1260],[5.2760,48.1277],[5.2832,48.1286],[5.2858,48.1271],[5.2981,48.1243],[5.2993,48.1260],[5.3104,48.1235],[5.3303,48.1217],[5.3248,48.1195],[5.3256,48.1187],[5.3242,48.1177],[5.3204,48.1174],[5.3200,48.1164],[5.3244,48.1139],[5.3172,48.1067],[5.3129,48.1047],[5.3114,48.1063],[5.3092,48.1047],[5.3072,48.1075],[5.2933,48.1117],[5.2789,48.1185],[5.2746,48.1242],[5.2752,48.1260]]]}},{"type":"Feature","properties":{"name":"Forêt Communale de Jainvillotte"},"geometry":{"type":"Polygon","coordinates":[[[5.6964,48.2737],[5.6952,48.2746],[5.6965,48.2758],[5.7042,48.2786],[5.6998,48.2824],[5.7091,48.2855],[5.7108,48.2819],[5.7087,48.2811],[5.7067,48.2822],[5.7041,48.2805],[5.7106,48.2758],[5.7126,48.2775],[5.7090,48.2792],[5.7134,48.2805],[5.7143,48.2822],[5.7123,48.2838],[5.7132,48.2856],[5.7117,48.2872],[5.7139,48.2900],[5.7132,48.2930],[5.7198,48.2898],[5.7190,48.2851],[5.7219,48.2844],[5.7194,48.2781],[5.7209,48.2759],[5.7304,48.2840],[5.7320,48.2865],[5.7305,48.2891],[5.7325,48.2904],[5.7332,48.2862],[5.7299,48.2772],[5.7326,48.2719],[5.7310,48.2678],[5.7329,48.2627],[5.7322,48.2632],[5.7316,48.2613],[5.7344,48.2603],[5.7373,48.2533],[5.7362,48.2510],[5.7394,48.2512],[5.7428,48.2440],[5.7448,48.2433],[5.7472,48.2451],[5.7471,48.2439],[5.7519,48.2419],[5.7507,48.2414],[5.7522,48.2405],[5.7527,48.2372],[5.7497,48.2312],[5.7557,48.2288],[5.7546,48.2298],[5.7525,48.2282],[5.7490,48.2281],[5.7465,48.2285],[5.7513,48.2289],[5.7433,48.2301],[5.7425,48.2394],[5.7278,48.2401],[5.7263,48.2427],[5.7273,48.2464],[5.7228,48.2454],[5.7220,48.2466],[5.7194,48.2452],[5.7144,48.2457],[5.7150,48.2467],[5.7119,48.2481],[5.7107,48.2526],[5.7054,48.2541],[5.7040,48.2559],[5.7038,48.2590],[5.7020,48.2591],[5.7023,48.2651],[5.6986,48.2701],[5.7002,48.2739],[5.6964,48.2737]]]}},{"type":"Feature","properties":{"name":"Forêt de Soulaines"},"geometry":{"type":"Polygon","coordinates":[[[4.6138,48.3551],[4.6175,48.3544],[4.6174,48.3564],[4.6140,48.3552],[4.6131,48.3559],[4.6230,48.3589],[4.6275,48.3639],[4.6314,48.3628],[4.6305,48.3611],[4.6318,48.3604],[4.6304,48.3595],[4.6315,48.3589],[4.6361,48.3594],[4.6366,48.3604],[4.6327,48.3627],[4.6354,48.3658],[4.6350,48.3699],[4.6408,48.3709],[4.6452,48.3690],[4.6494,48.3688],[4.6462,48.3716],[4.6483,48.3714],[4.6514,48.3744],[4.6410,48.3765],[4.6411,48.3774],[4.6451,48.3767],[4.6461,48.3786],[4.6497,48.3788],[4.6500,48.3806],[4.6494,48.3816],[4.6428,48.3810],[4.6424,48.3827],[4.6480,48.3848],[4.6487,48.3875],[4.6463,48.3876],[4.6473,48.3913],[4.6361,48.3903],[4.6414,48.3985],[4.6400,48.4003],[4.6308,48.4010],[4.6293,48.4021],[4.6307,48.4039],[4.6225,48.4039],[4.6230,48.4070],[4.6283,48.4073],[4.6268,48.4104],[4.6202,48.4092],[4.6210,48.4059],[4.6160,48.4050],[4.6157,48.4079],[4.6130,48.4082],[4.6126,48.4091],[4.6161,48.4101],[4.6201,48.4094],[4.6226,48.4141],[4.6220,48.4164],[4.6238,48.4192],[4.6234,48.4209],[4.6198,48.4201],[4.6195,48.4188],[4.6179,48.4209],[4.6196,48.4231],[4.6221,48.4238],[4.6224,48.4254],[4.6188,48.4247],[4.6181,48.4260],[4.6273,48.4283],[4.6180,48.4271],[4.6164,48.4297],[4.6195,48.4297],[4.6209,48.4321],[4.6176,48.4319],[4.6171,48.4335],[4.6186,48.4338],[4.6165,48.4353],[4.6194,48.4360],[4.6162,48.4368],[4.6269,48.4382],[4.6234,48.4371],[4.6276,48.4366],[4.6280,48.4343],[4.6294,48.4367],[4.6294,48.4347],[4.6311,48.4334],[4.6309,48.4369],[4.6325,48.4369],[4.6326,48.4328],[4.6346,48.4328],[4.6342,48.4346],[4.6390,48.4341],[4.6370,48.4313],[4.6330,48.4307],[4.6371,48.4302],[4.6269,48.4295],[4.6287,48.4256],[4.6292,48.4273],[4.6319,48.4276],[4.6321,48.4266],[4.6296,48.4256],[4.6333,48.4259],[4.6333,48.4249],[4.6313,48.4249],[4.6334,48.4241],[4.6311,48.4225],[4.6333,48.4229],[4.6349,48.4213],[4.6415,48.4236],[4.6449,48.4228],[4.6418,48.4188],[4.6457,48.4186],[4.6441,48.4179],[4.6443,48.4159],[4.6476,48.4162],[4.6491,48.4189],[4.6516,48.4190],[4.6493,48.4186],[4.6485,48.4164],[4.6541,48.4197],[4.6558,48.4186],[4.6552,48.4161],[4.6509,48.4159],[4.6506,48.4141],[4.6484,48.4146],[4.6466,48.4130],[4.6471,48.4121],[4.6553,48.4118],[4.6550,48.4128],[4.6561,48.4129],[4.6596,48.4116],[4.6652,48.4141],[4.6639,48.4161],[4.6648,48.4181],[4.6701,48.4209],[4.6683,48.4233],[4.6715,48.4238],[4.6732,48.4261],[4.6788,48.4293],[4.6816,48.4296],[4.6902,48.4248],[4.6901,48.4260],[4.6921,48.4271],[4.6940,48.4237],[4.6965,48.4242],[4.6971,48.4233],[4.6920,48.4218],[4.6920,48.4201],[4.6940,48.4188],[4.7009,48.4210],[4.7008,48.4186],[4.6963,48.4158],[4.6975,48.4138],[4.6996,48.4152],[4.7064,48.4122],[4.7151,48.4157],[4.7164,48.4150],[4.7190,48.4177],[4.7207,48.4177],[4.7173,48.4125],[4.7201,48.4117],[4.7188,48.4106],[4.7204,48.4086],[4.7196,48.4072],[4.7229,48.4064],[4.7242,48.4087],[4.7282,48.4085],[4.7258,48.4106],[4.7268,48.4111],[4.7313,48.4102],[4.7334,48.4081],[4.7318,48.4059],[4.7337,48.4053],[4.7339,48.4026],[4.7280,48.3961],[4.7362,48.3966],[4.7375,48.3947],[4.7366,48.3930],[4.7311,48.3937],[4.7240,48.3894],[4.7353,48.3903],[4.7334,48.3874],[4.7289,48.3877],[4.7302,48.3837],[4.7242,48.3815],[4.7200,48.3837],[4.7251,48.3794],[4.7239,48.3788],[4.7227,48.3802],[4.7231,48.3787],[4.7187,48.3777],[4.7162,48.3743],[4.7123,48.3730],[4.7090,48.3728],[4.7056,48.3754],[4.7042,48.3732],[4.7025,48.3750],[4.6977,48.3736],[4.6958,48.3745],[4.6982,48.3692],[4.7041,48.3699],[4.7080,48.3656],[4.7137,48.3661],[4.7124,48.3647],[4.7153,48.3594],[4.7287,48.3575],[4.7255,48.3570],[4.7269,48.3553],[4.7268,48.3524],[4.7295,48.3516],[4.7265,48.3518],[4.7253,48.3506],[4.7245,48.3516],[4.7200,48.3497],[4.7221,48.3450],[4.7191,48.3445],[4.7193,48.3459],[4.7159,48.3448],[4.7148,48.3469],[4.7122,48.3470],[4.7055,48.3549],[4.6999,48.3591],[4.6996,48.3624],[4.6973,48.3626],[4.6986,48.3629],[4.6981,48.3652],[4.6938,48.3649],[4.6938,48.3684],[4.6780,48.3639],[4.6792,48.3611],[4.6759,48.3602],[4.6771,48.3582],[4.6811,48.3581],[4.6833,48.3602],[4.6825,48.3608],[4.6835,48.3634],[4.6891,48.3671],[4.6863,48.3625],[4.6896,48.3626],[4.6900,48.3652],[4.6936,48.3646],[4.6934,48.3615],[4.6975,48.3615],[4.7013,48.3565],[4.7052,48.3537],[4.7099,48.3482],[4.7057,48.3457],[4.7039,48.3463],[4.7031,48.3490],[4.7006,48.3499],[4.7018,48.3515],[4.6975,48.3530],[4.6916,48.3518],[4.6872,48.3546],[4.6867,48.3571],[4.6852,48.3576],[4.6855,48.3541],[4.6908,48.3515],[4.6920,48.3494],[4.6927,48.3441],[4.6903,48.3433],[4.6927,48.3413],[4.6918,48.3389],[4.6886,48.3387],[4.6885,48.3376],[4.6916,48.3380],[4.6886,48.3369],[4.6886,48.3353],[4.6841,48.3347],[4.6833,48.3309],[4.6884,48.3307],[4.6910,48.3284],[4.6973,48.3285],[4.7002,48.3252],[4.7025,48.3265],[4.7007,48.3245],[4.7032,48.3229],[4.7035,48.3189],[4.7157,48.3180],[4.7164,48.3164],[4.7188,48.3167],[4.7241,48.3143],[4.7221,48.3130],[4.7203,48.3149],[4.7151,48.3158],[4.7141,48.3116],[4.7113,48.3128],[4.7120,48.3154],[4.7070,48.3154],[4.7056,48.3120],[4.6956,48.3136],[4.6964,48.3151],[4.6953,48.3153],[4.6953,48.3184],[4.6973,48.3185],[4.6971,48.3196],[4.6935,48.3224],[4.6928,48.3249],[4.6900,48.3243],[4.6903,48.3227],[4.6894,48.3225],[4.6835,48.3234],[4.6877,48.3214],[4.6841,48.3193],[4.6823,48.3202],[4.6829,48.3219],[4.6810,48.3238],[4.6790,48.3235],[4.6799,48.3215],[4.6758,48.3249],[4.6740,48.3241],[4.6750,48.3252],[4.6727,48.3265],[4.6769,48.3253],[4.6745,48.3303],[4.6712,48.3289],[4.6686,48.3297],[4.6661,48.3269],[4.6647,48.3277],[4.6622,48.3233],[4.6597,48.3242],[4.6607,48.3256],[4.6566,48.3256],[4.6488,48.3207],[4.6610,48.3117],[4.6663,48.3149],[4.6689,48.3113],[4.6711,48.3112],[4.6681,48.3112],[4.6656,48.3078],[4.6613,48.3068],[4.6617,48.3089],[4.6525,48.3079],[4.6531,48.3095],[4.6479,48.3106],[4.6483,48.3122],[4.6438,48.3130],[4.6424,48.3154],[4.6438,48.3161],[4.6398,48.3172],[4.6382,48.3207],[4.6343,48.3225],[4.6341,48.3215],[4.6199,48.3214],[4.6125,48.3171],[4.6148,48.3147],[4.6128,48.3154],[4.6093,48.3129],[4.6071,48.3144],[4.5987,48.3140],[4.5946,48.3133],[4.5939,48.3115],[4.5872,48.3130],[4.5936,48.3133],[4.5890,48.3147],[4.5897,48.3159],[4.5952,48.3149],[4.5953,48.3159],[4.5970,48.3159],[4.5966,48.3185],[4.5950,48.3198],[4.5969,48.3197],[4.5960,48.3204],[4.5998,48.3230],[4.5972,48.3237],[4.5979,48.3254],[4.5927,48.3239],[4.5942,48.3231],[4.5912,48.3231],[4.5909,48.3274],[4.5928,48.3280],[4.5927,48.3295],[4.5912,48.3312],[4.5889,48.3311],[4.5885,48.3325],[4.5923,48.3351],[4.5896,48.3390],[4.5949,48.3396],[4.5915,48.3421],[4.5966,48.3422],[4.5971,48.3408],[4.5950,48.3403],[4.5972,48.3394],[4.6022,48.3407],[4.6036,48.3395],[4.6097,48.3397],[4.6103,48.3370],[4.6175,48.3383],[4.6166,48.3400],[4.6203,48.3403],[4.6177,48.3419],[4.6187,48.3448],[4.6176,48.3469],[4.6138,48.3471],[4.6142,48.3445],[4.6127,48.3443],[4.6114,48.3467],[4.6131,48.3471],[4.6107,48.3536],[4.6138,48.3551]]]}},{"type":"Feature","properties":{"name":"Forêt domaniale de Saint-Amond"},"geometry":{"type":"Polygon","coordinates":[[[5.9568,48.4465],[5.9384,48.4430],[5.9285,48.4488],[5.9230,48.4487],[5.9161,48.4509],[5.9141,48.4561],[5.9209,48.4608],[5.9179,48.4637],[5.9187,48.4653],[5.9175,48.4711],[5.8959,48.4744],[5.8860,48.4692],[5.8907,48.4672],[5.8934,48.4633],[5.8866,48.4594],[5.8858,48.4573],[5.8869,48.4537],[5.8994,48.4487],[5.8991,48.4468],[5.9002,48.4466],[5.9009,48.4493],[5.9035,48.4500],[5.9047,48.4488],[5.9041,48.4469],[5.9079,48.4377],[5.8981,48.4359],[5.9081,48.4372],[5.9119,48.4354],[5.9254,48.4360],[5.9357,48.4316],[5.9541,48.4283],[5.9644,48.4294],[5.9616,48.4330],[5.9696,48.4352],[5.9733,48.4376],[5.9736,48.4392],[5.9698,48.4428],[5.9597,48.4440],[5.9568,48.4465]]]}},{"type":"Feature","properties":{"name":"Bois du Haut Mansard"},"geometry":{"type":"Polygon","coordinates":[[[5.2736,48.5970],[5.2964,48.5976],[5.2977,48.5962],[5.2964,48.5948],[5.2960,48.5890],[5.2855,48.5817],[5.2836,48.5823],[5.2844,48.5835],[5.2791,48.5863],[5.2771,48.5860],[5.2759,48.5935],[5.2727,48.5935],[5.2721,48.5965],[5.2736,48.5970]]]}}]}