{"type":"FeatureCollection","features":[{"type":"Feature","properties":{"name":"Forêt d\u0027Ombrée"},"geometry":{"type":"Polygon","coordinates":[[[-1.0361,47.7454],[-1.0324,47.7450],[-1.0280,47.7405],[-1.0289,47.7378],[-1.0272,47.7371],[-1.0287,47.7363],[-1.0262,47.7357],[-1.0262,47.7342],[-1.0292,47.7336],[-1.0285,47.7316],[-1.0254,47.7324],[-1.0244,47.7301],[-1.0213,47.7288],[-1.0152,47.7293],[-0.9958,47.7245],[-0.9937,47.7237],[-0.9958,47.7231],[-0.9960,47.7194],[-0.9890,47.7175],[-0.9937,47.7142],[-0.9988,47.7136],[-0.9976,47.7126],[-1.0017,47.7145],[-1.0006,47.7136],[-1.0040,47.7130],[-1.0002,47.7119],[-1.0029,47.7117],[-1.0308,47.7218],[-1.0401,47.7235],[-1.0416,47.7220],[-1.0575,47.7262],[-1.0698,47.7307],[-1.0688,47.7328],[-1.0704,47.7348],[-1.0701,47.7371],[-1.0736,47.7373],[-1.0739,47.7392],[-1.0719,47.7421],[-1.0724,47.7459],[-1.0720,47.7449],[-1.0665,47.7449],[-1.0654,47.7455],[-1.0660,47.7472],[-1.0636,47.7478],[-1.0609,47.7475],[-1.0565,47.7491],[-1.0528,47.7483],[-1.0512,47.7459],[-1.0466,47.7459],[-1.0465,47.7446],[-1.0387,47.7458],[-1.0394,47.7441],[-1.0365,47.7438],[-1.0361,47.7454]]]}},{"type":"Feature","properties":{"name":"Bois des Gravelles"},"geometry":{"type":"Polygon","coordinates":[[[-0.9651,48.1020],[-0.9689,48.0981],[-0.9693,48.0956],[-0.9673,48.0954],[-0.9672,48.0941],[-0.9689,48.0939],[-0.9698,48.0918],[-0.9729,48.0918],[-0.9727,48.0897],[-0.9688,48.0911],[-0.9675,48.0901],[-0.9698,48.0837],[-0.9719,48.0815],[-0.9738,48.0819],[-0.9755,48.0778],[-0.9893,48.0772],[-0.9883,48.0780],[-0.9894,48.0797],[-0.9917,48.0796],[-0.9947,48.0851],[-0.9872,48.0994],[-0.9953,48.0845],[-0.9993,48.0902],[-0.9962,48.0910],[-0.9965,48.0933],[-0.9988,48.0934],[-0.9999,48.0955],[-1.0035,48.0953],[-0.9994,48.1010],[-0.9987,48.1037],[-0.9917,48.1044],[-0.9910,48.1018],[-0.9897,48.1045],[-0.9830,48.1086],[-0.9837,48.1096],[-0.9824,48.1103],[-0.9815,48.1093],[-0.9787,48.1111],[-0.9780,48.1098],[-0.9794,48.1103],[-0.9824,48.1061],[-0.9800,48.1055],[-0.9775,48.1088],[-0.9775,48.1068],[-0.9651,48.1020]]]}},{"type":"Feature","properties":{"name":"Forêt du Pertre"},"geometry":{"type":"Polygon","coordinates":[[[-1.0902,48.0472],[-1.0893,48.0482],[-1.0923,48.0505],[-1.0903,48.0539],[-1.0934,48.0558],[-1.0923,48.0579],[-1.0901,48.0571],[-1.0888,48.0586],[-1.0905,48.0596],[-1.0922,48.0580],[-1.0982,48.0605],[-1.0967,48.0619],[-1.0986,48.0683],[-1.0938,48.0691],[-1.0964,48.0726],[-1.0945,48.0741],[-1.0870,48.0759],[-1.0813,48.0732],[-1.0792,48.0739],[-1.0774,48.0763],[-1.0819,48.0791],[-1.0793,48.0815],[-1.0805,48.0836],[-1.0795,48.0883],[-1.0752,48.0882],[-1.0720,48.0890],[-1.0719,48.0903],[-1.0655,48.0876],[-1.0637,48.0890],[-1.0632,48.0868],[-1.0548,48.0851],[-1.0592,48.0808],[-1.0527,48.0802],[-1.0534,48.0791],[-1.0467,48.0833],[-1.0431,48.0808],[-1.0444,48.0779],[-1.0413,48.0764],[-1.0464,48.0744],[-1.0411,48.0698],[-1.0460,48.0673],[-1.0435,48.0646],[-1.0372,48.0630],[-1.0364,48.0561],[-1.0451,48.0536],[-1.0455,48.0554],[-1.0431,48.0579],[-1.0455,48.0599],[-1.0462,48.0589],[-1.0448,48.0581],[-1.0469,48.0578],[-1.0485,48.0591],[-1.0560,48.0573],[-1.0567,48.0564],[-1.0542,48.0540],[-1.0591,48.0503],[-1.0583,48.0488],[-1.0616,48.0498],[-1.0630,48.0462],[-1.0684,48.0440],[-1.0703,48.0449],[-1.0710,48.0436],[-1.0807,48.0442],[-1.0887,48.0478],[-1.0902,48.0472]]]}},{"type":"Feature","properties":{"name":"Forêt de la Guerche"},"geometry":{"type":"Polygon","coordinates":[[[-1.1671,47.9254],[-1.1687,47.9196],[-1.1741,47.9192],[-1.1735,47.9160],[-1.1754,47.9139],[-1.1746,47.9120],[-1.1765,47.9075],[-1.1762,47.9029],[-1.1805,47.9024],[-1.1819,47.9003],[-1.1823,47.8941],[-1.1912,47.8934],[-1.1922,47.8913],[-1.1940,47.8898],[-1.1972,47.8897],[-1.1988,47.8873],[-1.1993,47.8849],[-1.1976,47.8842],[-1.1971,47.8772],[-1.1921,47.8729],[-1.1951,47.8732],[-1.1957,47.8746],[-1.1987,47.8738],[-1.1971,47.8757],[-1.2009,47.8772],[-1.2033,47.8705],[-1.1974,47.8691],[-1.1965,47.8704],[-1.1911,47.8706],[-1.1891,47.8700],[-1.1886,47.8667],[-1.1946,47.8648],[-1.1980,47.8600],[-1.2010,47.8581],[-1.1997,47.8567],[-1.1958,47.8580],[-1.1944,47.8556],[-1.1935,47.8608],[-1.1908,47.8613],[-1.1917,47.8593],[-1.1900,47.8588],[-1.1912,47.8553],[-1.1891,47.8540],[-1.1907,47.8534],[-1.1923,47.8543],[-1.1960,47.8534],[-1.1979,47.8549],[-1.2021,47.8552],[-1.2031,47.8560],[-1.2023,47.8571],[-1.2048,47.8564],[-1.2053,47.8585],[-1.2076,47.8566],[-1.2106,47.8564],[-1.2125,47.8570],[-1.2111,47.8582],[-1.2145,47.8577],[-1.2198,47.8591],[-1.2357,47.8665],[-1.2359,47.8642],[-1.2414,47.8657],[-1.2401,47.8682],[-1.2451,47.8695],[-1.2513,47.8635],[-1.2517,47.8658],[-1.2496,47.8677],[-1.2428,47.8703],[-1.2443,47.8718],[-1.2495,47.8717],[-1.2508,47.8704],[-1.2567,47.8690],[-1.2589,47.8623],[-1.2732,47.8643],[-1.2767,47.8662],[-1.2806,47.8647],[-1.2806,47.8637],[-1.2850,47.8630],[-1.2909,47.8642],[-1.2954,47.8662],[-1.2981,47.8717],[-1.2972,47.8743],[-1.3069,47.8792],[-1.3070,47.8808],[-1.3031,47.8863],[-1.3013,47.8864],[-1.3025,47.8881],[-1.3007,47.8931],[-1.2986,47.8930],[-1.2976,47.8945],[-1.2944,47.8930],[-1.2941,47.8946],[-1.2901,47.8943],[-1.2881,47.8927],[-1.2852,47.8919],[-1.2843,47.8927],[-1.2832,47.8913],[-1.2776,47.8898],[-1.2763,47.8932],[-1.2671,47.8940],[-1.2625,47.8917],[-1.2629,47.8907],[-1.2577,47.8903],[-1.2573,47.8883],[-1.2555,47.8877],[-1.2512,47.8903],[-1.2378,47.8932],[-1.2185,47.8945],[-1.2125,47.8969],[-1.2137,47.8992],[-1.2120,47.8996],[-1.2064,47.8983],[-1.2048,47.9013],[-1.2016,47.9006],[-1.2003,47.9015],[-1.1999,47.9041],[-1.2010,47.9052],[-1.1996,47.9055],[-1.1988,47.9086],[-1.1998,47.9102],[-1.1984,47.9113],[-1.1905,47.9111],[-1.1888,47.9141],[-1.1906,47.9154],[-1.1896,47.9171],[-1.1844,47.9151],[-1.1831,47.9161],[-1.1844,47.9179],[-1.1828,47.9189],[-1.1827,47.9236],[-1.1762,47.9271],[-1.1741,47.9261],[-1.1710,47.9276],[-1.1671,47.9254]]]}},{"type":"Feature","properties":{"name":"Forêt domaniale de Fougères"},"geometry":{"type":"Polygon","coordinates":[[[-1.1895,48.3959],[-1.1912,48.3981],[-1.1911,48.4010],[-1.1886,48.4022],[-1.1865,48.4074],[-1.1795,48.4097],[-1.1772,48.4120],[-1.1675,48.4085],[-1.1656,48.4056],[-1.1664,48.4081],[-1.1643,48.4107],[-1.1629,48.4088],[-1.1613,48.4093],[-1.1615,48.4107],[-1.1568,48.4114],[-1.1573,48.4101],[-1.1555,48.4085],[-1.1544,48.4096],[-1.1507,48.4088],[-1.1461,48.4103],[-1.1416,48.4091],[-1.1389,48.4107],[-1.1378,48.4099],[-1.1385,48.4090],[-1.1315,48.4084],[-1.1243,48.4043],[-1.1214,48.3965],[-1.1225,48.3986],[-1.1226,48.3957],[-1.1217,48.3956],[-1.1235,48.3954],[-1.1252,48.3916],[-1.1308,48.3891],[-1.1350,48.3893],[-1.1339,48.3879],[-1.1396,48.3855],[-1.1408,48.3864],[-1.1429,48.3848],[-1.1451,48.3852],[-1.1482,48.3832],[-1.1474,48.3825],[-1.1485,48.3816],[-1.1530,48.3817],[-1.1549,48.3806],[-1.1526,48.3785],[-1.1599,48.3757],[-1.1575,48.3743],[-1.1607,48.3732],[-1.1587,48.3719],[-1.1676,48.3700],[-1.1671,48.3693],[-1.1693,48.3682],[-1.1701,48.3695],[-1.1718,48.3693],[-1.1763,48.3663],[-1.1756,48.3693],[-1.1804,48.3709],[-1.1795,48.3770],[-1.1876,48.3752],[-1.1915,48.3765],[-1.1947,48.3751],[-1.1965,48.3759],[-1.1959,48.3787],[-1.1969,48.3801],[-1.1942,48.3821],[-1.1983,48.3819],[-1.1964,48.3851],[-1.1978,48.3883],[-1.1952,48.3890],[-1.1953,48.3908],[-1.1895,48.3959]]]}},{"type":"Feature","properties":{"name":"Forêt de Juigné"},"geometry":{"type":"Polygon","coordinates":[[[-1.1802,47.7009],[-1.1880,47.7017],[-1.1892,47.6992],[-1.1891,47.6959],[-1.1852,47.6921],[-1.1853,47.6875],[-1.1936,47.6870],[-1.1946,47.6861],[-1.1934,47.6837],[-1.1968,47.6848],[-1.1994,47.6834],[-1.1997,47.6759],[-1.1923,47.6733],[-1.1913,47.6709],[-1.2008,47.6710],[-1.2024,47.6726],[-1.2096,47.6729],[-1.2147,47.6787],[-1.2130,47.6815],[-1.2146,47.6823],[-1.2123,47.6850],[-1.2147,47.6866],[-1.2169,47.6848],[-1.2188,47.6856],[-1.2160,47.6864],[-1.2153,47.6889],[-1.2170,47.6897],[-1.2222,47.6874],[-1.2235,47.6894],[-1.2255,47.6896],[-1.2267,47.6878],[-1.2230,47.6866],[-1.2242,47.6855],[-1.2225,47.6836],[-1.2244,47.6795],[-1.2218,47.6804],[-1.2226,47.6773],[-1.2218,47.6760],[-1.2269,47.6750],[-1.2280,47.6724],[-1.2308,47.6743],[-1.2317,47.6736],[-1.2303,47.6758],[-1.2314,47.6759],[-1.2312,47.6771],[-1.2356,47.6769],[-1.2407,47.6786],[-1.2422,47.6761],[-1.2437,47.6769],[-1.2416,47.6790],[-1.2435,47.6788],[-1.2446,47.6803],[-1.2649,47.6763],[-1.2755,47.6796],[-1.2760,47.6813],[-1.2791,47.6820],[-1.2856,47.6812],[-1.2866,47.6856],[-1.2903,47.6861],[-1.2897,47.6897],[-1.2824,47.6891],[-1.2821,47.6913],[-1.2796,47.6913],[-1.2788,47.6956],[-1.2764,47.6948],[-1.2775,47.6949],[-1.2784,47.6925],[-1.2761,47.6927],[-1.2769,47.6907],[-1.2751,47.6904],[-1.2750,47.6885],[-1.2459,47.6905],[-1.2489,47.6930],[-1.2418,47.6953],[-1.2439,47.6969],[-1.2423,47.6970],[-1.2421,47.6987],[-1.2381,47.6995],[-1.2400,47.7012],[-1.2382,47.7039],[-1.2387,47.7051],[-1.2283,47.7047],[-1.2263,47.7067],[-1.2260,47.7078],[-1.2272,47.7073],[-1.2273,47.7083],[-1.2234,47.7089],[-1.2229,47.7112],[-1.2212,47.7118],[-1.2209,47.7103],[-1.2192,47.7100],[-1.2214,47.7055],[-1.2161,47.7043],[-1.2105,47.7058],[-1.2065,47.7098],[-1.2012,47.7094],[-1.1963,47.7111],[-1.1946,47.7124],[-1.1954,47.7144],[-1.1911,47.7123],[-1.1807,47.7112],[-1.1816,47.7085],[-1.1790,47.7084],[-1.1802,47.7009]]]}},{"type":"Feature","properties":{"name":"Forêt d\u0027Araize"},"geometry":{"type":"Polygon","coordinates":[[[-1.2716,47.7963],[-1.2664,47.7959],[-1.2627,47.7933],[-1.2621,47.7966],[-1.2540,47.7963],[-1.2505,47.7972],[-1.2461,47.8009],[-1.2408,47.8024],[-1.2370,47.7998],[-1.2375,47.7950],[-1.2351,47.7946],[-1.2383,47.7949],[-1.2407,47.7935],[-1.2448,47.7793],[-1.2624,47.7898],[-1.2457,47.7794],[-1.2494,47.7773],[-1.2655,47.7824],[-1.2661,47.7855],[-1.2601,47.7844],[-1.2577,47.7854],[-1.2584,47.7859],[-1.2655,47.7869],[-1.2668,47.7859],[-1.2734,47.7877],[-1.2717,47.7890],[-1.2752,47.7898],[-1.2744,47.7903],[-1.2683,47.7886],[-1.2620,47.7904],[-1.2579,47.7897],[-1.2618,47.7911],[-1.2580,47.7928],[-1.2585,47.7935],[-1.2645,47.7916],[-1.2716,47.7963]]]}},{"type":"Feature","properties":{"name":"Bois de Chaumont"},"geometry":{"type":"Polygon","coordinates":[[[-0.0238,48.4932],[-0.0242,48.4920],[-0.0201,48.4897],[-0.0226,48.4898],[-0.0231,48.4885],[-0.0128,48.4864],[-0.0072,48.4903],[-0.0043,48.4890],[-0.0034,48.4909],[0.0006,48.4928],[0.0035,48.4920],[0.0072,48.4929],[0.0082,48.4943],[0.0125,48.4942],[0.0116,48.4932],[0.0140,48.4921],[0.0138,48.4907],[0.0108,48.4904],[0.0091,48.4884],[0.0060,48.4903],[0.0024,48.4906],[0.0039,48.4881],[0.0026,48.4868],[0.0046,48.4859],[0.0037,48.4839],[0.0000,48.4835],[-0.0034,48.4860],[-0.0024,48.4809],[-0.0057,48.4813],[-0.0036,48.4794],[-0.0087,48.4762],[-0.0090,48.4746],[-0.0093,48.4759],[-0.0106,48.4755],[-0.0101,48.4742],[-0.0115,48.4745],[-0.0106,48.4723],[-0.0079,48.4725],[0.0028,48.4679],[0.0064,48.4683],[0.0074,48.4660],[-0.0037,48.4675],[-0.0057,48.4664],[-0.0052,48.4646],[-0.0063,48.4647],[-0.0062,48.4664],[-0.0102,48.4659],[-0.0125,48.4672],[-0.0195,48.4679],[-0.0186,48.4717],[-0.0195,48.4720],[-0.0179,48.4728],[-0.0195,48.4727],[-0.0210,48.4750],[-0.0227,48.4752],[-0.0346,48.4744],[-0.0335,48.4703],[-0.0347,48.4699],[-0.0402,48.4731],[-0.0438,48.4733],[-0.0420,48.4742],[-0.0479,48.4767],[-0.0470,48.4799],[-0.0478,48.4803],[-0.0422,48.4853],[-0.0408,48.4881],[-0.0416,48.4884],[-0.0368,48.4890],[-0.0370,48.4913],[-0.0385,48.4915],[-0.0330,48.4920],[-0.0321,48.4935],[-0.0238,48.4932]]]}},{"type":"Feature","properties":{"name":"Forêt domaniale d\u0027Écouves"},"geometry":{"type":"Polygon","coordinates":[[[0.0627,48.5077],[0.0621,48.5033],[0.0634,48.5008],[0.0461,48.5064],[0.0415,48.5042],[0.0271,48.5019],[0.0252,48.4968],[0.0201,48.5022],[0.0128,48.4997],[0.0109,48.5016],[0.0038,48.5002],[0.0041,48.4995],[-0.0181,48.5011],[-0.0201,48.4999],[-0.0185,48.4990],[-0.0197,48.4948],[-0.0222,48.4928],[-0.0321,48.4935],[-0.0323,48.4970],[-0.0351,48.4973],[-0.0366,48.5000],[-0.0404,48.5013],[-0.0546,48.5021],[-0.0536,48.5029],[-0.0553,48.5037],[-0.0566,48.5029],[-0.0561,48.5020],[-0.0515,48.4994],[-0.0539,48.4995],[-0.0552,48.4975],[-0.0593,48.4979],[-0.0518,48.4948],[-0.0575,48.4960],[-0.0614,48.4987],[-0.0651,48.4979],[-0.0653,48.4996],[-0.0696,48.5036],[-0.0697,48.5057],[-0.0608,48.5066],[-0.0592,48.5050],[-0.0605,48.5074],[-0.0497,48.5138],[-0.0459,48.5127],[-0.0384,48.5145],[-0.0373,48.5104],[-0.0339,48.5094],[-0.0257,48.5141],[-0.0194,48.5143],[-0.0176,48.5159],[-0.0116,48.5157],[-0.0027,48.5187],[0.0049,48.5192],[0.0056,48.5175],[0.0106,48.5197],[0.0079,48.5205],[0.0090,48.5214],[0.0079,48.5221],[0.0129,48.5230],[0.0072,48.5250],[0.0071,48.5264],[0.0112,48.5275],[0.0124,48.5266],[0.0137,48.5276],[0.0125,48.5286],[0.0153,48.5288],[0.0132,48.5304],[0.0209,48.5360],[0.0211,48.5384],[0.0226,48.5391],[0.0216,48.5413],[0.0191,48.5441],[0.0058,48.5436],[0.0011,48.5420],[-0.0035,48.5386],[-0.0047,48.5399],[-0.0055,48.5387],[-0.0113,48.5381],[-0.0179,48.5435],[-0.0367,48.5469],[-0.0447,48.5459],[-0.0527,48.5466],[-0.0573,48.5457],[-0.0579,48.5438],[-0.0584,48.5459],[-0.0638,48.5465],[-0.0637,48.5483],[-0.0616,48.5490],[-0.0623,48.5496],[-0.0682,48.5471],[-0.0714,48.5488],[-0.0706,48.5518],[-0.0726,48.5526],[-0.0739,48.5551],[-0.0830,48.5540],[-0.0824,48.5567],[-0.0837,48.5544],[-0.0843,48.5578],[-0.0872,48.5576],[-0.0861,48.5583],[-0.0913,48.5598],[-0.0919,48.5612],[-0.0919,48.5596],[-0.0949,48.5589],[-0.0950,48.5598],[-0.0978,48.5582],[-0.1022,48.5621],[-0.1047,48.5625],[-0.1059,48.5662],[-0.1099,48.5682],[-0.1041,48.5696],[-0.0993,48.5672],[-0.0918,48.5691],[-0.0902,48.5704],[-0.0911,48.5725],[-0.0897,48.5721],[-0.0893,48.5739],[-0.0810,48.5745],[-0.0806,48.5762],[-0.0827,48.5754],[-0.0857,48.5774],[-0.0843,48.5787],[-0.0873,48.5785],[-0.0868,48.5791],[-0.0881,48.5795],[-0.0869,48.5803],[-0.0822,48.5789],[-0.0817,48.5804],[-0.0800,48.5802],[-0.0807,48.5777],[-0.0790,48.5774],[-0.0784,48.5800],[-0.0805,48.5811],[-0.0804,48.5823],[-0.0878,48.5852],[-0.0894,48.5835],[-0.0937,48.5842],[-0.0947,48.5869],[-0.0961,48.5873],[-0.0966,48.5842],[-0.0970,48.5885],[-0.0948,48.5881],[-0.0959,48.5888],[-0.0949,48.5921],[-0.0913,48.5982],[-0.0902,48.5964],[-0.0918,48.5948],[-0.0898,48.5939],[-0.0887,48.5954],[-0.0880,48.5944],[-0.0860,48.5958],[-0.0905,48.5988],[-0.0884,48.5999],[-0.0867,48.5988],[-0.0835,48.6021],[-0.0633,48.6045],[-0.0618,48.5989],[-0.0562,48.5979],[-0.0525,48.5949],[-0.0538,48.5950],[-0.0526,48.5931],[-0.0510,48.5933],[-0.0524,48.5929],[-0.0510,48.5928],[-0.0516,48.5908],[-0.0495,48.5896],[-0.0510,48.5898],[-0.0510,48.5874],[-0.0529,48.5868],[-0.0518,48.5858],[-0.0519,48.5821],[-0.0561,48.5800],[-0.0498,48.5790],[-0.0488,48.5769],[-0.0497,48.5757],[-0.0467,48.5728],[-0.0472,48.5707],[-0.0459,48.5695],[-0.0413,48.5677],[-0.0360,48.5681],[-0.0395,48.5723],[-0.0396,48.5743],[-0.0435,48.5774],[-0.0389,48.5789],[-0.0379,48.5806],[-0.0259,48.5814],[-0.0255,48.5731],[-0.0224,48.5674],[-0.0235,48.5633],[-0.0243,48.5639],[-0.0254,48.5626],[-0.0245,48.5621],[-0.0052,48.5671],[-0.0029,48.5634],[0.0018,48.5652],[0.0033,48.5642],[0.0038,48.5652],[0.0070,48.5653],[0.0093,48.5631],[0.0114,48.5636],[0.0129,48.5620],[0.0115,48.5606],[0.0139,48.5628],[0.0163,48.5613],[0.0206,48.5611],[0.0277,48.5647],[0.0316,48.5631],[0.0399,48.5643],[0.0405,48.5669],[0.0501,48.5658],[0.0523,48.5681],[0.0504,48.5656],[0.0553,48.5644],[0.0660,48.5690],[0.0685,48.5713],[0.0686,48.5704],[0.0700,48.5714],[0.0729,48.5708],[0.0734,48.5695],[0.0831,48.5750],[0.0883,48.5795],[0.0841,48.5858],[0.0863,48.5840],[0.0870,48.5867],[0.0884,48.5861],[0.0965,48.5916],[0.1116,48.5890],[0.1116,48.5874],[0.1140,48.5860],[0.1186,48.5864],[0.1173,48.5887],[0.1191,48.5886],[0.1195,48.5866],[0.1259,48.5842],[0.1222,48.5835],[0.1271,48.5830],[0.1287,48.5815],[0.1317,48.5826],[0.1313,48.5807],[0.1330,48.5802],[0.1265,48.5746],[0.1298,48.5721],[0.1290,48.5715],[0.1270,48.5724],[0.1256,48.5706],[0.1259,48.5736],[0.1252,48.5721],[0.1241,48.5730],[0.1178,48.5724],[0.1155,48.5716],[0.1151,48.5697],[0.1109,48.5698],[0.1118,48.5687],[0.1098,48.5704],[0.1033,48.5696],[0.0922,48.5648],[0.0931,48.5625],[0.0913,48.5640],[0.0905,48.5632],[0.0932,48.5619],[0.0895,48.5599],[0.0910,48.5560],[0.0928,48.5565],[0.0955,48.5549],[0.0963,48.5562],[0.1020,48.5574],[0.1046,48.5555],[0.1082,48.5559],[0.1096,48.5573],[0.1097,48.5553],[0.1140,48.5555],[0.1163,48.5580],[0.1154,48.5590],[0.1166,48.5593],[0.1179,48.5573],[0.1202,48.5589],[0.1191,48.5602],[0.1253,48.5605],[0.1256,48.5592],[0.1289,48.5606],[0.1274,48.5618],[0.1338,48.5657],[0.1529,48.5703],[0.1535,48.5675],[0.1591,48.5699],[0.1603,48.5673],[0.1637,48.5653],[0.1637,48.5624],[0.1668,48.5625],[0.1663,48.5599],[0.1636,48.5608],[0.1611,48.5595],[0.1612,48.5563],[0.1715,48.5526],[0.1678,48.5479],[0.1637,48.5493],[0.1612,48.5481],[0.1584,48.5493],[0.1537,48.5490],[0.1538,48.5475],[0.1586,48.5449],[0.1617,48.5464],[0.1586,48.5429],[0.1504,48.5450],[0.1493,48.5435],[0.1483,48.5465],[0.1447,48.5451],[0.1430,48.5452],[0.1432,48.5464],[0.1277,48.5434],[0.1267,48.5415],[0.1281,48.5415],[0.1275,48.5393],[0.1302,48.5393],[0.1285,48.5376],[0.1276,48.5385],[0.1256,48.5373],[0.1272,48.5376],[0.1297,48.5348],[0.1271,48.5365],[0.1245,48.5352],[0.1252,48.5362],[0.1234,48.5385],[0.1192,48.5371],[0.1193,48.5387],[0.1158,48.5386],[0.1167,48.5361],[0.1234,48.5353],[0.1237,48.5343],[0.1116,48.5354],[0.1138,48.5336],[0.1135,48.5327],[0.1210,48.5305],[0.1187,48.5296],[0.1202,48.5286],[0.1182,48.5289],[0.1193,48.5274],[0.1211,48.5284],[0.1223,48.5273],[0.1183,48.5217],[0.1186,48.5194],[0.1235,48.5233],[0.1222,48.5224],[0.1234,48.5225],[0.1226,48.5206],[0.1255,48.5175],[0.1258,48.5149],[0.1243,48.5170],[0.1233,48.5157],[0.1240,48.5146],[0.1187,48.5165],[0.1159,48.5147],[0.1138,48.5169],[0.1171,48.5157],[0.1177,48.5187],[0.1142,48.5209],[0.1093,48.5209],[0.1062,48.5186],[0.1093,48.5164],[0.1085,48.5138],[0.1133,48.5109],[0.1097,48.5114],[0.1128,48.5092],[0.1121,48.5087],[0.1058,48.5091],[0.1025,48.5056],[0.0980,48.5076],[0.0965,48.5054],[0.0947,48.5058],[0.0923,48.5046],[0.0935,48.5036],[0.0893,48.5020],[0.0898,48.5006],[0.0866,48.5000],[0.0874,48.4988],[0.0835,48.4985],[0.0829,48.5001],[0.0783,48.5000],[0.0777,48.4986],[0.0722,48.4973],[0.0693,48.4982],[0.0686,48.4997],[0.0667,48.4995],[0.0664,48.5052],[0.0680,48.5068],[0.0664,48.5071],[0.0669,48.5101],[0.0627,48.5077]]]}},{"type":"Feature","properties":{"name":"Bois Ballu"},"geometry":{"type":"Polygon","coordinates":[[[-0.0379,48.5806],[-0.0342,48.5825],[-0.0345,48.5844],[-0.0331,48.5848],[-0.0347,48.5872],[-0.0373,48.5871],[-0.0372,48.5880],[-0.0309,48.5878],[-0.0326,48.5905],[-0.0341,48.5905],[-0.0345,48.5928],[-0.0385,48.5930],[-0.0391,48.5948],[-0.0353,48.5953],[-0.0330,48.5996],[-0.0296,48.6004],[-0.0293,48.6023],[-0.0441,48.6054],[-0.0448,48.6084],[-0.0513,48.6065],[-0.0519,48.6049],[-0.0491,48.6040],[-0.0493,48.6031],[-0.0540,48.5984],[-0.0612,48.5990],[-0.0618,48.6016],[-0.0605,48.6040],[-0.0614,48.6055],[-0.0558,48.6076],[-0.0527,48.6112],[-0.0531,48.6151],[-0.0570,48.6184],[-0.0476,48.6196],[-0.0473,48.6185],[-0.0444,48.6184],[-0.0441,48.6169],[-0.0409,48.6170],[-0.0398,48.6148],[-0.0386,48.6159],[-0.0346,48.6137],[-0.0301,48.6159],[-0.0277,48.6223],[-0.0195,48.6228],[-0.0207,48.6258],[-0.0191,48.6228],[-0.0137,48.6246],[-0.0127,48.6263],[-0.0130,48.6244],[-0.0157,48.6236],[-0.0147,48.6219],[-0.0093,48.6246],[-0.0084,48.6270],[-0.0063,48.6266],[-0.0034,48.6283],[-0.0043,48.6349],[0.0077,48.6292],[0.0084,48.6327],[0.0125,48.6319],[0.0126,48.6336],[0.0156,48.6336],[0.0157,48.6348],[0.0222,48.6345],[0.0247,48.6322],[0.0219,48.6297],[0.0230,48.6291],[0.0219,48.6282],[0.0236,48.6270],[0.0196,48.6282],[0.0215,48.6260],[0.0188,48.6235],[0.0228,48.6220],[0.0194,48.6210],[0.0269,48.6191],[0.0273,48.6162],[0.0323,48.6177],[0.0345,48.6154],[0.0282,48.6119],[0.0211,48.6151],[0.0105,48.6125],[0.0095,48.6101],[0.0167,48.6103],[0.0160,48.6078],[0.0122,48.6082],[0.0119,48.6068],[0.0152,48.6056],[0.0156,48.6067],[0.0185,48.6066],[0.0151,48.6049],[0.0153,48.6017],[0.0119,48.6007],[0.0150,48.5998],[0.0137,48.5995],[0.0133,48.5963],[0.0101,48.5961],[0.0024,48.5998],[0.0026,48.6031],[0.0002,48.6033],[-0.0006,48.5974],[-0.0069,48.5980],[-0.0069,48.5993],[-0.0089,48.5994],[-0.0106,48.5966],[-0.0065,48.5960],[-0.0057,48.5968],[-0.0054,48.5944],[-0.0119,48.5954],[-0.0113,48.5938],[-0.0019,48.5927],[-0.0011,48.5948],[0.0011,48.5943],[0.0003,48.5922],[0.0110,48.5915],[0.0119,48.5833],[0.0138,48.5814],[0.0120,48.5794],[0.0071,48.5785],[-0.0086,48.5809],[-0.0092,48.5786],[-0.0159,48.5787],[-0.0180,48.5751],[-0.0239,48.5766],[-0.0229,48.5730],[-0.0255,48.5731],[-0.0259,48.5814],[-0.0379,48.5806]]]}},{"type":"Feature","properties":{"name":"Bois de Monthard"},"geometry":{"type":"Polygon","coordinates":[[[-0.1877,48.5679],[-0.1859,48.5675],[-0.1848,48.5688],[-0.1818,48.5662],[-0.1859,48.5650],[-0.1823,48.5637],[-0.1859,48.5628],[-0.1853,48.5619],[-0.1871,48.5602],[-0.1807,48.5615],[-0.1760,48.5569],[-0.1748,48.5520],[-0.1750,48.5490],[-0.1766,48.5485],[-0.1740,48.5463],[-0.1725,48.5464],[-0.1737,48.5439],[-0.1818,48.5454],[-0.1837,48.5433],[-0.1841,48.5462],[-0.1899,48.5489],[-0.1953,48.5555],[-0.1938,48.5553],[-0.1943,48.5573],[-0.1899,48.5622],[-0.1926,48.5630],[-0.1940,48.5650],[-0.1935,48.5671],[-0.1877,48.5679]]]}},{"type":"Feature","properties":{"name":"Forêt de Monnaie"},"geometry":{"type":"Polygon","coordinates":[[[-0.2043,48.5259],[-0.1999,48.5242],[-0.1998,48.5225],[-0.2067,48.5212],[-0.2059,48.5171],[-0.2097,48.5178],[-0.2070,48.5146],[-0.2038,48.5146],[-0.2022,48.5172],[-0.1989,48.5176],[-0.1955,48.5117],[-0.1976,48.5114],[-0.1978,48.5096],[-0.2054,48.5099],[-0.2080,48.5077],[-0.2157,48.5064],[-0.2146,48.5036],[-0.2243,48.5013],[-0.2263,48.5088],[-0.2200,48.5103],[-0.2223,48.5160],[-0.2198,48.5162],[-0.2187,48.5136],[-0.2161,48.5139],[-0.2168,48.5162],[-0.2150,48.5164],[-0.2158,48.5182],[-0.2193,48.5171],[-0.2210,48.5198],[-0.2175,48.5198],[-0.2172,48.5208],[-0.2129,48.5192],[-0.2128,48.5211],[-0.2103,48.5211],[-0.2111,48.5233],[-0.2077,48.5250],[-0.2086,48.5275],[-0.2042,48.5276],[-0.2043,48.5259]]]}},{"type":"Feature","properties":{"name":"Bois de Buleu"},"geometry":{"type":"Polygon","coordinates":[[[-0.4697,48.3516],[-0.4757,48.3490],[-0.4769,48.3446],[-0.4714,48.3468],[-0.4704,48.3484],[-0.4655,48.3496],[-0.4632,48.3479],[-0.4660,48.3464],[-0.4585,48.3459],[-0.4551,48.3414],[-0.4559,48.3355],[-0.4588,48.3332],[-0.4591,48.3314],[-0.4611,48.3311],[-0.4608,48.3296],[-0.4587,48.3289],[-0.4601,48.3283],[-0.4631,48.3286],[-0.4638,48.3306],[-0.4683,48.3282],[-0.4700,48.3296],[-0.4699,48.3316],[-0.4723,48.3326],[-0.4698,48.3332],[-0.4710,48.3344],[-0.4691,48.3354],[-0.4593,48.3358],[-0.4601,48.3394],[-0.4631,48.3422],[-0.4714,48.3417],[-0.4758,48.3423],[-0.4772,48.3437],[-0.4825,48.3429],[-0.4855,48.3438],[-0.4820,48.3489],[-0.4736,48.3517],[-0.4697,48.3516]]]}},{"type":"Feature","properties":{"name":"Forêt de la Motte"},"geometry":{"type":"Polygon","coordinates":[[[-0.2848,48.5315],[-0.2888,48.5274],[-0.2876,48.5258],[-0.2664,48.5218],[-0.2698,48.5194],[-0.2613,48.5162],[-0.2645,48.5152],[-0.2688,48.5177],[-0.2821,48.5202],[-0.2853,48.5195],[-0.2892,48.5251],[-0.2934,48.5227],[-0.2999,48.5253],[-0.3025,48.5251],[-0.3038,48.5233],[-0.3077,48.5240],[-0.3115,48.5201],[-0.3166,48.5245],[-0.3217,48.5251],[-0.3228,48.5295],[-0.3178,48.5307],[-0.3117,48.5361],[-0.3087,48.5364],[-0.3103,48.5377],[-0.3077,48.5368],[-0.3048,48.5381],[-0.3065,48.5358],[-0.3015,48.5333],[-0.2893,48.5329],[-0.2882,48.5343],[-0.2848,48.5315]]]}},{"type":"Feature","properties":{"name":"Forêt de Bourgon"},"geometry":{"type":"Polygon","coordinates":[[[-0.5753,48.2476],[-0.5670,48.2467],[-0.5618,48.2493],[-0.5483,48.2450],[-0.5457,48.2452],[-0.5449,48.2470],[-0.5299,48.2481],[-0.5240,48.2427],[-0.5237,48.2371],[-0.5271,48.2339],[-0.5333,48.2225],[-0.5372,48.2228],[-0.5324,48.2334],[-0.5370,48.2331],[-0.5410,48.2305],[-0.5426,48.2314],[-0.5480,48.2300],[-0.5538,48.2307],[-0.5543,48.2268],[-0.5555,48.2262],[-0.5582,48.2271],[-0.5622,48.2256],[-0.5629,48.2263],[-0.5659,48.2238],[-0.5724,48.2234],[-0.5700,48.2211],[-0.5641,48.2229],[-0.5658,48.2209],[-0.5652,48.2195],[-0.5634,48.2224],[-0.5587,48.2227],[-0.5594,48.2211],[-0.5606,48.2214],[-0.5554,48.2167],[-0.5636,48.2178],[-0.5672,48.2152],[-0.5715,48.2158],[-0.5785,48.2135],[-0.5780,48.2127],[-0.5807,48.2109],[-0.5836,48.2105],[-0.5839,48.2081],[-0.5858,48.2099],[-0.5844,48.2015],[-0.5916,48.2008],[-0.5933,48.2022],[-0.5920,48.2023],[-0.5926,48.2034],[-0.5996,48.2057],[-0.5985,48.2065],[-0.5998,48.2070],[-0.5961,48.2095],[-0.5853,48.2102],[-0.5893,48.2179],[-0.5873,48.2228],[-0.5915,48.2227],[-0.5953,48.2249],[-0.5954,48.2262],[-0.5925,48.2322],[-0.5874,48.2316],[-0.5864,48.2303],[-0.5804,48.2318],[-0.5762,48.2310],[-0.5774,48.2344],[-0.5829,48.2339],[-0.5860,48.2360],[-0.5855,48.2372],[-0.5782,48.2376],[-0.5796,48.2413],[-0.5786,48.2449],[-0.5801,48.2458],[-0.5821,48.2448],[-0.5829,48.2469],[-0.5753,48.2476]]]}},{"type":"Feature","properties":{"name":"Forêt de Salair"},"geometry":{"type":"Polygon","coordinates":[[[-0.6755,48.2914],[-0.6757,48.2897],[-0.6706,48.2892],[-0.6692,48.2867],[-0.6715,48.2822],[-0.6817,48.2811],[-0.6806,48.2792],[-0.6814,48.2787],[-0.6771,48.2764],[-0.6772,48.2719],[-0.6909,48.2733],[-0.6939,48.2745],[-0.6916,48.2757],[-0.6946,48.2769],[-0.6999,48.2749],[-0.6996,48.2763],[-0.6954,48.2771],[-0.6990,48.2790],[-0.7054,48.2773],[-0.7055,48.2820],[-0.6999,48.2811],[-0.6987,48.2799],[-0.6915,48.2813],[-0.6906,48.2830],[-0.6930,48.2842],[-0.6907,48.2874],[-0.6921,48.2876],[-0.6914,48.2884],[-0.6929,48.2910],[-0.6877,48.2932],[-0.6871,48.2914],[-0.6834,48.2903],[-0.6778,48.2933],[-0.6755,48.2914]]]}},{"type":"Feature","properties":{"name":"Forêt de Mayenne"},"geometry":{"type":"Polygon","coordinates":[[[-0.7649,48.2916],[-0.7642,48.2913],[-0.7717,48.2849],[-0.7780,48.2816],[-0.7774,48.2808],[-0.7866,48.2772],[-0.7878,48.2754],[-0.7841,48.2742],[-0.7784,48.2746],[-0.7741,48.2702],[-0.7729,48.2700],[-0.7723,48.2713],[-0.7650,48.2706],[-0.7602,48.2694],[-0.7604,48.2686],[-0.7676,48.2695],[-0.7700,48.2683],[-0.7711,48.2660],[-0.7751,48.2674],[-0.7766,48.2666],[-0.7765,48.2652],[-0.7830,48.2641],[-0.7825,48.2629],[-0.7846,48.2603],[-0.7950,48.2578],[-0.7993,48.2541],[-0.8018,48.2540],[-0.8012,48.2527],[-0.8025,48.2522],[-0.8003,48.2501],[-0.8078,48.2499],[-0.8098,48.2475],[-0.8080,48.2466],[-0.8046,48.2473],[-0.8091,48.2455],[-0.8071,48.2426],[-0.8085,48.2421],[-0.8103,48.2440],[-0.8143,48.2448],[-0.8138,48.2476],[-0.8080,48.2516],[-0.8102,48.2534],[-0.8127,48.2532],[-0.8115,48.2524],[-0.8133,48.2509],[-0.8126,48.2496],[-0.8144,48.2493],[-0.8155,48.2485],[-0.8151,48.2470],[-0.8180,48.2457],[-0.8169,48.2440],[-0.8136,48.2429],[-0.8191,48.2397],[-0.8189,48.2378],[-0.8206,48.2376],[-0.8205,48.2361],[-0.8219,48.2365],[-0.8242,48.2335],[-0.8247,48.2306],[-0.8279,48.2312],[-0.8289,48.2296],[-0.8269,48.2269],[-0.8316,48.2253],[-0.8348,48.2219],[-0.8477,48.2268],[-0.8490,48.2255],[-0.8432,48.2231],[-0.8451,48.2213],[-0.8495,48.2211],[-0.8492,48.2199],[-0.8468,48.2193],[-0.8464,48.2210],[-0.8429,48.2143],[-0.8372,48.2142],[-0.8406,48.2128],[-0.8400,48.2109],[-0.8453,48.2121],[-0.8478,48.2164],[-0.8536,48.2185],[-0.8529,48.2195],[-0.8563,48.2198],[-0.8541,48.2231],[-0.8539,48.2272],[-0.8552,48.2285],[-0.8513,48.2301],[-0.8526,48.2353],[-0.8446,48.2403],[-0.8454,48.2458],[-0.8445,48.2494],[-0.8403,48.2506],[-0.8425,48.2519],[-0.8408,48.2519],[-0.8413,48.2538],[-0.8393,48.2582],[-0.8338,48.2618],[-0.8368,48.2645],[-0.8357,48.2648],[-0.8366,48.2689],[-0.8397,48.2695],[-0.8363,48.2738],[-0.8239,48.2788],[-0.8224,48.2809],[-0.8163,48.2840],[-0.8173,48.2855],[-0.8109,48.2852],[-0.8102,48.2861],[-0.8133,48.2874],[-0.8138,48.2928],[-0.8134,48.2937],[-0.8110,48.2932],[-0.8110,48.2894],[-0.8075,48.2889],[-0.8070,48.2907],[-0.8100,48.2936],[-0.8061,48.2941],[-0.8080,48.2956],[-0.8070,48.2972],[-0.8041,48.2967],[-0.7917,48.2995],[-0.7875,48.3016],[-0.7859,48.3008],[-0.7800,48.3018],[-0.7814,48.3037],[-0.7864,48.3045],[-0.7887,48.3068],[-0.7879,48.3092],[-0.7907,48.3099],[-0.7900,48.3140],[-0.7834,48.3141],[-0.7809,48.3162],[-0.7745,48.3177],[-0.7719,48.3145],[-0.7687,48.3150],[-0.7693,48.3182],[-0.7723,48.3182],[-0.7711,48.3205],[-0.7694,48.3206],[-0.7689,48.3237],[-0.7633,48.3198],[-0.7650,48.3194],[-0.7638,48.3159],[-0.7534,48.3181],[-0.7494,48.3147],[-0.7608,48.3119],[-0.7593,48.3086],[-0.7503,48.3065],[-0.7477,48.3081],[-0.7438,48.3070],[-0.7420,48.3088],[-0.7397,48.3075],[-0.7405,48.3060],[-0.7466,48.3059],[-0.7477,48.3037],[-0.7465,48.3031],[-0.7449,48.3048],[-0.7405,48.3052],[-0.7416,48.2975],[-0.7568,48.2947],[-0.7594,48.2967],[-0.7568,48.2974],[-0.7589,48.2983],[-0.7642,48.2950],[-0.7643,48.2925],[-0.7596,48.2939],[-0.7577,48.2931],[-0.7649,48.2916]]]}},{"type":"Feature","properties":{"name":"Forêt de Pail"},"geometry":{"type":"Polygon","coordinates":[[[-0.1576,48.3328],[-0.1604,48.3309],[-0.1601,48.3320],[-0.1640,48.3319],[-0.1642,48.3308],[-0.1718,48.3310],[-0.1720,48.3322],[-0.1709,48.3318],[-0.1716,48.3336],[-0.1742,48.3327],[-0.1763,48.3344],[-0.1797,48.3344],[-0.1771,48.3351],[-0.1808,48.3363],[-0.1800,48.3366],[-0.1855,48.3375],[-0.1864,48.3374],[-0.1851,48.3366],[-0.1858,48.3346],[-0.1894,48.3324],[-0.1931,48.3346],[-0.1897,48.3347],[-0.1886,48.3364],[-0.1957,48.3378],[-0.1958,48.3387],[-0.1924,48.3394],[-0.1969,48.3411],[-0.1999,48.3393],[-0.1985,48.3367],[-0.2064,48.3375],[-0.2086,48.3350],[-0.2147,48.3361],[-0.2091,48.3359],[-0.2069,48.3383],[-0.2109,48.3362],[-0.2161,48.3379],[-0.2099,48.3374],[-0.2077,48.3400],[-0.2026,48.3387],[-0.1996,48.3399],[-0.2006,48.3424],[-0.1981,48.3437],[-0.2068,48.3469],[-0.2079,48.3489],[-0.2098,48.3487],[-0.2078,48.3514],[-0.2059,48.3510],[-0.2063,48.3502],[-0.2049,48.3510],[-0.2076,48.3532],[-0.2073,48.3545],[-0.2088,48.3549],[-0.2085,48.3601],[-0.2111,48.3580],[-0.2152,48.3592],[-0.2050,48.3675],[-0.2028,48.3659],[-0.1937,48.3743],[-0.1899,48.3745],[-0.1884,48.3734],[-0.1896,48.3727],[-0.1886,48.3720],[-0.1760,48.3653],[-0.1762,48.3633],[-0.1718,48.3634],[-0.1685,48.3619],[-0.1752,48.3569],[-0.1752,48.3550],[-0.1647,48.3555],[-0.1673,48.3513],[-0.1648,48.3485],[-0.1634,48.3480],[-0.1619,48.3491],[-0.1631,48.3507],[-0.1580,48.3513],[-0.1503,48.3463],[-0.1521,48.3446],[-0.1510,48.3435],[-0.1557,48.3430],[-0.1555,48.3417],[-0.1576,48.3403],[-0.1547,48.3377],[-0.1538,48.3352],[-0.1681,48.3346],[-0.1668,48.3332],[-0.1576,48.3328]]]}},{"type":"Feature","properties":{"name":"Forêt domaniale de Sillé-le-Guillaume"},"geometry":{"type":"Polygon","coordinates":[[[-0.2001,48.1835],[-0.2005,48.1848],[-0.1982,48.1854],[-0.1987,48.1867],[-0.1934,48.1873],[-0.1915,48.1862],[-0.1874,48.1878],[-0.1838,48.1907],[-0.1830,48.1920],[-0.1841,48.1925],[-0.1797,48.1940],[-0.1808,48.1957],[-0.1776,48.1969],[-0.1779,48.1979],[-0.1717,48.1995],[-0.1731,48.2002],[-0.1723,48.2020],[-0.1755,48.2025],[-0.1718,48.2059],[-0.1676,48.2052],[-0.1672,48.2082],[-0.1646,48.2105],[-0.1627,48.2110],[-0.1636,48.2100],[-0.1599,48.2080],[-0.1526,48.2109],[-0.1585,48.2150],[-0.1545,48.2169],[-0.1528,48.2198],[-0.1501,48.2192],[-0.1454,48.2220],[-0.1449,48.2202],[-0.1383,48.2188],[-0.1255,48.2185],[-0.1254,48.2198],[-0.1191,48.2210],[-0.1147,48.2270],[-0.1125,48.2272],[-0.1161,48.2287],[-0.1066,48.2322],[-0.1030,48.2322],[-0.1034,48.2336],[-0.0957,48.2341],[-0.0946,48.2358],[-0.0906,48.2352],[-0.0876,48.2369],[-0.0818,48.2372],[-0.0782,48.2390],[-0.0708,48.2362],[-0.0698,48.2377],[-0.0665,48.2383],[-0.0682,48.2404],[-0.0660,48.2402],[-0.0628,48.2420],[-0.0633,48.2430],[-0.0615,48.2423],[-0.0576,48.2453],[-0.0412,48.2464],[-0.0466,48.2448],[-0.0492,48.2431],[-0.0484,48.2422],[-0.0500,48.2424],[-0.0485,48.2417],[-0.0531,48.2403],[-0.0540,48.2371],[-0.0589,48.2322],[-0.0583,48.2262],[-0.0569,48.2250],[-0.0548,48.2253],[-0.0565,48.2247],[-0.0558,48.2242],[-0.0513,48.2262],[-0.0493,48.2231],[-0.0452,48.2228],[-0.0452,48.2249],[-0.0416,48.2248],[-0.0441,48.2267],[-0.0431,48.2297],[-0.0379,48.2322],[-0.0333,48.2285],[-0.0301,48.2299],[-0.0249,48.2292],[-0.0250,48.2279],[-0.0271,48.2272],[-0.0261,48.2254],[-0.0268,48.2240],[-0.0292,48.2221],[-0.0282,48.2209],[-0.0298,48.2202],[-0.0287,48.2182],[-0.0248,48.2171],[-0.0287,48.2176],[-0.0305,48.2153],[-0.0351,48.2146],[-0.0317,48.2130],[-0.0371,48.2102],[-0.0369,48.2092],[-0.0406,48.2066],[-0.0427,48.2080],[-0.0467,48.2077],[-0.0484,48.2046],[-0.0537,48.2075],[-0.0526,48.2057],[-0.0595,48.2054],[-0.0628,48.2046],[-0.0619,48.2034],[-0.0642,48.2037],[-0.0668,48.2021],[-0.0681,48.2033],[-0.0678,48.2024],[-0.0712,48.2008],[-0.0742,48.2006],[-0.0758,48.2023],[-0.0748,48.2033],[-0.0757,48.2076],[-0.0810,48.2114],[-0.1025,48.2029],[-0.1061,48.2025],[-0.1005,48.2047],[-0.1097,48.2024],[-0.1064,48.2025],[-0.1069,48.2007],[-0.1103,48.2022],[-0.1179,48.2025],[-0.1188,48.2017],[-0.1173,48.2006],[-0.1186,48.1996],[-0.1209,48.2002],[-0.1196,48.2012],[-0.1213,48.2021],[-0.1233,48.2009],[-0.1270,48.2011],[-0.1291,48.1967],[-0.1336,48.1957],[-0.1383,48.1983],[-0.1313,48.2019],[-0.1268,48.2066],[-0.1235,48.2073],[-0.1268,48.2094],[-0.1280,48.2122],[-0.1340,48.2126],[-0.1377,48.2112],[-0.1335,48.2102],[-0.1302,48.2066],[-0.1305,48.2047],[-0.1382,48.2021],[-0.1399,48.1996],[-0.1462,48.1983],[-0.1491,48.1956],[-0.1544,48.1950],[-0.1564,48.1928],[-0.1600,48.1944],[-0.1626,48.1938],[-0.1661,48.1904],[-0.1632,48.1901],[-0.1661,48.1878],[-0.1642,48.1871],[-0.1694,48.1876],[-0.1697,48.1899],[-0.1775,48.1882],[-0.1808,48.1867],[-0.1821,48.1836],[-0.1878,48.1831],[-0.2033,48.1761],[-0.2231,48.1721],[-0.2205,48.1708],[-0.2231,48.1694],[-0.2220,48.1675],[-0.2146,48.1650],[-0.2223,48.1651],[-0.2282,48.1631],[-0.2323,48.1649],[-0.2381,48.1633],[-0.2409,48.1691],[-0.2382,48.1704],[-0.2371,48.1732],[-0.2301,48.1764],[-0.2284,48.1783],[-0.2294,48.1790],[-0.2230,48.1823],[-0.2070,48.1844],[-0.1994,48.1819],[-0.2001,48.1835]]]}},{"type":"Feature","properties":{"name":"Forêt de Multonne"},"geometry":{"type":"Polygon","coordinates":[[[-0.0626,48.4396],[-0.0739,48.4395],[-0.0708,48.4421],[-0.0716,48.4425],[-0.0780,48.4408],[-0.0796,48.4377],[-0.0807,48.4381],[-0.0799,48.4393],[-0.0837,48.4407],[-0.0821,48.4444],[-0.0834,48.4440],[-0.0840,48.4453],[-0.0870,48.4450],[-0.0853,48.4438],[-0.0875,48.4425],[-0.0908,48.4434],[-0.0964,48.4412],[-0.0999,48.4425],[-0.0965,48.4441],[-0.0963,48.4429],[-0.0830,48.4451],[-0.0817,48.4456],[-0.0833,48.4456],[-0.0821,48.4477],[-0.0831,48.4481],[-0.0973,48.4460],[-0.1061,48.4474],[-0.1049,48.4433],[-0.1066,48.4432],[-0.1060,48.4443],[-0.1092,48.4446],[-0.1072,48.4457],[-0.1080,48.4467],[-0.1110,48.4476],[-0.1090,48.4481],[-0.1196,48.4503],[-0.1167,48.4510],[-0.1186,48.4519],[-0.1168,48.4523],[-0.1156,48.4545],[-0.1193,48.4532],[-0.1208,48.4550],[-0.1190,48.4561],[-0.1227,48.4583],[-0.1231,48.4601],[-0.1197,48.4594],[-0.1177,48.4562],[-0.1170,48.4574],[-0.1148,48.4554],[-0.1080,48.4567],[-0.1081,48.4548],[-0.1046,48.4534],[-0.1043,48.4522],[-0.1024,48.4525],[-0.0997,48.4478],[-0.0921,48.4510],[-0.0903,48.4500],[-0.0759,48.4510],[-0.0728,48.4489],[-0.0760,48.4474],[-0.0759,48.4456],[-0.0719,48.4470],[-0.0693,48.4454],[-0.0715,48.4426],[-0.0696,48.4428],[-0.0626,48.4396]]]}},{"type":"Feature","properties":{"name":"Forêt de Multonne"},"geometry":{"type":"Polygon","coordinates":[[[-0.1550,48.4387],[-0.1560,48.4403],[-0.1590,48.4407],[-0.1580,48.4415],[-0.1589,48.4423],[-0.1629,48.4431],[-0.1619,48.4448],[-0.1606,48.4447],[-0.1614,48.4460],[-0.1590,48.4463],[-0.1576,48.4440],[-0.1563,48.4451],[-0.1536,48.4446],[-0.1523,48.4486],[-0.1566,48.4528],[-0.1552,48.4530],[-0.1562,48.4543],[-0.1543,48.4539],[-0.1553,48.4545],[-0.1543,48.4551],[-0.1550,48.4603],[-0.1597,48.4618],[-0.1624,48.4607],[-0.1606,48.4623],[-0.1627,48.4634],[-0.1661,48.4619],[-0.1708,48.4626],[-0.1696,48.4636],[-0.1701,48.4648],[-0.1655,48.4644],[-0.1677,48.4657],[-0.1660,48.4661],[-0.1660,48.4676],[-0.1619,48.4668],[-0.1597,48.4683],[-0.1550,48.4682],[-0.1538,48.4708],[-0.1414,48.4680],[-0.1421,48.4671],[-0.1488,48.4676],[-0.1471,48.4668],[-0.1505,48.4652],[-0.1482,48.4620],[-0.1465,48.4621],[-0.1430,48.4656],[-0.1395,48.4663],[-0.1385,48.4680],[-0.1306,48.4669],[-0.1295,48.4659],[-0.1305,48.4652],[-0.1375,48.4665],[-0.1387,48.4627],[-0.1453,48.4582],[-0.1442,48.4564],[-0.1463,48.4542],[-0.1404,48.4520],[-0.1396,48.4537],[-0.1427,48.4551],[-0.1414,48.4586],[-0.1367,48.4577],[-0.1332,48.4554],[-0.1322,48.4570],[-0.1322,48.4559],[-0.1304,48.4563],[-0.1322,48.4552],[-0.1308,48.4549],[-0.1311,48.4523],[-0.1306,48.4512],[-0.1297,48.4520],[-0.1285,48.4512],[-0.1293,48.4506],[-0.1159,48.4490],[-0.1304,48.4475],[-0.1337,48.4516],[-0.1381,48.4522],[-0.1438,48.4447],[-0.1461,48.4434],[-0.1450,48.4394],[-0.1464,48.4386],[-0.1478,48.4395],[-0.1472,48.4424],[-0.1483,48.4432],[-0.1523,48.4392],[-0.1550,48.4387]]]}},{"type":"Feature","properties":{"name":"Bois d\u0027Hermet"},"geometry":{"type":"Polygon","coordinates":[[[-0.4480,48.2089],[-0.4456,48.2085],[-0.4469,48.2078],[-0.4464,48.2049],[-0.4427,48.2046],[-0.4434,48.2014],[-0.4461,48.2006],[-0.4487,48.2023],[-0.4480,48.2008],[-0.4498,48.1995],[-0.4554,48.1979],[-0.4522,48.1953],[-0.4537,48.1945],[-0.4559,48.1944],[-0.4586,48.1979],[-0.4615,48.1988],[-0.4639,48.1958],[-0.4669,48.1950],[-0.4689,48.1973],[-0.4771,48.1939],[-0.4773,48.1922],[-0.4761,48.1913],[-0.4844,48.1896],[-0.4897,48.1899],[-0.4905,48.1929],[-0.4942,48.1918],[-0.4961,48.1927],[-0.4961,48.1912],[-0.5036,48.1897],[-0.5081,48.1944],[-0.5081,48.1963],[-0.5097,48.1972],[-0.5085,48.1966],[-0.5086,48.1999],[-0.5118,48.2032],[-0.5081,48.2044],[-0.5113,48.2059],[-0.5074,48.2074],[-0.5058,48.2104],[-0.4998,48.2109],[-0.4960,48.2085],[-0.4907,48.2095],[-0.4899,48.2115],[-0.4908,48.2137],[-0.4814,48.2139],[-0.4811,48.2165],[-0.4777,48.2201],[-0.4781,48.2222],[-0.4762,48.2212],[-0.4783,48.2190],[-0.4745,48.2203],[-0.4736,48.2226],[-0.4707,48.2209],[-0.4605,48.2313],[-0.4566,48.2317],[-0.4550,48.2325],[-0.4551,48.2337],[-0.4484,48.2324],[-0.4480,48.2334],[-0.4440,48.2337],[-0.4399,48.2326],[-0.4384,48.2334],[-0.4393,48.2343],[-0.4377,48.2326],[-0.4428,48.2302],[-0.4482,48.2322],[-0.4543,48.2302],[-0.4541,48.2286],[-0.4488,48.2294],[-0.4490,48.2276],[-0.4404,48.2270],[-0.4414,48.2239],[-0.4332,48.2215],[-0.4349,48.2195],[-0.4409,48.2188],[-0.4403,48.2157],[-0.4418,48.2148],[-0.4404,48.2146],[-0.4421,48.2132],[-0.4523,48.2117],[-0.4511,48.2111],[-0.4519,48.2097],[-0.4480,48.2089]]]}},{"type":"Feature","properties":{"name":"Forêt des Andaines"},"geometry":{"type":"Polygon","coordinates":[[[-0.4823,48.5845],[-0.4881,48.5800],[-0.4911,48.5803],[-0.4801,48.5781],[-0.4803,48.5772],[-0.4866,48.5775],[-0.4868,48.5737],[-0.4837,48.5709],[-0.4690,48.5680],[-0.4671,48.5683],[-0.4698,48.5737],[-0.4681,48.5742],[-0.4678,48.5729],[-0.4665,48.5730],[-0.4652,48.5743],[-0.4782,48.5773],[-0.4792,48.5802],[-0.4820,48.5817],[-0.4785,48.5847],[-0.4763,48.5851],[-0.4752,48.5835],[-0.4692,48.5817],[-0.4673,48.5830],[-0.4642,48.5809],[-0.4573,48.5799],[-0.4536,48.5780],[-0.4526,48.5789],[-0.4540,48.5805],[-0.4511,48.5822],[-0.4565,48.5803],[-0.4644,48.5823],[-0.4656,48.5839],[-0.4602,48.5830],[-0.4580,48.5846],[-0.4447,48.5834],[-0.4491,48.5849],[-0.4824,48.5875],[-0.4823,48.5845],[-0.4907,48.5878],[-0.4989,48.5882],[-0.4882,48.5862],[-0.4913,48.5845],[-0.4935,48.5854],[-0.4995,48.5813],[-0.5185,48.5819],[-0.5046,48.5847],[-0.5040,48.5832],[-0.5006,48.5837],[-0.5013,48.5863],[-0.5073,48.5886],[-0.5108,48.5881],[-0.5113,48.5869],[-0.5262,48.5876],[-0.5274,48.5863],[-0.5259,48.5852],[-0.5268,48.5838],[-0.5294,48.5850],[-0.5325,48.5837],[-0.5313,48.5866],[-0.5284,48.5874],[-0.5288,48.5884],[-0.5160,48.5889],[-0.5142,48.5913],[-0.5101,48.5924],[-0.5119,48.5930],[-0.5045,48.5989],[-0.5007,48.5985],[-0.4953,48.6031],[-0.4955,48.6062],[-0.4977,48.6057],[-0.4991,48.6067],[-0.4936,48.6091],[-0.4934,48.6125],[-0.4876,48.6113],[-0.4827,48.6145],[-0.4881,48.6181],[-0.4921,48.6157],[-0.4953,48.6182],[-0.5097,48.6097],[-0.5148,48.6103],[-0.5184,48.6130],[-0.5266,48.6086],[-0.5212,48.6038],[-0.5235,48.6031],[-0.5235,48.5984],[-0.5214,48.5963],[-0.5179,48.5989],[-0.5196,48.6008],[-0.5172,48.6054],[-0.5139,48.6024],[-0.5152,48.6015],[-0.5125,48.5989],[-0.5165,48.5966],[-0.5154,48.5959],[-0.5113,48.5984],[-0.5096,48.5969],[-0.5187,48.5924],[-0.5199,48.5932],[-0.5200,48.5955],[-0.5241,48.5934],[-0.5251,48.5942],[-0.5277,48.5907],[-0.5325,48.5914],[-0.5330,48.5977],[-0.5361,48.5970],[-0.5357,48.5951],[-0.5371,48.5944],[-0.5358,48.5930],[-0.5368,48.5920],[-0.5406,48.5931],[-0.5411,48.5950],[-0.5444,48.5962],[-0.5479,48.5931],[-0.5540,48.5940],[-0.5528,48.5967],[-0.5546,48.5984],[-0.5571,48.5974],[-0.5580,48.6017],[-0.5594,48.6022],[-0.5626,48.6022],[-0.5620,48.6013],[-0.5636,48.5998],[-0.5665,48.6005],[-0.5670,48.6028],[-0.5692,48.6033],[-0.5752,48.6036],[-0.5803,48.6019],[-0.5789,48.5986],[-0.5716,48.5983],[-0.5716,48.5973],[-0.5698,48.5972],[-0.5689,48.5987],[-0.5661,48.5981],[-0.5698,48.5942],[-0.5717,48.5949],[-0.5709,48.5919],[-0.5742,48.5921],[-0.5747,48.5893],[-0.5695,48.5871],[-0.5671,48.5794],[-0.5618,48.5783],[-0.5618,48.5763],[-0.5631,48.5762],[-0.5615,48.5761],[-0.5615,48.5782],[-0.5592,48.5776],[-0.5565,48.5792],[-0.5558,48.5780],[-0.5502,48.5777],[-0.5506,48.5759],[-0.5498,48.5771],[-0.5455,48.5759],[-0.5431,48.5772],[-0.5420,48.5757],[-0.5344,48.5746],[-0.5350,48.5736],[-0.5334,48.5725],[-0.5342,48.5718],[-0.5311,48.5702],[-0.5291,48.5715],[-0.5329,48.5733],[-0.5290,48.5747],[-0.5297,48.5759],[-0.5245,48.5755],[-0.5249,48.5739],[-0.5279,48.5742],[-0.5189,48.5713],[-0.5030,48.5706],[-0.5045,48.5737],[-0.5115,48.5745],[-0.5075,48.5777],[-0.5070,48.5802],[-0.4946,48.5794],[-0.4943,48.5782],[-0.4894,48.5777],[-0.4897,48.5750],[-0.4868,48.5737],[-0.4866,48.5775],[-0.4803,48.5772],[-0.4801,48.5781],[-0.4911,48.5803],[-0.4881,48.5800],[-0.4823,48.5845]]]}},{"type":"Feature","properties":{"name":"Bois de Magny"},"geometry":{"type":"Polygon","coordinates":[[[-0.3359,48.5262],[-0.3353,48.5287],[-0.3236,48.5241],[-0.3219,48.5258],[-0.3231,48.5296],[-0.3180,48.5308],[-0.3138,48.5348],[-0.3158,48.5356],[-0.3177,48.5344],[-0.3164,48.5371],[-0.3213,48.5410],[-0.3261,48.5401],[-0.3326,48.5420],[-0.3414,48.5478],[-0.3428,48.5466],[-0.3512,48.5464],[-0.3572,48.5449],[-0.3594,48.5391],[-0.3636,48.5350],[-0.3601,48.5341],[-0.3592,48.5346],[-0.3608,48.5350],[-0.3604,48.5362],[-0.3588,48.5361],[-0.3586,48.5346],[-0.3584,48.5358],[-0.3531,48.5329],[-0.3539,48.5317],[-0.3510,48.5326],[-0.3448,48.5287],[-0.3335,48.5247],[-0.3296,48.5217],[-0.3276,48.5210],[-0.3250,48.5228],[-0.3359,48.5262]]]}},{"type":"Feature","properties":{"name":"Forêt de Pail"},"geometry":{"type":"Polygon","coordinates":[[[-0.2267,48.3780],[-0.2237,48.3806],[-0.2169,48.3828],[-0.2108,48.3824],[-0.2136,48.3837],[-0.2116,48.3851],[-0.2094,48.3848],[-0.2082,48.3856],[-0.2098,48.3860],[-0.2082,48.3873],[-0.2019,48.3842],[-0.1995,48.3850],[-0.1999,48.3868],[-0.1980,48.3878],[-0.1967,48.3871],[-0.2014,48.3838],[-0.1975,48.3826],[-0.1899,48.3745],[-0.1937,48.3743],[-0.2028,48.3659],[-0.2050,48.3675],[-0.2101,48.3623],[-0.2161,48.3592],[-0.2177,48.3605],[-0.2211,48.3598],[-0.2251,48.3620],[-0.2239,48.3637],[-0.2263,48.3638],[-0.2251,48.3650],[-0.2248,48.3690],[-0.2231,48.3703],[-0.2245,48.3735],[-0.2230,48.3743],[-0.2250,48.3756],[-0.2274,48.3737],[-0.2291,48.3741],[-0.2271,48.3686],[-0.2373,48.3672],[-0.2375,48.3651],[-0.2442,48.3635],[-0.2440,48.3615],[-0.2469,48.3609],[-0.2476,48.3633],[-0.2428,48.3713],[-0.2379,48.3718],[-0.2367,48.3712],[-0.2374,48.3683],[-0.2353,48.3683],[-0.2356,48.3696],[-0.2338,48.3692],[-0.2309,48.3717],[-0.2316,48.3749],[-0.2350,48.3750],[-0.2327,48.3779],[-0.2308,48.3790],[-0.2324,48.3765],[-0.2311,48.3762],[-0.2297,48.3778],[-0.2256,48.3759],[-0.2267,48.3780]]]}},{"type":"Feature","properties":{"name":"Bois des Vallons"},"geometry":{"type":"Polygon","coordinates":[[[-0.5119,48.1335],[-0.5127,48.1335],[-0.5112,48.1319],[-0.5124,48.1308],[-0.5115,48.1301],[-0.5138,48.1282],[-0.5125,48.1275],[-0.5142,48.1246],[-0.5118,48.1234],[-0.5149,48.1238],[-0.5159,48.1224],[-0.5134,48.1213],[-0.5114,48.1161],[-0.5094,48.1161],[-0.5094,48.1146],[-0.5060,48.1147],[-0.5064,48.1161],[-0.5031,48.1161],[-0.5058,48.1171],[-0.5056,48.1192],[-0.5039,48.1190],[-0.5040,48.1179],[-0.5005,48.1165],[-0.5003,48.1146],[-0.4939,48.1150],[-0.4940,48.1135],[-0.4907,48.1144],[-0.4909,48.1102],[-0.4846,48.1122],[-0.4824,48.1109],[-0.4877,48.1100],[-0.4845,48.1076],[-0.4833,48.1073],[-0.4818,48.1107],[-0.4767,48.1115],[-0.4734,48.1097],[-0.4724,48.1111],[-0.4685,48.1103],[-0.4655,48.1070],[-0.4613,48.1054],[-0.4555,48.1059],[-0.4547,48.1071],[-0.4480,48.1068],[-0.4468,48.1040],[-0.4411,48.1029],[-0.4388,48.1047],[-0.4283,48.1076],[-0.4195,48.1081],[-0.4181,48.1112],[-0.4152,48.1120],[-0.4143,48.1081],[-0.4102,48.1093],[-0.4097,48.1071],[-0.4056,48.1077],[-0.4062,48.1104],[-0.4012,48.1098],[-0.4002,48.1080],[-0.4021,48.1068],[-0.4002,48.1043],[-0.4025,48.1028],[-0.4047,48.1034],[-0.4073,48.1007],[-0.4145,48.1013],[-0.4135,48.0956],[-0.4262,48.0946],[-0.4290,48.0965],[-0.4326,48.0954],[-0.4316,48.0946],[-0.4335,48.0936],[-0.4393,48.0955],[-0.4427,48.0924],[-0.4460,48.0942],[-0.4453,48.0949],[-0.4506,48.0959],[-0.4665,48.0943],[-0.4689,48.0954],[-0.4707,48.0939],[-0.4678,48.0924],[-0.4636,48.0927],[-0.4638,48.0896],[-0.4658,48.0906],[-0.4660,48.0889],[-0.4685,48.0883],[-0.4681,48.0909],[-0.4699,48.0914],[-0.4689,48.0927],[-0.4713,48.0938],[-0.4769,48.0880],[-0.4777,48.0884],[-0.4766,48.0902],[-0.4744,48.0909],[-0.4750,48.0921],[-0.4787,48.0926],[-0.4795,48.0916],[-0.4781,48.0911],[-0.4797,48.0892],[-0.4818,48.0913],[-0.4804,48.0936],[-0.4783,48.0929],[-0.4765,48.0948],[-0.4786,48.0937],[-0.4845,48.0958],[-0.4854,48.0985],[-0.4836,48.0983],[-0.4832,48.0996],[-0.4884,48.1008],[-0.4897,48.0992],[-0.4919,48.0993],[-0.4918,48.1016],[-0.4950,48.1029],[-0.5107,48.1049],[-0.5099,48.1068],[-0.5125,48.1080],[-0.5119,48.1086],[-0.5150,48.1101],[-0.5163,48.1090],[-0.5189,48.1110],[-0.5177,48.1139],[-0.5240,48.1149],[-0.5245,48.1170],[-0.5197,48.1177],[-0.5248,48.1182],[-0.5244,48.1209],[-0.5268,48.1205],[-0.5286,48.1226],[-0.5266,48.1235],[-0.5282,48.1275],[-0.5264,48.1293],[-0.5236,48.1293],[-0.5238,48.1280],[-0.5181,48.1262],[-0.5192,48.1269],[-0.5180,48.1309],[-0.5198,48.1312],[-0.5200,48.1330],[-0.5226,48.1315],[-0.5251,48.1319],[-0.5287,48.1372],[-0.5268,48.1371],[-0.5266,48.1355],[-0.5228,48.1362],[-0.5222,48.1347],[-0.5185,48.1334],[-0.5143,48.1338],[-0.5145,48.1352],[-0.5120,48.1363],[-0.5119,48.1335]]]}},{"type":"Feature","properties":{"name":"Bois de Misedon"},"geometry":{"type":"Polygon","coordinates":[[[-0.9421,48.1389],[-0.9412,48.1311],[-0.9482,48.1329],[-0.9468,48.1254],[-0.9529,48.1258],[-0.9528,48.1251],[-0.9581,48.1246],[-0.9573,48.1189],[-0.9544,48.1171],[-0.9597,48.1153],[-0.9695,48.1170],[-0.9752,48.1148],[-0.9770,48.1179],[-0.9747,48.1212],[-0.9755,48.1221],[-0.9725,48.1231],[-0.9718,48.1247],[-0.9750,48.1296],[-0.9696,48.1303],[-0.9638,48.1339],[-0.9626,48.1334],[-0.9616,48.1355],[-0.9658,48.1370],[-0.9616,48.1413],[-0.9581,48.1427],[-0.9559,48.1412],[-0.9527,48.1416],[-0.9524,48.1428],[-0.9421,48.1389]]]}},{"type":"Feature","properties":{"name":"Forêt de Valles"},"geometry":{"type":"Polygon","coordinates":[[[-0.7662,47.8103],[-0.7664,47.8088],[-0.7681,47.8079],[-0.7645,47.8044],[-0.7628,47.8032],[-0.7587,47.8049],[-0.7579,47.8042],[-0.7597,47.8041],[-0.7553,47.8007],[-0.7540,47.7973],[-0.7520,47.7971],[-0.7508,47.7990],[-0.7487,47.7976],[-0.7497,47.7941],[-0.7527,47.7933],[-0.7488,47.7912],[-0.7452,47.7916],[-0.7440,47.7932],[-0.7467,47.7863],[-0.7488,47.7862],[-0.7506,47.7901],[-0.7555,47.7915],[-0.7575,47.7952],[-0.7572,47.7901],[-0.7596,47.7910],[-0.7604,47.7954],[-0.7655,47.7946],[-0.7663,47.7930],[-0.7660,47.7946],[-0.7678,47.7944],[-0.7683,47.7928],[-0.7703,47.7921],[-0.7704,47.7961],[-0.7688,47.7984],[-0.7692,47.8021],[-0.7747,47.8039],[-0.7736,47.8050],[-0.7765,47.8066],[-0.7753,47.8076],[-0.7709,47.8056],[-0.7762,47.8120],[-0.7742,47.8126],[-0.7729,47.8114],[-0.7699,47.8126],[-0.7698,47.8138],[-0.7684,47.8134],[-0.7688,47.8110],[-0.7662,47.8103]]]}},{"type":"Feature","properties":{"name":"Bois de Crun"},"geometry":{"type":"Polygon","coordinates":[[[-0.3559,48.1844],[-0.3524,48.1846],[-0.3497,48.1817],[-0.3482,48.1831],[-0.3481,48.1796],[-0.3465,48.1791],[-0.3415,48.1823],[-0.3401,48.1815],[-0.3385,48.1850],[-0.3392,48.1858],[-0.3377,48.1863],[-0.3357,48.1845],[-0.3327,48.1848],[-0.3334,48.1824],[-0.3302,48.1805],[-0.3301,48.1775],[-0.3283,48.1780],[-0.3293,48.1760],[-0.3405,48.1734],[-0.3483,48.1701],[-0.3485,48.1663],[-0.3449,48.1609],[-0.3444,48.1567],[-0.3455,48.1562],[-0.3478,48.1597],[-0.3467,48.1612],[-0.3504,48.1655],[-0.3494,48.1667],[-0.3511,48.1706],[-0.3486,48.1720],[-0.3493,48.1762],[-0.3525,48.1760],[-0.3526,48.1745],[-0.3554,48.1741],[-0.3569,48.1797],[-0.3605,48.1792],[-0.3613,48.1802],[-0.3582,48.1840],[-0.3559,48.1844]]]}},{"type":"Feature","properties":{"name":"Bois du Puy"},"geometry":{"type":"Polygon","coordinates":[[[-0.5842,47.9059],[-0.5795,47.9033],[-0.5785,47.9045],[-0.5760,47.9040],[-0.5737,47.9016],[-0.5755,47.8989],[-0.5727,47.8979],[-0.5751,47.8978],[-0.5766,47.8958],[-0.5799,47.8971],[-0.5826,47.8952],[-0.5806,47.8942],[-0.5824,47.8933],[-0.5833,47.8905],[-0.5814,47.8891],[-0.5927,47.8894],[-0.5855,47.8942],[-0.5870,47.8951],[-0.5883,47.8942],[-0.5902,47.8950],[-0.5969,47.8895],[-0.5960,47.8930],[-0.5973,47.8936],[-0.5973,47.8957],[-0.5924,47.8974],[-0.5918,47.8955],[-0.5892,47.8989],[-0.5912,47.9000],[-0.5902,47.9012],[-0.5925,47.9009],[-0.5917,47.9032],[-0.5954,47.9039],[-0.5943,47.9059],[-0.5981,47.9058],[-0.5971,47.9080],[-0.5904,47.9072],[-0.5900,47.9089],[-0.5842,47.9059]]]}},{"type":"Feature","properties":{"name":"Bois des Rouillères"},"geometry":{"type":"Polygon","coordinates":[[[-0.7640,47.8825],[-0.7626,47.8810],[-0.7645,47.8791],[-0.7715,47.8786],[-0.7720,47.8752],[-0.7736,47.8761],[-0.7743,47.8742],[-0.7748,47.8718],[-0.7693,47.8661],[-0.7702,47.8623],[-0.7679,47.8603],[-0.7691,47.8595],[-0.7778,47.8694],[-0.7814,47.8725],[-0.7836,47.8722],[-0.7828,47.8737],[-0.7854,47.8753],[-0.7868,47.8752],[-0.7868,47.8767],[-0.7827,47.8741],[-0.7792,47.8800],[-0.7774,47.8800],[-0.7771,47.8813],[-0.7804,47.8828],[-0.7791,47.8835],[-0.7799,47.8849],[-0.7835,47.8854],[-0.7825,47.8867],[-0.7783,47.8862],[-0.7799,47.8875],[-0.7790,47.8894],[-0.7670,47.8891],[-0.7674,47.8861],[-0.7637,47.8858],[-0.7642,47.8838],[-0.7654,47.8842],[-0.7653,47.8828],[-0.7640,47.8825]]]}},{"type":"Feature","properties":{"name":"Bois de l\u0027Essart"},"geometry":{"type":"Polygon","coordinates":[[[-0.3462,48.0878],[-0.3529,48.0874],[-0.3497,48.0849],[-0.3481,48.0807],[-0.3420,48.0756],[-0.3430,48.0737],[-0.3440,48.0752],[-0.3459,48.0752],[-0.3457,48.0768],[-0.3481,48.0779],[-0.3485,48.0796],[-0.3517,48.0788],[-0.3532,48.0805],[-0.3592,48.0813],[-0.3604,48.0801],[-0.3598,48.0770],[-0.3626,48.0763],[-0.3620,48.0799],[-0.3635,48.0802],[-0.3672,48.0774],[-0.3673,48.0747],[-0.3610,48.0705],[-0.3589,48.0718],[-0.3544,48.0715],[-0.3556,48.0695],[-0.3522,48.0683],[-0.3574,48.0638],[-0.3640,48.0648],[-0.3637,48.0585],[-0.3717,48.0584],[-0.3744,48.0565],[-0.3767,48.0569],[-0.3756,48.0554],[-0.3771,48.0557],[-0.3780,48.0544],[-0.3766,48.0522],[-0.3774,48.0512],[-0.3755,48.0498],[-0.3728,48.0510],[-0.3736,48.0524],[-0.3663,48.0521],[-0.3665,48.0556],[-0.3638,48.0561],[-0.3638,48.0576],[-0.3589,48.0572],[-0.3557,48.0630],[-0.3459,48.0611],[-0.3462,48.0625],[-0.3436,48.0625],[-0.3428,48.0638],[-0.3412,48.0636],[-0.3398,48.0615],[-0.3372,48.0627],[-0.3327,48.0615],[-0.3312,48.0624],[-0.3317,48.0642],[-0.3364,48.0638],[-0.3367,48.0649],[-0.3318,48.0644],[-0.3325,48.0689],[-0.3304,48.0716],[-0.3291,48.0708],[-0.3282,48.0729],[-0.3241,48.0740],[-0.3223,48.0773],[-0.3279,48.0754],[-0.3314,48.0767],[-0.3283,48.0770],[-0.3258,48.0797],[-0.3295,48.0805],[-0.3298,48.0815],[-0.3349,48.0815],[-0.3332,48.0865],[-0.3223,48.0878],[-0.3195,48.0863],[-0.3228,48.0842],[-0.3229,48.0819],[-0.3258,48.0841],[-0.3279,48.0832],[-0.3258,48.0830],[-0.3260,48.0810],[-0.3237,48.0804],[-0.3249,48.0770],[-0.3223,48.0774],[-0.3233,48.0803],[-0.3150,48.0770],[-0.3166,48.0765],[-0.3171,48.0752],[-0.3151,48.0748],[-0.3169,48.0723],[-0.3111,48.0724],[-0.3069,48.0741],[-0.3054,48.0726],[-0.3018,48.0756],[-0.3060,48.0757],[-0.3046,48.0768],[-0.3060,48.0774],[-0.3056,48.0792],[-0.3038,48.0794],[-0.3066,48.0800],[-0.3064,48.0881],[-0.3049,48.0895],[-0.3065,48.0900],[-0.3110,48.0880],[-0.3110,48.0896],[-0.3171,48.0922],[-0.3150,48.0929],[-0.3163,48.0941],[-0.3165,48.0929],[-0.3225,48.0939],[-0.3220,48.0967],[-0.3260,48.0976],[-0.3340,48.0943],[-0.3396,48.0965],[-0.3389,48.0946],[-0.3403,48.0942],[-0.3374,48.0923],[-0.3383,48.0910],[-0.3309,48.0910],[-0.3367,48.0877],[-0.3383,48.0902],[-0.3405,48.0876],[-0.3440,48.0876],[-0.3424,48.0852],[-0.3400,48.0846],[-0.3412,48.0824],[-0.3437,48.0823],[-0.3428,48.0844],[-0.3462,48.0858],[-0.3462,48.0878]]]}},{"type":"Feature","properties":{"name":"Forêt de Concise"},"geometry":{"type":"Polygon","coordinates":[[[-0.8637,48.0351],[-0.8646,48.0369],[-0.8632,48.0382],[-0.8667,48.0381],[-0.8612,48.0400],[-0.8587,48.0398],[-0.8598,48.0350],[-0.8559,48.0361],[-0.8571,48.0381],[-0.8563,48.0419],[-0.8605,48.0414],[-0.8628,48.0425],[-0.8636,48.0440],[-0.8635,48.0450],[-0.8620,48.0452],[-0.8625,48.0467],[-0.8675,48.0463],[-0.8691,48.0494],[-0.8679,48.0502],[-0.8702,48.0542],[-0.8680,48.0559],[-0.8708,48.0562],[-0.8677,48.0579],[-0.8651,48.0559],[-0.8632,48.0509],[-0.8594,48.0501],[-0.8590,48.0480],[-0.8559,48.0479],[-0.8541,48.0513],[-0.8580,48.0523],[-0.8547,48.0516],[-0.8535,48.0537],[-0.8498,48.0536],[-0.8463,48.0588],[-0.8435,48.0586],[-0.8376,48.0553],[-0.8368,48.0561],[-0.8383,48.0567],[-0.8381,48.0588],[-0.8353,48.0582],[-0.8343,48.0602],[-0.8355,48.0627],[-0.8244,48.0619],[-0.8242,48.0637],[-0.8176,48.0642],[-0.8232,48.0610],[-0.8229,48.0586],[-0.8208,48.0571],[-0.8258,48.0577],[-0.8224,48.0510],[-0.8237,48.0512],[-0.8230,48.0487],[-0.8202,48.0484],[-0.8228,48.0473],[-0.8202,48.0443],[-0.8289,48.0443],[-0.8289,48.0423],[-0.8267,48.0419],[-0.8273,48.0406],[-0.8352,48.0359],[-0.8390,48.0359],[-0.8391,48.0381],[-0.8412,48.0387],[-0.8428,48.0371],[-0.8469,48.0390],[-0.8484,48.0358],[-0.8515,48.0367],[-0.8539,48.0355],[-0.8527,48.0331],[-0.8588,48.0329],[-0.8619,48.0315],[-0.8618,48.0304],[-0.8583,48.0295],[-0.8594,48.0279],[-0.8656,48.0310],[-0.8631,48.0306],[-0.8624,48.0365],[-0.8605,48.0376],[-0.8610,48.0395],[-0.8637,48.0351]]]}},{"type":"Feature","properties":{"name":"Forêt de la Grande Charnie"},"geometry":{"type":"Polygon","coordinates":[[[-0.2666,48.0378],[-0.2682,48.0388],[-0.2686,48.0370],[-0.2747,48.0386],[-0.2794,48.0379],[-0.2738,48.0322],[-0.2801,48.0310],[-0.2803,48.0322],[-0.2828,48.0321],[-0.2829,48.0335],[-0.2841,48.0333],[-0.2847,48.0305],[-0.2892,48.0295],[-0.2888,48.0315],[-0.2930,48.0308],[-0.2921,48.0334],[-0.2905,48.0329],[-0.2899,48.0355],[-0.2955,48.0359],[-0.2963,48.0335],[-0.3029,48.0323],[-0.3055,48.0335],[-0.3060,48.0356],[-0.3042,48.0405],[-0.3080,48.0407],[-0.3063,48.0418],[-0.3078,48.0433],[-0.3071,48.0457],[-0.3098,48.0455],[-0.3105,48.0438],[-0.3125,48.0462],[-0.3061,48.0470],[-0.3077,48.0460],[-0.3039,48.0460],[-0.3037,48.0418],[-0.3021,48.0407],[-0.2991,48.0417],[-0.2969,48.0407],[-0.2881,48.0436],[-0.2821,48.0418],[-0.2790,48.0440],[-0.2798,48.0450],[-0.2772,48.0451],[-0.2745,48.0469],[-0.2765,48.0481],[-0.2839,48.0468],[-0.2835,48.0448],[-0.2843,48.0458],[-0.2956,48.0457],[-0.2963,48.0469],[-0.2924,48.0484],[-0.2879,48.0462],[-0.2852,48.0492],[-0.2800,48.0494],[-0.2798,48.0508],[-0.2699,48.0492],[-0.2688,48.0499],[-0.2692,48.0517],[-0.2635,48.0521],[-0.2617,48.0556],[-0.2663,48.0569],[-0.2748,48.0554],[-0.2754,48.0542],[-0.2778,48.0549],[-0.2808,48.0538],[-0.2809,48.0517],[-0.2845,48.0512],[-0.2854,48.0536],[-0.2908,48.0520],[-0.2923,48.0529],[-0.2904,48.0535],[-0.2910,48.0543],[-0.2930,48.0535],[-0.2945,48.0544],[-0.2936,48.0552],[-0.2956,48.0555],[-0.2971,48.0577],[-0.2946,48.0594],[-0.2968,48.0596],[-0.2968,48.0618],[-0.3032,48.0674],[-0.3024,48.0688],[-0.2910,48.0680],[-0.2940,48.0717],[-0.2971,48.0720],[-0.2958,48.0739],[-0.2989,48.0750],[-0.2949,48.0767],[-0.2945,48.0774],[-0.2961,48.0780],[-0.2956,48.0802],[-0.2917,48.0789],[-0.2916,48.0811],[-0.2860,48.0832],[-0.2871,48.0842],[-0.2798,48.0867],[-0.2748,48.0857],[-0.2748,48.0841],[-0.2708,48.0869],[-0.2669,48.0859],[-0.2646,48.0878],[-0.2563,48.0877],[-0.2537,48.0855],[-0.2542,48.0840],[-0.2529,48.0829],[-0.2438,48.0826],[-0.2425,48.0837],[-0.2434,48.0843],[-0.2430,48.0911],[-0.2398,48.0913],[-0.2424,48.0902],[-0.2408,48.0888],[-0.2353,48.0882],[-0.2401,48.0865],[-0.2371,48.0833],[-0.2439,48.0762],[-0.2415,48.0760],[-0.2408,48.0783],[-0.2379,48.0781],[-0.2366,48.0733],[-0.2258,48.0714],[-0.2271,48.0674],[-0.2313,48.0654],[-0.2186,48.0628],[-0.2183,48.0664],[-0.2230,48.0675],[-0.2224,48.0692],[-0.2181,48.0681],[-0.2158,48.0695],[-0.2160,48.0674],[-0.2135,48.0655],[-0.2145,48.0652],[-0.2115,48.0643],[-0.2136,48.0626],[-0.2130,48.0619],[-0.2095,48.0626],[-0.2033,48.0607],[-0.2016,48.0621],[-0.1983,48.0613],[-0.1991,48.0603],[-0.1974,48.0593],[-0.1996,48.0566],[-0.2014,48.0583],[-0.2005,48.0598],[-0.2040,48.0576],[-0.2036,48.0591],[-0.2066,48.0598],[-0.2058,48.0571],[-0.2076,48.0563],[-0.2073,48.0541],[-0.2112,48.0538],[-0.2136,48.0520],[-0.2061,48.0542],[-0.2098,48.0511],[-0.2093,48.0500],[-0.2077,48.0505],[-0.2064,48.0481],[-0.2116,48.0476],[-0.2129,48.0462],[-0.2139,48.0471],[-0.2209,48.0475],[-0.2210,48.0502],[-0.2190,48.0493],[-0.2201,48.0515],[-0.2191,48.0519],[-0.2210,48.0542],[-0.2278,48.0556],[-0.2284,48.0572],[-0.2255,48.0566],[-0.2281,48.0601],[-0.2269,48.0614],[-0.2324,48.0642],[-0.2358,48.0627],[-0.2314,48.0607],[-0.2364,48.0598],[-0.2322,48.0587],[-0.2376,48.0587],[-0.2371,48.0579],[-0.2403,48.0565],[-0.2394,48.0552],[-0.2457,48.0558],[-0.2528,48.0542],[-0.2559,48.0553],[-0.2531,48.0492],[-0.2581,48.0494],[-0.2593,48.0475],[-0.2564,48.0470],[-0.2590,48.0449],[-0.2576,48.0437],[-0.2560,48.0459],[-0.2536,48.0453],[-0.2490,48.0465],[-0.2426,48.0452],[-0.2433,48.0444],[-0.2396,48.0410],[-0.2437,48.0413],[-0.2454,48.0402],[-0.2404,48.0387],[-0.2384,48.0330],[-0.2430,48.0310],[-0.2403,48.0324],[-0.2429,48.0345],[-0.2482,48.0348],[-0.2460,48.0330],[-0.2474,48.0326],[-0.2490,48.0352],[-0.2532,48.0341],[-0.2576,48.0354],[-0.2588,48.0369],[-0.2597,48.0354],[-0.2624,48.0348],[-0.2628,48.0368],[-0.2666,48.0378]]]}},{"type":"Feature","properties":{"name":"Forêt domaniale de Petite Charnie"},"geometry":{"type":"Polygon","coordinates":[[[-0.1557,48.0954],[-0.1540,48.0881],[-0.1506,48.0874],[-0.1536,48.0864],[-0.1531,48.0806],[-0.1626,48.0805],[-0.1629,48.0819],[-0.1662,48.0823],[-0.1621,48.0786],[-0.1773,48.0775],[-0.1781,48.0763],[-0.1824,48.0793],[-0.1827,48.0826],[-0.1807,48.0863],[-0.1817,48.0880],[-0.1800,48.0883],[-0.1843,48.0913],[-0.1809,48.0941],[-0.1784,48.0932],[-0.1716,48.0968],[-0.1557,48.0954]]]}},{"type":"Feature","properties":{"name":"Bois de Bergault"},"geometry":{"type":"Polygon","coordinates":[[[-0.6356,47.9814],[-0.6365,47.9844],[-0.6383,47.9851],[-0.6381,47.9871],[-0.6412,47.9881],[-0.6428,47.9872],[-0.6453,47.9886],[-0.6453,47.9900],[-0.6425,47.9927],[-0.6321,47.9898],[-0.6310,47.9911],[-0.6276,47.9907],[-0.6167,47.9845],[-0.6163,47.9865],[-0.6128,47.9856],[-0.6137,47.9847],[-0.6113,47.9838],[-0.6131,47.9790],[-0.6120,47.9757],[-0.6133,47.9747],[-0.6203,47.9743],[-0.6220,47.9769],[-0.6330,47.9779],[-0.6323,47.9793],[-0.6356,47.9814]]]}}]}