{"type":"FeatureCollection","features":[{"type":"Feature","properties":{"name":"La Trémont"},"geometry":{"type":"Polygon","coordinates":[[[5.4475,48.4791],[5.4505,48.4836],[5.4499,48.4858],[5.4449,48.4862],[5.4470,48.4865],[5.4432,48.4878],[5.4423,48.4900],[5.4402,48.4904],[5.4325,48.4870],[5.4268,48.4805],[5.4275,48.4773],[5.4309,48.4759],[5.4331,48.4712],[5.4475,48.4791]]]}},{"type":"Feature","properties":{"name":"Forêt communale de Void Vacon"},"geometry":{"type":"Polygon","coordinates":[[[5.6715,48.6880],[5.6766,48.6871],[5.6769,48.6850],[5.6806,48.6838],[5.6838,48.6797],[5.6806,48.6778],[5.6819,48.6714],[5.6770,48.6686],[5.6754,48.6700],[5.6754,48.6685],[5.6745,48.6698],[5.6739,48.6683],[5.6713,48.6678],[5.6740,48.6663],[5.6708,48.6644],[5.6704,48.6614],[5.6676,48.6607],[5.6675,48.6588],[5.6716,48.6561],[5.6842,48.6585],[5.6813,48.6574],[5.6841,48.6577],[5.6729,48.6534],[5.6641,48.6537],[5.6694,48.6518],[5.6682,48.6503],[5.6651,48.6511],[5.6608,48.6482],[5.6614,48.6441],[5.6571,48.6444],[5.6572,48.6427],[5.6560,48.6426],[5.6561,48.6439],[5.6544,48.6432],[5.6537,48.6407],[5.6572,48.6408],[5.6554,48.6358],[5.6507,48.6357],[5.6488,48.6383],[5.6476,48.6348],[5.6438,48.6366],[5.6421,48.6361],[5.6447,48.6303],[5.6358,48.6313],[5.6342,48.6320],[5.6338,48.6347],[5.6314,48.6345],[5.6272,48.6317],[5.6272,48.6298],[5.6311,48.6259],[5.6473,48.6248],[5.6462,48.6221],[5.6412,48.6198],[5.6345,48.6217],[5.6331,48.6205],[5.6327,48.6181],[5.6373,48.6156],[5.6329,48.6119],[5.6313,48.6088],[5.6269,48.6060],[5.6287,48.6037],[5.6287,48.6007],[5.6371,48.6006],[5.6369,48.6018],[5.6425,48.6027],[5.6449,48.6017],[5.6537,48.6037],[5.6537,48.6048],[5.6515,48.6048],[5.6526,48.6078],[5.6509,48.6097],[5.6530,48.6139],[5.6539,48.6094],[5.6555,48.6094],[5.6555,48.6077],[5.6569,48.6078],[5.6570,48.6046],[5.6594,48.6035],[5.6560,48.6034],[5.6567,48.6026],[5.6541,48.6022],[5.6535,48.6004],[5.6507,48.6021],[5.6446,48.5978],[5.6519,48.5966],[5.6496,48.5943],[5.6548,48.5970],[5.6547,48.5956],[5.6499,48.5942],[5.6508,48.5924],[5.6486,48.5914],[5.6488,48.5880],[5.6463,48.5873],[5.6460,48.5894],[5.6426,48.5889],[5.6446,48.5930],[5.6484,48.5947],[5.6454,48.5962],[5.6419,48.5931],[5.6427,48.5960],[5.6398,48.5973],[5.6425,48.5990],[5.6419,48.5998],[5.6310,48.5986],[5.6312,48.5963],[5.6248,48.5989],[5.6213,48.5989],[5.6199,48.5967],[5.6258,48.5952],[5.6241,48.5930],[5.6205,48.5921],[5.6121,48.5910],[5.5960,48.5917],[5.5929,48.5898],[5.5918,48.5906],[5.5934,48.5928],[5.5903,48.5971],[5.5945,48.5997],[5.5871,48.5976],[5.5836,48.6037],[5.5869,48.6039],[5.5838,48.6066],[5.5827,48.6055],[5.5817,48.6063],[5.5845,48.6109],[5.5939,48.6203],[5.5988,48.6337],[5.6031,48.6364],[5.6049,48.6361],[5.6040,48.6367],[5.6054,48.6377],[5.6148,48.6356],[5.6202,48.6363],[5.6287,48.6404],[5.6265,48.6414],[5.6214,48.6408],[5.6151,48.6427],[5.6150,48.6394],[5.6215,48.6398],[5.6174,48.6379],[5.6083,48.6412],[5.6125,48.6489],[5.6117,48.6542],[5.6154,48.6523],[5.6256,48.6518],[5.6242,48.6585],[5.6185,48.6588],[5.6196,48.6568],[5.6192,48.6538],[5.6163,48.6549],[5.6175,48.6562],[5.6130,48.6580],[5.6127,48.6616],[5.6147,48.6677],[5.6175,48.6672],[5.6181,48.6654],[5.6158,48.6627],[5.6166,48.6616],[5.6242,48.6631],[5.6252,48.6646],[5.6223,48.6662],[5.6283,48.6685],[5.6311,48.6634],[5.6352,48.6642],[5.6324,48.6701],[5.6303,48.6696],[5.6292,48.6714],[5.6312,48.6716],[5.6301,48.6736],[5.6317,48.6735],[5.6320,48.6713],[5.6322,48.6735],[5.6353,48.6753],[5.6363,48.6747],[5.6342,48.6681],[5.6372,48.6646],[5.6425,48.6665],[5.6551,48.6656],[5.6535,48.6686],[5.6470,48.6680],[5.6444,48.6716],[5.6462,48.6731],[5.6494,48.6722],[5.6511,48.6745],[5.6496,48.6756],[5.6530,48.6742],[5.6517,48.6741],[5.6521,48.6715],[5.6583,48.6747],[5.6507,48.6792],[5.6507,48.6817],[5.6488,48.6826],[5.6497,48.6829],[5.6389,48.6834],[5.6368,48.6847],[5.6551,48.6850],[5.6556,48.6838],[5.6543,48.6837],[5.6556,48.6827],[5.6610,48.6827],[5.6622,48.6842],[5.6700,48.6855],[5.6694,48.6877],[5.6659,48.6873],[5.6678,48.6883],[5.6715,48.6880]]]}},{"type":"Feature","properties":{"name":"Bois de la Haie Marlin"},"geometry":{"type":"Polygon","coordinates":[[[4.9701,48.8117],[4.9938,48.8168],[5.0091,48.8167],[5.0129,48.8146],[5.0108,48.8133],[5.0113,48.8113],[5.0122,48.8125],[5.0151,48.8123],[5.0141,48.8114],[5.0155,48.8105],[5.0142,48.8096],[5.0161,48.8087],[5.0151,48.8068],[5.0135,48.8071],[5.0105,48.8101],[5.0079,48.8095],[5.0069,48.8115],[5.0061,48.8103],[5.0037,48.8112],[5.0038,48.8096],[5.0003,48.8125],[4.9997,48.8148],[4.9970,48.8153],[4.9966,48.8133],[4.9953,48.8139],[4.9958,48.8105],[4.9922,48.8108],[4.9900,48.8093],[4.9903,48.8075],[4.9795,48.8025],[4.9724,48.8049],[4.9747,48.8076],[4.9782,48.8083],[4.9763,48.8107],[4.9679,48.8073],[4.9662,48.8102],[4.9701,48.8117]]]}},{"type":"Feature","properties":{"name":"La Fouée Forêt communale de Chalaines"},"geometry":{"type":"Polygon","coordinates":[[[5.7027,48.6025],[5.7083,48.6003],[5.7135,48.5951],[5.7142,48.5897],[5.7164,48.5858],[5.7151,48.5852],[5.7209,48.5799],[5.7200,48.5795],[5.7218,48.5773],[5.7234,48.5705],[5.7192,48.5708],[5.7189,48.5739],[5.7150,48.5737],[5.7131,48.5765],[5.7047,48.5736],[5.6960,48.5746],[5.6937,48.5760],[5.6942,48.5781],[5.7002,48.5807],[5.7022,48.5811],[5.7002,48.5785],[5.7026,48.5793],[5.7032,48.5809],[5.7014,48.5844],[5.7021,48.5887],[5.6990,48.5949],[5.6993,48.5965],[5.7013,48.5967],[5.7017,48.5991],[5.7004,48.6003],[5.7021,48.6011],[5.7008,48.6021],[5.7027,48.6025]]]}},{"type":"Feature","properties":{"name":"Bois de Tréveray"},"geometry":{"type":"Polygon","coordinates":[[[5.3691,48.5992],[5.3702,48.5975],[5.3688,48.5948],[5.3701,48.5943],[5.3717,48.5962],[5.3726,48.5952],[5.3706,48.5928],[5.3719,48.5914],[5.3704,48.5906],[5.3724,48.5894],[5.3731,48.5868],[5.3681,48.5829],[5.3678,48.5838],[5.3651,48.5824],[5.3543,48.5863],[5.3483,48.5867],[5.3489,48.5878],[5.3508,48.5870],[5.3523,48.5879],[5.3505,48.5906],[5.3511,48.5922],[5.3480,48.5935],[5.3445,48.5981],[5.3537,48.6010],[5.3554,48.6036],[5.3608,48.6027],[5.3629,48.6049],[5.3642,48.6047],[5.3632,48.6019],[5.3650,48.6014],[5.3650,48.5988],[5.3668,48.5975],[5.3691,48.5992]]]}},{"type":"Feature","properties":{"name":"Le Grand Haraumont"},"geometry":{"type":"Polygon","coordinates":[[[5.1153,48.8601],[5.1188,48.8585],[5.1180,48.8570],[5.1226,48.8549],[5.1249,48.8557],[5.1258,48.8537],[5.1275,48.8537],[5.1234,48.8499],[5.1297,48.8501],[5.1325,48.8488],[5.1334,48.8508],[5.1356,48.8513],[5.1386,48.8501],[5.1434,48.8510],[5.1438,48.8486],[5.1359,48.8452],[5.1332,48.8461],[5.1300,48.8428],[5.1205,48.8403],[5.1193,48.8424],[5.1164,48.8420],[5.1158,48.8440],[5.1190,48.8441],[5.1189,48.8458],[5.1148,48.8460],[5.1145,48.8469],[5.1171,48.8476],[5.1155,48.8482],[5.1157,48.8505],[5.1043,48.8490],[5.1031,48.8499],[5.1039,48.8507],[5.1003,48.8521],[5.1021,48.8520],[5.1016,48.8528],[5.1039,48.8561],[5.0996,48.8558],[5.1055,48.8568],[5.1081,48.8611],[5.1161,48.8615],[5.1153,48.8601]]]}},{"type":"Feature","properties":{"name":"Bois de Warphémont"},"geometry":{"type":"Polygon","coordinates":[[[5.5722,49.3566],[5.5721,49.3590],[5.5755,49.3604],[5.5752,49.3618],[5.5784,49.3645],[5.5836,49.3633],[5.5873,49.3648],[5.5834,49.3690],[5.5839,49.3701],[5.5858,49.3722],[5.5920,49.3736],[5.6043,49.3676],[5.6056,49.3658],[5.6052,49.3593],[5.6087,49.3595],[5.6080,49.3590],[5.6107,49.3566],[5.6080,49.3553],[5.6078,49.3535],[5.6102,49.3533],[5.6112,49.3510],[5.6126,49.3515],[5.6121,49.3502],[5.6159,49.3490],[5.6168,49.3471],[5.6109,49.3452],[5.6110,49.3432],[5.6014,49.3381],[5.5988,49.3398],[5.5966,49.3390],[5.5982,49.3402],[5.5954,49.3441],[5.5910,49.3431],[5.5903,49.3418],[5.5855,49.3433],[5.5839,49.3445],[5.5837,49.3503],[5.5821,49.3523],[5.5715,49.3562],[5.5722,49.3566]]]}},{"type":"Feature","properties":{"name":"Bois des Seigneurs"},"geometry":{"type":"Polygon","coordinates":[[[5.4554,49.5528],[5.4519,49.5532],[5.4502,49.5501],[5.4442,49.5501],[5.4482,49.5478],[5.4467,49.5413],[5.4435,49.5419],[5.4439,49.5401],[5.4491,49.5373],[5.4492,49.5347],[5.4467,49.5333],[5.4473,49.5290],[5.4463,49.5290],[5.4457,49.5332],[5.4421,49.5327],[5.4349,49.5354],[5.4207,49.5347],[5.4261,49.5387],[5.4230,49.5402],[5.4323,49.5419],[5.4339,49.5449],[5.4346,49.5429],[5.4377,49.5452],[5.4284,49.5439],[5.4245,49.5479],[5.4272,49.5496],[5.4267,49.5504],[5.4368,49.5530],[5.4359,49.5551],[5.4370,49.5558],[5.4439,49.5554],[5.4499,49.5581],[5.4544,49.5545],[5.4562,49.5549],[5.4554,49.5528]]]}},{"type":"Feature","properties":{"name":"Bois le Coutu"},"geometry":{"type":"Polygon","coordinates":[[[5.8152,49.2833],[5.8125,49.2822],[5.8117,49.2830],[5.8039,49.2781],[5.8064,49.2756],[5.8131,49.2777],[5.8188,49.2712],[5.8134,49.2691],[5.8120,49.2707],[5.8107,49.2703],[5.8073,49.2665],[5.8148,49.2600],[5.8058,49.2641],[5.8021,49.2588],[5.8014,49.2604],[5.8038,49.2641],[5.7945,49.2670],[5.7931,49.2638],[5.7908,49.2639],[5.7922,49.2616],[5.7946,49.2617],[5.7940,49.2592],[5.7886,49.2564],[5.7872,49.2590],[5.7839,49.2575],[5.7847,49.2559],[5.7816,49.2551],[5.7822,49.2513],[5.7843,49.2517],[5.7830,49.2504],[5.7851,49.2479],[5.7885,49.2473],[5.7978,49.2490],[5.7982,49.2500],[5.7936,49.2498],[5.7930,49.2511],[5.7995,49.2568],[5.8026,49.2557],[5.8044,49.2573],[5.8080,49.2560],[5.8136,49.2592],[5.8138,49.2583],[5.8114,49.2573],[5.8157,49.2582],[5.8228,49.2573],[5.8248,49.2611],[5.8198,49.2646],[5.8220,49.2666],[5.8233,49.2654],[5.8239,49.2673],[5.8278,49.2683],[5.8308,49.2672],[5.8321,49.2681],[5.8335,49.2668],[5.8342,49.2681],[5.8367,49.2682],[5.8418,49.2661],[5.8393,49.2656],[5.8402,49.2624],[5.8393,49.2619],[5.8422,49.2615],[5.8430,49.2598],[5.8493,49.2598],[5.8511,49.2575],[5.8545,49.2573],[5.8563,49.2587],[5.8553,49.2595],[5.8577,49.2614],[5.8555,49.2645],[5.8423,49.2660],[5.8441,49.2669],[5.8509,49.2658],[5.8531,49.2670],[5.8448,49.2684],[5.8480,49.2696],[5.8461,49.2722],[5.8466,49.2739],[5.8518,49.2749],[5.8356,49.2752],[5.8317,49.2741],[5.8362,49.2711],[5.8311,49.2694],[5.8260,49.2732],[5.8194,49.2732],[5.8189,49.2786],[5.8153,49.2810],[5.8270,49.2837],[5.8236,49.2863],[5.8186,49.2843],[5.8259,49.2949],[5.8169,49.2985],[5.8196,49.2992],[5.8216,49.3013],[5.8183,49.3039],[5.8152,49.3040],[5.8132,49.3019],[5.8150,49.3006],[5.8149,49.2987],[5.8092,49.2942],[5.8137,49.2913],[5.8089,49.2885],[5.8105,49.2840],[5.8149,49.2870],[5.8174,49.2858],[5.8152,49.2833]]]}},{"type":"Feature","properties":{"name":"Bois de Tilly"},"geometry":{"type":"Polygon","coordinates":[[[5.6527,49.2464],[5.6561,49.2471],[5.6597,49.2460],[5.6641,49.2394],[5.6565,49.2305],[5.6371,49.2268],[5.6348,49.2313],[5.6302,49.2325],[5.6317,49.2338],[5.6406,49.2349],[5.6409,49.2363],[5.6378,49.2371],[5.6387,49.2391],[5.6369,49.2401],[5.6402,49.2437],[5.6527,49.2464]]]}},{"type":"Feature","properties":{"name":"Les Carrières"},"geometry":{"type":"Polygon","coordinates":[[[5.6536,48.7729],[5.6629,48.7720],[5.6627,48.7700],[5.6648,48.7699],[5.6617,48.7650],[5.6547,48.7630],[5.6556,48.7610],[5.6603,48.7599],[5.6586,48.7572],[5.6628,48.7562],[5.6570,48.7549],[5.6562,48.7535],[5.6580,48.7489],[5.6550,48.7498],[5.6558,48.7520],[5.6532,48.7510],[5.6530,48.7482],[5.6518,48.7504],[5.6446,48.7524],[5.6479,48.7542],[5.6464,48.7549],[5.6492,48.7565],[5.6460,48.7588],[5.6413,48.7598],[5.6347,48.7583],[5.6323,48.7563],[5.6305,48.7575],[5.6316,48.7600],[5.6450,48.7611],[5.6510,48.7633],[5.6520,48.7646],[5.6485,48.7646],[5.6474,48.7658],[5.6524,48.7681],[5.6524,48.7715],[5.6536,48.7729]]]}},{"type":"Feature","properties":{"name":"Bois Vauguyot"},"geometry":{"type":"Polygon","coordinates":[[[5.5096,48.6895],[5.5151,48.6855],[5.5102,48.6856],[5.5096,48.6841],[5.5028,48.6810],[5.4993,48.6813],[5.4979,48.6834],[5.4923,48.6828],[5.4917,48.6842],[5.4896,48.6841],[5.4884,48.6889],[5.4909,48.6918],[5.4967,48.6949],[5.5102,48.6987],[5.5050,48.6963],[5.5040,48.6956],[5.5055,48.6951],[5.5020,48.6929],[5.5080,48.6928],[5.5096,48.6895]]]}},{"type":"Feature","properties":{"name":"Le Mont"},"geometry":{"type":"Polygon","coordinates":[[[5.6964,48.8908],[5.6977,48.8863],[5.6937,48.8847],[5.6960,48.8810],[5.6904,48.8793],[5.6946,48.8776],[5.6936,48.8768],[5.6922,48.8763],[5.6921,48.8778],[5.6884,48.8771],[5.6831,48.8735],[5.6782,48.8739],[5.6789,48.8723],[5.6751,48.8738],[5.6716,48.8713],[5.6694,48.8716],[5.6697,48.8705],[5.6663,48.8695],[5.6674,48.8686],[5.6614,48.8667],[5.6626,48.8656],[5.6597,48.8660],[5.6569,48.8644],[5.6580,48.8634],[5.6553,48.8608],[5.6523,48.8598],[5.6536,48.8609],[5.6509,48.8615],[5.6542,48.8665],[5.6589,48.8678],[5.6605,48.8716],[5.6625,48.8719],[5.6609,48.8730],[5.6563,48.8704],[5.6564,48.8716],[5.6638,48.8767],[5.6675,48.8779],[5.6738,48.8777],[5.6815,48.8799],[5.6788,48.8825],[5.6875,48.8862],[5.6841,48.8881],[5.6809,48.8880],[5.6822,48.8898],[5.6900,48.8937],[5.6933,48.8932],[5.6964,48.8908]]]}},{"type":"Feature","properties":{"name":"Bois de Bugny"},"geometry":{"type":"Polygon","coordinates":[[[5.0550,48.8579],[5.0693,48.8674],[5.0718,48.8678],[5.0733,48.8664],[5.0737,48.8623],[5.0720,48.8606],[5.0762,48.8609],[5.0805,48.8592],[5.0801,48.8580],[5.0793,48.8592],[5.0775,48.8565],[5.0793,48.8571],[5.0788,48.8558],[5.0820,48.8558],[5.0841,48.8535],[5.0835,48.8515],[5.0867,48.8511],[5.0839,48.8512],[5.0834,48.8502],[5.0906,48.8495],[5.0917,48.8474],[5.0975,48.8458],[5.0980,48.8431],[5.0961,48.8431],[5.0953,48.8407],[5.0908,48.8403],[5.0922,48.8436],[5.0868,48.8438],[5.0835,48.8466],[5.0831,48.8433],[5.0795,48.8433],[5.0745,48.8466],[5.0736,48.8457],[5.0747,48.8449],[5.0736,48.8442],[5.0762,48.8434],[5.0756,48.8425],[5.0801,48.8420],[5.0848,48.8383],[5.0863,48.8355],[5.0990,48.8349],[5.1026,48.8365],[5.1076,48.8362],[5.1090,48.8327],[5.1053,48.8290],[5.1067,48.8275],[5.1067,48.8251],[5.1096,48.8240],[5.1077,48.8241],[5.1056,48.8208],[5.0955,48.8218],[5.0897,48.8257],[5.0894,48.8243],[5.0864,48.8240],[5.0808,48.8254],[5.0755,48.8246],[5.0727,48.8209],[5.0673,48.8194],[5.0601,48.8232],[5.0565,48.8236],[5.0581,48.8254],[5.0623,48.8250],[5.0618,48.8234],[5.0669,48.8217],[5.0708,48.8226],[5.0738,48.8270],[5.0721,48.8275],[5.0747,48.8283],[5.0693,48.8307],[5.0702,48.8327],[5.0663,48.8343],[5.0686,48.8366],[5.0636,48.8360],[5.0624,48.8344],[5.0635,48.8332],[5.0610,48.8340],[5.0634,48.8370],[5.0612,48.8381],[5.0621,48.8402],[5.0658,48.8404],[5.0665,48.8420],[5.0651,48.8427],[5.0660,48.8446],[5.0630,48.8458],[5.0646,48.8469],[5.0664,48.8458],[5.0643,48.8497],[5.0716,48.8495],[5.0697,48.8502],[5.0704,48.8514],[5.0550,48.8579]]]}},{"type":"Feature","properties":{"name":"Bois de Saulx (Forêt Privée)"},"geometry":{"type":"Polygon","coordinates":[[[5.6802,49.2557],[5.7029,49.2573],[5.7032,49.2557],[5.7088,49.2559],[5.7125,49.2539],[5.7182,49.2487],[5.7069,49.2455],[5.6960,49.2403],[5.6907,49.2395],[5.6911,49.2403],[5.6885,49.2420],[5.6875,49.2388],[5.6816,49.2395],[5.6823,49.2437],[5.6868,49.2471],[5.6765,49.2516],[5.6725,49.2484],[5.6683,49.2505],[5.6680,49.2520],[5.6692,49.2521],[5.6692,49.2534],[5.6752,49.2541],[5.6766,49.2531],[5.6802,49.2557]]]}},{"type":"Feature","properties":{"name":"Forêt domaniale de Mathons"},"geometry":{"type":"Polygon","coordinates":[[[5.0547,48.4113],[5.0543,48.4092],[5.0573,48.4056],[5.0627,48.4074],[5.0644,48.4029],[5.0484,48.4017],[5.0382,48.3964],[5.0329,48.3912],[5.0219,48.4016],[5.0173,48.4028],[5.0098,48.4011],[5.0085,48.4029],[5.0118,48.4036],[5.0118,48.4172],[5.0205,48.4190],[5.0325,48.4158],[5.0354,48.4166],[5.0472,48.4157],[5.0552,48.4121],[5.0547,48.4113]]]}},{"type":"Feature","properties":{"name":"Forêt Domaniale de Montiers sur Saulx"},"geometry":{"type":"Polygon","coordinates":[[[5.2885,48.5599],[5.3196,48.5621],[5.3276,48.5486],[5.3317,48.5339],[5.3460,48.5306],[5.3470,48.5272],[5.3446,48.5227],[5.3455,48.5193],[5.3304,48.5230],[5.3278,48.5226],[5.3253,48.5152],[5.3202,48.5148],[5.3162,48.5164],[5.3081,48.5133],[5.3063,48.5152],[5.2881,48.5174],[5.2917,48.5246],[5.2911,48.5289],[5.2775,48.5346],[5.2806,48.5374],[5.2806,48.5407],[5.2831,48.5462],[5.2772,48.5585],[5.2885,48.5599]]]}},{"type":"Feature","properties":{"name":"Forêt Communale de Morley"},"geometry":{"type":"Polygon","coordinates":[[[5.2120,48.5830],[5.1908,48.5722],[5.2123,48.5532],[5.2194,48.5560],[5.2190,48.5653],[5.2163,48.5673],[5.2262,48.5725],[5.2229,48.5728],[5.2208,48.5765],[5.2233,48.5778],[5.2333,48.5765],[5.2379,48.5776],[5.2374,48.5812],[5.2288,48.5833],[5.2217,48.5842],[5.2120,48.5830]]]}},{"type":"Feature","properties":{"name":"Forêt de Grammont"},"geometry":{"type":"Polygon","coordinates":[[[5.3088,48.5314],[5.3195,48.5366],[5.3273,48.5378],[5.3312,48.5335],[5.3456,48.5302],[5.3464,48.5272],[5.3438,48.5227],[5.3450,48.5197],[5.3301,48.5233],[5.3270,48.5229],[5.3261,48.5205],[5.3070,48.5221],[5.3088,48.5314]]]}},{"type":"Feature","properties":{"name":"Forêt Domaniale de Ste Geneviève"},"geometry":{"type":"Polygon","coordinates":[[[5.2720,48.7965],[5.2797,48.7959],[5.2799,48.7939],[5.2764,48.7928],[5.2752,48.7920],[5.2756,48.7904],[5.2705,48.7882],[5.2730,48.7870],[5.2734,48.7846],[5.2718,48.7813],[5.2644,48.7823],[5.2657,48.7834],[5.2635,48.7851],[5.2627,48.7835],[5.2637,48.7827],[5.2625,48.7826],[5.2632,48.7788],[5.2596,48.7717],[5.2603,48.7670],[5.2594,48.7667],[5.2593,48.7682],[5.2569,48.7688],[5.2558,48.7724],[5.2538,48.7720],[5.2518,48.7738],[5.2528,48.7758],[5.2509,48.7766],[5.2505,48.7794],[5.2507,48.7813],[5.2524,48.7827],[5.2504,48.7828],[5.2511,48.7849],[5.2472,48.7850],[5.2720,48.7965]]]}},{"type":"Feature","properties":{"name":"Le Haut Bois"},"geometry":{"type":"Polygon","coordinates":[[[5.5217,48.6293],[5.5282,48.6304],[5.5310,48.6296],[5.5330,48.6326],[5.5428,48.6360],[5.5485,48.6341],[5.5500,48.6312],[5.5488,48.6304],[5.5515,48.6267],[5.5523,48.6224],[5.5502,48.6218],[5.5516,48.6187],[5.5493,48.6191],[5.5485,48.6177],[5.5521,48.6166],[5.5517,48.6153],[5.5417,48.6138],[5.5325,48.6168],[5.5271,48.6169],[5.5245,48.6197],[5.5232,48.6256],[5.5215,48.6261],[5.5230,48.6266],[5.5224,48.6276],[5.5208,48.6271],[5.5217,48.6293]]]}},{"type":"Feature","properties":{"name":"Forêt Communale de Laheycourt"},"geometry":{"type":"Polygon","coordinates":[[[5.0407,48.9294],[5.0471,48.9268],[5.0484,48.9241],[5.0552,48.9210],[5.0561,48.9180],[5.0647,48.9148],[5.0706,48.9086],[5.0731,48.9077],[5.0751,48.9032],[5.0716,48.9027],[5.0663,48.9041],[5.0611,48.9025],[5.0506,48.9034],[5.0480,48.9039],[5.0487,48.9053],[5.0467,48.9101],[5.0327,48.9134],[5.0187,48.9149],[5.0180,48.9132],[5.0138,48.9137],[5.0166,48.9166],[5.0177,48.9205],[5.0233,48.9175],[5.0270,48.9196],[5.0283,48.9232],[5.0310,48.9227],[5.0381,48.9251],[5.0407,48.9294]]]}},{"type":"Feature","properties":{"name":"La Belle Etoile"},"geometry":{"type":"Polygon","coordinates":[[[5.4548,48.7451],[5.4651,48.7484],[5.4735,48.7482],[5.4777,48.7447],[5.4784,48.7400],[5.4526,48.7318],[5.4471,48.7335],[5.4458,48.7357],[5.4486,48.7385],[5.4497,48.7425],[5.4548,48.7451]]]}},{"type":"Feature","properties":{"name":"Bois de Laneuville aux Rupt"},"geometry":{"type":"Polygon","coordinates":[[[5.5580,48.7223],[5.5679,48.7289],[5.5738,48.7310],[5.5873,48.7293],[5.5869,48.7237],[5.5852,48.7221],[5.5907,48.7195],[5.5848,48.7170],[5.5762,48.7179],[5.5700,48.7167],[5.5673,48.7140],[5.5562,48.7104],[5.5489,48.7108],[5.5519,48.7133],[5.5462,48.7147],[5.5437,48.7183],[5.5580,48.7223]]]}},{"type":"Feature","properties":{"name":"Bois du Vieux Four"},"geometry":{"type":"Polygon","coordinates":[[[5.0750,48.9285],[5.0918,48.9289],[5.0935,48.9266],[5.0869,48.9200],[5.0872,48.9157],[5.0798,48.9130],[5.0731,48.9148],[5.0720,48.9176],[5.0665,48.9233],[5.0670,48.9269],[5.0750,48.9285]]]}},{"type":"Feature","properties":{"name":"Bois de Pagny"},"geometry":{"type":"Polygon","coordinates":[[[5.7610,48.5221],[5.7451,48.5260],[5.7448,48.5296],[5.7402,48.5318],[5.7416,48.5321],[5.7411,48.5329],[5.7433,48.5321],[5.7409,48.5343],[5.7452,48.5381],[5.7371,48.5446],[5.7418,48.5492],[5.7405,48.5496],[5.7445,48.5497],[5.7454,48.5510],[5.7490,48.5501],[5.7480,48.5488],[5.7519,48.5458],[5.7548,48.5466],[5.7532,48.5455],[5.7550,48.5434],[5.7531,48.5429],[5.7515,48.5366],[5.7485,48.5334],[5.7472,48.5342],[5.7436,48.5332],[5.7451,48.5318],[5.7439,48.5319],[5.7527,48.5292],[5.7529,48.5306],[5.7555,48.5298],[5.7556,48.5308],[5.7529,48.5358],[5.7532,48.5389],[5.7590,48.5451],[5.7631,48.5446],[5.7636,48.5431],[5.7674,48.5444],[5.7685,48.5443],[5.7679,48.5431],[5.7759,48.5419],[5.7765,48.5381],[5.7743,48.5354],[5.7663,48.5354],[5.7610,48.5221]]]}},{"type":"Feature","properties":{"name":"Forêt communale de Sauvigny"},"geometry":{"type":"Polygon","coordinates":[[[5.7417,48.5077],[5.7420,48.5063],[5.7435,48.5074],[5.7464,48.5065],[5.7473,48.5047],[5.7504,48.5053],[5.7501,48.5040],[5.7529,48.4998],[5.7418,48.4955],[5.7310,48.4943],[5.7301,48.4933],[5.7312,48.4920],[5.7331,48.4916],[5.7413,48.4944],[5.7485,48.4944],[5.7512,48.4965],[5.7493,48.4938],[5.7422,48.4925],[5.7395,48.4895],[5.7486,48.4911],[5.7494,48.4901],[5.7472,48.4853],[5.7509,48.4847],[5.7553,48.4918],[5.7650,48.4966],[5.7659,48.5047],[5.7621,48.5102],[5.7627,48.5144],[5.7617,48.5156],[5.7417,48.5077]]]}},{"type":"Feature","properties":{"name":"Bois du Grand Canton"},"geometry":{"type":"Polygon","coordinates":[[[5.2911,48.8090],[5.2968,48.8114],[5.2983,48.8135],[5.2918,48.8100],[5.2898,48.8099],[5.2886,48.8116],[5.2918,48.8105],[5.2983,48.8140],[5.2996,48.8132],[5.2976,48.8111],[5.2996,48.8109],[5.3008,48.8091],[5.3042,48.8102],[5.3002,48.8133],[5.3042,48.8166],[5.3009,48.8187],[5.2987,48.8183],[5.2975,48.8216],[5.3016,48.8244],[5.3003,48.8253],[5.3022,48.8266],[5.3061,48.8268],[5.3079,48.8261],[5.3056,48.8248],[5.3092,48.8215],[5.3097,48.8187],[5.3071,48.8171],[5.3095,48.8170],[5.3118,48.8151],[5.3105,48.8148],[5.3119,48.8138],[5.3086,48.8113],[5.3091,48.8105],[5.3122,48.8122],[5.3136,48.8111],[5.3205,48.8120],[5.3197,48.8132],[5.3233,48.8128],[5.3235,48.8096],[5.3336,48.8077],[5.3319,48.8062],[5.3334,48.8061],[5.3327,48.8042],[5.3300,48.8023],[5.3306,48.8011],[5.3332,48.8016],[5.3347,48.8005],[5.3335,48.7959],[5.3308,48.7955],[5.3293,48.7986],[5.3273,48.7980],[5.3264,48.7989],[5.3287,48.8005],[5.3261,48.8032],[5.3265,48.8024],[5.3228,48.8007],[5.3218,48.7998],[5.3225,48.7991],[5.3193,48.7968],[5.3128,48.7989],[5.3135,48.8017],[5.3059,48.8017],[5.3073,48.8017],[5.3042,48.8024],[5.2975,48.8071],[5.2917,48.8089],[5.2922,48.8077],[5.2909,48.8078],[5.2911,48.8090]]]}},{"type":"Feature","properties":{"name":"Bois de Bugny"},"geometry":{"type":"Polygon","coordinates":[[[5.0545,48.8580],[5.0474,48.8586],[5.0457,48.8571],[5.0424,48.8567],[5.0366,48.8575],[5.0363,48.8589],[5.0415,48.8616],[5.0367,48.8650],[5.0276,48.8683],[5.0281,48.8691],[5.0255,48.8689],[5.0254,48.8707],[5.0242,48.8692],[5.0228,48.8694],[5.0235,48.8715],[5.0266,48.8722],[5.0377,48.8712],[5.0359,48.8729],[5.0373,48.8747],[5.0333,48.8756],[5.0319,48.8776],[5.0228,48.8748],[5.0206,48.8754],[5.0210,48.8769],[5.0267,48.8760],[5.0281,48.8766],[5.0272,48.8784],[5.0294,48.8791],[5.0309,48.8777],[5.0322,48.8805],[5.0348,48.8805],[5.0374,48.8788],[5.0386,48.8797],[5.0368,48.8805],[5.0390,48.8800],[5.0408,48.8813],[5.0536,48.8794],[5.0584,48.8743],[5.0581,48.8734],[5.0599,48.8737],[5.0632,48.8708],[5.0628,48.8685],[5.0643,48.8696],[5.0665,48.8689],[5.0633,48.8681],[5.0622,48.8655],[5.0692,48.8684],[5.0545,48.8580]]]}},{"type":"Feature","properties":{"name":"Bois Communal"},"geometry":{"type":"Polygon","coordinates":[[[5.3369,49.5470],[5.3441,49.5539],[5.3432,49.5557],[5.3465,49.5563],[5.3484,49.5550],[5.3476,49.5522],[5.3500,49.5495],[5.3466,49.5476],[5.3476,49.5441],[5.3463,49.5437],[5.3492,49.5403],[5.3484,49.5290],[5.3332,49.5306],[5.3244,49.5268],[5.3221,49.5238],[5.3143,49.5201],[5.3127,49.5236],[5.3156,49.5218],[5.3155,49.5229],[5.3208,49.5276],[5.3287,49.5319],[5.3368,49.5327],[5.3416,49.5314],[5.3470,49.5319],[5.3455,49.5357],[5.3260,49.5322],[5.3208,49.5286],[5.3104,49.5251],[5.3116,49.5277],[5.3161,49.5304],[5.3184,49.5338],[5.3211,49.5405],[5.3282,49.5451],[5.3369,49.5470]]]}},{"type":"Feature","properties":{"name":"Bois de la Charpentière"},"geometry":{"type":"Polygon","coordinates":[[[5.1238,48.9040],[5.0960,48.9059],[5.0930,48.9071],[5.0933,48.9106],[5.1001,48.9107],[5.0983,48.9113],[5.0974,48.9135],[5.0988,48.9151],[5.0955,48.9165],[5.0932,48.9210],[5.1009,48.9263],[5.1131,48.9210],[5.1257,48.9219],[5.1234,48.9193],[5.1257,48.9163],[5.1248,48.9127],[5.1204,48.9125],[5.1202,48.9116],[5.1199,48.9060],[5.1238,48.9040]]]}},{"type":"Feature","properties":{"name":"Forêt de Jaulnay"},"geometry":{"type":"Polygon","coordinates":[[[5.0656,49.4707],[5.0635,49.4739],[5.0567,49.4766],[5.0383,49.4737],[5.0323,49.4757],[5.0274,49.4741],[5.0249,49.4717],[5.0242,49.4700],[5.0268,49.4660],[5.0268,49.4636],[5.0257,49.4657],[5.0235,49.4666],[5.0220,49.4646],[5.0154,49.4632],[5.0210,49.4615],[5.0192,49.4597],[5.0241,49.4597],[5.0292,49.4571],[5.0225,49.4530],[5.0210,49.4503],[5.0245,49.4538],[5.0271,49.4547],[5.0336,49.4531],[5.0360,49.4550],[5.0408,49.4555],[5.0474,49.4523],[5.0453,49.4512],[5.0459,49.4498],[5.0432,49.4493],[5.0458,49.4480],[5.0456,49.4460],[5.0421,49.4442],[5.0407,49.4443],[5.0433,49.4473],[5.0401,49.4482],[5.0391,49.4496],[5.0453,49.4515],[5.0423,49.4512],[5.0404,49.4541],[5.0381,49.4536],[5.0390,49.4519],[5.0361,49.4506],[5.0254,49.4501],[5.0244,49.4513],[5.0263,49.4518],[5.0260,49.4528],[5.0225,49.4497],[5.0189,49.4487],[5.0200,49.4504],[5.0185,49.4516],[5.0208,49.4537],[5.0195,49.4539],[5.0244,49.4569],[5.0163,49.4581],[5.0159,49.4603],[5.0186,49.4616],[5.0148,49.4631],[5.0157,49.4661],[5.0212,49.4691],[5.0234,49.4726],[5.0201,49.4687],[5.0098,49.4649],[5.0098,49.4634],[5.0126,49.4643],[5.0131,49.4606],[5.0080,49.4600],[5.0064,49.4628],[5.0045,49.4618],[5.0034,49.4592],[5.0007,49.4591],[5.0000,49.4606],[4.9959,49.4604],[4.9955,49.4590],[4.9899,49.4572],[4.9891,49.4583],[4.9915,49.4587],[4.9894,49.4605],[4.9906,49.4633],[4.9964,49.4648],[4.9941,49.4653],[4.9945,49.4662],[4.9902,49.4664],[4.9894,49.4671],[4.9917,49.4685],[4.9936,49.4675],[4.9883,49.4711],[4.9930,49.4713],[4.9957,49.4690],[4.9953,49.4715],[5.0016,49.4727],[4.9938,49.4732],[4.9920,49.4745],[4.9993,49.4740],[4.9998,49.4748],[5.0026,49.4738],[5.0035,49.4726],[4.9998,49.4700],[5.0070,49.4667],[5.0072,49.4651],[5.0086,49.4671],[5.0082,49.4695],[5.0097,49.4706],[5.0095,49.4721],[5.0018,49.4752],[5.0038,49.4769],[4.9961,49.4760],[4.9970,49.4770],[4.9948,49.4780],[5.0074,49.4791],[5.0072,49.4752],[5.0110,49.4745],[5.0132,49.4725],[5.0104,49.4669],[5.0128,49.4691],[5.0195,49.4705],[5.0215,49.4735],[5.0237,49.4745],[5.0238,49.4769],[5.0189,49.4767],[5.0200,49.4770],[5.0204,49.4801],[5.0186,49.4811],[5.0198,49.4834],[5.0277,49.4874],[5.0262,49.4889],[5.0291,49.4901],[5.0281,49.4919],[5.0320,49.4910],[5.0318,49.4920],[5.0384,49.4952],[5.0354,49.4991],[5.0345,49.4987],[5.0334,49.5038],[5.0309,49.5036],[5.0328,49.5059],[5.0322,49.5100],[5.0256,49.5072],[5.0201,49.5081],[5.0216,49.5038],[5.0134,49.5025],[5.0149,49.4982],[5.0284,49.5017],[5.0285,49.4974],[5.0245,49.4975],[5.0169,49.4937],[5.0060,49.4926],[4.9973,49.4975],[4.9978,49.5011],[4.9954,49.5017],[4.9953,49.5082],[4.9972,49.5087],[4.9971,49.5099],[4.9926,49.5115],[4.9838,49.5093],[4.9840,49.5071],[4.9873,49.5047],[4.9882,49.5022],[4.9916,49.5007],[4.9865,49.5016],[4.9807,49.5079],[4.9754,49.5065],[4.9724,49.5027],[4.9709,49.5037],[4.9679,49.5025],[4.9656,49.5047],[4.9642,49.5112],[4.9680,49.5114],[4.9702,49.5100],[4.9734,49.5126],[4.9617,49.5123],[4.9634,49.5149],[4.9585,49.5161],[4.9558,49.5199],[4.9549,49.5182],[4.9558,49.5164],[4.9496,49.5165],[4.9551,49.5123],[4.9527,49.5109],[4.9431,49.5101],[4.9400,49.5134],[4.9414,49.5139],[4.9371,49.5141],[4.9345,49.5128],[4.9340,49.5103],[4.9324,49.5115],[4.9294,49.5096],[4.9260,49.5099],[4.9272,49.5125],[4.9337,49.5151],[4.9344,49.5159],[4.9327,49.5172],[4.9338,49.5181],[4.9355,49.5175],[4.9373,49.5188],[4.9386,49.5180],[4.9372,49.5157],[4.9380,49.5151],[4.9407,49.5183],[4.9393,49.5190],[4.9446,49.5217],[4.9402,49.5225],[4.9459,49.5247],[4.9443,49.5253],[4.9460,49.5275],[4.9424,49.5270],[4.9405,49.5292],[4.9382,49.5274],[4.9384,49.5300],[4.9369,49.5301],[4.9424,49.5322],[4.9439,49.5340],[4.9432,49.5363],[4.9460,49.5384],[4.9443,49.5394],[4.9381,49.5364],[4.9393,49.5351],[4.9378,49.5329],[4.9347,49.5334],[4.9346,49.5345],[4.9328,49.5341],[4.9324,49.5327],[4.9306,49.5351],[4.9366,49.5397],[4.9338,49.5388],[4.9316,49.5403],[4.9358,49.5434],[4.9385,49.5415],[4.9409,49.5436],[4.9467,49.5456],[4.9497,49.5440],[4.9553,49.5474],[4.9544,49.5506],[4.9687,49.5469],[4.9673,49.5443],[4.9697,49.5452],[4.9757,49.5411],[4.9799,49.5433],[4.9808,49.5425],[4.9790,49.5409],[4.9883,49.5432],[4.9894,49.5422],[4.9934,49.5436],[5.0068,49.5445],[5.0084,49.5417],[5.0104,49.5421],[5.0096,49.5403],[5.0016,49.5358],[5.0065,49.5310],[5.0146,49.5338],[5.0146,49.5351],[5.0074,49.5359],[5.0082,49.5364],[5.0069,49.5387],[5.0086,49.5365],[5.0188,49.5378],[5.0198,49.5344],[5.0224,49.5348],[5.0205,49.5342],[5.0225,49.5343],[5.0223,49.5319],[5.0203,49.5316],[5.0250,49.5300],[5.0217,49.5282],[5.0236,49.5264],[5.0198,49.5241],[5.0203,49.5216],[5.0194,49.5209],[5.0173,49.5195],[5.0126,49.5220],[5.0109,49.5203],[5.0100,49.5187],[5.0125,49.5178],[5.0104,49.5151],[5.0134,49.5138],[5.0122,49.5128],[5.0141,49.5118],[5.0212,49.5123],[5.0205,49.5180],[5.0249,49.5141],[5.0284,49.5129],[5.0395,49.5163],[5.0407,49.5177],[5.0416,49.5167],[5.0566,49.5150],[5.0576,49.5152],[5.0561,49.5160],[5.0568,49.5170],[5.0593,49.5181],[5.0621,49.5160],[5.0668,49.5189],[5.0714,49.5168],[5.0738,49.5125],[5.0594,49.5071],[5.0606,49.5046],[5.0582,49.5049],[5.0581,49.4997],[5.0629,49.5068],[5.0673,49.5087],[5.0784,49.5078],[5.0790,49.5087],[5.0809,49.5080],[5.0789,49.5078],[5.0783,49.5063],[5.0824,49.5052],[5.0807,49.5066],[5.0854,49.5109],[5.0911,49.5088],[5.0950,49.5116],[5.0966,49.5175],[5.0923,49.5187],[5.0906,49.5209],[5.0930,49.5234],[5.0996,49.5207],[5.1051,49.5252],[5.1041,49.5257],[5.1055,49.5265],[5.1029,49.5288],[5.1313,49.5403],[5.1352,49.5413],[5.1364,49.5398],[5.1405,49.5409],[5.1405,49.5429],[5.1441,49.5414],[5.1504,49.5418],[5.1547,49.5430],[5.1541,49.5445],[5.1559,49.5448],[5.1530,49.5379],[5.1463,49.5363],[5.1464,49.5340],[5.1527,49.5368],[5.1509,49.5361],[5.1528,49.5356],[5.1541,49.5327],[5.1510,49.5312],[5.1531,49.5300],[5.1500,49.5298],[5.1473,49.5319],[5.1447,49.5309],[5.1452,49.5286],[5.1408,49.5281],[5.1412,49.5252],[5.1338,49.5252],[5.1311,49.5225],[5.1275,49.5229],[5.1301,49.5210],[5.1272,49.5167],[5.1281,49.5139],[5.1236,49.5131],[5.1223,49.5147],[5.1179,49.5124],[5.1235,49.5109],[5.1186,49.5091],[5.1193,49.5078],[5.1285,49.5082],[5.1290,49.5070],[5.1255,49.5052],[5.1282,49.5057],[5.1291,49.5043],[5.1314,49.5047],[5.1320,49.5026],[5.1367,49.5012],[5.1390,49.5025],[5.1494,49.4985],[5.1421,49.4947],[5.1488,49.4941],[5.1478,49.4936],[5.1483,49.4920],[5.1453,49.4918],[5.1499,49.4898],[5.1488,49.4884],[5.1515,49.4888],[5.1474,49.4865],[5.1500,49.4860],[5.1489,49.4849],[5.1500,49.4838],[5.1490,49.4799],[5.1501,49.4787],[5.1550,49.4815],[5.1555,49.4802],[5.1576,49.4808],[5.1563,49.4795],[5.1584,49.4772],[5.1639,49.4776],[5.1640,49.4744],[5.1666,49.4721],[5.1554,49.4675],[5.1557,49.4650],[5.1573,49.4649],[5.1525,49.4616],[5.1520,49.4607],[5.1537,49.4607],[5.1522,49.4562],[5.1454,49.4589],[5.1481,49.4612],[5.1422,49.4641],[5.1409,49.4629],[5.1382,49.4647],[5.1338,49.4631],[5.1300,49.4641],[5.1300,49.4658],[5.1273,49.4678],[5.1295,49.4711],[5.1277,49.4732],[5.1287,49.4779],[5.1303,49.4787],[5.1260,49.4803],[5.1266,49.4826],[5.1233,49.4837],[5.1217,49.4828],[5.1182,49.4853],[5.1141,49.4859],[5.1085,49.4899],[5.1061,49.4896],[5.1012,49.4924],[5.1031,49.4936],[5.0977,49.4974],[5.0964,49.4966],[5.0939,49.4983],[5.0915,49.4972],[5.0900,49.4933],[5.0904,49.4892],[5.0889,49.4893],[5.0881,49.4865],[5.0834,49.4864],[5.0823,49.4851],[5.0841,49.4840],[5.0846,49.4811],[5.0856,49.4813],[5.0837,49.4787],[5.0858,49.4777],[5.0841,49.4766],[5.0853,49.4741],[5.0832,49.4739],[5.0829,49.4713],[5.0697,49.4703],[5.0662,49.4681],[5.0668,49.4695],[5.0656,49.4707]]]}},{"type":"Feature","properties":{"name":"Forêt domaniale de Vau"},"geometry":{"type":"Polygon","coordinates":[[[5.6192,48.5446],[5.6212,48.5427],[5.6272,48.5417],[5.6269,48.5405],[5.6289,48.5389],[5.6269,48.5376],[5.6286,48.5344],[5.6296,48.5360],[5.6294,48.5337],[5.6332,48.5326],[5.6316,48.5322],[5.6332,48.5320],[5.6270,48.5271],[5.6376,48.5305],[5.6384,48.5312],[5.6374,48.5328],[5.6395,48.5329],[5.6397,48.5303],[5.6299,48.5261],[5.6259,48.5260],[5.6283,48.5245],[5.6278,48.5225],[5.6236,48.5260],[5.6209,48.5221],[5.6165,48.5208],[5.6165,48.5198],[5.6153,48.5207],[5.6171,48.5213],[5.6158,48.5236],[5.6198,48.5264],[5.6183,48.5272],[5.6137,48.5251],[5.6126,48.5263],[5.6138,48.5272],[5.6111,48.5292],[5.6236,48.5332],[5.6220,48.5365],[5.6158,48.5353],[5.6167,48.5335],[5.6064,48.5314],[5.6063,48.5333],[5.6027,48.5352],[5.5986,48.5350],[5.6007,48.5311],[5.6059,48.5315],[5.6058,48.5294],[5.6018,48.5278],[5.5990,48.5287],[5.5915,48.5251],[5.5880,48.5220],[5.5870,48.5184],[5.5889,48.5163],[5.5910,48.5163],[5.5903,48.5143],[5.5914,48.5134],[5.5942,48.5161],[5.5976,48.5169],[5.5979,48.5140],[5.5843,48.5111],[5.5813,48.5125],[5.5739,48.5119],[5.5714,48.5107],[5.5728,48.5105],[5.5718,48.5096],[5.5760,48.5097],[5.5820,48.5076],[5.5861,48.5032],[5.6023,48.5012],[5.6036,48.5003],[5.6019,48.4979],[5.6030,48.4957],[5.6039,48.4974],[5.6081,48.4976],[5.6179,48.5018],[5.6234,48.5005],[5.6163,48.4976],[5.6172,48.4921],[5.6140,48.4895],[5.6093,48.4891],[5.6055,48.4945],[5.5966,48.4905],[5.5984,48.4896],[5.5964,48.4903],[5.5962,48.4886],[5.5921,48.4893],[5.5937,48.4879],[5.5931,48.4867],[5.5946,48.4865],[5.5900,48.4841],[5.5909,48.4829],[5.5887,48.4808],[5.5917,48.4798],[5.5896,48.4776],[5.5949,48.4720],[5.5977,48.4712],[5.5987,48.4666],[5.6014,48.4672],[5.5928,48.4628],[5.5951,48.4604],[5.5937,48.4593],[5.5945,48.4577],[5.5915,48.4569],[5.5869,48.4598],[5.5846,48.4582],[5.5816,48.4585],[5.5825,48.4605],[5.5792,48.4599],[5.5776,48.4624],[5.5712,48.4641],[5.5691,48.4640],[5.5659,48.4612],[5.5663,48.4601],[5.5800,48.4583],[5.5811,48.4523],[5.5830,48.4520],[5.5796,48.4506],[5.5820,48.4482],[5.5804,48.4470],[5.5861,48.4447],[5.5873,48.4428],[5.5857,48.4422],[5.5866,48.4416],[5.5909,48.4423],[5.5897,48.4413],[5.5910,48.4401],[5.5894,48.4380],[5.5850,48.4343],[5.5826,48.4340],[5.5822,48.4323],[5.5782,48.4350],[5.5694,48.4367],[5.5704,48.4390],[5.5746,48.4401],[5.5611,48.4381],[5.5489,48.4384],[5.5443,48.4346],[5.5334,48.4325],[5.5348,48.4377],[5.5341,48.4386],[5.5398,48.4431],[5.5445,48.4437],[5.5382,48.4473],[5.5341,48.4475],[5.5342,48.4484],[5.5373,48.4502],[5.5425,48.4501],[5.5483,48.4476],[5.5501,48.4497],[5.5469,48.4528],[5.5400,48.4562],[5.5300,48.4513],[5.5262,48.4481],[5.5195,48.4475],[5.5186,48.4477],[5.5202,48.4496],[5.5279,48.4493],[5.5296,48.4526],[5.5289,48.4541],[5.5315,48.4559],[5.5292,48.4561],[5.5285,48.4577],[5.5272,48.4568],[5.5269,48.4587],[5.5250,48.4572],[5.5173,48.4559],[5.5158,48.4543],[5.5132,48.4561],[5.5125,48.4576],[5.5134,48.4587],[5.5170,48.4580],[5.5303,48.4636],[5.5357,48.4619],[5.5435,48.4626],[5.5480,48.4612],[5.5495,48.4617],[5.5526,48.4664],[5.5503,48.4684],[5.5507,48.4694],[5.5660,48.4692],[5.5690,48.4715],[5.5647,48.4748],[5.5588,48.4719],[5.5553,48.4736],[5.5489,48.4726],[5.5466,48.4751],[5.5369,48.4743],[5.5201,48.4705],[5.5157,48.4714],[5.5146,48.4747],[5.5091,48.4762],[5.5025,48.4764],[5.4994,48.4749],[5.4974,48.4760],[5.4978,48.4782],[5.5024,48.4867],[5.5021,48.4902],[5.4984,48.4923],[5.4983,48.4942],[5.5041,48.4954],[5.5100,48.5000],[5.5119,48.4996],[5.5099,48.4975],[5.5134,48.4948],[5.5106,48.4955],[5.5102,48.4934],[5.5124,48.4924],[5.5153,48.4930],[5.5137,48.4902],[5.5170,48.4888],[5.5171,48.4902],[5.5196,48.4906],[5.5194,48.4924],[5.5221,48.4930],[5.5206,48.4947],[5.5268,48.4928],[5.5324,48.4964],[5.5229,48.5029],[5.5188,48.5042],[5.5242,48.5057],[5.5130,48.5053],[5.5126,48.5111],[5.5146,48.5112],[5.5135,48.5108],[5.5138,48.5070],[5.5189,48.5072],[5.5217,48.5091],[5.5213,48.5062],[5.5254,48.5067],[5.5265,48.5085],[5.5295,48.5091],[5.5285,48.5079],[5.5295,48.5077],[5.5322,48.5099],[5.5332,48.5086],[5.5318,48.5072],[5.5332,48.5062],[5.5358,48.5069],[5.5365,48.5056],[5.5441,48.5083],[5.5457,48.5078],[5.5473,48.5095],[5.5470,48.5111],[5.5616,48.5104],[5.5523,48.5122],[5.5526,48.5137],[5.5479,48.5186],[5.5497,48.5180],[5.5447,48.5237],[5.5444,48.5257],[5.5399,48.5292],[5.5445,48.5278],[5.5474,48.5291],[5.5454,48.5275],[5.5492,48.5290],[5.5592,48.5288],[5.5617,48.5267],[5.5671,48.5284],[5.5676,48.5309],[5.5717,48.5336],[5.5770,48.5301],[5.5745,48.5324],[5.5755,48.5328],[5.5751,48.5343],[5.5736,48.5335],[5.5743,48.5349],[5.5708,48.5352],[5.5704,48.5375],[5.5774,48.5391],[5.5802,48.5366],[5.5855,48.5385],[5.5932,48.5362],[5.6043,48.5389],[5.6060,48.5416],[5.6192,48.5446]]]}},{"type":"Feature","properties":{"name":"Forêt du Val"},"geometry":{"type":"Polygon","coordinates":[[[4.9828,48.6224],[4.9864,48.6221],[4.9905,48.6247],[4.9866,48.6218],[4.9830,48.6217],[4.9819,48.6201],[4.9856,48.6196],[4.9920,48.6222],[4.9885,48.6173],[4.9894,48.6150],[4.9932,48.6144],[4.9851,48.6048],[4.9899,48.6026],[4.9942,48.6060],[5.0019,48.6027],[5.0050,48.6029],[5.0062,48.6038],[5.0063,48.6065],[5.0091,48.6074],[5.0129,48.6060],[5.0106,48.6051],[5.0118,48.6044],[5.0089,48.6037],[5.0122,48.6034],[5.0135,48.5993],[5.0180,48.5988],[5.0150,48.5970],[5.0162,48.5960],[5.0150,48.5909],[5.0211,48.5859],[5.0227,48.5828],[5.0229,48.5786],[5.0185,48.5764],[5.0204,48.5735],[5.0198,48.5709],[5.0279,48.5708],[5.0289,48.5672],[5.0255,48.5643],[5.0261,48.5625],[5.0371,48.5564],[5.0370,48.5545],[5.0351,48.5525],[5.0315,48.5517],[5.0300,48.5469],[5.0222,48.5454],[5.0237,48.5465],[5.0226,48.5481],[5.0207,48.5471],[5.0214,48.5461],[5.0190,48.5453],[5.0169,48.5475],[5.0197,48.5495],[5.0205,48.5485],[5.0233,48.5492],[5.0251,48.5483],[5.0197,48.5526],[5.0141,48.5525],[5.0069,48.5500],[5.0008,48.5510],[5.0005,48.5485],[4.9950,48.5464],[4.9939,48.5435],[4.9964,48.5418],[4.9962,48.5387],[5.0012,48.5375],[5.0030,48.5353],[4.9908,48.5295],[4.9868,48.5302],[4.9851,48.5271],[4.9827,48.5263],[4.9844,48.5244],[4.9822,48.5240],[4.9843,48.5228],[4.9812,48.5214],[4.9801,48.5195],[4.9809,48.5192],[4.9756,48.5204],[4.9745,48.5199],[4.9753,48.5185],[4.9740,48.5183],[4.9731,48.5205],[4.9685,48.5204],[4.9705,48.5180],[4.9737,48.5182],[4.9723,48.5173],[4.9728,48.5154],[4.9745,48.5157],[4.9747,48.5146],[4.9690,48.5125],[4.9694,48.5095],[4.9682,48.5079],[4.9655,48.5081],[4.9660,48.5067],[4.9603,48.5066],[4.9555,48.5044],[4.9536,48.5064],[4.9566,48.5079],[4.9556,48.5102],[4.9535,48.5095],[4.9524,48.5129],[4.9491,48.5115],[4.9479,48.5138],[4.9507,48.5149],[4.9486,48.5145],[4.9469,48.5159],[4.9501,48.5177],[4.9545,48.5167],[4.9605,48.5173],[4.9620,48.5161],[4.9637,48.5163],[4.9634,48.5174],[4.9657,48.5172],[4.9617,48.5213],[4.9627,48.5220],[4.9619,48.5246],[4.9602,48.5239],[4.9602,48.5251],[4.9556,48.5274],[4.9563,48.5292],[4.9592,48.5289],[4.9641,48.5313],[4.9650,48.5332],[4.9550,48.5391],[4.9523,48.5383],[4.9429,48.5397],[4.9405,48.5380],[4.9391,48.5408],[4.9242,48.5473],[4.9289,48.5478],[4.9296,48.5468],[4.9264,48.5466],[4.9324,48.5451],[4.9318,48.5484],[4.9359,48.5505],[4.9343,48.5560],[4.9276,48.5573],[4.9326,48.5566],[4.9353,48.5584],[4.9300,48.5591],[4.9296,48.5608],[4.9324,48.5650],[4.9312,48.5661],[4.9292,48.5649],[4.9259,48.5651],[4.9286,48.5668],[4.9207,48.5692],[4.9218,48.5696],[4.9219,48.5724],[4.9237,48.5700],[4.9259,48.5709],[4.9224,48.5731],[4.9245,48.5750],[4.9216,48.5768],[4.9212,48.5796],[4.9219,48.5816],[4.9259,48.5833],[4.9261,48.5849],[4.9213,48.5849],[4.9202,48.5878],[4.9116,48.5897],[4.9147,48.5922],[4.9140,48.5934],[4.9096,48.5922],[4.9136,48.5946],[4.9092,48.5930],[4.9115,48.5946],[4.9085,48.5954],[4.9126,48.5964],[4.9136,48.5988],[4.9095,48.6010],[4.9050,48.6003],[4.9049,48.5990],[4.9014,48.6002],[4.8960,48.5946],[4.8958,48.5985],[4.9039,48.6030],[4.9018,48.6057],[4.8950,48.6017],[4.8905,48.6048],[4.8930,48.6065],[4.8904,48.6079],[4.8670,48.6104],[4.8700,48.6132],[4.8810,48.6138],[4.8838,48.6112],[4.8890,48.6122],[4.8896,48.6114],[4.8921,48.6143],[4.8909,48.6149],[4.8934,48.6162],[4.8985,48.6142],[4.8990,48.6152],[4.9063,48.6145],[4.9044,48.6138],[4.9042,48.6097],[4.9047,48.6104],[4.9050,48.6077],[4.9065,48.6075],[4.9088,48.6080],[4.9088,48.6091],[4.9119,48.6084],[4.9131,48.6092],[4.9116,48.6086],[4.9112,48.6102],[4.9138,48.6107],[4.9110,48.6112],[4.9120,48.6135],[4.9098,48.6128],[4.9095,48.6151],[4.9142,48.6151],[4.9137,48.6140],[4.9163,48.6154],[4.9185,48.6146],[4.9190,48.6164],[4.9380,48.6215],[4.9376,48.6207],[4.9410,48.6202],[4.9415,48.6181],[4.9382,48.6146],[4.9404,48.6136],[4.9484,48.6140],[4.9484,48.6081],[4.9539,48.6080],[4.9545,48.6153],[4.9529,48.6161],[4.9534,48.6179],[4.9551,48.6179],[4.9534,48.6180],[4.9534,48.6201],[4.9550,48.6202],[4.9591,48.6171],[4.9577,48.6129],[4.9628,48.6108],[4.9647,48.6050],[4.9740,48.6035],[4.9787,48.6040],[4.9821,48.6073],[4.9764,48.6110],[4.9780,48.6128],[4.9832,48.6135],[4.9820,48.6155],[4.9771,48.6173],[4.9752,48.6141],[4.9706,48.6136],[4.9717,48.6114],[4.9635,48.6109],[4.9636,48.6118],[4.9649,48.6158],[4.9674,48.6178],[4.9679,48.6217],[4.9716,48.6213],[4.9729,48.6257],[4.9765,48.6234],[4.9828,48.6224]]]}},{"type":"Feature","properties":{"name":"Bois d\u0027Ailly"},"geometry":{"type":"Polygon","coordinates":[[[5.6155,48.8651],[5.6296,48.8609],[5.6385,48.8607],[5.6379,48.8569],[5.6313,48.8515],[5.6255,48.8510],[5.6170,48.8479],[5.6231,48.8515],[5.6218,48.8524],[5.6285,48.8549],[5.6311,48.8537],[5.6340,48.8554],[5.6291,48.8597],[5.6258,48.8574],[5.6133,48.8527],[5.6141,48.8505],[5.6115,48.8491],[5.6137,48.8451],[5.6193,48.8452],[5.6089,48.8427],[5.6053,48.8395],[5.5973,48.8392],[5.5936,48.8405],[5.5902,48.8394],[5.5884,48.8421],[5.5920,48.8454],[5.5879,48.8461],[5.5795,48.8414],[5.5789,48.8392],[5.5728,48.8379],[5.5709,48.8362],[5.5712,48.8354],[5.5772,48.8367],[5.5789,48.8358],[5.5776,48.8344],[5.5646,48.8295],[5.5580,48.8302],[5.5592,48.8318],[5.5636,48.8320],[5.5648,48.8353],[5.5536,48.8363],[5.5507,48.8397],[5.5425,48.8378],[5.5430,48.8405],[5.5402,48.8395],[5.5403,48.8436],[5.5420,48.8407],[5.5524,48.8434],[5.5651,48.8506],[5.5652,48.8529],[5.5691,48.8562],[5.5644,48.8604],[5.5648,48.8620],[5.5705,48.8646],[5.5801,48.8664],[5.5797,48.8672],[5.5842,48.8671],[5.5839,48.8691],[5.5752,48.8697],[5.5682,48.8673],[5.5664,48.8679],[5.5593,48.8752],[5.5612,48.8775],[5.5553,48.8822],[5.5562,48.8827],[5.5546,48.8855],[5.5594,48.8810],[5.5632,48.8792],[5.5642,48.8760],[5.5635,48.8730],[5.5665,48.8711],[5.5643,48.8739],[5.5754,48.8744],[5.5736,48.8732],[5.5651,48.8730],[5.5688,48.8716],[5.5676,48.8729],[5.5698,48.8730],[5.5718,48.8711],[5.5779,48.8723],[5.5799,48.8719],[5.5791,48.8712],[5.5940,48.8713],[5.6005,48.8694],[5.6010,48.8702],[5.6155,48.8651]]]}},{"type":"Feature","properties":{"name":"Forêt Domaniale du Haut Juré"},"geometry":{"type":"Polygon","coordinates":[[[5.1322,48.7022],[5.1378,48.7043],[5.1405,48.7038],[5.1410,48.7049],[5.1421,48.7005],[5.1485,48.7007],[5.1572,48.7026],[5.1616,48.7075],[5.1616,48.7087],[5.1577,48.7081],[5.1590,48.7090],[5.1577,48.7100],[5.1585,48.7115],[5.1560,48.7114],[5.1568,48.7125],[5.1547,48.7141],[5.1580,48.7166],[5.1570,48.7191],[5.1582,48.7202],[5.1579,48.7220],[5.1555,48.7234],[5.1568,48.7247],[5.1555,48.7270],[5.1559,48.7312],[5.1622,48.7334],[5.1635,48.7318],[5.1694,48.7337],[5.1697,48.7348],[5.1651,48.7369],[5.1622,48.7421],[5.1644,48.7478],[5.1678,48.7495],[5.1672,48.7508],[5.1518,48.7503],[5.1479,48.7461],[5.1405,48.7514],[5.1434,48.7527],[5.1402,48.7577],[5.1374,48.7565],[5.1366,48.7574],[5.1385,48.7582],[5.1305,48.7549],[5.1297,48.7535],[5.1307,48.7514],[5.1351,48.7499],[5.1348,48.7457],[5.1373,48.7442],[5.1362,48.7404],[5.1346,48.7394],[5.1365,48.7352],[5.1358,48.7319],[5.1332,48.7290],[5.1329,48.7279],[5.1344,48.7271],[5.1325,48.7240],[5.1245,48.7221],[5.1295,48.7142],[5.1320,48.7125],[5.1269,48.7049],[5.1322,48.7022]]]}},{"type":"Feature","properties":{"name":"Forêt Domaniale de Ligny en Barrois"},"geometry":{"type":"Polygon","coordinates":[[[5.2638,48.6459],[5.2641,48.6431],[5.2616,48.6426],[5.2641,48.6392],[5.2626,48.6380],[5.2655,48.6377],[5.2634,48.6374],[5.2648,48.6343],[5.2583,48.6302],[5.2607,48.6302],[5.2648,48.6338],[5.2664,48.6326],[5.2609,48.6281],[5.2599,48.6259],[5.2520,48.6231],[5.2516,48.6209],[5.2582,48.6203],[5.2531,48.6155],[5.2406,48.6100],[5.2442,48.6070],[5.2415,48.6057],[5.2464,48.6043],[5.2471,48.6023],[5.2491,48.6020],[5.2476,48.6023],[5.2472,48.6045],[5.2498,48.6028],[5.2529,48.6029],[5.2561,48.6003],[5.2647,48.5979],[5.2651,48.5961],[5.2717,48.5949],[5.2631,48.5938],[5.2713,48.5933],[5.2724,48.5901],[5.2715,48.5887],[5.2741,48.5880],[5.2722,48.5913],[5.2739,48.5913],[5.2749,48.5930],[5.2744,48.5886],[5.2753,48.5892],[5.2769,48.5851],[5.2789,48.5858],[5.2838,48.5835],[5.2826,48.5824],[5.2845,48.5811],[5.2857,48.5806],[5.2896,48.5827],[5.2879,48.5830],[5.2907,48.5847],[5.2921,48.5837],[5.2916,48.5827],[5.2928,48.5845],[5.2923,48.5866],[5.2965,48.5892],[5.2972,48.5954],[5.2997,48.5977],[5.2987,48.5986],[5.2961,48.5979],[5.2966,48.5998],[5.2951,48.6003],[5.2956,48.6012],[5.2945,48.6005],[5.2913,48.6025],[5.2890,48.6025],[5.2896,48.6066],[5.2902,48.6051],[5.2943,48.6062],[5.2953,48.6044],[5.3023,48.6102],[5.2966,48.6079],[5.2942,48.6086],[5.2938,48.6107],[5.2954,48.6108],[5.2934,48.6123],[5.2961,48.6139],[5.2918,48.6143],[5.2921,48.6159],[5.2953,48.6161],[5.2952,48.6171],[5.2913,48.6176],[5.2898,48.6196],[5.2873,48.6199],[5.2811,48.6191],[5.2770,48.6208],[5.2756,48.6235],[5.2776,48.6241],[5.2762,48.6249],[5.2770,48.6256],[5.2812,48.6276],[5.2800,48.6286],[5.2835,48.6300],[5.2858,48.6341],[5.2919,48.6329],[5.2898,48.6340],[5.2912,48.6356],[5.2922,48.6351],[5.2997,48.6386],[5.3006,48.6375],[5.2988,48.6367],[5.3032,48.6354],[5.3012,48.6365],[5.3035,48.6373],[5.3067,48.6354],[5.3095,48.6368],[5.3082,48.6395],[5.3061,48.6391],[5.3034,48.6414],[5.2979,48.6417],[5.2974,48.6426],[5.2987,48.6435],[5.2972,48.6444],[5.2996,48.6465],[5.2960,48.6455],[5.2928,48.6468],[5.2969,48.6528],[5.2953,48.6520],[5.2919,48.6532],[5.2938,48.6541],[5.2956,48.6525],[5.2947,48.6537],[5.2981,48.6555],[5.3047,48.6627],[5.3108,48.6655],[5.3116,48.6667],[5.3101,48.6692],[5.3113,48.6709],[5.3083,48.6713],[5.3099,48.6769],[5.3048,48.6740],[5.3047,48.6711],[5.3034,48.6748],[5.3090,48.6794],[5.3081,48.6801],[5.3128,48.6827],[5.3105,48.6831],[5.3052,48.6801],[5.3021,48.6759],[5.2961,48.6724],[5.2600,48.6624],[5.2604,48.6617],[5.2539,48.6608],[5.2523,48.6560],[5.2539,48.6490],[5.2622,48.6483],[5.2632,48.6471],[5.2612,48.6463],[5.2632,48.6470],[5.2638,48.6459]]]}},{"type":"Feature","properties":{"name":"Forêt Domaniale de Massonges"},"geometry":{"type":"Polygon","coordinates":[[[5.1749,48.8317],[5.1771,48.8338],[5.1803,48.8339],[5.1810,48.8323],[5.1822,48.8327],[5.1812,48.8315],[5.1827,48.8318],[5.1670,48.8232],[5.1709,48.8200],[5.1790,48.8212],[5.1839,48.8185],[5.1911,48.8203],[5.1865,48.8137],[5.1780,48.8111],[5.1778,48.8094],[5.1751,48.8081],[5.1743,48.8061],[5.1646,48.8049],[5.1528,48.8000],[5.1446,48.7997],[5.1442,48.8009],[5.1411,48.8017],[5.1409,48.8035],[5.1445,48.8019],[5.1498,48.8066],[5.1449,48.8091],[5.1472,48.8111],[5.1451,48.8116],[5.1460,48.8144],[5.1549,48.8212],[5.1628,48.8241],[5.1678,48.8319],[5.1724,48.8309],[5.1749,48.8317]]]}},{"type":"Feature","properties":{"name":"Forêt domaniale du Mort-Homme"},"geometry":{"type":"Polygon","coordinates":[[[5.2736,49.2432],[5.2731,49.2462],[5.2794,49.2471],[5.2800,49.2486],[5.2830,49.2490],[5.2838,49.2480],[5.2887,49.2522],[5.2900,49.2515],[5.2928,49.2530],[5.2958,49.2517],[5.2980,49.2542],[5.2974,49.2563],[5.2986,49.2574],[5.3065,49.2521],[5.3020,49.2499],[5.3045,49.2488],[5.3026,49.2477],[5.3033,49.2462],[5.2920,49.2452],[5.2844,49.2420],[5.2803,49.2358],[5.2820,49.2345],[5.2803,49.2293],[5.2753,49.2291],[5.2734,49.2272],[5.2744,49.2253],[5.2734,49.2234],[5.2711,49.2240],[5.2697,49.2228],[5.2676,49.2240],[5.2610,49.2226],[5.2574,49.2268],[5.2625,49.2268],[5.2619,49.2310],[5.2547,49.2308],[5.2468,49.2273],[5.2330,49.2237],[5.2274,49.2319],[5.2249,49.2318],[5.2241,49.2281],[5.2181,49.2295],[5.2216,49.2341],[5.2208,49.2347],[5.2122,49.2364],[5.2102,49.2339],[5.2092,49.2359],[5.2068,49.2356],[5.2054,49.2380],[5.2145,49.2405],[5.2184,49.2385],[5.2218,49.2404],[5.2229,49.2390],[5.2262,49.2384],[5.2255,49.2376],[5.2284,49.2374],[5.2284,49.2388],[5.2319,49.2403],[5.2335,49.2391],[5.2382,49.2397],[5.2408,49.2385],[5.2438,49.2404],[5.2451,49.2435],[5.2382,49.2485],[5.2422,49.2498],[5.2580,49.2488],[5.2658,49.2500],[5.2681,49.2490],[5.2696,49.2509],[5.2706,49.2499],[5.2644,49.2462],[5.2624,49.2481],[5.2607,49.2473],[5.2593,49.2482],[5.2559,49.2466],[5.2627,49.2429],[5.2655,49.2439],[5.2663,49.2403],[5.2648,49.2415],[5.2628,49.2402],[5.2606,49.2405],[5.2572,49.2375],[5.2540,49.2387],[5.2488,49.2358],[5.2599,49.2338],[5.2601,49.2366],[5.2777,49.2393],[5.2828,49.2422],[5.2807,49.2442],[5.2736,49.2432]]]}},{"type":"Feature","properties":{"name":"Forêt Communale de Saint-Maurice sous les Côtes"},"geometry":{"type":"Polygon","coordinates":[[[5.6743,49.0126],[5.6745,49.0150],[5.6709,49.0152],[5.6727,49.0162],[5.6730,49.0223],[5.6668,49.0192],[5.6634,49.0157],[5.6466,49.0124],[5.6374,49.0076],[5.6420,49.0028],[5.6470,49.0012],[5.6477,48.9984],[5.6535,48.9956],[5.6566,48.9998],[5.6661,49.0066],[5.6541,48.9953],[5.6635,48.9981],[5.6605,48.9999],[5.6694,49.0029],[5.6673,49.0062],[5.6692,49.0073],[5.6688,49.0083],[5.6727,49.0100],[5.6743,49.0126]]]}},{"type":"Feature","properties":{"name":"Forêt Communale d\u0027Ambly sur Meuse"},"geometry":{"type":"Polygon","coordinates":[[[5.5535,49.0147],[5.5718,49.0281],[5.5816,49.0230],[5.5761,49.0195],[5.5668,49.0101],[5.5528,49.0096],[5.5491,49.0133],[5.5535,49.0147]]]}},{"type":"Feature","properties":{"name":"Forêt Communale de Thiaucourt"},"geometry":{"type":"Polygon","coordinates":[[[5.7833,48.9681],[5.7972,48.9598],[5.7974,48.9571],[5.8044,48.9571],[5.8056,48.9561],[5.8049,48.9533],[5.8031,48.9534],[5.8016,48.9499],[5.7946,48.9483],[5.7917,48.9505],[5.7895,48.9495],[5.7876,48.9496],[5.7873,48.9509],[5.7805,48.9509],[5.7736,48.9569],[5.7628,48.9605],[5.7615,48.9598],[5.7550,48.9615],[5.7602,48.9683],[5.7716,48.9719],[5.7778,48.9711],[5.7833,48.9681]]]}},{"type":"Feature","properties":{"name":"Bois de Millière"},"geometry":{"type":"Polygon","coordinates":[[[5.6753,48.7753],[5.6796,48.7745],[5.6690,48.7683],[5.6684,48.7665],[5.6709,48.7641],[5.6662,48.7598],[5.6663,48.7578],[5.6767,48.7566],[5.6874,48.7585],[5.6887,48.7603],[5.6930,48.7620],[5.6944,48.7612],[5.6930,48.7587],[5.6940,48.7575],[5.6917,48.7532],[5.6761,48.7535],[5.6719,48.7546],[5.6578,48.7511],[5.6562,48.7535],[5.6570,48.7549],[5.6628,48.7562],[5.6586,48.7572],[5.6603,48.7599],[5.6556,48.7610],[5.6547,48.7630],[5.6617,48.7650],[5.6648,48.7699],[5.6627,48.7700],[5.6629,48.7720],[5.6565,48.7718],[5.6525,48.7732],[5.6479,48.7724],[5.6488,48.7711],[5.6506,48.7711],[5.6489,48.7690],[5.6470,48.7720],[5.6421,48.7713],[5.6389,48.7747],[5.6400,48.7770],[5.6435,48.7789],[5.6457,48.7773],[5.6506,48.7787],[5.6546,48.7759],[5.6580,48.7762],[5.6637,48.7734],[5.6632,48.7724],[5.6753,48.7753]]]}},{"type":"Feature","properties":{"name":"Bois du Haut Mansard"},"geometry":{"type":"Polygon","coordinates":[[[5.2736,48.5970],[5.2964,48.5976],[5.2977,48.5962],[5.2964,48.5948],[5.2960,48.5890],[5.2855,48.5817],[5.2836,48.5823],[5.2844,48.5835],[5.2791,48.5863],[5.2771,48.5860],[5.2759,48.5935],[5.2727,48.5935],[5.2721,48.5965],[5.2736,48.5970]]]}},{"type":"Feature","properties":{"name":"Bois de la Marfée"},"geometry":{"type":"Polygon","coordinates":[[[4.9175,49.6804],[4.9176,49.6788],[4.9226,49.6768],[4.9213,49.6762],[4.9243,49.6758],[4.9227,49.6734],[4.9248,49.6740],[4.9238,49.6722],[4.9279,49.6721],[4.9270,49.6702],[4.9225,49.6688],[4.9270,49.6687],[4.9307,49.6648],[4.9340,49.6634],[4.9303,49.6636],[4.9274,49.6666],[4.9268,49.6651],[4.9242,49.6643],[4.9249,49.6652],[4.9218,49.6666],[4.9182,49.6652],[4.9213,49.6646],[4.9145,49.6645],[4.9135,49.6618],[4.9084,49.6595],[4.9022,49.6590],[4.9024,49.6569],[4.8988,49.6561],[4.8963,49.6491],[4.8949,49.6515],[4.8916,49.6475],[4.8933,49.6470],[4.8960,49.6488],[4.8951,49.6442],[4.8983,49.6444],[4.9008,49.6388],[4.8975,49.6393],[4.8929,49.6372],[4.8913,49.6348],[4.8998,49.6332],[4.8979,49.6306],[4.9022,49.6301],[4.8995,49.6277],[4.9008,49.6264],[4.9021,49.6275],[4.9038,49.6270],[4.9016,49.6251],[4.9029,49.6236],[4.8965,49.6234],[4.8923,49.6269],[4.8899,49.6248],[4.8937,49.6207],[4.8989,49.6202],[4.8995,49.6171],[4.8908,49.6200],[4.8886,49.6177],[4.8862,49.6177],[4.8854,49.6142],[4.8831,49.6125],[4.8819,49.6130],[4.8828,49.6147],[4.8712,49.6205],[4.8656,49.6207],[4.8697,49.6145],[4.8707,49.6153],[4.8739,49.6138],[4.8696,49.6091],[4.8691,49.6069],[4.8679,49.6097],[4.8698,49.6110],[4.8666,49.6118],[4.8582,49.6191],[4.8595,49.6188],[4.8644,49.6232],[4.8638,49.6253],[4.8688,49.6254],[4.8746,49.6238],[4.8752,49.6224],[4.8778,49.6266],[4.8833,49.6272],[4.8799,49.6276],[4.8806,49.6287],[4.8878,49.6304],[4.8830,49.6301],[4.8774,49.6271],[4.8718,49.6267],[4.8687,49.6285],[4.8684,49.6300],[4.8690,49.6314],[4.8763,49.6328],[4.8763,49.6339],[4.8825,49.6340],[4.8871,49.6380],[4.8886,49.6371],[4.8909,49.6392],[4.8871,49.6413],[4.8902,49.6436],[4.8947,49.6441],[4.8909,49.6460],[4.8848,49.6420],[4.8785,49.6436],[4.8864,49.6473],[4.8926,49.6538],[4.8931,49.6528],[4.8947,49.6535],[4.8960,49.6589],[4.8946,49.6647],[4.8951,49.6700],[4.8960,49.6718],[4.8974,49.6713],[4.8956,49.6743],[4.8961,49.6755],[4.8998,49.6733],[4.9023,49.6733],[4.9042,49.6744],[4.9022,49.6757],[4.9064,49.6784],[4.9057,49.6776],[4.9085,49.6767],[4.9104,49.6740],[4.9169,49.6742],[4.9180,49.6755],[4.9124,49.6790],[4.9148,49.6796],[4.9126,49.6804],[4.9175,49.6804]]]}},{"type":"Feature","properties":{"name":"Forêt de Selomont"},"geometry":{"type":"Polygon","coordinates":[[[5.8318,49.5288],[5.8342,49.5264],[5.8357,49.5200],[5.8486,49.5144],[5.8504,49.5088],[5.8593,49.5059],[5.8589,49.5041],[5.8631,49.5001],[5.8600,49.5018],[5.8580,49.5007],[5.8523,49.5011],[5.8512,49.5018],[5.8523,49.5020],[5.8461,49.5034],[5.8416,49.5024],[5.8431,49.4985],[5.8493,49.4962],[5.8466,49.4955],[5.8490,49.4961],[5.8478,49.4969],[5.8455,49.4950],[5.8489,49.4948],[5.8492,49.4915],[5.8532,49.4911],[5.8538,49.4891],[5.8506,49.4879],[5.8532,49.4884],[5.8554,49.4864],[5.8460,49.4856],[5.8553,49.4858],[5.8557,49.4846],[5.8600,49.4843],[5.8637,49.4851],[5.8626,49.4845],[5.8636,49.4804],[5.8607,49.4812],[5.8628,49.4808],[5.8546,49.4801],[5.8563,49.4780],[5.8553,49.4765],[5.8520,49.4777],[5.8462,49.4775],[5.8438,49.4803],[5.8465,49.4796],[5.8457,49.4810],[5.8431,49.4805],[5.8394,49.4821],[5.8402,49.4818],[5.8392,49.4798],[5.8366,49.4786],[5.8372,49.4767],[5.8361,49.4774],[5.8362,49.4764],[5.8349,49.4766],[5.8303,49.4808],[5.8260,49.4805],[5.8296,49.4851],[5.8243,49.4876],[5.8194,49.4872],[5.8198,49.4884],[5.8183,49.4883],[5.8207,49.4900],[5.8167,49.4941],[5.8141,49.4924],[5.8135,49.4939],[5.8175,49.4977],[5.8173,49.5004],[5.8190,49.4955],[5.8206,49.4987],[5.8193,49.5004],[5.8207,49.5024],[5.8188,49.5025],[5.8177,49.5042],[5.8177,49.5031],[5.8164,49.5031],[5.8166,49.5076],[5.8180,49.5093],[5.8161,49.5115],[5.8225,49.5138],[5.8148,49.5104],[5.8126,49.5147],[5.8139,49.5168],[5.8125,49.5181],[5.8136,49.5181],[5.8114,49.5227],[5.8140,49.5242],[5.8215,49.5247],[5.8199,49.5262],[5.8240,49.5290],[5.8316,49.5284],[5.8293,49.5299],[5.8318,49.5288]]]}}]}