{"type":"FeatureCollection","features":[{"type":"Feature","properties":{"name":"Bois de Rosgrand"},"geometry":{"type":"Polygon","coordinates":[[[-3.4713,47.8865],[-3.4718,47.8885],[-3.4741,47.8895],[-3.4738,47.8918],[-3.4672,47.8910],[-3.4697,47.8935],[-3.4783,47.8917],[-3.4776,47.8905],[-3.4814,47.8887],[-3.4943,47.8884],[-3.4974,47.8903],[-3.4956,47.8903],[-3.4951,47.8926],[-3.4940,47.8928],[-3.4956,47.8935],[-3.4918,47.8949],[-3.4931,47.8979],[-3.4967,47.8978],[-3.4973,47.8993],[-3.5041,47.8993],[-3.5031,47.8989],[-3.5035,47.8971],[-3.5016,47.8963],[-3.5034,47.8960],[-3.5058,47.8980],[-3.5059,47.8965],[-3.5013,47.8904],[-3.5039,47.8900],[-3.5042,47.8909],[-3.5027,47.8913],[-3.5075,47.8924],[-3.5040,47.8889],[-3.5063,47.8890],[-3.5073,47.8873],[-3.5027,47.8881],[-3.5019,47.8867],[-3.5051,47.8858],[-3.5101,47.8862],[-3.5100,47.8872],[-3.5117,47.8869],[-3.5115,47.8856],[-3.5169,47.8847],[-3.5190,47.8854],[-3.5186,47.8875],[-3.5161,47.8875],[-3.5188,47.8877],[-3.5200,47.8892],[-3.5222,47.8886],[-3.5205,47.8879],[-3.5237,47.8866],[-3.5243,47.8849],[-3.5285,47.8852],[-3.5242,47.8819],[-3.5225,47.8843],[-3.5243,47.8808],[-3.5314,47.8792],[-3.5289,47.8771],[-3.5280,47.8791],[-3.5197,47.8782],[-3.5191,47.8770],[-3.5051,47.8791],[-3.5028,47.8824],[-3.5005,47.8828],[-3.4999,47.8846],[-3.4977,47.8844],[-3.4985,47.8854],[-3.4964,47.8865],[-3.4945,47.8852],[-3.4956,47.8842],[-3.4940,47.8845],[-3.4892,47.8806],[-3.4840,47.8827],[-3.4825,47.8849],[-3.4847,47.8859],[-3.4849,47.8840],[-3.4888,47.8820],[-3.4936,47.8849],[-3.4916,47.8855],[-3.4919,47.8866],[-3.4879,47.8875],[-3.4878,47.8866],[-3.4795,47.8857],[-3.4778,47.8869],[-3.4713,47.8865]]]}},{"type":"Feature","properties":{"name":"Lande de l\u0027Épine"},"geometry":{"type":"Polygon","coordinates":[[[-2.2280,47.8867],[-2.2250,47.8867],[-2.2249,47.8853],[-2.2282,47.8844],[-2.2254,47.8841],[-2.2259,47.8827],[-2.2241,47.8798],[-2.2214,47.8788],[-2.2202,47.8789],[-2.2219,47.8802],[-2.2217,47.8839],[-2.2193,47.8858],[-2.2149,47.8868],[-2.2151,47.8881],[-2.2092,47.8865],[-2.2089,47.8818],[-2.2114,47.8816],[-2.2119,47.8802],[-2.2168,47.8798],[-2.2167,47.8785],[-2.2198,47.8779],[-2.2194,47.8757],[-2.2219,47.8756],[-2.2219,47.8747],[-2.2234,47.8760],[-2.2243,47.8750],[-2.2291,47.8765],[-2.2379,47.8759],[-2.2375,47.8770],[-2.2439,47.8772],[-2.2455,47.8762],[-2.2454,47.8773],[-2.2492,47.8789],[-2.2482,47.8805],[-2.2439,47.8815],[-2.2446,47.8839],[-2.2421,47.8849],[-2.2397,47.8829],[-2.2427,47.8820],[-2.2426,47.8802],[-2.2381,47.8800],[-2.2380,47.8817],[-2.2328,47.8855],[-2.2311,47.8843],[-2.2280,47.8867]]]}},{"type":"Feature","properties":{"name":"Le Bois du Pouldu"},"geometry":{"type":"Polygon","coordinates":[[[-3.1703,48.2234],[-3.1666,48.2223],[-3.1684,48.2219],[-3.1684,48.2209],[-3.1638,48.2221],[-3.1636,48.2210],[-3.1591,48.2203],[-3.1681,48.2187],[-3.1703,48.2194],[-3.1715,48.2176],[-3.1707,48.2162],[-3.1617,48.2156],[-3.1571,48.2120],[-3.1444,48.2140],[-3.1473,48.2163],[-3.1376,48.2194],[-3.1274,48.2189],[-3.1273,48.2176],[-3.1360,48.2176],[-3.1372,48.2186],[-3.1390,48.2167],[-3.1372,48.2163],[-3.1440,48.2162],[-3.1353,48.2156],[-3.1341,48.2146],[-3.1427,48.2144],[-3.1333,48.2136],[-3.1308,48.2115],[-3.1330,48.2101],[-3.1368,48.2101],[-3.1422,48.2055],[-3.1476,48.2092],[-3.1494,48.2076],[-3.1466,48.2054],[-3.1446,48.2056],[-3.1442,48.2037],[-3.1511,48.2040],[-3.1528,48.2015],[-3.1529,48.2023],[-3.1546,48.2017],[-3.1553,48.1997],[-3.1627,48.2015],[-3.1635,48.2027],[-3.1621,48.2046],[-3.1682,48.2038],[-3.1682,48.2013],[-3.1666,48.2009],[-3.1679,48.1973],[-3.1607,48.1939],[-3.1626,48.1922],[-3.1607,48.1907],[-3.1637,48.1907],[-3.1673,48.1959],[-3.1696,48.1923],[-3.1662,48.1910],[-3.1680,48.1892],[-3.1713,48.1896],[-3.1719,48.1879],[-3.1712,48.1865],[-3.1661,48.1848],[-3.1691,48.1855],[-3.1694,48.1843],[-3.1725,48.1835],[-3.1735,48.1838],[-3.1721,48.1850],[-3.1739,48.1858],[-3.1731,48.1892],[-3.1754,48.1905],[-3.1758,48.1922],[-3.1730,48.1932],[-3.1758,48.1967],[-3.1773,48.1967],[-3.1775,48.1985],[-3.1759,48.1984],[-3.1766,48.2000],[-3.1779,48.2008],[-3.1807,48.1992],[-3.1821,48.2005],[-3.1767,48.2025],[-3.1783,48.2031],[-3.1771,48.2041],[-3.1791,48.2052],[-3.1772,48.2060],[-3.1789,48.2077],[-3.1776,48.2096],[-3.1782,48.2107],[-3.1722,48.2105],[-3.1755,48.2171],[-3.1727,48.2177],[-3.1725,48.2198],[-3.1705,48.2200],[-3.1717,48.2233],[-3.1703,48.2234]]]}},{"type":"Feature","properties":{"name":"Koad Toullaeron"},"geometry":{"type":"Polygon","coordinates":[[[-3.6558,48.1795],[-3.6546,48.1791],[-3.6557,48.1782],[-3.6534,48.1753],[-3.6499,48.1748],[-3.6538,48.1769],[-3.6526,48.1776],[-3.6415,48.1736],[-3.6401,48.1737],[-3.6395,48.1753],[-3.6350,48.1733],[-3.6338,48.1707],[-3.6369,48.1697],[-3.6364,48.1661],[-3.6302,48.1683],[-3.6294,48.1656],[-3.6264,48.1647],[-3.6301,48.1638],[-3.6310,48.1622],[-3.6291,48.1596],[-3.6245,48.1595],[-3.6392,48.1584],[-3.6313,48.1602],[-3.6333,48.1645],[-3.6359,48.1652],[-3.6431,48.1617],[-3.6507,48.1649],[-3.6530,48.1679],[-3.6547,48.1678],[-3.6559,48.1662],[-3.6614,48.1668],[-3.6625,48.1710],[-3.6590,48.1725],[-3.6608,48.1743],[-3.6603,48.1759],[-3.6627,48.1776],[-3.6589,48.1767],[-3.6566,48.1778],[-3.6575,48.1791],[-3.6558,48.1795]]]}},{"type":"Feature","properties":{"name":"Le grand Digoët"},"geometry":{"type":"Polygon","coordinates":[[[-2.4949,47.9864],[-2.4942,47.9850],[-2.4960,47.9850],[-2.4963,47.9830],[-2.4990,47.9813],[-2.4983,47.9800],[-2.4956,47.9806],[-2.4956,47.9790],[-2.4975,47.9773],[-2.4885,47.9745],[-2.4845,47.9746],[-2.4796,47.9749],[-2.4779,47.9762],[-2.4818,47.9774],[-2.4801,47.9791],[-2.4757,47.9785],[-2.4757,47.9776],[-2.4775,47.9775],[-2.4787,47.9739],[-2.4848,47.9743],[-2.4832,47.9734],[-2.4852,47.9718],[-2.4839,47.9707],[-2.4853,47.9697],[-2.4841,47.9690],[-2.4862,47.9684],[-2.4827,47.9686],[-2.4836,47.9677],[-2.4817,47.9663],[-2.4844,47.9666],[-2.4852,47.9634],[-2.4900,47.9613],[-2.4882,47.9605],[-2.4867,47.9578],[-2.4876,47.9570],[-2.4901,47.9573],[-2.4911,47.9589],[-2.4931,47.9573],[-2.4966,47.9600],[-2.4904,47.9613],[-2.4922,47.9639],[-2.4898,47.9631],[-2.4889,47.9650],[-2.4933,47.9646],[-2.4957,47.9653],[-2.4932,47.9662],[-2.4969,47.9658],[-2.4977,47.9667],[-2.4997,47.9659],[-2.5012,47.9690],[-2.4982,47.9702],[-2.5012,47.9692],[-2.4990,47.9713],[-2.5022,47.9706],[-2.5035,47.9737],[-2.4988,47.9748],[-2.4994,47.9764],[-2.5026,47.9762],[-2.5024,47.9776],[-2.5043,47.9774],[-2.5039,47.9755],[-2.5064,47.9753],[-2.5070,47.9770],[-2.5070,47.9783],[-2.5047,47.9786],[-2.5047,47.9798],[-2.4998,47.9804],[-2.5010,47.9831],[-2.4966,47.9831],[-2.4983,47.9854],[-2.4973,47.9849],[-2.4948,47.9879],[-2.4949,47.9864]]]}},{"type":"Feature","properties":{"name":"Bois d\u0027en haut"},"geometry":{"type":"Polygon","coordinates":[[[-2.5355,48.1520],[-2.5391,48.1516],[-2.5403,48.1501],[-2.5429,48.1508],[-2.5439,48.1492],[-2.5395,48.1460],[-2.5360,48.1477],[-2.5367,48.1494],[-2.5343,48.1509],[-2.5327,48.1490],[-2.5337,48.1479],[-2.5311,48.1478],[-2.5292,48.1445],[-2.5264,48.1465],[-2.5231,48.1456],[-2.5226,48.1465],[-2.5229,48.1446],[-2.5149,48.1431],[-2.5175,48.1406],[-2.5146,48.1376],[-2.5151,48.1361],[-2.5193,48.1342],[-2.5204,48.1352],[-2.5313,48.1338],[-2.5347,48.1394],[-2.5411,48.1416],[-2.5376,48.1440],[-2.5415,48.1441],[-2.5462,48.1477],[-2.5483,48.1466],[-2.5496,48.1473],[-2.5449,48.1508],[-2.5508,48.1501],[-2.5367,48.1530],[-2.5355,48.1520]]]}},{"type":"Feature","properties":{"name":"Bois d\u0027amour"},"geometry":{"type":"Polygon","coordinates":[[[-3.7322,47.8854],[-3.7281,47.8802],[-3.7276,47.8786],[-3.7290,47.8782],[-3.7251,47.8753],[-3.7213,47.8761],[-3.7179,47.8808],[-3.7136,47.8806],[-3.7141,47.8794],[-3.7166,47.8797],[-3.7185,47.8769],[-3.7152,47.8748],[-3.7197,47.8759],[-3.7204,47.8743],[-3.7253,47.8737],[-3.7235,47.8709],[-3.7260,47.8693],[-3.7258,47.8679],[-3.7234,47.8692],[-3.7212,47.8686],[-3.7252,47.8662],[-3.7272,47.8623],[-3.7346,47.8618],[-3.7344,47.8569],[-3.7356,47.8594],[-3.7426,47.8577],[-3.7441,47.8587],[-3.7355,47.8604],[-3.7357,47.8617],[-3.7374,47.8605],[-3.7440,47.8599],[-3.7458,47.8575],[-3.7475,47.8579],[-3.7482,47.8585],[-3.7451,47.8613],[-3.7367,47.8614],[-3.7388,47.8639],[-3.7416,47.8631],[-3.7418,47.8640],[-3.7462,47.8633],[-3.7493,47.8643],[-3.7483,47.8656],[-3.7427,47.8654],[-3.7424,47.8705],[-3.7415,47.8706],[-3.7406,47.8656],[-3.7304,47.8675],[-3.7305,47.8703],[-3.7286,47.8700],[-3.7278,47.8725],[-3.7295,47.8744],[-3.7286,47.8750],[-3.7321,47.8775],[-3.7325,47.8798],[-3.7298,47.8785],[-3.7323,47.8823],[-3.7385,47.8814],[-3.7421,47.8785],[-3.7494,47.8796],[-3.7511,47.8790],[-3.7513,47.8763],[-3.7525,47.8775],[-3.7613,47.8761],[-3.7639,47.8771],[-3.7569,47.8777],[-3.7534,47.8796],[-3.7562,47.8811],[-3.7433,47.8808],[-3.7408,47.8836],[-3.7336,47.8838],[-3.7344,47.8851],[-3.7322,47.8854]]]}},{"type":"Feature","properties":{"name":"Forêt de la Bretesche - Missillac"},"geometry":{"type":"Polygon","coordinates":[[[-2.1534,47.5089],[-2.1547,47.5073],[-2.1589,47.5077],[-2.1577,47.5105],[-2.1603,47.5106],[-2.1603,47.5144],[-2.1684,47.5143],[-2.1690,47.5129],[-2.1735,47.5137],[-2.1739,47.5123],[-2.1815,47.5135],[-2.1818,47.5118],[-2.1865,47.5115],[-2.1841,47.5100],[-2.1868,47.5074],[-2.1843,47.5027],[-2.1827,47.5029],[-2.1831,47.5014],[-2.1880,47.4991],[-2.1915,47.5008],[-2.1920,47.5038],[-2.1960,47.5021],[-2.1963,47.5001],[-2.2023,47.5014],[-2.1993,47.5030],[-2.2022,47.5066],[-2.1942,47.5077],[-2.1925,47.5118],[-2.1773,47.5160],[-2.1638,47.5149],[-2.1585,47.5179],[-2.1591,47.5146],[-2.1546,47.5140],[-2.1530,47.5110],[-2.1534,47.5089]]]}},{"type":"Feature","properties":{"name":"Forêt de la Madeleine"},"geometry":{"type":"Polygon","coordinates":[[[-2.1569,47.4558],[-2.1617,47.4538],[-2.1555,47.4497],[-2.1543,47.4516],[-2.1559,47.4525],[-2.1540,47.4527],[-2.1543,47.4556],[-2.1513,47.4566],[-2.1371,47.4530],[-2.1355,47.4448],[-2.1386,47.4427],[-2.1437,47.4418],[-2.1522,47.4430],[-2.1502,47.4445],[-2.1534,47.4459],[-2.1556,47.4444],[-2.1537,47.4450],[-2.1552,47.4433],[-2.1586,47.4438],[-2.1580,47.4425],[-2.1590,47.4420],[-2.1591,47.4455],[-2.1622,47.4464],[-2.1661,47.4510],[-2.1647,47.4551],[-2.1676,47.4571],[-2.1642,47.4564],[-2.1630,47.4579],[-2.1617,47.4553],[-2.1569,47.4558]]]}},{"type":"Feature","properties":{"name":"Forêt de Quénécan"},"geometry":{"type":"Polygon","coordinates":[[[-3.0786,48.2090],[-3.0839,48.2082],[-3.0853,48.2033],[-3.0934,48.2013],[-3.0957,48.2022],[-3.0973,48.2056],[-3.1058,48.2050],[-3.1077,48.2081],[-3.1110,48.2052],[-3.1156,48.2070],[-3.1167,48.2061],[-3.1161,48.2042],[-3.1054,48.2027],[-3.1039,48.2015],[-3.1021,48.1953],[-3.0900,48.1952],[-3.0902,48.1985],[-3.0885,48.1989],[-3.0880,48.1963],[-3.0873,48.1984],[-3.0857,48.1988],[-3.0855,48.1971],[-3.0879,48.1963],[-3.0854,48.1969],[-3.0854,48.1990],[-3.0816,48.2017],[-3.0795,48.2005],[-3.0784,48.1970],[-3.0806,48.1955],[-3.0784,48.1933],[-3.0767,48.1930],[-3.0732,48.1957],[-3.0652,48.1961],[-3.0667,48.1991],[-3.0703,48.1997],[-3.0693,48.2041],[-3.0737,48.2051],[-3.0786,48.2090]]]}},{"type":"Feature","properties":{"name":"Forêt de Quénécan"},"geometry":{"type":"Polygon","coordinates":[[[-3.0779,48.1741],[-3.0804,48.1717],[-3.0767,48.1694],[-3.0759,48.1698],[-3.0768,48.1717],[-3.0740,48.1713],[-3.0749,48.1705],[-3.0734,48.1696],[-3.0748,48.1676],[-3.0822,48.1669],[-3.0828,48.1681],[-3.0849,48.1671],[-3.0858,48.1642],[-3.0892,48.1642],[-3.0893,48.1629],[-3.0910,48.1635],[-3.0929,48.1623],[-3.0947,48.1644],[-3.0993,48.1619],[-3.1026,48.1633],[-3.1109,48.1635],[-3.1109,48.1614],[-3.1139,48.1581],[-3.1119,48.1569],[-3.1077,48.1569],[-3.1060,48.1590],[-3.1032,48.1586],[-3.1007,48.1562],[-3.0981,48.1566],[-3.0967,48.1539],[-3.0980,48.1528],[-3.0920,48.1498],[-3.0883,48.1497],[-3.0910,48.1514],[-3.0883,48.1517],[-3.0888,48.1528],[-3.0852,48.1526],[-3.0791,48.1547],[-3.0681,48.1543],[-3.0689,48.1569],[-3.0664,48.1598],[-3.0677,48.1614],[-3.0651,48.1619],[-3.0676,48.1642],[-3.0623,48.1629],[-3.0615,48.1642],[-3.0627,48.1654],[-3.0571,48.1662],[-3.0582,48.1680],[-3.0622,48.1672],[-3.0636,48.1685],[-3.0652,48.1735],[-3.0657,48.1686],[-3.0674,48.1675],[-3.0681,48.1712],[-3.0737,48.1744],[-3.0779,48.1741]]]}},{"type":"Feature","properties":{"name":"Le Grand Bois"},"geometry":{"type":"Polygon","coordinates":[[[-3.2377,48.0980],[-3.2348,48.0960],[-3.2385,48.0953],[-3.2433,48.0968],[-3.2443,48.0964],[-3.2431,48.0953],[-3.2457,48.0938],[-3.2502,48.0954],[-3.2496,48.0930],[-3.2535,48.0919],[-3.2544,48.0942],[-3.2589,48.0937],[-3.2616,48.0968],[-3.2662,48.0961],[-3.2692,48.0985],[-3.2686,48.0969],[-3.2795,48.0955],[-3.2804,48.0980],[-3.2831,48.0989],[-3.2809,48.0997],[-3.2778,48.0969],[-3.2751,48.0973],[-3.2761,48.0996],[-3.2728,48.1002],[-3.2732,48.1018],[-3.2761,48.1028],[-3.2669,48.1066],[-3.2546,48.1060],[-3.2540,48.1053],[-3.2577,48.1036],[-3.2555,48.1034],[-3.2501,48.1052],[-3.2493,48.0999],[-3.2448,48.0995],[-3.2417,48.1009],[-3.2420,48.0990],[-3.2377,48.0980]]]}},{"type":"Feature","properties":{"name":"Bois d\u0027Organ"},"geometry":{"type":"Polygon","coordinates":[[[-3.2388,47.9355],[-3.2379,47.9381],[-3.2360,47.9355],[-3.2394,47.9327],[-3.2378,47.9317],[-3.2400,47.9289],[-3.2369,47.9277],[-3.2361,47.9290],[-3.2377,47.9302],[-3.2365,47.9311],[-3.2374,47.9325],[-3.2326,47.9341],[-3.2318,47.9367],[-3.2358,47.9390],[-3.2321,47.9405],[-3.2298,47.9364],[-3.2277,47.9376],[-3.2240,47.9372],[-3.2208,47.9352],[-3.2223,47.9314],[-3.2259,47.9323],[-3.2242,47.9329],[-3.2256,47.9344],[-3.2267,47.9327],[-3.2280,47.9328],[-3.2290,47.9291],[-3.2300,47.9291],[-3.2301,47.9308],[-3.2321,47.9306],[-3.2335,47.9323],[-3.2335,47.9280],[-3.2307,47.9293],[-3.2313,47.9262],[-3.2339,47.9256],[-3.2320,47.9244],[-3.2318,47.9228],[-3.2285,47.9225],[-3.2264,47.9254],[-3.2295,47.9278],[-3.2282,47.9288],[-3.2239,47.9268],[-3.2232,47.9287],[-3.2216,47.9286],[-3.2178,47.9262],[-3.2201,47.9246],[-3.2188,47.9227],[-3.2156,47.9230],[-3.2129,47.9201],[-3.2072,47.9202],[-3.2094,47.9183],[-3.2071,47.9184],[-3.2082,47.9155],[-3.2061,47.9149],[-3.2032,47.9178],[-3.2039,47.9192],[-3.2030,47.9215],[-3.1996,47.9214],[-3.2005,47.9200],[-3.2007,47.9215],[-3.2028,47.9211],[-3.2028,47.9140],[-3.2045,47.9116],[-3.2077,47.9104],[-3.2059,47.9095],[-3.2064,47.9084],[-3.2098,47.9066],[-3.2136,47.9070],[-3.2110,47.9089],[-3.2186,47.9112],[-3.2210,47.9095],[-3.2219,47.9106],[-3.2211,47.9130],[-3.2278,47.9137],[-3.2291,47.9125],[-3.2299,47.9143],[-3.2317,47.9145],[-3.2400,47.9147],[-3.2422,47.9117],[-3.2456,47.9110],[-3.2492,47.9120],[-3.2559,47.9090],[-3.2613,47.9104],[-3.2605,47.9116],[-3.2628,47.9129],[-3.2636,47.9117],[-3.2656,47.9119],[-3.2655,47.9128],[-3.2716,47.9139],[-3.2712,47.9165],[-3.2690,47.9164],[-3.2684,47.9173],[-3.2701,47.9179],[-3.2682,47.9194],[-3.2651,47.9172],[-3.2655,47.9146],[-3.2610,47.9152],[-3.2588,47.9141],[-3.2592,47.9165],[-3.2528,47.9176],[-3.2552,47.9212],[-3.2506,47.9192],[-3.2465,47.9192],[-3.2478,47.9177],[-3.2434,47.9187],[-3.2307,47.9159],[-3.2335,47.9169],[-3.2272,47.9163],[-3.2294,47.9201],[-3.2305,47.9185],[-3.2332,47.9192],[-3.2328,47.9207],[-3.2356,47.9190],[-3.2352,47.9198],[-3.2420,47.9213],[-3.2370,47.9219],[-3.2365,47.9208],[-3.2349,47.9210],[-3.2363,47.9240],[-3.2346,47.9238],[-3.2341,47.9251],[-3.2409,47.9270],[-3.2438,47.9327],[-3.2442,47.9275],[-3.2478,47.9283],[-3.2476,47.9309],[-3.2494,47.9306],[-3.2489,47.9284],[-3.2509,47.9285],[-3.2520,47.9304],[-3.2450,47.9340],[-3.2404,47.9336],[-3.2388,47.9355]]]}},{"type":"Feature","properties":{"name":"Forêt domaniale de Montauban De Bretagne"},"geometry":{"type":"Polygon","coordinates":[[[-2.0792,48.2171],[-2.0844,48.2177],[-2.0835,48.2196],[-2.0845,48.2198],[-2.0843,48.2230],[-2.0823,48.2235],[-2.0824,48.2250],[-2.0867,48.2236],[-2.0903,48.2320],[-2.0945,48.2328],[-2.0935,48.2356],[-2.0870,48.2336],[-2.0830,48.2286],[-2.0844,48.2267],[-2.0789,48.2250],[-2.0795,48.2231],[-2.0751,48.2218],[-2.0643,48.2212],[-2.0617,48.2226],[-2.0542,48.2227],[-2.0520,48.2241],[-2.0411,48.2248],[-2.0358,48.2264],[-2.0195,48.2233],[-2.0131,48.2198],[-2.0128,48.2177],[-2.0145,48.2163],[-2.0094,48.2122],[-2.0105,48.2110],[-2.0097,48.2100],[-2.0002,48.2087],[-1.9997,48.2067],[-2.0018,48.2049],[-2.0077,48.2052],[-2.0103,48.2034],[-2.0252,48.2055],[-2.0248,48.2063],[-2.0281,48.2074],[-2.0275,48.2086],[-2.0311,48.2092],[-2.0284,48.2101],[-2.0278,48.2125],[-2.0262,48.2118],[-2.0249,48.2165],[-2.0266,48.2168],[-2.0261,48.2195],[-2.0325,48.2215],[-2.0421,48.2184],[-2.0459,48.2185],[-2.0464,48.2167],[-2.0477,48.2165],[-2.0523,48.2193],[-2.0545,48.2189],[-2.0547,48.2177],[-2.0632,48.2194],[-2.0710,48.2170],[-2.0753,48.2189],[-2.0792,48.2171]]]}},{"type":"Feature","properties":{"name":"Forêt de Cascadec"},"geometry":{"type":"Polygon","coordinates":[[[-3.6806,48.0103],[-3.6765,48.0127],[-3.6761,48.0101],[-3.6783,48.0110],[-3.6789,48.0102],[-3.6780,48.0092],[-3.6764,48.0098],[-3.6734,48.0051],[-3.6759,48.0054],[-3.6752,48.0046],[-3.6767,48.0018],[-3.6787,48.0010],[-3.6839,48.0066],[-3.6814,48.0016],[-3.6856,48.0003],[-3.6809,48.0013],[-3.6791,47.9981],[-3.6817,47.9968],[-3.6834,47.9985],[-3.6876,47.9993],[-3.6874,47.9979],[-3.6831,47.9970],[-3.6854,47.9966],[-3.6814,47.9928],[-3.6821,47.9918],[-3.6905,48.0026],[-3.6914,48.0013],[-3.6859,47.9955],[-3.6833,47.9904],[-3.6860,47.9894],[-3.6900,47.9902],[-3.6921,47.9889],[-3.6933,47.9898],[-3.6951,47.9882],[-3.6959,47.9907],[-3.6979,47.9920],[-3.6920,47.9938],[-3.6905,47.9920],[-3.6901,47.9957],[-3.6912,47.9937],[-3.6949,47.9954],[-3.6939,47.9960],[-3.6963,47.9978],[-3.6968,47.9962],[-3.6978,47.9980],[-3.6994,47.9967],[-3.6958,47.9943],[-3.6987,47.9942],[-3.7024,47.9989],[-3.7000,48.0009],[-3.6987,47.9998],[-3.6975,48.0009],[-3.6978,47.9991],[-3.6957,47.9997],[-3.6974,48.0015],[-3.6951,48.0012],[-3.6966,48.0022],[-3.6946,48.0020],[-3.6946,48.0036],[-3.6986,48.0056],[-3.6979,48.0087],[-3.6936,48.0083],[-3.6964,48.0071],[-3.6931,48.0061],[-3.6930,48.0049],[-3.6904,48.0081],[-3.6910,48.0103],[-3.6901,48.0087],[-3.6874,48.0102],[-3.6908,48.0107],[-3.6899,48.0118],[-3.6915,48.0131],[-3.6899,48.0136],[-3.6928,48.0150],[-3.6918,48.0158],[-3.6882,48.0147],[-3.6898,48.0162],[-3.6878,48.0163],[-3.6881,48.0188],[-3.6867,48.0181],[-3.6888,48.0211],[-3.6865,48.0189],[-3.6846,48.0204],[-3.6860,48.0179],[-3.6848,48.0191],[-3.6853,48.0175],[-3.6842,48.0170],[-3.6860,48.0136],[-3.6841,48.0146],[-3.6820,48.0115],[-3.6820,48.0143],[-3.6798,48.0137],[-3.6811,48.0129],[-3.6806,48.0103]]]}},{"type":"Feature","properties":{"name":"Forêt de la Hardouinais"},"geometry":{"type":"Polygon","coordinates":[[[-2.3682,48.1970],[-2.3698,48.1972],[-2.3645,48.2002],[-2.3663,48.2023],[-2.3685,48.2031],[-2.3711,48.2017],[-2.3720,48.2026],[-2.3741,48.2019],[-2.3723,48.2031],[-2.3736,48.2038],[-2.3761,48.2019],[-2.3788,48.2022],[-2.3794,48.2213],[-2.3784,48.2222],[-2.3759,48.2213],[-2.3765,48.2231],[-2.3733,48.2239],[-2.3703,48.2231],[-2.3720,48.2225],[-2.3714,48.2210],[-2.3675,48.2225],[-2.3673,48.2263],[-2.3613,48.2283],[-2.3599,48.2272],[-2.3500,48.2356],[-2.3472,48.2358],[-2.3460,48.2298],[-2.3532,48.2228],[-2.3521,48.2199],[-2.3471,48.2173],[-2.3452,48.2207],[-2.3490,48.2242],[-2.3458,48.2256],[-2.3411,48.2241],[-2.3373,48.2286],[-2.3351,48.2293],[-2.3361,48.2306],[-2.3342,48.2317],[-2.3316,48.2274],[-2.3298,48.2267],[-2.3413,48.2162],[-2.3440,48.2169],[-2.3459,48.2157],[-2.3672,48.2155],[-2.3656,48.2043],[-2.3385,48.2047],[-2.3377,48.2031],[-2.3368,48.2035],[-2.3383,48.1994],[-2.3305,48.1993],[-2.3332,48.1994],[-2.3320,48.1991],[-2.3343,48.1977],[-2.3350,48.1992],[-2.3382,48.1991],[-2.3382,48.1976],[-2.3348,48.1976],[-2.3351,48.1967],[-2.3589,48.1965],[-2.3592,48.2005],[-2.3611,48.2007],[-2.3598,48.1976],[-2.3622,48.1974],[-2.3620,48.1964],[-2.3640,48.1969],[-2.3644,48.2001],[-2.3661,48.1987],[-2.3649,48.1969],[-2.3682,48.1970]]]}},{"type":"Feature","properties":{"name":"Forêt de Lanouée"},"geometry":{"type":"Polygon","coordinates":[[[-2.5708,48.0785],[-2.5727,48.0749],[-2.5772,48.0709],[-2.5779,48.0723],[-2.5800,48.0721],[-2.5795,48.0707],[-2.5815,48.0706],[-2.5810,48.0666],[-2.5833,48.0666],[-2.5818,48.0659],[-2.5821,48.0642],[-2.5884,48.0591],[-2.5892,48.0561],[-2.5906,48.0561],[-2.5879,48.0562],[-2.5885,48.0554],[-2.5872,48.0556],[-2.5869,48.0541],[-2.5830,48.0522],[-2.5888,48.0515],[-2.5880,48.0512],[-2.5893,48.0481],[-2.5921,48.0459],[-2.5884,48.0446],[-2.5865,48.0415],[-2.5884,48.0428],[-2.5900,48.0418],[-2.5910,48.0436],[-2.5945,48.0453],[-2.5957,48.0445],[-2.5968,48.0465],[-2.6005,48.0464],[-2.6007,48.0473],[-2.6130,48.0428],[-2.6149,48.0440],[-2.6193,48.0412],[-2.6183,48.0402],[-2.6194,48.0406],[-2.6225,48.0381],[-2.6217,48.0357],[-2.6243,48.0331],[-2.6268,48.0348],[-2.6277,48.0332],[-2.6306,48.0347],[-2.6286,48.0327],[-2.6309,48.0303],[-2.6334,48.0309],[-2.6313,48.0325],[-2.6316,48.0369],[-2.6382,48.0377],[-2.6407,48.0356],[-2.6404,48.0337],[-2.6367,48.0295],[-2.6350,48.0293],[-2.6394,48.0276],[-2.6413,48.0286],[-2.6482,48.0270],[-2.6457,48.0268],[-2.6467,48.0258],[-2.6481,48.0264],[-2.6486,48.0229],[-2.6461,48.0252],[-2.6464,48.0187],[-2.6439,48.0165],[-2.6438,48.0138],[-2.6410,48.0143],[-2.6393,48.0130],[-2.6379,48.0136],[-2.6388,48.0148],[-2.6376,48.0165],[-2.6358,48.0167],[-2.6355,48.0145],[-2.6327,48.0145],[-2.6330,48.0122],[-2.6257,48.0125],[-2.6207,48.0109],[-2.6229,48.0100],[-2.6246,48.0110],[-2.6277,48.0086],[-2.6256,48.0068],[-2.6247,48.0079],[-2.6229,48.0069],[-2.6200,48.0073],[-2.6194,48.0086],[-2.6174,48.0081],[-2.6200,48.0020],[-2.6161,48.0020],[-2.6164,48.0029],[-2.6145,48.0032],[-2.6139,47.9981],[-2.6080,47.9985],[-2.6090,48.0000],[-2.6067,48.0009],[-2.6107,47.9997],[-2.6107,48.0007],[-2.6096,48.0026],[-2.6077,48.0028],[-2.6081,48.0048],[-2.6054,48.0050],[-2.6081,48.0055],[-2.6083,48.0081],[-2.6118,48.0084],[-2.6118,48.0104],[-2.6094,48.0105],[-2.6034,48.0063],[-2.6027,48.0068],[-2.6085,48.0122],[-2.5935,48.0135],[-2.5932,48.0148],[-2.5880,48.0168],[-2.5903,48.0185],[-2.5911,48.0209],[-2.5879,48.0220],[-2.5879,48.0203],[-2.5851,48.0227],[-2.5811,48.0205],[-2.5820,48.0193],[-2.5769,48.0194],[-2.5766,48.0179],[-2.5756,48.0182],[-2.5759,48.0196],[-2.5732,48.0187],[-2.5693,48.0214],[-2.5642,48.0178],[-2.5691,48.0145],[-2.5656,48.0154],[-2.5666,48.0124],[-2.5600,48.0112],[-2.5581,48.0124],[-2.5557,48.0125],[-2.5553,48.0113],[-2.5522,48.0123],[-2.5514,48.0117],[-2.5525,48.0094],[-2.5500,48.0088],[-2.5439,48.0144],[-2.5317,48.0141],[-2.5302,48.0136],[-2.5315,48.0130],[-2.5309,48.0117],[-2.5245,48.0105],[-2.5233,48.0119],[-2.5240,48.0104],[-2.5189,48.0136],[-2.5173,48.0099],[-2.5190,48.0095],[-2.5177,48.0088],[-2.5149,48.0093],[-2.5179,48.0131],[-2.5094,48.0134],[-2.4994,48.0178],[-2.5042,48.0217],[-2.5056,48.0215],[-2.5073,48.0257],[-2.5102,48.0261],[-2.5125,48.0307],[-2.5106,48.0318],[-2.5160,48.0323],[-2.5164,48.0339],[-2.5181,48.0344],[-2.5168,48.0352],[-2.5200,48.0358],[-2.5176,48.0373],[-2.5189,48.0364],[-2.5199,48.0377],[-2.5210,48.0364],[-2.5220,48.0378],[-2.5227,48.0372],[-2.5241,48.0407],[-2.5232,48.0414],[-2.5268,48.0435],[-2.5257,48.0438],[-2.5297,48.0438],[-2.5316,48.0470],[-2.5329,48.0467],[-2.5336,48.0496],[-2.5322,48.0497],[-2.5326,48.0504],[-2.5377,48.0532],[-2.5359,48.0540],[-2.5346,48.0521],[-2.5352,48.0549],[-2.5337,48.0547],[-2.5349,48.0554],[-2.5399,48.0531],[-2.5466,48.0552],[-2.5453,48.0583],[-2.5424,48.0580],[-2.5446,48.0602],[-2.5449,48.0637],[-2.5496,48.0635],[-2.5505,48.0619],[-2.5629,48.0625],[-2.5670,48.0606],[-2.5682,48.0613],[-2.5694,48.0628],[-2.5682,48.0633],[-2.5683,48.0659],[-2.5606,48.0682],[-2.5635,48.0694],[-2.5639,48.0716],[-2.5615,48.0741],[-2.5611,48.0730],[-2.5595,48.0733],[-2.5601,48.0745],[-2.5647,48.0761],[-2.5634,48.0779],[-2.5610,48.0778],[-2.5601,48.0765],[-2.5603,48.0778],[-2.5579,48.0779],[-2.5620,48.0789],[-2.5656,48.0771],[-2.5668,48.0783],[-2.5708,48.0785]]]}},{"type":"Feature","properties":{"name":"Forêt de Saint-Sauveur"},"geometry":{"type":"Polygon","coordinates":[[[-3.2526,47.7034],[-3.2504,47.7041],[-3.2531,47.7053],[-3.2542,47.7018],[-3.2568,47.7016],[-3.2568,47.7034],[-3.2595,47.7031],[-3.2624,47.7046],[-3.2601,47.7060],[-3.2615,47.7072],[-3.2602,47.7086],[-3.2608,47.7110],[-3.2633,47.7127],[-3.2625,47.7145],[-3.2601,47.7148],[-3.2625,47.7167],[-3.2635,47.7154],[-3.2683,47.7146],[-3.2673,47.7143],[-3.2691,47.7129],[-3.2697,47.7142],[-3.2677,47.7158],[-3.2692,47.7162],[-3.2672,47.7213],[-3.2708,47.7218],[-3.2711,47.7229],[-3.2673,47.7247],[-3.2669,47.7228],[-3.2655,47.7229],[-3.2661,47.7253],[-3.2650,47.7258],[-3.2640,47.7243],[-3.2623,47.7243],[-3.2607,47.7254],[-3.2615,47.7255],[-3.2609,47.7277],[-3.2573,47.7295],[-3.2571,47.7276],[-3.2556,47.7275],[-3.2573,47.7265],[-3.2552,47.7257],[-3.2580,47.7249],[-3.2561,47.7246],[-3.2563,47.7231],[-3.2532,47.7226],[-3.2535,47.7259],[-3.2502,47.7250],[-3.2501,47.7266],[-3.2511,47.7266],[-3.2497,47.7277],[-3.2492,47.7247],[-3.2516,47.7238],[-3.2516,47.7211],[-3.2527,47.7224],[-3.2536,47.7212],[-3.2516,47.7194],[-3.2449,47.7194],[-3.2446,47.7180],[-3.2462,47.7169],[-3.2449,47.7166],[-3.2478,47.7161],[-3.2477,47.7174],[-3.2490,47.7174],[-3.2503,47.7161],[-3.2492,47.7144],[-3.2498,47.7120],[-3.2460,47.7121],[-3.2457,47.7102],[-3.2425,47.7099],[-3.2415,47.7080],[-3.2409,47.7090],[-3.2385,47.7093],[-3.2390,47.7079],[-3.2374,47.7089],[-3.2368,47.7066],[-3.2347,47.7062],[-3.2377,47.7020],[-3.2375,47.7029],[-3.2431,47.7038],[-3.2434,47.7021],[-3.2447,47.7021],[-3.2438,47.7051],[-3.2458,47.7053],[-3.2477,47.7044],[-3.2469,47.7034],[-3.2526,47.7034]]]}},{"type":"Feature","properties":{"name":"Forêt de la Bourdonnaye"},"geometry":{"type":"Polygon","coordinates":[[[-2.1911,47.8427],[-2.1918,47.8451],[-2.1961,47.8458],[-2.1956,47.8467],[-2.1983,47.8458],[-2.1980,47.8466],[-2.1997,47.8467],[-2.2046,47.8446],[-2.2069,47.8452],[-2.2088,47.8424],[-2.2074,47.8396],[-2.2056,47.8388],[-2.2001,47.8405],[-2.1991,47.8394],[-2.1983,47.8412],[-2.1953,47.8408],[-2.1933,47.8422],[-2.1910,47.8415],[-2.1913,47.8398],[-2.1882,47.8371],[-2.1871,47.8378],[-2.1891,47.8391],[-2.1825,47.8421],[-2.1823,47.8405],[-2.1854,47.8391],[-2.1826,47.8369],[-2.1838,47.8356],[-2.1855,47.8362],[-2.1838,47.8341],[-2.1924,47.8331],[-2.1976,47.8350],[-2.1977,47.8332],[-2.2001,47.8335],[-2.1999,47.8323],[-2.1941,47.8314],[-2.1929,47.8328],[-2.1879,47.8331],[-2.1859,47.8316],[-2.1833,47.8317],[-2.1813,47.8285],[-2.1755,47.8275],[-2.1773,47.8289],[-2.1767,47.8298],[-2.1733,47.8295],[-2.1739,47.8311],[-2.1758,47.8306],[-2.1753,47.8321],[-2.1684,47.8340],[-2.1674,47.8368],[-2.1657,47.8325],[-2.1639,47.8333],[-2.1660,47.8345],[-2.1641,47.8346],[-2.1636,47.8381],[-2.1599,47.8352],[-2.1558,47.8365],[-2.1564,47.8382],[-2.1613,47.8401],[-2.1561,47.8432],[-2.1579,47.8465],[-2.1572,47.8528],[-2.1464,47.8530],[-2.1472,47.8546],[-2.1443,47.8535],[-2.1436,47.8553],[-2.1448,47.8570],[-2.1425,47.8580],[-2.1434,47.8589],[-2.1442,47.8577],[-2.1481,47.8623],[-2.1474,47.8612],[-2.1485,47.8603],[-2.1494,47.8617],[-2.1513,47.8615],[-2.1526,47.8578],[-2.1543,47.8567],[-2.1627,47.8561],[-2.1628,47.8600],[-2.1610,47.8605],[-2.1637,47.8638],[-2.1621,47.8643],[-2.1626,47.8660],[-2.1598,47.8666],[-2.1606,47.8674],[-2.1567,47.8692],[-2.1583,47.8697],[-2.1572,47.8714],[-2.1537,47.8723],[-2.1568,47.8725],[-2.1615,47.8708],[-2.1619,47.8695],[-2.1607,47.8689],[-2.1635,47.8657],[-2.1680,47.8648],[-2.1683,47.8615],[-2.1658,47.8584],[-2.1671,47.8577],[-2.1746,47.8608],[-2.1731,47.8585],[-2.1762,47.8559],[-2.1797,47.8562],[-2.1802,47.8511],[-2.1842,47.8491],[-2.1815,47.8490],[-2.1854,47.8476],[-2.1844,47.8459],[-2.1821,47.8465],[-2.1835,47.8444],[-2.1911,47.8427]]]}},{"type":"Feature","properties":{"name":"Forêt de Carnoët"},"geometry":{"type":"Polygon","coordinates":[[[-3.5378,47.8559],[-3.5340,47.8534],[-3.5326,47.8537],[-3.5304,47.8482],[-3.5290,47.8477],[-3.5298,47.8473],[-3.5277,47.8470],[-3.5290,47.8454],[-3.5279,47.8439],[-3.5316,47.8431],[-3.5364,47.8381],[-3.5399,47.8374],[-3.5415,47.8301],[-3.5408,47.8244],[-3.5420,47.8225],[-3.5432,47.8226],[-3.5427,47.8215],[-3.5401,47.8224],[-3.5348,47.8204],[-3.5377,47.8164],[-3.5359,47.8130],[-3.5244,47.8091],[-3.5269,47.8055],[-3.5292,47.8060],[-3.5333,47.8043],[-3.5276,47.8032],[-3.5272,47.8041],[-3.5206,47.8037],[-3.5234,47.8016],[-3.5215,47.7996],[-3.5220,47.7985],[-3.5272,47.7970],[-3.5290,47.7922],[-3.5296,47.7935],[-3.5285,47.7948],[-3.5314,47.7961],[-3.5283,47.7969],[-3.5316,47.7977],[-3.5290,47.7978],[-3.5290,47.7997],[-3.5250,47.7989],[-3.5241,47.8019],[-3.5311,47.8004],[-3.5293,47.8014],[-3.5293,47.8029],[-3.5326,47.8032],[-3.5315,47.8002],[-3.5329,47.7998],[-3.5317,47.7997],[-3.5333,47.7983],[-3.5332,47.7998],[-3.5363,47.7999],[-3.5364,47.8018],[-3.5376,47.8013],[-3.5369,47.7997],[-3.5400,47.8003],[-3.5394,47.7991],[-3.5403,47.7989],[-3.5408,47.8002],[-3.5436,47.7995],[-3.5414,47.8019],[-3.5448,47.8025],[-3.5461,47.8016],[-3.5455,47.8000],[-3.5477,47.8007],[-3.5465,47.8019],[-3.5533,47.8022],[-3.5460,47.8029],[-3.5473,47.8034],[-3.5453,47.8053],[-3.5445,47.8041],[-3.5431,47.8046],[-3.5477,47.8081],[-3.5451,47.8079],[-3.5452,47.8091],[-3.5430,47.8094],[-3.5429,47.8110],[-3.5394,47.8099],[-3.5423,47.8089],[-3.5422,47.8080],[-3.5394,47.8089],[-3.5363,47.8079],[-3.5382,47.8054],[-3.5332,47.8068],[-3.5323,47.8092],[-3.5348,47.8079],[-3.5367,47.8088],[-3.5447,47.8151],[-3.5551,47.8168],[-3.5574,47.8153],[-3.5594,47.8175],[-3.5610,47.8156],[-3.5613,47.8174],[-3.5630,47.8179],[-3.5602,47.8194],[-3.5628,47.8189],[-3.5641,47.8219],[-3.5680,47.8231],[-3.5701,47.8255],[-3.5692,47.8255],[-3.5690,47.8279],[-3.5658,47.8282],[-3.5686,47.8310],[-3.5654,47.8323],[-3.5667,47.8332],[-3.5649,47.8359],[-3.5664,47.8368],[-3.5634,47.8392],[-3.5649,47.8425],[-3.5452,47.8470],[-3.5465,47.8480],[-3.5417,47.8478],[-3.5399,47.8491],[-3.5409,47.8499],[-3.5397,47.8516],[-3.5365,47.8523],[-3.5384,47.8544],[-3.5404,47.8535],[-3.5405,47.8554],[-3.5463,47.8556],[-3.5472,47.8530],[-3.5460,47.8515],[-3.5472,47.8507],[-3.5486,47.8522],[-3.5483,47.8558],[-3.5457,47.8584],[-3.5413,47.8592],[-3.5406,47.8579],[-3.5426,47.8564],[-3.5378,47.8559]]]}},{"type":"Feature","properties":{"name":"Bois du Quélenec"},"geometry":{"type":"Polygon","coordinates":[[[-2.9976,48.2154],[-2.9906,48.2162],[-2.9911,48.2181],[-2.9955,48.2177],[-2.9923,48.2196],[-2.9929,48.2203],[-2.9885,48.2202],[-2.9901,48.2220],[-2.9886,48.2225],[-2.9866,48.2211],[-2.9848,48.2220],[-2.9820,48.2243],[-2.9844,48.2247],[-2.9843,48.2261],[-2.9775,48.2282],[-2.9800,48.2296],[-2.9847,48.2271],[-2.9844,48.2256],[-2.9883,48.2258],[-2.9912,48.2297],[-2.9870,48.2315],[-2.9858,48.2335],[-2.9900,48.2331],[-2.9913,48.2341],[-2.9901,48.2354],[-2.9967,48.2367],[-2.9900,48.2369],[-2.9882,48.2385],[-2.9845,48.2359],[-2.9831,48.2372],[-2.9865,48.2377],[-2.9836,48.2398],[-2.9756,48.2401],[-2.9777,48.2387],[-2.9766,48.2381],[-2.9719,48.2410],[-2.9688,48.2406],[-2.9766,48.2374],[-2.9810,48.2369],[-2.9783,48.2336],[-2.9670,48.2360],[-2.9690,48.2378],[-2.9635,48.2399],[-2.9657,48.2360],[-2.9645,48.2352],[-2.9667,48.2338],[-2.9651,48.2338],[-2.9654,48.2323],[-2.9680,48.2301],[-2.9663,48.2291],[-2.9696,48.2287],[-2.9667,48.2265],[-2.9645,48.2281],[-2.9624,48.2278],[-2.9648,48.2272],[-2.9657,48.2246],[-2.9557,48.2287],[-2.9569,48.2277],[-2.9562,48.2274],[-2.9618,48.2243],[-2.9609,48.2229],[-2.9565,48.2258],[-2.9577,48.2236],[-2.9492,48.2245],[-2.9441,48.2269],[-2.9435,48.2258],[-2.9466,48.2246],[-2.9400,48.2249],[-2.9484,48.2217],[-2.9518,48.2217],[-2.9485,48.2206],[-2.9455,48.2211],[-2.9460,48.2180],[-2.9509,48.2138],[-2.9543,48.2157],[-2.9568,48.2141],[-2.9549,48.2132],[-2.9588,48.2114],[-2.9624,48.2127],[-2.9591,48.2158],[-2.9580,48.2148],[-2.9572,48.2155],[-2.9564,48.2172],[-2.9572,48.2185],[-2.9549,48.2203],[-2.9598,48.2212],[-2.9617,48.2196],[-2.9603,48.2192],[-2.9610,48.2180],[-2.9648,48.2149],[-2.9723,48.2117],[-2.9688,48.2107],[-2.9641,48.2142],[-2.9628,48.2132],[-2.9686,48.2101],[-2.9693,48.2085],[-2.9678,48.2083],[-2.9709,48.2064],[-2.9697,48.2040],[-2.9727,48.2036],[-2.9709,48.2045],[-2.9728,48.2046],[-2.9742,48.2031],[-2.9784,48.2041],[-2.9781,48.2049],[-2.9832,48.2038],[-2.9816,48.2052],[-2.9754,48.2056],[-2.9753,48.2071],[-2.9739,48.2074],[-2.9797,48.2068],[-2.9797,48.2083],[-2.9769,48.2089],[-2.9805,48.2106],[-2.9759,48.2098],[-2.9784,48.2107],[-2.9773,48.2106],[-2.9784,48.2120],[-2.9732,48.2123],[-2.9754,48.2178],[-2.9793,48.2167],[-2.9763,48.2184],[-2.9793,48.2235],[-2.9777,48.2257],[-2.9824,48.2254],[-2.9788,48.2229],[-2.9811,48.2216],[-2.9904,48.2190],[-2.9893,48.2164],[-2.9998,48.2130],[-2.9997,48.2159],[-3.0039,48.2166],[-3.0020,48.2194],[-3.0057,48.2193],[-3.0064,48.2206],[-3.0093,48.2192],[-3.0139,48.2195],[-3.0152,48.2207],[-3.0150,48.2228],[-3.0220,48.2220],[-3.0213,48.2196],[-3.0244,48.2207],[-3.0248,48.2186],[-3.0283,48.2190],[-3.0343,48.2168],[-3.0520,48.2175],[-3.0597,48.2187],[-3.0596,48.2201],[-3.0641,48.2203],[-3.0636,48.2218],[-3.0596,48.2214],[-3.0591,48.2225],[-3.0569,48.2202],[-3.0518,48.2203],[-3.0496,48.2216],[-3.0430,48.2210],[-3.0352,48.2184],[-3.0344,48.2198],[-3.0309,48.2194],[-3.0280,48.2210],[-3.0252,48.2228],[-3.0252,48.2244],[-3.0184,48.2227],[-3.0133,48.2238],[-3.0133,48.2214],[-3.0074,48.2209],[-3.0079,48.2235],[-3.0111,48.2257],[-3.0076,48.2266],[-3.0038,48.2258],[-3.0053,48.2216],[-3.0007,48.2197],[-3.0025,48.2179],[-2.9981,48.2183],[-2.9976,48.2154]]]}},{"type":"Feature","properties":{"name":"Forêt de Pontcallec"},"geometry":{"type":"Polygon","coordinates":[[[-3.3405,47.9745],[-3.3434,47.9669],[-3.3497,47.9628],[-3.3497,47.9546],[-3.3522,47.9523],[-3.3523,47.9488],[-3.3557,47.9453],[-3.3602,47.9435],[-3.3663,47.9469],[-3.3684,47.9499],[-3.3732,47.9523],[-3.3757,47.9521],[-3.3734,47.9528],[-3.3740,47.9559],[-3.3722,47.9580],[-3.3738,47.9589],[-3.3719,47.9582],[-3.3715,47.9593],[-3.3727,47.9644],[-3.3741,47.9657],[-3.3724,47.9655],[-3.3723,47.9637],[-3.3709,47.9633],[-3.3691,47.9685],[-3.3674,47.9679],[-3.3690,47.9673],[-3.3679,47.9662],[-3.3695,47.9653],[-3.3638,47.9655],[-3.3623,47.9668],[-3.3622,47.9653],[-3.3671,47.9637],[-3.3574,47.9650],[-3.3547,47.9672],[-3.3572,47.9723],[-3.3550,47.9713],[-3.3517,47.9724],[-3.3542,47.9771],[-3.3533,47.9769],[-3.3532,47.9786],[-3.3492,47.9777],[-3.3524,47.9770],[-3.3521,47.9759],[-3.3503,47.9761],[-3.3500,47.9745],[-3.3489,47.9749],[-3.3486,47.9729],[-3.3463,47.9821],[-3.3443,47.9782],[-3.3453,47.9818],[-3.3427,47.9800],[-3.3403,47.9821],[-3.3400,47.9800],[-3.3366,47.9800],[-3.3375,47.9768],[-3.3405,47.9745]]]}},{"type":"Feature","properties":{"name":"Bois de Botségalo"},"geometry":{"type":"Polygon","coordinates":[[[-2.7683,47.8039],[-2.7690,47.8015],[-2.7724,47.8007],[-2.7826,47.8025],[-2.7797,47.8046],[-2.7857,47.8062],[-2.7880,47.8017],[-2.7903,47.8017],[-2.7913,47.8000],[-2.7906,47.7974],[-2.7930,47.7970],[-2.7924,47.7943],[-2.7956,47.7959],[-2.7944,47.7941],[-2.7967,47.7930],[-2.8022,47.7934],[-2.7983,47.7953],[-2.8014,47.7967],[-2.8000,47.7993],[-2.8029,47.8011],[-2.8052,47.8003],[-2.8043,47.7980],[-2.8053,47.7981],[-2.8069,47.7985],[-2.8070,47.7996],[-2.8060,47.7996],[-2.8067,47.8023],[-2.8095,47.8012],[-2.8096,47.8028],[-2.8082,47.8026],[-2.8089,47.8049],[-2.8070,47.8044],[-2.8066,47.8073],[-2.8058,47.8055],[-2.8050,47.8073],[-2.8025,47.8080],[-2.8044,47.8091],[-2.8060,47.8076],[-2.8068,47.8090],[-2.8081,47.8053],[-2.8090,47.8078],[-2.8165,47.8111],[-2.8171,47.8098],[-2.8136,47.8096],[-2.8138,47.8081],[-2.8258,47.8095],[-2.8280,47.8083],[-2.8314,47.8084],[-2.8307,47.8075],[-2.8326,47.8067],[-2.8519,47.8048],[-2.8580,47.8116],[-2.8618,47.8116],[-2.8625,47.8106],[-2.8663,47.8118],[-2.8689,47.8143],[-2.8663,47.8153],[-2.8708,47.8160],[-2.8726,47.8155],[-2.8723,47.8133],[-2.8698,47.8132],[-2.8713,47.8124],[-2.8710,47.8102],[-2.8715,47.8111],[-2.8719,47.8101],[-2.8755,47.8106],[-2.8762,47.8121],[-2.8805,47.8102],[-2.8818,47.8119],[-2.8839,47.8103],[-2.8870,47.8115],[-2.8907,47.8105],[-2.8917,47.8182],[-2.8997,47.8178],[-2.8995,47.8206],[-2.9083,47.8189],[-2.9081,47.8208],[-2.9049,47.8225],[-2.9099,47.8235],[-2.9069,47.8242],[-2.9074,47.8253],[-2.9123,47.8242],[-2.9149,47.8250],[-2.9121,47.8195],[-2.9134,47.8194],[-2.9132,47.8182],[-2.9119,47.8192],[-2.9110,47.8175],[-2.9189,47.8193],[-2.9188,47.8216],[-2.9165,47.8221],[-2.9169,47.8244],[-2.9201,47.8191],[-2.9163,47.8182],[-2.9167,47.8155],[-2.9215,47.8158],[-2.9216,47.8179],[-2.9236,47.8180],[-2.9238,47.8171],[-2.9225,47.8177],[-2.9223,47.8148],[-2.9195,47.8147],[-2.9205,47.8131],[-2.9225,47.8131],[-2.9218,47.8121],[-2.9170,47.8141],[-2.9198,47.8114],[-2.9181,47.8121],[-2.9170,47.8111],[-2.9188,47.8096],[-2.9300,47.8088],[-2.9296,47.8102],[-2.9310,47.8110],[-2.9298,47.8122],[-2.9313,47.8127],[-2.9304,47.8146],[-2.9313,47.8148],[-2.9336,47.8137],[-2.9324,47.8119],[-2.9329,47.8098],[-2.9407,47.8091],[-2.9389,47.8064],[-2.9341,47.8050],[-2.9351,47.8034],[-2.9342,47.8018],[-2.9280,47.8011],[-2.9306,47.7997],[-2.9335,47.8001],[-2.9327,47.7991],[-2.9343,47.7980],[-2.9339,47.7970],[-2.9283,47.7992],[-2.9257,47.7978],[-2.9252,47.7950],[-2.9269,47.7948],[-2.9261,47.7940],[-2.9210,47.7922],[-2.9170,47.7933],[-2.9193,47.7951],[-2.9151,47.7968],[-2.9162,47.7982],[-2.9189,47.7981],[-2.9185,47.7968],[-2.9205,47.7954],[-2.9222,47.7967],[-2.9223,47.7981],[-2.9189,47.8023],[-2.9067,47.8004],[-2.9055,47.8028],[-2.9031,47.8022],[-2.9036,47.8010],[-2.9015,47.8038],[-2.8982,47.8032],[-2.8976,47.8023],[-2.9007,47.8008],[-2.8957,47.8006],[-2.8974,47.7990],[-2.8944,47.7990],[-2.8953,47.7948],[-2.8923,47.7958],[-2.8905,47.7986],[-2.8827,47.7968],[-2.8826,47.7957],[-2.8727,47.7960],[-2.8726,47.7995],[-2.8743,47.8006],[-2.8712,47.8019],[-2.8711,47.7985],[-2.8681,47.7977],[-2.8697,47.7991],[-2.8687,47.8026],[-2.8684,47.7970],[-2.8669,47.7967],[-2.8684,47.7951],[-2.8643,47.7946],[-2.8642,47.7955],[-2.8603,47.7958],[-2.8605,47.7969],[-2.8595,47.7969],[-2.8599,47.7944],[-2.8564,47.7940],[-2.8556,47.7951],[-2.8550,47.7941],[-2.8532,47.7946],[-2.8535,47.7958],[-2.8568,47.7978],[-2.8540,47.7980],[-2.8496,47.7968],[-2.8522,47.7949],[-2.8502,47.7938],[-2.8481,47.7971],[-2.8457,47.7953],[-2.8446,47.7958],[-2.8443,47.7932],[-2.8377,47.7931],[-2.8353,47.7943],[-2.8326,47.7928],[-2.8301,47.7955],[-2.8301,47.7944],[-2.8250,47.7930],[-2.8249,47.7917],[-2.8178,47.7918],[-2.8172,47.7883],[-2.8192,47.7881],[-2.8207,47.7862],[-2.8242,47.7864],[-2.8185,47.7847],[-2.8151,47.7887],[-2.8168,47.7920],[-2.8132,47.7908],[-2.8123,47.7914],[-2.8137,47.7933],[-2.8125,47.7935],[-2.8128,47.7948],[-2.8088,47.7969],[-2.8072,47.7969],[-2.8070,47.7955],[-2.8107,47.7950],[-2.8109,47.7927],[-2.8092,47.7917],[-2.8095,47.7931],[-2.8076,47.7939],[-2.8074,47.7916],[-2.8053,47.7903],[-2.8033,47.7919],[-2.7911,47.7913],[-2.7903,47.7940],[-2.7888,47.7912],[-2.7858,47.7889],[-2.7840,47.7891],[-2.7839,47.7877],[-2.7817,47.7886],[-2.7785,47.7873],[-2.7781,47.7887],[-2.7733,47.7880],[-2.7788,47.7961],[-2.7772,47.7972],[-2.7761,47.7960],[-2.7762,47.7968],[-2.7723,47.7959],[-2.7707,47.7943],[-2.7706,47.7968],[-2.7683,47.7969],[-2.7712,47.8005],[-2.7690,47.8012],[-2.7674,47.7984],[-2.7656,47.7985],[-2.7644,47.8008],[-2.7662,47.8034],[-2.7683,47.8039]]]}},{"type":"Feature","properties":{"name":"Forêt Domaniale de Coatloc\u0027h"},"geometry":{"type":"Polygon","coordinates":[[[-3.7255,47.9974],[-3.7232,47.9941],[-3.7241,47.9908],[-3.7317,47.9915],[-3.7386,47.9887],[-3.7439,47.9891],[-3.7502,47.9870],[-3.7507,47.9861],[-3.7491,47.9845],[-3.7502,47.9844],[-3.7487,47.9844],[-3.7471,47.9808],[-3.7505,47.9795],[-3.7481,47.9759],[-3.7501,47.9728],[-3.7511,47.9733],[-3.7504,47.9760],[-3.7549,47.9798],[-3.7499,47.9835],[-3.7507,47.9847],[-3.7523,47.9844],[-3.7500,47.9853],[-3.7525,47.9855],[-3.7540,47.9870],[-3.7563,47.9867],[-3.7550,47.9889],[-3.7516,47.9905],[-3.7531,47.9953],[-3.7552,47.9966],[-3.7559,47.9991],[-3.7485,48.0022],[-3.7310,48.0041],[-3.7284,48.0036],[-3.7238,48.0002],[-3.7255,47.9974]]]}},{"type":"Feature","properties":{"name":"Bois de Putenöe"},"geometry":{"type":"Polygon","coordinates":[[[-2.0323,48.0999],[-2.0322,48.0982],[-2.0342,48.0970],[-2.0311,48.0963],[-2.0303,48.0944],[-2.0315,48.0936],[-2.0281,48.0929],[-2.0286,48.0947],[-2.0262,48.0953],[-2.0228,48.0938],[-2.0236,48.0927],[-2.0210,48.0937],[-2.0175,48.0916],[-2.0132,48.0918],[-2.0164,48.0868],[-2.0144,48.0836],[-2.0157,48.0827],[-2.0199,48.0835],[-2.0198,48.0819],[-2.0209,48.0825],[-2.0197,48.0845],[-2.0276,48.0844],[-2.0291,48.0823],[-2.0287,48.0793],[-2.0386,48.0772],[-2.0355,48.0802],[-2.0367,48.0822],[-2.0394,48.0829],[-2.0355,48.0848],[-2.0359,48.0864],[-2.0337,48.0864],[-2.0361,48.0877],[-2.0343,48.0882],[-2.0340,48.0904],[-2.0466,48.0937],[-2.0444,48.0963],[-2.0456,48.0967],[-2.0461,48.0994],[-2.0428,48.0992],[-2.0414,48.1009],[-2.0417,48.0989],[-2.0381,48.0997],[-2.0381,48.1026],[-2.0395,48.1028],[-2.0370,48.1025],[-2.0365,48.1006],[-2.0320,48.1015],[-2.0319,48.1030],[-2.0332,48.1025],[-2.0334,48.1038],[-2.0272,48.1021],[-2.0323,48.0999]]]}}]}