{"type":"FeatureCollection","features":[{"type":"Feature","properties":{"name":"Bois de Plémont"},"geometry":{"type":"Polygon","coordinates":[[[3.6775,46.9193],[3.6844,46.9171],[3.6842,46.9155],[3.6859,46.9149],[3.6866,46.9069],[3.6879,46.9048],[3.6870,46.9002],[3.6836,46.9004],[3.6842,46.9022],[3.6832,46.9028],[3.6740,46.9016],[3.6741,46.9056],[3.6728,46.9071],[3.6741,46.9083],[3.6708,46.9085],[3.6746,46.9089],[3.6732,46.9131],[3.6698,46.9115],[3.6681,46.9141],[3.6641,46.9160],[3.6677,46.9177],[3.6693,46.9167],[3.6711,46.9216],[3.6751,46.9217],[3.6753,46.9197],[3.6775,46.9193]]]}},{"type":"Feature","properties":{"name":"Foret de Frétoy"},"geometry":{"type":"Polygon","coordinates":[[[3.5555,47.5834],[3.5710,47.5756],[3.5650,47.5679],[3.5628,47.5670],[3.5536,47.5568],[3.5514,47.5566],[3.5446,47.5632],[3.5451,47.5651],[3.5433,47.5655],[3.5410,47.5699],[3.5506,47.5737],[3.5462,47.5793],[3.5555,47.5834]]]}},{"type":"Feature","properties":{"name":"Forêt de Frétoy"},"geometry":{"type":"Polygon","coordinates":[[[4.0503,47.6597],[4.0549,47.6606],[4.0527,47.6592],[4.0503,47.6596],[4.0447,47.6564],[4.0491,47.6524],[4.0514,47.6532],[4.0523,47.6513],[4.0511,47.6508],[4.0515,47.6499],[4.0566,47.6502],[4.0544,47.6491],[4.0561,47.6495],[4.0573,47.6471],[4.0627,47.6471],[4.0614,47.6486],[4.0626,47.6509],[4.0616,47.6490],[4.0639,47.6498],[4.0658,47.6479],[4.0637,47.6467],[4.0663,47.6476],[4.0706,47.6446],[4.0735,47.6447],[4.0776,47.6471],[4.0805,47.6448],[4.0841,47.6461],[4.0841,47.6408],[4.0812,47.6383],[4.0788,47.6399],[4.0775,47.6380],[4.0799,47.6384],[4.0776,47.6356],[4.0790,47.6353],[4.0785,47.6340],[4.0751,47.6349],[4.0725,47.6331],[4.0755,47.6342],[4.0771,47.6334],[4.0762,47.6320],[4.0865,47.6306],[4.0850,47.6294],[4.0862,47.6291],[4.0751,47.6282],[4.0701,47.6266],[4.0714,47.6276],[4.0616,47.6269],[4.0610,47.6283],[4.0587,47.6284],[4.0570,47.6258],[4.0578,47.6298],[4.0570,47.6301],[4.0586,47.6337],[4.0570,47.6356],[4.0574,47.6381],[4.0563,47.6374],[4.0503,47.6416],[4.0474,47.6415],[4.0476,47.6432],[4.0457,47.6444],[4.0386,47.6455],[4.0401,47.6412],[4.0420,47.6408],[4.0419,47.6395],[4.0448,47.6393],[4.0409,47.6384],[4.0417,47.6370],[4.0397,47.6351],[4.0413,47.6353],[4.0402,47.6344],[4.0420,47.6324],[4.0407,47.6298],[4.0377,47.6313],[4.0379,47.6272],[4.0427,47.6268],[4.0399,47.6269],[4.0394,47.6252],[4.0375,47.6254],[4.0371,47.6244],[4.0429,47.6242],[4.0420,47.6210],[4.0455,47.6182],[4.0408,47.6205],[4.0378,47.6204],[4.0375,47.6187],[4.0339,47.6209],[4.0347,47.6225],[4.0338,47.6227],[4.0319,47.6201],[4.0289,47.6195],[4.0262,47.6169],[4.0275,47.6154],[4.0256,47.6150],[4.0264,47.6136],[4.0237,47.6130],[4.0266,47.6130],[4.0255,47.6112],[4.0274,47.6107],[4.0307,47.6116],[4.0311,47.6128],[4.0285,47.6135],[4.0296,47.6146],[4.0366,47.6144],[4.0425,47.6126],[4.0423,47.6112],[4.0373,47.6123],[4.0340,47.6070],[4.0356,47.6066],[4.0347,47.6047],[4.0354,47.6011],[4.0404,47.5994],[4.0320,47.5994],[4.0278,47.6021],[4.0302,47.6038],[4.0293,47.6045],[4.0308,47.6061],[4.0279,47.6056],[4.0212,47.6086],[4.0206,47.6078],[4.0151,47.6086],[4.0136,47.6108],[4.0149,47.6124],[4.0086,47.6155],[4.0093,47.6166],[4.0046,47.6150],[4.0003,47.6183],[3.9977,47.6177],[3.9936,47.6205],[3.9903,47.6184],[3.9906,47.6169],[3.9871,47.6171],[3.9859,47.6161],[3.9962,47.6140],[3.9955,47.6128],[4.0006,47.6115],[4.0030,47.6096],[4.0017,47.6079],[3.9992,47.6101],[3.9950,47.6112],[3.9936,47.6097],[3.9957,47.6090],[3.9944,47.6077],[3.9981,47.6061],[3.9985,47.6094],[3.9998,47.6072],[3.9989,47.6064],[4.0010,47.6062],[4.0023,47.6071],[4.0016,47.6078],[4.0030,47.6071],[3.9993,47.6050],[4.0013,47.6034],[4.0036,47.6037],[4.0035,47.6024],[4.0122,47.6014],[4.0181,47.6035],[4.0215,47.6010],[4.0202,47.5987],[4.0220,47.5988],[4.0183,47.5984],[4.0191,47.5977],[4.0132,47.5994],[4.0106,47.5979],[4.0081,47.5980],[4.0147,47.6002],[4.0093,47.5992],[4.0049,47.6000],[4.0021,47.6008],[4.0034,47.6023],[4.0013,47.6020],[3.9996,47.6037],[3.9853,47.6062],[3.9848,47.6081],[3.9868,47.6061],[3.9934,47.6058],[3.9895,47.6066],[3.9876,47.6084],[3.9861,47.6079],[3.9861,47.6100],[3.9883,47.6123],[3.9870,47.6117],[3.9863,47.6142],[3.9795,47.6170],[3.9830,47.6194],[3.9795,47.6208],[3.9810,47.6207],[3.9848,47.6255],[3.9799,47.6265],[3.9809,47.6331],[3.9793,47.6357],[3.9805,47.6390],[3.9874,47.6414],[3.9884,47.6434],[3.9865,47.6475],[3.9871,47.6489],[3.9898,47.6498],[3.9918,47.6490],[3.9928,47.6482],[3.9918,47.6485],[3.9921,47.6464],[3.9939,47.6453],[3.9970,47.6456],[3.9989,47.6483],[3.9967,47.6488],[3.9945,47.6473],[3.9927,47.6497],[3.9895,47.6502],[3.9912,47.6517],[3.9938,47.6503],[3.9906,47.6522],[3.9909,47.6532],[3.9876,47.6530],[3.9883,47.6545],[3.9863,47.6533],[3.9868,47.6552],[3.9855,47.6546],[3.9836,47.6567],[3.9815,47.6559],[3.9777,47.6587],[3.9822,47.6595],[3.9833,47.6611],[3.9826,47.6622],[3.9837,47.6611],[3.9898,47.6617],[3.9881,47.6607],[3.9969,47.6597],[3.9976,47.6614],[3.9943,47.6660],[3.9955,47.6666],[3.9944,47.6677],[3.9954,47.6695],[3.9987,47.6690],[4.0029,47.6639],[4.0069,47.6659],[4.0098,47.6649],[4.0097,47.6620],[4.0120,47.6626],[4.0104,47.6634],[4.0125,47.6640],[4.0114,47.6656],[4.0124,47.6665],[4.0156,47.6645],[4.0169,47.6664],[4.0173,47.6635],[4.0220,47.6636],[4.0229,47.6675],[4.0276,47.6676],[4.0279,47.6701],[4.0290,47.6698],[4.0307,47.6723],[4.0293,47.6727],[4.0301,47.6740],[4.0313,47.6721],[4.0289,47.6652],[4.0325,47.6728],[4.0313,47.6726],[4.0313,47.6740],[4.0341,47.6756],[4.0349,47.6750],[4.0330,47.6733],[4.0362,47.6750],[4.0351,47.6723],[4.0328,47.6705],[4.0344,47.6704],[4.0348,47.6676],[4.0358,47.6675],[4.0351,47.6654],[4.0407,47.6640],[4.0405,47.6661],[4.0376,47.6659],[4.0380,47.6673],[4.0405,47.6669],[4.0421,47.6692],[4.0443,47.6695],[4.0451,47.6708],[4.0437,47.6713],[4.0447,47.6725],[4.0462,47.6717],[4.0526,47.6735],[4.0458,47.6729],[4.0541,47.6752],[4.0540,47.6769],[4.0533,47.6754],[4.0513,47.6752],[4.0510,47.6774],[4.0552,47.6777],[4.0556,47.6746],[4.0475,47.6722],[4.0433,47.6673],[4.0419,47.6634],[4.0419,47.6620],[4.0438,47.6653],[4.0442,47.6636],[4.0490,47.6639],[4.0519,47.6614],[4.0503,47.6597]]]}},{"type":"Feature","properties":{"name":"Bois de Vauvray"},"geometry":{"type":"Polygon","coordinates":[[[3.8368,46.8757],[3.8355,46.8762],[3.8354,46.8742],[3.8312,46.8734],[3.8341,46.8732],[3.8343,46.8718],[3.8356,46.8724],[3.8369,46.8698],[3.8359,46.8682],[3.8325,46.8677],[3.8340,46.8659],[3.8291,46.8669],[3.8327,46.8719],[3.8243,46.8654],[3.8252,46.8663],[3.8210,46.8650],[3.8181,46.8671],[3.8126,46.8662],[3.8152,46.8635],[3.8130,46.8616],[3.8139,46.8607],[3.8101,46.8581],[3.8076,46.8603],[3.8067,46.8598],[3.8057,46.8628],[3.8050,46.8617],[3.8014,46.8635],[3.7963,46.8561],[3.7921,46.8568],[3.7950,46.8607],[3.7936,46.8609],[3.7907,46.8584],[3.7861,46.8617],[3.7836,46.8608],[3.7786,46.8639],[3.7769,46.8663],[3.7806,46.8681],[3.7789,46.8715],[3.7842,46.8779],[3.7827,46.8790],[3.7845,46.8786],[3.7856,46.8823],[3.7832,46.8841],[3.7858,46.8849],[3.7842,46.8868],[3.7873,46.8850],[3.7910,46.8847],[3.7918,46.8864],[3.7937,46.8857],[3.7950,46.8866],[3.7936,46.8873],[3.7930,46.8904],[3.7959,46.8916],[3.7990,46.8909],[3.8055,46.8937],[3.8044,46.8945],[3.8082,46.8984],[3.8093,46.8978],[3.8090,46.8960],[3.8113,46.8958],[3.8152,46.8970],[3.8150,46.8987],[3.8168,46.9001],[3.8201,46.9001],[3.8192,46.9007],[3.8215,46.9017],[3.8236,46.9010],[3.8258,46.9026],[3.8297,46.9018],[3.8344,46.8980],[3.8379,46.9000],[3.8402,46.8991],[3.8420,46.9006],[3.8420,46.8977],[3.8452,46.8949],[3.8417,46.8931],[3.8434,46.8883],[3.8394,46.8872],[3.8385,46.8830],[3.8405,46.8807],[3.8368,46.8757]]]}},{"type":"Feature","properties":{"name":"Foret de Frétoy"},"geometry":{"type":"Polygon","coordinates":[[[3.4777,47.5865],[3.4863,47.5905],[3.4860,47.5924],[3.4873,47.5921],[3.4855,47.5941],[3.4806,47.5953],[3.4804,47.5964],[3.4889,47.5954],[3.4795,47.5968],[3.4799,47.5977],[3.4839,47.5983],[3.4845,47.5965],[3.4863,47.5988],[3.4848,47.5972],[3.4874,47.5983],[3.4892,47.5968],[3.4907,47.5978],[3.4886,47.6002],[3.4928,47.5979],[3.4967,47.6004],[3.4993,47.5991],[3.4986,47.5963],[3.5009,47.5953],[3.4971,47.5910],[3.5136,47.5888],[3.5090,47.5917],[3.5045,47.6004],[3.5058,47.6002],[3.5061,47.5978],[3.5106,47.5987],[3.5120,47.5962],[3.5165,47.5991],[3.5241,47.5940],[3.5238,47.5914],[3.5315,47.5901],[3.5297,47.5888],[3.5304,47.5885],[3.5322,47.5900],[3.5332,47.5891],[3.5321,47.5878],[3.5350,47.5868],[3.5396,47.5882],[3.5396,47.5863],[3.5407,47.5861],[3.5407,47.5877],[3.5434,47.5886],[3.5510,47.5881],[3.5498,47.5897],[3.5516,47.5891],[3.5519,47.5903],[3.5550,47.5907],[3.5528,47.5939],[3.5552,47.5946],[3.5552,47.5931],[3.5568,47.5932],[3.5566,47.5948],[3.5585,47.5909],[3.5569,47.5883],[3.5622,47.5887],[3.5645,47.5869],[3.5670,47.5896],[3.5664,47.5940],[3.5709,47.5990],[3.5698,47.6005],[3.5711,47.6012],[3.5725,47.6001],[3.5772,47.6018],[3.5811,47.5999],[3.5770,47.5986],[3.5738,47.5994],[3.5736,47.5977],[3.5702,47.5968],[3.5699,47.5952],[3.5712,47.5947],[3.5704,47.5934],[3.5773,47.5959],[3.5794,47.5982],[3.5816,47.5971],[3.5863,47.5987],[3.5883,47.5982],[3.5880,47.5935],[3.5905,47.5944],[3.5916,47.5928],[3.5933,47.5932],[3.5947,47.5908],[3.5974,47.5912],[3.5986,47.5894],[3.5989,47.5912],[3.6007,47.5897],[3.6011,47.5881],[3.5983,47.5873],[3.5906,47.5923],[3.5894,47.5919],[3.5934,47.5885],[3.5903,47.5871],[3.5935,47.5879],[3.5949,47.5865],[3.5922,47.5869],[3.5929,47.5858],[3.5867,47.5831],[3.5845,47.5805],[3.5855,47.5773],[3.5885,47.5748],[3.5954,47.5756],[3.5972,47.5732],[3.5971,47.5697],[3.5988,47.5694],[3.5974,47.5675],[3.5941,47.5675],[3.5936,47.5690],[3.5893,47.5662],[3.5910,47.5643],[3.5987,47.5612],[3.5940,47.5537],[3.5926,47.5432],[3.5889,47.5381],[3.5858,47.5398],[3.5820,47.5394],[3.5811,47.5413],[3.5797,47.5403],[3.5812,47.5387],[3.5778,47.5392],[3.5762,47.5382],[3.5769,47.5391],[3.5745,47.5395],[3.5759,47.5405],[3.5714,47.5428],[3.5719,47.5440],[3.5686,47.5432],[3.5694,47.5421],[3.5680,47.5435],[3.5688,47.5451],[3.5676,47.5441],[3.5661,47.5457],[3.5667,47.5467],[3.5622,47.5483],[3.5625,47.5551],[3.5527,47.5558],[3.5546,47.5494],[3.5532,47.5451],[3.5495,47.5434],[3.5511,47.5425],[3.5530,47.5445],[3.5540,47.5428],[3.5528,47.5396],[3.5542,47.5398],[3.5532,47.5395],[3.5531,47.5374],[3.5518,47.5372],[3.5536,47.5321],[3.5510,47.5333],[3.5514,47.5356],[3.5482,47.5368],[3.5460,47.5416],[3.5473,47.5435],[3.5454,47.5416],[3.5478,47.5386],[3.5479,47.5363],[3.5505,47.5351],[3.5496,47.5330],[3.5520,47.5319],[3.5501,47.5313],[3.5486,47.5326],[3.5469,47.5321],[3.5453,47.5382],[3.5462,47.5388],[3.5433,47.5409],[3.5445,47.5412],[3.5441,47.5426],[3.5422,47.5447],[3.5423,47.5478],[3.5445,47.5497],[3.5450,47.5524],[3.5472,47.5539],[3.5458,47.5542],[3.5461,47.5558],[3.5482,47.5540],[3.5481,47.5568],[3.5464,47.5586],[3.5470,47.5598],[3.5401,47.5591],[3.5425,47.5599],[3.5411,47.5627],[3.5396,47.5626],[3.5396,47.5614],[3.5324,47.5628],[3.5264,47.5605],[3.5281,47.5586],[3.5221,47.5555],[3.5233,47.5535],[3.5215,47.5522],[3.5226,47.5503],[3.5213,47.5499],[3.5220,47.5481],[3.5192,47.5472],[3.5149,47.5482],[3.5134,47.5435],[3.5110,47.5443],[3.5115,47.5432],[3.5088,47.5413],[3.5114,47.5386],[3.5099,47.5394],[3.5088,47.5379],[3.5047,47.5379],[3.5032,47.5348],[3.4989,47.5347],[3.4924,47.5317],[3.4856,47.5328],[3.4869,47.5277],[3.4825,47.5270],[3.4812,47.5285],[3.4758,47.5290],[3.4754,47.5308],[3.4729,47.5317],[3.4736,47.5332],[3.4689,47.5321],[3.4674,47.5344],[3.4625,47.5360],[3.4658,47.5377],[3.4642,47.5362],[3.4728,47.5382],[3.4716,47.5374],[3.4738,47.5365],[3.4737,47.5384],[3.4789,47.5413],[3.4797,47.5423],[3.4786,47.5430],[3.4759,47.5431],[3.4730,47.5407],[3.4693,47.5433],[3.4769,47.5444],[3.4765,47.5470],[3.4773,47.5456],[3.4791,47.5464],[3.4774,47.5481],[3.4789,47.5487],[3.4754,47.5507],[3.4784,47.5503],[3.4826,47.5468],[3.4803,47.5446],[3.4843,47.5438],[3.4855,47.5449],[3.4926,47.5421],[3.4908,47.5440],[3.4914,47.5469],[3.4850,47.5471],[3.4903,47.5495],[3.4894,47.5513],[3.4878,47.5512],[3.4873,47.5489],[3.4849,47.5501],[3.4829,47.5495],[3.4834,47.5515],[3.4822,47.5495],[3.4829,47.5520],[3.4815,47.5537],[3.4797,47.5534],[3.4815,47.5545],[3.4840,47.5535],[3.4848,47.5541],[3.4835,47.5550],[3.4867,47.5554],[3.4878,47.5572],[3.4840,47.5582],[3.4829,47.5574],[3.4834,47.5586],[3.4813,47.5585],[3.4807,47.5606],[3.4751,47.5581],[3.4763,47.5592],[3.4747,47.5607],[3.4792,47.5637],[3.4797,47.5681],[3.4718,47.5656],[3.4717,47.5683],[3.4701,47.5682],[3.4690,47.5614],[3.4726,47.5600],[3.4705,47.5596],[3.4714,47.5589],[3.4690,47.5561],[3.4676,47.5561],[3.4676,47.5580],[3.4702,47.5590],[3.4677,47.5583],[3.4673,47.5598],[3.4624,47.5599],[3.4632,47.5626],[3.4598,47.5652],[3.4576,47.5642],[3.4569,47.5594],[3.4561,47.5580],[3.4548,47.5586],[3.4541,47.5558],[3.4579,47.5555],[3.4540,47.5553],[3.4556,47.5551],[3.4543,47.5548],[3.4552,47.5528],[3.4526,47.5530],[3.4520,47.5483],[3.4493,47.5470],[3.4513,47.5453],[3.4514,47.5473],[3.4538,47.5453],[3.4515,47.5380],[3.4519,47.5436],[3.4507,47.5453],[3.4412,47.5511],[3.4462,47.5502],[3.4498,47.5476],[3.4503,47.5510],[3.4478,47.5532],[3.4499,47.5549],[3.4458,47.5551],[3.4521,47.5551],[3.4451,47.5554],[3.4488,47.5564],[3.4463,47.5567],[3.4474,47.5579],[3.4451,47.5588],[3.4462,47.5603],[3.4450,47.5615],[3.4457,47.5629],[3.4484,47.5627],[3.4500,47.5656],[3.4563,47.5684],[3.4488,47.5689],[3.4452,47.5667],[3.4422,47.5678],[3.4418,47.5661],[3.4432,47.5649],[3.4409,47.5634],[3.4364,47.5628],[3.4341,47.5654],[3.4322,47.5628],[3.4313,47.5627],[3.4317,47.5644],[3.4284,47.5638],[3.4281,47.5664],[3.4218,47.5643],[3.4221,47.5626],[3.4200,47.5624],[3.4213,47.5644],[3.4192,47.5651],[3.4184,47.5645],[3.4198,47.5641],[3.4180,47.5617],[3.4150,47.5624],[3.4152,47.5591],[3.4128,47.5616],[3.4114,47.5614],[3.4098,47.5650],[3.4055,47.5632],[3.4044,47.5661],[3.4087,47.5675],[3.4064,47.5702],[3.4063,47.5712],[3.4080,47.5714],[3.4109,47.5667],[3.4144,47.5654],[3.4113,47.5666],[3.4107,47.5687],[3.4084,47.5706],[3.4114,47.5754],[3.4070,47.5749],[3.4057,47.5784],[3.4009,47.5793],[3.3997,47.5817],[3.3977,47.5822],[3.4007,47.5793],[3.3951,47.5785],[3.3903,47.5803],[3.3891,47.5830],[3.3883,47.5816],[3.3913,47.5795],[3.3861,47.5801],[3.3871,47.5836],[3.3815,47.5835],[3.3782,47.5867],[3.3770,47.5853],[3.3779,47.5837],[3.3737,47.5838],[3.3745,47.5866],[3.3771,47.5856],[3.3753,47.5880],[3.3780,47.5875],[3.3790,47.5888],[3.3789,47.5900],[3.3764,47.5899],[3.3770,47.5927],[3.3800,47.5912],[3.3834,47.5859],[3.3851,47.5866],[3.3824,47.5911],[3.3836,47.5921],[3.3861,47.5908],[3.3911,47.5933],[3.3936,47.5857],[3.3946,47.5859],[3.3949,47.5841],[3.3974,47.5848],[3.3983,47.5864],[3.3960,47.5868],[3.3946,47.5920],[3.4010,47.5978],[3.4029,47.5977],[3.4027,47.5993],[3.4113,47.5968],[3.4140,47.5974],[3.4131,47.5966],[3.4140,47.5938],[3.4116,47.5949],[3.4099,47.5927],[3.4114,47.5918],[3.4106,47.5904],[3.4148,47.5907],[3.4109,47.5865],[3.4175,47.5836],[3.4174,47.5827],[3.4146,47.5830],[3.4145,47.5818],[3.4173,47.5814],[3.4217,47.5855],[3.4212,47.5871],[3.4233,47.5875],[3.4208,47.5888],[3.4227,47.5899],[3.4212,47.5906],[3.4227,47.5911],[3.4228,47.5932],[3.4240,47.5925],[3.4276,47.5962],[3.4347,47.5994],[3.4360,47.5978],[3.4380,47.5985],[3.4353,47.5957],[3.4379,47.5942],[3.4377,47.5929],[3.4427,47.5908],[3.4465,47.5951],[3.4471,47.5982],[3.4522,47.6003],[3.4492,47.6027],[3.4509,47.6037],[3.4510,47.6017],[3.4525,47.6008],[3.4519,47.6020],[3.4528,47.6023],[3.4545,47.5999],[3.4570,47.5998],[3.4541,47.5991],[3.4569,47.5992],[3.4556,47.5981],[3.4569,47.5970],[3.4599,47.5968],[3.4583,47.5965],[3.4592,47.5945],[3.4603,47.5970],[3.4612,47.5962],[3.4610,47.5992],[3.4621,47.5992],[3.4582,47.5995],[3.4592,47.6003],[3.4664,47.5993],[3.4665,47.5970],[3.4709,47.5975],[3.4650,47.5963],[3.4646,47.5946],[3.4657,47.5936],[3.4606,47.5889],[3.4615,47.5871],[3.4630,47.5872],[3.4626,47.5846],[3.4642,47.5843],[3.4626,47.5826],[3.4636,47.5813],[3.4627,47.5803],[3.4658,47.5797],[3.4713,47.5820],[3.4725,47.5807],[3.4774,47.5827],[3.4810,47.5812],[3.4818,47.5796],[3.4837,47.5797],[3.4827,47.5813],[3.4859,47.5826],[3.4877,47.5800],[3.4866,47.5775],[3.4848,47.5776],[3.4843,47.5740],[3.4874,47.5713],[3.4871,47.5684],[3.4892,47.5683],[3.4894,47.5651],[3.4905,47.5651],[3.4906,47.5660],[3.4938,47.5661],[3.4937,47.5694],[3.4971,47.5705],[3.4951,47.5713],[3.4969,47.5733],[3.4957,47.5795],[3.4973,47.5801],[3.5004,47.5785],[3.4998,47.5797],[3.5053,47.5828],[3.5045,47.5836],[3.5054,47.5845],[3.5085,47.5855],[3.5024,47.5869],[3.5026,47.5880],[3.5007,47.5890],[3.4903,47.5893],[3.4844,47.5866],[3.4810,47.5830],[3.4777,47.5865]]]}},{"type":"Feature","properties":{"name":"Bois des Grandes Chaumâtres"},"geometry":{"type":"Polygon","coordinates":[[[3.4825,47.4117],[3.4916,47.4144],[3.4923,47.4123],[3.4916,47.4134],[3.4896,47.4127],[3.4872,47.4099],[3.4923,47.4096],[3.4924,47.4121],[3.4971,47.4057],[3.4969,47.4023],[3.4904,47.4070],[3.4908,47.4089],[3.4864,47.4100],[3.4824,47.4079],[3.4776,47.4076],[3.4829,47.4111],[3.4779,47.4085],[3.4773,47.4105],[3.4747,47.4097],[3.4721,47.4109],[3.4753,47.4083],[3.4748,47.4075],[3.4707,47.4080],[3.4671,47.4067],[3.4643,47.4041],[3.4597,47.4048],[3.4589,47.4076],[3.4630,47.4061],[3.4597,47.4057],[3.4620,47.4051],[3.4647,47.4058],[3.4612,47.4072],[3.4618,47.4079],[3.4658,47.4061],[3.4641,47.4075],[3.4653,47.4093],[3.4589,47.4098],[3.4574,47.4111],[3.4608,47.4120],[3.4600,47.4131],[3.4619,47.4157],[3.4641,47.4146],[3.4635,47.4160],[3.4660,47.4163],[3.4682,47.4147],[3.4722,47.4164],[3.4730,47.4170],[3.4719,47.4185],[3.4702,47.4190],[3.4733,47.4209],[3.4771,47.4178],[3.4805,47.4173],[3.4810,47.4183],[3.4830,47.4172],[3.4819,47.4158],[3.4832,47.4147],[3.4809,47.4136],[3.4825,47.4117]]]}},{"type":"Feature","properties":{"name":"Grand Bois de Serre"},"geometry":{"type":"Polygon","coordinates":[[[3.7523,46.6598],[3.7535,46.6577],[3.7493,46.6538],[3.7470,46.6537],[3.7463,46.6508],[3.7409,46.6474],[3.7397,46.6473],[3.7416,46.6484],[3.7379,46.6473],[3.7391,46.6492],[3.7376,46.6504],[3.7389,46.6519],[3.7372,46.6525],[3.7392,46.6530],[3.7378,46.6591],[3.7413,46.6610],[3.7387,46.6637],[3.7458,46.6666],[3.7407,46.6718],[3.7414,46.6730],[3.7456,46.6715],[3.7477,46.6693],[3.7548,46.6681],[3.7543,46.6668],[3.7583,46.6654],[3.7562,46.6620],[3.7582,46.6608],[3.7566,46.6597],[3.7536,46.6621],[3.7537,46.6635],[3.7505,46.6636],[3.7515,46.6633],[3.7514,46.6653],[3.7499,46.6638],[3.7507,46.6630],[3.7473,46.6607],[3.7497,46.6582],[3.7523,46.6598]]]}},{"type":"Feature","properties":{"name":"Bois de la Chassagne"},"geometry":{"type":"Polygon","coordinates":[[[4.2231,46.6249],[4.2240,46.6243],[4.2226,46.6227],[4.2138,46.6259],[4.2156,46.6314],[4.2097,46.6326],[4.2094,46.6370],[4.2005,46.6367],[4.1989,46.6379],[4.2013,46.6389],[4.2019,46.6417],[4.2075,46.6423],[4.2081,46.6407],[4.2193,46.6366],[4.2230,46.6375],[4.2252,46.6363],[4.2231,46.6352],[4.2273,46.6333],[4.2295,46.6332],[4.2304,46.6354],[4.2326,46.6364],[4.2388,46.6341],[4.2365,46.6319],[4.2366,46.6275],[4.2310,46.6278],[4.2303,46.6309],[4.2278,46.6318],[4.2277,46.6300],[4.2256,46.6283],[4.2210,46.6284],[4.2222,46.6270],[4.2210,46.6256],[4.2231,46.6249]]]}},{"type":"Feature","properties":{"name":"Forêt de Tronçais"},"geometry":{"type":"Polygon","coordinates":[[[2.8704,46.6489],[2.8557,46.6428],[2.8551,46.6464],[2.8518,46.6485],[2.8435,46.6470],[2.8423,46.6456],[2.8436,46.6442],[2.8365,46.6414],[2.8320,46.6421],[2.8303,46.6410],[2.8321,46.6390],[2.8260,46.6381],[2.8189,46.6426],[2.8177,46.6452],[2.8167,46.6435],[2.8167,46.6447],[2.8149,46.6448],[2.8165,46.6493],[2.8147,46.6509],[2.8129,46.6501],[2.8114,46.6533],[2.8204,46.6551],[2.8205,46.6628],[2.8225,46.6635],[2.8198,46.6677],[2.8229,46.6691],[2.8259,46.6664],[2.8240,46.6657],[2.8277,46.6612],[2.8349,46.6633],[2.8326,46.6665],[2.8348,46.6675],[2.8316,46.6718],[2.8232,46.6700],[2.8223,46.6741],[2.8153,46.6773],[2.8085,46.6720],[2.8145,46.6638],[2.8141,46.6618],[2.8073,46.6623],[2.8061,46.6673],[2.7998,46.6751],[2.8062,46.6753],[2.8030,46.6788],[2.8011,46.6788],[2.8016,46.6800],[2.7980,46.6832],[2.8001,46.6842],[2.8068,46.6831],[2.8082,46.6848],[2.8104,46.6833],[2.8180,46.6841],[2.8201,46.6908],[2.8176,46.6935],[2.8185,46.6948],[2.8145,46.6968],[2.8104,46.6968],[2.8100,46.6995],[2.8150,46.6996],[2.8236,46.7024],[2.8239,46.7014],[2.8253,46.7018],[2.8248,46.7030],[2.8274,46.7047],[2.8360,46.7018],[2.8370,46.7004],[2.8388,46.7008],[2.8454,46.6961],[2.8462,46.6912],[2.8495,46.6854],[2.8535,46.6832],[2.8541,46.6814],[2.8531,46.6812],[2.8537,46.6802],[2.8401,46.6754],[2.8430,46.6708],[2.8506,46.6735],[2.8555,46.6710],[2.8555,46.6677],[2.8503,46.6669],[2.8499,46.6655],[2.8462,46.6657],[2.8435,46.6618],[2.8458,46.6598],[2.8523,46.6598],[2.8547,46.6565],[2.8503,46.6561],[2.8507,46.6551],[2.8477,46.6552],[2.8446,46.6541],[2.8446,46.6531],[2.8497,46.6522],[2.8509,46.6503],[2.8537,46.6497],[2.8617,46.6509],[2.8610,46.6484],[2.8628,46.6482],[2.8664,46.6513],[2.8708,46.6496],[2.8704,46.6489]]]}},{"type":"Feature","properties":{"name":"Forêt de Civrais"},"geometry":{"type":"Polygon","coordinates":[[[2.8935,46.6443],[2.8926,46.6452],[2.8941,46.6460],[2.8994,46.6436],[2.9001,46.6448],[2.9036,46.6455],[2.9034,46.6474],[2.9047,46.6473],[2.9056,46.6405],[2.9099,46.6406],[2.9104,46.6393],[2.9061,46.6383],[2.9054,46.6343],[2.9122,46.6339],[2.9165,46.6313],[2.9219,46.6307],[2.9224,46.6273],[2.9204,46.6274],[2.9198,46.6248],[2.9225,46.6223],[2.9303,46.6209],[2.9350,46.6231],[2.9458,46.6201],[2.9510,46.6200],[2.9465,46.6170],[2.9455,46.6144],[2.9423,46.6133],[2.9420,46.6123],[2.9445,46.6105],[2.9429,46.6087],[2.9357,46.6065],[2.9344,46.6046],[2.9333,46.6057],[2.9308,46.6048],[2.9302,46.6025],[2.9269,46.6008],[2.9248,46.6009],[2.9228,46.6065],[2.9199,46.6061],[2.9169,46.6016],[2.9177,46.5999],[2.9113,46.6005],[2.9148,46.5980],[2.9126,46.5968],[2.9133,46.5959],[2.9088,46.5968],[2.9117,46.5975],[2.9122,46.5987],[2.9090,46.5992],[2.9099,46.6008],[2.9061,46.6028],[2.9046,46.5999],[2.8966,46.6017],[2.8942,46.6009],[2.8928,46.6060],[2.8915,46.6062],[2.8921,46.6080],[2.8888,46.6089],[2.8926,46.6122],[2.8920,46.6140],[2.8995,46.6151],[2.8953,46.6158],[2.8980,46.6201],[2.8947,46.6202],[2.8939,46.6219],[2.8905,46.6225],[2.8881,46.6245],[2.8858,46.6232],[2.8859,46.6263],[2.8834,46.6261],[2.8823,46.6286],[2.8791,46.6252],[2.8821,46.6288],[2.8797,46.6291],[2.8820,46.6316],[2.8838,46.6323],[2.8852,46.6313],[2.8867,46.6333],[2.8881,46.6323],[2.8893,46.6354],[2.8942,46.6346],[2.8941,46.6383],[2.8960,46.6381],[2.8972,46.6414],[2.8957,46.6452],[2.8935,46.6443]]]}},{"type":"Feature","properties":{"name":"Forêt de Champroux"},"geometry":{"type":"Polygon","coordinates":[[[2.9869,46.6867],[2.9843,46.6878],[2.9845,46.6909],[2.9828,46.6902],[2.9837,46.6923],[2.9860,46.6936],[2.9838,46.6909],[2.9865,46.6924],[2.9878,46.6914],[2.9911,46.6938],[2.9945,46.6897],[2.9993,46.6889],[3.0002,46.6868],[2.9985,46.6851],[3.0022,46.6843],[3.0003,46.6836],[3.0023,46.6826],[2.9992,46.6805],[3.0024,46.6805],[2.9951,46.6777],[2.9971,46.6764],[2.9969,46.6774],[2.9999,46.6779],[2.9996,46.6760],[3.0011,46.6756],[2.9990,46.6748],[2.9996,46.6720],[2.9921,46.6705],[2.9944,46.6677],[2.9972,46.6671],[2.9977,46.6665],[2.9961,46.6669],[2.9964,46.6654],[2.9949,46.6671],[2.9925,46.6668],[2.9949,46.6648],[2.9923,46.6646],[2.9911,46.6664],[2.9884,46.6660],[2.9896,46.6699],[2.9848,46.6697],[2.9787,46.6640],[2.9697,46.6607],[2.9658,46.6563],[2.9682,46.6547],[2.9664,46.6530],[2.9672,46.6517],[2.9607,46.6513],[2.9603,46.6499],[2.9622,46.6477],[2.9598,46.6452],[2.9606,46.6427],[2.9507,46.6387],[2.9450,46.6405],[2.9373,46.6379],[2.9344,46.6407],[2.9361,46.6417],[2.9354,46.6426],[2.9308,46.6445],[2.9295,46.6486],[2.9307,46.6489],[2.9331,46.6469],[2.9415,46.6518],[2.9505,46.6508],[2.9553,46.6552],[2.9515,46.6574],[2.9539,46.6571],[2.9534,46.6594],[2.9516,46.6603],[2.9524,46.6632],[2.9561,46.6632],[2.9529,46.6661],[2.9573,46.6678],[2.9541,46.6697],[2.9557,46.6713],[2.9581,46.6710],[2.9569,46.6725],[2.9594,46.6742],[2.9613,46.6705],[2.9597,46.6705],[2.9578,46.6675],[2.9608,46.6655],[2.9602,46.6642],[2.9623,46.6639],[2.9626,46.6666],[2.9630,46.6658],[2.9655,46.6670],[2.9631,46.6686],[2.9627,46.6703],[2.9671,46.6695],[2.9676,46.6715],[2.9702,46.6713],[2.9723,46.6726],[2.9777,46.6701],[2.9786,46.6709],[2.9775,46.6724],[2.9759,46.6721],[2.9787,46.6765],[2.9820,46.6784],[2.9879,46.6787],[2.9906,46.6808],[2.9907,46.6822],[2.9885,46.6822],[2.9908,46.6832],[2.9915,46.6802],[2.9942,46.6816],[2.9944,46.6846],[2.9914,46.6847],[2.9908,46.6872],[2.9869,46.6867]]]}}]}