{"type":"FeatureCollection","features":[{"type":"Feature","properties":{"name":"Bois de Grandmont"},"geometry":{"type":"Polygon","coordinates":[[[0.9693,48.2068],[0.9684,48.2085],[0.9712,48.2081],[0.9722,48.2099],[0.9735,48.2095],[0.9708,48.2133],[0.9733,48.2140],[0.9732,48.2157],[0.9713,48.2175],[0.9631,48.2149],[0.9703,48.2177],[0.9687,48.2181],[0.9625,48.2150],[0.9579,48.2145],[0.9574,48.2126],[0.9612,48.2129],[0.9612,48.2118],[0.9498,48.2114],[0.9500,48.2131],[0.9455,48.2145],[0.9443,48.2128],[0.9406,48.2115],[0.9456,48.2087],[0.9436,48.2064],[0.9459,48.2061],[0.9466,48.2034],[0.9549,48.2051],[0.9663,48.2054],[0.9666,48.2071],[0.9693,48.2068]]]}},{"type":"Feature","properties":{"name":"Bois de Montmirel"},"geometry":{"type":"Polygon","coordinates":[[[0.2864,48.5433],[0.2898,48.5451],[0.2901,48.5435],[0.2931,48.5414],[0.2971,48.5421],[0.3006,48.5411],[0.3003,48.5392],[0.3037,48.5401],[0.2991,48.5380],[0.3014,48.5365],[0.3003,48.5358],[0.3048,48.5334],[0.3098,48.5285],[0.3081,48.5255],[0.3025,48.5224],[0.2906,48.5239],[0.2900,48.5249],[0.2926,48.5263],[0.2873,48.5309],[0.2829,48.5290],[0.2815,48.5355],[0.2840,48.5383],[0.2828,48.5392],[0.2865,48.5406],[0.2836,48.5407],[0.2864,48.5433]]]}},{"type":"Feature","properties":{"name":"Bois de Montperroux"},"geometry":{"type":"Polygon","coordinates":[[[0.2762,48.5377],[0.2794,48.5358],[0.2788,48.5343],[0.2800,48.5327],[0.2752,48.5292],[0.2812,48.5273],[0.2787,48.5257],[0.2789,48.5236],[0.2586,48.5266],[0.2573,48.5305],[0.2558,48.5309],[0.2601,48.5342],[0.2581,48.5344],[0.2573,48.5361],[0.2659,48.5363],[0.2682,48.5389],[0.2762,48.5377]]]}},{"type":"Feature","properties":{"name":"Bois de Montferré"},"geometry":{"type":"Polygon","coordinates":[[[0.6960,48.5645],[0.6980,48.5646],[0.6978,48.5631],[0.6946,48.5601],[0.6977,48.5599],[0.6937,48.5594],[0.6972,48.5589],[0.6957,48.5586],[0.6965,48.5575],[0.6950,48.5569],[0.6957,48.5566],[0.6945,48.5532],[0.6957,48.5515],[0.6936,48.5506],[0.6953,48.5494],[0.6936,48.5460],[0.6948,48.5424],[0.6966,48.5419],[0.6976,48.5392],[0.7008,48.5395],[0.7008,48.5368],[0.7046,48.5363],[0.7033,48.5355],[0.7036,48.5340],[0.7059,48.5314],[0.7046,48.5269],[0.7083,48.5259],[0.7060,48.5242],[0.7074,48.5213],[0.7189,48.5185],[0.7169,48.5181],[0.7145,48.5146],[0.7129,48.5155],[0.7116,48.5136],[0.7121,48.5113],[0.7096,48.5104],[0.7069,48.5119],[0.7049,48.5163],[0.7029,48.5175],[0.7040,48.5189],[0.7037,48.5215],[0.7015,48.5221],[0.7036,48.5251],[0.7031,48.5306],[0.7012,48.5313],[0.7008,48.5356],[0.6998,48.5363],[0.7000,48.5350],[0.6988,48.5348],[0.6965,48.5367],[0.6980,48.5379],[0.6948,48.5382],[0.6901,48.5412],[0.6916,48.5423],[0.6905,48.5465],[0.6927,48.5536],[0.6920,48.5547],[0.6887,48.5549],[0.6898,48.5576],[0.6891,48.5592],[0.6856,48.5594],[0.6840,48.5609],[0.6887,48.5622],[0.6895,48.5594],[0.6930,48.5568],[0.6953,48.5581],[0.6923,48.5601],[0.6929,48.5629],[0.6945,48.5615],[0.6964,48.5630],[0.6960,48.5645]]]}},{"type":"Feature","properties":{"name":"Le Bois du Perchet"},"geometry":{"type":"Polygon","coordinates":[[[0.8714,48.3371],[0.8745,48.3357],[0.8731,48.3337],[0.8755,48.3325],[0.8758,48.3250],[0.8713,48.3229],[0.8692,48.3235],[0.8694,48.3219],[0.8689,48.3236],[0.8715,48.3260],[0.8681,48.3257],[0.8681,48.3266],[0.8694,48.3266],[0.8710,48.3300],[0.8691,48.3304],[0.8685,48.3288],[0.8666,48.3291],[0.8670,48.3309],[0.8653,48.3308],[0.8635,48.3245],[0.8661,48.3242],[0.8652,48.3211],[0.8646,48.3222],[0.8617,48.3225],[0.8615,48.3211],[0.8548,48.3213],[0.8524,48.3201],[0.8533,48.3190],[0.8522,48.3200],[0.8489,48.3180],[0.8411,48.3185],[0.8433,48.3217],[0.8501,48.3219],[0.8532,48.3243],[0.8529,48.3257],[0.8566,48.3269],[0.8557,48.3277],[0.8568,48.3281],[0.8563,48.3293],[0.8598,48.3275],[0.8623,48.3298],[0.8601,48.3316],[0.8614,48.3339],[0.8558,48.3324],[0.8556,48.3339],[0.8457,48.3318],[0.8438,48.3326],[0.8612,48.3361],[0.8679,48.3398],[0.8714,48.3371]]]}},{"type":"Feature","properties":{"name":"Bois de Chaumont"},"geometry":{"type":"Polygon","coordinates":[[[-0.0238,48.4932],[-0.0242,48.4920],[-0.0201,48.4897],[-0.0226,48.4898],[-0.0231,48.4885],[-0.0128,48.4864],[-0.0072,48.4903],[-0.0043,48.4890],[-0.0034,48.4909],[0.0006,48.4928],[0.0035,48.4920],[0.0072,48.4929],[0.0082,48.4943],[0.0125,48.4942],[0.0116,48.4932],[0.0140,48.4921],[0.0138,48.4907],[0.0108,48.4904],[0.0091,48.4884],[0.0060,48.4903],[0.0024,48.4906],[0.0039,48.4881],[0.0026,48.4868],[0.0046,48.4859],[0.0037,48.4839],[0.0000,48.4835],[-0.0034,48.4860],[-0.0024,48.4809],[-0.0057,48.4813],[-0.0036,48.4794],[-0.0087,48.4762],[-0.0090,48.4746],[-0.0093,48.4759],[-0.0106,48.4755],[-0.0101,48.4742],[-0.0115,48.4745],[-0.0106,48.4723],[-0.0079,48.4725],[0.0028,48.4679],[0.0064,48.4683],[0.0074,48.4660],[-0.0037,48.4675],[-0.0057,48.4664],[-0.0052,48.4646],[-0.0063,48.4647],[-0.0062,48.4664],[-0.0102,48.4659],[-0.0125,48.4672],[-0.0195,48.4679],[-0.0186,48.4717],[-0.0195,48.4720],[-0.0179,48.4728],[-0.0195,48.4727],[-0.0210,48.4750],[-0.0227,48.4752],[-0.0346,48.4744],[-0.0335,48.4703],[-0.0347,48.4699],[-0.0402,48.4731],[-0.0438,48.4733],[-0.0420,48.4742],[-0.0479,48.4767],[-0.0470,48.4799],[-0.0478,48.4803],[-0.0422,48.4853],[-0.0408,48.4881],[-0.0416,48.4884],[-0.0368,48.4890],[-0.0370,48.4913],[-0.0385,48.4915],[-0.0330,48.4920],[-0.0321,48.4935],[-0.0238,48.4932]]]}},{"type":"Feature","properties":{"name":"Bois de Sublaine"},"geometry":{"type":"Polygon","coordinates":[[[0.6729,48.4383],[0.6742,48.4386],[0.6741,48.4374],[0.6808,48.4406],[0.6839,48.4435],[0.6915,48.4436],[0.6854,48.4363],[0.6799,48.4344],[0.6767,48.4304],[0.6790,48.4309],[0.6805,48.4330],[0.6817,48.4318],[0.6782,48.4275],[0.6769,48.4286],[0.6782,48.4294],[0.6749,48.4297],[0.6759,48.4278],[0.6729,48.4257],[0.6546,48.4228],[0.6559,48.4280],[0.6584,48.4281],[0.6577,48.4300],[0.6586,48.4315],[0.6600,48.4314],[0.6588,48.4328],[0.6596,48.4341],[0.6617,48.4351],[0.6628,48.4337],[0.6662,48.4356],[0.6647,48.4365],[0.6629,48.4351],[0.6604,48.4369],[0.6649,48.4369],[0.6661,48.4385],[0.6684,48.4388],[0.6698,48.4375],[0.6729,48.4383]]]}},{"type":"Feature","properties":{"name":"Forêt de la Ferté-Vidame"},"geometry":{"type":"Polygon","coordinates":[[[0.8551,48.5817],[0.8560,48.5882],[0.8477,48.5891],[0.8482,48.5911],[0.8491,48.5900],[0.8500,48.5919],[0.8512,48.5919],[0.8510,48.5907],[0.8563,48.5904],[0.8565,48.5938],[0.8489,48.5943],[0.8484,48.5956],[0.8512,48.5966],[0.8508,48.6011],[0.8468,48.6007],[0.8484,48.6035],[0.8475,48.6057],[0.8452,48.6062],[0.8469,48.6078],[0.8463,48.6086],[0.8434,48.6084],[0.8452,48.6099],[0.8427,48.6114],[0.8441,48.6121],[0.8431,48.6144],[0.8395,48.6171],[0.8366,48.6156],[0.8388,48.6176],[0.8371,48.6190],[0.8378,48.6209],[0.8412,48.6205],[0.8409,48.6197],[0.8438,48.6191],[0.8454,48.6172],[0.8538,48.6143],[0.8542,48.6167],[0.8526,48.6169],[0.8517,48.6191],[0.8478,48.6198],[0.8495,48.6223],[0.8490,48.6258],[0.8456,48.6267],[0.8490,48.6291],[0.8487,48.6353],[0.8543,48.6352],[0.8548,48.6311],[0.8609,48.6300],[0.8635,48.6330],[0.8624,48.6334],[0.8633,48.6347],[0.8672,48.6342],[0.8697,48.6366],[0.8727,48.6350],[0.8732,48.6372],[0.8812,48.6401],[0.8835,48.6378],[0.8847,48.6379],[0.8842,48.6401],[0.8851,48.6383],[0.8888,48.6386],[0.8913,48.6343],[0.8957,48.6378],[0.9005,48.6358],[0.8988,48.6344],[0.8967,48.6354],[0.8982,48.6365],[0.8971,48.6370],[0.8928,48.6332],[0.8960,48.6321],[0.8972,48.6306],[0.8962,48.6292],[0.9019,48.6307],[0.8949,48.6262],[0.8967,48.6240],[0.8952,48.6243],[0.8901,48.6210],[0.8953,48.6174],[0.8861,48.6236],[0.8805,48.6175],[0.8870,48.6140],[0.8841,48.6133],[0.8847,48.6106],[0.8915,48.6088],[0.8884,48.6047],[0.8967,48.6044],[0.8952,48.6071],[0.8967,48.6086],[0.8962,48.6072],[0.8983,48.6080],[0.8971,48.6063],[0.8996,48.6043],[0.9024,48.6066],[0.9078,48.6047],[0.9089,48.6061],[0.9034,48.6077],[0.9042,48.6089],[0.9173,48.6072],[0.9171,48.6037],[0.9140,48.6000],[0.9058,48.5951],[0.9070,48.5943],[0.9132,48.5953],[0.9167,48.5935],[0.9158,48.5906],[0.9137,48.5905],[0.9117,48.5882],[0.8982,48.5696],[0.8941,48.5727],[0.8806,48.5744],[0.8687,48.5729],[0.8593,48.5778],[0.8551,48.5817]]]}},{"type":"Feature","properties":{"name":"Forêt de Réno-Valdieu"},"geometry":{"type":"Polygon","coordinates":[[[0.6911,48.4537],[0.6893,48.4546],[0.6893,48.4567],[0.6837,48.4542],[0.6772,48.4560],[0.6746,48.4590],[0.6758,48.4602],[0.6738,48.4625],[0.6724,48.4626],[0.6715,48.4604],[0.6706,48.4605],[0.6714,48.4625],[0.6689,48.4608],[0.6700,48.4630],[0.6689,48.4650],[0.6706,48.4673],[0.6747,48.4661],[0.6755,48.4669],[0.6743,48.4684],[0.6771,48.4687],[0.6762,48.4698],[0.6730,48.4692],[0.6731,48.4706],[0.6758,48.4715],[0.6744,48.4725],[0.6760,48.4757],[0.6733,48.4809],[0.6760,48.4838],[0.6754,48.4806],[0.6776,48.4804],[0.6828,48.4851],[0.6791,48.4885],[0.6776,48.4886],[0.6766,48.4869],[0.6728,48.4878],[0.6720,48.4853],[0.6683,48.4831],[0.6655,48.4847],[0.6653,48.4831],[0.6607,48.4823],[0.6611,48.4815],[0.6624,48.4828],[0.6627,48.4819],[0.6691,48.4817],[0.6686,48.4805],[0.6660,48.4806],[0.6651,48.4789],[0.6615,48.4809],[0.6631,48.4794],[0.6607,48.4797],[0.6633,48.4792],[0.6614,48.4787],[0.6621,48.4780],[0.6672,48.4781],[0.6626,48.4765],[0.6674,48.4755],[0.6676,48.4723],[0.6660,48.4735],[0.6640,48.4729],[0.6685,48.4714],[0.6706,48.4723],[0.6689,48.4712],[0.6698,48.4702],[0.6607,48.4729],[0.6603,48.4747],[0.6590,48.4740],[0.6600,48.4778],[0.6564,48.4764],[0.6549,48.4738],[0.6527,48.4749],[0.6549,48.4774],[0.6560,48.4767],[0.6581,48.4785],[0.6589,48.4810],[0.6573,48.4814],[0.6588,48.4829],[0.6571,48.4843],[0.6625,48.4882],[0.6614,48.4898],[0.6593,48.4894],[0.6604,48.4909],[0.6588,48.4910],[0.6594,48.4928],[0.6575,48.4960],[0.6590,48.4999],[0.6617,48.5000],[0.6611,48.5010],[0.6560,48.5007],[0.6548,48.5038],[0.6560,48.5056],[0.6609,48.5055],[0.6620,48.5123],[0.6639,48.5139],[0.6628,48.5144],[0.6624,48.5171],[0.6664,48.5201],[0.6656,48.5208],[0.6609,48.5195],[0.6600,48.5206],[0.6592,48.5195],[0.6550,48.5189],[0.6545,48.5168],[0.6518,48.5159],[0.6462,48.5200],[0.6474,48.5221],[0.6421,48.5254],[0.6438,48.5285],[0.6421,48.5321],[0.6439,48.5330],[0.6411,48.5332],[0.6408,48.5350],[0.6395,48.5344],[0.6411,48.5369],[0.6384,48.5418],[0.6398,48.5424],[0.6386,48.5443],[0.6397,48.5446],[0.6419,48.5426],[0.6406,48.5399],[0.6427,48.5401],[0.6441,48.5387],[0.6425,48.5384],[0.6431,48.5372],[0.6454,48.5375],[0.6465,48.5363],[0.6438,48.5369],[0.6424,48.5338],[0.6445,48.5333],[0.6445,48.5316],[0.6472,48.5301],[0.6483,48.5303],[0.6484,48.5330],[0.6499,48.5289],[0.6532,48.5283],[0.6541,48.5287],[0.6538,48.5340],[0.6505,48.5336],[0.6502,48.5363],[0.6479,48.5370],[0.6502,48.5379],[0.6472,48.5376],[0.6461,48.5392],[0.6507,48.5395],[0.6513,48.5377],[0.6587,48.5386],[0.6585,48.5399],[0.6639,48.5417],[0.6651,48.5431],[0.6645,48.5449],[0.6706,48.5432],[0.6719,48.5452],[0.6785,48.5450],[0.6767,48.5466],[0.6778,48.5483],[0.6769,48.5491],[0.6819,48.5509],[0.6702,48.5518],[0.6755,48.5526],[0.6758,48.5556],[0.6772,48.5568],[0.6747,48.5589],[0.6773,48.5574],[0.6795,48.5579],[0.6778,48.5563],[0.6812,48.5561],[0.6812,48.5541],[0.6791,48.5534],[0.6830,48.5519],[0.6861,48.5547],[0.6872,48.5499],[0.6853,48.5500],[0.6880,48.5493],[0.6876,48.5468],[0.6889,48.5466],[0.6868,48.5441],[0.6842,48.5443],[0.6870,48.5424],[0.6859,48.5409],[0.6927,48.5347],[0.6916,48.5319],[0.6934,48.5303],[0.6918,48.5274],[0.6946,48.5280],[0.6975,48.5269],[0.6953,48.5259],[0.6904,48.5267],[0.6868,48.5218],[0.6900,48.5216],[0.6908,48.5201],[0.6891,48.5197],[0.6890,48.5181],[0.6928,48.5175],[0.6989,48.5100],[0.6976,48.5090],[0.6987,48.5054],[0.6978,48.5029],[0.6967,48.5016],[0.6940,48.5021],[0.6973,48.5054],[0.6965,48.5084],[0.6942,48.5090],[0.6924,48.5076],[0.6934,48.5053],[0.6918,48.5041],[0.6911,48.5065],[0.6875,48.5090],[0.6852,48.5081],[0.6854,48.5060],[0.6810,48.5067],[0.6829,48.5050],[0.6820,48.5033],[0.6832,48.5016],[0.6873,48.5027],[0.6907,48.5001],[0.6903,48.4987],[0.6879,48.4990],[0.6888,48.4965],[0.6926,48.4956],[0.6944,48.4932],[0.6941,48.4892],[0.6895,48.4896],[0.6926,48.4875],[0.6936,48.4848],[0.6923,48.4839],[0.6926,48.4825],[0.6967,48.4806],[0.6956,48.4771],[0.6942,48.4772],[0.6955,48.4767],[0.6940,48.4764],[0.6946,48.4753],[0.6875,48.4738],[0.6901,48.4705],[0.6857,48.4702],[0.6875,48.4694],[0.6868,48.4684],[0.6809,48.4690],[0.6823,48.4682],[0.6820,48.4661],[0.6839,48.4636],[0.6852,48.4626],[0.6867,48.4648],[0.6884,48.4613],[0.6903,48.4614],[0.6858,48.4609],[0.6872,48.4589],[0.6917,48.4581],[0.6929,48.4573],[0.6922,48.4560],[0.6942,48.4569],[0.6928,48.4558],[0.6932,48.4545],[0.6956,48.4537],[0.6944,48.4526],[0.6911,48.4537]]]}},{"type":"Feature","properties":{"name":"Forêt de la Petite Gouffern"},"geometry":{"type":"Polygon","coordinates":[[[0.0605,48.7316],[0.0536,48.7300],[0.0470,48.7318],[0.0453,48.7311],[0.0423,48.7321],[0.0372,48.7370],[0.0386,48.7393],[0.0423,48.7389],[0.0510,48.7416],[0.0567,48.7418],[0.0603,48.7402],[0.0637,48.7409],[0.0609,48.7440],[0.0639,48.7447],[0.0672,48.7481],[0.0665,48.7492],[0.0676,48.7506],[0.0709,48.7522],[0.0749,48.7476],[0.0741,48.7474],[0.0750,48.7461],[0.0731,48.7446],[0.0745,48.7417],[0.0732,48.7417],[0.0739,48.7390],[0.0726,48.7373],[0.0738,48.7360],[0.0684,48.7340],[0.0633,48.7342],[0.0637,48.7331],[0.0668,48.7328],[0.0676,48.7313],[0.0699,48.7315],[0.0705,48.7304],[0.0719,48.7304],[0.0716,48.7315],[0.0744,48.7315],[0.0763,48.7301],[0.0751,48.7337],[0.0770,48.7345],[0.0763,48.7376],[0.0779,48.7399],[0.0824,48.7348],[0.0845,48.7346],[0.0841,48.7336],[0.0813,48.7337],[0.0810,48.7305],[0.0798,48.7318],[0.0780,48.7314],[0.0786,48.7285],[0.0827,48.7301],[0.0842,48.7285],[0.0866,48.7313],[0.0859,48.7320],[0.0879,48.7327],[0.0831,48.7365],[0.0838,48.7370],[0.0815,48.7376],[0.0817,48.7389],[0.0854,48.7394],[0.0844,48.7415],[0.0786,48.7436],[0.0812,48.7458],[0.0853,48.7463],[0.0815,48.7429],[0.0856,48.7424],[0.0859,48.7450],[0.0894,48.7454],[0.0877,48.7463],[0.0875,48.7481],[0.0818,48.7489],[0.0812,48.7476],[0.0780,48.7482],[0.0786,48.7510],[0.0879,48.7487],[0.0860,48.7493],[0.0853,48.7526],[0.0872,48.7534],[0.0900,48.7522],[0.0937,48.7471],[0.1007,48.7478],[0.1018,48.7453],[0.1008,48.7447],[0.1050,48.7401],[0.1006,48.7384],[0.1021,48.7372],[0.1067,48.7360],[0.1075,48.7381],[0.1094,48.7382],[0.1099,48.7362],[0.1182,48.7362],[0.1196,48.7348],[0.1181,48.7325],[0.1220,48.7315],[0.1247,48.7283],[0.1215,48.7240],[0.1166,48.7244],[0.1154,48.7227],[0.1112,48.7218],[0.1131,48.7191],[0.1080,48.7147],[0.0904,48.7064],[0.0867,48.7071],[0.0789,48.7116],[0.0770,48.7111],[0.0755,48.7143],[0.0734,48.7147],[0.0760,48.7159],[0.0735,48.7183],[0.0739,48.7194],[0.0675,48.7196],[0.0659,48.7206],[0.0640,48.7231],[0.0659,48.7235],[0.0665,48.7244],[0.0653,48.7253],[0.0671,48.7265],[0.0605,48.7316]]]}},{"type":"Feature","properties":{"name":"Bois de Peley"},"geometry":{"type":"Polygon","coordinates":[[[0.1723,48.6943],[0.1736,48.6936],[0.1714,48.6911],[0.1665,48.6889],[0.1645,48.6893],[0.1650,48.6917],[0.1623,48.6923],[0.1623,48.6937],[0.1586,48.6913],[0.1587,48.6923],[0.1550,48.6931],[0.1557,48.6949],[0.1513,48.6948],[0.1516,48.6979],[0.1461,48.6982],[0.1484,48.7071],[0.1478,48.7114],[0.1517,48.7119],[0.1530,48.7099],[0.1575,48.7098],[0.1578,48.7088],[0.1628,48.7096],[0.1681,48.7072],[0.1690,48.7087],[0.1741,48.7080],[0.1731,48.7052],[0.1762,48.7036],[0.1731,48.6991],[0.1763,48.6988],[0.1768,48.7004],[0.1780,48.6982],[0.1813,48.6974],[0.1784,48.6974],[0.1754,48.6947],[0.1723,48.6943]]]}},{"type":"Feature","properties":{"name":"Forêt de Perseigne"},"geometry":{"type":"Polygon","coordinates":[[[0.2861,48.3856],[0.2854,48.3837],[0.2828,48.3834],[0.2893,48.3846],[0.2909,48.3832],[0.2952,48.3862],[0.3024,48.3860],[0.3037,48.3869],[0.3031,48.3882],[0.3077,48.3876],[0.3068,48.3869],[0.3079,48.3856],[0.3159,48.3848],[0.3139,48.3867],[0.3101,48.3871],[0.3116,48.3889],[0.3175,48.3902],[0.3201,48.3951],[0.3201,48.3962],[0.3184,48.3961],[0.3202,48.3970],[0.3205,48.3990],[0.3216,48.3988],[0.3212,48.4010],[0.3231,48.4016],[0.3219,48.4022],[0.3239,48.4031],[0.3228,48.4045],[0.3215,48.4034],[0.3191,48.4045],[0.3211,48.4060],[0.3201,48.4070],[0.3213,48.4069],[0.3209,48.4101],[0.3265,48.4112],[0.3277,48.4105],[0.3265,48.4101],[0.3272,48.4097],[0.3298,48.4106],[0.3299,48.4125],[0.3315,48.4123],[0.3332,48.4152],[0.3355,48.4146],[0.3358,48.4158],[0.3341,48.4162],[0.3296,48.4140],[0.3288,48.4169],[0.3323,48.4174],[0.3372,48.4208],[0.3349,48.4224],[0.3370,48.4231],[0.3377,48.4249],[0.3398,48.4251],[0.3391,48.4278],[0.3405,48.4283],[0.3401,48.4297],[0.3364,48.4295],[0.3344,48.4277],[0.3278,48.4276],[0.3276,48.4261],[0.3262,48.4258],[0.3274,48.4253],[0.3257,48.4230],[0.3258,48.4195],[0.3229,48.4193],[0.3250,48.4189],[0.3252,48.4178],[0.3184,48.4171],[0.3190,48.4206],[0.3205,48.4218],[0.3214,48.4206],[0.3239,48.4207],[0.3254,48.4227],[0.3241,48.4243],[0.3207,48.4250],[0.3156,48.4239],[0.3133,48.4246],[0.3140,48.4262],[0.3125,48.4277],[0.3110,48.4266],[0.3079,48.4272],[0.3068,48.4234],[0.3029,48.4225],[0.3012,48.4250],[0.2890,48.4289],[0.2912,48.4290],[0.2911,48.4305],[0.2888,48.4308],[0.2890,48.4323],[0.2872,48.4319],[0.2867,48.4340],[0.2885,48.4356],[0.2852,48.4356],[0.2862,48.4393],[0.2893,48.4384],[0.2895,48.4413],[0.2809,48.4407],[0.2770,48.4425],[0.2767,48.4367],[0.2829,48.4358],[0.2817,48.4321],[0.2711,48.4330],[0.2659,48.4349],[0.2613,48.4333],[0.2602,48.4336],[0.2610,48.4348],[0.2569,48.4343],[0.2571,48.4333],[0.2550,48.4331],[0.2527,48.4358],[0.2502,48.4345],[0.2495,48.4353],[0.2510,48.4359],[0.2485,48.4357],[0.2491,48.4330],[0.2473,48.4315],[0.2488,48.4292],[0.2472,48.4286],[0.2450,48.4312],[0.2458,48.4280],[0.2432,48.4271],[0.2402,48.4285],[0.2376,48.4265],[0.2347,48.4311],[0.2335,48.4286],[0.2313,48.4288],[0.2318,48.4296],[0.2298,48.4309],[0.2243,48.4306],[0.2207,48.4320],[0.2168,48.4298],[0.2191,48.4285],[0.2170,48.4277],[0.2171,48.4233],[0.2157,48.4225],[0.2173,48.4209],[0.2160,48.4203],[0.2168,48.4190],[0.2147,48.4180],[0.2159,48.4173],[0.2148,48.4162],[0.2126,48.4164],[0.2127,48.4179],[0.2106,48.4183],[0.1976,48.4174],[0.2016,48.4151],[0.2022,48.4113],[0.2011,48.4095],[0.2004,48.4104],[0.1972,48.4095],[0.1946,48.4051],[0.1918,48.4042],[0.1822,48.4074],[0.1818,48.4091],[0.1831,48.4089],[0.1832,48.4074],[0.1855,48.4072],[0.1868,48.4136],[0.1856,48.4138],[0.1858,48.4153],[0.1823,48.4152],[0.1832,48.4160],[0.1821,48.4173],[0.1790,48.4164],[0.1745,48.4173],[0.1739,48.4163],[0.1767,48.4159],[0.1767,48.4148],[0.1751,48.4151],[0.1729,48.4118],[0.1700,48.4106],[0.1727,48.4099],[0.1725,48.4087],[0.1752,48.4085],[0.1739,48.4076],[0.1756,48.4055],[0.1744,48.4050],[0.1724,48.4073],[0.1659,48.4044],[0.1656,48.4055],[0.1624,48.4047],[0.1573,48.4061],[0.1599,48.4034],[0.1645,48.4032],[0.1620,48.4017],[0.1626,48.4003],[0.1613,48.3999],[0.1601,48.4012],[0.1566,48.4004],[0.1536,48.4020],[0.1514,48.4014],[0.1500,48.4007],[0.1543,48.3991],[0.1533,48.3974],[0.1470,48.3969],[0.1452,48.3960],[0.1450,48.3942],[0.1585,48.3904],[0.1630,48.3928],[0.1615,48.3940],[0.1660,48.3961],[0.1682,48.3942],[0.1762,48.3942],[0.1761,48.3911],[0.1786,48.3881],[0.1696,48.3871],[0.1605,48.3795],[0.1594,48.3796],[0.1612,48.3817],[0.1591,48.3818],[0.1566,48.3844],[0.1547,48.3840],[0.1565,48.3799],[0.1587,48.3796],[0.1567,48.3772],[0.1533,48.3779],[0.1532,48.3792],[0.1483,48.3794],[0.1488,48.3777],[0.1468,48.3760],[0.1435,48.3755],[0.1442,48.3778],[0.1464,48.3777],[0.1462,48.3788],[0.1439,48.3788],[0.1367,48.3746],[0.1395,48.3747],[0.1404,48.3709],[0.1429,48.3710],[0.1459,48.3687],[0.1448,48.3659],[0.1422,48.3642],[0.1432,48.3633],[0.1473,48.3672],[0.1465,48.3660],[0.1477,48.3652],[0.1478,48.3666],[0.1509,48.3681],[0.1553,48.3683],[0.1543,48.3696],[0.1555,48.3708],[0.1638,48.3718],[0.1583,48.3719],[0.1605,48.3755],[0.1652,48.3777],[0.1683,48.3763],[0.1701,48.3726],[0.1796,48.3780],[0.1806,48.3773],[0.1798,48.3763],[0.1825,48.3742],[0.1877,48.3727],[0.1895,48.3706],[0.1918,48.3708],[0.1882,48.3689],[0.1895,48.3658],[0.1986,48.3642],[0.1991,48.3673],[0.2162,48.3664],[0.2176,48.3688],[0.2219,48.3687],[0.2207,48.3714],[0.2195,48.3716],[0.2205,48.3730],[0.2186,48.3742],[0.2228,48.3736],[0.2350,48.3791],[0.2372,48.3779],[0.2364,48.3798],[0.2346,48.3800],[0.2385,48.3832],[0.2383,48.3843],[0.2409,48.3850],[0.2425,48.3839],[0.2435,48.3849],[0.2428,48.3856],[0.2451,48.3868],[0.2485,48.3868],[0.2502,48.3850],[0.2493,48.3846],[0.2500,48.3836],[0.2535,48.3857],[0.2503,48.3867],[0.2525,48.3865],[0.2507,48.3888],[0.2526,48.3928],[0.2544,48.3908],[0.2575,48.3909],[0.2604,48.3883],[0.2598,48.3904],[0.2558,48.3926],[0.2560,48.3945],[0.2537,48.3978],[0.2584,48.3973],[0.2585,48.3961],[0.2573,48.3961],[0.2583,48.3937],[0.2595,48.3951],[0.2668,48.3939],[0.2678,48.3923],[0.2662,48.3908],[0.2680,48.3902],[0.2697,48.3922],[0.2693,48.3934],[0.2734,48.3928],[0.2738,48.3909],[0.2723,48.3888],[0.2766,48.3879],[0.2769,48.3891],[0.2767,48.3848],[0.2777,48.3860],[0.2811,48.3839],[0.2825,48.3866],[0.2836,48.3857],[0.2876,48.3865],[0.2889,48.3849],[0.2861,48.3856]]]}},{"type":"Feature","properties":{"name":"Forêt de Bonnétable"},"geometry":{"type":"Polygon","coordinates":[[[0.4586,48.1781],[0.4538,48.1788],[0.4532,48.1813],[0.4626,48.1834],[0.4637,48.1815],[0.4643,48.1839],[0.4675,48.1847],[0.4692,48.1865],[0.4687,48.1882],[0.4657,48.1881],[0.4675,48.1885],[0.4666,48.1914],[0.4633,48.1924],[0.4660,48.1941],[0.4654,48.1949],[0.4668,48.1964],[0.4693,48.1969],[0.4703,48.2005],[0.4645,48.1997],[0.4621,48.1974],[0.4613,48.1991],[0.4630,48.1993],[0.4621,48.2015],[0.4601,48.1997],[0.4588,48.2007],[0.4546,48.2002],[0.4582,48.2013],[0.4574,48.2020],[0.4616,48.2032],[0.4632,48.2023],[0.4676,48.2045],[0.4662,48.2113],[0.4699,48.2139],[0.4744,48.2129],[0.4739,48.2111],[0.4828,48.2134],[0.4866,48.2116],[0.4866,48.2127],[0.4909,48.2129],[0.4897,48.2122],[0.4911,48.2105],[0.4921,48.2128],[0.4943,48.2101],[0.4973,48.2096],[0.4956,48.2071],[0.4926,48.2068],[0.4932,48.2046],[0.4888,48.2022],[0.4833,48.2039],[0.4771,48.2023],[0.4786,48.1995],[0.4818,48.1984],[0.4866,48.2005],[0.4876,48.2025],[0.4871,48.2005],[0.4889,48.2002],[0.4885,48.1988],[0.4912,48.1933],[0.4878,48.1879],[0.4902,48.1838],[0.4922,48.1841],[0.4916,48.1820],[0.4895,48.1821],[0.4892,48.1804],[0.4911,48.1797],[0.4890,48.1788],[0.4956,48.1758],[0.4991,48.1772],[0.4990,48.1746],[0.5005,48.1739],[0.4986,48.1719],[0.4885,48.1703],[0.4871,48.1678],[0.4791,48.1675],[0.4736,48.1694],[0.4744,48.1708],[0.4718,48.1733],[0.4661,48.1738],[0.4619,48.1722],[0.4587,48.1732],[0.4631,48.1776],[0.4586,48.1781]]]}},{"type":"Feature","properties":{"name":"Forêt de Mézières"},"geometry":{"type":"Polygon","coordinates":[[[0.0724,48.1573],[0.0708,48.1562],[0.0704,48.1537],[0.0747,48.1510],[0.0752,48.1469],[0.0818,48.1541],[0.0826,48.1518],[0.0867,48.1520],[0.0901,48.1505],[0.0886,48.1492],[0.0834,48.1497],[0.0792,48.1484],[0.0752,48.1456],[0.0780,48.1446],[0.0759,48.1430],[0.0789,48.1438],[0.0790,48.1422],[0.0770,48.1410],[0.0721,48.1424],[0.0697,48.1409],[0.0683,48.1367],[0.0661,48.1374],[0.0656,48.1353],[0.0625,48.1352],[0.0655,48.1351],[0.0652,48.1336],[0.0671,48.1330],[0.0740,48.1334],[0.0716,48.1327],[0.0718,48.1312],[0.0671,48.1323],[0.0660,48.1308],[0.0668,48.1291],[0.0658,48.1290],[0.0658,48.1325],[0.0613,48.1328],[0.0631,48.1317],[0.0624,48.1302],[0.0609,48.1302],[0.0617,48.1287],[0.0609,48.1283],[0.0628,48.1281],[0.0626,48.1297],[0.0660,48.1286],[0.0605,48.1257],[0.0613,48.1228],[0.0644,48.1241],[0.0625,48.1227],[0.0594,48.1226],[0.0578,48.1266],[0.0613,48.1274],[0.0540,48.1292],[0.0547,48.1316],[0.0503,48.1316],[0.0465,48.1334],[0.0467,48.1343],[0.0428,48.1328],[0.0406,48.1336],[0.0405,48.1349],[0.0385,48.1349],[0.0392,48.1354],[0.0348,48.1351],[0.0343,48.1363],[0.0356,48.1372],[0.0333,48.1378],[0.0401,48.1413],[0.0406,48.1427],[0.0425,48.1424],[0.0432,48.1407],[0.0448,48.1418],[0.0459,48.1411],[0.0507,48.1459],[0.0538,48.1459],[0.0551,48.1479],[0.0622,48.1460],[0.0637,48.1477],[0.0626,48.1508],[0.0606,48.1516],[0.0598,48.1497],[0.0567,48.1496],[0.0559,48.1512],[0.0530,48.1522],[0.0593,48.1525],[0.0596,48.1544],[0.0658,48.1538],[0.0670,48.1578],[0.0677,48.1569],[0.0714,48.1584],[0.0724,48.1573]]]}},{"type":"Feature","properties":{"name":"Forêt domaniale d\u0027Écouves"},"geometry":{"type":"Polygon","coordinates":[[[0.0627,48.5077],[0.0621,48.5033],[0.0634,48.5008],[0.0461,48.5064],[0.0415,48.5042],[0.0271,48.5019],[0.0252,48.4968],[0.0201,48.5022],[0.0128,48.4997],[0.0109,48.5016],[0.0038,48.5002],[0.0041,48.4995],[-0.0181,48.5011],[-0.0201,48.4999],[-0.0185,48.4990],[-0.0197,48.4948],[-0.0222,48.4928],[-0.0321,48.4935],[-0.0323,48.4970],[-0.0351,48.4973],[-0.0366,48.5000],[-0.0404,48.5013],[-0.0546,48.5021],[-0.0536,48.5029],[-0.0553,48.5037],[-0.0566,48.5029],[-0.0561,48.5020],[-0.0515,48.4994],[-0.0539,48.4995],[-0.0552,48.4975],[-0.0593,48.4979],[-0.0518,48.4948],[-0.0575,48.4960],[-0.0614,48.4987],[-0.0651,48.4979],[-0.0653,48.4996],[-0.0696,48.5036],[-0.0697,48.5057],[-0.0608,48.5066],[-0.0592,48.5050],[-0.0605,48.5074],[-0.0497,48.5138],[-0.0459,48.5127],[-0.0384,48.5145],[-0.0373,48.5104],[-0.0339,48.5094],[-0.0257,48.5141],[-0.0194,48.5143],[-0.0176,48.5159],[-0.0116,48.5157],[-0.0027,48.5187],[0.0049,48.5192],[0.0056,48.5175],[0.0106,48.5197],[0.0079,48.5205],[0.0090,48.5214],[0.0079,48.5221],[0.0129,48.5230],[0.0072,48.5250],[0.0071,48.5264],[0.0112,48.5275],[0.0124,48.5266],[0.0137,48.5276],[0.0125,48.5286],[0.0153,48.5288],[0.0132,48.5304],[0.0209,48.5360],[0.0211,48.5384],[0.0226,48.5391],[0.0216,48.5413],[0.0191,48.5441],[0.0058,48.5436],[0.0011,48.5420],[-0.0035,48.5386],[-0.0047,48.5399],[-0.0055,48.5387],[-0.0113,48.5381],[-0.0179,48.5435],[-0.0367,48.5469],[-0.0447,48.5459],[-0.0527,48.5466],[-0.0573,48.5457],[-0.0579,48.5438],[-0.0584,48.5459],[-0.0638,48.5465],[-0.0637,48.5483],[-0.0616,48.5490],[-0.0623,48.5496],[-0.0682,48.5471],[-0.0714,48.5488],[-0.0706,48.5518],[-0.0726,48.5526],[-0.0739,48.5551],[-0.0830,48.5540],[-0.0824,48.5567],[-0.0837,48.5544],[-0.0843,48.5578],[-0.0872,48.5576],[-0.0861,48.5583],[-0.0913,48.5598],[-0.0919,48.5612],[-0.0919,48.5596],[-0.0949,48.5589],[-0.0950,48.5598],[-0.0978,48.5582],[-0.1022,48.5621],[-0.1047,48.5625],[-0.1059,48.5662],[-0.1099,48.5682],[-0.1041,48.5696],[-0.0993,48.5672],[-0.0918,48.5691],[-0.0902,48.5704],[-0.0911,48.5725],[-0.0897,48.5721],[-0.0893,48.5739],[-0.0810,48.5745],[-0.0806,48.5762],[-0.0827,48.5754],[-0.0857,48.5774],[-0.0843,48.5787],[-0.0873,48.5785],[-0.0868,48.5791],[-0.0881,48.5795],[-0.0869,48.5803],[-0.0822,48.5789],[-0.0817,48.5804],[-0.0800,48.5802],[-0.0807,48.5777],[-0.0790,48.5774],[-0.0784,48.5800],[-0.0805,48.5811],[-0.0804,48.5823],[-0.0878,48.5852],[-0.0894,48.5835],[-0.0937,48.5842],[-0.0947,48.5869],[-0.0961,48.5873],[-0.0966,48.5842],[-0.0970,48.5885],[-0.0948,48.5881],[-0.0959,48.5888],[-0.0949,48.5921],[-0.0913,48.5982],[-0.0902,48.5964],[-0.0918,48.5948],[-0.0898,48.5939],[-0.0887,48.5954],[-0.0880,48.5944],[-0.0860,48.5958],[-0.0905,48.5988],[-0.0884,48.5999],[-0.0867,48.5988],[-0.0835,48.6021],[-0.0633,48.6045],[-0.0618,48.5989],[-0.0562,48.5979],[-0.0525,48.5949],[-0.0538,48.5950],[-0.0526,48.5931],[-0.0510,48.5933],[-0.0524,48.5929],[-0.0510,48.5928],[-0.0516,48.5908],[-0.0495,48.5896],[-0.0510,48.5898],[-0.0510,48.5874],[-0.0529,48.5868],[-0.0518,48.5858],[-0.0519,48.5821],[-0.0561,48.5800],[-0.0498,48.5790],[-0.0488,48.5769],[-0.0497,48.5757],[-0.0467,48.5728],[-0.0472,48.5707],[-0.0459,48.5695],[-0.0413,48.5677],[-0.0360,48.5681],[-0.0395,48.5723],[-0.0396,48.5743],[-0.0435,48.5774],[-0.0389,48.5789],[-0.0379,48.5806],[-0.0259,48.5814],[-0.0255,48.5731],[-0.0224,48.5674],[-0.0235,48.5633],[-0.0243,48.5639],[-0.0254,48.5626],[-0.0245,48.5621],[-0.0052,48.5671],[-0.0029,48.5634],[0.0018,48.5652],[0.0033,48.5642],[0.0038,48.5652],[0.0070,48.5653],[0.0093,48.5631],[0.0114,48.5636],[0.0129,48.5620],[0.0115,48.5606],[0.0139,48.5628],[0.0163,48.5613],[0.0206,48.5611],[0.0277,48.5647],[0.0316,48.5631],[0.0399,48.5643],[0.0405,48.5669],[0.0501,48.5658],[0.0523,48.5681],[0.0504,48.5656],[0.0553,48.5644],[0.0660,48.5690],[0.0685,48.5713],[0.0686,48.5704],[0.0700,48.5714],[0.0729,48.5708],[0.0734,48.5695],[0.0831,48.5750],[0.0883,48.5795],[0.0841,48.5858],[0.0863,48.5840],[0.0870,48.5867],[0.0884,48.5861],[0.0965,48.5916],[0.1116,48.5890],[0.1116,48.5874],[0.1140,48.5860],[0.1186,48.5864],[0.1173,48.5887],[0.1191,48.5886],[0.1195,48.5866],[0.1259,48.5842],[0.1222,48.5835],[0.1271,48.5830],[0.1287,48.5815],[0.1317,48.5826],[0.1313,48.5807],[0.1330,48.5802],[0.1265,48.5746],[0.1298,48.5721],[0.1290,48.5715],[0.1270,48.5724],[0.1256,48.5706],[0.1259,48.5736],[0.1252,48.5721],[0.1241,48.5730],[0.1178,48.5724],[0.1155,48.5716],[0.1151,48.5697],[0.1109,48.5698],[0.1118,48.5687],[0.1098,48.5704],[0.1033,48.5696],[0.0922,48.5648],[0.0931,48.5625],[0.0913,48.5640],[0.0905,48.5632],[0.0932,48.5619],[0.0895,48.5599],[0.0910,48.5560],[0.0928,48.5565],[0.0955,48.5549],[0.0963,48.5562],[0.1020,48.5574],[0.1046,48.5555],[0.1082,48.5559],[0.1096,48.5573],[0.1097,48.5553],[0.1140,48.5555],[0.1163,48.5580],[0.1154,48.5590],[0.1166,48.5593],[0.1179,48.5573],[0.1202,48.5589],[0.1191,48.5602],[0.1253,48.5605],[0.1256,48.5592],[0.1289,48.5606],[0.1274,48.5618],[0.1338,48.5657],[0.1529,48.5703],[0.1535,48.5675],[0.1591,48.5699],[0.1603,48.5673],[0.1637,48.5653],[0.1637,48.5624],[0.1668,48.5625],[0.1663,48.5599],[0.1636,48.5608],[0.1611,48.5595],[0.1612,48.5563],[0.1715,48.5526],[0.1678,48.5479],[0.1637,48.5493],[0.1612,48.5481],[0.1584,48.5493],[0.1537,48.5490],[0.1538,48.5475],[0.1586,48.5449],[0.1617,48.5464],[0.1586,48.5429],[0.1504,48.5450],[0.1493,48.5435],[0.1483,48.5465],[0.1447,48.5451],[0.1430,48.5452],[0.1432,48.5464],[0.1277,48.5434],[0.1267,48.5415],[0.1281,48.5415],[0.1275,48.5393],[0.1302,48.5393],[0.1285,48.5376],[0.1276,48.5385],[0.1256,48.5373],[0.1272,48.5376],[0.1297,48.5348],[0.1271,48.5365],[0.1245,48.5352],[0.1252,48.5362],[0.1234,48.5385],[0.1192,48.5371],[0.1193,48.5387],[0.1158,48.5386],[0.1167,48.5361],[0.1234,48.5353],[0.1237,48.5343],[0.1116,48.5354],[0.1138,48.5336],[0.1135,48.5327],[0.1210,48.5305],[0.1187,48.5296],[0.1202,48.5286],[0.1182,48.5289],[0.1193,48.5274],[0.1211,48.5284],[0.1223,48.5273],[0.1183,48.5217],[0.1186,48.5194],[0.1235,48.5233],[0.1222,48.5224],[0.1234,48.5225],[0.1226,48.5206],[0.1255,48.5175],[0.1258,48.5149],[0.1243,48.5170],[0.1233,48.5157],[0.1240,48.5146],[0.1187,48.5165],[0.1159,48.5147],[0.1138,48.5169],[0.1171,48.5157],[0.1177,48.5187],[0.1142,48.5209],[0.1093,48.5209],[0.1062,48.5186],[0.1093,48.5164],[0.1085,48.5138],[0.1133,48.5109],[0.1097,48.5114],[0.1128,48.5092],[0.1121,48.5087],[0.1058,48.5091],[0.1025,48.5056],[0.0980,48.5076],[0.0965,48.5054],[0.0947,48.5058],[0.0923,48.5046],[0.0935,48.5036],[0.0893,48.5020],[0.0898,48.5006],[0.0866,48.5000],[0.0874,48.4988],[0.0835,48.4985],[0.0829,48.5001],[0.0783,48.5000],[0.0777,48.4986],[0.0722,48.4973],[0.0693,48.4982],[0.0686,48.4997],[0.0667,48.4995],[0.0664,48.5052],[0.0680,48.5068],[0.0664,48.5071],[0.0669,48.5101],[0.0627,48.5077]]]}},{"type":"Feature","properties":{"name":"Bois Ballu"},"geometry":{"type":"Polygon","coordinates":[[[-0.0379,48.5806],[-0.0342,48.5825],[-0.0345,48.5844],[-0.0331,48.5848],[-0.0347,48.5872],[-0.0373,48.5871],[-0.0372,48.5880],[-0.0309,48.5878],[-0.0326,48.5905],[-0.0341,48.5905],[-0.0345,48.5928],[-0.0385,48.5930],[-0.0391,48.5948],[-0.0353,48.5953],[-0.0330,48.5996],[-0.0296,48.6004],[-0.0293,48.6023],[-0.0441,48.6054],[-0.0448,48.6084],[-0.0513,48.6065],[-0.0519,48.6049],[-0.0491,48.6040],[-0.0493,48.6031],[-0.0540,48.5984],[-0.0612,48.5990],[-0.0618,48.6016],[-0.0605,48.6040],[-0.0614,48.6055],[-0.0558,48.6076],[-0.0527,48.6112],[-0.0531,48.6151],[-0.0570,48.6184],[-0.0476,48.6196],[-0.0473,48.6185],[-0.0444,48.6184],[-0.0441,48.6169],[-0.0409,48.6170],[-0.0398,48.6148],[-0.0386,48.6159],[-0.0346,48.6137],[-0.0301,48.6159],[-0.0277,48.6223],[-0.0195,48.6228],[-0.0207,48.6258],[-0.0191,48.6228],[-0.0137,48.6246],[-0.0127,48.6263],[-0.0130,48.6244],[-0.0157,48.6236],[-0.0147,48.6219],[-0.0093,48.6246],[-0.0084,48.6270],[-0.0063,48.6266],[-0.0034,48.6283],[-0.0043,48.6349],[0.0077,48.6292],[0.0084,48.6327],[0.0125,48.6319],[0.0126,48.6336],[0.0156,48.6336],[0.0157,48.6348],[0.0222,48.6345],[0.0247,48.6322],[0.0219,48.6297],[0.0230,48.6291],[0.0219,48.6282],[0.0236,48.6270],[0.0196,48.6282],[0.0215,48.6260],[0.0188,48.6235],[0.0228,48.6220],[0.0194,48.6210],[0.0269,48.6191],[0.0273,48.6162],[0.0323,48.6177],[0.0345,48.6154],[0.0282,48.6119],[0.0211,48.6151],[0.0105,48.6125],[0.0095,48.6101],[0.0167,48.6103],[0.0160,48.6078],[0.0122,48.6082],[0.0119,48.6068],[0.0152,48.6056],[0.0156,48.6067],[0.0185,48.6066],[0.0151,48.6049],[0.0153,48.6017],[0.0119,48.6007],[0.0150,48.5998],[0.0137,48.5995],[0.0133,48.5963],[0.0101,48.5961],[0.0024,48.5998],[0.0026,48.6031],[0.0002,48.6033],[-0.0006,48.5974],[-0.0069,48.5980],[-0.0069,48.5993],[-0.0089,48.5994],[-0.0106,48.5966],[-0.0065,48.5960],[-0.0057,48.5968],[-0.0054,48.5944],[-0.0119,48.5954],[-0.0113,48.5938],[-0.0019,48.5927],[-0.0011,48.5948],[0.0011,48.5943],[0.0003,48.5922],[0.0110,48.5915],[0.0119,48.5833],[0.0138,48.5814],[0.0120,48.5794],[0.0071,48.5785],[-0.0086,48.5809],[-0.0092,48.5786],[-0.0159,48.5787],[-0.0180,48.5751],[-0.0239,48.5766],[-0.0229,48.5730],[-0.0255,48.5731],[-0.0259,48.5814],[-0.0379,48.5806]]]}},{"type":"Feature","properties":{"name":"Forêt domaniale de Bellême"},"geometry":{"type":"Polygon","coordinates":[[[0.5035,48.4203],[0.5117,48.4172],[0.5130,48.4140],[0.5099,48.4125],[0.5126,48.4109],[0.5126,48.4085],[0.5092,48.4095],[0.5089,48.4086],[0.5133,48.4072],[0.5105,48.4043],[0.5113,48.4038],[0.5164,48.4083],[0.5263,48.4112],[0.5286,48.4106],[0.5204,48.4086],[0.5206,48.4070],[0.5158,48.4068],[0.5137,48.4043],[0.5150,48.4038],[0.5144,48.4021],[0.5159,48.4020],[0.5153,48.3998],[0.5226,48.4016],[0.5249,48.4044],[0.5277,48.4050],[0.5276,48.4093],[0.5345,48.4116],[0.5398,48.4109],[0.5386,48.4099],[0.5423,48.4055],[0.5439,48.4064],[0.5498,48.4045],[0.5476,48.4000],[0.5465,48.3992],[0.5455,48.4001],[0.5441,48.3987],[0.5446,48.3971],[0.5484,48.3979],[0.5512,48.4003],[0.5528,48.3983],[0.5529,48.3957],[0.5672,48.3984],[0.5648,48.4033],[0.5569,48.4072],[0.5568,48.4089],[0.5528,48.4053],[0.5487,48.4058],[0.5427,48.4084],[0.5398,48.4110],[0.5480,48.4142],[0.5565,48.4131],[0.5579,48.4114],[0.5591,48.4127],[0.5732,48.4132],[0.5767,48.4118],[0.5792,48.4127],[0.5779,48.4111],[0.5798,48.4119],[0.5821,48.4097],[0.5808,48.4094],[0.5834,48.4081],[0.5813,48.4034],[0.5863,48.4024],[0.5849,48.4016],[0.5882,48.3982],[0.5921,48.3996],[0.5955,48.3965],[0.5907,48.3957],[0.5919,48.3943],[0.5878,48.3927],[0.5800,48.3935],[0.5732,48.3911],[0.5675,48.3910],[0.5656,48.3858],[0.5604,48.3874],[0.5581,48.3865],[0.5547,48.3889],[0.5515,48.3868],[0.5427,48.3878],[0.5407,48.3847],[0.5375,48.3838],[0.5369,48.3828],[0.5387,48.3816],[0.5348,48.3806],[0.5299,48.3814],[0.5261,48.3803],[0.5176,48.3830],[0.5170,48.3819],[0.5129,48.3826],[0.5076,48.3810],[0.5075,48.3794],[0.5020,48.3783],[0.5020,48.3794],[0.4980,48.3801],[0.4952,48.3823],[0.4923,48.3826],[0.4922,48.3810],[0.4853,48.3814],[0.4789,48.3848],[0.4674,48.3843],[0.4637,48.3817],[0.4599,48.3843],[0.4586,48.3832],[0.4594,48.3847],[0.4568,48.3852],[0.4608,48.3878],[0.4638,48.3879],[0.4639,48.3918],[0.4496,48.3921],[0.4518,48.3935],[0.4495,48.3948],[0.4553,48.3963],[0.4568,48.3954],[0.4542,48.3937],[0.4696,48.3931],[0.4732,48.3941],[0.4782,48.3926],[0.4808,48.3963],[0.4732,48.3960],[0.4716,48.3985],[0.4717,48.4026],[0.4652,48.4026],[0.4671,48.4043],[0.4664,48.4061],[0.4742,48.4050],[0.4826,48.4079],[0.4875,48.4069],[0.4858,48.4060],[0.4885,48.4062],[0.4893,48.4078],[0.4982,48.4067],[0.4999,48.4093],[0.5021,48.4101],[0.5079,48.4100],[0.5064,48.4132],[0.5040,48.4124],[0.5054,48.4111],[0.5029,48.4115],[0.5024,48.4139],[0.5012,48.4144],[0.5017,48.4154],[0.5026,48.4142],[0.5023,48.4157],[0.5047,48.4171],[0.5066,48.4159],[0.5098,48.4178],[0.5079,48.4185],[0.5043,48.4174],[0.5012,48.4196],[0.5021,48.4209],[0.5035,48.4203]]]}},{"type":"Feature","properties":{"name":"Bois des Sicots"},"geometry":{"type":"Polygon","coordinates":[[[0.7334,48.5100],[0.7406,48.5093],[0.7459,48.5052],[0.7448,48.5038],[0.7458,48.5026],[0.7500,48.5027],[0.7524,48.5055],[0.7545,48.5012],[0.7579,48.5022],[0.7552,48.5041],[0.7552,48.5072],[0.7580,48.5060],[0.7568,48.5038],[0.7583,48.5034],[0.7592,48.5049],[0.7617,48.5027],[0.7627,48.5050],[0.7617,48.5063],[0.7651,48.5062],[0.7655,48.5083],[0.7671,48.5083],[0.7696,48.5052],[0.7644,48.5055],[0.7643,48.5039],[0.7632,48.5039],[0.7622,48.4979],[0.7658,48.4967],[0.7616,48.4951],[0.7600,48.4959],[0.7597,48.4986],[0.7618,48.5000],[0.7558,48.4996],[0.7568,48.4986],[0.7550,48.4983],[0.7597,48.4943],[0.7515,48.4964],[0.7484,48.4997],[0.7429,48.5022],[0.7443,48.5029],[0.7428,48.5042],[0.7268,48.4987],[0.7263,48.4995],[0.7304,48.5013],[0.7424,48.5044],[0.7394,48.5070],[0.7369,48.5044],[0.7312,48.5052],[0.7312,48.5035],[0.7293,48.5028],[0.7250,48.5039],[0.7319,48.5068],[0.7357,48.5063],[0.7359,48.5076],[0.7334,48.5080],[0.7341,48.5087],[0.7323,48.5095],[0.7324,48.5082],[0.7272,48.5057],[0.7205,48.5044],[0.7212,48.5036],[0.7184,48.5019],[0.7150,48.5020],[0.7098,48.4974],[0.7079,48.4979],[0.7072,48.5015],[0.7094,48.5065],[0.7085,48.5073],[0.7161,48.5130],[0.7178,48.5114],[0.7159,48.5111],[0.7128,48.5075],[0.7097,48.5028],[0.7093,48.4997],[0.7106,48.4996],[0.7142,48.5039],[0.7164,48.5034],[0.7167,48.5048],[0.7180,48.5035],[0.7200,48.5062],[0.7244,48.5058],[0.7236,48.5073],[0.7246,48.5082],[0.7265,48.5072],[0.7307,48.5085],[0.7306,48.5100],[0.7334,48.5100]]]}},{"type":"Feature","properties":{"name":"Forêt Domaniale de Bourse"},"geometry":{"type":"Polygon","coordinates":[[[0.2501,48.5234],[0.2486,48.5167],[0.2624,48.5157],[0.2620,48.5095],[0.2575,48.5092],[0.2573,48.5071],[0.2548,48.5073],[0.2545,48.5063],[0.2567,48.5061],[0.2567,48.5050],[0.2543,48.5001],[0.2414,48.4903],[0.2384,48.4826],[0.2350,48.4829],[0.2321,48.4854],[0.2330,48.4873],[0.2313,48.4876],[0.2323,48.4904],[0.2292,48.4916],[0.2304,48.4916],[0.2324,48.4954],[0.2354,48.4952],[0.2388,48.4972],[0.2432,48.5099],[0.2426,48.5107],[0.2444,48.5118],[0.2442,48.5168],[0.2399,48.5199],[0.2408,48.5257],[0.2501,48.5234]]]}},{"type":"Feature","properties":{"name":"Bois de la Boyère"},"geometry":{"type":"Polygon","coordinates":[[[0.2501,48.5234],[0.2486,48.5167],[0.2624,48.5157],[0.2620,48.5095],[0.2575,48.5092],[0.2573,48.5071],[0.2548,48.5073],[0.2545,48.5063],[0.2567,48.5061],[0.2567,48.5050],[0.2543,48.5001],[0.2414,48.4903],[0.2384,48.4826],[0.2350,48.4829],[0.2321,48.4854],[0.2330,48.4873],[0.2313,48.4876],[0.2323,48.4904],[0.2292,48.4916],[0.2304,48.4916],[0.2324,48.4954],[0.2354,48.4952],[0.2388,48.4972],[0.2432,48.5099],[0.2426,48.5107],[0.2444,48.5118],[0.2442,48.5168],[0.2399,48.5199],[0.2408,48.5257],[0.2501,48.5234]]]}},{"type":"Feature","properties":{"name":"Forêt de la Lande Pourrie"},"geometry":{"type":"Polygon","coordinates":[[[-0.8337,48.6390],[-0.8317,48.6359],[-0.8386,48.6323],[-0.8324,48.6326],[-0.8313,48.6289],[-0.8333,48.6315],[-0.8349,48.6309],[-0.8344,48.6292],[-0.8369,48.6290],[-0.8362,48.6271],[-0.8383,48.6266],[-0.8422,48.6289],[-0.8437,48.6281],[-0.8501,48.6296],[-0.8513,48.6275],[-0.8507,48.6259],[-0.8520,48.6264],[-0.8524,48.6235],[-0.8544,48.6213],[-0.8557,48.6213],[-0.8540,48.6233],[-0.8552,48.6273],[-0.8516,48.6292],[-0.8501,48.6358],[-0.8563,48.6339],[-0.8548,48.6326],[-0.8672,48.6260],[-0.8688,48.6258],[-0.8716,48.6280],[-0.8759,48.6259],[-0.8791,48.6259],[-0.8788,48.6247],[-0.8758,48.6253],[-0.8697,48.6236],[-0.8727,48.6221],[-0.8797,48.6229],[-0.8823,48.6248],[-0.8839,48.6245],[-0.8846,48.6228],[-0.8877,48.6223],[-0.8905,48.6243],[-0.8894,48.6260],[-0.8877,48.6245],[-0.8859,48.6261],[-0.8937,48.6277],[-0.8947,48.6275],[-0.8937,48.6260],[-0.8946,48.6240],[-0.8955,48.6269],[-0.8980,48.6263],[-0.8971,48.6276],[-0.9011,48.6306],[-0.8962,48.6342],[-0.8889,48.6356],[-0.8851,48.6399],[-0.8859,48.6419],[-0.8838,48.6422],[-0.8804,48.6401],[-0.8771,48.6419],[-0.8767,48.6398],[-0.8740,48.6391],[-0.8776,48.6382],[-0.8768,48.6355],[-0.8723,48.6364],[-0.8730,48.6373],[-0.8671,48.6364],[-0.8646,48.6391],[-0.8618,48.6400],[-0.8558,48.6387],[-0.8564,48.6380],[-0.8512,48.6382],[-0.8479,48.6359],[-0.8474,48.6379],[-0.8439,48.6394],[-0.8397,48.6375],[-0.8337,48.6390]]]}},{"type":"Feature","properties":{"name":"Bois de Rânes"},"geometry":{"type":"Polygon","coordinates":[[[-0.2013,48.6652],[-0.1963,48.6623],[-0.1876,48.6627],[-0.1877,48.6612],[-0.1907,48.6600],[-0.1934,48.6612],[-0.1934,48.6591],[-0.1948,48.6602],[-0.1977,48.6591],[-0.2078,48.6600],[-0.2103,48.6613],[-0.2121,48.6596],[-0.2108,48.6584],[-0.2112,48.6561],[-0.2134,48.6562],[-0.2167,48.6534],[-0.2196,48.6546],[-0.2233,48.6532],[-0.2265,48.6592],[-0.2238,48.6599],[-0.2197,48.6633],[-0.2221,48.6641],[-0.2209,48.6686],[-0.2165,48.6709],[-0.2111,48.6700],[-0.2013,48.6652]]]}},{"type":"Feature","properties":{"name":"Bois de Monthard"},"geometry":{"type":"Polygon","coordinates":[[[-0.1877,48.5679],[-0.1859,48.5675],[-0.1848,48.5688],[-0.1818,48.5662],[-0.1859,48.5650],[-0.1823,48.5637],[-0.1859,48.5628],[-0.1853,48.5619],[-0.1871,48.5602],[-0.1807,48.5615],[-0.1760,48.5569],[-0.1748,48.5520],[-0.1750,48.5490],[-0.1766,48.5485],[-0.1740,48.5463],[-0.1725,48.5464],[-0.1737,48.5439],[-0.1818,48.5454],[-0.1837,48.5433],[-0.1841,48.5462],[-0.1899,48.5489],[-0.1953,48.5555],[-0.1938,48.5553],[-0.1943,48.5573],[-0.1899,48.5622],[-0.1926,48.5630],[-0.1940,48.5650],[-0.1935,48.5671],[-0.1877,48.5679]]]}},{"type":"Feature","properties":{"name":"Forêt de Monnaie"},"geometry":{"type":"Polygon","coordinates":[[[-0.2043,48.5259],[-0.1999,48.5242],[-0.1998,48.5225],[-0.2067,48.5212],[-0.2059,48.5171],[-0.2097,48.5178],[-0.2070,48.5146],[-0.2038,48.5146],[-0.2022,48.5172],[-0.1989,48.5176],[-0.1955,48.5117],[-0.1976,48.5114],[-0.1978,48.5096],[-0.2054,48.5099],[-0.2080,48.5077],[-0.2157,48.5064],[-0.2146,48.5036],[-0.2243,48.5013],[-0.2263,48.5088],[-0.2200,48.5103],[-0.2223,48.5160],[-0.2198,48.5162],[-0.2187,48.5136],[-0.2161,48.5139],[-0.2168,48.5162],[-0.2150,48.5164],[-0.2158,48.5182],[-0.2193,48.5171],[-0.2210,48.5198],[-0.2175,48.5198],[-0.2172,48.5208],[-0.2129,48.5192],[-0.2128,48.5211],[-0.2103,48.5211],[-0.2111,48.5233],[-0.2077,48.5250],[-0.2086,48.5275],[-0.2042,48.5276],[-0.2043,48.5259]]]}},{"type":"Feature","properties":{"name":"Bois de Buleu"},"geometry":{"type":"Polygon","coordinates":[[[-0.4697,48.3516],[-0.4757,48.3490],[-0.4769,48.3446],[-0.4714,48.3468],[-0.4704,48.3484],[-0.4655,48.3496],[-0.4632,48.3479],[-0.4660,48.3464],[-0.4585,48.3459],[-0.4551,48.3414],[-0.4559,48.3355],[-0.4588,48.3332],[-0.4591,48.3314],[-0.4611,48.3311],[-0.4608,48.3296],[-0.4587,48.3289],[-0.4601,48.3283],[-0.4631,48.3286],[-0.4638,48.3306],[-0.4683,48.3282],[-0.4700,48.3296],[-0.4699,48.3316],[-0.4723,48.3326],[-0.4698,48.3332],[-0.4710,48.3344],[-0.4691,48.3354],[-0.4593,48.3358],[-0.4601,48.3394],[-0.4631,48.3422],[-0.4714,48.3417],[-0.4758,48.3423],[-0.4772,48.3437],[-0.4825,48.3429],[-0.4855,48.3438],[-0.4820,48.3489],[-0.4736,48.3517],[-0.4697,48.3516]]]}},{"type":"Feature","properties":{"name":"Forêt de la Motte"},"geometry":{"type":"Polygon","coordinates":[[[-0.2848,48.5315],[-0.2888,48.5274],[-0.2876,48.5258],[-0.2664,48.5218],[-0.2698,48.5194],[-0.2613,48.5162],[-0.2645,48.5152],[-0.2688,48.5177],[-0.2821,48.5202],[-0.2853,48.5195],[-0.2892,48.5251],[-0.2934,48.5227],[-0.2999,48.5253],[-0.3025,48.5251],[-0.3038,48.5233],[-0.3077,48.5240],[-0.3115,48.5201],[-0.3166,48.5245],[-0.3217,48.5251],[-0.3228,48.5295],[-0.3178,48.5307],[-0.3117,48.5361],[-0.3087,48.5364],[-0.3103,48.5377],[-0.3077,48.5368],[-0.3048,48.5381],[-0.3065,48.5358],[-0.3015,48.5333],[-0.2893,48.5329],[-0.2882,48.5343],[-0.2848,48.5315]]]}},{"type":"Feature","properties":{"name":"Forêt de Bourgon"},"geometry":{"type":"Polygon","coordinates":[[[-0.5753,48.2476],[-0.5670,48.2467],[-0.5618,48.2493],[-0.5483,48.2450],[-0.5457,48.2452],[-0.5449,48.2470],[-0.5299,48.2481],[-0.5240,48.2427],[-0.5237,48.2371],[-0.5271,48.2339],[-0.5333,48.2225],[-0.5372,48.2228],[-0.5324,48.2334],[-0.5370,48.2331],[-0.5410,48.2305],[-0.5426,48.2314],[-0.5480,48.2300],[-0.5538,48.2307],[-0.5543,48.2268],[-0.5555,48.2262],[-0.5582,48.2271],[-0.5622,48.2256],[-0.5629,48.2263],[-0.5659,48.2238],[-0.5724,48.2234],[-0.5700,48.2211],[-0.5641,48.2229],[-0.5658,48.2209],[-0.5652,48.2195],[-0.5634,48.2224],[-0.5587,48.2227],[-0.5594,48.2211],[-0.5606,48.2214],[-0.5554,48.2167],[-0.5636,48.2178],[-0.5672,48.2152],[-0.5715,48.2158],[-0.5785,48.2135],[-0.5780,48.2127],[-0.5807,48.2109],[-0.5836,48.2105],[-0.5839,48.2081],[-0.5858,48.2099],[-0.5844,48.2015],[-0.5916,48.2008],[-0.5933,48.2022],[-0.5920,48.2023],[-0.5926,48.2034],[-0.5996,48.2057],[-0.5985,48.2065],[-0.5998,48.2070],[-0.5961,48.2095],[-0.5853,48.2102],[-0.5893,48.2179],[-0.5873,48.2228],[-0.5915,48.2227],[-0.5953,48.2249],[-0.5954,48.2262],[-0.5925,48.2322],[-0.5874,48.2316],[-0.5864,48.2303],[-0.5804,48.2318],[-0.5762,48.2310],[-0.5774,48.2344],[-0.5829,48.2339],[-0.5860,48.2360],[-0.5855,48.2372],[-0.5782,48.2376],[-0.5796,48.2413],[-0.5786,48.2449],[-0.5801,48.2458],[-0.5821,48.2448],[-0.5829,48.2469],[-0.5753,48.2476]]]}},{"type":"Feature","properties":{"name":"Bois de Feuillet"},"geometry":{"type":"Polygon","coordinates":[[[-0.0646,48.8350],[-0.0654,48.8342],[-0.0627,48.8332],[-0.0640,48.8320],[-0.0541,48.8272],[-0.0559,48.8257],[-0.0586,48.8280],[-0.0624,48.8288],[-0.0612,48.8302],[-0.0679,48.8309],[-0.0694,48.8297],[-0.0681,48.8279],[-0.0751,48.8236],[-0.0720,48.8228],[-0.0700,48.8244],[-0.0688,48.8233],[-0.0638,48.8244],[-0.0624,48.8267],[-0.0605,48.8261],[-0.0610,48.8234],[-0.0573,48.8199],[-0.0528,48.8250],[-0.0481,48.8234],[-0.0480,48.8251],[-0.0517,48.8264],[-0.0506,48.8277],[-0.0490,48.8263],[-0.0483,48.8279],[-0.0487,48.8265],[-0.0437,48.8251],[-0.0424,48.8265],[-0.0403,48.8259],[-0.0418,48.8229],[-0.0447,48.8238],[-0.0455,48.8226],[-0.0407,48.8199],[-0.0450,48.8169],[-0.0450,48.8188],[-0.0478,48.8196],[-0.0492,48.8180],[-0.0511,48.8189],[-0.0581,48.8155],[-0.0592,48.8161],[-0.0581,48.8168],[-0.0658,48.8196],[-0.0703,48.8204],[-0.0714,48.8194],[-0.0763,48.8209],[-0.0750,48.8222],[-0.0776,48.8232],[-0.0807,48.8224],[-0.0795,48.8245],[-0.0824,48.8258],[-0.0805,48.8274],[-0.0848,48.8289],[-0.0885,48.8232],[-0.0910,48.8258],[-0.0960,48.8272],[-0.0949,48.8283],[-0.0926,48.8279],[-0.0939,48.8291],[-0.0923,48.8307],[-0.0919,48.8293],[-0.0895,48.8286],[-0.0878,48.8312],[-0.0858,48.8308],[-0.0852,48.8324],[-0.0872,48.8329],[-0.0864,48.8345],[-0.0844,48.8341],[-0.0843,48.8357],[-0.0762,48.8329],[-0.0743,48.8358],[-0.0708,48.8357],[-0.0708,48.8367],[-0.0706,48.8357],[-0.0646,48.8350]]]}},{"type":"Feature","properties":{"name":"Forêt de Salair"},"geometry":{"type":"Polygon","coordinates":[[[-0.6755,48.2914],[-0.6757,48.2897],[-0.6706,48.2892],[-0.6692,48.2867],[-0.6715,48.2822],[-0.6817,48.2811],[-0.6806,48.2792],[-0.6814,48.2787],[-0.6771,48.2764],[-0.6772,48.2719],[-0.6909,48.2733],[-0.6939,48.2745],[-0.6916,48.2757],[-0.6946,48.2769],[-0.6999,48.2749],[-0.6996,48.2763],[-0.6954,48.2771],[-0.6990,48.2790],[-0.7054,48.2773],[-0.7055,48.2820],[-0.6999,48.2811],[-0.6987,48.2799],[-0.6915,48.2813],[-0.6906,48.2830],[-0.6930,48.2842],[-0.6907,48.2874],[-0.6921,48.2876],[-0.6914,48.2884],[-0.6929,48.2910],[-0.6877,48.2932],[-0.6871,48.2914],[-0.6834,48.2903],[-0.6778,48.2933],[-0.6755,48.2914]]]}},{"type":"Feature","properties":{"name":"Bois du Roi"},"geometry":{"type":"Polygon","coordinates":[[[-0.2697,48.9266],[-0.2641,48.9269],[-0.2611,48.9283],[-0.2603,48.9279],[-0.2624,48.9255],[-0.2580,48.9257],[-0.2582,48.9245],[-0.2538,48.9226],[-0.2504,48.9253],[-0.2472,48.9253],[-0.2501,48.9252],[-0.2510,48.9241],[-0.2504,48.9222],[-0.2485,48.9227],[-0.2477,48.9194],[-0.2442,48.9199],[-0.2429,48.9176],[-0.2408,48.9191],[-0.2322,48.9184],[-0.2284,48.9159],[-0.2289,48.9149],[-0.2273,48.9136],[-0.2314,48.9109],[-0.2308,48.9097],[-0.2320,48.9107],[-0.2311,48.9095],[-0.2323,48.9086],[-0.2331,48.9096],[-0.2342,48.9088],[-0.2334,48.9077],[-0.2344,48.9069],[-0.2393,48.9063],[-0.2370,48.9050],[-0.2403,48.9052],[-0.2414,48.9036],[-0.2405,48.9053],[-0.2417,48.9058],[-0.2432,48.9034],[-0.2458,48.9044],[-0.2425,48.9061],[-0.2464,48.9066],[-0.2484,48.9043],[-0.2493,48.9055],[-0.2481,48.9068],[-0.2501,48.9072],[-0.2519,48.9049],[-0.2530,48.9061],[-0.2519,48.9075],[-0.2556,48.9095],[-0.2600,48.9097],[-0.2612,48.9076],[-0.2667,48.9084],[-0.2654,48.9102],[-0.2664,48.9106],[-0.2639,48.9106],[-0.2624,48.9121],[-0.2627,48.9145],[-0.2741,48.9214],[-0.2730,48.9247],[-0.2697,48.9266]]]}},{"type":"Feature","properties":{"name":"Forêt de Saint-Clair"},"geometry":{"type":"Polygon","coordinates":[[[-0.6163,48.7008],[-0.6186,48.7014],[-0.6193,48.7001],[-0.6227,48.7012],[-0.6236,48.7000],[-0.6248,48.7004],[-0.6245,48.7038],[-0.6256,48.7038],[-0.6269,48.7016],[-0.6300,48.7036],[-0.6312,48.7020],[-0.6340,48.7026],[-0.6334,48.7033],[-0.6346,48.7041],[-0.6396,48.7042],[-0.6397,48.7031],[-0.6441,48.7021],[-0.6467,48.6974],[-0.6507,48.6981],[-0.6503,48.6974],[-0.6536,48.6971],[-0.6515,48.6982],[-0.6543,48.6972],[-0.6563,48.6992],[-0.6547,48.6976],[-0.6561,48.6977],[-0.6554,48.6972],[-0.6586,48.6948],[-0.6552,48.6966],[-0.6535,48.6941],[-0.6526,48.6951],[-0.6510,48.6937],[-0.6447,48.6942],[-0.6453,48.6933],[-0.6430,48.6925],[-0.6403,48.6930],[-0.6404,48.6917],[-0.6374,48.6926],[-0.6374,48.6913],[-0.6390,48.6917],[-0.6383,48.6905],[-0.6343,48.6919],[-0.6305,48.6917],[-0.6299,48.6927],[-0.6281,48.6927],[-0.6284,48.6907],[-0.6271,48.6915],[-0.6284,48.6932],[-0.6355,48.6948],[-0.6337,48.6974],[-0.6360,48.6981],[-0.6368,48.6969],[-0.6408,48.6982],[-0.6400,48.6994],[-0.6353,48.6987],[-0.6257,48.6945],[-0.6274,48.6931],[-0.6236,48.6917],[-0.6258,48.6900],[-0.6188,48.6889],[-0.6177,48.6878],[-0.6187,48.6864],[-0.6160,48.6865],[-0.6167,48.6847],[-0.6104,48.6852],[-0.6083,48.6846],[-0.6088,48.6831],[-0.6067,48.6827],[-0.6054,48.6843],[-0.6044,48.6829],[-0.6003,48.6843],[-0.5989,48.6861],[-0.5957,48.6837],[-0.5941,48.6847],[-0.5951,48.6851],[-0.5917,48.6851],[-0.5911,48.6862],[-0.5898,48.6851],[-0.5879,48.6855],[-0.5899,48.6863],[-0.5895,48.6872],[-0.5855,48.6875],[-0.5843,48.6889],[-0.5925,48.6916],[-0.5886,48.6948],[-0.5932,48.6961],[-0.5921,48.6974],[-0.5935,48.6979],[-0.5926,48.6991],[-0.5943,48.6996],[-0.5960,48.6981],[-0.5970,48.6989],[-0.5961,48.7001],[-0.6009,48.7008],[-0.5996,48.7014],[-0.6032,48.7025],[-0.6017,48.7045],[-0.6039,48.7027],[-0.6093,48.7043],[-0.6121,48.7007],[-0.6161,48.7020],[-0.6163,48.7008]]]}},{"type":"Feature","properties":{"name":"Forêt de Mayenne"},"geometry":{"type":"Polygon","coordinates":[[[-0.7649,48.2916],[-0.7642,48.2913],[-0.7717,48.2849],[-0.7780,48.2816],[-0.7774,48.2808],[-0.7866,48.2772],[-0.7878,48.2754],[-0.7841,48.2742],[-0.7784,48.2746],[-0.7741,48.2702],[-0.7729,48.2700],[-0.7723,48.2713],[-0.7650,48.2706],[-0.7602,48.2694],[-0.7604,48.2686],[-0.7676,48.2695],[-0.7700,48.2683],[-0.7711,48.2660],[-0.7751,48.2674],[-0.7766,48.2666],[-0.7765,48.2652],[-0.7830,48.2641],[-0.7825,48.2629],[-0.7846,48.2603],[-0.7950,48.2578],[-0.7993,48.2541],[-0.8018,48.2540],[-0.8012,48.2527],[-0.8025,48.2522],[-0.8003,48.2501],[-0.8078,48.2499],[-0.8098,48.2475],[-0.8080,48.2466],[-0.8046,48.2473],[-0.8091,48.2455],[-0.8071,48.2426],[-0.8085,48.2421],[-0.8103,48.2440],[-0.8143,48.2448],[-0.8138,48.2476],[-0.8080,48.2516],[-0.8102,48.2534],[-0.8127,48.2532],[-0.8115,48.2524],[-0.8133,48.2509],[-0.8126,48.2496],[-0.8144,48.2493],[-0.8155,48.2485],[-0.8151,48.2470],[-0.8180,48.2457],[-0.8169,48.2440],[-0.8136,48.2429],[-0.8191,48.2397],[-0.8189,48.2378],[-0.8206,48.2376],[-0.8205,48.2361],[-0.8219,48.2365],[-0.8242,48.2335],[-0.8247,48.2306],[-0.8279,48.2312],[-0.8289,48.2296],[-0.8269,48.2269],[-0.8316,48.2253],[-0.8348,48.2219],[-0.8477,48.2268],[-0.8490,48.2255],[-0.8432,48.2231],[-0.8451,48.2213],[-0.8495,48.2211],[-0.8492,48.2199],[-0.8468,48.2193],[-0.8464,48.2210],[-0.8429,48.2143],[-0.8372,48.2142],[-0.8406,48.2128],[-0.8400,48.2109],[-0.8453,48.2121],[-0.8478,48.2164],[-0.8536,48.2185],[-0.8529,48.2195],[-0.8563,48.2198],[-0.8541,48.2231],[-0.8539,48.2272],[-0.8552,48.2285],[-0.8513,48.2301],[-0.8526,48.2353],[-0.8446,48.2403],[-0.8454,48.2458],[-0.8445,48.2494],[-0.8403,48.2506],[-0.8425,48.2519],[-0.8408,48.2519],[-0.8413,48.2538],[-0.8393,48.2582],[-0.8338,48.2618],[-0.8368,48.2645],[-0.8357,48.2648],[-0.8366,48.2689],[-0.8397,48.2695],[-0.8363,48.2738],[-0.8239,48.2788],[-0.8224,48.2809],[-0.8163,48.2840],[-0.8173,48.2855],[-0.8109,48.2852],[-0.8102,48.2861],[-0.8133,48.2874],[-0.8138,48.2928],[-0.8134,48.2937],[-0.8110,48.2932],[-0.8110,48.2894],[-0.8075,48.2889],[-0.8070,48.2907],[-0.8100,48.2936],[-0.8061,48.2941],[-0.8080,48.2956],[-0.8070,48.2972],[-0.8041,48.2967],[-0.7917,48.2995],[-0.7875,48.3016],[-0.7859,48.3008],[-0.7800,48.3018],[-0.7814,48.3037],[-0.7864,48.3045],[-0.7887,48.3068],[-0.7879,48.3092],[-0.7907,48.3099],[-0.7900,48.3140],[-0.7834,48.3141],[-0.7809,48.3162],[-0.7745,48.3177],[-0.7719,48.3145],[-0.7687,48.3150],[-0.7693,48.3182],[-0.7723,48.3182],[-0.7711,48.3205],[-0.7694,48.3206],[-0.7689,48.3237],[-0.7633,48.3198],[-0.7650,48.3194],[-0.7638,48.3159],[-0.7534,48.3181],[-0.7494,48.3147],[-0.7608,48.3119],[-0.7593,48.3086],[-0.7503,48.3065],[-0.7477,48.3081],[-0.7438,48.3070],[-0.7420,48.3088],[-0.7397,48.3075],[-0.7405,48.3060],[-0.7466,48.3059],[-0.7477,48.3037],[-0.7465,48.3031],[-0.7449,48.3048],[-0.7405,48.3052],[-0.7416,48.2975],[-0.7568,48.2947],[-0.7594,48.2967],[-0.7568,48.2974],[-0.7589,48.2983],[-0.7642,48.2950],[-0.7643,48.2925],[-0.7596,48.2939],[-0.7577,48.2931],[-0.7649,48.2916]]]}},{"type":"Feature","properties":{"name":"Bois de Buron"},"geometry":{"type":"Polygon","coordinates":[[[-0.7121,48.9924],[-0.7149,48.9920],[-0.7151,48.9936],[-0.7069,48.9985],[-0.7143,49.0001],[-0.7178,48.9986],[-0.7193,48.9992],[-0.7130,49.0021],[-0.7135,49.0032],[-0.7079,49.0024],[-0.7076,49.0036],[-0.7047,49.0038],[-0.7018,49.0023],[-0.6965,49.0035],[-0.6908,49.0069],[-0.6817,49.0082],[-0.6844,49.0069],[-0.6821,49.0047],[-0.6672,49.0033],[-0.6688,49.0018],[-0.6752,49.0017],[-0.6722,49.0008],[-0.6724,48.9996],[-0.6905,48.9982],[-0.6901,48.9991],[-0.6922,48.9997],[-0.6934,48.9991],[-0.6919,48.9988],[-0.6930,48.9975],[-0.7025,48.9988],[-0.7031,48.9979],[-0.7016,48.9974],[-0.7015,48.9952],[-0.7121,48.9924]]]}},{"type":"Feature","properties":{"name":"Forêt de Pail"},"geometry":{"type":"Polygon","coordinates":[[[-0.1576,48.3328],[-0.1604,48.3309],[-0.1601,48.3320],[-0.1640,48.3319],[-0.1642,48.3308],[-0.1718,48.3310],[-0.1720,48.3322],[-0.1709,48.3318],[-0.1716,48.3336],[-0.1742,48.3327],[-0.1763,48.3344],[-0.1797,48.3344],[-0.1771,48.3351],[-0.1808,48.3363],[-0.1800,48.3366],[-0.1855,48.3375],[-0.1864,48.3374],[-0.1851,48.3366],[-0.1858,48.3346],[-0.1894,48.3324],[-0.1931,48.3346],[-0.1897,48.3347],[-0.1886,48.3364],[-0.1957,48.3378],[-0.1958,48.3387],[-0.1924,48.3394],[-0.1969,48.3411],[-0.1999,48.3393],[-0.1985,48.3367],[-0.2064,48.3375],[-0.2086,48.3350],[-0.2147,48.3361],[-0.2091,48.3359],[-0.2069,48.3383],[-0.2109,48.3362],[-0.2161,48.3379],[-0.2099,48.3374],[-0.2077,48.3400],[-0.2026,48.3387],[-0.1996,48.3399],[-0.2006,48.3424],[-0.1981,48.3437],[-0.2068,48.3469],[-0.2079,48.3489],[-0.2098,48.3487],[-0.2078,48.3514],[-0.2059,48.3510],[-0.2063,48.3502],[-0.2049,48.3510],[-0.2076,48.3532],[-0.2073,48.3545],[-0.2088,48.3549],[-0.2085,48.3601],[-0.2111,48.3580],[-0.2152,48.3592],[-0.2050,48.3675],[-0.2028,48.3659],[-0.1937,48.3743],[-0.1899,48.3745],[-0.1884,48.3734],[-0.1896,48.3727],[-0.1886,48.3720],[-0.1760,48.3653],[-0.1762,48.3633],[-0.1718,48.3634],[-0.1685,48.3619],[-0.1752,48.3569],[-0.1752,48.3550],[-0.1647,48.3555],[-0.1673,48.3513],[-0.1648,48.3485],[-0.1634,48.3480],[-0.1619,48.3491],[-0.1631,48.3507],[-0.1580,48.3513],[-0.1503,48.3463],[-0.1521,48.3446],[-0.1510,48.3435],[-0.1557,48.3430],[-0.1555,48.3417],[-0.1576,48.3403],[-0.1547,48.3377],[-0.1538,48.3352],[-0.1681,48.3346],[-0.1668,48.3332],[-0.1576,48.3328]]]}},{"type":"Feature","properties":{"name":"Forêt domaniale de Sillé-le-Guillaume"},"geometry":{"type":"Polygon","coordinates":[[[-0.2001,48.1835],[-0.2005,48.1848],[-0.1982,48.1854],[-0.1987,48.1867],[-0.1934,48.1873],[-0.1915,48.1862],[-0.1874,48.1878],[-0.1838,48.1907],[-0.1830,48.1920],[-0.1841,48.1925],[-0.1797,48.1940],[-0.1808,48.1957],[-0.1776,48.1969],[-0.1779,48.1979],[-0.1717,48.1995],[-0.1731,48.2002],[-0.1723,48.2020],[-0.1755,48.2025],[-0.1718,48.2059],[-0.1676,48.2052],[-0.1672,48.2082],[-0.1646,48.2105],[-0.1627,48.2110],[-0.1636,48.2100],[-0.1599,48.2080],[-0.1526,48.2109],[-0.1585,48.2150],[-0.1545,48.2169],[-0.1528,48.2198],[-0.1501,48.2192],[-0.1454,48.2220],[-0.1449,48.2202],[-0.1383,48.2188],[-0.1255,48.2185],[-0.1254,48.2198],[-0.1191,48.2210],[-0.1147,48.2270],[-0.1125,48.2272],[-0.1161,48.2287],[-0.1066,48.2322],[-0.1030,48.2322],[-0.1034,48.2336],[-0.0957,48.2341],[-0.0946,48.2358],[-0.0906,48.2352],[-0.0876,48.2369],[-0.0818,48.2372],[-0.0782,48.2390],[-0.0708,48.2362],[-0.0698,48.2377],[-0.0665,48.2383],[-0.0682,48.2404],[-0.0660,48.2402],[-0.0628,48.2420],[-0.0633,48.2430],[-0.0615,48.2423],[-0.0576,48.2453],[-0.0412,48.2464],[-0.0466,48.2448],[-0.0492,48.2431],[-0.0484,48.2422],[-0.0500,48.2424],[-0.0485,48.2417],[-0.0531,48.2403],[-0.0540,48.2371],[-0.0589,48.2322],[-0.0583,48.2262],[-0.0569,48.2250],[-0.0548,48.2253],[-0.0565,48.2247],[-0.0558,48.2242],[-0.0513,48.2262],[-0.0493,48.2231],[-0.0452,48.2228],[-0.0452,48.2249],[-0.0416,48.2248],[-0.0441,48.2267],[-0.0431,48.2297],[-0.0379,48.2322],[-0.0333,48.2285],[-0.0301,48.2299],[-0.0249,48.2292],[-0.0250,48.2279],[-0.0271,48.2272],[-0.0261,48.2254],[-0.0268,48.2240],[-0.0292,48.2221],[-0.0282,48.2209],[-0.0298,48.2202],[-0.0287,48.2182],[-0.0248,48.2171],[-0.0287,48.2176],[-0.0305,48.2153],[-0.0351,48.2146],[-0.0317,48.2130],[-0.0371,48.2102],[-0.0369,48.2092],[-0.0406,48.2066],[-0.0427,48.2080],[-0.0467,48.2077],[-0.0484,48.2046],[-0.0537,48.2075],[-0.0526,48.2057],[-0.0595,48.2054],[-0.0628,48.2046],[-0.0619,48.2034],[-0.0642,48.2037],[-0.0668,48.2021],[-0.0681,48.2033],[-0.0678,48.2024],[-0.0712,48.2008],[-0.0742,48.2006],[-0.0758,48.2023],[-0.0748,48.2033],[-0.0757,48.2076],[-0.0810,48.2114],[-0.1025,48.2029],[-0.1061,48.2025],[-0.1005,48.2047],[-0.1097,48.2024],[-0.1064,48.2025],[-0.1069,48.2007],[-0.1103,48.2022],[-0.1179,48.2025],[-0.1188,48.2017],[-0.1173,48.2006],[-0.1186,48.1996],[-0.1209,48.2002],[-0.1196,48.2012],[-0.1213,48.2021],[-0.1233,48.2009],[-0.1270,48.2011],[-0.1291,48.1967],[-0.1336,48.1957],[-0.1383,48.1983],[-0.1313,48.2019],[-0.1268,48.2066],[-0.1235,48.2073],[-0.1268,48.2094],[-0.1280,48.2122],[-0.1340,48.2126],[-0.1377,48.2112],[-0.1335,48.2102],[-0.1302,48.2066],[-0.1305,48.2047],[-0.1382,48.2021],[-0.1399,48.1996],[-0.1462,48.1983],[-0.1491,48.1956],[-0.1544,48.1950],[-0.1564,48.1928],[-0.1600,48.1944],[-0.1626,48.1938],[-0.1661,48.1904],[-0.1632,48.1901],[-0.1661,48.1878],[-0.1642,48.1871],[-0.1694,48.1876],[-0.1697,48.1899],[-0.1775,48.1882],[-0.1808,48.1867],[-0.1821,48.1836],[-0.1878,48.1831],[-0.2033,48.1761],[-0.2231,48.1721],[-0.2205,48.1708],[-0.2231,48.1694],[-0.2220,48.1675],[-0.2146,48.1650],[-0.2223,48.1651],[-0.2282,48.1631],[-0.2323,48.1649],[-0.2381,48.1633],[-0.2409,48.1691],[-0.2382,48.1704],[-0.2371,48.1732],[-0.2301,48.1764],[-0.2284,48.1783],[-0.2294,48.1790],[-0.2230,48.1823],[-0.2070,48.1844],[-0.1994,48.1819],[-0.2001,48.1835]]]}},{"type":"Feature","properties":{"name":"Forêt de Multonne"},"geometry":{"type":"Polygon","coordinates":[[[-0.0626,48.4396],[-0.0739,48.4395],[-0.0708,48.4421],[-0.0716,48.4425],[-0.0780,48.4408],[-0.0796,48.4377],[-0.0807,48.4381],[-0.0799,48.4393],[-0.0837,48.4407],[-0.0821,48.4444],[-0.0834,48.4440],[-0.0840,48.4453],[-0.0870,48.4450],[-0.0853,48.4438],[-0.0875,48.4425],[-0.0908,48.4434],[-0.0964,48.4412],[-0.0999,48.4425],[-0.0965,48.4441],[-0.0963,48.4429],[-0.0830,48.4451],[-0.0817,48.4456],[-0.0833,48.4456],[-0.0821,48.4477],[-0.0831,48.4481],[-0.0973,48.4460],[-0.1061,48.4474],[-0.1049,48.4433],[-0.1066,48.4432],[-0.1060,48.4443],[-0.1092,48.4446],[-0.1072,48.4457],[-0.1080,48.4467],[-0.1110,48.4476],[-0.1090,48.4481],[-0.1196,48.4503],[-0.1167,48.4510],[-0.1186,48.4519],[-0.1168,48.4523],[-0.1156,48.4545],[-0.1193,48.4532],[-0.1208,48.4550],[-0.1190,48.4561],[-0.1227,48.4583],[-0.1231,48.4601],[-0.1197,48.4594],[-0.1177,48.4562],[-0.1170,48.4574],[-0.1148,48.4554],[-0.1080,48.4567],[-0.1081,48.4548],[-0.1046,48.4534],[-0.1043,48.4522],[-0.1024,48.4525],[-0.0997,48.4478],[-0.0921,48.4510],[-0.0903,48.4500],[-0.0759,48.4510],[-0.0728,48.4489],[-0.0760,48.4474],[-0.0759,48.4456],[-0.0719,48.4470],[-0.0693,48.4454],[-0.0715,48.4426],[-0.0696,48.4428],[-0.0626,48.4396]]]}},{"type":"Feature","properties":{"name":"Forêt de Multonne"},"geometry":{"type":"Polygon","coordinates":[[[-0.1550,48.4387],[-0.1560,48.4403],[-0.1590,48.4407],[-0.1580,48.4415],[-0.1589,48.4423],[-0.1629,48.4431],[-0.1619,48.4448],[-0.1606,48.4447],[-0.1614,48.4460],[-0.1590,48.4463],[-0.1576,48.4440],[-0.1563,48.4451],[-0.1536,48.4446],[-0.1523,48.4486],[-0.1566,48.4528],[-0.1552,48.4530],[-0.1562,48.4543],[-0.1543,48.4539],[-0.1553,48.4545],[-0.1543,48.4551],[-0.1550,48.4603],[-0.1597,48.4618],[-0.1624,48.4607],[-0.1606,48.4623],[-0.1627,48.4634],[-0.1661,48.4619],[-0.1708,48.4626],[-0.1696,48.4636],[-0.1701,48.4648],[-0.1655,48.4644],[-0.1677,48.4657],[-0.1660,48.4661],[-0.1660,48.4676],[-0.1619,48.4668],[-0.1597,48.4683],[-0.1550,48.4682],[-0.1538,48.4708],[-0.1414,48.4680],[-0.1421,48.4671],[-0.1488,48.4676],[-0.1471,48.4668],[-0.1505,48.4652],[-0.1482,48.4620],[-0.1465,48.4621],[-0.1430,48.4656],[-0.1395,48.4663],[-0.1385,48.4680],[-0.1306,48.4669],[-0.1295,48.4659],[-0.1305,48.4652],[-0.1375,48.4665],[-0.1387,48.4627],[-0.1453,48.4582],[-0.1442,48.4564],[-0.1463,48.4542],[-0.1404,48.4520],[-0.1396,48.4537],[-0.1427,48.4551],[-0.1414,48.4586],[-0.1367,48.4577],[-0.1332,48.4554],[-0.1322,48.4570],[-0.1322,48.4559],[-0.1304,48.4563],[-0.1322,48.4552],[-0.1308,48.4549],[-0.1311,48.4523],[-0.1306,48.4512],[-0.1297,48.4520],[-0.1285,48.4512],[-0.1293,48.4506],[-0.1159,48.4490],[-0.1304,48.4475],[-0.1337,48.4516],[-0.1381,48.4522],[-0.1438,48.4447],[-0.1461,48.4434],[-0.1450,48.4394],[-0.1464,48.4386],[-0.1478,48.4395],[-0.1472,48.4424],[-0.1483,48.4432],[-0.1523,48.4392],[-0.1550,48.4387]]]}},{"type":"Feature","properties":{"name":"Bois d\u0027Hermet"},"geometry":{"type":"Polygon","coordinates":[[[-0.4480,48.2089],[-0.4456,48.2085],[-0.4469,48.2078],[-0.4464,48.2049],[-0.4427,48.2046],[-0.4434,48.2014],[-0.4461,48.2006],[-0.4487,48.2023],[-0.4480,48.2008],[-0.4498,48.1995],[-0.4554,48.1979],[-0.4522,48.1953],[-0.4537,48.1945],[-0.4559,48.1944],[-0.4586,48.1979],[-0.4615,48.1988],[-0.4639,48.1958],[-0.4669,48.1950],[-0.4689,48.1973],[-0.4771,48.1939],[-0.4773,48.1922],[-0.4761,48.1913],[-0.4844,48.1896],[-0.4897,48.1899],[-0.4905,48.1929],[-0.4942,48.1918],[-0.4961,48.1927],[-0.4961,48.1912],[-0.5036,48.1897],[-0.5081,48.1944],[-0.5081,48.1963],[-0.5097,48.1972],[-0.5085,48.1966],[-0.5086,48.1999],[-0.5118,48.2032],[-0.5081,48.2044],[-0.5113,48.2059],[-0.5074,48.2074],[-0.5058,48.2104],[-0.4998,48.2109],[-0.4960,48.2085],[-0.4907,48.2095],[-0.4899,48.2115],[-0.4908,48.2137],[-0.4814,48.2139],[-0.4811,48.2165],[-0.4777,48.2201],[-0.4781,48.2222],[-0.4762,48.2212],[-0.4783,48.2190],[-0.4745,48.2203],[-0.4736,48.2226],[-0.4707,48.2209],[-0.4605,48.2313],[-0.4566,48.2317],[-0.4550,48.2325],[-0.4551,48.2337],[-0.4484,48.2324],[-0.4480,48.2334],[-0.4440,48.2337],[-0.4399,48.2326],[-0.4384,48.2334],[-0.4393,48.2343],[-0.4377,48.2326],[-0.4428,48.2302],[-0.4482,48.2322],[-0.4543,48.2302],[-0.4541,48.2286],[-0.4488,48.2294],[-0.4490,48.2276],[-0.4404,48.2270],[-0.4414,48.2239],[-0.4332,48.2215],[-0.4349,48.2195],[-0.4409,48.2188],[-0.4403,48.2157],[-0.4418,48.2148],[-0.4404,48.2146],[-0.4421,48.2132],[-0.4523,48.2117],[-0.4511,48.2111],[-0.4519,48.2097],[-0.4480,48.2089]]]}},{"type":"Feature","properties":{"name":"Forêt des Andaines"},"geometry":{"type":"Polygon","coordinates":[[[-0.4823,48.5845],[-0.4881,48.5800],[-0.4911,48.5803],[-0.4801,48.5781],[-0.4803,48.5772],[-0.4866,48.5775],[-0.4868,48.5737],[-0.4837,48.5709],[-0.4690,48.5680],[-0.4671,48.5683],[-0.4698,48.5737],[-0.4681,48.5742],[-0.4678,48.5729],[-0.4665,48.5730],[-0.4652,48.5743],[-0.4782,48.5773],[-0.4792,48.5802],[-0.4820,48.5817],[-0.4785,48.5847],[-0.4763,48.5851],[-0.4752,48.5835],[-0.4692,48.5817],[-0.4673,48.5830],[-0.4642,48.5809],[-0.4573,48.5799],[-0.4536,48.5780],[-0.4526,48.5789],[-0.4540,48.5805],[-0.4511,48.5822],[-0.4565,48.5803],[-0.4644,48.5823],[-0.4656,48.5839],[-0.4602,48.5830],[-0.4580,48.5846],[-0.4447,48.5834],[-0.4491,48.5849],[-0.4824,48.5875],[-0.4823,48.5845],[-0.4907,48.5878],[-0.4989,48.5882],[-0.4882,48.5862],[-0.4913,48.5845],[-0.4935,48.5854],[-0.4995,48.5813],[-0.5185,48.5819],[-0.5046,48.5847],[-0.5040,48.5832],[-0.5006,48.5837],[-0.5013,48.5863],[-0.5073,48.5886],[-0.5108,48.5881],[-0.5113,48.5869],[-0.5262,48.5876],[-0.5274,48.5863],[-0.5259,48.5852],[-0.5268,48.5838],[-0.5294,48.5850],[-0.5325,48.5837],[-0.5313,48.5866],[-0.5284,48.5874],[-0.5288,48.5884],[-0.5160,48.5889],[-0.5142,48.5913],[-0.5101,48.5924],[-0.5119,48.5930],[-0.5045,48.5989],[-0.5007,48.5985],[-0.4953,48.6031],[-0.4955,48.6062],[-0.4977,48.6057],[-0.4991,48.6067],[-0.4936,48.6091],[-0.4934,48.6125],[-0.4876,48.6113],[-0.4827,48.6145],[-0.4881,48.6181],[-0.4921,48.6157],[-0.4953,48.6182],[-0.5097,48.6097],[-0.5148,48.6103],[-0.5184,48.6130],[-0.5266,48.6086],[-0.5212,48.6038],[-0.5235,48.6031],[-0.5235,48.5984],[-0.5214,48.5963],[-0.5179,48.5989],[-0.5196,48.6008],[-0.5172,48.6054],[-0.5139,48.6024],[-0.5152,48.6015],[-0.5125,48.5989],[-0.5165,48.5966],[-0.5154,48.5959],[-0.5113,48.5984],[-0.5096,48.5969],[-0.5187,48.5924],[-0.5199,48.5932],[-0.5200,48.5955],[-0.5241,48.5934],[-0.5251,48.5942],[-0.5277,48.5907],[-0.5325,48.5914],[-0.5330,48.5977],[-0.5361,48.5970],[-0.5357,48.5951],[-0.5371,48.5944],[-0.5358,48.5930],[-0.5368,48.5920],[-0.5406,48.5931],[-0.5411,48.5950],[-0.5444,48.5962],[-0.5479,48.5931],[-0.5540,48.5940],[-0.5528,48.5967],[-0.5546,48.5984],[-0.5571,48.5974],[-0.5580,48.6017],[-0.5594,48.6022],[-0.5626,48.6022],[-0.5620,48.6013],[-0.5636,48.5998],[-0.5665,48.6005],[-0.5670,48.6028],[-0.5692,48.6033],[-0.5752,48.6036],[-0.5803,48.6019],[-0.5789,48.5986],[-0.5716,48.5983],[-0.5716,48.5973],[-0.5698,48.5972],[-0.5689,48.5987],[-0.5661,48.5981],[-0.5698,48.5942],[-0.5717,48.5949],[-0.5709,48.5919],[-0.5742,48.5921],[-0.5747,48.5893],[-0.5695,48.5871],[-0.5671,48.5794],[-0.5618,48.5783],[-0.5618,48.5763],[-0.5631,48.5762],[-0.5615,48.5761],[-0.5615,48.5782],[-0.5592,48.5776],[-0.5565,48.5792],[-0.5558,48.5780],[-0.5502,48.5777],[-0.5506,48.5759],[-0.5498,48.5771],[-0.5455,48.5759],[-0.5431,48.5772],[-0.5420,48.5757],[-0.5344,48.5746],[-0.5350,48.5736],[-0.5334,48.5725],[-0.5342,48.5718],[-0.5311,48.5702],[-0.5291,48.5715],[-0.5329,48.5733],[-0.5290,48.5747],[-0.5297,48.5759],[-0.5245,48.5755],[-0.5249,48.5739],[-0.5279,48.5742],[-0.5189,48.5713],[-0.5030,48.5706],[-0.5045,48.5737],[-0.5115,48.5745],[-0.5075,48.5777],[-0.5070,48.5802],[-0.4946,48.5794],[-0.4943,48.5782],[-0.4894,48.5777],[-0.4897,48.5750],[-0.4868,48.5737],[-0.4866,48.5775],[-0.4803,48.5772],[-0.4801,48.5781],[-0.4911,48.5803],[-0.4881,48.5800],[-0.4823,48.5845]]]}},{"type":"Feature","properties":{"name":"Bois de Magny"},"geometry":{"type":"Polygon","coordinates":[[[-0.3359,48.5262],[-0.3353,48.5287],[-0.3236,48.5241],[-0.3219,48.5258],[-0.3231,48.5296],[-0.3180,48.5308],[-0.3138,48.5348],[-0.3158,48.5356],[-0.3177,48.5344],[-0.3164,48.5371],[-0.3213,48.5410],[-0.3261,48.5401],[-0.3326,48.5420],[-0.3414,48.5478],[-0.3428,48.5466],[-0.3512,48.5464],[-0.3572,48.5449],[-0.3594,48.5391],[-0.3636,48.5350],[-0.3601,48.5341],[-0.3592,48.5346],[-0.3608,48.5350],[-0.3604,48.5362],[-0.3588,48.5361],[-0.3586,48.5346],[-0.3584,48.5358],[-0.3531,48.5329],[-0.3539,48.5317],[-0.3510,48.5326],[-0.3448,48.5287],[-0.3335,48.5247],[-0.3296,48.5217],[-0.3276,48.5210],[-0.3250,48.5228],[-0.3359,48.5262]]]}},{"type":"Feature","properties":{"name":"Forêt de Pail"},"geometry":{"type":"Polygon","coordinates":[[[-0.2267,48.3780],[-0.2237,48.3806],[-0.2169,48.3828],[-0.2108,48.3824],[-0.2136,48.3837],[-0.2116,48.3851],[-0.2094,48.3848],[-0.2082,48.3856],[-0.2098,48.3860],[-0.2082,48.3873],[-0.2019,48.3842],[-0.1995,48.3850],[-0.1999,48.3868],[-0.1980,48.3878],[-0.1967,48.3871],[-0.2014,48.3838],[-0.1975,48.3826],[-0.1899,48.3745],[-0.1937,48.3743],[-0.2028,48.3659],[-0.2050,48.3675],[-0.2101,48.3623],[-0.2161,48.3592],[-0.2177,48.3605],[-0.2211,48.3598],[-0.2251,48.3620],[-0.2239,48.3637],[-0.2263,48.3638],[-0.2251,48.3650],[-0.2248,48.3690],[-0.2231,48.3703],[-0.2245,48.3735],[-0.2230,48.3743],[-0.2250,48.3756],[-0.2274,48.3737],[-0.2291,48.3741],[-0.2271,48.3686],[-0.2373,48.3672],[-0.2375,48.3651],[-0.2442,48.3635],[-0.2440,48.3615],[-0.2469,48.3609],[-0.2476,48.3633],[-0.2428,48.3713],[-0.2379,48.3718],[-0.2367,48.3712],[-0.2374,48.3683],[-0.2353,48.3683],[-0.2356,48.3696],[-0.2338,48.3692],[-0.2309,48.3717],[-0.2316,48.3749],[-0.2350,48.3750],[-0.2327,48.3779],[-0.2308,48.3790],[-0.2324,48.3765],[-0.2311,48.3762],[-0.2297,48.3778],[-0.2256,48.3759],[-0.2267,48.3780]]]}},{"type":"Feature","properties":{"name":"Forêt départementale du Grais"},"geometry":{"type":"Polygon","coordinates":[[[-0.3303,48.6296],[-0.3281,48.6289],[-0.3268,48.6307],[-0.3216,48.6284],[-0.3178,48.6322],[-0.3189,48.6331],[-0.3178,48.6340],[-0.3163,48.6332],[-0.3140,48.6355],[-0.3107,48.6346],[-0.3076,48.6357],[-0.3047,48.6333],[-0.3069,48.6318],[-0.3103,48.6321],[-0.3116,48.6306],[-0.3138,48.6314],[-0.3146,48.6301],[-0.3107,48.6291],[-0.3119,48.6283],[-0.3086,48.6255],[-0.3132,48.6254],[-0.3172,48.6193],[-0.3120,48.6196],[-0.3107,48.6182],[-0.3123,48.6166],[-0.3127,48.6186],[-0.3172,48.6172],[-0.3202,48.6188],[-0.3197,48.6224],[-0.3211,48.6224],[-0.3212,48.6189],[-0.3234,48.6191],[-0.3238,48.6207],[-0.3333,48.6233],[-0.3361,48.6312],[-0.3356,48.6320],[-0.3303,48.6296]]]}},{"type":"Feature","properties":{"name":"Bois de Crun"},"geometry":{"type":"Polygon","coordinates":[[[-0.3559,48.1844],[-0.3524,48.1846],[-0.3497,48.1817],[-0.3482,48.1831],[-0.3481,48.1796],[-0.3465,48.1791],[-0.3415,48.1823],[-0.3401,48.1815],[-0.3385,48.1850],[-0.3392,48.1858],[-0.3377,48.1863],[-0.3357,48.1845],[-0.3327,48.1848],[-0.3334,48.1824],[-0.3302,48.1805],[-0.3301,48.1775],[-0.3283,48.1780],[-0.3293,48.1760],[-0.3405,48.1734],[-0.3483,48.1701],[-0.3485,48.1663],[-0.3449,48.1609],[-0.3444,48.1567],[-0.3455,48.1562],[-0.3478,48.1597],[-0.3467,48.1612],[-0.3504,48.1655],[-0.3494,48.1667],[-0.3511,48.1706],[-0.3486,48.1720],[-0.3493,48.1762],[-0.3525,48.1760],[-0.3526,48.1745],[-0.3554,48.1741],[-0.3569,48.1797],[-0.3605,48.1792],[-0.3613,48.1802],[-0.3582,48.1840],[-0.3559,48.1844]]]}}]}