{"type":"FeatureCollection","features":[{"type":"Feature","properties":{"name":"Bois des Fouchères"},"geometry":{"type":"Polygon","coordinates":[[[5.8806,47.2900],[5.8848,47.2878],[5.8861,47.2898],[5.8844,47.2907],[5.8851,47.2912],[5.8872,47.2903],[5.8872,47.2888],[5.8894,47.2893],[5.8891,47.2879],[5.8933,47.2888],[5.8948,47.2876],[5.8911,47.2876],[5.8946,47.2859],[5.8942,47.2834],[5.8958,47.2804],[5.8987,47.2816],[5.8985,47.2788],[5.8897,47.2753],[5.8862,47.2756],[5.8879,47.2772],[5.8848,47.2800],[5.8815,47.2768],[5.8787,47.2777],[5.8777,47.2803],[5.8782,47.2769],[5.8760,47.2758],[5.8728,47.2791],[5.8706,47.2797],[5.8699,47.2816],[5.8650,47.2822],[5.8604,47.2809],[5.8571,47.2823],[5.8449,47.2768],[5.8424,47.2784],[5.8373,47.2782],[5.8347,47.2796],[5.8330,47.2827],[5.8361,47.2841],[5.8622,47.2859],[5.8806,47.2900]]]}},{"type":"Feature","properties":{"name":"Bois des Fouchères"},"geometry":{"type":"Polygon","coordinates":[[[5.8801,47.2905],[5.8637,47.2869],[5.8340,47.2845],[5.8329,47.2861],[5.8319,47.2845],[5.8143,47.2837],[5.8106,47.2887],[5.8118,47.2907],[5.8146,47.2911],[5.8146,47.2922],[5.8179,47.2932],[5.8183,47.2946],[5.8215,47.2954],[5.8206,47.2948],[5.8248,47.2946],[5.8238,47.2942],[5.8257,47.2929],[5.8252,47.2921],[5.8279,47.2921],[5.8288,47.2901],[5.8314,47.2901],[5.8270,47.2932],[5.8296,47.2951],[5.8315,47.2939],[5.8357,47.2945],[5.8363,47.2934],[5.8338,47.2915],[5.8363,47.2913],[5.8350,47.2905],[5.8363,47.2898],[5.8416,47.2916],[5.8410,47.2925],[5.8467,47.2910],[5.8516,47.2952],[5.8544,47.2939],[5.8559,47.2948],[5.8548,47.2935],[5.8578,47.2929],[5.8593,47.2943],[5.8597,47.2916],[5.8619,47.2897],[5.8682,47.2939],[5.8743,47.2953],[5.8771,47.2943],[5.8776,47.2911],[5.8797,47.2922],[5.8788,47.2916],[5.8801,47.2905]]]}},{"type":"Feature","properties":{"name":"Bois de Blusseret"},"geometry":{"type":"Polygon","coordinates":[[[6.4203,47.5578],[6.4177,47.5567],[6.4191,47.5584],[6.4129,47.5578],[6.4130,47.5600],[6.4100,47.5622],[6.4090,47.5606],[6.4063,47.5605],[6.4028,47.5630],[6.3976,47.5606],[6.3932,47.5634],[6.3926,47.5665],[6.3912,47.5639],[6.3907,47.5656],[6.3922,47.5681],[6.3929,47.5668],[6.3951,47.5675],[6.3958,47.5715],[6.3982,47.5741],[6.3980,47.5726],[6.4005,47.5728],[6.3966,47.5762],[6.3978,47.5783],[6.3964,47.5799],[6.3984,47.5788],[6.3982,47.5773],[6.3994,47.5776],[6.3986,47.5766],[6.4030,47.5777],[6.4007,47.5779],[6.4046,47.5830],[6.4078,47.5853],[6.4092,47.5809],[6.4114,47.5794],[6.4143,47.5810],[6.4234,47.5789],[6.4214,47.5821],[6.4272,47.5850],[6.4352,47.5824],[6.4396,47.5788],[6.4413,47.5788],[6.4413,47.5798],[6.4387,47.5837],[6.4427,47.5824],[6.4433,47.5805],[6.4410,47.5771],[6.4418,47.5761],[6.4403,47.5759],[6.4400,47.5771],[6.4382,47.5738],[6.4388,47.5761],[6.4366,47.5764],[6.4355,47.5738],[6.4361,47.5721],[6.4380,47.5721],[6.4313,47.5673],[6.4302,47.5677],[6.4311,47.5670],[6.4303,47.5657],[6.4268,47.5626],[6.4228,47.5619],[6.4213,47.5605],[6.4228,47.5588],[6.4186,47.5599],[6.4203,47.5578]]]}},{"type":"Feature","properties":{"name":"Forêt domaniale de Longchamp"},"geometry":{"type":"Polygon","coordinates":[[[5.2977,47.2567],[5.2970,47.2585],[5.3018,47.2596],[5.3015,47.2605],[5.3032,47.2611],[5.3000,47.2635],[5.3012,47.2639],[5.2988,47.2654],[5.2993,47.2663],[5.2968,47.2673],[5.2990,47.2692],[5.3009,47.2688],[5.3021,47.2707],[5.3012,47.2711],[5.3031,47.2729],[5.2979,47.2753],[5.2920,47.2730],[5.2879,47.2743],[5.2901,47.2761],[5.2826,47.2793],[5.2865,47.2819],[5.2841,47.2820],[5.2837,47.2832],[5.2884,47.2836],[5.2913,47.2860],[5.2899,47.2871],[5.2838,47.2869],[5.2823,47.2887],[5.2936,47.2868],[5.2958,47.2889],[5.2971,47.2882],[5.2990,47.2896],[5.2882,47.2938],[5.2876,47.2996],[5.2928,47.3011],[5.2906,47.3031],[5.2933,47.3014],[5.2956,47.3030],[5.2973,47.3001],[5.3011,47.3009],[5.3030,47.2990],[5.3040,47.2993],[5.3028,47.3007],[5.3040,47.3022],[5.3013,47.3034],[5.3003,47.3062],[5.3023,47.3071],[5.3049,47.3061],[5.3061,47.3084],[5.3100,47.3093],[5.3137,47.3123],[5.3163,47.3113],[5.3190,47.3128],[5.3253,47.3100],[5.3279,47.3111],[5.3236,47.3154],[5.3250,47.3172],[5.3222,47.3190],[5.3202,47.3182],[5.3215,47.3199],[5.3278,47.3204],[5.3557,47.3126],[5.3540,47.3094],[5.3502,47.3063],[5.3557,47.3062],[5.3544,47.3049],[5.3518,47.3053],[5.3525,47.3030],[5.3478,47.2982],[5.3514,47.3012],[5.3560,47.3027],[5.3590,47.3061],[5.3604,47.3050],[5.3626,47.3062],[5.3660,47.3013],[5.3656,47.3059],[5.3668,47.3073],[5.3724,47.3062],[5.3731,47.3029],[5.3758,47.3010],[5.3756,47.2999],[5.3783,47.2988],[5.3769,47.2974],[5.3810,47.2983],[5.3828,47.3012],[5.3856,47.2999],[5.3817,47.2987],[5.3821,47.2943],[5.3791,47.2977],[5.3764,47.2953],[5.3773,47.2931],[5.3817,47.2919],[5.3777,47.2856],[5.3761,47.2850],[5.3751,47.2861],[5.3754,47.2844],[5.3726,47.2832],[5.3717,47.2847],[5.3687,47.2850],[5.3665,47.2837],[5.3693,47.2809],[5.3689,47.2780],[5.3714,47.2766],[5.3676,47.2772],[5.3661,47.2752],[5.3701,47.2753],[5.3684,47.2746],[5.3700,47.2717],[5.3745,47.2715],[5.3726,47.2707],[5.3733,47.2685],[5.3771,47.2685],[5.3733,47.2684],[5.3721,47.2668],[5.3703,47.2690],[5.3693,47.2685],[5.3679,47.2662],[5.3703,47.2652],[5.3659,47.2665],[5.3659,47.2675],[5.3621,47.2671],[5.3633,47.2686],[5.3611,47.2694],[5.3614,47.2672],[5.3583,47.2663],[5.3574,47.2643],[5.3607,47.2658],[5.3663,47.2640],[5.3672,47.2646],[5.3668,47.2635],[5.3682,47.2629],[5.3643,47.2624],[5.3635,47.2607],[5.3644,47.2597],[5.3608,47.2584],[5.3583,47.2590],[5.3543,47.2624],[5.3507,47.2588],[5.3520,47.2565],[5.3497,47.2584],[5.3464,47.2580],[5.3420,47.2599],[5.3389,47.2548],[5.3426,47.2535],[5.3407,47.2486],[5.3418,47.2489],[5.3438,47.2451],[5.3495,47.2406],[5.3509,47.2424],[5.3559,47.2438],[5.3546,47.2453],[5.3562,47.2444],[5.3592,47.2467],[5.3637,47.2467],[5.3656,47.2479],[5.3644,47.2491],[5.3620,47.2492],[5.3610,47.2480],[5.3592,47.2494],[5.3578,47.2488],[5.3587,47.2495],[5.3561,47.2520],[5.3539,47.2516],[5.3553,47.2536],[5.3572,47.2537],[5.3584,47.2519],[5.3595,47.2527],[5.3617,47.2519],[5.3605,47.2528],[5.3611,47.2540],[5.3678,47.2509],[5.3701,47.2517],[5.3560,47.2345],[5.3531,47.2355],[5.3518,47.2328],[5.3539,47.2320],[5.3405,47.2172],[5.3191,47.2124],[5.3100,47.2130],[5.3118,47.2147],[5.3116,47.2162],[5.3086,47.2138],[5.3092,47.2130],[5.2942,47.2149],[5.2899,47.2198],[5.2912,47.2203],[5.2910,47.2239],[5.2943,47.2304],[5.2921,47.2314],[5.2885,47.2290],[5.2867,47.2316],[5.2889,47.2333],[5.2875,47.2346],[5.2894,47.2350],[5.2888,47.2367],[5.2830,47.2372],[5.2839,47.2358],[5.2814,47.2374],[5.2830,47.2396],[5.2814,47.2434],[5.2823,47.2456],[5.2860,47.2465],[5.2843,47.2489],[5.2856,47.2491],[5.2882,47.2556],[5.2917,47.2549],[5.2925,47.2522],[5.2943,47.2533],[5.2931,47.2512],[5.2950,47.2522],[5.2981,47.2477],[5.3020,47.2481],[5.3036,47.2467],[5.3052,47.2477],[5.3055,47.2506],[5.2977,47.2567]]]}},{"type":"Feature","properties":{"name":"Forêt de la Menère"},"geometry":{"type":"Polygon","coordinates":[[[5.9293,47.2269],[5.9254,47.2201],[5.9176,47.2188],[5.9158,47.2202],[5.9160,47.2180],[5.9085,47.2096],[5.9029,47.2099],[5.9067,47.2108],[5.9068,47.2124],[5.9077,47.2125],[5.9076,47.2108],[5.9100,47.2106],[5.9052,47.2158],[5.9064,47.2179],[5.9034,47.2187],[5.8940,47.2138],[5.8966,47.2096],[5.9005,47.2117],[5.9027,47.2092],[5.8965,47.2073],[5.8943,47.2073],[5.8969,47.2084],[5.8943,47.2090],[5.8933,47.2108],[5.8844,47.2072],[5.8875,47.2060],[5.8824,47.2069],[5.8840,47.2077],[5.8826,47.2087],[5.8804,47.2076],[5.8815,47.2089],[5.8796,47.2074],[5.8822,47.2110],[5.8782,47.2127],[5.8779,47.2116],[5.8799,47.2113],[5.8778,47.2084],[5.8763,47.2093],[5.8787,47.2114],[5.8763,47.2103],[5.8772,47.2116],[5.8758,47.2124],[5.8764,47.2132],[5.8751,47.2126],[5.8796,47.2167],[5.8816,47.2158],[5.8793,47.2146],[5.8816,47.2133],[5.8851,47.2145],[5.8849,47.2157],[5.8864,47.2144],[5.8864,47.2159],[5.8867,47.2145],[5.8922,47.2138],[5.8921,47.2156],[5.8943,47.2181],[5.8962,47.2174],[5.8958,47.2160],[5.8973,47.2168],[5.8973,47.2186],[5.8987,47.2185],[5.9025,47.2224],[5.9012,47.2231],[5.9045,47.2246],[5.9054,47.2242],[5.9049,47.2226],[5.9096,47.2251],[5.9154,47.2222],[5.9157,47.2209],[5.9200,47.2229],[5.9205,47.2254],[5.9293,47.2269]]]}},{"type":"Feature","properties":{"name":"Bois de Bussières"},"geometry":{"type":"Polygon","coordinates":[[[5.5635,47.8014],[5.5611,47.8003],[5.5638,47.7970],[5.5679,47.7969],[5.5702,47.7981],[5.5739,47.7976],[5.5746,47.7960],[5.5776,47.7962],[5.5746,47.7937],[5.5716,47.7945],[5.5669,47.7930],[5.5700,47.7924],[5.5675,47.7920],[5.5678,47.7906],[5.5742,47.7930],[5.5780,47.7912],[5.5744,47.7915],[5.5728,47.7888],[5.5730,47.7858],[5.5763,47.7849],[5.5718,47.7850],[5.5719,47.7839],[5.5698,47.7869],[5.5673,47.7870],[5.5687,47.7833],[5.5652,47.7823],[5.5647,47.7781],[5.5612,47.7783],[5.5649,47.7765],[5.5627,47.7719],[5.5650,47.7700],[5.5646,47.7684],[5.5623,47.7669],[5.5609,47.7610],[5.5562,47.7565],[5.5545,47.7571],[5.5521,47.7556],[5.5564,47.7600],[5.5596,47.7615],[5.5606,47.7638],[5.5569,47.7645],[5.5520,47.7619],[5.5506,47.7635],[5.5541,47.7640],[5.5524,47.7655],[5.5541,47.7665],[5.5519,47.7678],[5.5502,47.7661],[5.5472,47.7654],[5.5460,47.7594],[5.5418,47.7579],[5.5436,47.7569],[5.5412,47.7563],[5.5424,47.7548],[5.5376,47.7548],[5.5375,47.7526],[5.5363,47.7528],[5.5355,47.7514],[5.5322,47.7520],[5.5310,47.7509],[5.5328,47.7511],[5.5308,47.7499],[5.5290,47.7507],[5.5304,47.7518],[5.5272,47.7531],[5.5254,47.7513],[5.5233,47.7519],[5.5207,47.7511],[5.5153,47.7458],[5.5146,47.7463],[5.5205,47.7517],[5.5196,47.7522],[5.5153,47.7490],[5.5137,47.7502],[5.5127,47.7495],[5.5108,47.7516],[5.5141,47.7536],[5.5174,47.7529],[5.5185,47.7542],[5.5160,47.7546],[5.5139,47.7572],[5.5128,47.7564],[5.5121,47.7585],[5.5138,47.7587],[5.5094,47.7605],[5.5118,47.7611],[5.5028,47.7617],[5.4971,47.7670],[5.5006,47.7676],[5.4995,47.7697],[5.5002,47.7728],[5.5060,47.7767],[5.5053,47.7775],[5.4994,47.7748],[5.5091,47.7824],[5.5070,47.7855],[5.5073,47.7827],[5.5066,47.7841],[5.5050,47.7839],[5.5020,47.7801],[5.4974,47.7799],[5.4988,47.7798],[5.4998,47.7822],[5.5029,47.7842],[5.4979,47.7902],[5.4978,47.7946],[5.4996,47.7948],[5.5001,47.7914],[5.5028,47.7899],[5.5015,47.7952],[5.5022,47.7973],[5.5003,47.7974],[5.5010,47.7992],[5.4993,47.8005],[5.5000,47.8040],[5.5016,47.8037],[5.5002,47.8010],[5.5019,47.7991],[5.5093,47.7992],[5.5065,47.7972],[5.5056,47.7978],[5.5070,47.7964],[5.5044,47.7959],[5.5065,47.7924],[5.5074,47.7929],[5.5072,47.7899],[5.5091,47.7888],[5.5168,47.7954],[5.5160,47.7975],[5.5183,47.7982],[5.5203,47.7976],[5.5181,47.7965],[5.5199,47.7908],[5.5192,47.7900],[5.5217,47.7888],[5.5244,47.7897],[5.5215,47.7945],[5.5232,47.7953],[5.5254,47.7942],[5.5254,47.7956],[5.5271,47.7949],[5.5276,47.7930],[5.5319,47.7915],[5.5308,47.7895],[5.5341,47.7885],[5.5401,47.7954],[5.5366,47.7968],[5.5340,47.7942],[5.5324,47.7944],[5.5324,47.7987],[5.5307,47.7985],[5.5334,47.8017],[5.5326,47.8024],[5.5378,47.8009],[5.5376,47.8029],[5.5440,47.8018],[5.5422,47.8042],[5.5437,47.8050],[5.5429,47.8060],[5.5416,47.8049],[5.5346,47.8062],[5.5356,47.8043],[5.5336,47.8028],[5.5333,47.8058],[5.5343,47.8064],[5.5322,47.8072],[5.5298,47.8059],[5.5289,47.8069],[5.5321,47.8089],[5.5333,47.8087],[5.5316,47.8074],[5.5344,47.8085],[5.5452,47.8068],[5.5635,47.8014]]]}},{"type":"Feature","properties":{"name":"Forêt de Chailluz"},"geometry":{"type":"Polygon","coordinates":[[[6.0569,47.3060],[6.0753,47.3139],[6.0837,47.3164],[6.0838,47.3152],[6.0862,47.3161],[6.0850,47.3166],[6.1176,47.3249],[6.1153,47.3226],[6.1148,47.3236],[6.1133,47.3229],[6.1147,47.3222],[6.1131,47.3210],[6.1067,47.3188],[6.1009,47.3174],[6.0991,47.3178],[6.1025,47.3187],[6.0933,47.3184],[6.0907,47.3171],[6.0971,47.3179],[6.0871,47.3167],[6.0806,47.3136],[6.0803,47.3125],[6.0901,47.3164],[6.0815,47.3124],[6.0789,47.3092],[6.0809,47.3090],[6.0799,47.3096],[6.0832,47.3109],[6.0841,47.3105],[6.0818,47.3102],[6.0821,47.3091],[6.0856,47.3092],[6.0845,47.3100],[6.0863,47.3108],[6.0867,47.3096],[6.0889,47.3102],[6.0861,47.3090],[6.0871,47.3073],[6.0842,47.3045],[6.0867,47.3065],[6.0873,47.3055],[6.0859,47.3035],[6.0785,47.2985],[6.0767,47.2949],[6.0729,47.2933],[6.0765,47.2972],[6.0705,47.2914],[6.0687,47.2874],[6.0604,47.2788],[6.0478,47.2730],[6.0481,47.2715],[6.0461,47.2711],[6.0365,47.2755],[6.0351,47.2748],[6.0280,47.2782],[6.0260,47.2808],[6.0253,47.2796],[6.0236,47.2802],[6.0245,47.2805],[6.0235,47.2835],[6.0244,47.2825],[6.0254,47.2833],[6.0249,47.2885],[6.0232,47.2911],[6.0230,47.2895],[6.0206,47.2890],[6.0219,47.2910],[6.0207,47.2922],[6.0129,47.2862],[6.0135,47.2819],[6.0108,47.2766],[6.0116,47.2784],[6.0084,47.2769],[6.0013,47.2788],[6.0041,47.2803],[6.0017,47.2823],[5.9999,47.2802],[5.9984,47.2804],[5.9987,47.2794],[5.9973,47.2798],[6.0024,47.2843],[6.0118,47.2878],[6.0208,47.2955],[6.0312,47.2994],[6.0371,47.3035],[6.0569,47.3060]]]}}]}