{"type":"FeatureCollection","features":[{"type":"Feature","properties":{"name":"Bois de Grandmont"},"geometry":{"type":"Polygon","coordinates":[[[0.9693,48.2068],[0.9684,48.2085],[0.9712,48.2081],[0.9722,48.2099],[0.9735,48.2095],[0.9708,48.2133],[0.9733,48.2140],[0.9732,48.2157],[0.9713,48.2175],[0.9631,48.2149],[0.9703,48.2177],[0.9687,48.2181],[0.9625,48.2150],[0.9579,48.2145],[0.9574,48.2126],[0.9612,48.2129],[0.9612,48.2118],[0.9498,48.2114],[0.9500,48.2131],[0.9455,48.2145],[0.9443,48.2128],[0.9406,48.2115],[0.9456,48.2087],[0.9436,48.2064],[0.9459,48.2061],[0.9466,48.2034],[0.9549,48.2051],[0.9663,48.2054],[0.9666,48.2071],[0.9693,48.2068]]]}},{"type":"Feature","properties":{"name":"Bois de Montferré"},"geometry":{"type":"Polygon","coordinates":[[[0.6960,48.5645],[0.6980,48.5646],[0.6978,48.5631],[0.6946,48.5601],[0.6977,48.5599],[0.6937,48.5594],[0.6972,48.5589],[0.6957,48.5586],[0.6965,48.5575],[0.6950,48.5569],[0.6957,48.5566],[0.6945,48.5532],[0.6957,48.5515],[0.6936,48.5506],[0.6953,48.5494],[0.6936,48.5460],[0.6948,48.5424],[0.6966,48.5419],[0.6976,48.5392],[0.7008,48.5395],[0.7008,48.5368],[0.7046,48.5363],[0.7033,48.5355],[0.7036,48.5340],[0.7059,48.5314],[0.7046,48.5269],[0.7083,48.5259],[0.7060,48.5242],[0.7074,48.5213],[0.7189,48.5185],[0.7169,48.5181],[0.7145,48.5146],[0.7129,48.5155],[0.7116,48.5136],[0.7121,48.5113],[0.7096,48.5104],[0.7069,48.5119],[0.7049,48.5163],[0.7029,48.5175],[0.7040,48.5189],[0.7037,48.5215],[0.7015,48.5221],[0.7036,48.5251],[0.7031,48.5306],[0.7012,48.5313],[0.7008,48.5356],[0.6998,48.5363],[0.7000,48.5350],[0.6988,48.5348],[0.6965,48.5367],[0.6980,48.5379],[0.6948,48.5382],[0.6901,48.5412],[0.6916,48.5423],[0.6905,48.5465],[0.6927,48.5536],[0.6920,48.5547],[0.6887,48.5549],[0.6898,48.5576],[0.6891,48.5592],[0.6856,48.5594],[0.6840,48.5609],[0.6887,48.5622],[0.6895,48.5594],[0.6930,48.5568],[0.6953,48.5581],[0.6923,48.5601],[0.6929,48.5629],[0.6945,48.5615],[0.6964,48.5630],[0.6960,48.5645]]]}},{"type":"Feature","properties":{"name":"Le Bois du Perchet"},"geometry":{"type":"Polygon","coordinates":[[[0.8714,48.3371],[0.8745,48.3357],[0.8731,48.3337],[0.8755,48.3325],[0.8758,48.3250],[0.8713,48.3229],[0.8692,48.3235],[0.8694,48.3219],[0.8689,48.3236],[0.8715,48.3260],[0.8681,48.3257],[0.8681,48.3266],[0.8694,48.3266],[0.8710,48.3300],[0.8691,48.3304],[0.8685,48.3288],[0.8666,48.3291],[0.8670,48.3309],[0.8653,48.3308],[0.8635,48.3245],[0.8661,48.3242],[0.8652,48.3211],[0.8646,48.3222],[0.8617,48.3225],[0.8615,48.3211],[0.8548,48.3213],[0.8524,48.3201],[0.8533,48.3190],[0.8522,48.3200],[0.8489,48.3180],[0.8411,48.3185],[0.8433,48.3217],[0.8501,48.3219],[0.8532,48.3243],[0.8529,48.3257],[0.8566,48.3269],[0.8557,48.3277],[0.8568,48.3281],[0.8563,48.3293],[0.8598,48.3275],[0.8623,48.3298],[0.8601,48.3316],[0.8614,48.3339],[0.8558,48.3324],[0.8556,48.3339],[0.8457,48.3318],[0.8438,48.3326],[0.8612,48.3361],[0.8679,48.3398],[0.8714,48.3371]]]}},{"type":"Feature","properties":{"name":"Bois de Gâtines"},"geometry":{"type":"Polygon","coordinates":[[[0.8251,47.5749],[0.8300,47.5771],[0.8272,47.5797],[0.8287,47.5800],[0.8286,47.5812],[0.8369,47.5820],[0.8380,47.5806],[0.8405,47.5809],[0.8391,47.5800],[0.8405,47.5774],[0.8436,47.5774],[0.8473,47.5796],[0.8483,47.5792],[0.8473,47.5783],[0.8548,47.5765],[0.8607,47.5722],[0.8571,47.5689],[0.8591,47.5676],[0.8603,47.5684],[0.8594,47.5666],[0.8610,47.5670],[0.8537,47.5653],[0.8536,47.5669],[0.8498,47.5649],[0.8436,47.5693],[0.8461,47.5702],[0.8462,47.5720],[0.8370,47.5685],[0.8354,47.5672],[0.8351,47.5644],[0.8276,47.5657],[0.8236,47.5677],[0.8247,47.5689],[0.8225,47.5705],[0.8251,47.5749]]]}},{"type":"Feature","properties":{"name":"Bois de Chaumont"},"geometry":{"type":"Polygon","coordinates":[[[-0.0238,48.4932],[-0.0242,48.4920],[-0.0201,48.4897],[-0.0226,48.4898],[-0.0231,48.4885],[-0.0128,48.4864],[-0.0072,48.4903],[-0.0043,48.4890],[-0.0034,48.4909],[0.0006,48.4928],[0.0035,48.4920],[0.0072,48.4929],[0.0082,48.4943],[0.0125,48.4942],[0.0116,48.4932],[0.0140,48.4921],[0.0138,48.4907],[0.0108,48.4904],[0.0091,48.4884],[0.0060,48.4903],[0.0024,48.4906],[0.0039,48.4881],[0.0026,48.4868],[0.0046,48.4859],[0.0037,48.4839],[0.0000,48.4835],[-0.0034,48.4860],[-0.0024,48.4809],[-0.0057,48.4813],[-0.0036,48.4794],[-0.0087,48.4762],[-0.0090,48.4746],[-0.0093,48.4759],[-0.0106,48.4755],[-0.0101,48.4742],[-0.0115,48.4745],[-0.0106,48.4723],[-0.0079,48.4725],[0.0028,48.4679],[0.0064,48.4683],[0.0074,48.4660],[-0.0037,48.4675],[-0.0057,48.4664],[-0.0052,48.4646],[-0.0063,48.4647],[-0.0062,48.4664],[-0.0102,48.4659],[-0.0125,48.4672],[-0.0195,48.4679],[-0.0186,48.4717],[-0.0195,48.4720],[-0.0179,48.4728],[-0.0195,48.4727],[-0.0210,48.4750],[-0.0227,48.4752],[-0.0346,48.4744],[-0.0335,48.4703],[-0.0347,48.4699],[-0.0402,48.4731],[-0.0438,48.4733],[-0.0420,48.4742],[-0.0479,48.4767],[-0.0470,48.4799],[-0.0478,48.4803],[-0.0422,48.4853],[-0.0408,48.4881],[-0.0416,48.4884],[-0.0368,48.4890],[-0.0370,48.4913],[-0.0385,48.4915],[-0.0330,48.4920],[-0.0321,48.4935],[-0.0238,48.4932]]]}},{"type":"Feature","properties":{"name":"Bois de Sublaine"},"geometry":{"type":"Polygon","coordinates":[[[0.6729,48.4383],[0.6742,48.4386],[0.6741,48.4374],[0.6808,48.4406],[0.6839,48.4435],[0.6915,48.4436],[0.6854,48.4363],[0.6799,48.4344],[0.6767,48.4304],[0.6790,48.4309],[0.6805,48.4330],[0.6817,48.4318],[0.6782,48.4275],[0.6769,48.4286],[0.6782,48.4294],[0.6749,48.4297],[0.6759,48.4278],[0.6729,48.4257],[0.6546,48.4228],[0.6559,48.4280],[0.6584,48.4281],[0.6577,48.4300],[0.6586,48.4315],[0.6600,48.4314],[0.6588,48.4328],[0.6596,48.4341],[0.6617,48.4351],[0.6628,48.4337],[0.6662,48.4356],[0.6647,48.4365],[0.6629,48.4351],[0.6604,48.4369],[0.6649,48.4369],[0.6661,48.4385],[0.6684,48.4388],[0.6698,48.4375],[0.6729,48.4383]]]}},{"type":"Feature","properties":{"name":"Forêt de Château-Renault"},"geometry":{"type":"Polygon","coordinates":[[[0.9605,47.6176],[0.9668,47.6084],[0.9666,47.6039],[0.9605,47.6020],[0.9597,47.6005],[0.9608,47.5994],[0.9580,47.5984],[0.9495,47.6001],[0.9534,47.6009],[0.9532,47.6039],[0.9497,47.6047],[0.9497,47.6030],[0.9476,47.6027],[0.9467,47.6041],[0.9439,47.6026],[0.9413,47.6057],[0.9366,47.6075],[0.9333,47.6114],[0.9301,47.6110],[0.9321,47.6134],[0.9323,47.6150],[0.9312,47.6155],[0.9332,47.6179],[0.9333,47.6203],[0.9419,47.6191],[0.9419,47.6181],[0.9444,47.6174],[0.9494,47.6174],[0.9526,47.6195],[0.9605,47.6176]]]}},{"type":"Feature","properties":{"name":"Forêt de Réno-Valdieu"},"geometry":{"type":"Polygon","coordinates":[[[0.6911,48.4537],[0.6893,48.4546],[0.6893,48.4567],[0.6837,48.4542],[0.6772,48.4560],[0.6746,48.4590],[0.6758,48.4602],[0.6738,48.4625],[0.6724,48.4626],[0.6715,48.4604],[0.6706,48.4605],[0.6714,48.4625],[0.6689,48.4608],[0.6700,48.4630],[0.6689,48.4650],[0.6706,48.4673],[0.6747,48.4661],[0.6755,48.4669],[0.6743,48.4684],[0.6771,48.4687],[0.6762,48.4698],[0.6730,48.4692],[0.6731,48.4706],[0.6758,48.4715],[0.6744,48.4725],[0.6760,48.4757],[0.6733,48.4809],[0.6760,48.4838],[0.6754,48.4806],[0.6776,48.4804],[0.6828,48.4851],[0.6791,48.4885],[0.6776,48.4886],[0.6766,48.4869],[0.6728,48.4878],[0.6720,48.4853],[0.6683,48.4831],[0.6655,48.4847],[0.6653,48.4831],[0.6607,48.4823],[0.6611,48.4815],[0.6624,48.4828],[0.6627,48.4819],[0.6691,48.4817],[0.6686,48.4805],[0.6660,48.4806],[0.6651,48.4789],[0.6615,48.4809],[0.6631,48.4794],[0.6607,48.4797],[0.6633,48.4792],[0.6614,48.4787],[0.6621,48.4780],[0.6672,48.4781],[0.6626,48.4765],[0.6674,48.4755],[0.6676,48.4723],[0.6660,48.4735],[0.6640,48.4729],[0.6685,48.4714],[0.6706,48.4723],[0.6689,48.4712],[0.6698,48.4702],[0.6607,48.4729],[0.6603,48.4747],[0.6590,48.4740],[0.6600,48.4778],[0.6564,48.4764],[0.6549,48.4738],[0.6527,48.4749],[0.6549,48.4774],[0.6560,48.4767],[0.6581,48.4785],[0.6589,48.4810],[0.6573,48.4814],[0.6588,48.4829],[0.6571,48.4843],[0.6625,48.4882],[0.6614,48.4898],[0.6593,48.4894],[0.6604,48.4909],[0.6588,48.4910],[0.6594,48.4928],[0.6575,48.4960],[0.6590,48.4999],[0.6617,48.5000],[0.6611,48.5010],[0.6560,48.5007],[0.6548,48.5038],[0.6560,48.5056],[0.6609,48.5055],[0.6620,48.5123],[0.6639,48.5139],[0.6628,48.5144],[0.6624,48.5171],[0.6664,48.5201],[0.6656,48.5208],[0.6609,48.5195],[0.6600,48.5206],[0.6592,48.5195],[0.6550,48.5189],[0.6545,48.5168],[0.6518,48.5159],[0.6462,48.5200],[0.6474,48.5221],[0.6421,48.5254],[0.6438,48.5285],[0.6421,48.5321],[0.6439,48.5330],[0.6411,48.5332],[0.6408,48.5350],[0.6395,48.5344],[0.6411,48.5369],[0.6384,48.5418],[0.6398,48.5424],[0.6386,48.5443],[0.6397,48.5446],[0.6419,48.5426],[0.6406,48.5399],[0.6427,48.5401],[0.6441,48.5387],[0.6425,48.5384],[0.6431,48.5372],[0.6454,48.5375],[0.6465,48.5363],[0.6438,48.5369],[0.6424,48.5338],[0.6445,48.5333],[0.6445,48.5316],[0.6472,48.5301],[0.6483,48.5303],[0.6484,48.5330],[0.6499,48.5289],[0.6532,48.5283],[0.6541,48.5287],[0.6538,48.5340],[0.6505,48.5336],[0.6502,48.5363],[0.6479,48.5370],[0.6502,48.5379],[0.6472,48.5376],[0.6461,48.5392],[0.6507,48.5395],[0.6513,48.5377],[0.6587,48.5386],[0.6585,48.5399],[0.6639,48.5417],[0.6651,48.5431],[0.6645,48.5449],[0.6706,48.5432],[0.6719,48.5452],[0.6785,48.5450],[0.6767,48.5466],[0.6778,48.5483],[0.6769,48.5491],[0.6819,48.5509],[0.6702,48.5518],[0.6755,48.5526],[0.6758,48.5556],[0.6772,48.5568],[0.6747,48.5589],[0.6773,48.5574],[0.6795,48.5579],[0.6778,48.5563],[0.6812,48.5561],[0.6812,48.5541],[0.6791,48.5534],[0.6830,48.5519],[0.6861,48.5547],[0.6872,48.5499],[0.6853,48.5500],[0.6880,48.5493],[0.6876,48.5468],[0.6889,48.5466],[0.6868,48.5441],[0.6842,48.5443],[0.6870,48.5424],[0.6859,48.5409],[0.6927,48.5347],[0.6916,48.5319],[0.6934,48.5303],[0.6918,48.5274],[0.6946,48.5280],[0.6975,48.5269],[0.6953,48.5259],[0.6904,48.5267],[0.6868,48.5218],[0.6900,48.5216],[0.6908,48.5201],[0.6891,48.5197],[0.6890,48.5181],[0.6928,48.5175],[0.6989,48.5100],[0.6976,48.5090],[0.6987,48.5054],[0.6978,48.5029],[0.6967,48.5016],[0.6940,48.5021],[0.6973,48.5054],[0.6965,48.5084],[0.6942,48.5090],[0.6924,48.5076],[0.6934,48.5053],[0.6918,48.5041],[0.6911,48.5065],[0.6875,48.5090],[0.6852,48.5081],[0.6854,48.5060],[0.6810,48.5067],[0.6829,48.5050],[0.6820,48.5033],[0.6832,48.5016],[0.6873,48.5027],[0.6907,48.5001],[0.6903,48.4987],[0.6879,48.4990],[0.6888,48.4965],[0.6926,48.4956],[0.6944,48.4932],[0.6941,48.4892],[0.6895,48.4896],[0.6926,48.4875],[0.6936,48.4848],[0.6923,48.4839],[0.6926,48.4825],[0.6967,48.4806],[0.6956,48.4771],[0.6942,48.4772],[0.6955,48.4767],[0.6940,48.4764],[0.6946,48.4753],[0.6875,48.4738],[0.6901,48.4705],[0.6857,48.4702],[0.6875,48.4694],[0.6868,48.4684],[0.6809,48.4690],[0.6823,48.4682],[0.6820,48.4661],[0.6839,48.4636],[0.6852,48.4626],[0.6867,48.4648],[0.6884,48.4613],[0.6903,48.4614],[0.6858,48.4609],[0.6872,48.4589],[0.6917,48.4581],[0.6929,48.4573],[0.6922,48.4560],[0.6942,48.4569],[0.6928,48.4558],[0.6932,48.4545],[0.6956,48.4537],[0.6944,48.4526],[0.6911,48.4537]]]}},{"type":"Feature","properties":{"name":"Bois de la Couarde"},"geometry":{"type":"Polygon","coordinates":[[[0.9639,47.5779],[0.9637,47.5744],[0.9719,47.5730],[0.9755,47.5749],[0.9761,47.5739],[0.9721,47.5723],[0.9695,47.5657],[0.9583,47.5661],[0.9429,47.5724],[0.9530,47.5793],[0.9639,47.5779]]]}},{"type":"Feature","properties":{"name":"Forêt de Bareilles"},"geometry":{"type":"Polygon","coordinates":[[[0.1463,47.5762],[0.1396,47.5666],[0.1422,47.5653],[0.1452,47.5673],[0.1493,47.5660],[0.1484,47.5642],[0.1529,47.5618],[0.1526,47.5603],[0.1619,47.5586],[0.1619,47.5524],[0.1579,47.5525],[0.1605,47.5509],[0.1571,47.5503],[0.1576,47.5487],[0.1541,47.5502],[0.1574,47.5508],[0.1568,47.5520],[0.1519,47.5503],[0.1520,47.5493],[0.1478,47.5514],[0.1451,47.5491],[0.1424,47.5516],[0.1358,47.5486],[0.1348,47.5494],[0.1366,47.5511],[0.1319,47.5513],[0.1283,47.5545],[0.1255,47.5525],[0.1230,47.5531],[0.1218,47.5576],[0.1248,47.5559],[0.1260,47.5591],[0.1333,47.5627],[0.1269,47.5642],[0.1273,47.5652],[0.1293,47.5646],[0.1277,47.5660],[0.1301,47.5701],[0.1325,47.5677],[0.1365,47.5670],[0.1318,47.5678],[0.1304,47.5696],[0.1307,47.5677],[0.1368,47.5660],[0.1451,47.5752],[0.1448,47.5778],[0.1488,47.5769],[0.1501,47.5733],[0.1531,47.5718],[0.1553,47.5737],[0.1600,47.5717],[0.1618,47.5731],[0.1652,47.5723],[0.1627,47.5704],[0.1600,47.5716],[0.1550,47.5704],[0.1554,47.5683],[0.1539,47.5680],[0.1524,47.5707],[0.1498,47.5700],[0.1510,47.5713],[0.1484,47.5730],[0.1474,47.5766],[0.1458,47.5772],[0.1463,47.5762]]]}},{"type":"Feature","properties":{"name":"Forêt de Perseigne"},"geometry":{"type":"Polygon","coordinates":[[[0.2861,48.3856],[0.2854,48.3837],[0.2828,48.3834],[0.2893,48.3846],[0.2909,48.3832],[0.2952,48.3862],[0.3024,48.3860],[0.3037,48.3869],[0.3031,48.3882],[0.3077,48.3876],[0.3068,48.3869],[0.3079,48.3856],[0.3159,48.3848],[0.3139,48.3867],[0.3101,48.3871],[0.3116,48.3889],[0.3175,48.3902],[0.3201,48.3951],[0.3201,48.3962],[0.3184,48.3961],[0.3202,48.3970],[0.3205,48.3990],[0.3216,48.3988],[0.3212,48.4010],[0.3231,48.4016],[0.3219,48.4022],[0.3239,48.4031],[0.3228,48.4045],[0.3215,48.4034],[0.3191,48.4045],[0.3211,48.4060],[0.3201,48.4070],[0.3213,48.4069],[0.3209,48.4101],[0.3265,48.4112],[0.3277,48.4105],[0.3265,48.4101],[0.3272,48.4097],[0.3298,48.4106],[0.3299,48.4125],[0.3315,48.4123],[0.3332,48.4152],[0.3355,48.4146],[0.3358,48.4158],[0.3341,48.4162],[0.3296,48.4140],[0.3288,48.4169],[0.3323,48.4174],[0.3372,48.4208],[0.3349,48.4224],[0.3370,48.4231],[0.3377,48.4249],[0.3398,48.4251],[0.3391,48.4278],[0.3405,48.4283],[0.3401,48.4297],[0.3364,48.4295],[0.3344,48.4277],[0.3278,48.4276],[0.3276,48.4261],[0.3262,48.4258],[0.3274,48.4253],[0.3257,48.4230],[0.3258,48.4195],[0.3229,48.4193],[0.3250,48.4189],[0.3252,48.4178],[0.3184,48.4171],[0.3190,48.4206],[0.3205,48.4218],[0.3214,48.4206],[0.3239,48.4207],[0.3254,48.4227],[0.3241,48.4243],[0.3207,48.4250],[0.3156,48.4239],[0.3133,48.4246],[0.3140,48.4262],[0.3125,48.4277],[0.3110,48.4266],[0.3079,48.4272],[0.3068,48.4234],[0.3029,48.4225],[0.3012,48.4250],[0.2890,48.4289],[0.2912,48.4290],[0.2911,48.4305],[0.2888,48.4308],[0.2890,48.4323],[0.2872,48.4319],[0.2867,48.4340],[0.2885,48.4356],[0.2852,48.4356],[0.2862,48.4393],[0.2893,48.4384],[0.2895,48.4413],[0.2809,48.4407],[0.2770,48.4425],[0.2767,48.4367],[0.2829,48.4358],[0.2817,48.4321],[0.2711,48.4330],[0.2659,48.4349],[0.2613,48.4333],[0.2602,48.4336],[0.2610,48.4348],[0.2569,48.4343],[0.2571,48.4333],[0.2550,48.4331],[0.2527,48.4358],[0.2502,48.4345],[0.2495,48.4353],[0.2510,48.4359],[0.2485,48.4357],[0.2491,48.4330],[0.2473,48.4315],[0.2488,48.4292],[0.2472,48.4286],[0.2450,48.4312],[0.2458,48.4280],[0.2432,48.4271],[0.2402,48.4285],[0.2376,48.4265],[0.2347,48.4311],[0.2335,48.4286],[0.2313,48.4288],[0.2318,48.4296],[0.2298,48.4309],[0.2243,48.4306],[0.2207,48.4320],[0.2168,48.4298],[0.2191,48.4285],[0.2170,48.4277],[0.2171,48.4233],[0.2157,48.4225],[0.2173,48.4209],[0.2160,48.4203],[0.2168,48.4190],[0.2147,48.4180],[0.2159,48.4173],[0.2148,48.4162],[0.2126,48.4164],[0.2127,48.4179],[0.2106,48.4183],[0.1976,48.4174],[0.2016,48.4151],[0.2022,48.4113],[0.2011,48.4095],[0.2004,48.4104],[0.1972,48.4095],[0.1946,48.4051],[0.1918,48.4042],[0.1822,48.4074],[0.1818,48.4091],[0.1831,48.4089],[0.1832,48.4074],[0.1855,48.4072],[0.1868,48.4136],[0.1856,48.4138],[0.1858,48.4153],[0.1823,48.4152],[0.1832,48.4160],[0.1821,48.4173],[0.1790,48.4164],[0.1745,48.4173],[0.1739,48.4163],[0.1767,48.4159],[0.1767,48.4148],[0.1751,48.4151],[0.1729,48.4118],[0.1700,48.4106],[0.1727,48.4099],[0.1725,48.4087],[0.1752,48.4085],[0.1739,48.4076],[0.1756,48.4055],[0.1744,48.4050],[0.1724,48.4073],[0.1659,48.4044],[0.1656,48.4055],[0.1624,48.4047],[0.1573,48.4061],[0.1599,48.4034],[0.1645,48.4032],[0.1620,48.4017],[0.1626,48.4003],[0.1613,48.3999],[0.1601,48.4012],[0.1566,48.4004],[0.1536,48.4020],[0.1514,48.4014],[0.1500,48.4007],[0.1543,48.3991],[0.1533,48.3974],[0.1470,48.3969],[0.1452,48.3960],[0.1450,48.3942],[0.1585,48.3904],[0.1630,48.3928],[0.1615,48.3940],[0.1660,48.3961],[0.1682,48.3942],[0.1762,48.3942],[0.1761,48.3911],[0.1786,48.3881],[0.1696,48.3871],[0.1605,48.3795],[0.1594,48.3796],[0.1612,48.3817],[0.1591,48.3818],[0.1566,48.3844],[0.1547,48.3840],[0.1565,48.3799],[0.1587,48.3796],[0.1567,48.3772],[0.1533,48.3779],[0.1532,48.3792],[0.1483,48.3794],[0.1488,48.3777],[0.1468,48.3760],[0.1435,48.3755],[0.1442,48.3778],[0.1464,48.3777],[0.1462,48.3788],[0.1439,48.3788],[0.1367,48.3746],[0.1395,48.3747],[0.1404,48.3709],[0.1429,48.3710],[0.1459,48.3687],[0.1448,48.3659],[0.1422,48.3642],[0.1432,48.3633],[0.1473,48.3672],[0.1465,48.3660],[0.1477,48.3652],[0.1478,48.3666],[0.1509,48.3681],[0.1553,48.3683],[0.1543,48.3696],[0.1555,48.3708],[0.1638,48.3718],[0.1583,48.3719],[0.1605,48.3755],[0.1652,48.3777],[0.1683,48.3763],[0.1701,48.3726],[0.1796,48.3780],[0.1806,48.3773],[0.1798,48.3763],[0.1825,48.3742],[0.1877,48.3727],[0.1895,48.3706],[0.1918,48.3708],[0.1882,48.3689],[0.1895,48.3658],[0.1986,48.3642],[0.1991,48.3673],[0.2162,48.3664],[0.2176,48.3688],[0.2219,48.3687],[0.2207,48.3714],[0.2195,48.3716],[0.2205,48.3730],[0.2186,48.3742],[0.2228,48.3736],[0.2350,48.3791],[0.2372,48.3779],[0.2364,48.3798],[0.2346,48.3800],[0.2385,48.3832],[0.2383,48.3843],[0.2409,48.3850],[0.2425,48.3839],[0.2435,48.3849],[0.2428,48.3856],[0.2451,48.3868],[0.2485,48.3868],[0.2502,48.3850],[0.2493,48.3846],[0.2500,48.3836],[0.2535,48.3857],[0.2503,48.3867],[0.2525,48.3865],[0.2507,48.3888],[0.2526,48.3928],[0.2544,48.3908],[0.2575,48.3909],[0.2604,48.3883],[0.2598,48.3904],[0.2558,48.3926],[0.2560,48.3945],[0.2537,48.3978],[0.2584,48.3973],[0.2585,48.3961],[0.2573,48.3961],[0.2583,48.3937],[0.2595,48.3951],[0.2668,48.3939],[0.2678,48.3923],[0.2662,48.3908],[0.2680,48.3902],[0.2697,48.3922],[0.2693,48.3934],[0.2734,48.3928],[0.2738,48.3909],[0.2723,48.3888],[0.2766,48.3879],[0.2769,48.3891],[0.2767,48.3848],[0.2777,48.3860],[0.2811,48.3839],[0.2825,48.3866],[0.2836,48.3857],[0.2876,48.3865],[0.2889,48.3849],[0.2861,48.3856]]]}},{"type":"Feature","properties":{"name":"Forêt de Bercé"},"geometry":{"type":"Polygon","coordinates":[[[0.3659,47.7694],[0.3690,47.7685],[0.3685,47.7668],[0.3723,47.7656],[0.3740,47.7636],[0.3783,47.7664],[0.3792,47.7652],[0.3794,47.7666],[0.3870,47.7676],[0.3891,47.7700],[0.3919,47.7700],[0.3890,47.7712],[0.3893,47.7702],[0.3855,47.7692],[0.3827,47.7709],[0.3834,47.7722],[0.3823,47.7725],[0.3799,47.7718],[0.3799,47.7700],[0.3748,47.7722],[0.3736,47.7704],[0.3716,47.7706],[0.3749,47.7736],[0.3762,47.7730],[0.3767,47.7763],[0.3740,47.7759],[0.3734,47.7765],[0.3758,47.7776],[0.3676,47.7796],[0.3736,47.7790],[0.3753,47.7807],[0.3707,47.7843],[0.3741,47.7849],[0.3682,47.7872],[0.3668,47.7864],[0.3692,47.7884],[0.3694,47.7901],[0.3728,47.7913],[0.3740,47.7893],[0.3782,47.7877],[0.3802,47.7886],[0.3752,47.7893],[0.3755,47.7910],[0.3731,47.7922],[0.3780,47.7928],[0.3814,47.7914],[0.3804,47.7887],[0.3809,47.7898],[0.3838,47.7898],[0.3861,47.7863],[0.3932,47.7866],[0.3968,47.7934],[0.3956,47.7952],[0.3987,47.7980],[0.4008,47.7964],[0.4030,47.7984],[0.4047,47.7976],[0.4056,47.7998],[0.4122,47.8034],[0.4205,47.8032],[0.4289,47.7986],[0.4294,47.7967],[0.4320,47.7959],[0.4336,47.7966],[0.4326,47.7969],[0.4330,47.7981],[0.4368,47.7979],[0.4366,47.7968],[0.4385,47.7967],[0.4401,47.7944],[0.4440,47.7946],[0.4451,47.7900],[0.4514,47.7886],[0.4519,47.7853],[0.4554,47.7855],[0.4559,47.7845],[0.4548,47.7836],[0.4567,47.7834],[0.4557,47.7815],[0.4566,47.7790],[0.4562,47.7815],[0.4572,47.7817],[0.4627,47.7777],[0.4652,47.7786],[0.4660,47.7771],[0.4690,47.7782],[0.4773,47.7765],[0.4764,47.7751],[0.4777,47.7732],[0.4809,47.7708],[0.4831,47.7708],[0.4823,47.7701],[0.4832,47.7693],[0.4778,47.7669],[0.4771,47.7648],[0.4748,47.7648],[0.4755,47.7627],[0.4784,47.7634],[0.4755,47.7624],[0.4757,47.7598],[0.4737,47.7602],[0.4745,47.7598],[0.4793,47.7588],[0.4824,47.7602],[0.4839,47.7588],[0.4831,47.7572],[0.4858,47.7564],[0.4869,47.7587],[0.4912,47.7608],[0.4919,47.7596],[0.4982,47.7579],[0.4975,47.7583],[0.4997,47.7604],[0.5015,47.7602],[0.5005,47.7636],[0.5046,47.7656],[0.5061,47.7645],[0.5092,47.7665],[0.5067,47.7674],[0.5075,47.7687],[0.5124,47.7682],[0.5134,47.7666],[0.5133,47.7698],[0.5050,47.7698],[0.5043,47.7731],[0.5072,47.7741],[0.5074,47.7784],[0.5142,47.7762],[0.5135,47.7782],[0.5086,47.7788],[0.5093,47.7798],[0.5082,47.7815],[0.5070,47.7793],[0.5052,47.7798],[0.5040,47.7828],[0.5068,47.7829],[0.5078,47.7856],[0.5133,47.7876],[0.5123,47.7878],[0.5135,47.7891],[0.5136,47.7938],[0.5114,47.7919],[0.5078,47.7928],[0.5028,47.7904],[0.4984,47.7948],[0.4966,47.7932],[0.4937,47.7962],[0.4888,47.7971],[0.4906,47.8004],[0.4945,47.7989],[0.4986,47.8017],[0.4990,47.8032],[0.4998,47.8014],[0.5035,47.8074],[0.5032,47.8092],[0.5095,47.8078],[0.5075,47.8093],[0.4936,47.8118],[0.4926,47.8050],[0.4910,47.8051],[0.4890,47.8084],[0.4841,47.8063],[0.4855,47.8046],[0.4818,47.8034],[0.4811,47.8048],[0.4811,47.8031],[0.4787,47.8019],[0.4832,47.7992],[0.4806,47.7969],[0.4767,47.7958],[0.4787,47.7943],[0.4665,47.7923],[0.4626,47.7950],[0.4610,47.7939],[0.4574,47.7964],[0.4578,47.7982],[0.4533,47.7998],[0.4540,47.8004],[0.4526,47.8018],[0.4544,47.8028],[0.4509,47.8059],[0.4543,47.8121],[0.4511,47.8152],[0.4527,47.8158],[0.4515,47.8183],[0.4399,47.8251],[0.4418,47.8256],[0.4447,47.8299],[0.4389,47.8314],[0.4385,47.8342],[0.4371,47.8348],[0.4347,47.8314],[0.4369,47.8291],[0.4332,47.8261],[0.4203,47.8234],[0.4156,47.8201],[0.4142,47.8206],[0.4164,47.8218],[0.4153,47.8229],[0.4097,47.8213],[0.4084,47.8233],[0.4020,47.8205],[0.4025,47.8196],[0.3988,47.8172],[0.3941,47.8194],[0.3902,47.8169],[0.3882,47.8200],[0.3836,47.8197],[0.3834,47.8216],[0.3884,47.8224],[0.3907,47.8247],[0.3897,47.8301],[0.3860,47.8303],[0.3858,47.8321],[0.3772,47.8266],[0.3726,47.8268],[0.3739,47.8237],[0.3723,47.8233],[0.3731,47.8179],[0.3668,47.8120],[0.3634,47.8132],[0.3629,47.8111],[0.3576,47.8065],[0.3574,47.8024],[0.3550,47.8032],[0.3529,47.8016],[0.3508,47.8025],[0.3465,47.8005],[0.3421,47.8004],[0.3432,47.7961],[0.3458,47.7956],[0.3478,47.7972],[0.3466,47.7940],[0.3484,47.7934],[0.3488,47.7915],[0.3463,47.7903],[0.3476,47.7889],[0.3468,47.7886],[0.3616,47.7735],[0.3637,47.7739],[0.3638,47.7714],[0.3659,47.7694]]]}},{"type":"Feature","properties":{"name":"Forêt de Bonnétable"},"geometry":{"type":"Polygon","coordinates":[[[0.4586,48.1781],[0.4538,48.1788],[0.4532,48.1813],[0.4626,48.1834],[0.4637,48.1815],[0.4643,48.1839],[0.4675,48.1847],[0.4692,48.1865],[0.4687,48.1882],[0.4657,48.1881],[0.4675,48.1885],[0.4666,48.1914],[0.4633,48.1924],[0.4660,48.1941],[0.4654,48.1949],[0.4668,48.1964],[0.4693,48.1969],[0.4703,48.2005],[0.4645,48.1997],[0.4621,48.1974],[0.4613,48.1991],[0.4630,48.1993],[0.4621,48.2015],[0.4601,48.1997],[0.4588,48.2007],[0.4546,48.2002],[0.4582,48.2013],[0.4574,48.2020],[0.4616,48.2032],[0.4632,48.2023],[0.4676,48.2045],[0.4662,48.2113],[0.4699,48.2139],[0.4744,48.2129],[0.4739,48.2111],[0.4828,48.2134],[0.4866,48.2116],[0.4866,48.2127],[0.4909,48.2129],[0.4897,48.2122],[0.4911,48.2105],[0.4921,48.2128],[0.4943,48.2101],[0.4973,48.2096],[0.4956,48.2071],[0.4926,48.2068],[0.4932,48.2046],[0.4888,48.2022],[0.4833,48.2039],[0.4771,48.2023],[0.4786,48.1995],[0.4818,48.1984],[0.4866,48.2005],[0.4876,48.2025],[0.4871,48.2005],[0.4889,48.2002],[0.4885,48.1988],[0.4912,48.1933],[0.4878,48.1879],[0.4902,48.1838],[0.4922,48.1841],[0.4916,48.1820],[0.4895,48.1821],[0.4892,48.1804],[0.4911,48.1797],[0.4890,48.1788],[0.4956,48.1758],[0.4991,48.1772],[0.4990,48.1746],[0.5005,48.1739],[0.4986,48.1719],[0.4885,48.1703],[0.4871,48.1678],[0.4791,48.1675],[0.4736,48.1694],[0.4744,48.1708],[0.4718,48.1733],[0.4661,48.1738],[0.4619,48.1722],[0.4587,48.1732],[0.4631,48.1776],[0.4586,48.1781]]]}},{"type":"Feature","properties":{"name":"Forêt du Pugle"},"geometry":{"type":"Polygon","coordinates":[[[-0.0107,47.6252],[-0.0091,47.6236],[-0.0082,47.6253],[-0.0005,47.6235],[0.0043,47.6270],[0.0052,47.6293],[0.0037,47.6298],[0.0101,47.6349],[0.0021,47.6427],[0.0102,47.6351],[0.0144,47.6401],[0.0055,47.6446],[-0.0052,47.6479],[-0.0200,47.6492],[-0.0302,47.6534],[-0.0252,47.6479],[-0.0192,47.6351],[-0.0146,47.6311],[-0.0107,47.6252]]]}},{"type":"Feature","properties":{"name":"Forêt de Mézières"},"geometry":{"type":"Polygon","coordinates":[[[0.0724,48.1573],[0.0708,48.1562],[0.0704,48.1537],[0.0747,48.1510],[0.0752,48.1469],[0.0818,48.1541],[0.0826,48.1518],[0.0867,48.1520],[0.0901,48.1505],[0.0886,48.1492],[0.0834,48.1497],[0.0792,48.1484],[0.0752,48.1456],[0.0780,48.1446],[0.0759,48.1430],[0.0789,48.1438],[0.0790,48.1422],[0.0770,48.1410],[0.0721,48.1424],[0.0697,48.1409],[0.0683,48.1367],[0.0661,48.1374],[0.0656,48.1353],[0.0625,48.1352],[0.0655,48.1351],[0.0652,48.1336],[0.0671,48.1330],[0.0740,48.1334],[0.0716,48.1327],[0.0718,48.1312],[0.0671,48.1323],[0.0660,48.1308],[0.0668,48.1291],[0.0658,48.1290],[0.0658,48.1325],[0.0613,48.1328],[0.0631,48.1317],[0.0624,48.1302],[0.0609,48.1302],[0.0617,48.1287],[0.0609,48.1283],[0.0628,48.1281],[0.0626,48.1297],[0.0660,48.1286],[0.0605,48.1257],[0.0613,48.1228],[0.0644,48.1241],[0.0625,48.1227],[0.0594,48.1226],[0.0578,48.1266],[0.0613,48.1274],[0.0540,48.1292],[0.0547,48.1316],[0.0503,48.1316],[0.0465,48.1334],[0.0467,48.1343],[0.0428,48.1328],[0.0406,48.1336],[0.0405,48.1349],[0.0385,48.1349],[0.0392,48.1354],[0.0348,48.1351],[0.0343,48.1363],[0.0356,48.1372],[0.0333,48.1378],[0.0401,48.1413],[0.0406,48.1427],[0.0425,48.1424],[0.0432,48.1407],[0.0448,48.1418],[0.0459,48.1411],[0.0507,48.1459],[0.0538,48.1459],[0.0551,48.1479],[0.0622,48.1460],[0.0637,48.1477],[0.0626,48.1508],[0.0606,48.1516],[0.0598,48.1497],[0.0567,48.1496],[0.0559,48.1512],[0.0530,48.1522],[0.0593,48.1525],[0.0596,48.1544],[0.0658,48.1538],[0.0670,48.1578],[0.0677,48.1569],[0.0714,48.1584],[0.0724,48.1573]]]}},{"type":"Feature","properties":{"name":"Forêt domaniale d\u0027Écouves"},"geometry":{"type":"Polygon","coordinates":[[[0.0627,48.5077],[0.0621,48.5033],[0.0634,48.5008],[0.0461,48.5064],[0.0415,48.5042],[0.0271,48.5019],[0.0252,48.4968],[0.0201,48.5022],[0.0128,48.4997],[0.0109,48.5016],[0.0038,48.5002],[0.0041,48.4995],[-0.0181,48.5011],[-0.0201,48.4999],[-0.0185,48.4990],[-0.0197,48.4948],[-0.0222,48.4928],[-0.0321,48.4935],[-0.0323,48.4970],[-0.0351,48.4973],[-0.0366,48.5000],[-0.0404,48.5013],[-0.0546,48.5021],[-0.0536,48.5029],[-0.0553,48.5037],[-0.0566,48.5029],[-0.0561,48.5020],[-0.0515,48.4994],[-0.0539,48.4995],[-0.0552,48.4975],[-0.0593,48.4979],[-0.0518,48.4948],[-0.0575,48.4960],[-0.0614,48.4987],[-0.0651,48.4979],[-0.0653,48.4996],[-0.0696,48.5036],[-0.0697,48.5057],[-0.0608,48.5066],[-0.0592,48.5050],[-0.0605,48.5074],[-0.0497,48.5138],[-0.0459,48.5127],[-0.0384,48.5145],[-0.0373,48.5104],[-0.0339,48.5094],[-0.0257,48.5141],[-0.0194,48.5143],[-0.0176,48.5159],[-0.0116,48.5157],[-0.0027,48.5187],[0.0049,48.5192],[0.0056,48.5175],[0.0106,48.5197],[0.0079,48.5205],[0.0090,48.5214],[0.0079,48.5221],[0.0129,48.5230],[0.0072,48.5250],[0.0071,48.5264],[0.0112,48.5275],[0.0124,48.5266],[0.0137,48.5276],[0.0125,48.5286],[0.0153,48.5288],[0.0132,48.5304],[0.0209,48.5360],[0.0211,48.5384],[0.0226,48.5391],[0.0216,48.5413],[0.0191,48.5441],[0.0058,48.5436],[0.0011,48.5420],[-0.0035,48.5386],[-0.0047,48.5399],[-0.0055,48.5387],[-0.0113,48.5381],[-0.0179,48.5435],[-0.0367,48.5469],[-0.0447,48.5459],[-0.0527,48.5466],[-0.0573,48.5457],[-0.0579,48.5438],[-0.0584,48.5459],[-0.0638,48.5465],[-0.0637,48.5483],[-0.0616,48.5490],[-0.0623,48.5496],[-0.0682,48.5471],[-0.0714,48.5488],[-0.0706,48.5518],[-0.0726,48.5526],[-0.0739,48.5551],[-0.0830,48.5540],[-0.0824,48.5567],[-0.0837,48.5544],[-0.0843,48.5578],[-0.0872,48.5576],[-0.0861,48.5583],[-0.0913,48.5598],[-0.0919,48.5612],[-0.0919,48.5596],[-0.0949,48.5589],[-0.0950,48.5598],[-0.0978,48.5582],[-0.1022,48.5621],[-0.1047,48.5625],[-0.1059,48.5662],[-0.1099,48.5682],[-0.1041,48.5696],[-0.0993,48.5672],[-0.0918,48.5691],[-0.0902,48.5704],[-0.0911,48.5725],[-0.0897,48.5721],[-0.0893,48.5739],[-0.0810,48.5745],[-0.0806,48.5762],[-0.0827,48.5754],[-0.0857,48.5774],[-0.0843,48.5787],[-0.0873,48.5785],[-0.0868,48.5791],[-0.0881,48.5795],[-0.0869,48.5803],[-0.0822,48.5789],[-0.0817,48.5804],[-0.0800,48.5802],[-0.0807,48.5777],[-0.0790,48.5774],[-0.0784,48.5800],[-0.0805,48.5811],[-0.0804,48.5823],[-0.0878,48.5852],[-0.0894,48.5835],[-0.0937,48.5842],[-0.0947,48.5869],[-0.0961,48.5873],[-0.0966,48.5842],[-0.0970,48.5885],[-0.0948,48.5881],[-0.0959,48.5888],[-0.0949,48.5921],[-0.0913,48.5982],[-0.0902,48.5964],[-0.0918,48.5948],[-0.0898,48.5939],[-0.0887,48.5954],[-0.0880,48.5944],[-0.0860,48.5958],[-0.0905,48.5988],[-0.0884,48.5999],[-0.0867,48.5988],[-0.0835,48.6021],[-0.0633,48.6045],[-0.0618,48.5989],[-0.0562,48.5979],[-0.0525,48.5949],[-0.0538,48.5950],[-0.0526,48.5931],[-0.0510,48.5933],[-0.0524,48.5929],[-0.0510,48.5928],[-0.0516,48.5908],[-0.0495,48.5896],[-0.0510,48.5898],[-0.0510,48.5874],[-0.0529,48.5868],[-0.0518,48.5858],[-0.0519,48.5821],[-0.0561,48.5800],[-0.0498,48.5790],[-0.0488,48.5769],[-0.0497,48.5757],[-0.0467,48.5728],[-0.0472,48.5707],[-0.0459,48.5695],[-0.0413,48.5677],[-0.0360,48.5681],[-0.0395,48.5723],[-0.0396,48.5743],[-0.0435,48.5774],[-0.0389,48.5789],[-0.0379,48.5806],[-0.0259,48.5814],[-0.0255,48.5731],[-0.0224,48.5674],[-0.0235,48.5633],[-0.0243,48.5639],[-0.0254,48.5626],[-0.0245,48.5621],[-0.0052,48.5671],[-0.0029,48.5634],[0.0018,48.5652],[0.0033,48.5642],[0.0038,48.5652],[0.0070,48.5653],[0.0093,48.5631],[0.0114,48.5636],[0.0129,48.5620],[0.0115,48.5606],[0.0139,48.5628],[0.0163,48.5613],[0.0206,48.5611],[0.0277,48.5647],[0.0316,48.5631],[0.0399,48.5643],[0.0405,48.5669],[0.0501,48.5658],[0.0523,48.5681],[0.0504,48.5656],[0.0553,48.5644],[0.0660,48.5690],[0.0685,48.5713],[0.0686,48.5704],[0.0700,48.5714],[0.0729,48.5708],[0.0734,48.5695],[0.0831,48.5750],[0.0883,48.5795],[0.0841,48.5858],[0.0863,48.5840],[0.0870,48.5867],[0.0884,48.5861],[0.0965,48.5916],[0.1116,48.5890],[0.1116,48.5874],[0.1140,48.5860],[0.1186,48.5864],[0.1173,48.5887],[0.1191,48.5886],[0.1195,48.5866],[0.1259,48.5842],[0.1222,48.5835],[0.1271,48.5830],[0.1287,48.5815],[0.1317,48.5826],[0.1313,48.5807],[0.1330,48.5802],[0.1265,48.5746],[0.1298,48.5721],[0.1290,48.5715],[0.1270,48.5724],[0.1256,48.5706],[0.1259,48.5736],[0.1252,48.5721],[0.1241,48.5730],[0.1178,48.5724],[0.1155,48.5716],[0.1151,48.5697],[0.1109,48.5698],[0.1118,48.5687],[0.1098,48.5704],[0.1033,48.5696],[0.0922,48.5648],[0.0931,48.5625],[0.0913,48.5640],[0.0905,48.5632],[0.0932,48.5619],[0.0895,48.5599],[0.0910,48.5560],[0.0928,48.5565],[0.0955,48.5549],[0.0963,48.5562],[0.1020,48.5574],[0.1046,48.5555],[0.1082,48.5559],[0.1096,48.5573],[0.1097,48.5553],[0.1140,48.5555],[0.1163,48.5580],[0.1154,48.5590],[0.1166,48.5593],[0.1179,48.5573],[0.1202,48.5589],[0.1191,48.5602],[0.1253,48.5605],[0.1256,48.5592],[0.1289,48.5606],[0.1274,48.5618],[0.1338,48.5657],[0.1529,48.5703],[0.1535,48.5675],[0.1591,48.5699],[0.1603,48.5673],[0.1637,48.5653],[0.1637,48.5624],[0.1668,48.5625],[0.1663,48.5599],[0.1636,48.5608],[0.1611,48.5595],[0.1612,48.5563],[0.1715,48.5526],[0.1678,48.5479],[0.1637,48.5493],[0.1612,48.5481],[0.1584,48.5493],[0.1537,48.5490],[0.1538,48.5475],[0.1586,48.5449],[0.1617,48.5464],[0.1586,48.5429],[0.1504,48.5450],[0.1493,48.5435],[0.1483,48.5465],[0.1447,48.5451],[0.1430,48.5452],[0.1432,48.5464],[0.1277,48.5434],[0.1267,48.5415],[0.1281,48.5415],[0.1275,48.5393],[0.1302,48.5393],[0.1285,48.5376],[0.1276,48.5385],[0.1256,48.5373],[0.1272,48.5376],[0.1297,48.5348],[0.1271,48.5365],[0.1245,48.5352],[0.1252,48.5362],[0.1234,48.5385],[0.1192,48.5371],[0.1193,48.5387],[0.1158,48.5386],[0.1167,48.5361],[0.1234,48.5353],[0.1237,48.5343],[0.1116,48.5354],[0.1138,48.5336],[0.1135,48.5327],[0.1210,48.5305],[0.1187,48.5296],[0.1202,48.5286],[0.1182,48.5289],[0.1193,48.5274],[0.1211,48.5284],[0.1223,48.5273],[0.1183,48.5217],[0.1186,48.5194],[0.1235,48.5233],[0.1222,48.5224],[0.1234,48.5225],[0.1226,48.5206],[0.1255,48.5175],[0.1258,48.5149],[0.1243,48.5170],[0.1233,48.5157],[0.1240,48.5146],[0.1187,48.5165],[0.1159,48.5147],[0.1138,48.5169],[0.1171,48.5157],[0.1177,48.5187],[0.1142,48.5209],[0.1093,48.5209],[0.1062,48.5186],[0.1093,48.5164],[0.1085,48.5138],[0.1133,48.5109],[0.1097,48.5114],[0.1128,48.5092],[0.1121,48.5087],[0.1058,48.5091],[0.1025,48.5056],[0.0980,48.5076],[0.0965,48.5054],[0.0947,48.5058],[0.0923,48.5046],[0.0935,48.5036],[0.0893,48.5020],[0.0898,48.5006],[0.0866,48.5000],[0.0874,48.4988],[0.0835,48.4985],[0.0829,48.5001],[0.0783,48.5000],[0.0777,48.4986],[0.0722,48.4973],[0.0693,48.4982],[0.0686,48.4997],[0.0667,48.4995],[0.0664,48.5052],[0.0680,48.5068],[0.0664,48.5071],[0.0669,48.5101],[0.0627,48.5077]]]}},{"type":"Feature","properties":{"name":"Forêt de Vibraye"},"geometry":{"type":"Polygon","coordinates":[[[0.6726,47.9821],[0.6732,47.9888],[0.6769,47.9889],[0.6781,47.9868],[0.6799,47.9868],[0.6806,47.9887],[0.6825,47.9881],[0.6852,47.9896],[0.6845,47.9922],[0.6842,47.9911],[0.6797,47.9919],[0.6789,47.9937],[0.6802,47.9945],[0.6790,47.9962],[0.6812,47.9964],[0.6793,48.0002],[0.6828,48.0016],[0.6807,48.0021],[0.6842,48.0035],[0.6835,48.0046],[0.6850,48.0047],[0.6858,48.0075],[0.6877,48.0092],[0.6858,48.0100],[0.6944,48.0110],[0.6971,48.0102],[0.6967,48.0128],[0.7025,48.0124],[0.7019,48.0151],[0.7001,48.0147],[0.6988,48.0176],[0.6964,48.0170],[0.6931,48.0196],[0.6880,48.0143],[0.6861,48.0154],[0.6884,48.0175],[0.6860,48.0228],[0.6829,48.0210],[0.6815,48.0223],[0.6824,48.0241],[0.6761,48.0248],[0.6675,48.0228],[0.6659,48.0248],[0.6635,48.0230],[0.6543,48.0251],[0.6562,48.0251],[0.6552,48.0265],[0.6592,48.0259],[0.6600,48.0268],[0.6635,48.0266],[0.6642,48.0251],[0.6699,48.0254],[0.6706,48.0270],[0.6689,48.0307],[0.6669,48.0306],[0.6658,48.0272],[0.6646,48.0280],[0.6591,48.0268],[0.6537,48.0283],[0.6547,48.0294],[0.6578,48.0277],[0.6588,48.0298],[0.6642,48.0319],[0.6610,48.0333],[0.6613,48.0366],[0.6589,48.0373],[0.6632,48.0369],[0.6637,48.0380],[0.6605,48.0398],[0.6612,48.0409],[0.6574,48.0416],[0.6581,48.0429],[0.6602,48.0423],[0.6619,48.0441],[0.6678,48.0430],[0.6700,48.0415],[0.6811,48.0426],[0.6806,48.0405],[0.6727,48.0372],[0.6664,48.0390],[0.6663,48.0377],[0.6678,48.0370],[0.6665,48.0363],[0.6699,48.0335],[0.6756,48.0341],[0.6752,48.0353],[0.6768,48.0355],[0.6758,48.0366],[0.6838,48.0369],[0.6846,48.0438],[0.6813,48.0427],[0.6815,48.0441],[0.6788,48.0443],[0.6766,48.0431],[0.6753,48.0462],[0.6723,48.0447],[0.6726,48.0432],[0.6752,48.0434],[0.6752,48.0426],[0.6695,48.0423],[0.6721,48.0441],[0.6676,48.0462],[0.6666,48.0482],[0.6645,48.0475],[0.6662,48.0509],[0.6826,48.0522],[0.6805,48.0496],[0.6850,48.0491],[0.6853,48.0531],[0.6823,48.0529],[0.6854,48.0536],[0.6855,48.0549],[0.6842,48.0554],[0.6849,48.0564],[0.6928,48.0572],[0.6930,48.0597],[0.6993,48.0621],[0.6998,48.0586],[0.7038,48.0569],[0.7059,48.0575],[0.7070,48.0554],[0.7109,48.0553],[0.7095,48.0535],[0.7116,48.0516],[0.7161,48.0536],[0.7172,48.0518],[0.7258,48.0526],[0.7282,48.0516],[0.7286,48.0489],[0.7318,48.0474],[0.7433,48.0461],[0.7519,48.0423],[0.7519,48.0385],[0.7496,48.0335],[0.7515,48.0331],[0.7509,48.0299],[0.7535,48.0315],[0.7541,48.0304],[0.7497,48.0290],[0.7546,48.0285],[0.7536,48.0266],[0.7552,48.0242],[0.7500,48.0218],[0.7456,48.0212],[0.7429,48.0222],[0.7422,48.0212],[0.7442,48.0206],[0.7443,48.0165],[0.7382,48.0071],[0.7325,48.0050],[0.7288,48.0003],[0.7242,47.9999],[0.7218,47.9976],[0.7147,47.9993],[0.7138,47.9975],[0.7158,47.9979],[0.7171,47.9955],[0.7185,47.9965],[0.7194,47.9955],[0.7156,47.9898],[0.7085,47.9904],[0.7081,47.9881],[0.7061,47.9875],[0.7027,47.9869],[0.7012,47.9878],[0.6993,47.9868],[0.6964,47.9878],[0.6924,47.9857],[0.6937,47.9846],[0.6910,47.9799],[0.6930,47.9783],[0.6952,47.9789],[0.6954,47.9731],[0.6971,47.9749],[0.6968,47.9808],[0.7020,47.9822],[0.7090,47.9793],[0.7068,47.9785],[0.7081,47.9773],[0.7126,47.9796],[0.7173,47.9771],[0.7129,47.9753],[0.7056,47.9751],[0.7046,47.9735],[0.7061,47.9731],[0.7045,47.9706],[0.7053,47.9702],[0.7035,47.9695],[0.7057,47.9671],[0.7022,47.9627],[0.7048,47.9620],[0.7045,47.9603],[0.7081,47.9584],[0.7079,47.9575],[0.7032,47.9594],[0.7024,47.9587],[0.7037,47.9577],[0.7025,47.9569],[0.7003,47.9591],[0.7020,47.9605],[0.6992,47.9614],[0.6989,47.9644],[0.7009,47.9657],[0.6993,47.9680],[0.6968,47.9679],[0.6954,47.9700],[0.6923,47.9706],[0.6943,47.9724],[0.6934,47.9753],[0.6912,47.9770],[0.6836,47.9778],[0.6862,47.9801],[0.6839,47.9816],[0.6842,47.9845],[0.6807,47.9836],[0.6798,47.9848],[0.6780,47.9847],[0.6726,47.9821]]]}},{"type":"Feature","properties":{"name":"Forêt de la Pierre"},"geometry":{"type":"Polygon","coordinates":[[[0.6378,47.9751],[0.6358,47.9799],[0.6426,47.9819],[0.6393,47.9818],[0.6386,47.9839],[0.6348,47.9831],[0.6358,47.9844],[0.6342,47.9859],[0.6361,47.9876],[0.6350,47.9884],[0.6407,47.9871],[0.6416,47.9887],[0.6448,47.9891],[0.6422,47.9873],[0.6419,47.9851],[0.6453,47.9842],[0.6452,47.9828],[0.6495,47.9845],[0.6492,47.9872],[0.6510,47.9852],[0.6525,47.9854],[0.6539,47.9829],[0.6524,47.9817],[0.6532,47.9808],[0.6507,47.9806],[0.6489,47.9789],[0.6492,47.9772],[0.6550,47.9795],[0.6546,47.9825],[0.6571,47.9822],[0.6584,47.9846],[0.6505,47.9891],[0.6554,47.9902],[0.6552,47.9918],[0.6502,47.9921],[0.6465,47.9951],[0.6477,47.9964],[0.6451,47.9983],[0.6483,47.9984],[0.6489,47.9959],[0.6523,47.9953],[0.6545,47.9974],[0.6558,47.9964],[0.6573,47.9908],[0.6596,47.9891],[0.6559,47.9877],[0.6585,47.9862],[0.6613,47.9868],[0.6606,47.9886],[0.6628,47.9958],[0.6676,47.9993],[0.6671,48.0002],[0.6624,47.9993],[0.6595,48.0026],[0.6563,48.0005],[0.6567,48.0023],[0.6538,48.0028],[0.6475,47.9993],[0.6424,47.9999],[0.6428,48.0007],[0.6406,48.0015],[0.6407,48.0033],[0.6359,48.0080],[0.6363,48.0089],[0.6334,48.0101],[0.6296,48.0094],[0.6195,48.0112],[0.6112,48.0094],[0.6115,48.0109],[0.6137,48.0117],[0.6205,48.0119],[0.6206,48.0132],[0.6244,48.0139],[0.6213,48.0152],[0.6220,48.0177],[0.6271,48.0180],[0.6254,48.0195],[0.6219,48.0188],[0.6228,48.0202],[0.6204,48.0203],[0.6231,48.0210],[0.6225,48.0229],[0.6239,48.0237],[0.6344,48.0269],[0.6348,48.0244],[0.6332,48.0247],[0.6339,48.0242],[0.6329,48.0226],[0.6343,48.0224],[0.6353,48.0196],[0.6339,48.0177],[0.6354,48.0161],[0.6402,48.0176],[0.6394,48.0189],[0.6419,48.0199],[0.6489,48.0149],[0.6518,48.0157],[0.6474,48.0134],[0.6519,48.0098],[0.6539,48.0108],[0.6609,48.0083],[0.6607,48.0095],[0.6631,48.0116],[0.6680,48.0112],[0.6703,48.0124],[0.6712,48.0109],[0.6732,48.0106],[0.6711,48.0098],[0.6747,48.0105],[0.6745,48.0095],[0.6765,48.0094],[0.6771,48.0055],[0.6735,47.9984],[0.6718,47.9963],[0.6699,47.9968],[0.6704,47.9957],[0.6683,47.9953],[0.6669,47.9923],[0.6629,47.9895],[0.6637,47.9862],[0.6663,47.9864],[0.6644,47.9856],[0.6659,47.9842],[0.6724,47.9849],[0.6730,47.9815],[0.6699,47.9811],[0.6749,47.9758],[0.6778,47.9751],[0.6763,47.9742],[0.6771,47.9737],[0.6760,47.9723],[0.6738,47.9726],[0.6734,47.9715],[0.6755,47.9710],[0.6709,47.9706],[0.6741,47.9676],[0.6689,47.9690],[0.6666,47.9684],[0.6665,47.9657],[0.6729,47.9660],[0.6739,47.9663],[0.6731,47.9672],[0.6765,47.9676],[0.6780,47.9646],[0.6754,47.9652],[0.6752,47.9622],[0.6832,47.9613],[0.6804,47.9580],[0.6777,47.9595],[0.6759,47.9560],[0.6770,47.9550],[0.6786,47.9559],[0.6833,47.9512],[0.6916,47.9504],[0.6920,47.9468],[0.6894,47.9468],[0.6901,47.9456],[0.6856,47.9471],[0.6710,47.9560],[0.6635,47.9566],[0.6641,47.9583],[0.6618,47.9591],[0.6587,47.9592],[0.6580,47.9542],[0.6566,47.9541],[0.6548,47.9567],[0.6508,47.9568],[0.6512,47.9546],[0.6493,47.9547],[0.6494,47.9560],[0.6471,47.9570],[0.6480,47.9603],[0.6463,47.9571],[0.6424,47.9560],[0.6431,47.9551],[0.6399,47.9552],[0.6365,47.9511],[0.6305,47.9526],[0.6287,47.9519],[0.6268,47.9508],[0.6276,47.9484],[0.6265,47.9479],[0.6243,47.9481],[0.6220,47.9548],[0.6094,47.9583],[0.6086,47.9576],[0.6095,47.9555],[0.6082,47.9551],[0.6066,47.9567],[0.6094,47.9611],[0.6144,47.9643],[0.6088,47.9645],[0.6074,47.9678],[0.6097,47.9682],[0.6086,47.9689],[0.6102,47.9699],[0.6064,47.9707],[0.6065,47.9724],[0.6033,47.9754],[0.6069,47.9753],[0.6062,47.9745],[0.6083,47.9744],[0.6082,47.9723],[0.6108,47.9734],[0.6143,47.9707],[0.6127,47.9701],[0.6171,47.9709],[0.6187,47.9680],[0.6163,47.9672],[0.6129,47.9689],[0.6147,47.9669],[0.6174,47.9676],[0.6194,47.9668],[0.6231,47.9708],[0.6196,47.9730],[0.6109,47.9734],[0.6099,47.9774],[0.6115,47.9775],[0.6129,47.9747],[0.6118,47.9774],[0.6153,47.9768],[0.6178,47.9791],[0.6156,47.9794],[0.6148,47.9831],[0.6239,47.9816],[0.6255,47.9833],[0.6270,47.9832],[0.6245,47.9864],[0.6272,47.9861],[0.6302,47.9801],[0.6283,47.9796],[0.6297,47.9775],[0.6290,47.9720],[0.6341,47.9737],[0.6365,47.9722],[0.6351,47.9712],[0.6372,47.9689],[0.6365,47.9683],[0.6389,47.9670],[0.6406,47.9683],[0.6415,47.9669],[0.6418,47.9692],[0.6378,47.9751]]]}},{"type":"Feature","properties":{"name":"Bois de Fléteau"},"geometry":{"type":"Polygon","coordinates":[[[0.8604,47.6029],[0.8616,47.5999],[0.8700,47.6019],[0.8746,47.6008],[0.8749,47.6031],[0.8787,47.6014],[0.8838,47.6016],[0.8818,47.5995],[0.8849,47.5980],[0.8875,47.5923],[0.8896,47.5928],[0.8905,47.5917],[0.8872,47.5907],[0.8870,47.5894],[0.8903,47.5890],[0.8870,47.5860],[0.8865,47.5894],[0.8852,47.5887],[0.8823,47.5904],[0.8809,47.5875],[0.8851,47.5885],[0.8858,47.5874],[0.8842,47.5869],[0.8846,47.5862],[0.8872,47.5856],[0.8797,47.5858],[0.8796,47.5870],[0.8773,47.5862],[0.8765,47.5876],[0.8732,47.5883],[0.8656,47.5817],[0.8644,47.5832],[0.8612,47.5824],[0.8566,47.5867],[0.8574,47.5903],[0.8591,47.5903],[0.8615,47.5930],[0.8569,47.5923],[0.8574,47.5951],[0.8619,47.5962],[0.8643,47.5941],[0.8717,47.5926],[0.8743,47.5944],[0.8725,47.5954],[0.8739,47.5962],[0.8734,47.5976],[0.8783,47.5970],[0.8809,47.5997],[0.8804,47.6008],[0.8802,47.5997],[0.8775,47.5996],[0.8765,47.5984],[0.8764,47.5995],[0.8699,47.5996],[0.8670,47.5969],[0.8643,47.5975],[0.8647,47.5992],[0.8619,47.5983],[0.8590,47.5993],[0.8600,47.6001],[0.8590,47.6025],[0.8604,47.6029]]]}},{"type":"Feature","properties":{"name":"Forêt domaniale de Bellême"},"geometry":{"type":"Polygon","coordinates":[[[0.5035,48.4203],[0.5117,48.4172],[0.5130,48.4140],[0.5099,48.4125],[0.5126,48.4109],[0.5126,48.4085],[0.5092,48.4095],[0.5089,48.4086],[0.5133,48.4072],[0.5105,48.4043],[0.5113,48.4038],[0.5164,48.4083],[0.5263,48.4112],[0.5286,48.4106],[0.5204,48.4086],[0.5206,48.4070],[0.5158,48.4068],[0.5137,48.4043],[0.5150,48.4038],[0.5144,48.4021],[0.5159,48.4020],[0.5153,48.3998],[0.5226,48.4016],[0.5249,48.4044],[0.5277,48.4050],[0.5276,48.4093],[0.5345,48.4116],[0.5398,48.4109],[0.5386,48.4099],[0.5423,48.4055],[0.5439,48.4064],[0.5498,48.4045],[0.5476,48.4000],[0.5465,48.3992],[0.5455,48.4001],[0.5441,48.3987],[0.5446,48.3971],[0.5484,48.3979],[0.5512,48.4003],[0.5528,48.3983],[0.5529,48.3957],[0.5672,48.3984],[0.5648,48.4033],[0.5569,48.4072],[0.5568,48.4089],[0.5528,48.4053],[0.5487,48.4058],[0.5427,48.4084],[0.5398,48.4110],[0.5480,48.4142],[0.5565,48.4131],[0.5579,48.4114],[0.5591,48.4127],[0.5732,48.4132],[0.5767,48.4118],[0.5792,48.4127],[0.5779,48.4111],[0.5798,48.4119],[0.5821,48.4097],[0.5808,48.4094],[0.5834,48.4081],[0.5813,48.4034],[0.5863,48.4024],[0.5849,48.4016],[0.5882,48.3982],[0.5921,48.3996],[0.5955,48.3965],[0.5907,48.3957],[0.5919,48.3943],[0.5878,48.3927],[0.5800,48.3935],[0.5732,48.3911],[0.5675,48.3910],[0.5656,48.3858],[0.5604,48.3874],[0.5581,48.3865],[0.5547,48.3889],[0.5515,48.3868],[0.5427,48.3878],[0.5407,48.3847],[0.5375,48.3838],[0.5369,48.3828],[0.5387,48.3816],[0.5348,48.3806],[0.5299,48.3814],[0.5261,48.3803],[0.5176,48.3830],[0.5170,48.3819],[0.5129,48.3826],[0.5076,48.3810],[0.5075,48.3794],[0.5020,48.3783],[0.5020,48.3794],[0.4980,48.3801],[0.4952,48.3823],[0.4923,48.3826],[0.4922,48.3810],[0.4853,48.3814],[0.4789,48.3848],[0.4674,48.3843],[0.4637,48.3817],[0.4599,48.3843],[0.4586,48.3832],[0.4594,48.3847],[0.4568,48.3852],[0.4608,48.3878],[0.4638,48.3879],[0.4639,48.3918],[0.4496,48.3921],[0.4518,48.3935],[0.4495,48.3948],[0.4553,48.3963],[0.4568,48.3954],[0.4542,48.3937],[0.4696,48.3931],[0.4732,48.3941],[0.4782,48.3926],[0.4808,48.3963],[0.4732,48.3960],[0.4716,48.3985],[0.4717,48.4026],[0.4652,48.4026],[0.4671,48.4043],[0.4664,48.4061],[0.4742,48.4050],[0.4826,48.4079],[0.4875,48.4069],[0.4858,48.4060],[0.4885,48.4062],[0.4893,48.4078],[0.4982,48.4067],[0.4999,48.4093],[0.5021,48.4101],[0.5079,48.4100],[0.5064,48.4132],[0.5040,48.4124],[0.5054,48.4111],[0.5029,48.4115],[0.5024,48.4139],[0.5012,48.4144],[0.5017,48.4154],[0.5026,48.4142],[0.5023,48.4157],[0.5047,48.4171],[0.5066,48.4159],[0.5098,48.4178],[0.5079,48.4185],[0.5043,48.4174],[0.5012,48.4196],[0.5021,48.4209],[0.5035,48.4203]]]}},{"type":"Feature","properties":{"name":"Bois des Sicots"},"geometry":{"type":"Polygon","coordinates":[[[0.7334,48.5100],[0.7406,48.5093],[0.7459,48.5052],[0.7448,48.5038],[0.7458,48.5026],[0.7500,48.5027],[0.7524,48.5055],[0.7545,48.5012],[0.7579,48.5022],[0.7552,48.5041],[0.7552,48.5072],[0.7580,48.5060],[0.7568,48.5038],[0.7583,48.5034],[0.7592,48.5049],[0.7617,48.5027],[0.7627,48.5050],[0.7617,48.5063],[0.7651,48.5062],[0.7655,48.5083],[0.7671,48.5083],[0.7696,48.5052],[0.7644,48.5055],[0.7643,48.5039],[0.7632,48.5039],[0.7622,48.4979],[0.7658,48.4967],[0.7616,48.4951],[0.7600,48.4959],[0.7597,48.4986],[0.7618,48.5000],[0.7558,48.4996],[0.7568,48.4986],[0.7550,48.4983],[0.7597,48.4943],[0.7515,48.4964],[0.7484,48.4997],[0.7429,48.5022],[0.7443,48.5029],[0.7428,48.5042],[0.7268,48.4987],[0.7263,48.4995],[0.7304,48.5013],[0.7424,48.5044],[0.7394,48.5070],[0.7369,48.5044],[0.7312,48.5052],[0.7312,48.5035],[0.7293,48.5028],[0.7250,48.5039],[0.7319,48.5068],[0.7357,48.5063],[0.7359,48.5076],[0.7334,48.5080],[0.7341,48.5087],[0.7323,48.5095],[0.7324,48.5082],[0.7272,48.5057],[0.7205,48.5044],[0.7212,48.5036],[0.7184,48.5019],[0.7150,48.5020],[0.7098,48.4974],[0.7079,48.4979],[0.7072,48.5015],[0.7094,48.5065],[0.7085,48.5073],[0.7161,48.5130],[0.7178,48.5114],[0.7159,48.5111],[0.7128,48.5075],[0.7097,48.5028],[0.7093,48.4997],[0.7106,48.4996],[0.7142,48.5039],[0.7164,48.5034],[0.7167,48.5048],[0.7180,48.5035],[0.7200,48.5062],[0.7244,48.5058],[0.7236,48.5073],[0.7246,48.5082],[0.7265,48.5072],[0.7307,48.5085],[0.7306,48.5100],[0.7334,48.5100]]]}},{"type":"Feature","properties":{"name":"Forêt Domaniale de Bourse"},"geometry":{"type":"Polygon","coordinates":[[[0.2501,48.5234],[0.2486,48.5167],[0.2624,48.5157],[0.2620,48.5095],[0.2575,48.5092],[0.2573,48.5071],[0.2548,48.5073],[0.2545,48.5063],[0.2567,48.5061],[0.2567,48.5050],[0.2543,48.5001],[0.2414,48.4903],[0.2384,48.4826],[0.2350,48.4829],[0.2321,48.4854],[0.2330,48.4873],[0.2313,48.4876],[0.2323,48.4904],[0.2292,48.4916],[0.2304,48.4916],[0.2324,48.4954],[0.2354,48.4952],[0.2388,48.4972],[0.2432,48.5099],[0.2426,48.5107],[0.2444,48.5118],[0.2442,48.5168],[0.2399,48.5199],[0.2408,48.5257],[0.2501,48.5234]]]}},{"type":"Feature","properties":{"name":"Forêt de Beaumont"},"geometry":{"type":"Polygon","coordinates":[[[0.6815,47.5738],[0.6930,47.5697],[0.6908,47.5665],[0.6932,47.5649],[0.6884,47.5601],[0.6862,47.5606],[0.6877,47.5594],[0.6897,47.5606],[0.6897,47.5597],[0.6926,47.5594],[0.6949,47.5608],[0.6987,47.5589],[0.7007,47.5598],[0.7027,47.5591],[0.7056,47.5610],[0.7027,47.5624],[0.7042,47.5638],[0.7078,47.5619],[0.7038,47.5587],[0.7031,47.5565],[0.7080,47.5561],[0.7107,47.5589],[0.7119,47.5584],[0.7118,47.5554],[0.7138,47.5633],[0.7168,47.5680],[0.7208,47.5657],[0.7226,47.5677],[0.7199,47.5689],[0.7196,47.5708],[0.7245,47.5714],[0.7235,47.5730],[0.7209,47.5723],[0.7242,47.5758],[0.7260,47.5754],[0.7246,47.5738],[0.7291,47.5714],[0.7284,47.5698],[0.7324,47.5709],[0.7290,47.5738],[0.7307,47.5743],[0.7309,47.5765],[0.7333,47.5775],[0.7334,47.5765],[0.7360,47.5763],[0.7367,47.5793],[0.7323,47.5805],[0.7284,47.5786],[0.7288,47.5774],[0.7263,47.5776],[0.7238,47.5795],[0.7256,47.5810],[0.7242,47.5818],[0.7258,47.5883],[0.7342,47.5856],[0.7310,47.5846],[0.7324,47.5830],[0.7315,47.5819],[0.7333,47.5841],[0.7358,47.5831],[0.7371,47.5850],[0.7358,47.5840],[0.7344,47.5849],[0.7375,47.5858],[0.7359,47.5875],[0.7368,47.5885],[0.7386,47.5869],[0.7447,47.5855],[0.7484,47.5861],[0.7450,47.5893],[0.7508,47.5882],[0.7551,47.5896],[0.7526,47.5913],[0.7536,47.5931],[0.7444,47.5942],[0.7404,47.5937],[0.7401,47.5904],[0.7347,47.5899],[0.7342,47.5928],[0.7326,47.5914],[0.7299,47.5932],[0.7308,47.5943],[0.7362,47.5940],[0.7369,47.5975],[0.7321,47.5980],[0.7320,47.5994],[0.7355,47.5993],[0.7387,47.5972],[0.7399,47.5972],[0.7399,47.5988],[0.7470,47.5981],[0.7493,47.5959],[0.7539,47.5972],[0.7515,47.6006],[0.7478,47.6009],[0.7455,47.6030],[0.7471,47.6042],[0.7464,47.6058],[0.7340,47.6093],[0.7318,47.6117],[0.7349,47.6128],[0.7334,47.6149],[0.7294,47.6139],[0.7283,47.6154],[0.7271,47.6134],[0.7293,47.6127],[0.7270,47.6116],[0.7288,47.6099],[0.7310,47.6100],[0.7277,47.6066],[0.7292,47.6062],[0.7280,47.6048],[0.7263,47.6054],[0.7265,47.6064],[0.7250,47.6057],[0.7213,47.6073],[0.7205,47.6108],[0.7191,47.6099],[0.7200,47.6063],[0.7186,47.6050],[0.7213,47.6061],[0.7189,47.6026],[0.7238,47.6006],[0.7225,47.5984],[0.7125,47.5979],[0.7151,47.5997],[0.7132,47.5998],[0.7129,47.6015],[0.7118,47.6014],[0.7122,47.6000],[0.7099,47.5995],[0.7098,47.5975],[0.7043,47.5981],[0.7018,47.6005],[0.7006,47.5992],[0.6986,47.5997],[0.6983,47.5978],[0.6923,47.5976],[0.6939,47.5997],[0.6922,47.5998],[0.6893,47.6028],[0.6922,47.6028],[0.6955,47.6061],[0.6999,47.6070],[0.7022,47.6095],[0.6990,47.6117],[0.6934,47.6120],[0.6924,47.6124],[0.6934,47.6134],[0.6894,47.6138],[0.6891,47.6146],[0.6937,47.6173],[0.6865,47.6158],[0.6872,47.6141],[0.6854,47.6129],[0.6800,47.6134],[0.6814,47.6160],[0.6794,47.6165],[0.6797,47.6156],[0.6766,47.6149],[0.6761,47.6118],[0.6712,47.6114],[0.6675,47.6090],[0.6645,47.6102],[0.6608,47.6082],[0.6611,47.6072],[0.6505,47.6040],[0.6497,47.6020],[0.6523,47.6020],[0.6545,47.5991],[0.6537,47.5988],[0.6565,47.5979],[0.6544,47.5969],[0.6590,47.5949],[0.6590,47.5981],[0.6630,47.5990],[0.6627,47.6002],[0.6590,47.5995],[0.6565,47.6033],[0.6615,47.6054],[0.6619,47.6037],[0.6641,47.6053],[0.6658,47.6007],[0.6677,47.6009],[0.6668,47.5981],[0.6718,47.5958],[0.6720,47.5912],[0.6680,47.5898],[0.6653,47.5945],[0.6619,47.5936],[0.6608,47.5946],[0.6585,47.5931],[0.6625,47.5928],[0.6654,47.5898],[0.6633,47.5904],[0.6643,47.5892],[0.6633,47.5880],[0.6655,47.5874],[0.6659,47.5848],[0.6618,47.5838],[0.6628,47.5818],[0.6573,47.5802],[0.6605,47.5786],[0.6592,47.5774],[0.6624,47.5748],[0.6613,47.5738],[0.6638,47.5731],[0.6638,47.5750],[0.6677,47.5766],[0.6651,47.5810],[0.6734,47.5846],[0.6747,47.5843],[0.6741,47.5826],[0.6765,47.5830],[0.6752,47.5818],[0.6781,47.5795],[0.6774,47.5780],[0.6806,47.5759],[0.6815,47.5738]]]}},{"type":"Feature","properties":{"name":"Bois de la Boyère"},"geometry":{"type":"Polygon","coordinates":[[[0.2501,48.5234],[0.2486,48.5167],[0.2624,48.5157],[0.2620,48.5095],[0.2575,48.5092],[0.2573,48.5071],[0.2548,48.5073],[0.2545,48.5063],[0.2567,48.5061],[0.2567,48.5050],[0.2543,48.5001],[0.2414,48.4903],[0.2384,48.4826],[0.2350,48.4829],[0.2321,48.4854],[0.2330,48.4873],[0.2313,48.4876],[0.2323,48.4904],[0.2292,48.4916],[0.2304,48.4916],[0.2324,48.4954],[0.2354,48.4952],[0.2388,48.4972],[0.2432,48.5099],[0.2426,48.5107],[0.2444,48.5118],[0.2442,48.5168],[0.2399,48.5199],[0.2408,48.5257],[0.2501,48.5234]]]}},{"type":"Feature","properties":{"name":"Forêt de Monnaie"},"geometry":{"type":"Polygon","coordinates":[[[-0.2043,48.5259],[-0.1999,48.5242],[-0.1998,48.5225],[-0.2067,48.5212],[-0.2059,48.5171],[-0.2097,48.5178],[-0.2070,48.5146],[-0.2038,48.5146],[-0.2022,48.5172],[-0.1989,48.5176],[-0.1955,48.5117],[-0.1976,48.5114],[-0.1978,48.5096],[-0.2054,48.5099],[-0.2080,48.5077],[-0.2157,48.5064],[-0.2146,48.5036],[-0.2243,48.5013],[-0.2263,48.5088],[-0.2200,48.5103],[-0.2223,48.5160],[-0.2198,48.5162],[-0.2187,48.5136],[-0.2161,48.5139],[-0.2168,48.5162],[-0.2150,48.5164],[-0.2158,48.5182],[-0.2193,48.5171],[-0.2210,48.5198],[-0.2175,48.5198],[-0.2172,48.5208],[-0.2129,48.5192],[-0.2128,48.5211],[-0.2103,48.5211],[-0.2111,48.5233],[-0.2077,48.5250],[-0.2086,48.5275],[-0.2042,48.5276],[-0.2043,48.5259]]]}},{"type":"Feature","properties":{"name":"Bois de Buleu"},"geometry":{"type":"Polygon","coordinates":[[[-0.4697,48.3516],[-0.4757,48.3490],[-0.4769,48.3446],[-0.4714,48.3468],[-0.4704,48.3484],[-0.4655,48.3496],[-0.4632,48.3479],[-0.4660,48.3464],[-0.4585,48.3459],[-0.4551,48.3414],[-0.4559,48.3355],[-0.4588,48.3332],[-0.4591,48.3314],[-0.4611,48.3311],[-0.4608,48.3296],[-0.4587,48.3289],[-0.4601,48.3283],[-0.4631,48.3286],[-0.4638,48.3306],[-0.4683,48.3282],[-0.4700,48.3296],[-0.4699,48.3316],[-0.4723,48.3326],[-0.4698,48.3332],[-0.4710,48.3344],[-0.4691,48.3354],[-0.4593,48.3358],[-0.4601,48.3394],[-0.4631,48.3422],[-0.4714,48.3417],[-0.4758,48.3423],[-0.4772,48.3437],[-0.4825,48.3429],[-0.4855,48.3438],[-0.4820,48.3489],[-0.4736,48.3517],[-0.4697,48.3516]]]}},{"type":"Feature","properties":{"name":"Forêt de Pail"},"geometry":{"type":"Polygon","coordinates":[[[-0.1576,48.3328],[-0.1604,48.3309],[-0.1601,48.3320],[-0.1640,48.3319],[-0.1642,48.3308],[-0.1718,48.3310],[-0.1720,48.3322],[-0.1709,48.3318],[-0.1716,48.3336],[-0.1742,48.3327],[-0.1763,48.3344],[-0.1797,48.3344],[-0.1771,48.3351],[-0.1808,48.3363],[-0.1800,48.3366],[-0.1855,48.3375],[-0.1864,48.3374],[-0.1851,48.3366],[-0.1858,48.3346],[-0.1894,48.3324],[-0.1931,48.3346],[-0.1897,48.3347],[-0.1886,48.3364],[-0.1957,48.3378],[-0.1958,48.3387],[-0.1924,48.3394],[-0.1969,48.3411],[-0.1999,48.3393],[-0.1985,48.3367],[-0.2064,48.3375],[-0.2086,48.3350],[-0.2147,48.3361],[-0.2091,48.3359],[-0.2069,48.3383],[-0.2109,48.3362],[-0.2161,48.3379],[-0.2099,48.3374],[-0.2077,48.3400],[-0.2026,48.3387],[-0.1996,48.3399],[-0.2006,48.3424],[-0.1981,48.3437],[-0.2068,48.3469],[-0.2079,48.3489],[-0.2098,48.3487],[-0.2078,48.3514],[-0.2059,48.3510],[-0.2063,48.3502],[-0.2049,48.3510],[-0.2076,48.3532],[-0.2073,48.3545],[-0.2088,48.3549],[-0.2085,48.3601],[-0.2111,48.3580],[-0.2152,48.3592],[-0.2050,48.3675],[-0.2028,48.3659],[-0.1937,48.3743],[-0.1899,48.3745],[-0.1884,48.3734],[-0.1896,48.3727],[-0.1886,48.3720],[-0.1760,48.3653],[-0.1762,48.3633],[-0.1718,48.3634],[-0.1685,48.3619],[-0.1752,48.3569],[-0.1752,48.3550],[-0.1647,48.3555],[-0.1673,48.3513],[-0.1648,48.3485],[-0.1634,48.3480],[-0.1619,48.3491],[-0.1631,48.3507],[-0.1580,48.3513],[-0.1503,48.3463],[-0.1521,48.3446],[-0.1510,48.3435],[-0.1557,48.3430],[-0.1555,48.3417],[-0.1576,48.3403],[-0.1547,48.3377],[-0.1538,48.3352],[-0.1681,48.3346],[-0.1668,48.3332],[-0.1576,48.3328]]]}},{"type":"Feature","properties":{"name":"Forêt domaniale de Sillé-le-Guillaume"},"geometry":{"type":"Polygon","coordinates":[[[-0.2001,48.1835],[-0.2005,48.1848],[-0.1982,48.1854],[-0.1987,48.1867],[-0.1934,48.1873],[-0.1915,48.1862],[-0.1874,48.1878],[-0.1838,48.1907],[-0.1830,48.1920],[-0.1841,48.1925],[-0.1797,48.1940],[-0.1808,48.1957],[-0.1776,48.1969],[-0.1779,48.1979],[-0.1717,48.1995],[-0.1731,48.2002],[-0.1723,48.2020],[-0.1755,48.2025],[-0.1718,48.2059],[-0.1676,48.2052],[-0.1672,48.2082],[-0.1646,48.2105],[-0.1627,48.2110],[-0.1636,48.2100],[-0.1599,48.2080],[-0.1526,48.2109],[-0.1585,48.2150],[-0.1545,48.2169],[-0.1528,48.2198],[-0.1501,48.2192],[-0.1454,48.2220],[-0.1449,48.2202],[-0.1383,48.2188],[-0.1255,48.2185],[-0.1254,48.2198],[-0.1191,48.2210],[-0.1147,48.2270],[-0.1125,48.2272],[-0.1161,48.2287],[-0.1066,48.2322],[-0.1030,48.2322],[-0.1034,48.2336],[-0.0957,48.2341],[-0.0946,48.2358],[-0.0906,48.2352],[-0.0876,48.2369],[-0.0818,48.2372],[-0.0782,48.2390],[-0.0708,48.2362],[-0.0698,48.2377],[-0.0665,48.2383],[-0.0682,48.2404],[-0.0660,48.2402],[-0.0628,48.2420],[-0.0633,48.2430],[-0.0615,48.2423],[-0.0576,48.2453],[-0.0412,48.2464],[-0.0466,48.2448],[-0.0492,48.2431],[-0.0484,48.2422],[-0.0500,48.2424],[-0.0485,48.2417],[-0.0531,48.2403],[-0.0540,48.2371],[-0.0589,48.2322],[-0.0583,48.2262],[-0.0569,48.2250],[-0.0548,48.2253],[-0.0565,48.2247],[-0.0558,48.2242],[-0.0513,48.2262],[-0.0493,48.2231],[-0.0452,48.2228],[-0.0452,48.2249],[-0.0416,48.2248],[-0.0441,48.2267],[-0.0431,48.2297],[-0.0379,48.2322],[-0.0333,48.2285],[-0.0301,48.2299],[-0.0249,48.2292],[-0.0250,48.2279],[-0.0271,48.2272],[-0.0261,48.2254],[-0.0268,48.2240],[-0.0292,48.2221],[-0.0282,48.2209],[-0.0298,48.2202],[-0.0287,48.2182],[-0.0248,48.2171],[-0.0287,48.2176],[-0.0305,48.2153],[-0.0351,48.2146],[-0.0317,48.2130],[-0.0371,48.2102],[-0.0369,48.2092],[-0.0406,48.2066],[-0.0427,48.2080],[-0.0467,48.2077],[-0.0484,48.2046],[-0.0537,48.2075],[-0.0526,48.2057],[-0.0595,48.2054],[-0.0628,48.2046],[-0.0619,48.2034],[-0.0642,48.2037],[-0.0668,48.2021],[-0.0681,48.2033],[-0.0678,48.2024],[-0.0712,48.2008],[-0.0742,48.2006],[-0.0758,48.2023],[-0.0748,48.2033],[-0.0757,48.2076],[-0.0810,48.2114],[-0.1025,48.2029],[-0.1061,48.2025],[-0.1005,48.2047],[-0.1097,48.2024],[-0.1064,48.2025],[-0.1069,48.2007],[-0.1103,48.2022],[-0.1179,48.2025],[-0.1188,48.2017],[-0.1173,48.2006],[-0.1186,48.1996],[-0.1209,48.2002],[-0.1196,48.2012],[-0.1213,48.2021],[-0.1233,48.2009],[-0.1270,48.2011],[-0.1291,48.1967],[-0.1336,48.1957],[-0.1383,48.1983],[-0.1313,48.2019],[-0.1268,48.2066],[-0.1235,48.2073],[-0.1268,48.2094],[-0.1280,48.2122],[-0.1340,48.2126],[-0.1377,48.2112],[-0.1335,48.2102],[-0.1302,48.2066],[-0.1305,48.2047],[-0.1382,48.2021],[-0.1399,48.1996],[-0.1462,48.1983],[-0.1491,48.1956],[-0.1544,48.1950],[-0.1564,48.1928],[-0.1600,48.1944],[-0.1626,48.1938],[-0.1661,48.1904],[-0.1632,48.1901],[-0.1661,48.1878],[-0.1642,48.1871],[-0.1694,48.1876],[-0.1697,48.1899],[-0.1775,48.1882],[-0.1808,48.1867],[-0.1821,48.1836],[-0.1878,48.1831],[-0.2033,48.1761],[-0.2231,48.1721],[-0.2205,48.1708],[-0.2231,48.1694],[-0.2220,48.1675],[-0.2146,48.1650],[-0.2223,48.1651],[-0.2282,48.1631],[-0.2323,48.1649],[-0.2381,48.1633],[-0.2409,48.1691],[-0.2382,48.1704],[-0.2371,48.1732],[-0.2301,48.1764],[-0.2284,48.1783],[-0.2294,48.1790],[-0.2230,48.1823],[-0.2070,48.1844],[-0.1994,48.1819],[-0.2001,48.1835]]]}},{"type":"Feature","properties":{"name":"Forêt de Multonne"},"geometry":{"type":"Polygon","coordinates":[[[-0.0626,48.4396],[-0.0739,48.4395],[-0.0708,48.4421],[-0.0716,48.4425],[-0.0780,48.4408],[-0.0796,48.4377],[-0.0807,48.4381],[-0.0799,48.4393],[-0.0837,48.4407],[-0.0821,48.4444],[-0.0834,48.4440],[-0.0840,48.4453],[-0.0870,48.4450],[-0.0853,48.4438],[-0.0875,48.4425],[-0.0908,48.4434],[-0.0964,48.4412],[-0.0999,48.4425],[-0.0965,48.4441],[-0.0963,48.4429],[-0.0830,48.4451],[-0.0817,48.4456],[-0.0833,48.4456],[-0.0821,48.4477],[-0.0831,48.4481],[-0.0973,48.4460],[-0.1061,48.4474],[-0.1049,48.4433],[-0.1066,48.4432],[-0.1060,48.4443],[-0.1092,48.4446],[-0.1072,48.4457],[-0.1080,48.4467],[-0.1110,48.4476],[-0.1090,48.4481],[-0.1196,48.4503],[-0.1167,48.4510],[-0.1186,48.4519],[-0.1168,48.4523],[-0.1156,48.4545],[-0.1193,48.4532],[-0.1208,48.4550],[-0.1190,48.4561],[-0.1227,48.4583],[-0.1231,48.4601],[-0.1197,48.4594],[-0.1177,48.4562],[-0.1170,48.4574],[-0.1148,48.4554],[-0.1080,48.4567],[-0.1081,48.4548],[-0.1046,48.4534],[-0.1043,48.4522],[-0.1024,48.4525],[-0.0997,48.4478],[-0.0921,48.4510],[-0.0903,48.4500],[-0.0759,48.4510],[-0.0728,48.4489],[-0.0760,48.4474],[-0.0759,48.4456],[-0.0719,48.4470],[-0.0693,48.4454],[-0.0715,48.4426],[-0.0696,48.4428],[-0.0626,48.4396]]]}},{"type":"Feature","properties":{"name":"Forêt de Multonne"},"geometry":{"type":"Polygon","coordinates":[[[-0.1550,48.4387],[-0.1560,48.4403],[-0.1590,48.4407],[-0.1580,48.4415],[-0.1589,48.4423],[-0.1629,48.4431],[-0.1619,48.4448],[-0.1606,48.4447],[-0.1614,48.4460],[-0.1590,48.4463],[-0.1576,48.4440],[-0.1563,48.4451],[-0.1536,48.4446],[-0.1523,48.4486],[-0.1566,48.4528],[-0.1552,48.4530],[-0.1562,48.4543],[-0.1543,48.4539],[-0.1553,48.4545],[-0.1543,48.4551],[-0.1550,48.4603],[-0.1597,48.4618],[-0.1624,48.4607],[-0.1606,48.4623],[-0.1627,48.4634],[-0.1661,48.4619],[-0.1708,48.4626],[-0.1696,48.4636],[-0.1701,48.4648],[-0.1655,48.4644],[-0.1677,48.4657],[-0.1660,48.4661],[-0.1660,48.4676],[-0.1619,48.4668],[-0.1597,48.4683],[-0.1550,48.4682],[-0.1538,48.4708],[-0.1414,48.4680],[-0.1421,48.4671],[-0.1488,48.4676],[-0.1471,48.4668],[-0.1505,48.4652],[-0.1482,48.4620],[-0.1465,48.4621],[-0.1430,48.4656],[-0.1395,48.4663],[-0.1385,48.4680],[-0.1306,48.4669],[-0.1295,48.4659],[-0.1305,48.4652],[-0.1375,48.4665],[-0.1387,48.4627],[-0.1453,48.4582],[-0.1442,48.4564],[-0.1463,48.4542],[-0.1404,48.4520],[-0.1396,48.4537],[-0.1427,48.4551],[-0.1414,48.4586],[-0.1367,48.4577],[-0.1332,48.4554],[-0.1322,48.4570],[-0.1322,48.4559],[-0.1304,48.4563],[-0.1322,48.4552],[-0.1308,48.4549],[-0.1311,48.4523],[-0.1306,48.4512],[-0.1297,48.4520],[-0.1285,48.4512],[-0.1293,48.4506],[-0.1159,48.4490],[-0.1304,48.4475],[-0.1337,48.4516],[-0.1381,48.4522],[-0.1438,48.4447],[-0.1461,48.4434],[-0.1450,48.4394],[-0.1464,48.4386],[-0.1478,48.4395],[-0.1472,48.4424],[-0.1483,48.4432],[-0.1523,48.4392],[-0.1550,48.4387]]]}},{"type":"Feature","properties":{"name":"Bois d\u0027Hermet"},"geometry":{"type":"Polygon","coordinates":[[[-0.4480,48.2089],[-0.4456,48.2085],[-0.4469,48.2078],[-0.4464,48.2049],[-0.4427,48.2046],[-0.4434,48.2014],[-0.4461,48.2006],[-0.4487,48.2023],[-0.4480,48.2008],[-0.4498,48.1995],[-0.4554,48.1979],[-0.4522,48.1953],[-0.4537,48.1945],[-0.4559,48.1944],[-0.4586,48.1979],[-0.4615,48.1988],[-0.4639,48.1958],[-0.4669,48.1950],[-0.4689,48.1973],[-0.4771,48.1939],[-0.4773,48.1922],[-0.4761,48.1913],[-0.4844,48.1896],[-0.4897,48.1899],[-0.4905,48.1929],[-0.4942,48.1918],[-0.4961,48.1927],[-0.4961,48.1912],[-0.5036,48.1897],[-0.5081,48.1944],[-0.5081,48.1963],[-0.5097,48.1972],[-0.5085,48.1966],[-0.5086,48.1999],[-0.5118,48.2032],[-0.5081,48.2044],[-0.5113,48.2059],[-0.5074,48.2074],[-0.5058,48.2104],[-0.4998,48.2109],[-0.4960,48.2085],[-0.4907,48.2095],[-0.4899,48.2115],[-0.4908,48.2137],[-0.4814,48.2139],[-0.4811,48.2165],[-0.4777,48.2201],[-0.4781,48.2222],[-0.4762,48.2212],[-0.4783,48.2190],[-0.4745,48.2203],[-0.4736,48.2226],[-0.4707,48.2209],[-0.4605,48.2313],[-0.4566,48.2317],[-0.4550,48.2325],[-0.4551,48.2337],[-0.4484,48.2324],[-0.4480,48.2334],[-0.4440,48.2337],[-0.4399,48.2326],[-0.4384,48.2334],[-0.4393,48.2343],[-0.4377,48.2326],[-0.4428,48.2302],[-0.4482,48.2322],[-0.4543,48.2302],[-0.4541,48.2286],[-0.4488,48.2294],[-0.4490,48.2276],[-0.4404,48.2270],[-0.4414,48.2239],[-0.4332,48.2215],[-0.4349,48.2195],[-0.4409,48.2188],[-0.4403,48.2157],[-0.4418,48.2148],[-0.4404,48.2146],[-0.4421,48.2132],[-0.4523,48.2117],[-0.4511,48.2111],[-0.4519,48.2097],[-0.4480,48.2089]]]}},{"type":"Feature","properties":{"name":"Forêt de Pail"},"geometry":{"type":"Polygon","coordinates":[[[-0.2267,48.3780],[-0.2237,48.3806],[-0.2169,48.3828],[-0.2108,48.3824],[-0.2136,48.3837],[-0.2116,48.3851],[-0.2094,48.3848],[-0.2082,48.3856],[-0.2098,48.3860],[-0.2082,48.3873],[-0.2019,48.3842],[-0.1995,48.3850],[-0.1999,48.3868],[-0.1980,48.3878],[-0.1967,48.3871],[-0.2014,48.3838],[-0.1975,48.3826],[-0.1899,48.3745],[-0.1937,48.3743],[-0.2028,48.3659],[-0.2050,48.3675],[-0.2101,48.3623],[-0.2161,48.3592],[-0.2177,48.3605],[-0.2211,48.3598],[-0.2251,48.3620],[-0.2239,48.3637],[-0.2263,48.3638],[-0.2251,48.3650],[-0.2248,48.3690],[-0.2231,48.3703],[-0.2245,48.3735],[-0.2230,48.3743],[-0.2250,48.3756],[-0.2274,48.3737],[-0.2291,48.3741],[-0.2271,48.3686],[-0.2373,48.3672],[-0.2375,48.3651],[-0.2442,48.3635],[-0.2440,48.3615],[-0.2469,48.3609],[-0.2476,48.3633],[-0.2428,48.3713],[-0.2379,48.3718],[-0.2367,48.3712],[-0.2374,48.3683],[-0.2353,48.3683],[-0.2356,48.3696],[-0.2338,48.3692],[-0.2309,48.3717],[-0.2316,48.3749],[-0.2350,48.3750],[-0.2327,48.3779],[-0.2308,48.3790],[-0.2324,48.3765],[-0.2311,48.3762],[-0.2297,48.3778],[-0.2256,48.3759],[-0.2267,48.3780]]]}},{"type":"Feature","properties":{"name":"Bois des Vallons"},"geometry":{"type":"Polygon","coordinates":[[[-0.5119,48.1335],[-0.5127,48.1335],[-0.5112,48.1319],[-0.5124,48.1308],[-0.5115,48.1301],[-0.5138,48.1282],[-0.5125,48.1275],[-0.5142,48.1246],[-0.5118,48.1234],[-0.5149,48.1238],[-0.5159,48.1224],[-0.5134,48.1213],[-0.5114,48.1161],[-0.5094,48.1161],[-0.5094,48.1146],[-0.5060,48.1147],[-0.5064,48.1161],[-0.5031,48.1161],[-0.5058,48.1171],[-0.5056,48.1192],[-0.5039,48.1190],[-0.5040,48.1179],[-0.5005,48.1165],[-0.5003,48.1146],[-0.4939,48.1150],[-0.4940,48.1135],[-0.4907,48.1144],[-0.4909,48.1102],[-0.4846,48.1122],[-0.4824,48.1109],[-0.4877,48.1100],[-0.4845,48.1076],[-0.4833,48.1073],[-0.4818,48.1107],[-0.4767,48.1115],[-0.4734,48.1097],[-0.4724,48.1111],[-0.4685,48.1103],[-0.4655,48.1070],[-0.4613,48.1054],[-0.4555,48.1059],[-0.4547,48.1071],[-0.4480,48.1068],[-0.4468,48.1040],[-0.4411,48.1029],[-0.4388,48.1047],[-0.4283,48.1076],[-0.4195,48.1081],[-0.4181,48.1112],[-0.4152,48.1120],[-0.4143,48.1081],[-0.4102,48.1093],[-0.4097,48.1071],[-0.4056,48.1077],[-0.4062,48.1104],[-0.4012,48.1098],[-0.4002,48.1080],[-0.4021,48.1068],[-0.4002,48.1043],[-0.4025,48.1028],[-0.4047,48.1034],[-0.4073,48.1007],[-0.4145,48.1013],[-0.4135,48.0956],[-0.4262,48.0946],[-0.4290,48.0965],[-0.4326,48.0954],[-0.4316,48.0946],[-0.4335,48.0936],[-0.4393,48.0955],[-0.4427,48.0924],[-0.4460,48.0942],[-0.4453,48.0949],[-0.4506,48.0959],[-0.4665,48.0943],[-0.4689,48.0954],[-0.4707,48.0939],[-0.4678,48.0924],[-0.4636,48.0927],[-0.4638,48.0896],[-0.4658,48.0906],[-0.4660,48.0889],[-0.4685,48.0883],[-0.4681,48.0909],[-0.4699,48.0914],[-0.4689,48.0927],[-0.4713,48.0938],[-0.4769,48.0880],[-0.4777,48.0884],[-0.4766,48.0902],[-0.4744,48.0909],[-0.4750,48.0921],[-0.4787,48.0926],[-0.4795,48.0916],[-0.4781,48.0911],[-0.4797,48.0892],[-0.4818,48.0913],[-0.4804,48.0936],[-0.4783,48.0929],[-0.4765,48.0948],[-0.4786,48.0937],[-0.4845,48.0958],[-0.4854,48.0985],[-0.4836,48.0983],[-0.4832,48.0996],[-0.4884,48.1008],[-0.4897,48.0992],[-0.4919,48.0993],[-0.4918,48.1016],[-0.4950,48.1029],[-0.5107,48.1049],[-0.5099,48.1068],[-0.5125,48.1080],[-0.5119,48.1086],[-0.5150,48.1101],[-0.5163,48.1090],[-0.5189,48.1110],[-0.5177,48.1139],[-0.5240,48.1149],[-0.5245,48.1170],[-0.5197,48.1177],[-0.5248,48.1182],[-0.5244,48.1209],[-0.5268,48.1205],[-0.5286,48.1226],[-0.5266,48.1235],[-0.5282,48.1275],[-0.5264,48.1293],[-0.5236,48.1293],[-0.5238,48.1280],[-0.5181,48.1262],[-0.5192,48.1269],[-0.5180,48.1309],[-0.5198,48.1312],[-0.5200,48.1330],[-0.5226,48.1315],[-0.5251,48.1319],[-0.5287,48.1372],[-0.5268,48.1371],[-0.5266,48.1355],[-0.5228,48.1362],[-0.5222,48.1347],[-0.5185,48.1334],[-0.5143,48.1338],[-0.5145,48.1352],[-0.5120,48.1363],[-0.5119,48.1335]]]}},{"type":"Feature","properties":{"name":"Forêt de Chambiers"},"geometry":{"type":"Polygon","coordinates":[[[-0.2489,47.6516],[-0.2503,47.6509],[-0.2498,47.6481],[-0.2510,47.6468],[-0.2501,47.6441],[-0.2479,47.6439],[-0.2466,47.6418],[-0.2496,47.6385],[-0.2478,47.6375],[-0.2465,47.6393],[-0.2425,47.6395],[-0.2407,47.6370],[-0.2434,47.6346],[-0.2485,47.6336],[-0.2487,47.6314],[-0.2463,47.6301],[-0.2395,47.6325],[-0.2370,47.6313],[-0.2293,47.6348],[-0.2230,47.6323],[-0.2238,47.6305],[-0.2282,47.6300],[-0.2271,47.6267],[-0.2283,47.6254],[-0.2264,47.6228],[-0.2319,47.6189],[-0.2313,47.6124],[-0.2365,47.6121],[-0.2389,47.6166],[-0.2354,47.6185],[-0.2371,47.6218],[-0.2354,47.6222],[-0.2361,47.6238],[-0.2341,47.6251],[-0.2351,47.6273],[-0.2412,47.6270],[-0.2449,47.6232],[-0.2420,47.6195],[-0.2433,47.6175],[-0.2460,47.6173],[-0.2481,47.6176],[-0.2481,47.6202],[-0.2501,47.6197],[-0.2508,47.6212],[-0.2550,47.6203],[-0.2520,47.6261],[-0.2543,47.6272],[-0.2563,47.6265],[-0.2575,47.6278],[-0.2597,47.6264],[-0.2609,47.6277],[-0.2607,47.6297],[-0.2556,47.6318],[-0.2563,47.6345],[-0.2592,47.6348],[-0.2613,47.6404],[-0.2612,47.6417],[-0.2589,47.6409],[-0.2600,47.6446],[-0.2614,47.6453],[-0.2594,47.6510],[-0.2536,47.6536],[-0.2489,47.6516]]]}},{"type":"Feature","properties":{"name":"Bois de Crun"},"geometry":{"type":"Polygon","coordinates":[[[-0.3559,48.1844],[-0.3524,48.1846],[-0.3497,48.1817],[-0.3482,48.1831],[-0.3481,48.1796],[-0.3465,48.1791],[-0.3415,48.1823],[-0.3401,48.1815],[-0.3385,48.1850],[-0.3392,48.1858],[-0.3377,48.1863],[-0.3357,48.1845],[-0.3327,48.1848],[-0.3334,48.1824],[-0.3302,48.1805],[-0.3301,48.1775],[-0.3283,48.1780],[-0.3293,48.1760],[-0.3405,48.1734],[-0.3483,48.1701],[-0.3485,48.1663],[-0.3449,48.1609],[-0.3444,48.1567],[-0.3455,48.1562],[-0.3478,48.1597],[-0.3467,48.1612],[-0.3504,48.1655],[-0.3494,48.1667],[-0.3511,48.1706],[-0.3486,48.1720],[-0.3493,48.1762],[-0.3525,48.1760],[-0.3526,48.1745],[-0.3554,48.1741],[-0.3569,48.1797],[-0.3605,48.1792],[-0.3613,48.1802],[-0.3582,48.1840],[-0.3559,48.1844]]]}},{"type":"Feature","properties":{"name":"Bois de l\u0027Essart"},"geometry":{"type":"Polygon","coordinates":[[[-0.3462,48.0878],[-0.3529,48.0874],[-0.3497,48.0849],[-0.3481,48.0807],[-0.3420,48.0756],[-0.3430,48.0737],[-0.3440,48.0752],[-0.3459,48.0752],[-0.3457,48.0768],[-0.3481,48.0779],[-0.3485,48.0796],[-0.3517,48.0788],[-0.3532,48.0805],[-0.3592,48.0813],[-0.3604,48.0801],[-0.3598,48.0770],[-0.3626,48.0763],[-0.3620,48.0799],[-0.3635,48.0802],[-0.3672,48.0774],[-0.3673,48.0747],[-0.3610,48.0705],[-0.3589,48.0718],[-0.3544,48.0715],[-0.3556,48.0695],[-0.3522,48.0683],[-0.3574,48.0638],[-0.3640,48.0648],[-0.3637,48.0585],[-0.3717,48.0584],[-0.3744,48.0565],[-0.3767,48.0569],[-0.3756,48.0554],[-0.3771,48.0557],[-0.3780,48.0544],[-0.3766,48.0522],[-0.3774,48.0512],[-0.3755,48.0498],[-0.3728,48.0510],[-0.3736,48.0524],[-0.3663,48.0521],[-0.3665,48.0556],[-0.3638,48.0561],[-0.3638,48.0576],[-0.3589,48.0572],[-0.3557,48.0630],[-0.3459,48.0611],[-0.3462,48.0625],[-0.3436,48.0625],[-0.3428,48.0638],[-0.3412,48.0636],[-0.3398,48.0615],[-0.3372,48.0627],[-0.3327,48.0615],[-0.3312,48.0624],[-0.3317,48.0642],[-0.3364,48.0638],[-0.3367,48.0649],[-0.3318,48.0644],[-0.3325,48.0689],[-0.3304,48.0716],[-0.3291,48.0708],[-0.3282,48.0729],[-0.3241,48.0740],[-0.3223,48.0773],[-0.3279,48.0754],[-0.3314,48.0767],[-0.3283,48.0770],[-0.3258,48.0797],[-0.3295,48.0805],[-0.3298,48.0815],[-0.3349,48.0815],[-0.3332,48.0865],[-0.3223,48.0878],[-0.3195,48.0863],[-0.3228,48.0842],[-0.3229,48.0819],[-0.3258,48.0841],[-0.3279,48.0832],[-0.3258,48.0830],[-0.3260,48.0810],[-0.3237,48.0804],[-0.3249,48.0770],[-0.3223,48.0774],[-0.3233,48.0803],[-0.3150,48.0770],[-0.3166,48.0765],[-0.3171,48.0752],[-0.3151,48.0748],[-0.3169,48.0723],[-0.3111,48.0724],[-0.3069,48.0741],[-0.3054,48.0726],[-0.3018,48.0756],[-0.3060,48.0757],[-0.3046,48.0768],[-0.3060,48.0774],[-0.3056,48.0792],[-0.3038,48.0794],[-0.3066,48.0800],[-0.3064,48.0881],[-0.3049,48.0895],[-0.3065,48.0900],[-0.3110,48.0880],[-0.3110,48.0896],[-0.3171,48.0922],[-0.3150,48.0929],[-0.3163,48.0941],[-0.3165,48.0929],[-0.3225,48.0939],[-0.3220,48.0967],[-0.3260,48.0976],[-0.3340,48.0943],[-0.3396,48.0965],[-0.3389,48.0946],[-0.3403,48.0942],[-0.3374,48.0923],[-0.3383,48.0910],[-0.3309,48.0910],[-0.3367,48.0877],[-0.3383,48.0902],[-0.3405,48.0876],[-0.3440,48.0876],[-0.3424,48.0852],[-0.3400,48.0846],[-0.3412,48.0824],[-0.3437,48.0823],[-0.3428,48.0844],[-0.3462,48.0858],[-0.3462,48.0878]]]}},{"type":"Feature","properties":{"name":"Forêt de la Grande Charnie"},"geometry":{"type":"Polygon","coordinates":[[[-0.2666,48.0378],[-0.2682,48.0388],[-0.2686,48.0370],[-0.2747,48.0386],[-0.2794,48.0379],[-0.2738,48.0322],[-0.2801,48.0310],[-0.2803,48.0322],[-0.2828,48.0321],[-0.2829,48.0335],[-0.2841,48.0333],[-0.2847,48.0305],[-0.2892,48.0295],[-0.2888,48.0315],[-0.2930,48.0308],[-0.2921,48.0334],[-0.2905,48.0329],[-0.2899,48.0355],[-0.2955,48.0359],[-0.2963,48.0335],[-0.3029,48.0323],[-0.3055,48.0335],[-0.3060,48.0356],[-0.3042,48.0405],[-0.3080,48.0407],[-0.3063,48.0418],[-0.3078,48.0433],[-0.3071,48.0457],[-0.3098,48.0455],[-0.3105,48.0438],[-0.3125,48.0462],[-0.3061,48.0470],[-0.3077,48.0460],[-0.3039,48.0460],[-0.3037,48.0418],[-0.3021,48.0407],[-0.2991,48.0417],[-0.2969,48.0407],[-0.2881,48.0436],[-0.2821,48.0418],[-0.2790,48.0440],[-0.2798,48.0450],[-0.2772,48.0451],[-0.2745,48.0469],[-0.2765,48.0481],[-0.2839,48.0468],[-0.2835,48.0448],[-0.2843,48.0458],[-0.2956,48.0457],[-0.2963,48.0469],[-0.2924,48.0484],[-0.2879,48.0462],[-0.2852,48.0492],[-0.2800,48.0494],[-0.2798,48.0508],[-0.2699,48.0492],[-0.2688,48.0499],[-0.2692,48.0517],[-0.2635,48.0521],[-0.2617,48.0556],[-0.2663,48.0569],[-0.2748,48.0554],[-0.2754,48.0542],[-0.2778,48.0549],[-0.2808,48.0538],[-0.2809,48.0517],[-0.2845,48.0512],[-0.2854,48.0536],[-0.2908,48.0520],[-0.2923,48.0529],[-0.2904,48.0535],[-0.2910,48.0543],[-0.2930,48.0535],[-0.2945,48.0544],[-0.2936,48.0552],[-0.2956,48.0555],[-0.2971,48.0577],[-0.2946,48.0594],[-0.2968,48.0596],[-0.2968,48.0618],[-0.3032,48.0674],[-0.3024,48.0688],[-0.2910,48.0680],[-0.2940,48.0717],[-0.2971,48.0720],[-0.2958,48.0739],[-0.2989,48.0750],[-0.2949,48.0767],[-0.2945,48.0774],[-0.2961,48.0780],[-0.2956,48.0802],[-0.2917,48.0789],[-0.2916,48.0811],[-0.2860,48.0832],[-0.2871,48.0842],[-0.2798,48.0867],[-0.2748,48.0857],[-0.2748,48.0841],[-0.2708,48.0869],[-0.2669,48.0859],[-0.2646,48.0878],[-0.2563,48.0877],[-0.2537,48.0855],[-0.2542,48.0840],[-0.2529,48.0829],[-0.2438,48.0826],[-0.2425,48.0837],[-0.2434,48.0843],[-0.2430,48.0911],[-0.2398,48.0913],[-0.2424,48.0902],[-0.2408,48.0888],[-0.2353,48.0882],[-0.2401,48.0865],[-0.2371,48.0833],[-0.2439,48.0762],[-0.2415,48.0760],[-0.2408,48.0783],[-0.2379,48.0781],[-0.2366,48.0733],[-0.2258,48.0714],[-0.2271,48.0674],[-0.2313,48.0654],[-0.2186,48.0628],[-0.2183,48.0664],[-0.2230,48.0675],[-0.2224,48.0692],[-0.2181,48.0681],[-0.2158,48.0695],[-0.2160,48.0674],[-0.2135,48.0655],[-0.2145,48.0652],[-0.2115,48.0643],[-0.2136,48.0626],[-0.2130,48.0619],[-0.2095,48.0626],[-0.2033,48.0607],[-0.2016,48.0621],[-0.1983,48.0613],[-0.1991,48.0603],[-0.1974,48.0593],[-0.1996,48.0566],[-0.2014,48.0583],[-0.2005,48.0598],[-0.2040,48.0576],[-0.2036,48.0591],[-0.2066,48.0598],[-0.2058,48.0571],[-0.2076,48.0563],[-0.2073,48.0541],[-0.2112,48.0538],[-0.2136,48.0520],[-0.2061,48.0542],[-0.2098,48.0511],[-0.2093,48.0500],[-0.2077,48.0505],[-0.2064,48.0481],[-0.2116,48.0476],[-0.2129,48.0462],[-0.2139,48.0471],[-0.2209,48.0475],[-0.2210,48.0502],[-0.2190,48.0493],[-0.2201,48.0515],[-0.2191,48.0519],[-0.2210,48.0542],[-0.2278,48.0556],[-0.2284,48.0572],[-0.2255,48.0566],[-0.2281,48.0601],[-0.2269,48.0614],[-0.2324,48.0642],[-0.2358,48.0627],[-0.2314,48.0607],[-0.2364,48.0598],[-0.2322,48.0587],[-0.2376,48.0587],[-0.2371,48.0579],[-0.2403,48.0565],[-0.2394,48.0552],[-0.2457,48.0558],[-0.2528,48.0542],[-0.2559,48.0553],[-0.2531,48.0492],[-0.2581,48.0494],[-0.2593,48.0475],[-0.2564,48.0470],[-0.2590,48.0449],[-0.2576,48.0437],[-0.2560,48.0459],[-0.2536,48.0453],[-0.2490,48.0465],[-0.2426,48.0452],[-0.2433,48.0444],[-0.2396,48.0410],[-0.2437,48.0413],[-0.2454,48.0402],[-0.2404,48.0387],[-0.2384,48.0330],[-0.2430,48.0310],[-0.2403,48.0324],[-0.2429,48.0345],[-0.2482,48.0348],[-0.2460,48.0330],[-0.2474,48.0326],[-0.2490,48.0352],[-0.2532,48.0341],[-0.2576,48.0354],[-0.2588,48.0369],[-0.2597,48.0354],[-0.2624,48.0348],[-0.2628,48.0368],[-0.2666,48.0378]]]}},{"type":"Feature","properties":{"name":"Forêt domaniale de Petite Charnie"},"geometry":{"type":"Polygon","coordinates":[[[-0.1557,48.0954],[-0.1540,48.0881],[-0.1506,48.0874],[-0.1536,48.0864],[-0.1531,48.0806],[-0.1626,48.0805],[-0.1629,48.0819],[-0.1662,48.0823],[-0.1621,48.0786],[-0.1773,48.0775],[-0.1781,48.0763],[-0.1824,48.0793],[-0.1827,48.0826],[-0.1807,48.0863],[-0.1817,48.0880],[-0.1800,48.0883],[-0.1843,48.0913],[-0.1809,48.0941],[-0.1784,48.0932],[-0.1716,48.0968],[-0.1557,48.0954]]]}}]}