{"type":"FeatureCollection","features":[{"type":"Feature","properties":{"name":"Forêt de Planfait"},"geometry":{"type":"Polygon","coordinates":[[[6.2351,45.8799],[6.2352,45.8780],[6.2401,45.8779],[6.2397,45.8753],[6.2420,45.8734],[6.2407,45.8666],[6.2392,45.8661],[6.2399,45.8641],[6.2295,45.8654],[6.2294,45.8672],[6.2314,45.8682],[6.2304,45.8697],[6.2261,45.8699],[6.2247,45.8676],[6.2250,45.8658],[6.2273,45.8649],[6.2251,45.8636],[6.2272,45.8631],[6.2257,45.8611],[6.2293,45.8608],[6.2274,45.8596],[6.2279,45.8587],[6.2299,45.8586],[6.2312,45.8569],[6.2356,45.8574],[6.2361,45.8558],[6.2337,45.8545],[6.2346,45.8532],[6.2327,45.8521],[6.2331,45.8493],[6.2358,45.8477],[6.2305,45.8440],[6.2292,45.8445],[6.2301,45.8462],[6.2284,45.8462],[6.2289,45.8477],[6.2248,45.8477],[6.2253,45.8502],[6.2281,45.8518],[6.2260,45.8509],[6.2252,45.8522],[6.2233,45.8510],[6.2204,45.8549],[6.2193,45.8552],[6.2186,45.8529],[6.2163,45.8558],[6.2167,45.8574],[6.2213,45.8594],[6.2189,45.8606],[6.2180,45.8637],[6.2155,45.8644],[6.2196,45.8660],[6.2186,45.8676],[6.2204,45.8709],[6.2231,45.8693],[6.2243,45.8712],[6.2341,45.8731],[6.2352,45.8746],[6.2342,45.8758],[6.2269,45.8754],[6.2304,45.8762],[6.2296,45.8767],[6.2315,45.8779],[6.2348,45.8773],[6.2342,45.8796],[6.2351,45.8799]]]}},{"type":"Feature","properties":{"name":"Forêt domaniale du Mont Jovet"},"geometry":{"type":"Polygon","coordinates":[[[6.6847,45.4595],[6.6863,45.4569],[6.6840,45.4571],[6.6836,45.4544],[6.6811,45.4534],[6.6827,45.4532],[6.6841,45.4547],[6.6858,45.4539],[6.6862,45.4520],[6.6833,45.4490],[6.6751,45.4469],[6.6737,45.4489],[6.6692,45.4487],[6.6673,45.4508],[6.6561,45.4523],[6.6585,45.4602],[6.6574,45.4618],[6.6532,45.4601],[6.6566,45.4592],[6.6561,45.4578],[6.6494,45.4561],[6.6504,45.4650],[6.6496,45.4657],[6.6513,45.4668],[6.6479,45.4686],[6.6505,45.4692],[6.6518,45.4680],[6.6528,45.4692],[6.6519,45.4701],[6.6543,45.4707],[6.6551,45.4741],[6.6596,45.4783],[6.6585,45.4786],[6.6582,45.4832],[6.6611,45.4837],[6.6621,45.4828],[6.6608,45.4800],[6.6662,45.4794],[6.6646,45.4774],[6.6679,45.4758],[6.6689,45.4717],[6.6705,45.4714],[6.6684,45.4703],[6.6694,45.4643],[6.6730,45.4619],[6.6744,45.4586],[6.6727,45.4572],[6.6671,45.4574],[6.6657,45.4555],[6.6661,45.4538],[6.6801,45.4493],[6.6807,45.4515],[6.6751,45.4522],[6.6717,45.4543],[6.6762,45.4550],[6.6759,45.4572],[6.6785,45.4579],[6.6804,45.4573],[6.6764,45.4533],[6.6798,45.4522],[6.6812,45.4548],[6.6786,45.4551],[6.6817,45.4565],[6.6831,45.4600],[6.6847,45.4595]]]}},{"type":"Feature","properties":{"name":"Bois de Chien-Loup"},"geometry":{"type":"Polygon","coordinates":[[[6.5135,45.3645],[6.5149,45.3637],[6.5165,45.3594],[6.5148,45.3580],[6.5153,45.3567],[6.5173,45.3556],[6.5176,45.3572],[6.5182,45.3556],[6.5184,45.3578],[6.5199,45.3574],[6.5190,45.3551],[6.5218,45.3540],[6.5210,45.3516],[6.5244,45.3461],[6.5223,45.3486],[6.5219,45.3470],[6.5200,45.3481],[6.5190,45.3469],[6.5149,45.3474],[6.5167,45.3483],[6.5146,45.3493],[6.5163,45.3500],[6.5127,45.3493],[6.5096,45.3517],[6.5132,45.3536],[6.5071,45.3524],[6.5005,45.3542],[6.5084,45.3537],[6.5048,45.3562],[6.5102,45.3553],[6.5120,45.3584],[6.5107,45.3595],[6.5093,45.3575],[6.5073,45.3580],[6.5048,45.3564],[6.5031,45.3572],[6.4995,45.3556],[6.4983,45.3529],[6.4950,45.3542],[6.4970,45.3575],[6.4952,45.3584],[6.4958,45.3590],[6.5020,45.3613],[6.5045,45.3640],[6.5034,45.3646],[6.5033,45.3678],[6.5007,45.3655],[6.4993,45.3662],[6.5041,45.3686],[6.5040,45.3699],[6.5016,45.3703],[6.4990,45.3677],[6.4977,45.3695],[6.4983,45.3712],[6.5035,45.3722],[6.5135,45.3645]]]}},{"type":"Feature","properties":{"name":"Bois de la Joux"},"geometry":{"type":"Polygon","coordinates":[[[6.9013,45.9720],[6.9073,45.9715],[6.9114,45.9689],[6.9100,45.9664],[6.9078,45.9662],[6.9062,45.9638],[6.9067,45.9619],[6.9055,45.9621],[6.9054,45.9611],[6.9079,45.9621],[6.9071,45.9646],[6.9088,45.9631],[6.9098,45.9637],[6.9086,45.9619],[6.9034,45.9592],[6.9100,45.9630],[6.9031,45.9588],[6.9018,45.9558],[6.9020,45.9575],[6.9016,45.9557],[6.8927,45.9484],[6.8937,45.9501],[6.8890,45.9464],[6.8874,45.9469],[6.8878,45.9456],[6.8857,45.9448],[6.8874,45.9529],[6.8864,45.9529],[6.8866,45.9545],[6.8903,45.9524],[6.8886,45.9541],[6.8917,45.9563],[6.8889,45.9564],[6.8902,45.9582],[6.8881,45.9566],[6.8891,45.9549],[6.8868,45.9561],[6.8870,45.9585],[6.8896,45.9599],[6.8880,45.9606],[6.8928,45.9624],[6.8908,45.9635],[6.8955,45.9628],[6.8942,45.9639],[6.8950,45.9645],[6.8931,45.9651],[6.8938,45.9656],[6.9031,45.9635],[6.8946,45.9667],[6.8956,45.9680],[6.8971,45.9677],[6.8977,45.9701],[6.9080,45.9669],[6.9003,45.9712],[6.9093,45.9679],[6.9013,45.9720]]]}},{"type":"Feature","properties":{"name":"Bois de Chosalets"},"geometry":{"type":"Polygon","coordinates":[[[6.9263,45.9604],[6.9186,45.9582],[6.9216,45.9577],[6.9204,45.9565],[6.9229,45.9569],[6.9241,45.9558],[6.9254,45.9533],[6.9235,45.9529],[6.9211,45.9545],[6.9223,45.9524],[6.9274,45.9497],[6.9252,45.9506],[6.9246,45.9497],[6.9242,45.9508],[6.9246,45.9496],[6.9184,45.9493],[6.9235,45.9508],[6.9216,45.9518],[6.9196,45.9516],[6.9175,45.9494],[6.9183,45.9516],[6.9171,45.9493],[6.9144,45.9482],[6.9049,45.9467],[6.9021,45.9418],[6.8991,45.9407],[6.8999,45.9422],[6.8968,45.9393],[6.8950,45.9393],[6.8995,45.9435],[6.8991,45.9455],[6.9002,45.9457],[6.8983,45.9455],[6.8997,45.9463],[6.8961,45.9473],[6.9023,45.9522],[6.9026,45.9578],[6.9081,45.9604],[6.9159,45.9664],[6.9166,45.9685],[6.9224,45.9711],[6.9217,45.9725],[6.9254,45.9732],[6.9231,45.9741],[6.9258,45.9732],[6.9243,45.9741],[6.9276,45.9741],[6.9289,45.9755],[6.9285,45.9768],[6.9267,45.9765],[6.9276,45.9772],[6.9307,45.9759],[6.9283,45.9782],[6.9318,45.9779],[6.9377,45.9748],[6.9495,45.9741],[6.9477,45.9704],[6.9437,45.9689],[6.9371,45.9723],[6.9396,45.9709],[6.9385,45.9689],[6.9353,45.9689],[6.9358,45.9675],[6.9336,45.9666],[6.9340,45.9653],[6.9332,45.9658],[6.9339,45.9645],[6.9263,45.9604]]]}},{"type":"Feature","properties":{"name":"La Mandallaz"},"geometry":{"type":"Polygon","coordinates":[[[6.0444,45.9604],[6.0467,45.9624],[6.0486,45.9608],[6.0522,45.9621],[6.0544,45.9615],[6.0534,45.9637],[6.0564,45.9661],[6.0543,45.9691],[6.0552,45.9700],[6.0582,45.9686],[6.0570,45.9674],[6.0596,45.9658],[6.0619,45.9679],[6.0691,45.9702],[6.0680,45.9716],[6.0637,45.9713],[6.0687,45.9731],[6.0691,45.9741],[6.0639,45.9776],[6.0673,45.9782],[6.0616,45.9793],[6.0600,45.9815],[6.0536,45.9820],[6.0570,45.9844],[6.0609,45.9846],[6.0593,45.9832],[6.0599,45.9824],[6.0609,45.9836],[6.0624,45.9824],[6.0654,45.9835],[6.0711,45.9815],[6.0634,45.9807],[6.0674,45.9791],[6.0686,45.9805],[6.0692,45.9772],[6.0680,45.9765],[6.0694,45.9750],[6.0723,45.9749],[6.0886,45.9852],[6.0874,45.9862],[6.0959,45.9892],[6.0989,45.9884],[6.0994,45.9862],[6.0984,45.9865],[6.0957,45.9833],[6.0938,45.9845],[6.0895,45.9835],[6.0911,45.9827],[6.0897,45.9802],[6.0914,45.9798],[6.0906,45.9781],[6.0835,45.9792],[6.0831,45.9772],[6.0863,45.9754],[6.0824,45.9762],[6.0811,45.9737],[6.0787,45.9736],[6.0799,45.9708],[6.0747,45.9708],[6.0754,45.9691],[6.0790,45.9681],[6.0790,45.9663],[6.0756,45.9648],[6.0753,45.9621],[6.0728,45.9590],[6.0733,45.9571],[6.0673,45.9539],[6.0667,45.9465],[6.0680,45.9437],[6.0636,45.9431],[6.0573,45.9472],[6.0554,45.9465],[6.0561,45.9472],[6.0540,45.9481],[6.0543,45.9494],[6.0494,45.9528],[6.0514,45.9531],[6.0477,45.9556],[6.0476,45.9546],[6.0461,45.9552],[6.0444,45.9604]]]}},{"type":"Feature","properties":{"name":"Forêt du Darbelay"},"geometry":{"type":"Polygon","coordinates":[[[6.4690,45.5345],[6.4648,45.5326],[6.4633,45.5334],[6.4599,45.5394],[6.4617,45.5423],[6.4608,45.5478],[6.4625,45.5487],[6.4557,45.5502],[6.4598,45.5503],[6.4611,45.5522],[6.4562,45.5515],[6.4589,45.5540],[6.4551,45.5534],[6.4545,45.5551],[6.4601,45.5565],[6.4624,45.5591],[6.4601,45.5607],[6.4553,45.5596],[6.4556,45.5624],[6.4571,45.5630],[6.4548,45.5681],[6.4523,45.5704],[6.4535,45.5730],[6.4569,45.5741],[6.4521,45.5776],[6.4474,45.5788],[6.4427,45.5783],[6.4449,45.5802],[6.4407,45.5808],[6.4378,45.5837],[6.4399,45.5894],[6.4346,45.5911],[6.4317,45.5966],[6.4267,45.5978],[6.4270,45.6002],[6.4311,45.6034],[6.4307,45.6061],[6.4319,45.6087],[6.4272,45.6112],[6.4258,45.6087],[6.4228,45.6089],[6.4213,45.6184],[6.4172,45.6216],[6.4172,45.6233],[6.4129,45.6247],[6.4157,45.6255],[6.4158,45.6267],[6.4120,45.6274],[6.4147,45.6292],[6.4121,45.6296],[6.4128,45.6320],[6.4097,45.6316],[6.4098,45.6329],[6.4123,45.6335],[6.4102,45.6352],[6.4106,45.6369],[6.4164,45.6355],[6.4235,45.6375],[6.4241,45.6357],[6.4241,45.6373],[6.4267,45.6363],[6.4288,45.6401],[6.4344,45.6418],[6.4349,45.6434],[6.4366,45.6368],[6.4393,45.6379],[6.4391,45.6353],[6.4368,45.6350],[6.4356,45.6267],[6.4390,45.6241],[6.4411,45.6243],[6.4451,45.6187],[6.4438,45.6200],[6.4420,45.6183],[6.4444,45.6134],[6.4429,45.6096],[6.4452,45.6081],[6.4455,45.6057],[6.4410,45.5997],[6.4395,45.5997],[6.4410,45.6012],[6.4383,45.6007],[6.4399,45.6032],[6.4359,45.6025],[6.4376,45.5995],[6.4361,45.5978],[6.4377,45.5952],[6.4421,45.5926],[6.4431,45.5897],[6.4447,45.5895],[6.4441,45.5856],[6.4452,45.5826],[6.4506,45.5836],[6.4515,45.5829],[6.4496,45.5822],[6.4511,45.5799],[6.4578,45.5774],[6.4643,45.5701],[6.4631,45.5648],[6.4633,45.5624],[6.4655,45.5610],[6.4644,45.5549],[6.4671,45.5540],[6.4642,45.5528],[6.4665,45.5490],[6.4645,45.5449],[6.4690,45.5345]]]}},{"type":"Feature","properties":{"name":"Bois de Lachat"},"geometry":{"type":"Polygon","coordinates":[[[5.8540,45.5827],[5.8583,45.5828],[5.8639,45.5859],[5.8658,45.5857],[5.8627,45.5843],[5.8649,45.5841],[5.8513,45.5796],[5.8531,45.5782],[5.8601,45.5801],[5.8568,45.5749],[5.8542,45.5734],[5.8539,45.5742],[5.8568,45.5759],[5.8564,45.5770],[5.8511,45.5758],[5.8491,45.5740],[5.8467,45.5752],[5.8489,45.5758],[5.8486,45.5775],[5.8462,45.5778],[5.8460,45.5766],[5.8425,45.5762],[5.8435,45.5733],[5.8417,45.5722],[5.8420,45.5708],[5.8405,45.5727],[5.8411,45.5713],[5.8395,45.5708],[5.8384,45.5677],[5.8393,45.5672],[5.8401,45.5698],[5.8418,45.5699],[5.8423,45.5657],[5.8412,45.5662],[5.8388,45.5645],[5.8352,45.5663],[5.8358,45.5644],[5.8390,45.5635],[5.8412,45.5646],[5.8513,45.5653],[5.8526,45.5674],[5.8586,45.5696],[5.8593,45.5714],[5.8618,45.5720],[5.8653,45.5706],[5.8665,45.5754],[5.8648,45.5787],[5.8661,45.5779],[5.8675,45.5833],[5.8706,45.5854],[5.8677,45.5830],[5.8689,45.5826],[5.8681,45.5792],[5.8697,45.5798],[5.8677,45.5770],[5.8702,45.5765],[5.8668,45.5715],[5.8683,45.5701],[5.8679,45.5686],[5.8745,45.5660],[5.8680,45.5656],[5.8665,45.5663],[5.8671,45.5683],[5.8651,45.5678],[5.8640,45.5657],[5.8628,45.5670],[5.8644,45.5695],[5.8622,45.5683],[5.8611,45.5691],[5.8599,45.5683],[5.8604,45.5663],[5.8579,45.5677],[5.8560,45.5622],[5.8489,45.5598],[5.8478,45.5568],[5.8448,45.5573],[5.8422,45.5560],[5.8518,45.5548],[5.8557,45.5557],[5.8561,45.5576],[5.8531,45.5577],[5.8526,45.5592],[5.8537,45.5598],[5.8534,45.5585],[5.8554,45.5599],[5.8583,45.5568],[5.8584,45.5576],[5.8632,45.5558],[5.8668,45.5568],[5.8650,45.5592],[5.8667,45.5606],[5.8668,45.5597],[5.8714,45.5610],[5.8707,45.5620],[5.8734,45.5615],[5.8732,45.5603],[5.8763,45.5606],[5.8795,45.5594],[5.8799,45.5602],[5.8832,45.5583],[5.8850,45.5589],[5.8856,45.5576],[5.8843,45.5574],[5.8857,45.5565],[5.8826,45.5566],[5.8827,45.5556],[5.8794,45.5572],[5.8778,45.5557],[5.8730,45.5577],[5.8705,45.5575],[5.8683,45.5549],[5.8641,45.5537],[5.8633,45.5518],[5.8601,45.5517],[5.8588,45.5499],[5.8594,45.5490],[5.8574,45.5485],[5.8582,45.5475],[5.8533,45.5459],[5.8532,45.5435],[5.8522,45.5455],[5.8538,45.5483],[5.8462,45.5472],[5.8502,45.5479],[5.8520,45.5495],[5.8474,45.5505],[5.8468,45.5489],[5.8455,45.5502],[5.8436,45.5493],[5.8431,45.5476],[5.8458,45.5475],[5.8438,45.5458],[5.8476,45.5437],[5.8418,45.5434],[5.8417,45.5409],[5.8389,45.5407],[5.8381,45.5414],[5.8400,45.5444],[5.8399,45.5473],[5.8375,45.5498],[5.8409,45.5519],[5.8390,45.5526],[5.8367,45.5511],[5.8359,45.5520],[5.8369,45.5534],[5.8361,45.5572],[5.8325,45.5635],[5.8333,45.5670],[5.8365,45.5680],[5.8354,45.5746],[5.8441,45.5786],[5.8468,45.5812],[5.8495,45.5807],[5.8536,45.5829],[5.8444,45.5787],[5.8540,45.5827]]]}},{"type":"Feature","properties":{"name":"Forêt domaniale de la Lauzière"},"geometry":{"type":"Polygon","coordinates":[[[6.3246,45.5040],[6.3266,45.5064],[6.3255,45.5066],[6.3288,45.5066],[6.3279,45.5076],[6.3298,45.5088],[6.3341,45.5056],[6.3584,45.4972],[6.3588,45.4956],[6.3601,45.4955],[6.3618,45.4885],[6.3596,45.4867],[6.3598,45.4844],[6.3562,45.4855],[6.3553,45.4839],[6.3481,45.4863],[6.3438,45.4893],[6.3392,45.4896],[6.3389,45.4878],[6.3485,45.4780],[6.3497,45.4739],[6.3384,45.4744],[6.3380,45.4716],[6.3344,45.4707],[6.3363,45.4677],[6.3381,45.4672],[6.3380,45.4651],[6.3401,45.4645],[6.3412,45.4656],[6.3415,45.4640],[6.3429,45.4635],[6.3377,45.4604],[6.3405,45.4603],[6.3401,45.4577],[6.3385,45.4556],[6.3347,45.4553],[6.3364,45.4537],[6.3361,45.4525],[6.3296,45.4527],[6.3313,45.4492],[6.3290,45.4489],[6.3277,45.4467],[6.3302,45.4461],[6.3290,45.4438],[6.3307,45.4420],[6.2953,45.4446],[6.2947,45.4472],[6.2958,45.4477],[6.2945,45.4481],[6.2964,45.4480],[6.3003,45.4520],[6.3016,45.4569],[6.2995,45.4564],[6.2985,45.4574],[6.2966,45.4547],[6.2964,45.4572],[6.2941,45.4574],[6.2966,45.4609],[6.2940,45.4649],[6.2925,45.4651],[6.2917,45.4703],[6.2937,45.4709],[6.3009,45.4799],[6.3029,45.4800],[6.3011,45.4784],[6.3018,45.4776],[6.3050,45.4795],[6.3033,45.4830],[6.3042,45.4839],[6.3085,45.4839],[6.3073,45.4849],[6.3102,45.4886],[6.3129,45.4905],[6.3146,45.4899],[6.3145,45.4915],[6.3170,45.4916],[6.3182,45.4940],[6.3163,45.4941],[6.3164,45.4954],[6.3200,45.4967],[6.3194,45.4978],[6.3179,45.4961],[6.3153,45.4967],[6.3184,45.4992],[6.3196,45.4985],[6.3246,45.5040]]]}},{"type":"Feature","properties":{"name":"Forêt de la Combe"},"geometry":{"type":"Polygon","coordinates":[[[5.7587,45.0779],[5.7585,45.0768],[5.7624,45.0777],[5.7604,45.0740],[5.7643,45.0779],[5.7638,45.0798],[5.7652,45.0794],[5.7643,45.0810],[5.7655,45.0795],[5.7631,45.0819],[5.7561,45.0848],[5.7422,45.0821],[5.7358,45.0789],[5.7360,45.0765],[5.7324,45.0709],[5.7343,45.0706],[5.7352,45.0723],[5.7384,45.0703],[5.7432,45.0724],[5.7441,45.0705],[5.7473,45.0744],[5.7488,45.0741],[5.7475,45.0715],[5.7492,45.0700],[5.7517,45.0723],[5.7511,45.0728],[5.7560,45.0751],[5.7561,45.0775],[5.7572,45.0771],[5.7569,45.0759],[5.7587,45.0779]]]}},{"type":"Feature","properties":{"name":"Forêt domaniale du Boutat"},"geometry":{"type":"Polygon","coordinates":[[[5.9473,45.4115],[5.9433,45.4120],[5.9446,45.4090],[5.9408,45.4115],[5.9312,45.4144],[5.9318,45.4153],[5.9335,45.4140],[5.9325,45.4154],[5.9359,45.4187],[5.9323,45.4175],[5.9334,45.4201],[5.9359,45.4205],[5.9316,45.4214],[5.9385,45.4293],[5.9371,45.4297],[5.9392,45.4305],[5.9380,45.4313],[5.9406,45.4328],[5.9385,45.4339],[5.9419,45.4352],[5.9400,45.4345],[5.9410,45.4359],[5.9402,45.4388],[5.9422,45.4422],[5.9421,45.4447],[5.9409,45.4450],[5.9426,45.4457],[5.9417,45.4456],[5.9417,45.4489],[5.9556,45.4501],[5.9598,45.4486],[5.9637,45.4503],[5.9635,45.4480],[5.9630,45.4496],[5.9621,45.4485],[5.9641,45.4474],[5.9624,45.4481],[5.9615,45.4467],[5.9587,45.4471],[5.9585,45.4459],[5.9610,45.4452],[5.9588,45.4432],[5.9577,45.4442],[5.9560,45.4434],[5.9598,45.4409],[5.9654,45.4438],[5.9635,45.4416],[5.9641,45.4386],[5.9625,45.4333],[5.9627,45.4372],[5.9618,45.4345],[5.9595,45.4341],[5.9609,45.4338],[5.9604,45.4326],[5.9582,45.4332],[5.9591,45.4324],[5.9577,45.4319],[5.9592,45.4318],[5.9588,45.4304],[5.9576,45.4315],[5.9570,45.4280],[5.9585,45.4275],[5.9568,45.4278],[5.9556,45.4259],[5.9572,45.4329],[5.9529,45.4320],[5.9549,45.4307],[5.9528,45.4293],[5.9545,45.4292],[5.9546,45.4272],[5.9520,45.4275],[5.9544,45.4263],[5.9500,45.4251],[5.9545,45.4240],[5.9552,45.4257],[5.9583,45.4269],[5.9598,45.4257],[5.9568,45.4255],[5.9565,45.4240],[5.9590,45.4226],[5.9587,45.4212],[5.9566,45.4219],[5.9547,45.4201],[5.9573,45.4206],[5.9562,45.4185],[5.9549,45.4195],[5.9533,45.4156],[5.9512,45.4154],[5.9519,45.4145],[5.9474,45.4152],[5.9517,45.4123],[5.9538,45.4160],[5.9532,45.4118],[5.9565,45.4142],[5.9564,45.4134],[5.9533,45.4108],[5.9539,45.4092],[5.9517,45.4083],[5.9506,45.4099],[5.9464,45.4104],[5.9479,45.4110],[5.9473,45.4115]]]}},{"type":"Feature","properties":{"name":"Forêt Départementale de Tamié"},"geometry":{"type":"Polygon","coordinates":[[[6.2853,45.6921],[6.2887,45.6878],[6.3028,45.6897],[6.3039,45.6846],[6.3026,45.6847],[6.3000,45.6799],[6.2998,45.6758],[6.2932,45.6760],[6.2959,45.6728],[6.2846,45.6765],[6.2789,45.6768],[6.2799,45.6813],[6.2766,45.6820],[6.2776,45.6840],[6.2728,45.6853],[6.2719,45.6872],[6.2782,45.6891],[6.2784,45.6914],[6.2821,45.6920],[6.2819,45.6932],[6.2853,45.6921]]]}},{"type":"Feature","properties":{"name":"Forêt de Rhonne"},"geometry":{"type":"Polygon","coordinates":[[[6.3851,45.6568],[6.3937,45.6626],[6.4069,45.6620],[6.4168,45.6590],[6.4291,45.6577],[6.4298,45.6548],[6.4321,45.6528],[6.4303,45.6518],[6.4308,45.6498],[6.4319,45.6497],[6.4306,45.6493],[6.4306,45.6474],[6.4241,45.6515],[6.4104,45.6493],[6.4073,45.6520],[6.4042,45.6526],[6.4050,45.6574],[6.4042,45.6586],[6.3920,45.6569],[6.3882,45.6558],[6.3856,45.6529],[6.3930,45.6513],[6.3918,45.6499],[6.3945,45.6419],[6.3929,45.6428],[6.3923,45.6408],[6.3883,45.6420],[6.3884,45.6445],[6.3874,45.6450],[6.3852,45.6420],[6.3810,45.6419],[6.3818,45.6405],[6.3743,45.6362],[6.3747,45.6330],[6.3719,45.6294],[6.3648,45.6256],[6.3627,45.6228],[6.3533,45.6252],[6.3571,45.6284],[6.3608,45.6289],[6.3613,45.6330],[6.3519,45.6285],[6.3524,45.6273],[6.3510,45.6270],[6.3484,45.6275],[6.3484,45.6298],[6.3460,45.6301],[6.3466,45.6325],[6.3428,45.6313],[6.3445,45.6331],[6.3488,45.6330],[6.3506,45.6308],[6.3498,45.6295],[6.3509,45.6294],[6.3526,45.6316],[6.3559,45.6317],[6.3558,45.6330],[6.3538,45.6332],[6.3596,45.6366],[6.3696,45.6394],[6.3704,45.6404],[6.3631,45.6394],[6.3760,45.6452],[6.3790,45.6491],[6.3807,45.6493],[6.3802,45.6502],[6.3788,45.6494],[6.3851,45.6568]]]}},{"type":"Feature","properties":{"name":"Forêt des Carrés"},"geometry":{"type":"Polygon","coordinates":[[[6.4235,45.6375],[6.4164,45.6355],[6.4106,45.6369],[6.4075,45.6392],[6.4109,45.6421],[6.4072,45.6432],[6.4133,45.6447],[6.4120,45.6469],[6.4185,45.6514],[6.4241,45.6515],[6.4306,45.6474],[6.4308,45.6429],[6.4330,45.6432],[6.4342,45.6419],[6.4288,45.6401],[6.4267,45.6363],[6.4238,45.6378],[6.4270,45.6368],[6.4265,45.6380],[6.4211,45.6386],[6.4192,45.6405],[6.4235,45.6375]]]}},{"type":"Feature","properties":{"name":"Forêt domaniale du Cimeteret"},"geometry":{"type":"Polygon","coordinates":[[[6.0809,45.6622],[6.0764,45.6620],[6.0741,45.6602],[6.0729,45.6628],[6.0810,45.6709],[6.0812,45.6754],[6.0842,45.6792],[6.0889,45.6840],[6.1085,45.6959],[6.1085,45.6915],[6.1044,45.6873],[6.0996,45.6785],[6.0906,45.6732],[6.0779,45.6630],[6.0809,45.6622]]]}},{"type":"Feature","properties":{"name":"Le Vivier"},"geometry":{"type":"Polygon","coordinates":[[[6.2196,45.8375],[6.2206,45.8395],[6.2186,45.8394],[6.2187,45.8383],[6.2184,45.8394],[6.2180,45.8383],[6.2167,45.8401],[6.2187,45.8416],[6.2146,45.8439],[6.2195,45.8465],[6.2171,45.8516],[6.2176,45.8529],[6.2156,45.8549],[6.2163,45.8558],[6.2186,45.8529],[6.2193,45.8552],[6.2204,45.8549],[6.2233,45.8510],[6.2250,45.8512],[6.2239,45.8499],[6.2247,45.8486],[6.2234,45.8483],[6.2242,45.8477],[6.2231,45.8483],[6.2240,45.8472],[6.2226,45.8476],[6.2253,45.8464],[6.2237,45.8443],[6.2257,45.8455],[6.2236,45.8441],[6.2239,45.8424],[6.2222,45.8422],[6.2250,45.8422],[6.2271,45.8449],[6.2287,45.8438],[6.2278,45.8416],[6.2248,45.8414],[6.2248,45.8400],[6.2232,45.8395],[6.2273,45.8369],[6.2273,45.8350],[6.2314,45.8365],[6.2298,45.8347],[6.2392,45.8320],[6.2380,45.8300],[6.2364,45.8323],[6.2290,45.8336],[6.2348,45.8321],[6.2343,45.8311],[6.2315,45.8309],[6.2337,45.8302],[6.2336,45.8292],[6.2312,45.8305],[6.2297,45.8296],[6.2319,45.8292],[6.2372,45.8242],[6.2363,45.8209],[6.2294,45.8237],[6.2272,45.8234],[6.2243,45.8276],[6.2212,45.8293],[6.2199,45.8328],[6.2180,45.8332],[6.2199,45.8336],[6.2187,45.8371],[6.2196,45.8375]]]}},{"type":"Feature","properties":{"name":"Bois des Fréaux"},"geometry":{"type":"Polygon","coordinates":[[[6.3034,45.0412],[6.3044,45.0394],[6.3026,45.0379],[6.2984,45.0385],[6.2985,45.0372],[6.2945,45.0344],[6.2917,45.0299],[6.2895,45.0302],[6.2881,45.0285],[6.2841,45.0320],[6.2827,45.0292],[6.2829,45.0307],[6.2823,45.0294],[6.2823,45.0312],[6.2803,45.0302],[6.2801,45.0315],[6.2778,45.0310],[6.2776,45.0292],[6.2774,45.0316],[6.2767,45.0291],[6.2752,45.0307],[6.2756,45.0320],[6.2703,45.0300],[6.2719,45.0313],[6.2725,45.0352],[6.2708,45.0314],[6.2685,45.0311],[6.2684,45.0298],[6.2660,45.0301],[6.2661,45.0316],[6.2615,45.0294],[6.2615,45.0304],[6.2587,45.0310],[6.2585,45.0326],[6.2559,45.0329],[6.2576,45.0306],[6.2550,45.0296],[6.2534,45.0337],[6.2463,45.0381],[6.2548,45.0391],[6.2553,45.0371],[6.2549,45.0392],[6.2581,45.0382],[6.2582,45.0395],[6.2613,45.0413],[6.2700,45.0423],[6.2908,45.0408],[6.2904,45.0416],[6.2919,45.0418],[6.2929,45.0404],[6.2930,45.0416],[6.2953,45.0415],[6.2903,45.0425],[6.3034,45.0412]]]}},{"type":"Feature","properties":{"name":"Forêt de Rothonne"},"geometry":{"type":"Polygon","coordinates":[[[5.6809,45.7228],[5.6787,45.7229],[5.6786,45.7219],[5.6798,45.7221],[5.6759,45.7136],[5.6764,45.7109],[5.6725,45.7112],[5.6762,45.7089],[5.6764,45.7075],[5.6710,45.7089],[5.6701,45.7078],[5.6693,45.7087],[5.6704,45.7096],[5.6693,45.7103],[5.6688,45.7094],[5.6676,45.7114],[5.6677,45.7097],[5.6720,45.7059],[5.6707,45.7054],[5.6665,45.7110],[5.6619,45.7102],[5.6634,45.7140],[5.6670,45.7147],[5.6646,45.7152],[5.6656,45.7181],[5.6638,45.7205],[5.6668,45.7200],[5.6680,45.7221],[5.6636,45.7316],[5.6657,45.7317],[5.6656,45.7332],[5.6671,45.7322],[5.6726,45.7380],[5.6737,45.7367],[5.6728,45.7354],[5.6742,45.7366],[5.6741,45.7353],[5.6805,45.7321],[5.6785,45.7311],[5.6786,45.7293],[5.6836,45.7289],[5.6817,45.7252],[5.6804,45.7252],[5.6818,45.7246],[5.6809,45.7228]]]}},{"type":"Feature","properties":{"name":"Forêt du Fay"},"geometry":{"type":"Polygon","coordinates":[[[5.6283,45.9090],[5.6257,45.9072],[5.6163,45.9082],[5.6127,45.9066],[5.6133,45.9021],[5.6148,45.9006],[5.6190,45.8998],[5.6222,45.8965],[5.6235,45.8917],[5.6220,45.8898],[5.6247,45.8875],[5.6243,45.8856],[5.6229,45.8850],[5.6240,45.8838],[5.6226,45.8786],[5.6197,45.8788],[5.6206,45.8770],[5.6167,45.8762],[5.6121,45.8780],[5.6124,45.8749],[5.6093,45.8751],[5.6138,45.8712],[5.6136,45.8690],[5.6161,45.8666],[5.6148,45.8652],[5.6157,45.8646],[5.6207,45.8660],[5.6172,45.8692],[5.6269,45.8689],[5.6340,45.8712],[5.6367,45.8698],[5.6414,45.8697],[5.6417,45.8595],[5.6305,45.8609],[5.6252,45.8596],[5.6219,45.8616],[5.6207,45.8610],[5.6206,45.8580],[5.6251,45.8542],[5.6211,45.8548],[5.6197,45.8563],[5.6188,45.8549],[5.6158,45.8577],[5.6167,45.8589],[5.6155,45.8628],[5.6121,45.8619],[5.6109,45.8658],[5.6133,45.8652],[5.6111,45.8668],[5.6126,45.8677],[5.6086,45.8721],[5.6087,45.8735],[5.6055,45.8740],[5.6042,45.8769],[5.6041,45.8824],[5.6089,45.8826],[5.6051,45.8863],[5.6063,45.8893],[5.6058,45.8948],[5.6071,45.8958],[5.6061,45.9014],[5.6081,45.9027],[5.6048,45.9016],[5.6079,45.9037],[5.6070,45.9074],[5.6154,45.9124],[5.6193,45.9126],[5.6228,45.9105],[5.6235,45.9121],[5.6267,45.9100],[5.6252,45.9116],[5.6280,45.9106],[5.6283,45.9090]]]}},{"type":"Feature","properties":{"name":"Forêt Domaniale de la Deysse"},"geometry":{"type":"Polygon","coordinates":[[[5.9610,45.7945],[5.9605,45.7937],[5.9642,45.7928],[5.9641,45.7916],[5.9651,45.7930],[5.9676,45.7934],[5.9673,45.7951],[5.9715,45.7950],[5.9641,45.7847],[5.9643,45.7865],[5.9620,45.7852],[5.9639,45.7838],[5.9605,45.7829],[5.9615,45.7816],[5.9584,45.7821],[5.9573,45.7807],[5.9615,45.7801],[5.9607,45.7772],[5.9566,45.7781],[5.9566,45.7765],[5.9551,45.7760],[5.9594,45.7746],[5.9601,45.7759],[5.9597,45.7744],[5.9550,45.7745],[5.9530,45.7737],[5.9544,45.7728],[5.9523,45.7730],[5.9528,45.7716],[5.9554,45.7716],[5.9550,45.7697],[5.9559,45.7692],[5.9536,45.7689],[5.9551,45.7676],[5.9528,45.7659],[5.9523,45.7638],[5.9546,45.7626],[5.9522,45.7622],[5.9506,45.7596],[5.9523,45.7601],[5.9517,45.7594],[5.9489,45.7586],[5.9472,45.7563],[5.9452,45.7563],[5.9418,45.7524],[5.9372,45.7522],[5.9430,45.7542],[5.9518,45.7628],[5.9519,45.7658],[5.9508,45.7664],[5.9523,45.7675],[5.9504,45.7675],[5.9525,45.7684],[5.9499,45.7685],[5.9512,45.7691],[5.9488,45.7718],[5.9537,45.7754],[5.9539,45.7779],[5.9529,45.7781],[5.9552,45.7799],[5.9534,45.7807],[5.9525,45.7796],[5.9555,45.7822],[5.9563,45.7859],[5.9573,45.7859],[5.9564,45.7870],[5.9576,45.7879],[5.9565,45.7911],[5.9554,45.7912],[5.9547,45.7884],[5.9521,45.7875],[5.9517,45.7908],[5.9495,45.7909],[5.9491,45.7932],[5.9502,45.7954],[5.9516,45.7955],[5.9502,45.7971],[5.9492,45.7952],[5.9492,45.7968],[5.9519,45.7981],[5.9522,45.7967],[5.9508,45.7963],[5.9553,45.7953],[5.9568,45.7968],[5.9591,45.7964],[5.9598,45.7977],[5.9613,45.7965],[5.9585,45.7950],[5.9591,45.7940],[5.9610,45.7945]]]}},{"type":"Feature","properties":{"name":"Montagne d\u0027Âge"},"geometry":{"type":"Polygon","coordinates":[[[6.0603,45.9425],[6.0625,45.9391],[6.0589,45.9396],[6.0542,45.9344],[6.0464,45.9313],[6.0478,45.9286],[6.0472,45.9267],[6.0461,45.9255],[6.0441,45.9257],[6.0451,45.9246],[6.0437,45.9220],[6.0407,45.9224],[6.0381,45.9181],[6.0405,45.9163],[6.0405,45.9134],[6.0465,45.9125],[6.0470,45.9108],[6.0496,45.9130],[6.0507,45.9120],[6.0448,45.9080],[6.0451,45.9094],[6.0442,45.9084],[6.0433,45.9092],[6.0461,45.9111],[6.0439,45.9107],[6.0399,45.9125],[6.0369,45.9121],[6.0353,45.9094],[6.0337,45.9091],[6.0329,45.9093],[6.0345,45.9104],[6.0325,45.9126],[6.0336,45.9142],[6.0327,45.9146],[6.0304,45.9114],[6.0314,45.9093],[6.0299,45.9090],[6.0313,45.9067],[6.0292,45.9065],[6.0274,45.9046],[6.0269,45.9077],[6.0255,45.9046],[6.0259,45.9022],[6.0247,45.9017],[6.0252,45.9087],[6.0268,45.9088],[6.0306,45.9159],[6.0348,45.9159],[6.0369,45.9217],[6.0361,45.9247],[6.0397,45.9319],[6.0469,45.9383],[6.0558,45.9412],[6.0585,45.9410],[6.0603,45.9425]]]}}]}