{"type":"FeatureCollection","features":[{"type":"Feature","properties":{"name":"Forêt domaniale de Meudon"},"geometry":{"type":"Polygon","coordinates":[[[2.2219,48.7876],[2.2120,48.7910],[2.2060,48.7840],[2.1966,48.7825],[2.1901,48.7864],[2.1798,48.7883],[2.1797,48.7943],[2.1791,48.7931],[2.1788,48.7948],[2.1774,48.7937],[2.1797,48.7909],[2.1790,48.7885],[2.1753,48.7895],[2.1734,48.7867],[2.1707,48.7871],[2.1734,48.7915],[2.1666,48.7986],[2.1752,48.7968],[2.1819,48.7971],[2.1811,48.7955],[2.1867,48.7962],[2.1868,48.7946],[2.1884,48.7943],[2.1883,48.7963],[2.1900,48.7964],[2.1899,48.7973],[2.1927,48.7974],[2.1927,48.7963],[2.1949,48.7964],[2.1990,48.7941],[2.2014,48.7950],[2.1968,48.8000],[2.1894,48.8004],[2.1885,48.8017],[2.1905,48.8028],[2.1884,48.8039],[2.1924,48.8078],[2.1959,48.8084],[2.1952,48.8114],[2.1996,48.8167],[2.2011,48.8177],[2.2026,48.8166],[2.2069,48.8166],[2.2107,48.8190],[2.2107,48.8178],[2.2133,48.8169],[2.2161,48.8178],[2.2136,48.8155],[2.2064,48.8139],[2.2078,48.8129],[2.2039,48.8104],[2.2070,48.8087],[2.2109,48.8114],[2.2144,48.8104],[2.2160,48.8128],[2.2226,48.8144],[2.2275,48.8114],[2.2289,48.8090],[2.2287,48.8059],[2.2266,48.8061],[2.2253,48.8047],[2.2278,48.8042],[2.2288,48.8057],[2.2304,48.8040],[2.2338,48.8043],[2.2330,48.8016],[2.2299,48.7983],[2.2316,48.7981],[2.2335,48.7996],[2.2324,48.7974],[2.2351,48.7955],[2.2365,48.7971],[2.2349,48.7990],[2.2377,48.7978],[2.2384,48.8004],[2.2400,48.7996],[2.2424,48.8034],[2.2472,48.8030],[2.2492,48.8056],[2.2566,48.8032],[2.2536,48.7993],[2.2523,48.7925],[2.2392,48.7882],[2.2252,48.7908],[2.2200,48.7936],[2.2227,48.7951],[2.2222,48.7962],[2.2181,48.7958],[2.2166,48.7938],[2.2185,48.7939],[2.2219,48.7876]]]}}]}