{"type":"FeatureCollection","features":[{"type":"Feature","properties":{"name":"Foret du Hellet"},"geometry":{"type":"Polygon","coordinates":[[[1.4299,49.7576],[1.4327,49.7587],[1.4297,49.7611],[1.4425,49.7679],[1.4398,49.7704],[1.4324,49.7685],[1.4319,49.7693],[1.4393,49.7717],[1.4386,49.7729],[1.4425,49.7745],[1.4441,49.7827],[1.4429,49.7828],[1.4421,49.7797],[1.4392,49.7819],[1.4400,49.7827],[1.4391,49.7834],[1.4375,49.7805],[1.4356,49.7809],[1.4329,49.7789],[1.4319,49.7797],[1.4341,49.7811],[1.4325,49.7819],[1.4330,49.7839],[1.4287,49.7841],[1.4313,49.7870],[1.4243,49.7853],[1.4197,49.7880],[1.4164,49.7854],[1.4177,49.7845],[1.4159,49.7825],[1.4156,49.7780],[1.4219,49.7692],[1.4202,49.7683],[1.4228,49.7677],[1.4242,49.7659],[1.4221,49.7654],[1.4153,49.7691],[1.4155,49.7658],[1.4151,49.7691],[1.4123,49.7711],[1.4086,49.7707],[1.4067,49.7726],[1.4102,49.7733],[1.4080,49.7744],[1.4088,49.7772],[1.4098,49.7765],[1.4151,49.7793],[1.4154,49.7837],[1.4134,49.7830],[1.4136,49.7855],[1.4110,49.7855],[1.4106,49.7868],[1.4120,49.7904],[1.4080,49.7923],[1.3962,49.7894],[1.3930,49.7875],[1.3908,49.7903],[1.3978,49.7922],[1.4001,49.7924],[1.4011,49.7909],[1.4031,49.7919],[1.4009,49.7941],[1.3948,49.7934],[1.4105,49.8008],[1.4078,49.8004],[1.4086,49.8015],[1.4064,49.8024],[1.4076,49.8028],[1.4067,49.8035],[1.4010,49.8028],[1.4047,49.8073],[1.4039,49.8079],[1.4076,49.8097],[1.4067,49.8101],[1.4085,49.8126],[1.3971,49.8104],[1.3964,49.8082],[1.3972,49.8067],[1.3960,49.8058],[1.3942,49.8062],[1.3932,49.8097],[1.3907,49.8094],[1.3894,49.8032],[1.3868,49.8047],[1.3845,49.8025],[1.3789,49.8065],[1.3841,49.8093],[1.3797,49.8105],[1.3845,49.8132],[1.3778,49.8158],[1.3811,49.8167],[1.3802,49.8169],[1.3844,49.8203],[1.3795,49.8228],[1.3727,49.8210],[1.3683,49.8179],[1.3697,49.8177],[1.3690,49.8161],[1.3754,49.8209],[1.3800,49.8186],[1.3742,49.8140],[1.3753,49.8127],[1.3740,49.8118],[1.3753,49.8113],[1.3737,49.8107],[1.3732,49.8071],[1.3690,49.8065],[1.3648,49.8128],[1.3598,49.8140],[1.3469,49.8124],[1.3569,49.8131],[1.3563,49.8096],[1.3605,49.8069],[1.3585,49.8047],[1.3560,49.8068],[1.3533,49.7995],[1.3509,49.7979],[1.3463,49.7980],[1.3474,49.7972],[1.3468,49.7963],[1.3523,49.7940],[1.3528,49.7948],[1.3693,49.7910],[1.3730,49.7883],[1.3666,49.7834],[1.3703,49.7829],[1.3797,49.7851],[1.3770,49.7894],[1.3833,49.7930],[1.3824,49.7941],[1.3868,49.7967],[1.3834,49.7994],[1.3865,49.8014],[1.3860,49.7989],[1.3870,49.7989],[1.3879,49.7956],[1.3890,49.7961],[1.3933,49.7927],[1.3860,49.7896],[1.3874,49.7867],[1.3827,49.7846],[1.3804,49.7853],[1.3830,49.7823],[1.3828,49.7803],[1.3853,49.7790],[1.3855,49.7804],[1.3922,49.7802],[1.3997,49.7776],[1.4020,49.7762],[1.4026,49.7740],[1.3958,49.7696],[1.3925,49.7659],[1.4144,49.7661],[1.4175,49.7653],[1.4159,49.7636],[1.4189,49.7629],[1.4195,49.7610],[1.4218,49.7599],[1.4234,49.7613],[1.4261,49.7594],[1.4227,49.7559],[1.4242,49.7540],[1.4264,49.7547],[1.4255,49.7568],[1.4299,49.7576]]]}},{"type":"Feature","properties":{"name":"Bois de l\u0027Épinay"},"geometry":{"type":"Polygon","coordinates":[[[1.5273,49.6263],[1.5226,49.6268],[1.5173,49.6257],[1.5017,49.6166],[1.5032,49.6187],[1.5004,49.6197],[1.5009,49.6272],[1.4960,49.6277],[1.4976,49.6282],[1.4968,49.6304],[1.4942,49.6310],[1.4922,49.6299],[1.4910,49.6316],[1.4938,49.6310],[1.4947,49.6322],[1.4905,49.6340],[1.4891,49.6328],[1.4831,49.6349],[1.4787,49.6346],[1.4812,49.6364],[1.4806,49.6372],[1.4786,49.6369],[1.4782,49.6382],[1.4717,49.6401],[1.4687,49.6424],[1.4686,49.6441],[1.4712,49.6466],[1.4761,49.6483],[1.4751,49.6519],[1.4802,49.6532],[1.4866,49.6510],[1.4861,49.6491],[1.4873,49.6507],[1.4898,49.6488],[1.4876,49.6473],[1.4843,49.6477],[1.4807,49.6449],[1.4784,49.6460],[1.4761,49.6438],[1.4786,49.6424],[1.4809,49.6440],[1.4826,49.6433],[1.4808,49.6418],[1.4878,49.6391],[1.4892,49.6403],[1.4855,49.6419],[1.4893,49.6455],[1.4888,49.6466],[1.4919,49.6478],[1.4916,49.6510],[1.4928,49.6513],[1.4945,49.6489],[1.4949,49.6512],[1.4969,49.6529],[1.5017,49.6511],[1.4997,49.6501],[1.5015,49.6492],[1.5035,49.6502],[1.5059,49.6474],[1.5091,49.6490],[1.5134,49.6483],[1.5139,49.6472],[1.5117,49.6459],[1.5142,49.6442],[1.5093,49.6416],[1.5099,49.6399],[1.5121,49.6403],[1.5130,49.6386],[1.5156,49.6394],[1.5175,49.6374],[1.5212,49.6378],[1.5214,49.6331],[1.5236,49.6309],[1.5233,49.6272],[1.5273,49.6263]]]}},{"type":"Feature","properties":{"name":"Bois du Varambeaumont"},"geometry":{"type":"Polygon","coordinates":[[[1.7528,49.6840],[1.7523,49.6858],[1.7536,49.6864],[1.7525,49.6915],[1.7535,49.6920],[1.7521,49.6934],[1.7557,49.6961],[1.7533,49.6960],[1.7517,49.6994],[1.7518,49.6977],[1.7506,49.6973],[1.7479,49.6990],[1.7510,49.7009],[1.7471,49.7000],[1.7458,49.7010],[1.7479,49.7025],[1.7468,49.7035],[1.7501,49.7061],[1.7495,49.7044],[1.7537,49.7046],[1.7549,49.7091],[1.7586,49.7085],[1.7585,49.7098],[1.7564,49.7094],[1.7567,49.7108],[1.7610,49.7160],[1.7607,49.7184],[1.7587,49.7198],[1.7604,49.7216],[1.7577,49.7267],[1.7522,49.7275],[1.7477,49.7306],[1.7529,49.7341],[1.7559,49.7344],[1.7583,49.7370],[1.7659,49.7365],[1.7691,49.7341],[1.7757,49.7347],[1.7741,49.7369],[1.7745,49.7384],[1.7723,49.7402],[1.7692,49.7400],[1.7678,49.7431],[1.7646,49.7424],[1.7657,49.7426],[1.7648,49.7402],[1.7627,49.7407],[1.7629,49.7446],[1.7603,49.7462],[1.7591,49.7497],[1.7566,49.7488],[1.7565,49.7507],[1.7508,49.7519],[1.7506,49.7530],[1.7394,49.7461],[1.7409,49.7418],[1.7393,49.7417],[1.7411,49.7401],[1.7405,49.7336],[1.7425,49.7308],[1.7468,49.7274],[1.7533,49.7247],[1.7510,49.7242],[1.7518,49.7235],[1.7544,49.7250],[1.7571,49.7231],[1.7569,49.7189],[1.7554,49.7203],[1.7557,49.7185],[1.7570,49.7186],[1.7568,49.7160],[1.7540,49.7152],[1.7553,49.7144],[1.7532,49.7134],[1.7524,49.7119],[1.7539,49.7127],[1.7526,49.7098],[1.7498,49.7072],[1.7511,49.7065],[1.7475,49.7049],[1.7468,49.7065],[1.7458,49.7056],[1.7443,49.7001],[1.7486,49.6972],[1.7485,49.6961],[1.7508,49.6955],[1.7502,49.6870],[1.7528,49.6840]]]}},{"type":"Feature","properties":{"name":"Petit temple"},"geometry":{"type":"Polygon","coordinates":[[[1.5194,49.9695],[1.5332,49.9714],[1.5311,49.9723],[1.5339,49.9759],[1.5435,49.9836],[1.5331,49.9780],[1.5272,49.9783],[1.5240,49.9797],[1.5263,49.9818],[1.5322,49.9812],[1.5406,49.9838],[1.5367,49.9832],[1.5384,49.9851],[1.5345,49.9878],[1.5312,49.9851],[1.5331,49.9879],[1.5271,49.9929],[1.5222,49.9903],[1.5234,49.9968],[1.5155,50.0010],[1.5104,49.9986],[1.5108,49.9974],[1.5144,49.9976],[1.5166,49.9961],[1.5158,49.9946],[1.5175,49.9934],[1.5169,49.9918],[1.5144,49.9907],[1.5083,49.9919],[1.5028,49.9979],[1.5031,49.9992],[1.4991,50.0024],[1.4947,50.0038],[1.4904,50.0042],[1.4904,50.0030],[1.4887,50.0028],[1.4865,50.0038],[1.4844,50.0072],[1.4917,50.0128],[1.4909,50.0141],[1.4939,50.0146],[1.4944,50.0158],[1.4925,50.0165],[1.4936,50.0171],[1.4883,50.0185],[1.4849,50.0207],[1.4847,50.0220],[1.4740,50.0259],[1.4712,50.0226],[1.4728,50.0270],[1.4684,50.0292],[1.4668,50.0281],[1.4679,50.0299],[1.4633,50.0318],[1.4620,50.0309],[1.4617,50.0326],[1.4585,50.0339],[1.4572,50.0332],[1.4569,50.0346],[1.4528,50.0355],[1.4479,50.0314],[1.4404,50.0314],[1.4462,50.0292],[1.4432,50.0280],[1.4450,50.0268],[1.4436,50.0256],[1.4479,50.0243],[1.4492,50.0256],[1.4524,50.0203],[1.4539,50.0215],[1.4588,50.0184],[1.4621,50.0190],[1.4608,50.0206],[1.4614,50.0236],[1.4684,50.0201],[1.4664,50.0183],[1.4636,50.0182],[1.4643,50.0175],[1.4599,50.0174],[1.4608,50.0159],[1.4561,50.0036],[1.4621,50.0052],[1.4607,50.0012],[1.4628,49.9984],[1.4664,49.9969],[1.4714,49.9969],[1.4721,49.9941],[1.4765,49.9937],[1.4745,49.9911],[1.4757,49.9891],[1.4691,49.9850],[1.4701,49.9821],[1.4644,49.9795],[1.4618,49.9737],[1.4676,49.9727],[1.4701,49.9686],[1.4789,49.9711],[1.4815,49.9698],[1.4765,49.9676],[1.4764,49.9685],[1.4745,49.9684],[1.4826,49.9630],[1.4855,49.9634],[1.4869,49.9651],[1.4861,49.9659],[1.4899,49.9684],[1.4907,49.9678],[1.4871,49.9650],[1.4898,49.9637],[1.4910,49.9595],[1.4903,49.9588],[1.4944,49.9574],[1.4978,49.9579],[1.4967,49.9626],[1.4986,49.9626],[1.4949,49.9689],[1.4844,49.9777],[1.4834,49.9805],[1.4798,49.9819],[1.4916,49.9865],[1.4913,49.9903],[1.4938,49.9902],[1.4943,49.9965],[1.4953,49.9972],[1.5006,49.9948],[1.4998,49.9937],[1.5047,49.9920],[1.5036,49.9903],[1.5052,49.9918],[1.5137,49.9881],[1.5143,49.9871],[1.5087,49.9820],[1.5056,49.9769],[1.5086,49.9780],[1.5099,49.9758],[1.5118,49.9774],[1.5141,49.9773],[1.5101,49.9793],[1.5121,49.9811],[1.5177,49.9781],[1.5208,49.9779],[1.5221,49.9758],[1.5175,49.9740],[1.5211,49.9722],[1.5194,49.9695]]]}},{"type":"Feature","properties":{"name":"Bois du Tost"},"geometry":{"type":"Polygon","coordinates":[[[1.3876,49.9752],[1.3960,49.9730],[1.3913,49.9707],[1.4045,49.9674],[1.4042,49.9686],[1.4062,49.9692],[1.4065,49.9668],[1.4162,49.9658],[1.4118,49.9645],[1.4150,49.9635],[1.4206,49.9626],[1.4194,49.9645],[1.4226,49.9677],[1.4090,49.9709],[1.4133,49.9761],[1.4127,49.9787],[1.4107,49.9793],[1.4091,49.9784],[1.4023,49.9799],[1.3969,49.9780],[1.3951,49.9800],[1.3929,49.9788],[1.3916,49.9794],[1.3921,49.9826],[1.3908,49.9832],[1.3814,49.9811],[1.3830,49.9800],[1.3857,49.9803],[1.3838,49.9796],[1.3882,49.9806],[1.3843,49.9783],[1.3876,49.9752]]]}},{"type":"Feature","properties":{"name":"Bois de Brétizel"},"geometry":{"type":"Polygon","coordinates":[[[1.7067,49.8246],[1.7126,49.8280],[1.7216,49.8194],[1.7196,49.8180],[1.7213,49.8157],[1.7260,49.8157],[1.7281,49.8175],[1.7309,49.8140],[1.7288,49.8102],[1.7291,49.8082],[1.7272,49.8066],[1.7131,49.8091],[1.7128,49.8059],[1.7136,49.8070],[1.7175,49.8071],[1.7175,49.8061],[1.7200,49.8058],[1.7092,49.8049],[1.7099,49.8038],[1.7086,49.8027],[1.7052,49.8033],[1.7049,49.8054],[1.7020,49.8065],[1.7006,49.8106],[1.6988,49.8103],[1.6968,49.8155],[1.7007,49.8162],[1.7008,49.8147],[1.7067,49.8246]]]}},{"type":"Feature","properties":{"name":"Massif de la Basse Forêt"},"geometry":{"type":"Polygon","coordinates":[[[1.5551,49.8122],[1.5506,49.8103],[1.5540,49.8173],[1.5522,49.8186],[1.5493,49.8158],[1.5476,49.8164],[1.5512,49.8209],[1.5543,49.8218],[1.5531,49.8223],[1.5557,49.8237],[1.5477,49.8218],[1.5446,49.8192],[1.5414,49.8188],[1.5334,49.8135],[1.5259,49.8106],[1.5252,49.8087],[1.5289,49.8035],[1.5249,49.8028],[1.5251,49.8018],[1.5276,49.8013],[1.5296,49.8028],[1.5314,49.8020],[1.5275,49.7989],[1.5272,49.7951],[1.5291,49.7941],[1.5296,49.7912],[1.5279,49.7898],[1.5288,49.7882],[1.5280,49.7855],[1.5321,49.7852],[1.5320,49.7835],[1.5356,49.7825],[1.5412,49.7831],[1.5410,49.7819],[1.5451,49.7813],[1.5503,49.7824],[1.5527,49.7816],[1.5517,49.7806],[1.5534,49.7798],[1.5549,49.7809],[1.5570,49.7803],[1.5591,49.7832],[1.5628,49.7830],[1.5698,49.7810],[1.5698,49.7789],[1.5729,49.7777],[1.5769,49.7792],[1.5768,49.7733],[1.5788,49.7722],[1.5799,49.7728],[1.5781,49.7750],[1.5784,49.7778],[1.5836,49.7787],[1.5862,49.7816],[1.5918,49.7832],[1.5928,49.7839],[1.5911,49.7847],[1.5920,49.7859],[1.5937,49.7846],[1.5990,49.7853],[1.6007,49.7837],[1.6033,49.7849],[1.6051,49.7898],[1.6085,49.7893],[1.6111,49.7859],[1.6128,49.7863],[1.6138,49.7873],[1.6111,49.7898],[1.6178,49.7929],[1.6200,49.7912],[1.6177,49.7895],[1.6198,49.7881],[1.6258,49.7883],[1.6323,49.7930],[1.6379,49.7932],[1.6375,49.7946],[1.6390,49.7947],[1.6351,49.7971],[1.6375,49.7979],[1.6377,49.7994],[1.6288,49.8040],[1.6267,49.8032],[1.6271,49.8045],[1.6287,49.8042],[1.6292,49.8078],[1.6305,49.8084],[1.6287,49.8092],[1.6311,49.8105],[1.6297,49.8127],[1.6266,49.8147],[1.6244,49.8128],[1.6217,49.8127],[1.6152,49.8182],[1.6118,49.8177],[1.6036,49.8195],[1.6069,49.8142],[1.6020,49.8140],[1.6042,49.8065],[1.5959,49.8048],[1.5947,49.8051],[1.5922,49.8110],[1.5926,49.8122],[1.5949,49.8126],[1.5917,49.8155],[1.5892,49.8126],[1.5910,49.8075],[1.5841,49.8061],[1.5816,49.8068],[1.5824,49.8026],[1.5805,49.8016],[1.5813,49.8003],[1.5785,49.7997],[1.5787,49.8015],[1.5780,49.8006],[1.5758,49.7940],[1.5777,49.7923],[1.5761,49.7915],[1.5757,49.7927],[1.5723,49.7922],[1.5688,49.7934],[1.5694,49.7979],[1.5684,49.7996],[1.5706,49.8028],[1.5714,49.8073],[1.5704,49.8106],[1.5688,49.8058],[1.5683,49.8072],[1.5631,49.8067],[1.5629,49.8057],[1.5682,49.8047],[1.5676,49.8024],[1.5643,49.7997],[1.5598,49.8015],[1.5592,49.8047],[1.5568,49.8048],[1.5583,49.8058],[1.5556,49.8091],[1.5579,49.8108],[1.5580,49.8129],[1.5552,49.8122],[1.5551,49.8122]]]}},{"type":"Feature","properties":{"name":"Forêt de Gaillefontaine"},"geometry":{"type":"Polygon","coordinates":[[[1.6554,49.6551],[1.6456,49.6658],[1.6378,49.6624],[1.6359,49.6627],[1.6355,49.6649],[1.6391,49.6665],[1.6419,49.6701],[1.6542,49.6742],[1.6618,49.6683],[1.6606,49.6587],[1.6638,49.6583],[1.6554,49.6551]]]}},{"type":"Feature","properties":{"name":"Forêt domaniale de Thelle"},"geometry":{"type":"Polygon","coordinates":[[[1.8240,49.3797],[1.8263,49.3785],[1.8250,49.3774],[1.8289,49.3756],[1.8306,49.3762],[1.8333,49.3740],[1.8358,49.3748],[1.8390,49.3797],[1.8474,49.3795],[1.8518,49.3814],[1.8525,49.3834],[1.8463,49.3844],[1.8444,49.3818],[1.8380,49.3819],[1.8397,49.3853],[1.8325,49.3856],[1.8321,49.3885],[1.8333,49.3868],[1.8323,49.3918],[1.8338,49.3951],[1.8327,49.3954],[1.8340,49.3972],[1.8357,49.3970],[1.8360,49.4014],[1.8320,49.4021],[1.8315,49.4056],[1.8366,49.4041],[1.8355,49.4025],[1.8365,49.4019],[1.8394,49.4033],[1.8471,49.4038],[1.8497,49.4064],[1.8519,49.4053],[1.8510,49.4045],[1.8581,49.3986],[1.8597,49.3985],[1.8588,49.3980],[1.8655,49.3947],[1.8645,49.3943],[1.8659,49.3941],[1.8645,49.3919],[1.8651,49.3932],[1.8679,49.3932],[1.8632,49.3913],[1.8602,49.3881],[1.8616,49.3878],[1.8626,49.3896],[1.8647,49.3897],[1.8793,49.3869],[1.8793,49.3879],[1.8827,49.3863],[1.8845,49.3914],[1.8907,49.3916],[1.8885,49.3873],[1.8929,49.3856],[1.8916,49.3832],[1.8890,49.3838],[1.8880,49.3824],[1.8904,49.3818],[1.8862,49.3821],[1.8862,49.3806],[1.8872,49.3792],[1.8959,49.3786],[1.8956,49.3776],[1.8871,49.3786],[1.8855,49.3760],[1.8862,49.3719],[1.8887,49.3726],[1.8888,49.3715],[1.8918,49.3716],[1.8864,49.3698],[1.8893,49.3632],[1.8879,49.3632],[1.8877,49.3592],[1.8862,49.3588],[1.8880,49.3504],[1.8869,49.3503],[1.8888,49.3485],[1.8917,49.3484],[1.8910,49.3458],[1.8924,49.3456],[1.8921,49.3444],[1.8896,49.3436],[1.8890,49.3464],[1.8873,49.3470],[1.8856,49.3514],[1.8861,49.3575],[1.8821,49.3620],[1.8743,49.3619],[1.8748,49.3593],[1.8659,49.3614],[1.8658,49.3581],[1.8639,49.3553],[1.8627,49.3559],[1.8654,49.3582],[1.8585,49.3595],[1.8602,49.3626],[1.8645,49.3637],[1.8640,49.3664],[1.8560,49.3716],[1.8531,49.3701],[1.8552,49.3691],[1.8449,49.3615],[1.8443,49.3603],[1.8467,49.3594],[1.8456,49.3583],[1.8397,49.3549],[1.8355,49.3552],[1.8311,49.3519],[1.8277,49.3522],[1.8339,49.3546],[1.8338,49.3555],[1.8396,49.3586],[1.8353,49.3577],[1.8351,49.3563],[1.8336,49.3586],[1.8306,49.3562],[1.8238,49.3619],[1.8229,49.3611],[1.8253,49.3571],[1.8216,49.3521],[1.8229,49.3544],[1.8213,49.3564],[1.8225,49.3575],[1.8215,49.3600],[1.8188,49.3602],[1.8188,49.3629],[1.8206,49.3637],[1.8229,49.3688],[1.8291,49.3706],[1.8304,49.3733],[1.8283,49.3745],[1.8241,49.3731],[1.8168,49.3770],[1.8200,49.3809],[1.8240,49.3797]]]}},{"type":"Feature","properties":{"name":"Forêt domaniale de Bord-Louviers"},"geometry":{"type":"Polygon","coordinates":[[[1.1657,49.2986],[1.1656,49.2959],[1.1684,49.2940],[1.1682,49.2924],[1.1634,49.2927],[1.1623,49.2892],[1.1695,49.2889],[1.1703,49.2900],[1.1687,49.2916],[1.1740,49.2944],[1.1751,49.2913],[1.1820,49.2901],[1.1830,49.2916],[1.1888,49.2901],[1.1883,49.2921],[1.1847,49.2946],[1.1858,49.2964],[1.1886,49.2954],[1.1927,49.2965],[1.1949,49.2955],[1.1971,49.2914],[1.1966,49.2900],[1.1978,49.2896],[1.1973,49.2884],[1.1943,49.2878],[1.1947,49.2861],[1.1920,49.2834],[1.1919,49.2814],[1.1889,49.2807],[1.1849,49.2774],[1.1758,49.2755],[1.1812,49.2706],[1.1719,49.2668],[1.1758,49.2649],[1.1754,49.2641],[1.1642,49.2679],[1.1609,49.2710],[1.1619,49.2771],[1.1674,49.2787],[1.1671,49.2796],[1.1696,49.2795],[1.1672,49.2823],[1.1651,49.2816],[1.1611,49.2831],[1.1603,49.2871],[1.1576,49.2870],[1.1582,49.2911],[1.1566,49.2965],[1.1602,49.2988],[1.1657,49.2986]]]}},{"type":"Feature","properties":{"name":"Forêt Domaniale de Roumare"},"geometry":{"type":"Polygon","coordinates":[[[1.0130,49.4661],[1.0144,49.4611],[1.0172,49.4628],[1.0189,49.4617],[1.0214,49.4628],[1.0190,49.4634],[1.0200,49.4664],[1.0311,49.4653],[1.0314,49.4640],[1.0267,49.4633],[1.0253,49.4614],[1.0209,49.4613],[1.0131,49.4570],[1.0118,49.4512],[1.0141,49.4510],[1.0136,49.4467],[1.0118,49.4451],[1.0066,49.4450],[1.0076,49.4415],[1.0052,49.4407],[1.0034,49.4426],[1.0018,49.4425],[1.0003,49.4404],[0.9967,49.4391],[0.9967,49.4368],[0.9880,49.4335],[0.9834,49.4353],[0.9875,49.4517],[0.9982,49.4508],[1.0002,49.4570],[1.0084,49.4557],[1.0095,49.4583],[1.0088,49.4599],[1.0103,49.4606],[1.0088,49.4631],[1.0130,49.4661]]]}},{"type":"Feature","properties":{"name":"Forêt domaniale de la Londe-Rouvray"},"geometry":{"type":"Polygon","coordinates":[[[1.0394,49.3840],[1.0446,49.3823],[1.0475,49.3790],[1.0331,49.3575],[1.0269,49.3599],[1.0205,49.3528],[1.0167,49.3538],[1.0171,49.3562],[1.0212,49.3612],[1.0234,49.3609],[1.0296,49.3632],[1.0279,49.3646],[1.0296,49.3668],[1.0290,49.3676],[1.0324,49.3691],[1.0358,49.3741],[1.0372,49.3726],[1.0416,49.3772],[1.0409,49.3811],[1.0340,49.3825],[1.0318,49.3848],[1.0358,49.3848],[1.0389,49.3832],[1.0394,49.3840]]]}},{"type":"Feature","properties":{"name":"Forêt domaniale de Bord-Louviers"},"geometry":{"type":"Polygon","coordinates":[[[1.0608,49.2587],[1.0650,49.2553],[1.0687,49.2541],[1.0735,49.2530],[1.0775,49.2547],[1.0821,49.2538],[1.0821,49.2550],[1.0841,49.2557],[1.0820,49.2555],[1.0805,49.2570],[1.0840,49.2605],[1.0872,49.2624],[1.0898,49.2607],[1.0938,49.2625],[1.0942,49.2610],[1.1024,49.2658],[1.1014,49.2664],[1.1025,49.2674],[1.1021,49.2696],[1.1041,49.2696],[1.1027,49.2740],[1.1062,49.2750],[1.1081,49.2727],[1.1113,49.2736],[1.1148,49.2710],[1.1192,49.2715],[1.1172,49.2741],[1.1133,49.2744],[1.1119,49.2768],[1.1096,49.2778],[1.1036,49.2775],[1.0969,49.2734],[1.0935,49.2756],[1.1005,49.2808],[1.1091,49.2819],[1.1101,49.2851],[1.1075,49.2853],[1.0896,49.2765],[1.0843,49.2756],[1.0864,49.2743],[1.0819,49.2713],[1.0792,49.2675],[1.0722,49.2672],[1.0687,49.2656],[1.0629,49.2612],[1.0640,49.2611],[1.0635,49.2601],[1.0611,49.2614],[1.0618,49.2604],[1.0608,49.2587]]]}},{"type":"Feature","properties":{"name":"Forêt de Saint-Gatien"},"geometry":{"type":"Polygon","coordinates":[[[0.1933,49.3961],[0.1944,49.3982],[0.1943,49.3959],[0.1966,49.3952],[0.1946,49.3919],[0.1976,49.3897],[0.2018,49.3811],[0.2031,49.3751],[0.2027,49.3730],[0.1997,49.3725],[0.2000,49.3705],[0.1974,49.3722],[0.1952,49.3713],[0.1985,49.3752],[0.1982,49.3781],[0.1906,49.3857],[0.1880,49.3839],[0.1889,49.3778],[0.1862,49.3781],[0.1842,49.3757],[0.1857,49.3760],[0.1861,49.3748],[0.1839,49.3734],[0.1790,49.3657],[0.1791,49.3686],[0.1812,49.3714],[0.1801,49.3717],[0.1809,49.3749],[0.1745,49.3755],[0.1710,49.3742],[0.1694,49.3719],[0.1672,49.3729],[0.1638,49.3707],[0.1681,49.3687],[0.1648,49.3659],[0.1617,49.3652],[0.1608,49.3665],[0.1336,49.3753],[0.1386,49.3816],[0.1341,49.3853],[0.1392,49.3892],[0.1402,49.3918],[0.1427,49.3924],[0.1446,49.3954],[0.1437,49.3955],[0.1458,49.3971],[0.1466,49.3963],[0.1455,49.3939],[0.1397,49.3890],[0.1450,49.3901],[0.1457,49.3881],[0.1513,49.3918],[0.1551,49.3907],[0.1560,49.3924],[0.1561,49.3888],[0.1618,49.3927],[0.1632,49.3951],[0.1663,49.3915],[0.1666,49.3941],[0.1680,49.3939],[0.1674,49.3985],[0.1692,49.3966],[0.1700,49.3971],[0.1687,49.3994],[0.1747,49.3943],[0.1759,49.3914],[0.1722,49.3919],[0.1731,49.3905],[0.1697,49.3872],[0.1672,49.3877],[0.1627,49.3839],[0.1650,49.3828],[0.1627,49.3822],[0.1624,49.3806],[0.1683,49.3771],[0.1727,49.3788],[0.1790,49.3851],[0.1808,49.3850],[0.1805,49.3838],[0.1766,49.3798],[0.1822,49.3809],[0.1851,49.3777],[0.1845,49.3807],[0.1826,49.3821],[0.1844,49.3823],[0.1866,49.3785],[0.1851,49.3830],[0.1871,49.3858],[0.1929,49.3873],[0.1947,49.3848],[0.1973,49.3847],[0.1961,49.3884],[0.1910,49.3920],[0.1926,49.3934],[0.1898,49.3926],[0.1933,49.3961]]]}},{"type":"Feature","properties":{"name":"Lalonde Rouvray"},"geometry":{"type":"Polygon","coordinates":[[[0.8593,49.3240],[0.8624,49.3262],[0.8643,49.3304],[0.8694,49.3307],[0.8715,49.3299],[0.8726,49.3276],[0.8716,49.3247],[0.8741,49.3244],[0.8744,49.3230],[0.8805,49.3225],[0.8795,49.3215],[0.8826,49.3205],[0.8873,49.3210],[0.8857,49.3195],[0.8881,49.3185],[0.8916,49.3141],[0.9181,49.3334],[0.9097,49.3370],[0.8900,49.3381],[0.8814,49.3404],[0.8763,49.3403],[0.8699,49.3372],[0.8593,49.3240]]]}},{"type":"Feature","properties":{"name":"Forêt Domaniale de La Londe Rouvray"},"geometry":{"type":"Polygon","coordinates":[[[0.8429,49.3274],[0.8444,49.3249],[0.8491,49.3235],[0.8451,49.3217],[0.8456,49.3208],[0.8503,49.3222],[0.8490,49.3245],[0.8593,49.3247],[0.8587,49.3237],[0.8704,49.3379],[0.8769,49.3405],[0.8823,49.3404],[0.8889,49.3383],[0.9099,49.3372],[0.9187,49.3343],[0.9212,49.3395],[0.9082,49.3398],[0.9042,49.3408],[0.9037,49.3436],[0.9012,49.3433],[0.8987,49.3447],[0.8984,49.3463],[0.8968,49.3452],[0.8905,49.3451],[0.8793,49.3484],[0.8770,49.3478],[0.8761,49.3460],[0.8691,49.3449],[0.8672,49.3457],[0.8681,49.3468],[0.8651,49.3486],[0.8654,49.3496],[0.8636,49.3495],[0.8664,49.3513],[0.8720,49.3515],[0.8716,49.3530],[0.8678,49.3528],[0.8603,49.3505],[0.8624,49.3493],[0.8641,49.3459],[0.8603,49.3467],[0.8564,49.3437],[0.8594,49.3397],[0.8492,49.3368],[0.8464,49.3376],[0.8458,49.3342],[0.8436,49.3342],[0.8365,49.3298],[0.8343,49.3303],[0.8344,49.3285],[0.8375,49.3299],[0.8408,49.3296],[0.8410,49.3274],[0.8429,49.3274]]]}},{"type":"Feature","properties":{"name":"Forêt de Roumare"},"geometry":{"type":"Polygon","coordinates":[[[0.9430,49.3891],[0.9451,49.3892],[0.9456,49.3879],[0.9509,49.3892],[0.9472,49.3948],[0.9538,49.3950],[0.9508,49.3983],[0.9475,49.3989],[0.9502,49.4019],[0.9515,49.4002],[0.9572,49.3999],[0.9634,49.4031],[0.9580,49.4031],[0.9570,49.4043],[0.9563,49.4063],[0.9617,49.4073],[0.9662,49.4036],[0.9665,49.4024],[0.9650,49.4020],[0.9648,49.3974],[0.9673,49.3971],[0.9671,49.3956],[0.9728,49.3945],[0.9758,49.3917],[0.9756,49.3893],[0.9581,49.3728],[0.9540,49.3743],[0.9486,49.3726],[0.9450,49.3739],[0.9479,49.3750],[0.9447,49.3779],[0.9479,49.3795],[0.9438,49.3831],[0.9448,49.3840],[0.9431,49.3861],[0.9441,49.3867],[0.9430,49.3891]]]}},{"type":"Feature","properties":{"name":"Forêt domaniale de Bord-Louviers"},"geometry":{"type":"Polygon","coordinates":[[[1.1275,49.2806],[1.1294,49.2772],[1.1287,49.2763],[1.1296,49.2768],[1.1359,49.2677],[1.1441,49.2624],[1.1429,49.2620],[1.1718,49.2502],[1.1722,49.2480],[1.1740,49.2476],[1.1703,49.2470],[1.1681,49.2444],[1.1686,49.2414],[1.1665,49.2394],[1.1657,49.2342],[1.1636,49.2311],[1.1591,49.2280],[1.1564,49.2276],[1.1602,49.2260],[1.1509,49.2281],[1.1453,49.2278],[1.1428,49.2314],[1.1550,49.2299],[1.1560,49.2327],[1.1489,49.2359],[1.1578,49.2355],[1.1608,49.2384],[1.1590,49.2388],[1.1584,49.2411],[1.1517,49.2417],[1.1469,49.2349],[1.1438,49.2326],[1.1379,49.2342],[1.1268,49.2332],[1.1169,49.2341],[1.1168,49.2332],[1.1241,49.2318],[1.1222,49.2300],[1.1146,49.2313],[1.1161,49.2324],[1.1152,49.2344],[1.1203,49.2383],[1.1251,49.2444],[1.1254,49.2467],[1.1150,49.2434],[1.1144,49.2454],[1.1041,49.2435],[1.1084,49.2454],[1.1163,49.2464],[1.1238,49.2496],[1.1212,49.2510],[1.1187,49.2554],[1.1167,49.2557],[1.1186,49.2532],[1.1183,49.2516],[1.1170,49.2518],[1.1142,49.2553],[1.1160,49.2558],[1.1150,49.2571],[1.1200,49.2575],[1.1287,49.2558],[1.1310,49.2602],[1.1351,49.2609],[1.1366,49.2636],[1.1326,49.2645],[1.1310,49.2620],[1.1284,49.2624],[1.1315,49.2676],[1.1303,49.2699],[1.1283,49.2701],[1.1293,49.2714],[1.1240,49.2709],[1.1218,49.2694],[1.1223,49.2715],[1.1182,49.2764],[1.1218,49.2778],[1.1241,49.2807],[1.1275,49.2806]]]}},{"type":"Feature","properties":{"name":"Forêt domaniale d\u0027Eawy"},"geometry":{"type":"Polygon","coordinates":[[[1.2809,49.6894],[1.2742,49.6847],[1.2665,49.6874],[1.2635,49.6866],[1.2612,49.6897],[1.2516,49.6939],[1.2494,49.6958],[1.2497,49.6984],[1.2484,49.6986],[1.2582,49.7007],[1.2503,49.7000],[1.2470,49.6979],[1.2423,49.7019],[1.2460,49.7039],[1.2530,49.7044],[1.2539,49.7062],[1.2569,49.7069],[1.2619,49.7107],[1.2708,49.7141],[1.2662,49.7180],[1.2621,49.7163],[1.2575,49.7101],[1.2544,49.7095],[1.2521,49.7113],[1.2521,49.7101],[1.2535,49.7100],[1.2531,49.7079],[1.2410,49.7035],[1.2419,49.7042],[1.2406,49.7038],[1.2416,49.7045],[1.2354,49.7073],[1.2383,49.7096],[1.2333,49.7091],[1.2311,49.7102],[1.2321,49.7122],[1.2294,49.7115],[1.2217,49.7155],[1.2292,49.7188],[1.2282,49.7213],[1.2367,49.7261],[1.2333,49.7252],[1.2238,49.7187],[1.2185,49.7175],[1.2155,49.7201],[1.2142,49.7193],[1.2133,49.7205],[1.2144,49.7215],[1.2121,49.7216],[1.2119,49.7233],[1.2106,49.7219],[1.2092,49.7258],[1.2195,49.7306],[1.2040,49.7281],[1.2029,49.7319],[1.2050,49.7337],[1.1985,49.7334],[1.1976,49.7355],[1.2007,49.7365],[1.1953,49.7366],[1.1945,49.7394],[1.1926,49.7409],[1.1944,49.7407],[1.1946,49.7419],[1.1893,49.7469],[1.1910,49.7455],[1.1952,49.7466],[1.1959,49.7452],[1.2008,49.7449],[1.2046,49.7412],[1.2100,49.7429],[1.2110,49.7454],[1.2033,49.7472],[1.1952,49.7467],[1.1910,49.7497],[1.1887,49.7494],[1.1880,49.7510],[1.1866,49.7503],[1.1853,49.7543],[1.1938,49.7542],[1.1937,49.7557],[1.1966,49.7559],[1.1966,49.7540],[1.2034,49.7552],[1.2114,49.7539],[1.2127,49.7555],[1.1886,49.7577],[1.1876,49.7653],[1.1930,49.7660],[1.1894,49.7673],[1.1838,49.7727],[1.1842,49.7773],[1.1864,49.7775],[1.1866,49.7724],[1.1885,49.7712],[1.1942,49.7718],[1.1921,49.7731],[1.1936,49.7741],[1.1995,49.7724],[1.2064,49.7722],[1.1917,49.7772],[1.1875,49.7804],[1.1894,49.7797],[1.1889,49.7806],[1.1846,49.7821],[1.1848,49.7829],[1.2029,49.7822],[1.2032,49.7830],[1.2087,49.7809],[1.2078,49.7790],[1.2066,49.7792],[1.2074,49.7767],[1.2050,49.7759],[1.2047,49.7746],[1.2195,49.7734],[1.2170,49.7703],[1.2190,49.7701],[1.2189,49.7686],[1.2167,49.7681],[1.2169,49.7659],[1.2146,49.7647],[1.2147,49.7626],[1.2385,49.7609],[1.2421,49.7620],[1.2464,49.7595],[1.2489,49.7604],[1.2509,49.7571],[1.2414,49.7583],[1.2354,49.7573],[1.2371,49.7571],[1.2396,49.7536],[1.2401,49.7491],[1.2442,49.7442],[1.2478,49.7431],[1.2455,49.7388],[1.2566,49.7407],[1.2641,49.7397],[1.2675,49.7372],[1.2686,49.7388],[1.2739,49.7389],[1.2712,49.7363],[1.2797,49.7316],[1.2894,49.7363],[1.3043,49.7329],[1.3056,49.7318],[1.3056,49.7291],[1.3105,49.7292],[1.3119,49.7308],[1.3180,49.7315],[1.3190,49.7313],[1.3180,49.7296],[1.3207,49.7303],[1.3225,49.7285],[1.3239,49.7286],[1.3230,49.7299],[1.3243,49.7286],[1.3299,49.7307],[1.3317,49.7303],[1.3294,49.7288],[1.3306,49.7284],[1.3431,49.7288],[1.3434,49.7276],[1.3416,49.7282],[1.3389,49.7248],[1.3393,49.7233],[1.3422,49.7231],[1.3412,49.7216],[1.3315,49.7191],[1.3337,49.7155],[1.3390,49.7125],[1.3413,49.7097],[1.3456,49.7108],[1.3471,49.7124],[1.3522,49.7098],[1.3541,49.7104],[1.3582,49.7024],[1.3534,49.7022],[1.3376,49.6931],[1.3424,49.6891],[1.3402,49.6881],[1.3258,49.6852],[1.3197,49.6882],[1.3230,49.6894],[1.3253,49.6869],[1.3222,49.6848],[1.3121,49.6826],[1.3118,49.6808],[1.3146,49.6810],[1.3161,49.6796],[1.3106,49.6792],[1.3085,49.6765],[1.3051,49.6774],[1.3042,49.6750],[1.2905,49.6794],[1.2942,49.6830],[1.2978,49.6844],[1.2922,49.6831],[1.2887,49.6849],[1.2902,49.6879],[1.2907,49.6862],[1.2959,49.6912],[1.3016,49.6936],[1.3010,49.6946],[1.2954,49.6970],[1.2906,49.6908],[1.2880,49.6900],[1.2848,49.6932],[1.2809,49.6894]]]}},{"type":"Feature","properties":{"name":"Forêt domaniale de la Londe-Rouvray"},"geometry":{"type":"Polygon","coordinates":[[[0.9879,49.3206],[0.9892,49.3201],[0.9864,49.3217],[0.9928,49.3184],[0.9891,49.3208],[0.9942,49.3194],[0.9965,49.3232],[0.9944,49.3186],[0.9966,49.3170],[0.9974,49.3133],[1.0049,49.3174],[1.0110,49.3189],[1.0090,49.3196],[1.0041,49.3176],[1.0096,49.3205],[1.0081,49.3222],[1.0118,49.3219],[1.0162,49.3242],[1.0208,49.3247],[1.0235,49.3268],[1.0240,49.3250],[1.0258,49.3252],[1.0251,49.3269],[1.0255,49.3257],[1.0277,49.3252],[1.0310,49.3274],[1.0315,49.3264],[1.0320,49.3275],[1.0368,49.3281],[1.0379,49.3264],[1.0409,49.3277],[1.0437,49.3266],[1.0565,49.3297],[1.0588,49.3318],[1.0579,49.3328],[1.0542,49.3311],[1.0543,49.3339],[1.0566,49.3348],[1.0553,49.3350],[1.0583,49.3396],[1.0629,49.3393],[1.0608,49.3403],[1.0608,49.3418],[1.0676,49.3381],[1.0637,49.3388],[1.0653,49.3366],[1.0737,49.3362],[1.0713,49.3355],[1.0709,49.3342],[1.0755,49.3358],[1.0697,49.3375],[1.0702,49.3388],[1.0607,49.3427],[1.0409,49.3431],[1.0277,49.3411],[1.0311,49.3371],[1.0340,49.3366],[1.0350,49.3340],[1.0381,49.3389],[1.0394,49.3384],[1.0409,49.3399],[1.0458,49.3364],[1.0404,49.3358],[1.0368,49.3334],[1.0329,49.3356],[1.0347,49.3334],[1.0331,49.3327],[1.0339,49.3319],[1.0328,49.3303],[1.0197,49.3331],[1.0159,49.3315],[1.0121,49.3353],[1.0133,49.3375],[1.0020,49.3338],[1.0045,49.3297],[1.0026,49.3291],[0.9996,49.3330],[0.9970,49.3321],[0.9965,49.3377],[0.9901,49.3381],[0.9848,49.3367],[0.9799,49.3379],[0.9527,49.3384],[0.9292,49.3415],[0.9212,49.3387],[0.9189,49.3343],[0.9226,49.3341],[0.9188,49.3342],[0.9024,49.3212],[0.9034,49.3202],[0.9016,49.3192],[0.9011,49.3203],[0.8966,49.3162],[0.8986,49.3168],[0.8997,49.3156],[0.8927,49.3111],[0.8926,49.3066],[0.8948,49.3047],[0.8944,49.3062],[0.8965,49.3065],[0.8974,49.3045],[0.9080,49.3051],[0.9072,49.3075],[0.9249,49.3130],[0.9257,49.3106],[0.9275,49.3102],[0.9415,49.3124],[0.9420,49.3133],[0.9436,49.3111],[0.9579,49.3118],[0.9589,49.3132],[0.9613,49.3130],[0.9627,49.3118],[0.9622,49.3108],[0.9719,49.3070],[0.9713,49.3045],[0.9725,49.3037],[0.9713,49.3005],[0.9734,49.3009],[0.9787,49.2991],[0.9769,49.2952],[0.9777,49.2939],[0.9758,49.2929],[0.9755,49.2911],[0.9960,49.2890],[0.9977,49.2907],[0.9955,49.2898],[0.9927,49.2907],[0.9919,49.2921],[0.9937,49.2921],[0.9921,49.2948],[0.9945,49.2959],[0.9914,49.3022],[0.9952,49.3104],[0.9946,49.3158],[0.9894,49.3196],[0.9881,49.3178],[0.9858,49.3192],[0.9863,49.3209],[0.9879,49.3206]]]}},{"type":"Feature","properties":{"name":"Forêt de Montgeon"},"geometry":{"type":"Polygon","coordinates":[[[0.1512,49.5231],[0.1544,49.5240],[0.1476,49.5252],[0.1450,49.5277],[0.1438,49.5273],[0.1437,49.5293],[0.1375,49.5296],[0.1390,49.5310],[0.1307,49.5302],[0.1313,49.5286],[0.1299,49.5299],[0.1267,49.5292],[0.1313,49.5283],[0.1312,49.5258],[0.1299,49.5257],[0.1352,49.5183],[0.1298,49.5157],[0.1320,49.5164],[0.1325,49.5145],[0.1393,49.5103],[0.1419,49.5098],[0.1461,49.5122],[0.1509,49.5128],[0.1546,49.5156],[0.1561,49.5177],[0.1543,49.5182],[0.1561,49.5183],[0.1559,49.5193],[0.1484,49.5203],[0.1512,49.5231]]]}},{"type":"Feature","properties":{"name":"Forêt domaniale Verte"},"geometry":{"type":"Polygon","coordinates":[[[1.1249,49.5217],[1.1258,49.5204],[1.1231,49.5173],[1.1231,49.5150],[1.1189,49.5158],[1.1194,49.5134],[1.1183,49.5119],[1.1097,49.5076],[1.1206,49.5057],[1.1207,49.5043],[1.1262,49.5029],[1.1254,49.5020],[1.1204,49.5034],[1.1248,49.5020],[1.1261,49.5002],[1.1300,49.5005],[1.1307,49.5017],[1.1344,49.5010],[1.1347,49.4991],[1.1369,49.4981],[1.1327,49.4934],[1.1238,49.4916],[1.1189,49.4880],[1.1150,49.4824],[1.1086,49.4830],[1.1074,49.4846],[1.1082,49.4865],[1.1040,49.4911],[1.1034,49.4901],[1.1045,49.4902],[1.0994,49.4899],[1.0998,49.4873],[1.1010,49.4869],[1.0989,49.4836],[1.0939,49.4832],[1.0899,49.4877],[1.0879,49.4878],[1.0929,49.4887],[1.0931,49.4899],[1.0807,49.4911],[1.0684,49.4873],[1.0636,49.4900],[1.0665,49.4925],[1.0654,49.4932],[1.0709,49.4979],[1.0799,49.5015],[1.0807,49.5031],[1.0697,49.4997],[1.0662,49.4964],[1.0635,49.4915],[1.0605,49.4905],[1.0604,49.4873],[1.0596,49.4886],[1.0537,49.4894],[1.0516,49.4953],[1.0521,49.4971],[1.0500,49.4957],[1.0466,49.5012],[1.0579,49.5029],[1.0647,49.4982],[1.0659,49.4997],[1.0727,49.5022],[1.0750,49.5054],[1.0826,49.5078],[1.0876,49.5051],[1.0882,49.5035],[1.1004,49.5064],[1.0969,49.5074],[1.0954,49.5095],[1.0958,49.5113],[1.0935,49.5124],[1.0929,49.5165],[1.0952,49.5187],[1.0955,49.5249],[1.1015,49.5228],[1.1107,49.5232],[1.1183,49.5253],[1.1249,49.5217]]]}},{"type":"Feature","properties":{"name":"Forêt domaniale de la Londe-Rouvray"},"geometry":{"type":"Polygon","coordinates":[[[1.0756,49.3458],[1.0719,49.3429],[1.0381,49.3492],[1.0392,49.3502],[1.0384,49.3512],[1.0344,49.3513],[1.0338,49.3555],[1.0359,49.3586],[1.0761,49.3708],[1.0851,49.3679],[1.0873,49.3637],[1.0847,49.3578],[1.0771,49.3464],[1.0756,49.3458]]]}},{"type":"Feature","properties":{"name":"Forêt domaniale de Roumare"},"geometry":{"type":"Polygon","coordinates":[[[1.0453,49.4499],[1.0458,49.4506],[1.0438,49.4511],[1.0396,49.4499],[1.0407,49.4513],[1.0400,49.4543],[1.0363,49.4553],[1.0380,49.4582],[1.0312,49.4617],[1.0315,49.4548],[1.0296,49.4547],[1.0314,49.4531],[1.0197,49.4528],[1.0199,49.4476],[1.0232,49.4459],[1.0118,49.4451],[1.0141,49.4431],[1.0141,49.4405],[1.0118,49.4395],[1.0087,49.4402],[1.0066,49.4450],[1.0118,49.4451],[1.0136,49.4467],[1.0141,49.4510],[1.0118,49.4512],[1.0131,49.4570],[1.0209,49.4613],[1.0253,49.4614],[1.0267,49.4633],[1.0314,49.4640],[1.0311,49.4653],[1.0200,49.4664],[1.0190,49.4634],[1.0214,49.4628],[1.0189,49.4617],[1.0172,49.4628],[1.0144,49.4611],[1.0130,49.4661],[1.0085,49.4693],[1.0058,49.4696],[1.0083,49.4769],[1.0187,49.4727],[1.0190,49.4692],[1.0246,49.4694],[1.0250,49.4709],[1.0348,49.4664],[1.0441,49.4576],[1.0441,49.4537],[1.0474,49.4494],[1.0420,49.4455],[1.0443,49.4478],[1.0418,49.4482],[1.0448,49.4487],[1.0461,49.4495],[1.0426,49.4488],[1.0453,49.4499]]]}},{"type":"Feature","properties":{"name":"Forêt domaniale de Brotonne"},"geometry":{"type":"Polygon","coordinates":[[[0.7597,49.4647],[0.7586,49.4603],[0.7599,49.4557],[0.7681,49.4553],[0.7673,49.4506],[0.7615,49.4499],[0.7576,49.4450],[0.7641,49.4432],[0.7686,49.4475],[0.7681,49.4521],[0.7704,49.4559],[0.7690,49.4615],[0.7649,49.4653],[0.7656,49.4672],[0.7675,49.4663],[0.7685,49.4630],[0.7711,49.4633],[0.7726,49.4610],[0.7780,49.4612],[0.7775,49.4626],[0.7796,49.4625],[0.7804,49.4605],[0.7828,49.4602],[0.7786,49.4725],[0.7761,49.4727],[0.7782,49.4734],[0.7783,49.4752],[0.7854,49.4586],[0.7926,49.4602],[0.7923,49.4609],[0.8022,49.4605],[0.8034,49.4630],[0.8041,49.4626],[0.8027,49.4605],[0.8051,49.4621],[0.8041,49.4605],[0.8077,49.4609],[0.8046,49.4592],[0.8041,49.4560],[0.7991,49.4585],[0.7984,49.4578],[0.7992,49.4510],[0.7906,49.4491],[0.7913,49.4472],[0.7937,49.4471],[0.7915,49.4467],[0.7915,49.4452],[0.8005,49.4468],[0.7916,49.4443],[0.7997,49.4308],[0.7991,49.4296],[0.8014,49.4260],[0.8054,49.4115],[0.8005,49.4129],[0.7985,49.4165],[0.7995,49.4188],[0.7895,49.4143],[0.7904,49.4137],[0.7889,49.4123],[0.7893,49.4110],[0.7873,49.4117],[0.7831,49.4106],[0.7778,49.4131],[0.7726,49.4138],[0.7714,49.4167],[0.7678,49.4200],[0.7631,49.4194],[0.7605,49.4147],[0.7540,49.4138],[0.7462,49.4146],[0.7424,49.4132],[0.7429,49.4109],[0.7382,49.4094],[0.7299,49.4113],[0.7300,49.4131],[0.7269,49.4144],[0.7304,49.4145],[0.7297,49.4155],[0.7315,49.4162],[0.7356,49.4163],[0.7358,49.4177],[0.7283,49.4167],[0.7237,49.4170],[0.7246,49.4192],[0.7127,49.4188],[0.7145,49.4149],[0.7147,49.4101],[0.7083,49.4108],[0.7070,49.4096],[0.7103,49.4078],[0.7099,49.4054],[0.7083,49.4047],[0.7059,49.4066],[0.7024,49.4071],[0.6993,49.4108],[0.6936,49.4099],[0.6933,49.4075],[0.6992,49.4054],[0.7005,49.4027],[0.6945,49.4034],[0.6971,49.4038],[0.6932,49.4069],[0.6687,49.4032],[0.6736,49.4097],[0.6598,49.4059],[0.6608,49.4030],[0.6651,49.4017],[0.6645,49.4006],[0.6602,49.4016],[0.6576,49.3977],[0.6550,49.3974],[0.6567,49.3949],[0.6664,49.3951],[0.6681,49.3945],[0.6695,49.3915],[0.6833,49.3893],[0.6823,49.3870],[0.6830,49.3850],[0.6819,49.3848],[0.6811,49.3877],[0.6674,49.3915],[0.6654,49.3939],[0.6603,49.3942],[0.6580,49.3917],[0.6499,49.3949],[0.6447,49.3976],[0.6438,49.3992],[0.6480,49.3997],[0.6510,49.4023],[0.6468,49.4003],[0.6404,49.4041],[0.6451,49.4033],[0.6471,49.4053],[0.6467,49.4078],[0.6572,49.4126],[0.6586,49.4145],[0.6524,49.4219],[0.6455,49.4155],[0.6395,49.4181],[0.6450,49.4221],[0.6440,49.4234],[0.6420,49.4226],[0.6412,49.4241],[0.6455,49.4262],[0.6431,49.4270],[0.6453,49.4282],[0.6421,49.4287],[0.6420,49.4297],[0.6444,49.4308],[0.6441,49.4331],[0.6430,49.4341],[0.6372,49.4323],[0.6362,49.4301],[0.6329,49.4304],[0.6345,49.4330],[0.6337,49.4339],[0.6366,49.4368],[0.6432,49.4404],[0.6483,49.4398],[0.6493,49.4381],[0.6489,49.4399],[0.6465,49.4416],[0.6509,49.4397],[0.6585,49.4421],[0.6591,49.4465],[0.6536,49.4451],[0.6525,49.4467],[0.6512,49.4461],[0.6623,49.4541],[0.6634,49.4539],[0.6614,49.4523],[0.6643,49.4541],[0.6634,49.4549],[0.6667,49.4578],[0.6676,49.4607],[0.6701,49.4602],[0.6745,49.4696],[0.6796,49.4697],[0.6828,49.4663],[0.6902,49.4671],[0.6911,49.4626],[0.6930,49.4623],[0.7052,49.4671],[0.7110,49.4678],[0.7203,49.4663],[0.7202,49.4654],[0.7256,49.4659],[0.7276,49.4646],[0.7295,49.4669],[0.7326,49.4664],[0.7352,49.4685],[0.7372,49.4679],[0.7353,49.4659],[0.7377,49.4658],[0.7390,49.4686],[0.7406,49.4683],[0.7416,49.4700],[0.7449,49.4682],[0.7472,49.4692],[0.7492,49.4675],[0.7527,49.4701],[0.7543,49.4700],[0.7552,49.4682],[0.7556,49.4695],[0.7590,49.4679],[0.7616,49.4724],[0.7637,49.4717],[0.7608,49.4690],[0.7597,49.4647]]]}},{"type":"Feature","properties":{"name":"Forêt de Roumare"},"geometry":{"type":"Polygon","coordinates":[[[0.9452,49.3995],[0.9442,49.4024],[0.9455,49.4036],[0.9551,49.4027],[0.9505,49.4054],[0.9460,49.4052],[0.9503,49.4064],[0.9526,49.4048],[0.9550,49.4070],[0.9510,49.4075],[0.9514,49.4089],[0.9493,49.4095],[0.9476,49.4083],[0.9470,49.4107],[0.9484,49.4123],[0.9523,49.4089],[0.9562,49.4083],[0.9569,49.4101],[0.9555,49.4120],[0.9526,49.4133],[0.9509,49.4122],[0.9497,49.4129],[0.9523,49.4155],[0.9550,49.4155],[0.9572,49.4117],[0.9588,49.4114],[0.9583,49.4140],[0.9596,49.4153],[0.9655,49.4151],[0.9725,49.4182],[0.9728,49.4204],[0.9669,49.4192],[0.9684,49.4206],[0.9774,49.4228],[0.9845,49.4264],[0.9877,49.4325],[1.0090,49.4234],[0.9967,49.4165],[0.9923,49.4094],[0.9908,49.4093],[0.9901,49.4074],[0.9917,49.4084],[0.9852,49.3982],[0.9756,49.3893],[0.9758,49.3917],[0.9728,49.3945],[0.9671,49.3956],[0.9673,49.3971],[0.9648,49.3974],[0.9650,49.4020],[0.9665,49.4024],[0.9662,49.4036],[0.9617,49.4073],[0.9563,49.4063],[0.9570,49.4043],[0.9580,49.4031],[0.9634,49.4031],[0.9555,49.3998],[0.9515,49.4002],[0.9500,49.4029],[0.9464,49.3996],[0.9508,49.3983],[0.9538,49.3950],[0.9521,49.3942],[0.9472,49.3948],[0.9466,49.3957],[0.9485,49.3969],[0.9452,49.3995]]]}},{"type":"Feature","properties":{"name":"Forêt Communale de Saint-Nicolas de Bliquetuis"},"geometry":{"type":"Polygon","coordinates":[[[0.7436,49.4765],[0.7382,49.4764],[0.7380,49.4753],[0.7221,49.4750],[0.7217,49.4708],[0.7232,49.4660],[0.7246,49.4654],[0.7202,49.4654],[0.7203,49.4663],[0.7110,49.4678],[0.7052,49.4671],[0.6930,49.4623],[0.6911,49.4626],[0.6902,49.4671],[0.6843,49.4668],[0.6802,49.4697],[0.6823,49.4713],[0.6811,49.4731],[0.6841,49.4729],[0.6805,49.4733],[0.6790,49.4753],[0.6833,49.4763],[0.6867,49.4735],[0.6889,49.4738],[0.6899,49.4760],[0.6973,49.4742],[0.6985,49.4753],[0.6961,49.4767],[0.6973,49.4772],[0.6912,49.4789],[0.6896,49.4806],[0.6898,49.4821],[0.6936,49.4841],[0.6947,49.4881],[0.6995,49.4891],[0.6990,49.4905],[0.7001,49.4894],[0.7087,49.4936],[0.7164,49.4917],[0.7163,49.4943],[0.7178,49.4959],[0.7165,49.4986],[0.7177,49.4998],[0.7210,49.4981],[0.7254,49.4979],[0.7253,49.4956],[0.7319,49.4962],[0.7371,49.4948],[0.7393,49.4970],[0.7405,49.4965],[0.7396,49.4959],[0.7492,49.4921],[0.7471,49.4910],[0.7498,49.4889],[0.7481,49.4875],[0.7480,49.4839],[0.7452,49.4835],[0.7474,49.4826],[0.7467,49.4807],[0.7439,49.4802],[0.7442,49.4788],[0.7420,49.4780],[0.7436,49.4765]]]}},{"type":"Feature","properties":{"name":"Forêt Départementale de Villequier"},"geometry":{"type":"Polygon","coordinates":[[[0.6556,49.4886],[0.6606,49.4941],[0.6586,49.4956],[0.6592,49.4968],[0.6545,49.4969],[0.6556,49.4978],[0.6530,49.4983],[0.6531,49.4997],[0.6546,49.5002],[0.6539,49.5019],[0.6552,49.5032],[0.6610,49.5053],[0.6583,49.5059],[0.6615,49.5062],[0.6622,49.5051],[0.6639,49.5059],[0.6630,49.5081],[0.6650,49.5094],[0.6622,49.5106],[0.6636,49.5141],[0.6627,49.5172],[0.6661,49.5168],[0.6694,49.5186],[0.6663,49.5194],[0.6716,49.5216],[0.6697,49.5203],[0.6698,49.5186],[0.6807,49.5205],[0.6873,49.5238],[0.6839,49.5270],[0.6966,49.5262],[0.6988,49.5236],[0.7043,49.5245],[0.7058,49.5260],[0.7096,49.5251],[0.7204,49.5269],[0.7170,49.5241],[0.7065,49.5234],[0.6865,49.5185],[0.6858,49.5196],[0.6812,49.5184],[0.6743,49.5143],[0.6730,49.5150],[0.6744,49.5156],[0.6695,49.5161],[0.6705,49.5141],[0.6686,49.5119],[0.6718,49.5114],[0.6718,49.5097],[0.6704,49.5076],[0.6684,49.5071],[0.6704,49.5068],[0.6693,49.5033],[0.6678,49.5030],[0.6668,49.4994],[0.6649,49.4982],[0.6665,49.4984],[0.6622,49.4935],[0.6656,49.4921],[0.6651,49.4872],[0.6589,49.4904],[0.6463,49.4810],[0.6556,49.4886]]]}},{"type":"Feature","properties":{"name":"Bois de la Houssaye"},"geometry":{"type":"Polygon","coordinates":[[[1.1773,49.5074],[1.1792,49.5091],[1.1827,49.5059],[1.1925,49.5101],[1.1957,49.5092],[1.1995,49.5063],[1.2138,49.5129],[1.2097,49.5128],[1.2020,49.5100],[1.2012,49.5152],[1.2022,49.5164],[1.2012,49.5179],[1.1952,49.5139],[1.1891,49.5152],[1.1872,49.5146],[1.1887,49.5135],[1.1846,49.5102],[1.1795,49.5156],[1.1733,49.5143],[1.1748,49.5125],[1.1728,49.5121],[1.1729,49.5109],[1.1709,49.5099],[1.1717,49.5096],[1.1609,49.5037],[1.1711,49.5016],[1.1773,49.5074]]]}},{"type":"Feature","properties":{"name":"Forêt de Roumare"},"geometry":{"type":"Polygon","coordinates":[[[0.9486,49.4819],[0.9477,49.4827],[0.9549,49.4862],[0.9623,49.4867],[0.9642,49.4890],[0.9564,49.4910],[0.9547,49.4895],[0.9465,49.4887],[0.9412,49.4864],[0.9354,49.4870],[0.9240,49.4853],[0.9311,49.4838],[0.9458,49.4766],[0.9513,49.4777],[0.9468,49.4756],[0.9528,49.4726],[0.9526,49.4716],[0.9557,49.4710],[0.9552,49.4697],[0.9568,49.4684],[0.9567,49.4665],[0.9609,49.4619],[0.9795,49.4714],[0.9819,49.4694],[0.9762,49.4663],[0.9797,49.4637],[0.9785,49.4629],[0.9746,49.4650],[0.9715,49.4626],[0.9704,49.4631],[0.9677,49.4596],[0.9729,49.4534],[0.9704,49.4491],[0.9730,49.4473],[0.9762,49.4493],[0.9779,49.4522],[0.9859,49.4521],[0.9885,49.4620],[0.9847,49.4644],[0.9880,49.4668],[0.9897,49.4664],[0.9956,49.4772],[1.0007,49.4801],[0.9982,49.4816],[0.9991,49.4825],[0.9982,49.4832],[0.9914,49.4811],[0.9848,49.4831],[0.9839,49.4823],[0.9856,49.4816],[0.9847,49.4807],[0.9826,49.4815],[0.9816,49.4801],[0.9850,49.4765],[0.9730,49.4705],[0.9668,49.4704],[0.9638,49.4716],[0.9618,49.4689],[0.9598,49.4714],[0.9565,49.4729],[0.9595,49.4748],[0.9576,49.4771],[0.9542,49.4790],[0.9515,49.4789],[0.9486,49.4819]]]}},{"type":"Feature","properties":{"name":"Forêt domaniale d\u0027Arques"},"geometry":{"type":"Polygon","coordinates":[[[1.1747,49.8774],[1.1635,49.8791],[1.1629,49.8776],[1.1639,49.8771],[1.1624,49.8767],[1.1493,49.8798],[1.1515,49.8811],[1.1504,49.8815],[1.1511,49.8823],[1.1470,49.8830],[1.1433,49.8856],[1.1416,49.8883],[1.1426,49.8885],[1.1420,49.8897],[1.1411,49.8896],[1.1416,49.8907],[1.1378,49.8938],[1.1577,49.8989],[1.1608,49.8972],[1.1612,49.8993],[1.1638,49.9006],[1.1603,49.9004],[1.1641,49.9010],[1.1625,49.9015],[1.1635,49.9017],[1.1686,49.8999],[1.1714,49.9010],[1.1756,49.9003],[1.1747,49.9013],[1.1755,49.9024],[1.1869,49.9036],[1.1884,49.9012],[1.1890,49.9029],[1.1910,49.9035],[1.1902,49.9045],[1.1915,49.9046],[1.1957,49.9040],[1.1963,49.9005],[1.1996,49.9022],[1.1984,49.9037],[1.2058,49.9026],[1.2059,49.9014],[1.2096,49.9009],[1.2127,49.8962],[1.2172,49.8982],[1.2133,49.8950],[1.2119,49.8913],[1.2102,49.8917],[1.2054,49.8847],[1.2031,49.8833],[1.1909,49.8834],[1.1806,49.8856],[1.1782,49.8831],[1.1780,49.8799],[1.1757,49.8792],[1.1747,49.8774]]]}},{"type":"Feature","properties":{"name":"Forêt domaniale de Bord-Louviers"},"geometry":{"type":"Polygon","coordinates":[[[1.0555,49.2690],[1.0653,49.2765],[1.0686,49.2766],[1.0700,49.2748],[1.0738,49.2766],[1.0755,49.2752],[1.0789,49.2767],[1.0727,49.2795],[1.0701,49.2832],[1.0744,49.2831],[1.0752,49.2810],[1.0804,49.2839],[1.0841,49.2820],[1.0858,49.2793],[1.0813,49.2765],[1.0823,49.2755],[1.1072,49.2856],[1.1147,49.2913],[1.1155,49.2889],[1.1186,49.2913],[1.1165,49.2926],[1.1181,49.2939],[1.1159,49.2941],[1.1081,49.2881],[1.1008,49.2918],[1.1054,49.2934],[1.1098,49.2920],[1.1159,49.2943],[1.1212,49.2935],[1.1275,49.2806],[1.1198,49.2819],[1.1204,49.2840],[1.1130,49.2826],[1.1101,49.2836],[1.1101,49.2851],[1.1075,49.2853],[1.0896,49.2765],[1.0843,49.2756],[1.0864,49.2743],[1.0785,49.2672],[1.0722,49.2672],[1.0694,49.2710],[1.0683,49.2715],[1.0649,49.2695],[1.0621,49.2716],[1.0608,49.2702],[1.0628,49.2693],[1.0612,49.2675],[1.0658,49.2677],[1.0687,49.2656],[1.0648,49.2628],[1.0595,49.2648],[1.0573,49.2674],[1.0558,49.2665],[1.0542,49.2680],[1.0555,49.2690]]]}},{"type":"Feature","properties":{"name":"Bois Domanial de Saint-Martin"},"geometry":{"type":"Polygon","coordinates":[[[1.3679,49.9719],[1.3712,49.9655],[1.3700,49.9642],[1.3648,49.9721],[1.3632,49.9724],[1.3642,49.9672],[1.3659,49.9659],[1.3646,49.9626],[1.3661,49.9618],[1.3627,49.9589],[1.3629,49.9552],[1.3605,49.9533],[1.3626,49.9504],[1.3638,49.9532],[1.3634,49.9495],[1.3650,49.9492],[1.3643,49.9518],[1.3679,49.9545],[1.3767,49.9554],[1.3774,49.9578],[1.3732,49.9603],[1.3816,49.9599],[1.3800,49.9570],[1.3834,49.9546],[1.3792,49.9520],[1.3822,49.9509],[1.3819,49.9485],[1.3750,49.9454],[1.3787,49.9435],[1.3788,49.9415],[1.3836,49.9455],[1.3783,49.9459],[1.3839,49.9470],[1.3865,49.9494],[1.3879,49.9542],[1.3920,49.9602],[1.3943,49.9609],[1.3862,49.9595],[1.3889,49.9624],[1.3773,49.9669],[1.3719,49.9727],[1.3679,49.9719]]]}},{"type":"Feature","properties":{"name":"Forêt d\u0027Elbeuf"},"geometry":{"type":"Polygon","coordinates":[[[1.0028,49.2843],[1.0015,49.2829],[1.0071,49.2794],[1.0056,49.2802],[1.0055,49.2784],[0.9989,49.2770],[0.9995,49.2757],[0.9972,49.2724],[0.9992,49.2745],[1.0044,49.2744],[1.0069,49.2764],[1.0095,49.2766],[1.0092,49.2792],[1.0126,49.2752],[1.0135,49.2762],[1.0161,49.2752],[1.0178,49.2726],[1.0268,49.2716],[1.0400,49.2678],[1.0485,49.2633],[1.0478,49.2626],[1.0439,49.2640],[1.0384,49.2597],[1.0368,49.2610],[1.0330,49.2608],[1.0327,49.2595],[1.0320,49.2604],[1.0276,49.2597],[1.0277,49.2587],[1.0215,49.2567],[1.0160,49.2587],[1.0194,49.2567],[1.0182,49.2559],[1.0186,49.2547],[1.0157,49.2534],[1.0053,49.2564],[1.0145,49.2530],[1.0119,49.2524],[1.0138,49.2507],[0.9962,49.2499],[0.9950,49.2517],[0.9955,49.2531],[0.9916,49.2530],[0.9926,49.2558],[0.9906,49.2558],[0.9903,49.2572],[0.9955,49.2602],[1.0010,49.2601],[1.0085,49.2628],[1.0067,49.2649],[0.9979,49.2616],[0.9921,49.2629],[0.9858,49.2597],[0.9846,49.2602],[0.9853,49.2639],[0.9866,49.2644],[0.9882,49.2685],[0.9858,49.2705],[0.9821,49.2695],[0.9809,49.2705],[0.9802,49.2695],[0.9792,49.2720],[0.9741,49.2731],[0.9743,49.2775],[0.9755,49.2788],[0.9730,49.2810],[0.9713,49.2807],[0.9679,49.2770],[0.9624,49.2768],[0.9569,49.2707],[0.9560,49.2715],[0.9568,49.2750],[0.9540,49.2754],[0.9492,49.2793],[0.9561,49.2801],[0.9599,49.2827],[0.9603,49.2847],[0.9637,49.2859],[0.9705,49.2851],[0.9592,49.2899],[0.9610,49.2901],[0.9710,49.2865],[0.9755,49.2891],[0.9853,49.2877],[0.9852,49.2898],[0.9811,49.2901],[0.9849,49.2907],[0.9874,49.2884],[0.9911,49.2894],[0.9931,49.2891],[0.9909,49.2880],[0.9950,49.2881],[0.9911,49.2837],[0.9919,49.2832],[0.9982,49.2857],[1.0028,49.2843]]]}},{"type":"Feature","properties":{"name":"Bois du Grand Mont Briseuil"},"geometry":{"type":"Polygon","coordinates":[[[1.1698,49.4632],[1.1608,49.4531],[1.1709,49.4485],[1.1674,49.4450],[1.1646,49.4444],[1.1650,49.4424],[1.1706,49.4429],[1.1733,49.4455],[1.1784,49.4431],[1.1910,49.4455],[1.1933,49.4466],[1.1917,49.4472],[1.1940,49.4492],[1.1929,49.4501],[1.1967,49.4506],[1.1947,49.4549],[1.1909,49.4587],[1.1929,49.4601],[1.1922,49.4611],[1.1865,49.4596],[1.1822,49.4609],[1.1773,49.4583],[1.1716,49.4607],[1.1698,49.4632]]]}}]}