{"type":"FeatureCollection","features":[{"type":"Feature","properties":{"name":"Forêt d\u0027Othe"},"geometry":{"type":"Polygon","coordinates":[[[3.4765,48.0925],[3.4772,48.0888],[3.4781,48.0891],[3.4776,48.0948],[3.4787,48.0960],[3.4819,48.0933],[3.4859,48.0921],[3.4880,48.0925],[3.4883,48.0941],[3.4924,48.0924],[3.4911,48.0904],[3.4935,48.0894],[3.4969,48.0906],[3.5025,48.0876],[3.5192,48.0839],[3.5188,48.0824],[3.5118,48.0831],[3.5129,48.0796],[3.5170,48.0791],[3.5174,48.0811],[3.5198,48.0816],[3.5326,48.0794],[3.5313,48.0742],[3.5379,48.0725],[3.5389,48.0749],[3.5452,48.0777],[3.5595,48.0700],[3.5855,48.0465],[3.5827,48.0461],[3.5815,48.0441],[3.5773,48.0450],[3.5806,48.0433],[3.5774,48.0400],[3.5773,48.0383],[3.5759,48.0387],[3.5753,48.0374],[3.5735,48.0378],[3.5752,48.0405],[3.5741,48.0408],[3.5717,48.0389],[3.5726,48.0368],[3.5709,48.0383],[3.5656,48.0385],[3.5651,48.0373],[3.5649,48.0383],[3.5608,48.0392],[3.5580,48.0388],[3.5603,48.0382],[3.5589,48.0362],[3.5574,48.0372],[3.5585,48.0383],[3.5551,48.0374],[3.5595,48.0342],[3.5566,48.0338],[3.5556,48.0350],[3.5548,48.0310],[3.5573,48.0305],[3.5530,48.0277],[3.5539,48.0267],[3.5490,48.0267],[3.5520,48.0200],[3.5508,48.0188],[3.5472,48.0195],[3.5461,48.0182],[3.5480,48.0176],[3.5472,48.0168],[3.5408,48.0212],[3.5419,48.0264],[3.5439,48.0278],[3.5406,48.0276],[3.5416,48.0281],[3.5371,48.0314],[3.5398,48.0323],[3.5408,48.0310],[3.5452,48.0302],[3.5513,48.0330],[3.5486,48.0353],[3.5448,48.0334],[3.5327,48.0423],[3.5207,48.0427],[3.5177,48.0384],[3.5205,48.0382],[3.5184,48.0360],[3.5253,48.0315],[3.5305,48.0340],[3.5302,48.0359],[3.5312,48.0357],[3.5365,48.0303],[3.5349,48.0299],[3.5343,48.0279],[3.5353,48.0271],[3.5294,48.0275],[3.5258,48.0299],[3.5222,48.0299],[3.5232,48.0285],[3.5212,48.0273],[3.5155,48.0328],[3.5101,48.0319],[3.5095,48.0286],[3.5083,48.0283],[3.5093,48.0270],[3.5086,48.0245],[3.5067,48.0253],[3.5031,48.0231],[3.4964,48.0288],[3.4938,48.0272],[3.4918,48.0237],[3.4944,48.0204],[3.4918,48.0201],[3.4894,48.0220],[3.4869,48.0202],[3.4879,48.0191],[3.4871,48.0150],[3.4901,48.0136],[3.4984,48.0132],[3.5020,48.0097],[3.4960,48.0120],[3.4899,48.0116],[3.4906,48.0128],[3.4812,48.0139],[3.4809,48.0151],[3.4778,48.0148],[3.4766,48.0122],[3.4709,48.0146],[3.4696,48.0166],[3.4676,48.0151],[3.4685,48.0141],[3.4641,48.0131],[3.4641,48.0110],[3.4568,48.0126],[3.4607,48.0132],[3.4605,48.0145],[3.4634,48.0169],[3.4669,48.0238],[3.4674,48.0283],[3.4655,48.0290],[3.4664,48.0339],[3.4645,48.0337],[3.4581,48.0321],[3.4634,48.0301],[3.4607,48.0219],[3.4586,48.0230],[3.4572,48.0208],[3.4549,48.0216],[3.4535,48.0201],[3.4538,48.0183],[3.4502,48.0174],[3.4536,48.0178],[3.4541,48.0169],[3.4511,48.0147],[3.4519,48.0141],[3.4493,48.0138],[3.4489,48.0097],[3.4485,48.0126],[3.4424,48.0121],[3.4416,48.0117],[3.4435,48.0099],[3.4420,48.0094],[3.4400,48.0126],[3.4385,48.0127],[3.4399,48.0087],[3.4383,48.0076],[3.4384,48.0163],[3.4339,48.0135],[3.4338,48.0115],[3.4306,48.0107],[3.4315,48.0088],[3.4371,48.0074],[3.4367,48.0058],[3.4403,48.0045],[3.4403,48.0030],[3.4379,48.0030],[3.4368,48.0049],[3.4297,48.0066],[3.4248,48.0096],[3.4255,48.0104],[3.4240,48.0125],[3.4211,48.0113],[3.4237,48.0058],[3.4185,48.0026],[3.4183,48.0008],[3.4191,48.0000],[3.4222,48.0010],[3.4274,47.9950],[3.4309,47.9965],[3.4316,47.9993],[3.4293,47.9998],[3.4296,48.0011],[3.4322,48.0006],[3.4341,47.9984],[3.4322,47.9978],[3.4348,47.9934],[3.4331,47.9921],[3.4258,47.9916],[3.4263,47.9934],[3.4208,47.9903],[3.4144,47.9906],[3.4161,47.9905],[3.4171,47.9882],[3.4140,47.9869],[3.4158,47.9865],[3.4141,47.9857],[3.4120,47.9863],[3.4113,47.9892],[3.4126,47.9893],[3.4111,47.9898],[3.4129,47.9905],[3.4090,47.9906],[3.4101,47.9936],[3.4073,47.9935],[3.4078,47.9911],[3.4057,47.9915],[3.4050,47.9898],[3.4041,47.9909],[3.4058,47.9934],[3.4040,47.9937],[3.4018,47.9912],[3.3965,47.9900],[3.4020,47.9960],[3.3863,47.9940],[3.3838,47.9949],[3.3814,47.9935],[3.3836,47.9971],[3.3858,47.9971],[3.3827,47.9983],[3.3830,48.0010],[3.3811,48.0005],[3.3795,47.9972],[3.3771,47.9964],[3.3725,47.9918],[3.3731,47.9940],[3.3745,47.9939],[3.3788,48.0003],[3.3777,48.0016],[3.3812,48.0033],[3.3904,48.0051],[3.3915,48.0041],[3.3865,48.0025],[3.3860,48.0001],[3.3945,48.0003],[3.3990,47.9986],[3.4009,48.0019],[3.4042,48.0012],[3.4063,48.0039],[3.4086,48.0037],[3.4125,48.0069],[3.4147,48.0057],[3.4189,48.0080],[3.4180,48.0100],[3.4201,48.0114],[3.4176,48.0156],[3.4223,48.0197],[3.4242,48.0245],[3.4239,48.0325],[3.4213,48.0377],[3.4215,48.0398],[3.4272,48.0397],[3.4282,48.0399],[3.4270,48.0413],[3.4286,48.0408],[3.4347,48.0386],[3.4331,48.0364],[3.4429,48.0329],[3.4472,48.0383],[3.4510,48.0375],[3.4530,48.0403],[3.4493,48.0410],[3.4517,48.0442],[3.4641,48.0517],[3.4651,48.0512],[3.4618,48.0481],[3.4648,48.0464],[3.4732,48.0526],[3.4710,48.0538],[3.4718,48.0548],[3.4793,48.0554],[3.4800,48.0578],[3.4903,48.0576],[3.4909,48.0661],[3.4716,48.0677],[3.4715,48.0706],[3.4808,48.0710],[3.4804,48.0739],[3.4751,48.0738],[3.4751,48.0761],[3.4796,48.0760],[3.4797,48.0775],[3.4846,48.0778],[3.4846,48.0767],[3.4902,48.0767],[3.4900,48.0868],[3.4840,48.0885],[3.4840,48.0859],[3.4754,48.0849],[3.4755,48.0863],[3.4736,48.0860],[3.4732,48.0840],[3.4674,48.0844],[3.4614,48.0802],[3.4642,48.0787],[3.4626,48.0771],[3.4591,48.0770],[3.4564,48.0779],[3.4593,48.0795],[3.4574,48.0806],[3.4580,48.0815],[3.4538,48.0784],[3.4534,48.0802],[3.4506,48.0812],[3.4517,48.0822],[3.4515,48.0866],[3.4503,48.0870],[3.4499,48.0907],[3.4482,48.0927],[3.4513,48.0964],[3.4521,48.0955],[3.4496,48.0935],[3.4517,48.0907],[3.4501,48.0892],[3.4536,48.0875],[3.4537,48.0838],[3.4557,48.0813],[3.4607,48.0852],[3.4601,48.0859],[3.4640,48.0866],[3.4634,48.0873],[3.4648,48.0881],[3.4651,48.0889],[3.4597,48.0911],[3.4652,48.0910],[3.4671,48.0947],[3.4688,48.0945],[3.4688,48.0967],[3.4710,48.0963],[3.4699,48.0950],[3.4715,48.0961],[3.4711,48.0950],[3.4737,48.0950],[3.4765,48.0925]]]}},{"type":"Feature","properties":{"name":"Bois de Crève-Coeur"},"geometry":{"type":"Polygon","coordinates":[[[3.1202,48.4675],[3.1302,48.4688],[3.1290,48.4676],[3.1316,48.4674],[3.1325,48.4647],[3.1330,48.4663],[3.1383,48.4620],[3.1356,48.4619],[3.1352,48.4608],[3.1310,48.4636],[3.1314,48.4625],[3.1291,48.4630],[3.1292,48.4613],[3.1235,48.4593],[3.1209,48.4561],[3.1194,48.4577],[3.1177,48.4551],[3.1180,48.4518],[3.1165,48.4527],[3.1137,48.4494],[3.1075,48.4553],[3.1089,48.4564],[3.1118,48.4543],[3.1121,48.4555],[3.1079,48.4574],[3.1027,48.4579],[3.0979,48.4616],[3.0954,48.4598],[3.0861,48.4580],[3.0868,48.4575],[3.0826,48.4558],[3.0841,48.4581],[3.0832,48.4590],[3.0814,48.4565],[3.0780,48.4602],[3.0808,48.4609],[3.0798,48.4619],[3.0838,48.4594],[3.0856,48.4606],[3.0884,48.4607],[3.0891,48.4597],[3.0940,48.4624],[3.0971,48.4629],[3.0994,48.4617],[3.1034,48.4637],[3.1056,48.4617],[3.1097,48.4604],[3.1147,48.4619],[3.1145,48.4634],[3.1177,48.4624],[3.1202,48.4675]]]}},{"type":"Feature","properties":{"name":"Bois Louis"},"geometry":{"type":"Polygon","coordinates":[[[3.1003,48.8314],[3.0967,48.8320],[3.1028,48.8333],[3.0968,48.8351],[3.1016,48.8351],[3.1058,48.8367],[3.1080,48.8356],[3.1053,48.8350],[3.1082,48.8345],[3.1131,48.8414],[3.1151,48.8412],[3.1163,48.8390],[3.1159,48.8349],[3.1258,48.8388],[3.1279,48.8365],[3.1303,48.8375],[3.1286,48.8402],[3.1312,48.8377],[3.1359,48.8393],[3.1372,48.8387],[3.1358,48.8366],[3.1400,48.8365],[3.1377,48.8334],[3.1394,48.8325],[3.1383,48.8319],[3.1359,48.8334],[3.1353,48.8319],[3.1343,48.8332],[3.1323,48.8328],[3.1323,48.8315],[3.1304,48.8335],[3.1244,48.8325],[3.1226,48.8309],[3.1272,48.8288],[3.1241,48.8274],[3.1221,48.8304],[3.1181,48.8298],[3.1174,48.8307],[3.1153,48.8303],[3.1148,48.8286],[3.1123,48.8274],[3.1070,48.8275],[3.1071,48.8262],[3.1106,48.8250],[3.1139,48.8261],[3.1163,48.8252],[3.1173,48.8263],[3.1158,48.8269],[3.1175,48.8267],[3.1191,48.8295],[3.1191,48.8275],[3.1214,48.8283],[3.1222,48.8260],[3.1205,48.8250],[3.1181,48.8254],[3.1199,48.8245],[3.1186,48.8227],[3.1128,48.8215],[3.1126,48.8199],[3.1104,48.8202],[3.1103,48.8192],[3.1096,48.8208],[3.1132,48.8235],[3.1078,48.8235],[3.1090,48.8219],[3.1059,48.8198],[3.1075,48.8193],[3.1076,48.8166],[3.1065,48.8162],[3.1036,48.8184],[3.1047,48.8186],[3.1043,48.8204],[3.1055,48.8203],[3.1058,48.8216],[3.1043,48.8222],[3.1052,48.8241],[3.1042,48.8243],[3.1063,48.8274],[3.1043,48.8293],[3.1068,48.8308],[3.1050,48.8318],[3.1024,48.8307],[3.1003,48.8314]]]}},{"type":"Feature","properties":{"name":"Bois de Bréviande"},"geometry":{"type":"Polygon","coordinates":[[[2.6118,48.5487],[2.6091,48.5510],[2.6227,48.5506],[2.6222,48.5477],[2.6232,48.5476],[2.6265,48.5542],[2.6366,48.5587],[2.6318,48.5601],[2.6307,48.5611],[2.6317,48.5624],[2.6278,48.5600],[2.6220,48.5624],[2.6160,48.5599],[2.6111,48.5616],[2.6090,48.5565],[2.6026,48.5583],[2.6030,48.5594],[2.6002,48.5597],[2.5999,48.5612],[2.5976,48.5609],[2.6118,48.5487]]]}},{"type":"Feature","properties":{"name":"Bois de la Brandelle"},"geometry":{"type":"Polygon","coordinates":[[[2.9250,48.2052],[2.9262,48.2030],[2.9294,48.2027],[2.9299,48.1983],[2.9321,48.1982],[2.9316,48.1995],[2.9330,48.1981],[2.9358,48.2005],[2.9385,48.2005],[2.9358,48.1996],[2.9371,48.1957],[2.9352,48.1951],[2.9360,48.1917],[2.9457,48.1898],[2.9449,48.1890],[2.9395,48.1901],[2.9394,48.1872],[2.9422,48.1871],[2.9419,48.1859],[2.9397,48.1858],[2.9400,48.1849],[2.9369,48.1831],[2.9356,48.1796],[2.9335,48.1786],[2.9276,48.1824],[2.9265,48.1794],[2.9247,48.1799],[2.9252,48.1813],[2.9212,48.1831],[2.9213,48.1842],[2.9187,48.1859],[2.9170,48.1856],[2.9167,48.1873],[2.9140,48.1889],[2.9058,48.1859],[2.9054,48.1872],[2.9008,48.1887],[2.9008,48.1901],[2.8994,48.1896],[2.9005,48.1946],[2.9078,48.1941],[2.9108,48.1953],[2.9072,48.1958],[2.9127,48.1957],[2.9132,48.1965],[2.9103,48.1984],[2.9128,48.1971],[2.9144,48.1981],[2.9136,48.1968],[2.9148,48.1964],[2.9190,48.2028],[2.9226,48.2015],[2.9237,48.1985],[2.9259,48.1982],[2.9293,48.1951],[2.9262,48.1934],[2.9278,48.1918],[2.9317,48.1934],[2.9337,48.1904],[2.9351,48.1907],[2.9307,48.1974],[2.9236,48.1994],[2.9225,48.2040],[2.9250,48.2052]]]}},{"type":"Feature","properties":{"name":"Forêt domaniale de Sénart"},"geometry":{"type":"Polygon","coordinates":[[[2.4359,48.6558],[2.4313,48.6587],[2.4319,48.6599],[2.4297,48.6609],[2.4296,48.6625],[2.4272,48.6624],[2.4321,48.6656],[2.4282,48.6682],[2.4271,48.6669],[2.4279,48.6651],[2.4244,48.6631],[2.4225,48.6636],[2.4216,48.6641],[2.4228,48.6653],[2.4209,48.6652],[2.4224,48.6660],[2.4194,48.6668],[2.4208,48.6678],[2.4190,48.6675],[2.4190,48.6688],[2.4172,48.6681],[2.4150,48.6716],[2.4183,48.6726],[2.4171,48.6738],[2.4177,48.6757],[2.4300,48.6770],[2.4284,48.6793],[2.4306,48.6809],[2.4359,48.6802],[2.4338,48.6820],[2.4353,48.6826],[2.4366,48.6868],[2.4390,48.6879],[2.4425,48.6846],[2.4551,48.6906],[2.4823,48.6883],[2.4865,48.6861],[2.4892,48.6827],[2.4901,48.6832],[2.5170,48.6609],[2.5043,48.6537],[2.5023,48.6542],[2.4908,48.6502],[2.4931,48.6489],[2.4972,48.6515],[2.5015,48.6505],[2.5048,48.6517],[2.5061,48.6487],[2.5041,48.6453],[2.5013,48.6457],[2.4992,48.6482],[2.4966,48.6464],[2.4996,48.6442],[2.4988,48.6431],[2.5009,48.6410],[2.4970,48.6424],[2.4906,48.6403],[2.4875,48.6378],[2.4814,48.6366],[2.4728,48.6374],[2.4795,48.6402],[2.4835,48.6389],[2.4816,48.6378],[2.4824,48.6375],[2.4854,48.6395],[2.4850,48.6421],[2.4784,48.6422],[2.4792,48.6445],[2.4776,48.6464],[2.4762,48.6456],[2.4691,48.6498],[2.4703,48.6507],[2.4682,48.6523],[2.4669,48.6517],[2.4592,48.6564],[2.4521,48.6564],[2.4505,48.6529],[2.4465,48.6547],[2.4492,48.6567],[2.4435,48.6564],[2.4458,48.6541],[2.4435,48.6527],[2.4359,48.6558]]]}},{"type":"Feature","properties":{"name":"Bois de Brou"},"geometry":{"type":"Polygon","coordinates":[[[2.6318,48.8896],[2.6353,48.8888],[2.6341,48.8881],[2.6353,48.8873],[2.6344,48.8867],[2.6370,48.8843],[2.6344,48.8829],[2.6572,48.8834],[2.6583,48.8865],[2.6528,48.8872],[2.6526,48.8890],[2.6563,48.8914],[2.6574,48.8974],[2.6517,48.8988],[2.6307,48.8898],[2.6327,48.8886],[2.6318,48.8896]]]}},{"type":"Feature","properties":{"name":"bois du Luzard"},"geometry":{"type":"Polygon","coordinates":[[[2.5891,48.8273],[2.5915,48.8277],[2.5934,48.8254],[2.5988,48.8260],[2.6007,48.8247],[2.6023,48.8258],[2.6017,48.8272],[2.6030,48.8270],[2.6079,48.8261],[2.6079,48.8241],[2.6105,48.8240],[2.6112,48.8258],[2.6121,48.8248],[2.6099,48.8235],[2.6094,48.8216],[2.6107,48.8217],[2.6095,48.8179],[2.6110,48.8177],[2.6112,48.8208],[2.6130,48.8206],[2.6094,48.8119],[2.6081,48.8123],[2.6056,48.8107],[2.5971,48.8146],[2.5956,48.8138],[2.5959,48.8098],[2.5918,48.8073],[2.5904,48.8088],[2.5742,48.8130],[2.5664,48.8183],[2.5704,48.8230],[2.5711,48.8216],[2.5730,48.8227],[2.5806,48.8226],[2.5891,48.8273]]]}},{"type":"Feature","properties":{"name":"Forêt de Villefermoy"},"geometry":{"type":"Polygon","coordinates":[[[2.9384,48.5511],[2.9406,48.5513],[2.9415,48.5535],[2.9412,48.5496],[2.9466,48.5495],[2.9438,48.5464],[2.9442,48.5398],[2.9464,48.5394],[2.9506,48.5424],[2.9503,48.5391],[2.9523,48.5381],[2.9479,48.5382],[2.9482,48.5336],[2.9491,48.5336],[2.9494,48.5364],[2.9498,48.5335],[2.9529,48.5331],[2.9478,48.5318],[2.9454,48.5257],[2.9515,48.5255],[2.9534,48.5289],[2.9602,48.5298],[2.9590,48.5321],[2.9557,48.5312],[2.9533,48.5332],[2.9533,48.5351],[2.9560,48.5357],[2.9551,48.5386],[2.9560,48.5387],[2.9527,48.5404],[2.9557,48.5417],[2.9555,48.5426],[2.9577,48.5424],[2.9583,48.5402],[2.9596,48.5403],[2.9584,48.5441],[2.9604,48.5445],[2.9609,48.5426],[2.9618,48.5439],[2.9635,48.5436],[2.9630,48.5412],[2.9769,48.5391],[2.9796,48.5408],[2.9822,48.5399],[2.9804,48.5376],[2.9886,48.5352],[2.9839,48.5335],[2.9878,48.5329],[2.9855,48.5313],[2.9849,48.5283],[2.9863,48.5275],[2.9849,48.5260],[2.9903,48.5259],[2.9948,48.5228],[2.9898,48.5185],[2.9843,48.5199],[2.9829,48.5192],[2.9832,48.5202],[2.9813,48.5206],[2.9718,48.5184],[2.9708,48.5215],[2.9677,48.5186],[2.9691,48.5214],[2.9678,48.5225],[2.9634,48.5201],[2.9608,48.5204],[2.9625,48.5164],[2.9548,48.5143],[2.9538,48.5086],[2.9527,48.5087],[2.9524,48.5113],[2.9515,48.5113],[2.9515,48.5098],[2.9495,48.5102],[2.9494,48.5141],[2.9481,48.5140],[2.9483,48.5150],[2.9518,48.5157],[2.9522,48.5187],[2.9503,48.5208],[2.9451,48.5210],[2.9469,48.5165],[2.9446,48.5152],[2.9388,48.5156],[2.9393,48.5135],[2.9362,48.5112],[2.9365,48.5087],[2.9393,48.5087],[2.9375,48.5040],[2.9406,48.5023],[2.9384,48.4952],[2.9357,48.4946],[2.9300,48.4961],[2.9298,48.4942],[2.9331,48.4926],[2.9330,48.4912],[2.9304,48.4921],[2.9303,48.4900],[2.9331,48.4892],[2.9311,48.4875],[2.9272,48.4875],[2.9270,48.4858],[2.9278,48.4848],[2.9330,48.4850],[2.9334,48.4836],[2.9272,48.4833],[2.9278,48.4810],[2.9299,48.4812],[2.9253,48.4795],[2.9272,48.4742],[2.9303,48.4743],[2.9351,48.4695],[2.9317,48.4684],[2.9326,48.4677],[2.9317,48.4666],[2.9284,48.4669],[2.9299,48.4663],[2.9291,48.4620],[2.9372,48.4604],[2.9351,48.4593],[2.9361,48.4583],[2.9320,48.4571],[2.9220,48.4577],[2.9163,48.4585],[2.9168,48.4606],[2.9159,48.4608],[2.9118,48.4590],[2.9015,48.4588],[2.8974,48.4568],[2.8829,48.4557],[2.8807,48.4567],[2.8827,48.4586],[2.8802,48.4596],[2.8821,48.4614],[2.8815,48.4624],[2.8918,48.4640],[2.8918,48.4659],[2.8872,48.4658],[2.8863,48.4716],[2.8888,48.4747],[2.8883,48.4759],[2.8848,48.4759],[2.8840,48.4780],[2.8867,48.4794],[2.8776,48.4786],[2.8750,48.4809],[2.8715,48.4784],[2.8725,48.4752],[2.8752,48.4753],[2.8769,48.4720],[2.8755,48.4719],[2.8757,48.4706],[2.8529,48.4870],[2.8623,48.4874],[2.8631,48.4899],[2.8644,48.4897],[2.8655,48.4917],[2.8732,48.4904],[2.8731,48.4917],[2.8696,48.4927],[2.8696,48.4941],[2.8735,48.4931],[2.8747,48.4974],[2.8699,48.4982],[2.8700,48.5032],[2.8725,48.5031],[2.8733,48.5068],[2.8753,48.5081],[2.8804,48.5089],[2.8793,48.5078],[2.8880,48.5057],[2.8905,48.5074],[2.8907,48.5120],[2.8991,48.5090],[2.9007,48.5123],[2.8822,48.5137],[2.8809,48.5200],[2.8817,48.5215],[2.8795,48.5246],[2.8797,48.5273],[2.8747,48.5292],[2.8721,48.5284],[2.8707,48.5259],[2.8666,48.5262],[2.8623,48.5238],[2.8630,48.5268],[2.8578,48.5267],[2.8576,48.5286],[2.8596,48.5301],[2.8591,48.5311],[2.8570,48.5314],[2.8549,48.5292],[2.8551,48.5267],[2.8527,48.5267],[2.8519,48.5272],[2.8529,48.5297],[2.8503,48.5329],[2.8472,48.5328],[2.8506,48.5294],[2.8433,48.5277],[2.8440,48.5298],[2.8489,48.5294],[2.8457,48.5328],[2.8456,48.5346],[2.8335,48.5329],[2.8308,48.5306],[2.8283,48.5317],[2.8269,48.5307],[2.8306,48.5288],[2.8267,48.5275],[2.8267,48.5290],[2.8245,48.5293],[2.8215,48.5263],[2.8191,48.5264],[2.8239,48.5322],[2.8238,48.5338],[2.8181,48.5373],[2.8157,48.5425],[2.8132,48.5422],[2.8129,48.5432],[2.8150,48.5434],[2.8146,48.5443],[2.8159,48.5450],[2.8065,48.5483],[2.8038,48.5506],[2.7985,48.5459],[2.7956,48.5472],[2.8017,48.5516],[2.8048,48.5557],[2.8211,48.5551],[2.8245,48.5555],[2.8292,48.5584],[2.8244,48.5611],[2.8220,48.5644],[2.8228,48.5625],[2.8162,48.5619],[2.8170,48.5606],[2.8141,48.5627],[2.8155,48.5646],[2.8196,48.5638],[2.8228,48.5650],[2.8236,48.5630],[2.8246,48.5634],[2.8233,48.5658],[2.8252,48.5653],[2.8254,48.5663],[2.8275,48.5646],[2.8308,48.5664],[2.8235,48.5670],[2.8186,48.5641],[2.8159,48.5649],[2.8160,48.5682],[2.8203,48.5686],[2.8195,48.5669],[2.8212,48.5668],[2.8259,48.5676],[2.8260,48.5693],[2.8283,48.5672],[2.8284,48.5682],[2.8304,48.5676],[2.8338,48.5704],[2.8345,48.5686],[2.8334,48.5681],[2.8355,48.5671],[2.8385,48.5685],[2.8350,48.5708],[2.8430,48.5711],[2.8441,48.5685],[2.8420,48.5670],[2.8433,48.5657],[2.8419,48.5647],[2.8347,48.5640],[2.8351,48.5623],[2.8282,48.5614],[2.8317,48.5582],[2.8340,48.5592],[2.8391,48.5522],[2.8454,48.5533],[2.8427,48.5588],[2.8454,48.5593],[2.8452,48.5604],[2.8422,48.5596],[2.8413,48.5613],[2.8440,48.5620],[2.8472,48.5584],[2.8462,48.5565],[2.8482,48.5547],[2.8466,48.5543],[2.8515,48.5537],[2.8517,48.5551],[2.8486,48.5556],[2.8489,48.5568],[2.8525,48.5560],[2.8539,48.5576],[2.8520,48.5585],[2.8517,48.5619],[2.8533,48.5630],[2.8510,48.5626],[2.8534,48.5634],[2.8507,48.5629],[2.8536,48.5643],[2.8558,48.5646],[2.8563,48.5621],[2.8586,48.5612],[2.8611,48.5620],[2.8655,48.5605],[2.8687,48.5620],[2.8738,48.5615],[2.8740,48.5635],[2.8745,48.5615],[2.8773,48.5602],[2.8757,48.5555],[2.8730,48.5546],[2.8756,48.5536],[2.8771,48.5431],[2.8751,48.5420],[2.8698,48.5420],[2.8699,48.5438],[2.8592,48.5453],[2.8590,48.5432],[2.8609,48.5427],[2.8607,48.5415],[2.8585,48.5416],[2.8592,48.5400],[2.8647,48.5377],[2.8688,48.5384],[2.8688,48.5371],[2.8654,48.5365],[2.8655,48.5353],[2.8699,48.5337],[2.8725,48.5304],[2.8834,48.5312],[2.8867,48.5352],[2.8859,48.5386],[2.8880,48.5409],[2.8898,48.5399],[2.8892,48.5366],[2.8929,48.5361],[2.8951,48.5385],[2.9001,48.5378],[2.8982,48.5354],[2.9042,48.5353],[2.9069,48.5388],[2.9054,48.5407],[2.9062,48.5411],[2.9093,48.5410],[2.9181,48.5444],[2.9198,48.5421],[2.9230,48.5427],[2.9211,48.5469],[2.9263,48.5477],[2.9250,48.5497],[2.9216,48.5505],[2.9201,48.5533],[2.9245,48.5542],[2.9266,48.5524],[2.9257,48.5519],[2.9315,48.5481],[2.9299,48.5474],[2.9323,48.5453],[2.9347,48.5488],[2.9311,48.5492],[2.9347,48.5513],[2.9281,48.5584],[2.9295,48.5586],[2.9313,48.5561],[2.9372,48.5560],[2.9358,48.5588],[2.9338,48.5584],[2.9339,48.5601],[2.9259,48.5592],[2.9254,48.5643],[2.9238,48.5639],[2.9224,48.5665],[2.9190,48.5659],[2.9190,48.5649],[2.9129,48.5647],[2.9126,48.5679],[2.9107,48.5686],[2.9122,48.5685],[2.9122,48.5702],[2.9093,48.5700],[2.9090,48.5680],[2.9105,48.5675],[2.9084,48.5672],[2.9069,48.5624],[2.9018,48.5583],[2.8984,48.5585],[2.8991,48.5610],[2.8980,48.5611],[2.8875,48.5617],[2.8856,48.5593],[2.8839,48.5599],[2.8856,48.5620],[2.8793,48.5636],[2.8803,48.5659],[2.8781,48.5662],[2.8798,48.5690],[2.8737,48.5721],[2.8742,48.5731],[2.8808,48.5716],[2.8819,48.5756],[2.8884,48.5745],[2.8989,48.5777],[2.9049,48.5770],[2.9049,48.5784],[2.9173,48.5773],[2.9169,48.5791],[2.9232,48.5789],[2.9230,48.5799],[2.9293,48.5803],[2.9299,48.5825],[2.9324,48.5802],[2.9360,48.5813],[2.9370,48.5750],[2.9393,48.5756],[2.9394,48.5743],[2.9437,48.5741],[2.9435,48.5764],[2.9473,48.5774],[2.9470,48.5787],[2.9578,48.5772],[2.9580,48.5762],[2.9526,48.5760],[2.9496,48.5740],[2.9471,48.5745],[2.9432,48.5709],[2.9503,48.5692],[2.9535,48.5732],[2.9515,48.5703],[2.9582,48.5683],[2.9574,48.5663],[2.9541,48.5682],[2.9467,48.5690],[2.9463,48.5667],[2.9476,48.5663],[2.9477,48.5630],[2.9406,48.5607],[2.9403,48.5594],[2.9461,48.5606],[2.9471,48.5578],[2.9485,48.5572],[2.9553,48.5587],[2.9580,48.5675],[2.9632,48.5670],[2.9634,48.5684],[2.9698,48.5668],[2.9663,48.5668],[2.9661,48.5649],[2.9698,48.5644],[2.9667,48.5623],[2.9729,48.5615],[2.9707,48.5598],[2.9646,48.5614],[2.9630,48.5598],[2.9688,48.5564],[2.9669,48.5582],[2.9594,48.5577],[2.9598,48.5586],[2.9578,48.5593],[2.9510,48.5561],[2.9487,48.5535],[2.9479,48.5474],[2.9463,48.5537],[2.9369,48.5533],[2.9375,48.5510],[2.9384,48.5511]]]}},{"type":"Feature","properties":{"name":"Forêt domaniale de Barbeau"},"geometry":{"type":"Polygon","coordinates":[[[2.7693,48.4774],[2.7729,48.4722],[2.7738,48.4658],[2.7766,48.4661],[2.7746,48.4665],[2.7745,48.4684],[2.7757,48.4685],[2.7770,48.4667],[2.7751,48.4651],[2.7781,48.4614],[2.7767,48.4616],[2.7805,48.4595],[2.7805,48.4579],[2.7836,48.4577],[2.7858,48.4546],[2.7864,48.4509],[2.7867,48.4549],[2.7846,48.4572],[2.7876,48.4563],[2.7880,48.4582],[2.7890,48.4582],[2.7891,48.4559],[2.7868,48.4540],[2.7867,48.4522],[2.7900,48.4504],[2.7880,48.4518],[2.7914,48.4535],[2.7933,48.4530],[2.7944,48.4543],[2.7935,48.4549],[2.7953,48.4555],[2.7931,48.4557],[2.7949,48.4564],[2.7932,48.4575],[2.7947,48.4582],[2.7958,48.4570],[2.8007,48.4589],[2.7990,48.4603],[2.8005,48.4618],[2.7991,48.4625],[2.8022,48.4646],[2.8012,48.4718],[2.7916,48.4782],[2.7896,48.4791],[2.7881,48.4781],[2.7871,48.4815],[2.7670,48.4821],[2.7705,48.4777],[2.7693,48.4774]]]}},{"type":"Feature","properties":{"name":"Bois de Malvoisine"},"geometry":{"type":"Polygon","coordinates":[[[3.0525,48.4685],[3.0611,48.4679],[3.0594,48.4668],[3.0606,48.4636],[3.0576,48.4624],[3.0617,48.4617],[3.0627,48.4625],[3.0621,48.4646],[3.0599,48.4662],[3.0604,48.4673],[3.0616,48.4668],[3.0623,48.4683],[3.0668,48.4698],[3.0694,48.4672],[3.0738,48.4656],[3.0784,48.4669],[3.0727,48.4735],[3.0801,48.4773],[3.0818,48.4763],[3.0888,48.4772],[3.0831,48.4784],[3.0844,48.4793],[3.0827,48.4808],[3.0848,48.4813],[3.0823,48.4845],[3.0836,48.4855],[3.0806,48.4886],[3.0792,48.4884],[3.0787,48.4862],[3.0763,48.4866],[3.0760,48.4902],[3.0769,48.4910],[3.0763,48.4956],[3.0848,48.4953],[3.0847,48.4938],[3.0876,48.4933],[3.0883,48.4961],[3.0909,48.4951],[3.0918,48.4989],[3.0937,48.4984],[3.0949,48.5007],[3.0932,48.5014],[3.0938,48.5025],[3.0956,48.5031],[3.0966,48.5020],[3.1001,48.5042],[3.0986,48.5063],[3.0960,48.5059],[3.0962,48.5080],[3.0940,48.5087],[3.0947,48.5111],[3.0929,48.5114],[3.0926,48.5143],[3.0900,48.5154],[3.0918,48.5163],[3.0898,48.5186],[3.0914,48.5187],[3.0932,48.5210],[3.0905,48.5218],[3.0890,48.5246],[3.0925,48.5259],[3.0909,48.5290],[3.0857,48.5276],[3.0850,48.5259],[3.0860,48.5237],[3.0835,48.5229],[3.0841,48.5210],[3.0758,48.5200],[3.0742,48.5207],[3.0744,48.5191],[3.0714,48.5197],[3.0660,48.5184],[3.0640,48.5202],[3.0616,48.5266],[3.0576,48.5246],[3.0600,48.5245],[3.0599,48.5232],[3.0615,48.5223],[3.0604,48.5180],[3.0586,48.5183],[3.0586,48.5203],[3.0566,48.5203],[3.0565,48.5187],[3.0584,48.5182],[3.0585,48.5170],[3.0568,48.5153],[3.0554,48.5145],[3.0531,48.5170],[3.0542,48.5174],[3.0540,48.5196],[3.0505,48.5211],[3.0506,48.5181],[3.0467,48.5174],[3.0457,48.5144],[3.0486,48.5149],[3.0478,48.5095],[3.0522,48.5102],[3.0538,48.5088],[3.0532,48.5104],[3.0559,48.5101],[3.0552,48.5113],[3.0566,48.5115],[3.0590,48.5074],[3.0544,48.5060],[3.0539,48.5085],[3.0529,48.5087],[3.0490,48.5042],[3.0445,48.5035],[3.0451,48.5016],[3.0480,48.5003],[3.0505,48.5038],[3.0531,48.5034],[3.0528,48.5005],[3.0513,48.5004],[3.0509,48.4982],[3.0456,48.4997],[3.0510,48.4857],[3.0525,48.4685]]]}},{"type":"Feature","properties":{"name":"Forêt domaniale de Notre-Dame"},"geometry":{"type":"Polygon","coordinates":[[[2.5457,48.7598],[2.5507,48.7618],[2.5576,48.7595],[2.5591,48.7605],[2.5600,48.7581],[2.5618,48.7573],[2.5587,48.7542],[2.5563,48.7537],[2.5525,48.7536],[2.5527,48.7548],[2.5484,48.7550],[2.5486,48.7559],[2.5482,48.7550],[2.5443,48.7563],[2.5455,48.7552],[2.5389,48.7554],[2.5392,48.7532],[2.5418,48.7532],[2.5423,48.7490],[2.5562,48.7461],[2.5540,48.7484],[2.5549,48.7499],[2.5572,48.7492],[2.5571,48.7462],[2.5586,48.7456],[2.5884,48.7430],[2.5912,48.7468],[2.6100,48.7465],[2.6107,48.7473],[2.6072,48.7514],[2.6074,48.7543],[2.6096,48.7532],[2.6083,48.7550],[2.6125,48.7573],[2.6147,48.7543],[2.6159,48.7620],[2.6131,48.7675],[2.6118,48.7679],[2.6129,48.7681],[2.6112,48.7723],[2.6086,48.7743],[2.6044,48.7751],[2.5955,48.7740],[2.5934,48.7721],[2.5928,48.7732],[2.5908,48.7729],[2.5912,48.7716],[2.5871,48.7728],[2.5856,48.7704],[2.5878,48.7700],[2.5888,48.7671],[2.5877,48.7664],[2.5865,48.7665],[2.5854,48.7688],[2.5812,48.7691],[2.5817,48.7727],[2.5801,48.7758],[2.5772,48.7751],[2.5765,48.7768],[2.5746,48.7733],[2.5730,48.7734],[2.5736,48.7717],[2.5639,48.7705],[2.5604,48.7727],[2.5580,48.7727],[2.5375,48.7643],[2.5392,48.7623],[2.5444,48.7616],[2.5449,48.7596],[2.5417,48.7583],[2.5436,48.7568],[2.5495,48.7574],[2.5494,48.7584],[2.5457,48.7587],[2.5457,48.7598]]]}},{"type":"Feature","properties":{"name":"Forêt de Fontainebleau"},"geometry":{"type":"Polygon","coordinates":[[[2.7710,48.4657],[2.7701,48.4613],[2.7680,48.4600],[2.7637,48.4621],[2.7622,48.4593],[2.7600,48.4606],[2.7607,48.4617],[2.7594,48.4619],[2.7587,48.4605],[2.7587,48.4615],[2.7540,48.4630],[2.7462,48.4645],[2.7455,48.4636],[2.7488,48.4622],[2.7478,48.4609],[2.7499,48.4617],[2.7483,48.4599],[2.7505,48.4608],[2.7512,48.4591],[2.7539,48.4604],[2.7529,48.4587],[2.7571,48.4573],[2.7575,48.4559],[2.7495,48.4567],[2.7493,48.4590],[2.7446,48.4594],[2.7475,48.4610],[2.7444,48.4605],[2.7455,48.4622],[2.7403,48.4598],[2.7408,48.4585],[2.7430,48.4579],[2.7385,48.4569],[2.7409,48.4547],[2.7438,48.4541],[2.7387,48.4540],[2.7372,48.4525],[2.7477,48.4510],[2.7456,48.4500],[2.7485,48.4504],[2.7439,48.4487],[2.7467,48.4461],[2.7462,48.4452],[2.7499,48.4443],[2.7445,48.4369],[2.7428,48.4261],[2.7387,48.4234],[2.7378,48.4250],[2.7382,48.4236],[2.7322,48.4226],[2.7373,48.4291],[2.7388,48.4361],[2.7435,48.4352],[2.7382,48.4368],[2.7360,48.4418],[2.7328,48.4453],[2.7098,48.4639],[2.7124,48.4648],[2.7127,48.4669],[2.7094,48.4683],[2.7144,48.4693],[2.7039,48.4713],[2.7064,48.4736],[2.7095,48.4728],[2.7108,48.4736],[2.7107,48.4783],[2.7130,48.4769],[2.7137,48.4782],[2.7183,48.4788],[2.7180,48.4803],[2.7265,48.4806],[2.7262,48.4831],[2.7487,48.4833],[2.7509,48.4855],[2.7611,48.4814],[2.7648,48.4783],[2.7703,48.4699],[2.7710,48.4657]]]}},{"type":"Feature","properties":{"name":"Buisson de Massoury"},"geometry":{"type":"Polygon","coordinates":[[[2.6904,48.5099],[2.6912,48.5107],[2.6938,48.5093],[2.6951,48.5114],[2.6922,48.5125],[2.6930,48.5131],[2.6910,48.5144],[2.6917,48.5129],[2.6897,48.5118],[2.6901,48.5110],[2.6850,48.5120],[2.6865,48.5128],[2.6854,48.5139],[2.6860,48.5168],[2.6958,48.5175],[2.6926,48.5195],[2.6948,48.5208],[2.6961,48.5188],[2.7027,48.5188],[2.7039,48.5142],[2.7124,48.5143],[2.7135,48.5164],[2.7188,48.5163],[2.7189,48.5183],[2.7159,48.5187],[2.7201,48.5206],[2.7224,48.5195],[2.7279,48.5200],[2.7256,48.5168],[2.7394,48.5172],[2.7389,48.5191],[2.7443,48.5168],[2.7442,48.5182],[2.7461,48.5181],[2.7461,48.5166],[2.7504,48.5155],[2.7530,48.5125],[2.7589,48.5129],[2.7583,48.5180],[2.7567,48.5181],[2.7647,48.5175],[2.7670,48.5209],[2.7890,48.5074],[2.7863,48.5055],[2.7810,48.5066],[2.7819,48.5074],[2.7779,48.5081],[2.7817,48.5114],[2.7803,48.5125],[2.7780,48.5127],[2.7750,48.5102],[2.7743,48.5107],[2.7773,48.5131],[2.7666,48.5154],[2.7631,48.5115],[2.7639,48.5100],[2.7614,48.5099],[2.7620,48.5084],[2.7601,48.5038],[2.7623,48.5021],[2.7645,48.5022],[2.7649,48.4936],[2.7561,48.4893],[2.7544,48.4976],[2.7500,48.4975],[2.7469,48.4959],[2.7442,48.4969],[2.7424,48.4925],[2.7411,48.4934],[2.7364,48.4913],[2.7358,48.4879],[2.7247,48.4875],[2.7246,48.4885],[2.7337,48.4889],[2.7294,48.4906],[2.7301,48.4921],[2.7283,48.4927],[2.7315,48.4965],[2.7280,48.4969],[2.7237,48.4950],[2.7293,48.5026],[2.7289,48.5037],[2.7252,48.5037],[2.7220,48.5011],[2.7194,48.5019],[2.7196,48.5004],[2.7123,48.4978],[2.7119,48.5003],[2.7101,48.5006],[2.7053,48.4988],[2.7050,48.4961],[2.7149,48.4948],[2.7159,48.4935],[2.7151,48.4924],[2.7184,48.4909],[2.7208,48.4916],[2.7227,48.4941],[2.7239,48.4938],[2.7238,48.4920],[2.7194,48.4885],[2.7180,48.4893],[2.7192,48.4903],[2.7183,48.4908],[2.7148,48.4894],[2.7139,48.4906],[2.7104,48.4888],[2.7115,48.4898],[2.7094,48.4914],[2.7119,48.4933],[2.7084,48.4942],[2.7069,48.4922],[2.7029,48.4936],[2.6956,48.4932],[2.6938,48.4940],[2.6952,48.4952],[2.6938,48.4964],[2.6981,48.4981],[2.6934,48.5005],[2.6895,48.4981],[2.6875,48.4994],[2.6835,48.5046],[2.6862,48.5058],[2.6861,48.5074],[2.6899,48.5059],[2.6917,48.5077],[2.6904,48.5099]]]}},{"type":"Feature","properties":{"name":"Forêt de Champagne"},"geometry":{"type":"Polygon","coordinates":[[[2.8237,48.3962],[2.8236,48.3974],[2.8124,48.3962],[2.8102,48.3978],[2.8113,48.3988],[2.8067,48.3992],[2.8060,48.4013],[2.8061,48.3991],[2.8042,48.3988],[2.8036,48.3998],[2.8051,48.4003],[2.8028,48.4003],[2.8046,48.4015],[2.8025,48.4012],[2.8025,48.4056],[2.8072,48.4041],[2.8052,48.4043],[2.8044,48.4070],[2.8023,48.4082],[2.8030,48.4095],[2.7995,48.4089],[2.8010,48.4098],[2.7999,48.4119],[2.7960,48.4140],[2.7865,48.4154],[2.7619,48.4129],[2.7575,48.4142],[2.7631,48.4211],[2.7661,48.4228],[2.7731,48.4210],[2.7748,48.4243],[2.7861,48.4238],[2.7873,48.4281],[2.7895,48.4290],[2.7865,48.4295],[2.7870,48.4305],[2.7928,48.4290],[2.7925,48.4241],[2.7978,48.4241],[2.8016,48.4263],[2.8015,48.4278],[2.8074,48.4297],[2.8023,48.4299],[2.8074,48.4310],[2.8076,48.4325],[2.8050,48.4357],[2.8053,48.4377],[2.8078,48.4328],[2.8108,48.4352],[2.8092,48.4375],[2.8108,48.4385],[2.8108,48.4400],[2.8169,48.4410],[2.8191,48.4418],[2.8187,48.4431],[2.8210,48.4431],[2.8212,48.4408],[2.8360,48.4421],[2.8377,48.4409],[2.8446,48.4414],[2.8460,48.4400],[2.8537,48.4387],[2.8549,48.4366],[2.8592,48.4070],[2.8628,48.4015],[2.8583,48.4036],[2.8576,48.4010],[2.8564,48.4008],[2.8535,48.4047],[2.8502,48.4053],[2.8502,48.4085],[2.8476,48.4098],[2.8391,48.4102],[2.8379,48.4075],[2.8346,48.4062],[2.8332,48.4028],[2.8292,48.4045],[2.8316,48.4072],[2.8339,48.4063],[2.8358,48.4084],[2.8348,48.4089],[2.8374,48.4108],[2.8336,48.4130],[2.8289,48.4105],[2.8296,48.4113],[2.8285,48.4116],[2.8269,48.4095],[2.8289,48.4104],[2.8290,48.4091],[2.8274,48.4073],[2.8258,48.4078],[2.8267,48.4063],[2.8247,48.4044],[2.8319,48.4027],[2.8329,48.4018],[2.8326,48.3989],[2.8281,48.3959],[2.8261,48.3960],[2.8271,48.3974],[2.8237,48.3962]]]}},{"type":"Feature","properties":{"name":"Forêt régionale de Ferrières"},"geometry":{"type":"Polygon","coordinates":[[[2.6581,48.8190],[2.6502,48.8294],[2.6509,48.8306],[2.6549,48.8308],[2.6533,48.8281],[2.6583,48.8299],[2.6585,48.8262],[2.6568,48.8280],[2.6578,48.8258],[2.6550,48.8273],[2.6587,48.8232],[2.6600,48.8237],[2.6590,48.8263],[2.6636,48.8271],[2.6607,48.8262],[2.6618,48.8242],[2.6650,48.8256],[2.6669,48.8219],[2.6634,48.8208],[2.6678,48.8175],[2.6695,48.8103],[2.6506,48.7987],[2.6489,48.8004],[2.6465,48.8001],[2.6465,48.8012],[2.6425,48.8022],[2.6410,48.8009],[2.6419,48.8058],[2.6463,48.8060],[2.6491,48.8087],[2.6458,48.8101],[2.6460,48.8123],[2.6436,48.8146],[2.6581,48.8190]]]}},{"type":"Feature","properties":{"name":"Forêt régionale de Rougeau"},"geometry":{"type":"Polygon","coordinates":[[[2.5597,48.5870],[2.5577,48.5858],[2.5622,48.5852],[2.5615,48.5857],[2.5647,48.5930],[2.5623,48.5977],[2.5593,48.5972],[2.5584,48.5983],[2.5594,48.5983],[2.5579,48.5987],[2.5565,48.5980],[2.5538,48.6005],[2.5449,48.5981],[2.5468,48.5990],[2.5394,48.6007],[2.5396,48.6048],[2.5380,48.6064],[2.5355,48.6052],[2.5370,48.6011],[2.5402,48.5979],[2.5220,48.5952],[2.5232,48.5919],[2.5196,48.5929],[2.5184,48.5947],[2.5177,48.5934],[2.5154,48.5943],[2.5144,48.5925],[2.5133,48.5934],[2.5142,48.5918],[2.5160,48.5921],[2.5144,48.5916],[2.5144,48.5888],[2.5073,48.5889],[2.5055,48.5913],[2.5055,48.5903],[2.4996,48.5901],[2.5011,48.5878],[2.4948,48.5881],[2.4936,48.5868],[2.4914,48.5870],[2.4905,48.5844],[2.4889,48.5845],[2.4893,48.5832],[2.4932,48.5854],[2.4948,48.5826],[2.4892,48.5811],[2.4909,48.5811],[2.4914,48.5783],[2.4942,48.5762],[2.4975,48.5774],[2.4997,48.5759],[2.4988,48.5740],[2.4970,48.5748],[2.4937,48.5722],[2.5011,48.5702],[2.5222,48.5744],[2.5277,48.5741],[2.5277,48.5750],[2.5251,48.5748],[2.5254,48.5761],[2.5402,48.5745],[2.5476,48.5708],[2.5489,48.5719],[2.5458,48.5749],[2.5501,48.5758],[2.5505,48.5752],[2.5486,48.5740],[2.5497,48.5724],[2.5504,48.5737],[2.5543,48.5744],[2.5528,48.5754],[2.5521,48.5790],[2.5544,48.5794],[2.5537,48.5825],[2.5564,48.5853],[2.5563,48.5868],[2.5597,48.5870]]]}},{"type":"Feature","properties":{"name":"Forêt de Soucy-Launay"},"geometry":{"type":"Polygon","coordinates":[[[3.3413,48.2619],[3.3362,48.2580],[3.3382,48.2602],[3.3301,48.2586],[3.3293,48.2612],[3.3311,48.2632],[3.3291,48.2652],[3.3236,48.2628],[3.3222,48.2636],[3.3204,48.2628],[3.3182,48.2644],[3.3086,48.2635],[3.3070,48.2649],[3.3149,48.2659],[3.3125,48.2679],[3.3138,48.2688],[3.3123,48.2724],[3.3080,48.2715],[3.3093,48.2736],[3.3118,48.2727],[3.3118,48.2768],[3.3157,48.2775],[3.3170,48.2761],[3.3202,48.2759],[3.3181,48.2826],[3.3200,48.2826],[3.3205,48.2781],[3.3252,48.2788],[3.3256,48.2739],[3.3279,48.2747],[3.3273,48.2765],[3.3305,48.2761],[3.3313,48.2789],[3.3436,48.2814],[3.3466,48.2803],[3.3471,48.2821],[3.3481,48.2820],[3.3480,48.2776],[3.3521,48.2773],[3.3536,48.2825],[3.3515,48.2842],[3.3515,48.2870],[3.3559,48.2895],[3.3612,48.2892],[3.3632,48.2872],[3.3616,48.2873],[3.3627,48.2865],[3.3607,48.2857],[3.3619,48.2852],[3.3543,48.2671],[3.3531,48.2676],[3.3517,48.2657],[3.3525,48.2657],[3.3499,48.2646],[3.3473,48.2674],[3.3444,48.2646],[3.3459,48.2634],[3.3413,48.2619]]]}},{"type":"Feature","properties":{"name":"Forêt de Voisines"},"geometry":{"type":"Polygon","coordinates":[[[3.3549,48.2655],[3.3525,48.2657],[3.3543,48.2671],[3.3593,48.2802],[3.3660,48.2770],[3.3642,48.2751],[3.3652,48.2748],[3.3668,48.2769],[3.3697,48.2758],[3.3730,48.2780],[3.3761,48.2767],[3.3742,48.2753],[3.3790,48.2732],[3.3819,48.2766],[3.3837,48.2753],[3.3920,48.2745],[3.3955,48.2731],[3.3953,48.2713],[3.3936,48.2713],[3.3934,48.2685],[3.3952,48.2679],[3.3945,48.2662],[3.3998,48.2659],[3.3994,48.2638],[3.3943,48.2657],[3.3925,48.2608],[3.3867,48.2593],[3.3873,48.2585],[3.3788,48.2582],[3.3725,48.2604],[3.3701,48.2583],[3.3646,48.2578],[3.3625,48.2578],[3.3626,48.2595],[3.3546,48.2597],[3.3564,48.2651],[3.3549,48.2655]]]}},{"type":"Feature","properties":{"name":"Bois de Traînel"},"geometry":{"type":"Polygon","coordinates":[[[3.4913,48.3323],[3.4901,48.3310],[3.4915,48.3298],[3.4875,48.3269],[3.4877,48.3256],[3.4951,48.3277],[3.4997,48.3272],[3.4972,48.3242],[3.4898,48.3226],[3.4878,48.3241],[3.4843,48.3214],[3.4798,48.3203],[3.4791,48.3213],[3.4759,48.3209],[3.4728,48.3193],[3.4726,48.3207],[3.4689,48.3194],[3.4712,48.3227],[3.4684,48.3243],[3.4623,48.3225],[3.4568,48.3238],[3.4562,48.3254],[3.4602,48.3297],[3.4606,48.3333],[3.4793,48.3402],[3.4831,48.3385],[3.4818,48.3400],[3.4852,48.3407],[3.4906,48.3359],[3.4964,48.3376],[3.4943,48.3340],[3.4958,48.3326],[3.4913,48.3323]]]}},{"type":"Feature","properties":{"name":"Forêt domaniale de Sourdun"},"geometry":{"type":"Polygon","coordinates":[[[3.4464,48.5230],[3.4457,48.5240],[3.4422,48.5231],[3.4419,48.5211],[3.4386,48.5237],[3.4399,48.5225],[3.4388,48.5227],[3.4381,48.5212],[3.4369,48.5228],[3.4349,48.5221],[3.4365,48.5238],[3.4337,48.5224],[3.4310,48.5234],[3.4196,48.5182],[3.4056,48.5282],[3.3942,48.5301],[3.3948,48.5312],[3.3938,48.5324],[3.3968,48.5332],[3.3965,48.5351],[3.4011,48.5361],[3.3965,48.5455],[3.4174,48.5476],[3.4190,48.5468],[3.4181,48.5453],[3.4281,48.5451],[3.4290,48.5412],[3.4303,48.5413],[3.4313,48.5385],[3.4362,48.5391],[3.4368,48.5363],[3.4428,48.5385],[3.4450,48.5357],[3.4489,48.5356],[3.4496,48.5340],[3.4478,48.5337],[3.4513,48.5311],[3.4476,48.5286],[3.4504,48.5272],[3.4489,48.5262],[3.4521,48.5270],[3.4543,48.5266],[3.4537,48.5257],[3.4578,48.5256],[3.4532,48.5241],[3.4487,48.5256],[3.4477,48.5274],[3.4454,48.5257],[3.4453,48.5244],[3.4478,48.5239],[3.4464,48.5230]]]}},{"type":"Feature","properties":{"name":"Bois des Fontemottes"},"geometry":{"type":"Polygon","coordinates":[[[3.4208,48.2213],[3.4185,48.2235],[3.4187,48.2212],[3.4163,48.2213],[3.4170,48.2175],[3.4127,48.2167],[3.4135,48.2161],[3.4119,48.2135],[3.4135,48.2118],[3.4041,48.2103],[3.4053,48.2085],[3.4112,48.2085],[3.4103,48.2079],[3.4122,48.2058],[3.4100,48.2065],[3.4088,48.2053],[3.4072,48.2079],[3.4065,48.2069],[3.3988,48.2094],[3.4010,48.2088],[3.4030,48.2098],[3.4026,48.2108],[3.3984,48.2114],[3.3973,48.2103],[3.3967,48.2130],[3.4026,48.2131],[3.4024,48.2173],[3.4004,48.2173],[3.3998,48.2187],[3.3962,48.2182],[3.3944,48.2142],[3.4000,48.2158],[3.4003,48.2148],[3.3934,48.2137],[3.3954,48.2184],[3.3936,48.2185],[3.3937,48.2203],[3.3921,48.2217],[3.3993,48.2222],[3.3973,48.2271],[3.4031,48.2277],[3.4022,48.2287],[3.4060,48.2301],[3.4063,48.2312],[3.4097,48.2295],[3.4112,48.2266],[3.4077,48.2255],[3.4084,48.2239],[3.4124,48.2235],[3.4131,48.2283],[3.4154,48.2298],[3.4169,48.2289],[3.4151,48.2257],[3.4220,48.2257],[3.4220,48.2244],[3.4203,48.2242],[3.4208,48.2213]]]}},{"type":"Feature","properties":{"name":"Forêt de Vauluisant"},"geometry":{"type":"Polygon","coordinates":[[[3.5048,48.3252],[3.5078,48.3228],[3.5095,48.3238],[3.5096,48.3255],[3.5119,48.3232],[3.5181,48.3272],[3.5211,48.3259],[3.5194,48.3255],[3.5211,48.3246],[3.5201,48.3244],[3.5227,48.3182],[3.5219,48.3171],[3.5102,48.3123],[3.5123,48.3096],[3.5077,48.3074],[3.5034,48.3058],[3.5033,48.3093],[3.5010,48.3126],[3.5029,48.3146],[3.5027,48.3164],[3.4979,48.3175],[3.4978,48.3130],[3.5028,48.3010],[3.4994,48.2988],[3.5030,48.2968],[3.5045,48.2981],[3.5091,48.2984],[3.5140,48.2952],[3.5164,48.2917],[3.5154,48.2905],[3.5204,48.2839],[3.5130,48.2829],[3.5164,48.2750],[3.5092,48.2714],[3.5062,48.2739],[3.5051,48.2743],[3.5045,48.2729],[3.5019,48.2740],[3.5041,48.2746],[3.5006,48.2760],[3.4991,48.2741],[3.4953,48.2755],[3.4865,48.2731],[3.4852,48.2712],[3.4845,48.2727],[3.4845,48.2711],[3.4840,48.2726],[3.4831,48.2723],[3.4826,48.2693],[3.4806,48.2686],[3.4768,48.2706],[3.4795,48.2683],[3.4765,48.2675],[3.4774,48.2684],[3.4741,48.2709],[3.4698,48.2709],[3.4683,48.2726],[3.4616,48.2733],[3.4571,48.2761],[3.4583,48.2800],[3.4662,48.2776],[3.4689,48.2803],[3.4633,48.2878],[3.4679,48.2885],[3.4772,48.2862],[3.4765,48.2880],[3.4731,48.2890],[3.4717,48.2920],[3.4823,48.2927],[3.4790,48.2951],[3.4713,48.2946],[3.4776,48.2962],[3.4788,48.2954],[3.4818,48.2984],[3.4803,48.2996],[3.4820,48.3003],[3.4806,48.3007],[3.4810,48.3021],[3.4769,48.3025],[3.4838,48.3041],[3.4810,48.3101],[3.4838,48.3099],[3.4843,48.3075],[3.4861,48.3077],[3.4860,48.3113],[3.4838,48.3121],[3.4846,48.3146],[3.4833,48.3187],[3.4853,48.3196],[3.4873,48.3187],[3.4880,48.3207],[3.4944,48.3223],[3.5032,48.3226],[3.5048,48.3252]]]}},{"type":"Feature","properties":{"name":"Forêt Domaniale de Sourdun"},"geometry":{"type":"Polygon","coordinates":[[[3.4072,48.5265],[3.4037,48.5264],[3.3991,48.5237],[3.3992,48.5218],[3.3943,48.5200],[3.3928,48.5207],[3.3940,48.5187],[3.3934,48.5164],[3.3847,48.5153],[3.3844,48.5132],[3.3798,48.5117],[3.3804,48.5098],[3.3775,48.5095],[3.3785,48.5075],[3.3772,48.5055],[3.3777,48.5014],[3.3726,48.5020],[3.3698,48.5002],[3.3647,48.5011],[3.3615,48.5082],[3.3581,48.5075],[3.3591,48.5052],[3.3523,48.5019],[3.3552,48.4967],[3.3503,48.4943],[3.3485,48.4961],[3.3490,48.4981],[3.3475,48.5010],[3.3483,48.5035],[3.3471,48.5058],[3.3444,48.5052],[3.3469,48.5000],[3.3421,48.4998],[3.3425,48.4979],[3.3392,48.4992],[3.3420,48.4954],[3.3436,48.4904],[3.3391,48.4896],[3.3389,48.4934],[3.3341,48.4961],[3.3332,48.4980],[3.3227,48.4956],[3.3237,48.4932],[3.3179,48.4914],[3.3165,48.4905],[3.3173,48.4888],[3.3136,48.4869],[3.3103,48.4900],[3.3075,48.4908],[3.3053,48.4898],[3.3046,48.4919],[3.2998,48.4913],[3.3001,48.4937],[3.2954,48.4918],[3.3017,48.4972],[3.3014,48.4991],[3.2969,48.5001],[3.2977,48.5012],[3.3022,48.5006],[3.3027,48.4992],[3.3068,48.4982],[3.3185,48.5000],[3.3351,48.5052],[3.3409,48.5049],[3.3486,48.5082],[3.3485,48.5091],[3.3500,48.5092],[3.3494,48.5134],[3.3555,48.5140],[3.3566,48.5153],[3.3583,48.5136],[3.3622,48.5131],[3.3642,48.5142],[3.3619,48.5164],[3.3688,48.5178],[3.3702,48.5169],[3.3696,48.5181],[3.3709,48.5184],[3.3722,48.5169],[3.3751,48.5175],[3.3738,48.5194],[3.3752,48.5196],[3.3765,48.5174],[3.3791,48.5189],[3.3787,48.5197],[3.3806,48.5198],[3.3798,48.5214],[3.3825,48.5209],[3.3857,48.5228],[3.3834,48.5269],[3.3798,48.5273],[3.3808,48.5294],[3.3787,48.5337],[3.3807,48.5337],[3.3810,48.5360],[3.3860,48.5353],[3.3861,48.5338],[3.3837,48.5338],[3.3837,48.5318],[3.3909,48.5306],[3.3928,48.5314],[3.3941,48.5298],[3.4038,48.5283],[3.4072,48.5265]]]}},{"type":"Feature","properties":{"name":"Forêt de Beaumont"},"geometry":{"type":"Polygon","coordinates":[[[3.5758,48.8491],[3.5736,48.8504],[3.5717,48.8552],[3.5693,48.8556],[3.5719,48.8613],[3.5732,48.8619],[3.5717,48.8596],[3.5755,48.8591],[3.5805,48.8643],[3.5845,48.8637],[3.5872,48.8661],[3.5854,48.8676],[3.5895,48.8710],[3.5972,48.8703],[3.5977,48.8755],[3.6007,48.8759],[3.6081,48.8727],[3.6059,48.8705],[3.6072,48.8700],[3.6064,48.8690],[3.6034,48.8697],[3.6033,48.8688],[3.6058,48.8684],[3.6029,48.8622],[3.6000,48.8622],[3.5992,48.8609],[3.6001,48.8609],[3.5956,48.8533],[3.5964,48.8520],[3.5868,48.8475],[3.5859,48.8488],[3.5804,48.8469],[3.5758,48.8491]]]}},{"type":"Feature","properties":{"name":"Forêt de Rouges Fossés"},"geometry":{"type":"Polygon","coordinates":[[[3.5413,48.9217],[3.5409,48.9230],[3.5460,48.9246],[3.5455,48.9253],[3.5517,48.9258],[3.5531,48.9255],[3.5490,48.9222],[3.5493,48.9207],[3.5563,48.9191],[3.5570,48.9209],[3.5587,48.9201],[3.5603,48.9218],[3.5630,48.9208],[3.5624,48.9228],[3.5653,48.9206],[3.5672,48.9216],[3.5712,48.9167],[3.5705,48.9151],[3.5666,48.9141],[3.5638,48.9107],[3.5598,48.9105],[3.5588,48.9091],[3.5631,48.9096],[3.5634,48.9067],[3.5606,48.9048],[3.5620,48.9024],[3.5608,48.9019],[3.5596,48.9033],[3.5582,48.9010],[3.5572,48.9050],[3.5516,48.9028],[3.5517,48.9009],[3.5561,48.9012],[3.5555,48.8999],[3.5580,48.8999],[3.5553,48.8996],[3.5564,48.8967],[3.5536,48.8966],[3.5539,48.8943],[3.5479,48.8953],[3.5457,48.8932],[3.5457,48.8909],[3.5437,48.8908],[3.5441,48.8878],[3.5433,48.8903],[3.5398,48.8907],[3.5398,48.8887],[3.5417,48.8873],[3.5406,48.8858],[3.5376,48.8905],[3.5348,48.8900],[3.5351,48.8891],[3.5304,48.8911],[3.5308,48.8930],[3.5352,48.8964],[3.5352,48.8980],[3.5315,48.8989],[3.5273,48.9026],[3.5277,48.9035],[3.5248,48.9049],[3.5272,48.9067],[3.5262,48.9070],[3.5277,48.9079],[3.5271,48.9086],[3.5288,48.9085],[3.5319,48.9112],[3.5312,48.9126],[3.5334,48.9134],[3.5330,48.9157],[3.5399,48.9176],[3.5451,48.9205],[3.5439,48.9218],[3.5477,48.9230],[3.5467,48.9239],[3.5413,48.9217]]]}},{"type":"Feature","properties":{"name":"Bois de Mainbœuf"},"geometry":{"type":"Polygon","coordinates":[[[3.4385,48.3042],[3.4415,48.3046],[3.4422,48.3029],[3.4449,48.3027],[3.4447,48.3017],[3.4512,48.3023],[3.4567,48.2998],[3.4588,48.2926],[3.4643,48.2919],[3.4449,48.2877],[3.4354,48.2909],[3.4332,48.2907],[3.4301,48.2868],[3.4248,48.2890],[3.4243,48.2899],[3.4264,48.2912],[3.4280,48.2905],[3.4276,48.2893],[3.4330,48.2917],[3.4271,48.2961],[3.4313,48.2989],[3.4337,48.3047],[3.4352,48.3043],[3.4358,48.3012],[3.4385,48.3042]]]}},{"type":"Feature","properties":{"name":"Bois de Bonnes"},"geometry":{"type":"Polygon","coordinates":[[[3.3211,49.1274],[3.3242,49.1277],[3.3228,49.1297],[3.3201,49.1307],[3.3284,49.1306],[3.3243,49.1334],[3.3303,49.1376],[3.3473,49.1352],[3.3488,49.1371],[3.3508,49.1360],[3.3495,49.1350],[3.3510,49.1338],[3.3543,49.1346],[3.3520,49.1326],[3.3597,49.1298],[3.3602,49.1264],[3.3557,49.1216],[3.3525,49.1235],[3.3534,49.1251],[3.3395,49.1321],[3.3378,49.1297],[3.3374,49.1309],[3.3338,49.1296],[3.3333,49.1288],[3.3347,49.1277],[3.3295,49.1280],[3.3247,49.1263],[3.3217,49.1272],[3.3182,49.1244],[3.3211,49.1274]]]}},{"type":"Feature","properties":{"name":"Bois de Bonnet"},"geometry":{"type":"Polygon","coordinates":[[[2.4404,49.1452],[2.4401,49.1463],[2.4350,49.1478],[2.4225,49.1497],[2.4225,49.1512],[2.4235,49.1512],[2.4216,49.1524],[2.4216,49.1538],[2.4156,49.1541],[2.4157,49.1561],[2.4122,49.1570],[2.4126,49.1521],[2.4148,49.1512],[2.4148,49.1485],[2.4029,49.1468],[2.4006,49.1477],[2.3963,49.1463],[2.3953,49.1474],[2.3942,49.1470],[2.3949,49.1460],[2.3931,49.1458],[2.3957,49.1483],[2.3933,49.1518],[2.3836,49.1554],[2.3799,49.1498],[2.3846,49.1491],[2.3850,49.1509],[2.3869,49.1512],[2.3902,49.1495],[2.3898,49.1478],[2.3852,49.1468],[2.3851,49.1458],[2.3886,49.1441],[2.3884,49.1418],[2.3864,49.1417],[2.3867,49.1436],[2.3846,49.1453],[2.3823,49.1458],[2.3857,49.1443],[2.3861,49.1417],[2.3850,49.1421],[2.3859,49.1428],[2.3837,49.1423],[2.3796,49.1445],[2.3862,49.1401],[2.3909,49.1424],[2.3940,49.1394],[2.4034,49.1387],[2.4235,49.1335],[2.4257,49.1349],[2.4309,49.1351],[2.4326,49.1321],[2.4354,49.1343],[2.4404,49.1452]]]}},{"type":"Feature","properties":{"name":"Bois de Borny"},"geometry":{"type":"Polygon","coordinates":[[[3.1433,49.1445],[3.1454,49.1469],[3.1337,49.1461],[3.1346,49.1457],[3.1328,49.1459],[3.1329,49.1470],[3.1263,49.1471],[3.1304,49.1461],[3.1244,49.1470],[3.1249,49.1487],[3.1317,49.1515],[3.1399,49.1521],[3.1393,49.1532],[3.1409,49.1535],[3.1398,49.1554],[3.1483,49.1610],[3.1472,49.1626],[3.1490,49.1657],[3.1550,49.1656],[3.1592,49.1635],[3.1594,49.1569],[3.1516,49.1554],[3.1525,49.1544],[3.1470,49.1496],[3.1473,49.1487],[3.1502,49.1517],[3.1455,49.1436],[3.1433,49.1445]]]}},{"type":"Feature","properties":{"name":"Forêt d\u0027Ermenonville"},"geometry":{"type":"Polygon","coordinates":[[[2.6965,49.1351],[2.6972,49.1366],[2.6952,49.1366],[2.6938,49.1348],[2.6912,49.1344],[2.6913,49.1310],[2.6897,49.1285],[2.6864,49.1291],[2.6858,49.1281],[2.6886,49.1270],[2.6841,49.1252],[2.6856,49.1247],[2.6869,49.1189],[2.6851,49.1160],[2.6909,49.1138],[2.6894,49.1086],[2.6862,49.1090],[2.6858,49.1108],[2.6841,49.1109],[2.6845,49.1092],[2.6825,49.1098],[2.6823,49.1089],[2.6811,49.1097],[2.6830,49.1101],[2.6832,49.1116],[2.6799,49.1134],[2.6795,49.1121],[2.6775,49.1130],[2.6743,49.1098],[2.6716,49.1089],[2.6678,49.1111],[2.6638,49.1099],[2.6532,49.1133],[2.6487,49.1093],[2.6420,49.1101],[2.6446,49.1106],[2.6453,49.1123],[2.6407,49.1160],[2.6431,49.1180],[2.6408,49.1178],[2.6414,49.1185],[2.6403,49.1190],[2.6399,49.1170],[2.6370,49.1168],[2.6336,49.1226],[2.6268,49.1224],[2.6268,49.1232],[2.6346,49.1229],[2.6403,49.1202],[2.6417,49.1207],[2.6409,49.1248],[2.6433,49.1260],[2.6407,49.1267],[2.6295,49.1248],[2.6265,49.1261],[2.6261,49.1281],[2.6287,49.1310],[2.6321,49.1325],[2.6403,49.1309],[2.6452,49.1326],[2.6416,49.1348],[2.6430,49.1371],[2.6472,49.1396],[2.6476,49.1424],[2.6496,49.1436],[2.6447,49.1457],[2.6452,49.1470],[2.6488,49.1474],[2.6486,49.1486],[2.6394,49.1477],[2.6379,49.1466],[2.6357,49.1468],[2.6353,49.1483],[2.6280,49.1488],[2.6254,49.1476],[2.6256,49.1467],[2.6280,49.1467],[2.6256,49.1442],[2.6275,49.1421],[2.6261,49.1420],[2.6264,49.1405],[2.6278,49.1399],[2.6245,49.1388],[2.6205,49.1406],[2.6211,49.1425],[2.6185,49.1446],[2.6148,49.1449],[2.6221,49.1464],[2.6227,49.1482],[2.6243,49.1487],[2.6234,49.1499],[2.6283,49.1502],[2.6232,49.1527],[2.6213,49.1503],[2.6199,49.1513],[2.6213,49.1529],[2.6207,49.1541],[2.6179,49.1546],[2.6199,49.1561],[2.6275,49.1519],[2.6294,49.1512],[2.6303,49.1522],[2.6308,49.1499],[2.6378,49.1522],[2.6408,49.1546],[2.6453,49.1531],[2.6469,49.1504],[2.6492,49.1506],[2.6486,49.1527],[2.6496,49.1549],[2.6529,49.1543],[2.6582,49.1512],[2.6627,49.1458],[2.6596,49.1438],[2.6594,49.1463],[2.6511,49.1483],[2.6502,49.1468],[2.6510,49.1455],[2.6523,49.1464],[2.6559,49.1455],[2.6583,49.1425],[2.6634,49.1436],[2.6650,49.1465],[2.6716,49.1428],[2.6736,49.1430],[2.6729,49.1419],[2.6761,49.1415],[2.6818,49.1418],[2.6821,49.1435],[2.6792,49.1463],[2.6884,49.1469],[2.6883,49.1494],[2.6901,49.1498],[2.6897,49.1514],[2.6934,49.1491],[2.6962,49.1496],[2.6931,49.1523],[2.6949,49.1529],[2.6935,49.1560],[2.6962,49.1563],[2.6957,49.1590],[2.6992,49.1595],[2.7013,49.1568],[2.7041,49.1576],[2.7097,49.1554],[2.7171,49.1577],[2.7175,49.1555],[2.7206,49.1554],[2.7230,49.1592],[2.7212,49.1557],[2.7231,49.1554],[2.7230,49.1544],[2.7315,49.1532],[2.7430,49.1546],[2.7466,49.1523],[2.7389,49.1405],[2.7403,49.1427],[2.7373,49.1428],[2.7373,49.1412],[2.7347,49.1405],[2.7275,49.1400],[2.7290,49.1382],[2.7278,49.1384],[2.7271,49.1374],[2.7282,49.1369],[2.7241,49.1330],[2.7254,49.1318],[2.7259,49.1264],[2.7205,49.1268],[2.7208,49.1295],[2.7181,49.1303],[2.7040,49.1287],[2.7027,49.1303],[2.7044,49.1312],[2.7016,49.1341],[2.6965,49.1351]]]}},{"type":"Feature","properties":{"name":"Forêt régionale de Montgé"},"geometry":{"type":"Polygon","coordinates":[[[2.7731,49.0220],[2.7690,49.0227],[2.7681,49.0200],[2.7652,49.0201],[2.7658,49.0212],[2.7630,49.0218],[2.7612,49.0196],[2.7616,49.0207],[2.7601,49.0211],[2.7608,49.0236],[2.7569,49.0233],[2.7616,49.0251],[2.7554,49.0260],[2.7532,49.0288],[2.7520,49.0283],[2.7486,49.0315],[2.7455,49.0324],[2.7480,49.0304],[2.7467,49.0301],[2.7462,49.0280],[2.7430,49.0273],[2.7413,49.0274],[2.7434,49.0301],[2.7374,49.0292],[2.7377,49.0307],[2.7331,49.0301],[2.7329,49.0319],[2.7313,49.0317],[2.7306,49.0250],[2.7285,49.0232],[2.7250,49.0239],[2.7219,49.0175],[2.7183,49.0173],[2.7169,49.0153],[2.7188,49.0186],[2.7158,49.0196],[2.7187,49.0196],[2.7230,49.0247],[2.7218,49.0255],[2.7232,49.0264],[2.7206,49.0303],[2.7245,49.0299],[2.7262,49.0340],[2.7215,49.0346],[2.7224,49.0386],[2.7214,49.0394],[2.7281,49.0410],[2.7306,49.0382],[2.7390,49.0379],[2.7468,49.0414],[2.7469,49.0466],[2.7522,49.0468],[2.7571,49.0463],[2.7580,49.0457],[2.7571,49.0458],[2.7571,49.0444],[2.7605,49.0433],[2.7566,49.0420],[2.7537,49.0362],[2.7602,49.0361],[2.7611,49.0336],[2.7648,49.0307],[2.7720,49.0316],[2.7710,49.0338],[2.7741,49.0336],[2.7771,49.0310],[2.7810,49.0317],[2.7816,49.0307],[2.7802,49.0297],[2.7825,49.0278],[2.7883,49.0298],[2.7940,49.0287],[2.7992,49.0306],[2.7996,49.0288],[2.8035,49.0276],[2.8019,49.0265],[2.8055,49.0256],[2.8043,49.0239],[2.8055,49.0231],[2.8007,49.0240],[2.8012,49.0249],[2.7987,49.0276],[2.7975,49.0245],[2.7942,49.0222],[2.7952,49.0199],[2.7996,49.0180],[2.8028,49.0182],[2.8053,49.0205],[2.8050,49.0225],[2.8099,49.0216],[2.8040,49.0183],[2.7990,49.0173],[2.7956,49.0191],[2.7947,49.0179],[2.7945,49.0205],[2.7902,49.0207],[2.7894,49.0179],[2.7865,49.0176],[2.7853,49.0198],[2.7799,49.0192],[2.7761,49.0221],[2.7737,49.0222],[2.7752,49.0229],[2.7731,49.0220]]]}},{"type":"Feature","properties":{"name":"Bois du Roi"},"geometry":{"type":"Polygon","coordinates":[[[2.8079,49.1476],[2.8086,49.1471],[2.8011,49.1442],[2.7970,49.1451],[2.8034,49.1514],[2.8176,49.1756],[2.8254,49.1779],[2.8261,49.1769],[2.8244,49.1759],[2.8301,49.1737],[2.8371,49.1744],[2.8356,49.1777],[2.8365,49.1797],[2.8434,49.1835],[2.8434,49.1856],[2.8404,49.1889],[2.8353,49.1888],[2.8379,49.1946],[2.8472,49.1953],[2.8461,49.1972],[2.8522,49.2005],[2.8622,49.2006],[2.8629,49.2016],[2.8670,49.2007],[2.8677,49.2018],[2.8714,49.2011],[2.8743,49.2017],[2.8761,49.2036],[2.8776,49.2018],[2.8793,49.2023],[2.8808,49.2043],[2.8793,49.2051],[2.8818,49.2064],[2.8816,49.2074],[2.8833,49.2072],[2.8818,49.2085],[2.8828,49.2091],[2.8827,49.2082],[2.8853,49.2086],[2.8833,49.2077],[2.8847,49.2073],[2.8938,49.2065],[2.8983,49.2066],[2.8992,49.2078],[2.8992,49.2057],[2.9008,49.2053],[2.9005,49.2034],[2.9044,49.2026],[2.9040,49.2001],[2.9068,49.1979],[2.9088,49.1987],[2.9071,49.1970],[2.9104,49.1951],[2.9072,49.1925],[2.9080,49.1917],[2.9058,49.1905],[2.9035,49.1916],[2.9021,49.1909],[2.9004,49.1891],[2.9029,49.1900],[2.9037,49.1892],[2.8960,49.1865],[2.8960,49.1851],[2.8908,49.1821],[2.8881,49.1832],[2.8865,49.1819],[2.8888,49.1811],[2.8842,49.1786],[2.8772,49.1811],[2.8757,49.1792],[2.8728,49.1802],[2.8702,49.1776],[2.8707,49.1809],[2.8696,49.1812],[2.8662,49.1781],[2.8661,49.1822],[2.8645,49.1781],[2.8616,49.1786],[2.8615,49.1775],[2.8598,49.1787],[2.8605,49.1757],[2.8595,49.1775],[2.8548,49.1763],[2.8543,49.1774],[2.8482,49.1750],[2.8504,49.1746],[2.8409,49.1722],[2.8406,49.1705],[2.8381,49.1696],[2.8439,49.1684],[2.8381,49.1690],[2.8389,49.1675],[2.8346,49.1671],[2.8328,49.1646],[2.8288,49.1632],[2.8278,49.1600],[2.8247,49.1580],[2.8182,49.1602],[2.8217,49.1618],[2.8265,49.1608],[2.8267,49.1624],[2.8225,49.1629],[2.8247,49.1645],[2.8213,49.1634],[2.8179,49.1635],[2.8177,49.1651],[2.8157,49.1651],[2.8155,49.1639],[2.8150,49.1650],[2.8116,49.1648],[2.8084,49.1598],[2.8096,49.1595],[2.8088,49.1583],[2.8108,49.1585],[2.8104,49.1572],[2.8073,49.1574],[2.8061,49.1554],[2.8079,49.1537],[2.8100,49.1549],[2.8100,49.1523],[2.8069,49.1490],[2.8079,49.1476]]]}},{"type":"Feature","properties":{"name":"Forêt domaniale de Montceaux"},"geometry":{"type":"Polygon","coordinates":[[[2.9954,48.9925],[2.9980,48.9937],[3.0012,48.9933],[2.9970,48.9926],[2.9982,48.9909],[3.0019,48.9925],[3.0031,48.9902],[3.0019,48.9893],[3.0040,48.9871],[3.0015,48.9879],[3.0027,48.9864],[3.0013,48.9868],[3.0020,48.9860],[2.9989,48.9843],[2.9999,48.9830],[2.9948,48.9823],[2.9940,48.9836],[2.9922,48.9834],[2.9931,48.9820],[2.9915,48.9801],[2.9917,48.9777],[2.9987,48.9760],[3.0042,48.9792],[3.0003,48.9786],[3.0044,48.9865],[3.0054,48.9856],[3.0092,48.9869],[3.0093,48.9812],[3.0167,48.9812],[3.0171,48.9787],[3.0144,48.9774],[3.0162,48.9765],[3.0112,48.9780],[3.0101,48.9765],[2.9990,48.9756],[3.0010,48.9750],[2.9988,48.9720],[2.9987,48.9659],[2.9977,48.9656],[3.0004,48.9615],[3.0081,48.9535],[3.0163,48.9494],[3.0180,48.9501],[3.0180,48.9486],[3.0244,48.9472],[3.0249,48.9483],[3.0237,48.9493],[3.0196,48.9497],[3.0296,48.9504],[3.0309,48.9501],[3.0301,48.9481],[3.0309,48.9472],[3.0290,48.9471],[3.0285,48.9496],[3.0274,48.9494],[3.0262,48.9470],[3.0232,48.9467],[3.0227,48.9443],[3.0210,48.9440],[3.0215,48.9418],[3.0204,48.9409],[3.0199,48.9426],[3.0146,48.9437],[3.0140,48.9456],[3.0123,48.9452],[3.0120,48.9415],[3.0115,48.9433],[3.0098,48.9433],[3.0124,48.9468],[3.0101,48.9469],[3.0125,48.9483],[3.0126,48.9496],[3.0065,48.9518],[3.0039,48.9503],[3.0045,48.9487],[3.0016,48.9481],[2.9979,48.9494],[2.9924,48.9477],[2.9715,48.9547],[2.9746,48.9579],[2.9735,48.9595],[2.9705,48.9586],[2.9707,48.9597],[2.9668,48.9598],[2.9632,48.9626],[2.9601,48.9617],[2.9736,48.9734],[2.9805,48.9770],[2.9814,48.9764],[2.9856,48.9784],[2.9908,48.9775],[2.9802,48.9780],[2.9812,48.9809],[2.9834,48.9814],[2.9818,48.9825],[2.9854,48.9818],[2.9884,48.9845],[2.9863,48.9898],[2.9954,48.9925]]]}},{"type":"Feature","properties":{"name":"Bois de Montigny"},"geometry":{"type":"Polygon","coordinates":[[[3.1381,49.1199],[3.1336,49.1181],[3.1311,49.1190],[3.1310,49.1157],[3.1265,49.1130],[3.1239,49.1134],[3.1223,49.1115],[3.1253,49.1108],[3.1187,49.1122],[3.1175,49.1108],[3.1202,49.1101],[3.1162,49.1099],[3.1208,49.1161],[3.1164,49.1173],[3.1127,49.1164],[3.1092,49.1179],[3.1078,49.1151],[3.1066,49.1153],[3.1072,49.1164],[3.1047,49.1172],[3.1056,49.1182],[3.0957,49.1248],[3.0956,49.1264],[3.0927,49.1241],[3.0901,49.1255],[3.0943,49.1288],[3.0952,49.1311],[3.0986,49.1316],[3.0921,49.1349],[3.0924,49.1375],[3.0914,49.1379],[3.0932,49.1377],[3.0934,49.1388],[3.0897,49.1385],[3.0913,49.1404],[3.0926,49.1402],[3.0936,49.1429],[3.1032,49.1484],[3.1060,49.1482],[3.1085,49.1462],[3.1234,49.1451],[3.1294,49.1439],[3.1292,49.1426],[3.1350,49.1427],[3.1301,49.1412],[3.1326,49.1389],[3.1349,49.1418],[3.1332,49.1391],[3.1380,49.1416],[3.1422,49.1403],[3.1502,49.1418],[3.1504,49.1406],[3.1523,49.1410],[3.1534,49.1395],[3.1560,49.1401],[3.1542,49.1368],[3.1481,49.1370],[3.1452,49.1351],[3.1418,49.1351],[3.1380,49.1272],[3.1387,49.1265],[3.1352,49.1239],[3.1375,49.1216],[3.1404,49.1209],[3.1381,49.1199]]]}},{"type":"Feature","properties":{"name":"Forêt Communale de Vendrest et Dhuisy"},"geometry":{"type":"Polygon","coordinates":[[[3.1152,49.0343],[3.1170,49.0347],[3.1137,49.0356],[3.1122,49.0352],[3.1128,49.0337],[3.1113,49.0347],[3.1100,49.0335],[3.1092,49.0348],[3.1088,49.0330],[3.1079,49.0333],[3.1080,49.0349],[3.1066,49.0341],[3.1060,49.0357],[3.1043,49.0348],[3.1048,49.0370],[3.1016,49.0349],[3.1004,49.0382],[3.1014,49.0370],[3.1029,49.0373],[3.1032,49.0390],[3.1066,49.0378],[3.1088,49.0386],[3.1078,49.0397],[3.1090,49.0388],[3.1117,49.0406],[3.1139,49.0405],[3.1119,49.0393],[3.1145,49.0384],[3.1130,49.0379],[3.1161,49.0396],[3.1216,49.0388],[3.1216,49.0406],[3.1241,49.0397],[3.1248,49.0413],[3.1258,49.0403],[3.1240,49.0386],[3.1294,49.0364],[3.1291,49.0352],[3.1341,49.0355],[3.1342,49.0379],[3.1329,49.0376],[3.1320,49.0395],[3.1285,49.0390],[3.1284,49.0432],[3.1263,49.0435],[3.1297,49.0432],[3.1299,49.0396],[3.1325,49.0405],[3.1339,49.0397],[3.1351,49.0421],[3.1342,49.0461],[3.1272,49.0468],[3.1212,49.0457],[3.1215,49.0473],[3.1184,49.0488],[3.1093,49.0511],[3.1153,49.0504],[3.1162,49.0512],[3.1129,49.0528],[3.1160,49.0541],[3.1157,49.0558],[3.1176,49.0547],[3.1188,49.0560],[3.1199,49.0545],[3.1226,49.0552],[3.1238,49.0536],[3.1226,49.0531],[3.1232,49.0522],[3.1264,49.0535],[3.1401,49.0477],[3.1414,49.0450],[3.1453,49.0432],[3.1430,49.0398],[3.1516,49.0344],[3.1525,49.0328],[3.1507,49.0316],[3.1514,49.0299],[3.1573,49.0317],[3.1589,49.0310],[3.1564,49.0308],[3.1571,49.0289],[3.1552,49.0283],[3.1583,49.0244],[3.1608,49.0233],[3.1610,49.0213],[3.1567,49.0169],[3.1544,49.0178],[3.1531,49.0210],[3.1496,49.0208],[3.1497,49.0235],[3.1433,49.0238],[3.1433,49.0258],[3.1398,49.0280],[3.1330,49.0273],[3.1318,49.0285],[3.1321,49.0270],[3.1307,49.0254],[3.1342,49.0262],[3.1339,49.0245],[3.1285,49.0249],[3.1304,49.0253],[3.1305,49.0285],[3.1317,49.0286],[3.1308,49.0314],[3.1288,49.0319],[3.1292,49.0327],[3.1279,49.0321],[3.1302,49.0344],[3.1252,49.0348],[3.1235,49.0329],[3.1258,49.0322],[3.1248,49.0297],[3.1265,49.0296],[3.1248,49.0293],[3.1263,49.0281],[3.1260,49.0266],[3.1237,49.0254],[3.1194,49.0259],[3.1186,49.0287],[3.1216,49.0303],[3.1193,49.0307],[3.1219,49.0334],[3.1175,49.0344],[3.1160,49.0338],[3.1166,49.0327],[3.1175,49.0334],[3.1197,49.0314],[3.1162,49.0301],[3.1148,49.0309],[3.1163,49.0305],[3.1169,49.0317],[3.1144,49.0324],[3.1131,49.0307],[3.1152,49.0343]]]}}]}