{"type":"FeatureCollection","features":[{"type":"Feature","properties":{"name":"Bois de Saint-Quintin"},"geometry":{"type":"Polygon","coordinates":[[[2.1170,43.9940],[2.1166,43.9920],[2.1191,43.9871],[2.1234,43.9835],[2.1246,43.9856],[2.1244,43.9896],[2.1267,43.9841],[2.1265,43.9829],[2.1244,43.9828],[2.1267,43.9805],[2.1286,43.9810],[2.1279,43.9802],[2.1292,43.9795],[2.1306,43.9805],[2.1321,43.9791],[2.1319,43.9775],[2.1294,43.9770],[2.1310,43.9752],[2.1297,43.9739],[2.1309,43.9709],[2.1331,43.9697],[2.1337,43.9660],[2.1356,43.9673],[2.1330,43.9726],[2.1357,43.9802],[2.1370,43.9788],[2.1361,43.9788],[2.1370,43.9771],[2.1360,43.9737],[2.1374,43.9732],[2.1354,43.9724],[2.1377,43.9715],[2.1359,43.9703],[2.1384,43.9670],[2.1435,43.9682],[2.1429,43.9697],[2.1447,43.9694],[2.1430,43.9745],[2.1415,43.9769],[2.1408,43.9764],[2.1423,43.9784],[2.1441,43.9744],[2.1458,43.9746],[2.1451,43.9738],[2.1468,43.9715],[2.1515,43.9725],[2.1536,43.9743],[2.1522,43.9725],[2.1554,43.9729],[2.1492,43.9706],[2.1488,43.9692],[2.1511,43.9669],[2.1489,43.9659],[2.1462,43.9677],[2.1404,43.9650],[2.1404,43.9634],[2.1419,43.9630],[2.1394,43.9627],[2.1391,43.9613],[2.1371,43.9632],[2.1357,43.9600],[2.1291,43.9592],[2.1309,43.9612],[2.1282,43.9618],[2.1279,43.9629],[2.1299,43.9657],[2.1317,43.9655],[2.1309,43.9673],[2.1285,43.9674],[2.1265,43.9702],[2.1283,43.9708],[2.1171,43.9780],[2.1144,43.9766],[2.1143,43.9744],[2.1206,43.9748],[2.1194,43.9745],[2.1212,43.9737],[2.1204,43.9716],[2.1227,43.9714],[2.1198,43.9699],[2.1206,43.9687],[2.1248,43.9684],[2.1249,43.9667],[2.1202,43.9670],[2.1223,43.9655],[2.1233,43.9614],[2.1266,43.9588],[2.1269,43.9569],[2.1205,43.9589],[2.1221,43.9597],[2.1212,43.9604],[2.1151,43.9597],[2.1215,43.9626],[2.1192,43.9636],[2.1203,43.9641],[2.1129,43.9648],[2.1101,43.9631],[2.1098,43.9644],[2.1056,43.9642],[2.1107,43.9651],[2.1105,43.9668],[2.1128,43.9660],[2.1123,43.9675],[2.1170,43.9662],[2.1128,43.9711],[2.1070,43.9725],[2.1039,43.9720],[2.1066,43.9740],[2.1061,43.9753],[2.0974,43.9786],[2.1027,43.9784],[2.1025,43.9814],[2.1034,43.9818],[2.1050,43.9807],[2.1055,43.9766],[2.1075,43.9761],[2.1078,43.9743],[2.1125,43.9741],[2.1124,43.9763],[2.1112,43.9770],[2.1142,43.9783],[2.1140,43.9810],[2.1106,43.9833],[2.1118,43.9850],[2.1160,43.9828],[2.1142,43.9860],[2.1176,43.9861],[2.1154,43.9889],[2.1171,43.9889],[2.1159,43.9918],[2.1170,43.9940]]]}},{"type":"Feature","properties":{"name":"Forêt domaniale de la Grésigne"},"geometry":{"type":"Polygon","coordinates":[[[1.7010,44.0207],[1.6991,44.0214],[1.6989,44.0244],[1.6998,44.0247],[1.6963,44.0263],[1.6998,44.0308],[1.7084,44.0363],[1.7107,44.0370],[1.7119,44.0358],[1.7118,44.0372],[1.7196,44.0371],[1.7216,44.0406],[1.7235,44.0413],[1.7334,44.0519],[1.7426,44.0549],[1.7475,44.0525],[1.7558,44.0522],[1.7586,44.0549],[1.7661,44.0536],[1.7709,44.0557],[1.7816,44.0532],[1.7815,44.0518],[1.7853,44.0498],[1.7850,44.0456],[1.7945,44.0393],[1.7992,44.0316],[1.7996,44.0283],[1.8055,44.0206],[1.8033,44.0211],[1.7981,44.0121],[1.7931,44.0138],[1.7895,44.0108],[1.7834,44.0104],[1.7855,44.0060],[1.7850,44.0048],[1.7619,44.0011],[1.7611,43.9993],[1.7548,44.0004],[1.7490,44.0045],[1.7410,44.0035],[1.7405,44.0055],[1.7363,44.0074],[1.7355,44.0065],[1.7351,44.0086],[1.7371,44.0097],[1.7364,44.0107],[1.7377,44.0122],[1.7308,44.0107],[1.7295,44.0107],[1.7297,44.0119],[1.7271,44.0114],[1.7250,44.0073],[1.7221,44.0078],[1.7196,44.0062],[1.7191,44.0053],[1.7206,44.0040],[1.7179,44.0044],[1.7147,44.0076],[1.7119,44.0053],[1.7090,44.0064],[1.7112,44.0108],[1.7049,44.0120],[1.7000,44.0154],[1.7010,44.0207]]]}},{"type":"Feature","properties":{"name":"Forêt de Buzet"},"geometry":{"type":"Polygon","coordinates":[[[1.5699,43.7837],[1.5675,43.7806],[1.5653,43.7737],[1.5663,43.7711],[1.5638,43.7663],[1.5704,43.7551],[1.5708,43.7525],[1.5733,43.7510],[1.5852,43.7506],[1.5860,43.7485],[1.5820,43.7488],[1.5834,43.7463],[1.5774,43.7469],[1.5839,43.7420],[1.5851,43.7430],[1.5839,43.7437],[1.5849,43.7466],[1.5870,43.7477],[1.5918,43.7440],[1.5972,43.7454],[1.5914,43.7514],[1.5992,43.7553],[1.5972,43.7567],[1.5973,43.7583],[1.5988,43.7557],[1.5979,43.7579],[1.5995,43.7569],[1.5965,43.7630],[1.5974,43.7637],[1.5908,43.7677],[1.5917,43.7685],[1.5858,43.7751],[1.5852,43.7776],[1.5820,43.7801],[1.5808,43.7840],[1.5776,43.7865],[1.5845,43.7857],[1.5848,43.7865],[1.5740,43.7880],[1.5727,43.7871],[1.5738,43.7867],[1.5699,43.7837]]]}},{"type":"Feature","properties":{"name":"Domaine de chasse de Sourbil"},"geometry":{"type":"Polygon","coordinates":[[[1.7735,44.1285],[1.7714,44.1259],[1.7715,44.1234],[1.7590,44.1258],[1.7576,44.1248],[1.7565,44.1260],[1.7574,44.1310],[1.7563,44.1366],[1.7564,44.1385],[1.7585,44.1404],[1.7542,44.1421],[1.7571,44.1439],[1.7793,44.1431],[1.7799,44.1399],[1.7766,44.1369],[1.7779,44.1299],[1.7735,44.1285]]]}},{"type":"Feature","properties":{"name":"Dreulhe"},"geometry":{"type":"Polygon","coordinates":[[[2.0888,43.6059],[2.0870,43.6070],[2.0845,43.6060],[2.0860,43.6053],[2.0818,43.6029],[2.0802,43.5995],[2.0724,43.5971],[2.0751,43.5942],[2.0747,43.5967],[2.0760,43.5968],[2.0764,43.5954],[2.0825,43.5949],[2.0799,43.5951],[2.0797,43.5922],[2.0779,43.5926],[2.0779,43.5915],[2.0797,43.5917],[2.0786,43.5903],[2.0803,43.5891],[2.0776,43.5895],[2.0777,43.5876],[2.0736,43.5888],[2.0729,43.5877],[2.0696,43.5874],[2.0686,43.5882],[2.0706,43.5894],[2.0674,43.5911],[2.0680,43.5924],[2.0709,43.5920],[2.0719,43.5907],[2.0769,43.5906],[2.0689,43.5950],[2.0680,43.5968],[2.0692,43.5972],[2.0680,43.5982],[2.0717,43.6000],[2.0753,43.5990],[2.0788,43.5998],[2.0812,43.6016],[2.0805,43.6033],[2.0821,43.6057],[2.0779,43.6075],[2.0827,43.6065],[2.0833,43.6096],[2.0818,43.6102],[2.0842,43.6113],[2.0847,43.6140],[2.0838,43.6159],[2.0789,43.6168],[2.0764,43.6144],[2.0713,43.6148],[2.0707,43.6135],[2.0676,43.6145],[2.0672,43.6103],[2.0655,43.6084],[2.0669,43.6078],[2.0667,43.6053],[2.0643,43.6056],[2.0659,43.6119],[2.0628,43.6128],[2.0627,43.6141],[2.0653,43.6152],[2.0656,43.6170],[2.0692,43.6183],[2.0694,43.6198],[2.0684,43.6200],[2.0700,43.6232],[2.0686,43.6239],[2.0702,43.6248],[2.0779,43.6198],[2.0925,43.6180],[2.0849,43.6173],[2.0752,43.6199],[2.0846,43.6169],[2.0865,43.6145],[2.0933,43.6154],[2.0929,43.6169],[2.0965,43.6154],[2.0892,43.6145],[2.0880,43.6121],[2.0852,43.6116],[2.0868,43.6082],[2.0899,43.6106],[2.0939,43.6105],[2.0973,43.6085],[2.0959,43.6040],[2.0869,43.6036],[2.0875,43.6051],[2.0895,43.6049],[2.0888,43.6059]]]}},{"type":"Feature","properties":{"name":"Bois Noir"},"geometry":{"type":"Polygon","coordinates":[[[2.7651,43.9615],[2.7596,43.9584],[2.7553,43.9602],[2.7546,43.9626],[2.7487,43.9623],[2.7457,43.9640],[2.7493,43.9667],[2.7454,43.9661],[2.7452,43.9676],[2.7481,43.9672],[2.7513,43.9696],[2.7484,43.9690],[2.7489,43.9682],[2.7479,43.9678],[2.7462,43.9701],[2.7471,43.9712],[2.7489,43.9709],[2.7507,43.9725],[2.7503,43.9710],[2.7521,43.9717],[2.7570,43.9689],[2.7523,43.9647],[2.7550,43.9636],[2.7565,43.9679],[2.7594,43.9697],[2.7617,43.9733],[2.7600,43.9745],[2.7566,43.9738],[2.7558,43.9731],[2.7585,43.9714],[2.7568,43.9703],[2.7538,43.9721],[2.7528,43.9751],[2.7519,43.9745],[2.7535,43.9740],[2.7508,43.9727],[2.7468,43.9750],[2.7437,43.9745],[2.7429,43.9754],[2.7444,43.9767],[2.7478,43.9762],[2.7509,43.9775],[2.7477,43.9772],[2.7438,43.9793],[2.7455,43.9804],[2.7450,43.9787],[2.7463,43.9803],[2.7496,43.9802],[2.7459,43.9808],[2.7477,43.9826],[2.7500,43.9825],[2.7517,43.9861],[2.7558,43.9861],[2.7560,43.9846],[2.7531,43.9842],[2.7545,43.9838],[2.7540,43.9826],[2.7648,43.9827],[2.7667,43.9787],[2.7659,43.9811],[2.7718,43.9821],[2.7754,43.9803],[2.7734,43.9789],[2.7745,43.9775],[2.7755,43.9808],[2.7781,43.9795],[2.7783,43.9806],[2.7766,43.9812],[2.7789,43.9814],[2.7789,43.9834],[2.7813,43.9855],[2.7825,43.9832],[2.7802,43.9806],[2.7789,43.9749],[2.7766,43.9736],[2.7810,43.9694],[2.7792,43.9701],[2.7778,43.9685],[2.7771,43.9705],[2.7755,43.9699],[2.7725,43.9723],[2.7729,43.9739],[2.7693,43.9738],[2.7691,43.9707],[2.7711,43.9690],[2.7752,43.9687],[2.7750,43.9665],[2.7726,43.9646],[2.7744,43.9668],[2.7712,43.9687],[2.7683,43.9675],[2.7701,43.9664],[2.7690,43.9651],[2.7663,43.9654],[2.7687,43.9636],[2.7645,43.9641],[2.7659,43.9633],[2.7651,43.9615]]]}}]}