{"type":"FeatureCollection","features":[{"type":"Feature","properties":{"name":"Forêt domaniale de la Grésigne"},"geometry":{"type":"Polygon","coordinates":[[[1.7010,44.0207],[1.6991,44.0214],[1.6989,44.0244],[1.6998,44.0247],[1.6963,44.0263],[1.6998,44.0308],[1.7084,44.0363],[1.7107,44.0370],[1.7119,44.0358],[1.7118,44.0372],[1.7196,44.0371],[1.7216,44.0406],[1.7235,44.0413],[1.7334,44.0519],[1.7426,44.0549],[1.7475,44.0525],[1.7558,44.0522],[1.7586,44.0549],[1.7661,44.0536],[1.7709,44.0557],[1.7816,44.0532],[1.7815,44.0518],[1.7853,44.0498],[1.7850,44.0456],[1.7945,44.0393],[1.7992,44.0316],[1.7996,44.0283],[1.8055,44.0206],[1.8033,44.0211],[1.7981,44.0121],[1.7931,44.0138],[1.7895,44.0108],[1.7834,44.0104],[1.7855,44.0060],[1.7850,44.0048],[1.7619,44.0011],[1.7611,43.9993],[1.7548,44.0004],[1.7490,44.0045],[1.7410,44.0035],[1.7405,44.0055],[1.7363,44.0074],[1.7355,44.0065],[1.7351,44.0086],[1.7371,44.0097],[1.7364,44.0107],[1.7377,44.0122],[1.7308,44.0107],[1.7295,44.0107],[1.7297,44.0119],[1.7271,44.0114],[1.7250,44.0073],[1.7221,44.0078],[1.7196,44.0062],[1.7191,44.0053],[1.7206,44.0040],[1.7179,44.0044],[1.7147,44.0076],[1.7119,44.0053],[1.7090,44.0064],[1.7112,44.0108],[1.7049,44.0120],[1.7000,44.0154],[1.7010,44.0207]]]}},{"type":"Feature","properties":{"name":"Forêt de Buzet"},"geometry":{"type":"Polygon","coordinates":[[[1.5699,43.7837],[1.5675,43.7806],[1.5653,43.7737],[1.5663,43.7711],[1.5638,43.7663],[1.5704,43.7551],[1.5708,43.7525],[1.5733,43.7510],[1.5852,43.7506],[1.5860,43.7485],[1.5820,43.7488],[1.5834,43.7463],[1.5774,43.7469],[1.5839,43.7420],[1.5851,43.7430],[1.5839,43.7437],[1.5849,43.7466],[1.5870,43.7477],[1.5918,43.7440],[1.5972,43.7454],[1.5914,43.7514],[1.5992,43.7553],[1.5972,43.7567],[1.5973,43.7583],[1.5988,43.7557],[1.5979,43.7579],[1.5995,43.7569],[1.5965,43.7630],[1.5974,43.7637],[1.5908,43.7677],[1.5917,43.7685],[1.5858,43.7751],[1.5852,43.7776],[1.5820,43.7801],[1.5808,43.7840],[1.5776,43.7865],[1.5845,43.7857],[1.5848,43.7865],[1.5740,43.7880],[1.5727,43.7871],[1.5738,43.7867],[1.5699,43.7837]]]}},{"type":"Feature","properties":{"name":"Forêt du Burgaud"},"geometry":{"type":"Polygon","coordinates":[[[1.1154,43.7969],[1.1153,43.7981],[1.1289,43.7974],[1.1248,43.7920],[1.1255,43.7891],[1.1328,43.7902],[1.1289,43.7910],[1.1367,43.7917],[1.1355,43.7913],[1.1350,43.7870],[1.1270,43.7870],[1.1276,43.7839],[1.1168,43.7837],[1.1128,43.7813],[1.1035,43.7836],[1.1040,43.7854],[1.1029,43.7855],[1.1062,43.7872],[1.1044,43.7876],[1.1043,43.7887],[1.1083,43.7873],[1.1118,43.7884],[1.1115,43.7892],[1.1135,43.7887],[1.1123,43.7903],[1.1159,43.7911],[1.1170,43.7942],[1.1154,43.7969]]]}},{"type":"Feature","properties":{"name":"Domaine de chasse de Sourbil"},"geometry":{"type":"Polygon","coordinates":[[[1.7735,44.1285],[1.7714,44.1259],[1.7715,44.1234],[1.7590,44.1258],[1.7576,44.1248],[1.7565,44.1260],[1.7574,44.1310],[1.7563,44.1366],[1.7564,44.1385],[1.7585,44.1404],[1.7542,44.1421],[1.7571,44.1439],[1.7793,44.1431],[1.7799,44.1399],[1.7766,44.1369],[1.7779,44.1299],[1.7735,44.1285]]]}},{"type":"Feature","properties":{"name":"Forêt domaniale d\u0027Agre"},"geometry":{"type":"Polygon","coordinates":[[[1.2573,43.9270],[1.2588,43.9236],[1.2583,43.9207],[1.2583,43.9225],[1.2557,43.9227],[1.2562,43.9208],[1.2582,43.9206],[1.2581,43.9147],[1.2566,43.9145],[1.2576,43.9154],[1.2556,43.9172],[1.2563,43.9190],[1.2522,43.9198],[1.2531,43.9209],[1.2492,43.9211],[1.2493,43.9236],[1.2514,43.9241],[1.2505,43.9276],[1.2436,43.9302],[1.2421,43.9321],[1.2424,43.9349],[1.2392,43.9377],[1.2437,43.9376],[1.2511,43.9279],[1.2566,43.9275],[1.2550,43.9348],[1.2658,43.9388],[1.2648,43.9415],[1.2537,43.9392],[1.2541,43.9456],[1.2564,43.9491],[1.2537,43.9552],[1.2586,43.9563],[1.2580,43.9592],[1.2596,43.9619],[1.2567,43.9680],[1.2514,43.9704],[1.2500,43.9698],[1.2533,43.9741],[1.2497,43.9761],[1.2510,43.9768],[1.2499,43.9774],[1.2519,43.9801],[1.2535,43.9786],[1.2557,43.9795],[1.2543,43.9804],[1.2635,43.9743],[1.2800,43.9602],[1.2801,43.9590],[1.2841,43.9572],[1.2809,43.9555],[1.2822,43.9546],[1.2844,43.9568],[1.2885,43.9528],[1.2760,43.9411],[1.2886,43.9527],[1.2986,43.9371],[1.2976,43.9364],[1.2980,43.9346],[1.2957,43.9329],[1.2982,43.9317],[1.2976,43.9303],[1.2943,43.9311],[1.2910,43.9296],[1.2923,43.9287],[1.2913,43.9277],[1.2881,43.9287],[1.2832,43.9255],[1.2812,43.9285],[1.2833,43.9301],[1.2827,43.9318],[1.2785,43.9308],[1.2776,43.9323],[1.2733,43.9316],[1.2736,43.9285],[1.2705,43.9276],[1.2716,43.9251],[1.2711,43.9215],[1.2686,43.9218],[1.2691,43.9253],[1.2673,43.9273],[1.2654,43.9278],[1.2622,43.9261],[1.2602,43.9275],[1.2573,43.9270]]]}}]}