{"type":"FeatureCollection","features":[{"type":"Feature","properties":{"name":"Bois de Gourdon"},"geometry":{"type":"Polygon","coordinates":[[[6.9610,43.7005],[6.9640,43.7029],[6.9700,43.7038],[6.9715,43.7053],[6.9709,43.7062],[6.9749,43.7080],[6.9747,43.7096],[6.9718,43.7101],[6.9735,43.7131],[6.9734,43.7163],[6.9684,43.7179],[6.9672,43.7200],[6.9615,43.7201],[6.9605,43.7176],[6.9530,43.7137],[6.9567,43.7110],[6.9547,43.7060],[6.9574,43.7059],[6.9596,43.7076],[6.9618,43.7050],[6.9550,43.7019],[6.9610,43.7005]]]}},{"type":"Feature","properties":{"name":"Massif du Mai ou de Sicié"},"geometry":{"type":"Polygon","coordinates":[[[5.8678,43.0620],[5.8698,43.0653],[5.8721,43.0659],[5.8657,43.0700],[5.8693,43.0719],[5.8691,43.0740],[5.8719,43.0746],[5.8702,43.0782],[5.8659,43.0805],[5.8598,43.0806],[5.8614,43.0762],[5.8577,43.0722],[5.8544,43.0715],[5.8537,43.0724],[5.8550,43.0734],[5.8530,43.0741],[5.8536,43.0754],[5.8496,43.0773],[5.8495,43.0790],[5.8454,43.0794],[5.8474,43.0818],[5.8500,43.0819],[5.8512,43.0849],[5.8480,43.0864],[5.8455,43.0855],[5.8434,43.0820],[5.8370,43.0799],[5.8319,43.0803],[5.8296,43.0785],[5.8298,43.0762],[5.8322,43.0764],[5.8305,43.0741],[5.8323,43.0735],[5.8282,43.0701],[5.8247,43.0689],[5.8190,43.0705],[5.8177,43.0682],[5.8232,43.0667],[5.8215,43.0639],[5.8219,43.0618],[5.8194,43.0583],[5.8211,43.0577],[5.8213,43.0554],[5.8288,43.0537],[5.8305,43.0504],[5.8334,43.0525],[5.8466,43.0535],[5.8539,43.0529],[5.8607,43.0484],[5.8627,43.0520],[5.8619,43.0550],[5.8628,43.0576],[5.8678,43.0620]]]}},{"type":"Feature","properties":{"name":"Forêt des Mayons"},"geometry":{"type":"Polygon","coordinates":[[[6.2579,43.2858],[6.2546,43.2909],[6.2577,43.2902],[6.2568,43.2890],[6.2590,43.2898],[6.2635,43.2873],[6.2590,43.2864],[6.2645,43.2870],[6.2727,43.2827],[6.2567,43.2914],[6.2596,43.2930],[6.2628,43.2923],[6.2603,43.2929],[6.2608,43.2940],[6.2696,43.2925],[6.2649,43.2940],[6.2699,43.2963],[6.2775,43.2970],[6.2834,43.2954],[6.2774,43.2975],[6.2744,43.2965],[6.2696,43.2970],[6.2618,43.2948],[6.2709,43.3033],[6.2741,43.3045],[6.2773,43.3025],[6.2761,43.3050],[6.2793,43.3039],[6.2800,43.3057],[6.2803,43.3044],[6.2810,43.3054],[6.2826,43.3036],[6.2844,43.3041],[6.2861,43.3016],[6.2881,43.3046],[6.2942,43.3028],[6.2953,43.3041],[6.2959,43.3028],[6.2970,43.3050],[6.2958,43.3055],[6.2961,43.3066],[6.2979,43.3067],[6.2979,43.3086],[6.3002,43.3105],[6.3015,43.3109],[6.3029,43.3091],[6.3073,43.3095],[6.3092,43.3071],[6.3088,43.3091],[6.3138,43.3092],[6.3127,43.3094],[6.3129,43.3108],[6.3087,43.3110],[6.3115,43.3125],[6.3106,43.3154],[6.3151,43.3136],[6.3159,43.3118],[6.3149,43.3104],[6.3175,43.3096],[6.3212,43.3111],[6.3251,43.3090],[6.3268,43.3108],[6.3258,43.3114],[6.3342,43.3163],[6.3353,43.3156],[6.3354,43.3170],[6.3414,43.3198],[6.3391,43.3184],[6.3396,43.3174],[6.3456,43.3191],[6.3461,43.3175],[6.3480,43.3167],[6.3487,43.3177],[6.3548,43.3168],[6.3534,43.3149],[6.3570,43.3145],[6.3572,43.3128],[6.3560,43.3125],[6.3574,43.3114],[6.3603,43.3119],[6.3602,43.3107],[6.3490,43.3046],[6.3454,43.3066],[6.3497,43.3085],[6.3530,43.3134],[6.3509,43.3155],[6.3472,43.3132],[6.3450,43.3150],[6.3424,43.3148],[6.3446,43.3132],[6.3423,43.3110],[6.3312,43.3070],[6.3292,43.3077],[6.3255,43.3067],[6.3260,43.3052],[6.3271,43.3054],[6.3271,43.3032],[6.3288,43.3035],[6.3281,43.3019],[6.3239,43.3006],[6.3235,43.2944],[6.3258,43.2947],[6.3295,43.2917],[6.3289,43.2961],[6.3322,43.3042],[6.3349,43.3060],[6.3368,43.3012],[6.3354,43.3003],[6.3327,43.2913],[6.3346,43.2918],[6.3382,43.2990],[6.3437,43.3022],[6.3447,43.3015],[6.3445,43.2967],[6.3418,43.2981],[6.3400,43.2950],[6.3340,43.2902],[6.3375,43.2901],[6.3397,43.2927],[6.3415,43.2923],[6.3390,43.2898],[6.3392,43.2873],[6.3432,43.2869],[6.3514,43.2953],[6.3499,43.3004],[6.3509,43.3037],[6.3544,43.3048],[6.3567,43.3038],[6.3560,43.3004],[6.3591,43.2992],[6.3572,43.2952],[6.3589,43.2948],[6.3661,43.2982],[6.3664,43.2964],[6.3656,43.2938],[6.3637,43.2929],[6.3594,43.2933],[6.3595,43.2895],[6.3489,43.2880],[6.3468,43.2859],[6.3484,43.2829],[6.3478,43.2810],[6.3432,43.2798],[6.3393,43.2798],[6.3394,43.2814],[6.3374,43.2815],[6.3378,43.2827],[6.3335,43.2822],[6.3341,43.2841],[6.3194,43.2831],[6.3179,43.2843],[6.3226,43.2869],[6.3190,43.2870],[6.3186,43.2859],[6.3113,43.2875],[6.3079,43.2829],[6.2897,43.2814],[6.2858,43.2788],[6.2672,43.2724],[6.2646,43.2728],[6.2635,43.2788],[6.2579,43.2858]]]}},{"type":"Feature","properties":{"name":"Forêt Domaniale de Sainte-Maxime"},"geometry":{"type":"Polygon","coordinates":[[[6.6135,43.3189],[6.6115,43.3162],[6.6134,43.3152],[6.6216,43.3190],[6.6267,43.3179],[6.6239,43.3175],[6.6199,43.3147],[6.6220,43.3115],[6.6203,43.3101],[6.6181,43.3116],[6.6137,43.3095],[6.6131,43.3080],[6.6096,43.3096],[6.6072,43.3088],[6.6093,43.3057],[6.6035,43.3076],[6.6025,43.3066],[6.6031,43.3033],[6.5941,43.3079],[6.5941,43.3106],[6.5910,43.3133],[6.5916,43.3202],[6.5862,43.3217],[6.5898,43.3267],[6.5935,43.3262],[6.5931,43.3252],[6.6025,43.3253],[6.6015,43.3226],[6.6030,43.3227],[6.6018,43.3238],[6.6027,43.3253],[6.6067,43.3257],[6.6093,43.3241],[6.6100,43.3261],[6.6120,43.3228],[6.6141,43.3242],[6.6133,43.3258],[6.6149,43.3262],[6.6157,43.3260],[6.6140,43.3252],[6.6149,43.3241],[6.6166,43.3254],[6.6190,43.3239],[6.6202,43.3214],[6.6183,43.3217],[6.6186,43.3229],[6.6177,43.3231],[6.6150,43.3215],[6.6155,43.3225],[6.6144,43.3230],[6.6137,43.3223],[6.6150,43.3215],[6.6135,43.3189]]]}},{"type":"Feature","properties":{"name":"Bois des Prannes"},"geometry":{"type":"Polygon","coordinates":[[[6.4625,43.5662],[6.4565,43.5672],[6.4503,43.5658],[6.4449,43.5675],[6.4480,43.5679],[6.4441,43.5694],[6.4426,43.5678],[6.4354,43.5682],[6.4370,43.5671],[6.4373,43.5682],[6.4441,43.5676],[6.4503,43.5653],[6.4610,43.5660],[6.4598,43.5626],[6.4569,43.5630],[6.4591,43.5618],[6.4565,43.5584],[6.4556,43.5576],[6.4546,43.5588],[6.4503,43.5566],[6.4523,43.5548],[6.4499,43.5564],[6.4499,43.5577],[6.4447,43.5573],[6.4440,43.5588],[6.4423,43.5576],[6.4403,43.5589],[6.4393,43.5580],[6.4385,43.5594],[6.4355,43.5581],[6.4320,43.5592],[6.4329,43.5583],[6.4315,43.5572],[6.4316,43.5583],[6.4267,43.5600],[6.4247,43.5626],[6.4259,43.5625],[6.4256,43.5665],[6.4279,43.5670],[6.4308,43.5657],[6.4362,43.5694],[6.4366,43.5709],[6.4356,43.5712],[6.4366,43.5722],[6.4495,43.5728],[6.4509,43.5751],[6.4600,43.5693],[6.4599,43.5684],[6.4635,43.5674],[6.4652,43.5687],[6.4625,43.5662]]]}},{"type":"Feature","properties":{"name":"Bois Panisse"},"geometry":{"type":"Polygon","coordinates":[[[6.4873,43.5569],[6.4893,43.5535],[6.4841,43.5503],[6.4827,43.5480],[6.4869,43.5450],[6.4868,43.5438],[6.4890,43.5443],[6.4935,43.5429],[6.4921,43.5457],[6.5016,43.5462],[6.5066,43.5492],[6.5068,43.5478],[6.5077,43.5480],[6.5090,43.5495],[6.5038,43.5507],[6.5059,43.5545],[6.5015,43.5591],[6.5036,43.5589],[6.5046,43.5609],[6.4990,43.5626],[6.5013,43.5642],[6.4993,43.5650],[6.4987,43.5637],[6.4935,43.5645],[6.4918,43.5659],[6.4878,43.5659],[6.4841,43.5619],[6.4870,43.5591],[6.4873,43.5569]]]}},{"type":"Feature","properties":{"name":"Bois de la Gaillarde"},"geometry":{"type":"Polygon","coordinates":[[[6.6909,43.3776],[6.6874,43.3761],[6.6858,43.3727],[6.6836,43.3713],[6.6869,43.3639],[6.6906,43.3624],[6.6910,43.3594],[6.6920,43.3602],[6.6937,43.3583],[6.7013,43.3555],[6.7118,43.3586],[6.7121,43.3599],[6.7103,43.3598],[6.7087,43.3621],[6.7126,43.3636],[6.7086,43.3640],[6.7107,43.3653],[6.7088,43.3674],[6.7064,43.3670],[6.6997,43.3696],[6.7038,43.3681],[6.7056,43.3689],[6.7003,43.3737],[6.7020,43.3737],[6.7008,43.3748],[6.7021,43.3758],[6.7001,43.3771],[6.7078,43.3855],[6.7079,43.3873],[6.7051,43.3909],[6.7071,43.3933],[6.7000,43.3927],[6.6989,43.3911],[6.6934,43.3891],[6.6910,43.3863],[6.6921,43.3839],[6.6910,43.3831],[6.6938,43.3798],[6.6909,43.3776]]]}}]}