{"type":"FeatureCollection","features":[{"type":"Feature","properties":{"name":"Bois de Bussières"},"geometry":{"type":"Polygon","coordinates":[[[5.5635,47.8014],[5.5611,47.8003],[5.5638,47.7970],[5.5679,47.7969],[5.5702,47.7981],[5.5739,47.7976],[5.5746,47.7960],[5.5776,47.7962],[5.5746,47.7937],[5.5716,47.7945],[5.5669,47.7930],[5.5700,47.7924],[5.5675,47.7920],[5.5678,47.7906],[5.5742,47.7930],[5.5780,47.7912],[5.5744,47.7915],[5.5728,47.7888],[5.5730,47.7858],[5.5763,47.7849],[5.5718,47.7850],[5.5719,47.7839],[5.5698,47.7869],[5.5673,47.7870],[5.5687,47.7833],[5.5652,47.7823],[5.5647,47.7781],[5.5612,47.7783],[5.5649,47.7765],[5.5627,47.7719],[5.5650,47.7700],[5.5646,47.7684],[5.5623,47.7669],[5.5609,47.7610],[5.5562,47.7565],[5.5545,47.7571],[5.5521,47.7556],[5.5564,47.7600],[5.5596,47.7615],[5.5606,47.7638],[5.5569,47.7645],[5.5520,47.7619],[5.5506,47.7635],[5.5541,47.7640],[5.5524,47.7655],[5.5541,47.7665],[5.5519,47.7678],[5.5502,47.7661],[5.5472,47.7654],[5.5460,47.7594],[5.5418,47.7579],[5.5436,47.7569],[5.5412,47.7563],[5.5424,47.7548],[5.5376,47.7548],[5.5375,47.7526],[5.5363,47.7528],[5.5355,47.7514],[5.5322,47.7520],[5.5310,47.7509],[5.5328,47.7511],[5.5308,47.7499],[5.5290,47.7507],[5.5304,47.7518],[5.5272,47.7531],[5.5254,47.7513],[5.5233,47.7519],[5.5207,47.7511],[5.5153,47.7458],[5.5146,47.7463],[5.5205,47.7517],[5.5196,47.7522],[5.5153,47.7490],[5.5137,47.7502],[5.5127,47.7495],[5.5108,47.7516],[5.5141,47.7536],[5.5174,47.7529],[5.5185,47.7542],[5.5160,47.7546],[5.5139,47.7572],[5.5128,47.7564],[5.5121,47.7585],[5.5138,47.7587],[5.5094,47.7605],[5.5118,47.7611],[5.5028,47.7617],[5.4971,47.7670],[5.5006,47.7676],[5.4995,47.7697],[5.5002,47.7728],[5.5060,47.7767],[5.5053,47.7775],[5.4994,47.7748],[5.5091,47.7824],[5.5070,47.7855],[5.5073,47.7827],[5.5066,47.7841],[5.5050,47.7839],[5.5020,47.7801],[5.4974,47.7799],[5.4988,47.7798],[5.4998,47.7822],[5.5029,47.7842],[5.4979,47.7902],[5.4978,47.7946],[5.4996,47.7948],[5.5001,47.7914],[5.5028,47.7899],[5.5015,47.7952],[5.5022,47.7973],[5.5003,47.7974],[5.5010,47.7992],[5.4993,47.8005],[5.5000,47.8040],[5.5016,47.8037],[5.5002,47.8010],[5.5019,47.7991],[5.5093,47.7992],[5.5065,47.7972],[5.5056,47.7978],[5.5070,47.7964],[5.5044,47.7959],[5.5065,47.7924],[5.5074,47.7929],[5.5072,47.7899],[5.5091,47.7888],[5.5168,47.7954],[5.5160,47.7975],[5.5183,47.7982],[5.5203,47.7976],[5.5181,47.7965],[5.5199,47.7908],[5.5192,47.7900],[5.5217,47.7888],[5.5244,47.7897],[5.5215,47.7945],[5.5232,47.7953],[5.5254,47.7942],[5.5254,47.7956],[5.5271,47.7949],[5.5276,47.7930],[5.5319,47.7915],[5.5308,47.7895],[5.5341,47.7885],[5.5401,47.7954],[5.5366,47.7968],[5.5340,47.7942],[5.5324,47.7944],[5.5324,47.7987],[5.5307,47.7985],[5.5334,47.8017],[5.5326,47.8024],[5.5378,47.8009],[5.5376,47.8029],[5.5440,47.8018],[5.5422,47.8042],[5.5437,47.8050],[5.5429,47.8060],[5.5416,47.8049],[5.5346,47.8062],[5.5356,47.8043],[5.5336,47.8028],[5.5333,47.8058],[5.5343,47.8064],[5.5322,47.8072],[5.5298,47.8059],[5.5289,47.8069],[5.5321,47.8089],[5.5333,47.8087],[5.5316,47.8074],[5.5344,47.8085],[5.5452,47.8068],[5.5635,47.8014]]]}},{"type":"Feature","properties":{"name":"La Trémont"},"geometry":{"type":"Polygon","coordinates":[[[5.4475,48.4791],[5.4505,48.4836],[5.4499,48.4858],[5.4449,48.4862],[5.4470,48.4865],[5.4432,48.4878],[5.4423,48.4900],[5.4402,48.4904],[5.4325,48.4870],[5.4268,48.4805],[5.4275,48.4773],[5.4309,48.4759],[5.4331,48.4712],[5.4475,48.4791]]]}},{"type":"Feature","properties":{"name":"Bois de Pagny"},"geometry":{"type":"Polygon","coordinates":[[[5.7610,48.5221],[5.7451,48.5260],[5.7448,48.5296],[5.7402,48.5318],[5.7416,48.5321],[5.7411,48.5329],[5.7433,48.5321],[5.7409,48.5343],[5.7452,48.5381],[5.7371,48.5446],[5.7418,48.5492],[5.7405,48.5496],[5.7445,48.5497],[5.7454,48.5510],[5.7490,48.5501],[5.7480,48.5488],[5.7519,48.5458],[5.7548,48.5466],[5.7532,48.5455],[5.7550,48.5434],[5.7531,48.5429],[5.7515,48.5366],[5.7485,48.5334],[5.7472,48.5342],[5.7436,48.5332],[5.7451,48.5318],[5.7439,48.5319],[5.7527,48.5292],[5.7529,48.5306],[5.7555,48.5298],[5.7556,48.5308],[5.7529,48.5358],[5.7532,48.5389],[5.7590,48.5451],[5.7631,48.5446],[5.7636,48.5431],[5.7674,48.5444],[5.7685,48.5443],[5.7679,48.5431],[5.7759,48.5419],[5.7765,48.5381],[5.7743,48.5354],[5.7663,48.5354],[5.7610,48.5221]]]}},{"type":"Feature","properties":{"name":"Forêt communale de Sauvigny"},"geometry":{"type":"Polygon","coordinates":[[[5.7417,48.5077],[5.7420,48.5063],[5.7435,48.5074],[5.7464,48.5065],[5.7473,48.5047],[5.7504,48.5053],[5.7501,48.5040],[5.7529,48.4998],[5.7418,48.4955],[5.7310,48.4943],[5.7301,48.4933],[5.7312,48.4920],[5.7331,48.4916],[5.7413,48.4944],[5.7485,48.4944],[5.7512,48.4965],[5.7493,48.4938],[5.7422,48.4925],[5.7395,48.4895],[5.7486,48.4911],[5.7494,48.4901],[5.7472,48.4853],[5.7509,48.4847],[5.7553,48.4918],[5.7650,48.4966],[5.7659,48.5047],[5.7621,48.5102],[5.7627,48.5144],[5.7617,48.5156],[5.7417,48.5077]]]}},{"type":"Feature","properties":{"name":"Forêt communale de Saint-Rémy"},"geometry":{"type":"Polygon","coordinates":[[[6.8151,48.3489],[6.8202,48.3468],[6.8179,48.3466],[6.8167,48.3450],[6.8177,48.3433],[6.8064,48.3410],[6.8071,48.3414],[6.8000,48.3418],[6.7986,48.3414],[6.8021,48.3399],[6.8008,48.3380],[6.7993,48.3386],[6.7924,48.3354],[6.7879,48.3365],[6.7889,48.3396],[6.7844,48.3430],[6.7855,48.3434],[6.7846,48.3461],[6.7868,48.3506],[6.8035,48.3487],[6.8093,48.3516],[6.8101,48.3545],[6.8273,48.3546],[6.8211,48.3516],[6.8174,48.3515],[6.8169,48.3504],[6.8123,48.3507],[6.8115,48.3497],[6.8129,48.3491],[6.8107,48.3472],[6.8151,48.3489]]]}},{"type":"Feature","properties":{"name":"Forêt communale d’Étival-Clairefontaine"},"geometry":{"type":"Polygon","coordinates":[[[6.8273,48.3546],[6.8101,48.3545],[6.8086,48.3590],[6.8079,48.3565],[6.8052,48.3553],[6.7873,48.3553],[6.7865,48.3582],[6.7797,48.3590],[6.7793,48.3616],[6.7766,48.3635],[6.7850,48.3636],[6.7906,48.3667],[6.7922,48.3656],[6.7990,48.3657],[6.8199,48.3589],[6.8275,48.3599],[6.8239,48.3576],[6.8260,48.3576],[6.8273,48.3546]]]}},{"type":"Feature","properties":{"name":"Foret de Taronnière"},"geometry":{"type":"Polygon","coordinates":[[[6.5491,48.5259],[6.5563,48.5305],[6.5520,48.5331],[6.5486,48.5324],[6.5519,48.5344],[6.5554,48.5334],[6.5591,48.5296],[6.5634,48.5274],[6.5679,48.5275],[6.5706,48.5254],[6.5862,48.5220],[6.5918,48.5233],[6.5978,48.5228],[6.5998,48.5206],[6.5964,48.5203],[6.5963,48.5193],[6.6007,48.5165],[6.5968,48.5145],[6.5986,48.5171],[6.5948,48.5188],[6.5929,48.5160],[6.5993,48.5123],[6.6018,48.5132],[6.6042,48.5116],[6.5997,48.5083],[6.6012,48.5069],[6.6092,48.5068],[6.6085,48.5057],[6.6104,48.5042],[6.6053,48.5004],[6.6098,48.4984],[6.6013,48.4965],[6.5975,48.4942],[6.5962,48.4950],[6.5930,48.4927],[6.5897,48.4956],[6.5863,48.4937],[6.5895,48.4957],[6.5878,48.4972],[6.5896,48.4988],[6.5835,48.5024],[6.5873,48.5040],[6.5866,48.5048],[6.5843,48.5050],[6.5850,48.5041],[6.5838,48.5035],[6.5777,48.5052],[6.5799,48.5070],[6.5800,48.5086],[6.5766,48.5072],[6.5779,48.5068],[6.5745,48.5017],[6.5653,48.5049],[6.5607,48.5028],[6.5642,48.5019],[6.5641,48.4999],[6.5624,48.5002],[6.5650,48.4994],[6.5635,48.4974],[6.5590,48.4962],[6.5568,48.4935],[6.5556,48.4944],[6.5496,48.4895],[6.5419,48.4895],[6.5405,48.4909],[6.5350,48.4918],[6.5339,48.4939],[6.5322,48.4930],[6.5298,48.4941],[6.5324,48.4956],[6.5339,48.4944],[6.5359,48.4952],[6.5347,48.4968],[6.5386,48.4977],[6.5365,48.4998],[6.5386,48.4983],[6.5400,48.4990],[6.5388,48.5012],[6.5364,48.5007],[6.5341,48.5031],[6.5357,48.5018],[6.5410,48.5040],[6.5390,48.5065],[6.5408,48.5085],[6.5314,48.5071],[6.5240,48.5096],[6.5300,48.5133],[6.5279,48.5148],[6.5289,48.5155],[6.5349,48.5141],[6.5362,48.5168],[6.5422,48.5175],[6.5455,48.5197],[6.5468,48.5184],[6.5496,48.5188],[6.5495,48.5198],[6.5534,48.5218],[6.5498,48.5245],[6.5526,48.5257],[6.5491,48.5259]]]}},{"type":"Feature","properties":{"name":"Forêt de Mondon"},"geometry":{"type":"Polygon","coordinates":[[[6.5988,48.5800],[6.6065,48.5772],[6.6041,48.5741],[6.6077,48.5766],[6.6058,48.5744],[6.6089,48.5753],[6.6069,48.5738],[6.6090,48.5725],[6.6131,48.5750],[6.6135,48.5763],[6.6111,48.5789],[6.6122,48.5802],[6.6158,48.5801],[6.6151,48.5794],[6.6183,48.5779],[6.6180,48.5767],[6.6159,48.5741],[6.6118,48.5728],[6.6135,48.5706],[6.6166,48.5718],[6.6163,48.5728],[6.6204,48.5719],[6.6227,48.5738],[6.6206,48.5712],[6.6205,48.5689],[6.6227,48.5706],[6.6251,48.5701],[6.6294,48.5738],[6.6308,48.5720],[6.6294,48.5730],[6.6300,48.5715],[6.6291,48.5711],[6.6312,48.5716],[6.6271,48.5691],[6.6278,48.5681],[6.6328,48.5690],[6.6344,48.5727],[6.6352,48.5724],[6.6341,48.5701],[6.6358,48.5693],[6.6388,48.5715],[6.6412,48.5707],[6.6431,48.5723],[6.6442,48.5719],[6.6416,48.5694],[6.6431,48.5685],[6.6467,48.5678],[6.6474,48.5691],[6.6473,48.5682],[6.6507,48.5678],[6.6505,48.5687],[6.6541,48.5671],[6.6518,48.5661],[6.6598,48.5647],[6.6596,48.5637],[6.6635,48.5638],[6.6624,48.5611],[6.6642,48.5601],[6.6656,48.5613],[6.6685,48.5602],[6.6699,48.5616],[6.6713,48.5600],[6.6743,48.5608],[6.6754,48.5625],[6.6771,48.5616],[6.6749,48.5597],[6.6793,48.5581],[6.6824,48.5589],[6.6859,48.5567],[6.6927,48.5555],[6.6959,48.5567],[6.6970,48.5559],[6.6983,48.5572],[6.7020,48.5550],[6.6987,48.5515],[6.7006,48.5501],[6.7002,48.5480],[6.7035,48.5484],[6.7017,48.5476],[6.7031,48.5473],[6.7020,48.5465],[6.7033,48.5452],[6.6997,48.5452],[6.6968,48.5429],[6.7041,48.5404],[6.6982,48.5367],[6.6986,48.5348],[6.6965,48.5327],[6.7001,48.5305],[6.6974,48.5289],[6.6998,48.5279],[6.6972,48.5251],[6.6974,48.5221],[6.7001,48.5208],[6.6982,48.5195],[6.6999,48.5183],[6.6946,48.5172],[6.7038,48.5152],[6.7062,48.5170],[6.7089,48.5166],[6.7093,48.5145],[6.7061,48.5139],[6.7080,48.5115],[6.7053,48.5107],[6.7064,48.5097],[6.7101,48.5108],[6.7082,48.5097],[6.7091,48.5091],[6.7062,48.5041],[6.7086,48.5032],[6.7064,48.5034],[6.7086,48.5030],[6.7086,48.5019],[6.7064,48.4973],[6.7006,48.4958],[6.6999,48.4963],[6.7021,48.4971],[6.7011,48.4988],[6.6973,48.4980],[6.6994,48.4989],[6.6978,48.5000],[6.6942,48.4996],[6.6963,48.5018],[6.6943,48.5021],[6.6939,48.5010],[6.6866,48.5031],[6.6848,48.5005],[6.6798,48.5033],[6.6757,48.5007],[6.6762,48.5024],[6.6749,48.5008],[6.6718,48.5011],[6.6750,48.5019],[6.6721,48.5041],[6.6740,48.5031],[6.6754,48.5039],[6.6715,48.5073],[6.6666,48.5032],[6.6596,48.5134],[6.6594,48.5145],[6.6641,48.5186],[6.6578,48.5292],[6.6496,48.5292],[6.6486,48.5308],[6.6468,48.5296],[6.6453,48.5320],[6.6464,48.5328],[6.6445,48.5341],[6.6463,48.5344],[6.6392,48.5369],[6.6306,48.5386],[6.6202,48.5381],[6.6206,48.5389],[6.6141,48.5416],[6.6164,48.5430],[6.6234,48.5409],[6.6250,48.5448],[6.6179,48.5451],[6.6195,48.5481],[6.6187,48.5489],[6.6200,48.5498],[6.6152,48.5523],[6.6042,48.5468],[6.6030,48.5494],[6.6040,48.5527],[6.6017,48.5541],[6.6013,48.5580],[6.5882,48.5542],[6.5887,48.5533],[6.5918,48.5545],[6.5871,48.5514],[6.5853,48.5522],[6.5855,48.5514],[6.5823,48.5509],[6.5784,48.5458],[6.5776,48.5468],[6.5799,48.5490],[6.5781,48.5508],[6.5754,48.5521],[6.5722,48.5499],[6.5746,48.5485],[6.5765,48.5491],[6.5758,48.5475],[6.5717,48.5491],[6.5708,48.5483],[6.5652,48.5508],[6.5706,48.5535],[6.5614,48.5597],[6.5561,48.5558],[6.5395,48.5667],[6.5438,48.5681],[6.5552,48.5611],[6.5665,48.5688],[6.5559,48.5748],[6.5534,48.5734],[6.5624,48.5805],[6.5659,48.5820],[6.5685,48.5815],[6.5737,48.5839],[6.5854,48.5839],[6.5951,48.5814],[6.5947,48.5802],[6.5931,48.5813],[6.5905,48.5772],[6.5944,48.5758],[6.5990,48.5789],[6.5957,48.5751],[6.5985,48.5743],[6.5997,48.5758],[6.6004,48.5740],[6.6032,48.5770],[6.5996,48.5781],[6.5988,48.5800]]]}},{"type":"Feature","properties":{"name":"Forêt domaniale de Vau"},"geometry":{"type":"Polygon","coordinates":[[[5.6192,48.5446],[5.6212,48.5427],[5.6272,48.5417],[5.6269,48.5405],[5.6289,48.5389],[5.6269,48.5376],[5.6286,48.5344],[5.6296,48.5360],[5.6294,48.5337],[5.6332,48.5326],[5.6316,48.5322],[5.6332,48.5320],[5.6270,48.5271],[5.6376,48.5305],[5.6384,48.5312],[5.6374,48.5328],[5.6395,48.5329],[5.6397,48.5303],[5.6299,48.5261],[5.6259,48.5260],[5.6283,48.5245],[5.6278,48.5225],[5.6236,48.5260],[5.6209,48.5221],[5.6165,48.5208],[5.6165,48.5198],[5.6153,48.5207],[5.6171,48.5213],[5.6158,48.5236],[5.6198,48.5264],[5.6183,48.5272],[5.6137,48.5251],[5.6126,48.5263],[5.6138,48.5272],[5.6111,48.5292],[5.6236,48.5332],[5.6220,48.5365],[5.6158,48.5353],[5.6167,48.5335],[5.6064,48.5314],[5.6063,48.5333],[5.6027,48.5352],[5.5986,48.5350],[5.6007,48.5311],[5.6059,48.5315],[5.6058,48.5294],[5.6018,48.5278],[5.5990,48.5287],[5.5915,48.5251],[5.5880,48.5220],[5.5870,48.5184],[5.5889,48.5163],[5.5910,48.5163],[5.5903,48.5143],[5.5914,48.5134],[5.5942,48.5161],[5.5976,48.5169],[5.5979,48.5140],[5.5843,48.5111],[5.5813,48.5125],[5.5739,48.5119],[5.5714,48.5107],[5.5728,48.5105],[5.5718,48.5096],[5.5760,48.5097],[5.5820,48.5076],[5.5861,48.5032],[5.6023,48.5012],[5.6036,48.5003],[5.6019,48.4979],[5.6030,48.4957],[5.6039,48.4974],[5.6081,48.4976],[5.6179,48.5018],[5.6234,48.5005],[5.6163,48.4976],[5.6172,48.4921],[5.6140,48.4895],[5.6093,48.4891],[5.6055,48.4945],[5.5966,48.4905],[5.5984,48.4896],[5.5964,48.4903],[5.5962,48.4886],[5.5921,48.4893],[5.5937,48.4879],[5.5931,48.4867],[5.5946,48.4865],[5.5900,48.4841],[5.5909,48.4829],[5.5887,48.4808],[5.5917,48.4798],[5.5896,48.4776],[5.5949,48.4720],[5.5977,48.4712],[5.5987,48.4666],[5.6014,48.4672],[5.5928,48.4628],[5.5951,48.4604],[5.5937,48.4593],[5.5945,48.4577],[5.5915,48.4569],[5.5869,48.4598],[5.5846,48.4582],[5.5816,48.4585],[5.5825,48.4605],[5.5792,48.4599],[5.5776,48.4624],[5.5712,48.4641],[5.5691,48.4640],[5.5659,48.4612],[5.5663,48.4601],[5.5800,48.4583],[5.5811,48.4523],[5.5830,48.4520],[5.5796,48.4506],[5.5820,48.4482],[5.5804,48.4470],[5.5861,48.4447],[5.5873,48.4428],[5.5857,48.4422],[5.5866,48.4416],[5.5909,48.4423],[5.5897,48.4413],[5.5910,48.4401],[5.5894,48.4380],[5.5850,48.4343],[5.5826,48.4340],[5.5822,48.4323],[5.5782,48.4350],[5.5694,48.4367],[5.5704,48.4390],[5.5746,48.4401],[5.5611,48.4381],[5.5489,48.4384],[5.5443,48.4346],[5.5334,48.4325],[5.5348,48.4377],[5.5341,48.4386],[5.5398,48.4431],[5.5445,48.4437],[5.5382,48.4473],[5.5341,48.4475],[5.5342,48.4484],[5.5373,48.4502],[5.5425,48.4501],[5.5483,48.4476],[5.5501,48.4497],[5.5469,48.4528],[5.5400,48.4562],[5.5300,48.4513],[5.5262,48.4481],[5.5195,48.4475],[5.5186,48.4477],[5.5202,48.4496],[5.5279,48.4493],[5.5296,48.4526],[5.5289,48.4541],[5.5315,48.4559],[5.5292,48.4561],[5.5285,48.4577],[5.5272,48.4568],[5.5269,48.4587],[5.5250,48.4572],[5.5173,48.4559],[5.5158,48.4543],[5.5132,48.4561],[5.5125,48.4576],[5.5134,48.4587],[5.5170,48.4580],[5.5303,48.4636],[5.5357,48.4619],[5.5435,48.4626],[5.5480,48.4612],[5.5495,48.4617],[5.5526,48.4664],[5.5503,48.4684],[5.5507,48.4694],[5.5660,48.4692],[5.5690,48.4715],[5.5647,48.4748],[5.5588,48.4719],[5.5553,48.4736],[5.5489,48.4726],[5.5466,48.4751],[5.5369,48.4743],[5.5201,48.4705],[5.5157,48.4714],[5.5146,48.4747],[5.5091,48.4762],[5.5025,48.4764],[5.4994,48.4749],[5.4974,48.4760],[5.4978,48.4782],[5.5024,48.4867],[5.5021,48.4902],[5.4984,48.4923],[5.4983,48.4942],[5.5041,48.4954],[5.5100,48.5000],[5.5119,48.4996],[5.5099,48.4975],[5.5134,48.4948],[5.5106,48.4955],[5.5102,48.4934],[5.5124,48.4924],[5.5153,48.4930],[5.5137,48.4902],[5.5170,48.4888],[5.5171,48.4902],[5.5196,48.4906],[5.5194,48.4924],[5.5221,48.4930],[5.5206,48.4947],[5.5268,48.4928],[5.5324,48.4964],[5.5229,48.5029],[5.5188,48.5042],[5.5242,48.5057],[5.5130,48.5053],[5.5126,48.5111],[5.5146,48.5112],[5.5135,48.5108],[5.5138,48.5070],[5.5189,48.5072],[5.5217,48.5091],[5.5213,48.5062],[5.5254,48.5067],[5.5265,48.5085],[5.5295,48.5091],[5.5285,48.5079],[5.5295,48.5077],[5.5322,48.5099],[5.5332,48.5086],[5.5318,48.5072],[5.5332,48.5062],[5.5358,48.5069],[5.5365,48.5056],[5.5441,48.5083],[5.5457,48.5078],[5.5473,48.5095],[5.5470,48.5111],[5.5616,48.5104],[5.5523,48.5122],[5.5526,48.5137],[5.5479,48.5186],[5.5497,48.5180],[5.5447,48.5237],[5.5444,48.5257],[5.5399,48.5292],[5.5445,48.5278],[5.5474,48.5291],[5.5454,48.5275],[5.5492,48.5290],[5.5592,48.5288],[5.5617,48.5267],[5.5671,48.5284],[5.5676,48.5309],[5.5717,48.5336],[5.5770,48.5301],[5.5745,48.5324],[5.5755,48.5328],[5.5751,48.5343],[5.5736,48.5335],[5.5743,48.5349],[5.5708,48.5352],[5.5704,48.5375],[5.5774,48.5391],[5.5802,48.5366],[5.5855,48.5385],[5.5932,48.5362],[5.6043,48.5389],[5.6060,48.5416],[5.6192,48.5446]]]}},{"type":"Feature","properties":{"name":"Bois de l\u0027Ancerf"},"geometry":{"type":"Polygon","coordinates":[[[6.6854,48.1395],[6.6855,48.1406],[6.6875,48.1400],[6.6866,48.1415],[6.6807,48.1428],[6.6748,48.1487],[6.6714,48.1493],[6.6735,48.1504],[6.6720,48.1499],[6.6637,48.1535],[6.6585,48.1500],[6.6571,48.1507],[6.6528,48.1488],[6.6502,48.1502],[6.6452,48.1481],[6.6459,48.1488],[6.6431,48.1486],[6.6371,48.1524],[6.6373,48.1506],[6.6336,48.1494],[6.6314,48.1467],[6.6349,48.1435],[6.6418,48.1417],[6.6437,48.1456],[6.6577,48.1446],[6.6607,48.1459],[6.6691,48.1454],[6.6739,48.1446],[6.6808,48.1400],[6.6850,48.1398],[6.6843,48.1380],[6.6862,48.1389],[6.6854,48.1395]]]}},{"type":"Feature","properties":{"name":"Forêt de Tannières"},"geometry":{"type":"Polygon","coordinates":[[[6.5750,48.1199],[6.5675,48.1150],[6.5488,48.1215],[6.5435,48.1220],[6.5421,48.1209],[6.5431,48.1166],[6.5405,48.1162],[6.5372,48.1177],[6.5329,48.1220],[6.5383,48.1176],[6.5416,48.1165],[6.5425,48.1183],[6.5414,48.1187],[6.5425,48.1192],[6.5417,48.1220],[6.5428,48.1220],[6.5414,48.1224],[6.5437,48.1225],[6.5400,48.1258],[6.5411,48.1259],[6.5438,48.1248],[6.5429,48.1244],[6.5440,48.1228],[6.5489,48.1222],[6.5501,48.1237],[6.5608,48.1178],[6.5617,48.1189],[6.5558,48.1239],[6.5520,48.1236],[6.5547,48.1256],[6.5489,48.1256],[6.5510,48.1282],[6.5474,48.1294],[6.5496,48.1297],[6.5484,48.1313],[6.5500,48.1323],[6.5511,48.1360],[6.5511,48.1376],[6.5502,48.1378],[6.5501,48.1364],[6.5496,48.1377],[6.5521,48.1390],[6.5517,48.1378],[6.5524,48.1399],[6.5577,48.1422],[6.5585,48.1452],[6.5576,48.1466],[6.5601,48.1441],[6.5691,48.1449],[6.5692,48.1425],[6.5713,48.1420],[6.5760,48.1423],[6.5791,48.1404],[6.5869,48.1426],[6.5904,48.1402],[6.5867,48.1415],[6.5862,48.1400],[6.5871,48.1397],[6.5850,48.1391],[6.5873,48.1383],[6.5851,48.1383],[6.5869,48.1368],[6.5854,48.1361],[6.5856,48.1318],[6.5832,48.1297],[6.5789,48.1292],[6.5842,48.1275],[6.5924,48.1293],[6.5924,48.1330],[6.5944,48.1352],[6.5936,48.1370],[6.5952,48.1342],[6.5952,48.1371],[6.5986,48.1387],[6.5965,48.1353],[6.5990,48.1345],[6.5967,48.1350],[6.5976,48.1344],[6.5941,48.1327],[6.5946,48.1297],[6.5965,48.1299],[6.5855,48.1232],[6.5750,48.1199]]]}},{"type":"Feature","properties":{"name":"Forêt d\u0027Épinal"},"geometry":{"type":"Polygon","coordinates":[[[6.5497,48.1536],[6.5506,48.1525],[6.5459,48.1497],[6.5462,48.1477],[6.5437,48.1474],[6.5403,48.1445],[6.5433,48.1438],[6.5642,48.1513],[6.5570,48.1481],[6.5532,48.1443],[6.5497,48.1436],[6.5469,48.1414],[6.5475,48.1405],[6.5414,48.1404],[6.5400,48.1385],[6.5427,48.1398],[6.5439,48.1389],[6.5420,48.1385],[6.5431,48.1377],[6.5418,48.1359],[6.5428,48.1336],[6.5388,48.1330],[6.5390,48.1292],[6.5373,48.1275],[6.5353,48.1341],[6.5364,48.1342],[6.5376,48.1373],[6.5360,48.1369],[6.5351,48.1344],[6.5358,48.1316],[6.5335,48.1307],[6.5350,48.1320],[6.5337,48.1333],[6.5344,48.1370],[6.5330,48.1378],[6.5318,48.1377],[6.5334,48.1350],[6.5317,48.1346],[6.5314,48.1377],[6.5309,48.1348],[6.5266,48.1334],[6.5219,48.1336],[6.5172,48.1360],[6.5168,48.1341],[6.5183,48.1317],[6.5198,48.1331],[6.5220,48.1323],[6.5208,48.1315],[6.5215,48.1303],[6.5191,48.1289],[6.5241,48.1284],[6.5234,48.1277],[6.5245,48.1272],[6.5293,48.1295],[6.5298,48.1284],[6.5274,48.1279],[6.5330,48.1269],[6.5314,48.1259],[6.5273,48.1272],[6.5261,48.1261],[6.5219,48.1274],[6.5228,48.1247],[6.5264,48.1236],[6.5218,48.1240],[6.5207,48.1248],[6.5215,48.1266],[6.5156,48.1283],[6.5172,48.1283],[6.5172,48.1294],[6.5126,48.1423],[6.5026,48.1480],[6.4977,48.1491],[6.4907,48.1485],[6.4865,48.1520],[6.4856,48.1557],[6.4877,48.1637],[6.4850,48.1690],[6.4859,48.1702],[6.4834,48.1715],[6.4832,48.1748],[6.4892,48.1813],[6.4960,48.1840],[6.4939,48.1854],[6.4946,48.1866],[6.4981,48.1855],[6.4968,48.1866],[6.4985,48.1880],[6.4962,48.1896],[6.4949,48.1890],[6.4957,48.1877],[6.4938,48.1881],[6.4944,48.1867],[6.4914,48.1851],[6.4857,48.1842],[6.4877,48.1854],[6.4864,48.1858],[6.4908,48.1862],[6.4895,48.1874],[6.4934,48.1893],[6.4940,48.1913],[6.4963,48.1928],[6.4989,48.1924],[6.5011,48.1938],[6.5010,48.1909],[6.5037,48.1936],[6.5073,48.1918],[6.5066,48.1914],[6.5083,48.1926],[6.5129,48.1901],[6.5112,48.1908],[6.5101,48.1896],[6.5084,48.1912],[6.5072,48.1908],[6.5084,48.1887],[6.5055,48.1859],[6.5067,48.1875],[6.5092,48.1854],[6.5133,48.1856],[6.5131,48.1880],[6.5298,48.1805],[6.5442,48.1799],[6.5446,48.1922],[6.5532,48.2001],[6.5593,48.2008],[6.5602,48.1991],[6.5629,48.1991],[6.5720,48.1950],[6.5754,48.1916],[6.5786,48.1909],[6.5795,48.1897],[6.5784,48.1890],[6.5829,48.1847],[6.5835,48.1804],[6.5869,48.1816],[6.5863,48.1804],[6.5879,48.1805],[6.5880,48.1781],[6.5841,48.1745],[6.5849,48.1704],[6.5810,48.1697],[6.5838,48.1689],[6.5836,48.1671],[6.5801,48.1689],[6.5780,48.1721],[6.5784,48.1690],[6.5771,48.1695],[6.5742,48.1658],[6.5721,48.1683],[6.5690,48.1684],[6.5634,48.1715],[6.5630,48.1670],[6.5650,48.1659],[6.5660,48.1632],[6.5703,48.1640],[6.5656,48.1613],[6.5675,48.1613],[6.5662,48.1607],[6.5629,48.1620],[6.5614,48.1604],[6.5632,48.1596],[6.5597,48.1602],[6.5544,48.1575],[6.5604,48.1591],[6.5549,48.1570],[6.5589,48.1573],[6.5523,48.1545],[6.5621,48.1550],[6.5595,48.1535],[6.5497,48.1536]]]}},{"type":"Feature","properties":{"name":"Forêt Communale de Jainvillotte"},"geometry":{"type":"Polygon","coordinates":[[[5.6964,48.2737],[5.6952,48.2746],[5.6965,48.2758],[5.7042,48.2786],[5.6998,48.2824],[5.7091,48.2855],[5.7108,48.2819],[5.7087,48.2811],[5.7067,48.2822],[5.7041,48.2805],[5.7106,48.2758],[5.7126,48.2775],[5.7090,48.2792],[5.7134,48.2805],[5.7143,48.2822],[5.7123,48.2838],[5.7132,48.2856],[5.7117,48.2872],[5.7139,48.2900],[5.7132,48.2930],[5.7198,48.2898],[5.7190,48.2851],[5.7219,48.2844],[5.7194,48.2781],[5.7209,48.2759],[5.7304,48.2840],[5.7320,48.2865],[5.7305,48.2891],[5.7325,48.2904],[5.7332,48.2862],[5.7299,48.2772],[5.7326,48.2719],[5.7310,48.2678],[5.7329,48.2627],[5.7322,48.2632],[5.7316,48.2613],[5.7344,48.2603],[5.7373,48.2533],[5.7362,48.2510],[5.7394,48.2512],[5.7428,48.2440],[5.7448,48.2433],[5.7472,48.2451],[5.7471,48.2439],[5.7519,48.2419],[5.7507,48.2414],[5.7522,48.2405],[5.7527,48.2372],[5.7497,48.2312],[5.7557,48.2288],[5.7546,48.2298],[5.7525,48.2282],[5.7490,48.2281],[5.7465,48.2285],[5.7513,48.2289],[5.7433,48.2301],[5.7425,48.2394],[5.7278,48.2401],[5.7263,48.2427],[5.7273,48.2464],[5.7228,48.2454],[5.7220,48.2466],[5.7194,48.2452],[5.7144,48.2457],[5.7150,48.2467],[5.7119,48.2481],[5.7107,48.2526],[5.7054,48.2541],[5.7040,48.2559],[5.7038,48.2590],[5.7020,48.2591],[5.7023,48.2651],[5.6986,48.2701],[5.7002,48.2739],[5.6964,48.2737]]]}},{"type":"Feature","properties":{"name":"Forêt domaniale de Saint-Amond"},"geometry":{"type":"Polygon","coordinates":[[[5.9568,48.4465],[5.9384,48.4430],[5.9285,48.4488],[5.9230,48.4487],[5.9161,48.4509],[5.9141,48.4561],[5.9209,48.4608],[5.9179,48.4637],[5.9187,48.4653],[5.9175,48.4711],[5.8959,48.4744],[5.8860,48.4692],[5.8907,48.4672],[5.8934,48.4633],[5.8866,48.4594],[5.8858,48.4573],[5.8869,48.4537],[5.8994,48.4487],[5.8991,48.4468],[5.9002,48.4466],[5.9009,48.4493],[5.9035,48.4500],[5.9047,48.4488],[5.9041,48.4469],[5.9079,48.4377],[5.8981,48.4359],[5.9081,48.4372],[5.9119,48.4354],[5.9254,48.4360],[5.9357,48.4316],[5.9541,48.4283],[5.9644,48.4294],[5.9616,48.4330],[5.9696,48.4352],[5.9733,48.4376],[5.9736,48.4392],[5.9698,48.4428],[5.9597,48.4440],[5.9568,48.4465]]]}},{"type":"Feature","properties":{"name":"Forêt domaniale de Rambervillers-la-Chipotte"},"geometry":{"type":"Polygon","coordinates":[[[6.7546,48.3827],[6.7557,48.3855],[6.7547,48.3880],[6.7453,48.3935],[6.7500,48.4006],[6.7484,48.4007],[6.7490,48.4024],[6.7470,48.4044],[6.7427,48.4048],[6.7386,48.4114],[6.7541,48.4115],[6.7572,48.4034],[6.7645,48.4046],[6.7670,48.3993],[6.7817,48.4026],[6.7869,48.4024],[6.7882,48.4008],[6.7832,48.3970],[6.7840,48.3961],[6.7824,48.3895],[6.7863,48.3972],[6.7929,48.4010],[6.7939,48.4035],[6.8078,48.4001],[6.8086,48.3995],[6.8079,48.3976],[6.8100,48.3960],[6.8133,48.3964],[6.8152,48.3950],[6.8119,48.3924],[6.8110,48.3899],[6.8026,48.3898],[6.8083,48.3888],[6.8046,48.3843],[6.8011,48.3861],[6.7990,48.3857],[6.8005,48.3841],[6.7989,48.3834],[6.7917,48.3822],[6.7944,48.3811],[6.8006,48.3823],[6.7992,48.3798],[6.8006,48.3776],[6.8021,48.3818],[6.8118,48.3883],[6.8116,48.3861],[6.8082,48.3814],[6.8099,48.3796],[6.8066,48.3756],[6.8084,48.3741],[6.8069,48.3712],[6.8051,48.3723],[6.8015,48.3714],[6.7951,48.3740],[6.7895,48.3725],[6.7866,48.3730],[6.7768,48.3692],[6.7752,48.3652],[6.7793,48.3616],[6.7797,48.3590],[6.7865,48.3582],[6.7878,48.3562],[6.7864,48.3484],[6.7846,48.3461],[6.7855,48.3434],[6.7844,48.3430],[6.7845,48.3390],[6.7807,48.3333],[6.7587,48.3374],[6.7513,48.3403],[6.7513,48.3508],[6.7449,48.3508],[6.7439,48.3570],[6.7470,48.3560],[6.7472,48.3545],[6.7489,48.3538],[6.7473,48.3516],[6.7509,48.3542],[6.7541,48.3536],[6.7439,48.3579],[6.7417,48.3601],[6.7377,48.3600],[6.7421,48.3627],[6.7473,48.3731],[6.7504,48.3756],[6.7380,48.3759],[6.7280,48.3741],[6.7249,48.3715],[6.7186,48.3695],[6.7158,48.3700],[6.7189,48.3776],[6.7186,48.3797],[6.7136,48.3846],[6.7196,48.3856],[6.7264,48.3829],[6.7267,48.3839],[6.7448,48.3860],[6.7546,48.3827]]]}},{"type":"Feature","properties":{"name":"Forêt domaniale de la Côte-de-Répy"},"geometry":{"type":"Polygon","coordinates":[[[6.8243,48.3777],[6.8330,48.3801],[6.8372,48.3881],[6.8472,48.3933],[6.8506,48.3939],[6.8531,48.3923],[6.8529,48.3894],[6.8592,48.3872],[6.8617,48.3877],[6.8551,48.3856],[6.8591,48.3858],[6.8615,48.3815],[6.8589,48.3808],[6.8616,48.3813],[6.8671,48.3769],[6.8629,48.3713],[6.8551,48.3718],[6.8569,48.3699],[6.8557,48.3691],[6.8510,48.3680],[6.8442,48.3693],[6.8408,48.3681],[6.8378,48.3706],[6.8359,48.3702],[6.8200,48.3759],[6.8215,48.3775],[6.8243,48.3777]]]}},{"type":"Feature","properties":{"name":"Forêt domaniale du Ban d’Étival"},"geometry":{"type":"Polygon","coordinates":[[[6.8536,48.2985],[6.8521,48.2967],[6.8534,48.2921],[6.8459,48.2890],[6.8311,48.2933],[6.8292,48.2957],[6.8240,48.2960],[6.8229,48.2953],[6.8237,48.2922],[6.8220,48.2902],[6.8143,48.2874],[6.8100,48.2832],[6.8040,48.2857],[6.7993,48.2848],[6.7938,48.2872],[6.7892,48.2861],[6.7899,48.2885],[6.7958,48.2926],[6.8001,48.2932],[6.8001,48.2913],[6.8016,48.2938],[6.8039,48.2943],[6.8054,48.2897],[6.8048,48.2954],[6.8065,48.2951],[6.8059,48.2964],[6.8072,48.2976],[6.8075,48.3008],[6.8233,48.3060],[6.8227,48.3038],[6.8244,48.3032],[6.8250,48.3042],[6.8277,48.3035],[6.8349,48.3052],[6.8342,48.3030],[6.8363,48.3031],[6.8339,48.3002],[6.8339,48.2965],[6.8381,48.3027],[6.8396,48.3013],[6.8379,48.3008],[6.8416,48.3003],[6.8412,48.2984],[6.8426,48.2998],[6.8456,48.2978],[6.8536,48.2985]]]}},{"type":"Feature","properties":{"name":"Forêt communale de Rambervillers"},"geometry":{"type":"Polygon","coordinates":[[[6.7195,48.3304],[6.7199,48.3322],[6.7154,48.3326],[6.7204,48.3337],[6.7193,48.3355],[6.7154,48.3362],[6.7166,48.3385],[6.7277,48.3411],[6.7360,48.3386],[6.7465,48.3399],[6.7505,48.3387],[6.7489,48.3286],[6.7195,48.3304]]]}},{"type":"Feature","properties":{"name":"Forêt communale de Saint-Michel-sur-Meurthe"},"geometry":{"type":"Polygon","coordinates":[[[6.8534,48.2921],[6.8521,48.2967],[6.8536,48.2985],[6.8456,48.2978],[6.8407,48.3017],[6.8418,48.3058],[6.8521,48.3061],[6.8560,48.3092],[6.8569,48.3082],[6.8604,48.3090],[6.8631,48.3036],[6.8669,48.3040],[6.8627,48.2970],[6.8659,48.3009],[6.8712,48.3033],[6.8722,48.3003],[6.8746,48.3004],[6.8760,48.2978],[6.8746,48.2949],[6.8690,48.2898],[6.8611,48.2902],[6.8551,48.2933],[6.8534,48.2921]]]}},{"type":"Feature","properties":{"name":"Forêt domaniale de Rambervillers-Autrey"},"geometry":{"type":"Polygon","coordinates":[[[6.7280,48.2905],[6.7290,48.2921],[6.7262,48.2917],[6.7245,48.2960],[6.7357,48.2977],[6.7340,48.3036],[6.7327,48.3055],[6.7261,48.3058],[6.7217,48.3078],[6.7211,48.3119],[6.7228,48.3136],[6.7194,48.3158],[6.7152,48.3160],[6.7135,48.3244],[6.7166,48.3252],[6.7285,48.3232],[6.7336,48.3242],[6.7369,48.3226],[6.7486,48.3219],[6.7488,48.3205],[6.7502,48.3218],[6.7542,48.3212],[6.7591,48.3257],[6.7529,48.3227],[6.7471,48.3230],[6.7505,48.3387],[6.7579,48.3360],[6.7786,48.3323],[6.7789,48.3300],[6.7774,48.3306],[6.7771,48.3294],[6.7805,48.3297],[6.7858,48.3254],[6.7882,48.3195],[6.7813,48.3164],[6.7782,48.3113],[6.7788,48.3087],[6.7740,48.3051],[6.7725,48.3022],[6.7772,48.2997],[6.7771,48.2968],[6.7800,48.2944],[6.7778,48.2917],[6.7776,48.2890],[6.7810,48.2891],[6.7849,48.2863],[6.7750,48.2798],[6.7718,48.2804],[6.7649,48.2769],[6.7539,48.2742],[6.7457,48.2737],[6.7469,48.2765],[6.7453,48.2771],[6.7439,48.2734],[6.7374,48.2720],[6.7347,48.2786],[6.7325,48.2791],[6.7302,48.2770],[6.7306,48.2744],[6.7313,48.2728],[6.7346,48.2727],[6.7355,48.2715],[6.7258,48.2678],[6.7192,48.2731],[6.7112,48.2761],[6.7090,48.2791],[6.6989,48.2861],[6.7047,48.2875],[6.7092,48.2856],[6.7138,48.2895],[6.7154,48.2880],[6.7190,48.2893],[6.7198,48.2908],[6.7186,48.2912],[6.7199,48.2924],[6.7297,48.2876],[6.7487,48.2886],[6.7561,48.2931],[6.7630,48.2955],[6.7646,48.2946],[6.7625,48.2957],[6.7461,48.2892],[6.7344,48.2884],[6.7280,48.2905]]]}},{"type":"Feature","properties":{"name":"Forêt domaniale de Mortagne"},"geometry":{"type":"Polygon","coordinates":[[[6.8534,48.2921],[6.8551,48.2933],[6.8611,48.2902],[6.8690,48.2898],[6.8709,48.2852],[6.8686,48.2836],[6.8695,48.2794],[6.8646,48.2768],[6.8639,48.2749],[6.8613,48.2751],[6.8624,48.2744],[6.8602,48.2720],[6.8562,48.2719],[6.8497,48.2687],[6.8463,48.2640],[6.8368,48.2618],[6.8376,48.2603],[6.8297,48.2547],[6.8246,48.2580],[6.8184,48.2595],[6.8221,48.2646],[6.8278,48.2685],[6.8265,48.2700],[6.8342,48.2714],[6.8364,48.2740],[6.8417,48.2735],[6.8454,48.2773],[6.8391,48.2744],[6.8363,48.2774],[6.8375,48.2746],[6.8354,48.2742],[6.8334,48.2719],[6.8215,48.2703],[6.8229,48.2741],[6.8208,48.2759],[6.8208,48.2799],[6.8222,48.2819],[6.8183,48.2879],[6.8248,48.2853],[6.8450,48.2888],[6.8534,48.2921]]]}},{"type":"Feature","properties":{"name":"Forêt communale de Raon-l’Étape"},"geometry":{"type":"Polygon","coordinates":[[[6.8801,48.4049],[6.8817,48.4043],[6.8870,48.4068],[6.8883,48.4084],[6.8860,48.4115],[6.8885,48.4162],[6.8893,48.4167],[6.8907,48.4149],[6.8912,48.4173],[6.8997,48.4226],[6.9012,48.4219],[6.9001,48.4229],[6.9054,48.4260],[6.9075,48.4288],[6.9218,48.4340],[6.9293,48.4247],[6.9265,48.4231],[6.9253,48.4207],[6.9178,48.4174],[6.9111,48.4122],[6.8955,48.4039],[6.8899,48.4025],[6.8843,48.3973],[6.8715,48.3991],[6.8738,48.4011],[6.8728,48.4029],[6.8753,48.4032],[6.8743,48.4063],[6.8784,48.4067],[6.8801,48.4049]]]}},{"type":"Feature","properties":{"name":"Forêt domaniale de Celles"},"geometry":{"type":"Polygon","coordinates":[[[7.0031,48.4411],[6.9955,48.4423],[6.9874,48.4385],[6.9810,48.4385],[6.9755,48.4361],[6.9658,48.4386],[6.9484,48.4314],[6.9459,48.4278],[6.9372,48.4277],[6.9316,48.4248],[6.9291,48.4250],[6.9218,48.4340],[6.9237,48.4337],[6.9263,48.4373],[6.9343,48.4355],[6.9359,48.4369],[6.9379,48.4359],[6.9369,48.4372],[6.9406,48.4366],[6.9444,48.4378],[6.9488,48.4376],[6.9507,48.4361],[6.9496,48.4381],[6.9535,48.4391],[6.9371,48.4374],[6.9318,48.4387],[6.9344,48.4393],[6.9331,48.4408],[6.9344,48.4426],[6.9391,48.4438],[6.9420,48.4467],[6.9469,48.4470],[6.9557,48.4449],[6.9676,48.4486],[6.9697,48.4517],[6.9709,48.4518],[6.9788,48.4473],[6.9745,48.4502],[6.9777,48.4503],[6.9708,48.4529],[6.9766,48.4514],[6.9734,48.4534],[6.9769,48.4550],[6.9758,48.4561],[6.9774,48.4566],[6.9762,48.4577],[6.9774,48.4606],[6.9812,48.4571],[6.9833,48.4576],[6.9806,48.4580],[6.9782,48.4609],[6.9847,48.4625],[6.9905,48.4594],[6.9932,48.4608],[6.9960,48.4651],[7.0075,48.4625],[7.0095,48.4595],[7.0085,48.4565],[7.0126,48.4540],[7.0094,48.4481],[7.0038,48.4457],[7.0031,48.4411]]]}},{"type":"Feature","properties":{"name":"Forêt communale de Saint-Dié-des-Vosges"},"geometry":{"type":"Polygon","coordinates":[[[6.9099,48.3032],[6.9130,48.3026],[6.9146,48.3013],[6.9142,48.2990],[6.9168,48.2979],[6.9141,48.2972],[6.9147,48.2940],[6.9107,48.2941],[6.9142,48.2902],[6.9124,48.2886],[6.9131,48.2874],[6.9090,48.2897],[6.9101,48.2863],[6.9081,48.2852],[6.9057,48.2858],[6.9074,48.2847],[6.9073,48.2835],[6.8988,48.2769],[6.8939,48.2749],[6.8876,48.2797],[6.8818,48.2783],[6.8801,48.2808],[6.8714,48.2830],[6.8690,48.2898],[6.8732,48.2922],[6.8784,48.2929],[6.8811,48.2949],[6.8787,48.2926],[6.8803,48.2918],[6.8830,48.2847],[6.8917,48.2777],[6.8949,48.2771],[6.8986,48.2784],[6.8991,48.2818],[6.8956,48.2863],[6.8950,48.2906],[6.9004,48.2935],[6.9009,48.2965],[6.8937,48.2940],[6.8886,48.2947],[6.8877,48.2960],[6.8838,48.2966],[6.8837,48.3000],[6.8869,48.3050],[6.8896,48.3061],[6.8921,48.3009],[6.9030,48.3046],[6.9073,48.3049],[6.9099,48.3032]]]}},{"type":"Feature","properties":{"name":"Forêt Communale de Ban-de-Laveline"},"geometry":{"type":"Polygon","coordinates":[[[7.1172,48.2440],[7.1127,48.2439],[7.1086,48.2407],[7.1146,48.2411],[7.1149,48.2402],[7.1080,48.2397],[7.1064,48.2380],[7.1031,48.2395],[7.0968,48.2395],[7.0939,48.2383],[7.0939,48.2356],[7.0969,48.2358],[7.1005,48.2339],[7.1002,48.2327],[7.1027,48.2310],[7.1013,48.2301],[7.0961,48.2311],[7.0965,48.2270],[7.0980,48.2265],[7.0928,48.2236],[7.0980,48.2200],[7.0977,48.2178],[7.1001,48.2129],[7.1030,48.2128],[7.1011,48.2167],[7.1021,48.2178],[7.1045,48.2174],[7.1065,48.2200],[7.1186,48.2203],[7.1261,48.2237],[7.1265,48.2260],[7.1231,48.2315],[7.1236,48.2341],[7.1212,48.2374],[7.1216,48.2405],[7.1199,48.2432],[7.1172,48.2440]]]}},{"type":"Feature","properties":{"name":"Forêt Communale de Gemaingoutte"},"geometry":{"type":"Polygon","coordinates":[[[7.1297,48.2321],[7.1304,48.2367],[7.1342,48.2380],[7.1327,48.2430],[7.1289,48.2437],[7.1292,48.2412],[7.1270,48.2413],[7.1260,48.2435],[7.1270,48.2435],[7.1274,48.2462],[7.1241,48.2451],[7.1228,48.2473],[7.1171,48.2488],[7.1180,48.2514],[7.1169,48.2517],[7.1133,48.2503],[7.1112,48.2509],[7.1098,48.2492],[7.1068,48.2512],[7.1052,48.2495],[7.1041,48.2504],[7.1009,48.2498],[7.1039,48.2499],[7.1033,48.2459],[7.1052,48.2447],[7.1166,48.2460],[7.1172,48.2440],[7.1199,48.2432],[7.1216,48.2405],[7.1212,48.2374],[7.1236,48.2341],[7.1231,48.2315],[7.1263,48.2250],[7.1294,48.2277],[7.1297,48.2321]]]}},{"type":"Feature","properties":{"name":"Forêt des Hospices de Pompey"},"geometry":{"type":"Polygon","coordinates":[[[7.0882,48.1988],[7.0871,48.2047],[7.0846,48.2071],[7.0835,48.2121],[7.0858,48.2192],[7.0780,48.2200],[7.0775,48.2176],[7.0750,48.2181],[7.0774,48.2159],[7.0756,48.2126],[7.0728,48.2169],[7.0685,48.2155],[7.0703,48.2156],[7.0696,48.2129],[7.0728,48.2083],[7.0746,48.2013],[7.0798,48.1974],[7.0882,48.1988]]]}}]}