{"type":"FeatureCollection","features":[{"type":"Feature","properties":{"name":"Foret de Frétoy"},"geometry":{"type":"Polygon","coordinates":[[[3.5555,47.5834],[3.5710,47.5756],[3.5650,47.5679],[3.5628,47.5670],[3.5536,47.5568],[3.5514,47.5566],[3.5446,47.5632],[3.5451,47.5651],[3.5433,47.5655],[3.5410,47.5699],[3.5506,47.5737],[3.5462,47.5793],[3.5555,47.5834]]]}},{"type":"Feature","properties":{"name":"Foret domaniale du Tureau du Bar"},"geometry":{"type":"Polygon","coordinates":[[[3.5807,47.8575],[3.5813,47.8585],[3.5908,47.8601],[3.5912,47.8588],[3.5934,47.8587],[3.5932,47.8618],[3.5954,47.8608],[3.5935,47.8611],[3.5958,47.8573],[3.6069,47.8549],[3.6088,47.8559],[3.6100,47.8531],[3.6139,47.8550],[3.6145,47.8535],[3.6162,47.8538],[3.6147,47.8522],[3.6167,47.8506],[3.6200,47.8529],[3.6214,47.8519],[3.6176,47.8501],[3.6204,47.8501],[3.6190,47.8489],[3.6215,47.8463],[3.6237,47.8467],[3.6216,47.8471],[3.6252,47.8495],[3.6307,47.8469],[3.6315,47.8444],[3.6296,47.8410],[3.6316,47.8411],[3.6316,47.8400],[3.6290,47.8406],[3.6285,47.8386],[3.6310,47.8378],[3.6289,47.8370],[3.6289,47.8348],[3.6266,47.8316],[3.6248,47.8311],[3.6239,47.8333],[3.6187,47.8330],[3.6169,47.8312],[3.6053,47.8277],[3.6009,47.8283],[3.5995,47.8272],[3.6013,47.8264],[3.6028,47.8277],[3.6031,47.8252],[3.6007,47.8234],[3.5990,47.8233],[3.5975,47.8257],[3.5940,47.8251],[3.5977,47.8263],[3.5981,47.8277],[3.5954,47.8281],[3.5986,47.8296],[3.5950,47.8304],[3.5928,47.8330],[3.6039,47.8386],[3.6057,47.8390],[3.6078,47.8368],[3.6137,47.8399],[3.6111,47.8416],[3.6043,47.8407],[3.5982,47.8375],[3.5961,47.8348],[3.5905,47.8358],[3.5892,47.8415],[3.5862,47.8406],[3.5855,47.8420],[3.5888,47.8422],[3.5875,47.8452],[3.5826,47.8465],[3.5886,47.8486],[3.5878,47.8515],[3.5900,47.8515],[3.5900,47.8526],[3.5871,47.8524],[3.5859,47.8535],[3.5863,47.8577],[3.5853,47.8561],[3.5807,47.8575]]]}},{"type":"Feature","properties":{"name":"Bois du Senoy"},"geometry":{"type":"Polygon","coordinates":[[[3.6923,47.7223],[3.6947,47.7243],[3.6944,47.7273],[3.6977,47.7292],[3.7081,47.7328],[3.7217,47.7354],[3.7272,47.7352],[3.7211,47.7333],[3.7208,47.7312],[3.7228,47.7311],[3.7199,47.7301],[3.7205,47.7289],[3.7186,47.7265],[3.7165,47.7267],[3.7097,47.7217],[3.7049,47.7235],[3.7067,47.7223],[3.7009,47.7164],[3.6864,47.7161],[3.6875,47.7172],[3.6864,47.7185],[3.6898,47.7195],[3.6864,47.7196],[3.6861,47.7207],[3.6919,47.7197],[3.6942,47.7219],[3.6923,47.7223]]]}},{"type":"Feature","properties":{"name":"Forêt de Frétoy"},"geometry":{"type":"Polygon","coordinates":[[[4.0503,47.6597],[4.0549,47.6606],[4.0527,47.6592],[4.0503,47.6596],[4.0447,47.6564],[4.0491,47.6524],[4.0514,47.6532],[4.0523,47.6513],[4.0511,47.6508],[4.0515,47.6499],[4.0566,47.6502],[4.0544,47.6491],[4.0561,47.6495],[4.0573,47.6471],[4.0627,47.6471],[4.0614,47.6486],[4.0626,47.6509],[4.0616,47.6490],[4.0639,47.6498],[4.0658,47.6479],[4.0637,47.6467],[4.0663,47.6476],[4.0706,47.6446],[4.0735,47.6447],[4.0776,47.6471],[4.0805,47.6448],[4.0841,47.6461],[4.0841,47.6408],[4.0812,47.6383],[4.0788,47.6399],[4.0775,47.6380],[4.0799,47.6384],[4.0776,47.6356],[4.0790,47.6353],[4.0785,47.6340],[4.0751,47.6349],[4.0725,47.6331],[4.0755,47.6342],[4.0771,47.6334],[4.0762,47.6320],[4.0865,47.6306],[4.0850,47.6294],[4.0862,47.6291],[4.0751,47.6282],[4.0701,47.6266],[4.0714,47.6276],[4.0616,47.6269],[4.0610,47.6283],[4.0587,47.6284],[4.0570,47.6258],[4.0578,47.6298],[4.0570,47.6301],[4.0586,47.6337],[4.0570,47.6356],[4.0574,47.6381],[4.0563,47.6374],[4.0503,47.6416],[4.0474,47.6415],[4.0476,47.6432],[4.0457,47.6444],[4.0386,47.6455],[4.0401,47.6412],[4.0420,47.6408],[4.0419,47.6395],[4.0448,47.6393],[4.0409,47.6384],[4.0417,47.6370],[4.0397,47.6351],[4.0413,47.6353],[4.0402,47.6344],[4.0420,47.6324],[4.0407,47.6298],[4.0377,47.6313],[4.0379,47.6272],[4.0427,47.6268],[4.0399,47.6269],[4.0394,47.6252],[4.0375,47.6254],[4.0371,47.6244],[4.0429,47.6242],[4.0420,47.6210],[4.0455,47.6182],[4.0408,47.6205],[4.0378,47.6204],[4.0375,47.6187],[4.0339,47.6209],[4.0347,47.6225],[4.0338,47.6227],[4.0319,47.6201],[4.0289,47.6195],[4.0262,47.6169],[4.0275,47.6154],[4.0256,47.6150],[4.0264,47.6136],[4.0237,47.6130],[4.0266,47.6130],[4.0255,47.6112],[4.0274,47.6107],[4.0307,47.6116],[4.0311,47.6128],[4.0285,47.6135],[4.0296,47.6146],[4.0366,47.6144],[4.0425,47.6126],[4.0423,47.6112],[4.0373,47.6123],[4.0340,47.6070],[4.0356,47.6066],[4.0347,47.6047],[4.0354,47.6011],[4.0404,47.5994],[4.0320,47.5994],[4.0278,47.6021],[4.0302,47.6038],[4.0293,47.6045],[4.0308,47.6061],[4.0279,47.6056],[4.0212,47.6086],[4.0206,47.6078],[4.0151,47.6086],[4.0136,47.6108],[4.0149,47.6124],[4.0086,47.6155],[4.0093,47.6166],[4.0046,47.6150],[4.0003,47.6183],[3.9977,47.6177],[3.9936,47.6205],[3.9903,47.6184],[3.9906,47.6169],[3.9871,47.6171],[3.9859,47.6161],[3.9962,47.6140],[3.9955,47.6128],[4.0006,47.6115],[4.0030,47.6096],[4.0017,47.6079],[3.9992,47.6101],[3.9950,47.6112],[3.9936,47.6097],[3.9957,47.6090],[3.9944,47.6077],[3.9981,47.6061],[3.9985,47.6094],[3.9998,47.6072],[3.9989,47.6064],[4.0010,47.6062],[4.0023,47.6071],[4.0016,47.6078],[4.0030,47.6071],[3.9993,47.6050],[4.0013,47.6034],[4.0036,47.6037],[4.0035,47.6024],[4.0122,47.6014],[4.0181,47.6035],[4.0215,47.6010],[4.0202,47.5987],[4.0220,47.5988],[4.0183,47.5984],[4.0191,47.5977],[4.0132,47.5994],[4.0106,47.5979],[4.0081,47.5980],[4.0147,47.6002],[4.0093,47.5992],[4.0049,47.6000],[4.0021,47.6008],[4.0034,47.6023],[4.0013,47.6020],[3.9996,47.6037],[3.9853,47.6062],[3.9848,47.6081],[3.9868,47.6061],[3.9934,47.6058],[3.9895,47.6066],[3.9876,47.6084],[3.9861,47.6079],[3.9861,47.6100],[3.9883,47.6123],[3.9870,47.6117],[3.9863,47.6142],[3.9795,47.6170],[3.9830,47.6194],[3.9795,47.6208],[3.9810,47.6207],[3.9848,47.6255],[3.9799,47.6265],[3.9809,47.6331],[3.9793,47.6357],[3.9805,47.6390],[3.9874,47.6414],[3.9884,47.6434],[3.9865,47.6475],[3.9871,47.6489],[3.9898,47.6498],[3.9918,47.6490],[3.9928,47.6482],[3.9918,47.6485],[3.9921,47.6464],[3.9939,47.6453],[3.9970,47.6456],[3.9989,47.6483],[3.9967,47.6488],[3.9945,47.6473],[3.9927,47.6497],[3.9895,47.6502],[3.9912,47.6517],[3.9938,47.6503],[3.9906,47.6522],[3.9909,47.6532],[3.9876,47.6530],[3.9883,47.6545],[3.9863,47.6533],[3.9868,47.6552],[3.9855,47.6546],[3.9836,47.6567],[3.9815,47.6559],[3.9777,47.6587],[3.9822,47.6595],[3.9833,47.6611],[3.9826,47.6622],[3.9837,47.6611],[3.9898,47.6617],[3.9881,47.6607],[3.9969,47.6597],[3.9976,47.6614],[3.9943,47.6660],[3.9955,47.6666],[3.9944,47.6677],[3.9954,47.6695],[3.9987,47.6690],[4.0029,47.6639],[4.0069,47.6659],[4.0098,47.6649],[4.0097,47.6620],[4.0120,47.6626],[4.0104,47.6634],[4.0125,47.6640],[4.0114,47.6656],[4.0124,47.6665],[4.0156,47.6645],[4.0169,47.6664],[4.0173,47.6635],[4.0220,47.6636],[4.0229,47.6675],[4.0276,47.6676],[4.0279,47.6701],[4.0290,47.6698],[4.0307,47.6723],[4.0293,47.6727],[4.0301,47.6740],[4.0313,47.6721],[4.0289,47.6652],[4.0325,47.6728],[4.0313,47.6726],[4.0313,47.6740],[4.0341,47.6756],[4.0349,47.6750],[4.0330,47.6733],[4.0362,47.6750],[4.0351,47.6723],[4.0328,47.6705],[4.0344,47.6704],[4.0348,47.6676],[4.0358,47.6675],[4.0351,47.6654],[4.0407,47.6640],[4.0405,47.6661],[4.0376,47.6659],[4.0380,47.6673],[4.0405,47.6669],[4.0421,47.6692],[4.0443,47.6695],[4.0451,47.6708],[4.0437,47.6713],[4.0447,47.6725],[4.0462,47.6717],[4.0526,47.6735],[4.0458,47.6729],[4.0541,47.6752],[4.0540,47.6769],[4.0533,47.6754],[4.0513,47.6752],[4.0510,47.6774],[4.0552,47.6777],[4.0556,47.6746],[4.0475,47.6722],[4.0433,47.6673],[4.0419,47.6634],[4.0419,47.6620],[4.0438,47.6653],[4.0442,47.6636],[4.0490,47.6639],[4.0519,47.6614],[4.0503,47.6597]]]}},{"type":"Feature","properties":{"name":"Bois Étienne"},"geometry":{"type":"Polygon","coordinates":[[[3.1832,47.8582],[3.1916,47.8562],[3.1904,47.8596],[3.1932,47.8619],[3.1958,47.8608],[3.1978,47.8614],[3.1958,47.8656],[3.2167,47.8630],[3.2177,47.8615],[3.2138,47.8620],[3.2126,47.8564],[3.2153,47.8570],[3.2177,47.8546],[3.2126,47.8550],[3.2165,47.8535],[3.2120,47.8535],[3.2116,47.8492],[3.2173,47.8475],[3.2170,47.8459],[3.2119,47.8464],[3.2103,47.8448],[3.2049,47.8447],[3.2029,47.8462],[3.2021,47.8449],[3.2026,47.8427],[3.2073,47.8423],[3.2057,47.8404],[3.2093,47.8396],[3.2110,47.8404],[3.2095,47.8418],[3.2138,47.8438],[3.2127,47.8413],[3.2143,47.8408],[3.2117,47.8372],[3.2143,47.8358],[3.2136,47.8343],[3.2300,47.8316],[3.2358,47.8343],[3.2342,47.8318],[3.2367,47.8319],[3.2390,47.8297],[3.2423,47.8306],[3.2432,47.8296],[3.2393,47.8293],[3.2404,47.8287],[3.2404,47.8256],[3.2470,47.8250],[3.2465,47.8225],[3.2494,47.8273],[3.2485,47.8246],[3.2531,47.8238],[3.2536,47.8224],[3.2552,47.8221],[3.2569,47.8231],[3.2564,47.8247],[3.2583,47.8243],[3.2579,47.8233],[3.2615,47.8230],[3.2620,47.8244],[3.2593,47.8256],[3.2640,47.8246],[3.2644,47.8258],[3.2690,47.8261],[3.2698,47.8273],[3.2764,47.8245],[3.2729,47.8253],[3.2694,47.8239],[3.2720,47.8196],[3.2768,47.8212],[3.2776,47.8205],[3.2753,47.8196],[3.2759,47.8182],[3.2734,47.8176],[3.2725,47.8187],[3.2640,47.8153],[3.2682,47.8076],[3.2632,47.8069],[3.2570,47.8082],[3.2532,47.8108],[3.2478,47.8081],[3.2500,47.8040],[3.2427,47.8088],[3.2391,47.8082],[3.2412,47.8042],[3.2464,47.8057],[3.2471,47.8042],[3.2529,47.8029],[3.2517,47.7988],[3.2541,47.7975],[3.2549,47.7942],[3.2592,47.7964],[3.2630,47.7940],[3.2655,47.7953],[3.2622,47.7983],[3.2620,47.8000],[3.2658,47.8009],[3.2670,47.7993],[3.2685,47.7999],[3.2679,47.8007],[3.2715,47.8000],[3.2721,47.8022],[3.2704,47.8030],[3.2703,47.8055],[3.2777,47.8086],[3.2791,47.8069],[3.2761,47.8057],[3.2794,47.8063],[3.2811,47.8046],[3.2791,47.8077],[3.2831,47.8086],[3.2850,47.8066],[3.2842,47.8081],[3.2857,47.8068],[3.2895,47.8077],[3.2888,47.8088],[3.2900,47.8110],[3.2953,47.8121],[3.2959,47.8108],[3.2984,47.8111],[3.2984,47.8100],[3.2965,47.8100],[3.2992,47.8094],[3.2994,47.8083],[3.2947,47.8069],[3.2946,47.8056],[3.2993,47.8055],[3.2999,47.8041],[3.2988,47.8028],[3.3010,47.8045],[3.3029,47.8024],[3.3021,47.8008],[3.3036,47.8016],[3.3047,47.8008],[3.3030,47.7992],[3.3002,47.8016],[3.3008,47.7990],[3.3030,47.7991],[3.3001,47.7975],[3.3035,47.7974],[3.3028,47.7949],[3.3062,47.7939],[3.3066,47.7925],[3.3041,47.7905],[3.3053,47.7892],[3.3028,47.7883],[3.3050,47.7854],[3.3031,47.7867],[3.3004,47.7864],[3.3000,47.7888],[3.2974,47.7882],[3.3058,47.7835],[3.3108,47.7858],[3.3128,47.7842],[3.3116,47.7825],[3.3097,47.7845],[3.3082,47.7836],[3.3076,47.7811],[3.3159,47.7788],[3.3184,47.7825],[3.3220,47.7835],[3.3239,47.7815],[3.3271,47.7835],[3.3278,47.7826],[3.3330,47.7843],[3.3338,47.7841],[3.3330,47.7830],[3.3356,47.7834],[3.3398,47.7811],[3.3409,47.7844],[3.3401,47.7853],[3.3416,47.7863],[3.3483,47.7858],[3.3438,47.7850],[3.3485,47.7845],[3.3503,47.7829],[3.3461,47.7803],[3.3442,47.7812],[3.3426,47.7803],[3.3437,47.7783],[3.3424,47.7765],[3.3436,47.7753],[3.3404,47.7744],[3.3395,47.7716],[3.3383,47.7717],[3.3419,47.7662],[3.3362,47.7653],[3.3342,47.7611],[3.3303,47.7641],[3.3277,47.7642],[3.3282,47.7652],[3.3262,47.7657],[3.3266,47.7670],[3.3246,47.7659],[3.3248,47.7687],[3.3225,47.7683],[3.3235,47.7709],[3.3205,47.7714],[3.3182,47.7685],[3.3187,47.7694],[3.3171,47.7704],[3.3127,47.7702],[3.3159,47.7684],[3.3145,47.7674],[3.3090,47.7737],[3.3061,47.7743],[3.3061,47.7754],[3.3035,47.7761],[3.3000,47.7729],[3.2964,47.7756],[3.2954,47.7749],[3.2945,47.7698],[3.2962,47.7690],[3.2936,47.7687],[3.2930,47.7659],[3.2944,47.7645],[3.2963,47.7658],[3.2972,47.7651],[3.2953,47.7637],[3.3010,47.7623],[3.3033,47.7608],[3.3028,47.7599],[3.3068,47.7614],[3.3090,47.7587],[3.3100,47.7599],[3.3123,47.7559],[3.3109,47.7543],[3.3126,47.7539],[3.3125,47.7512],[3.3156,47.7511],[3.3146,47.7510],[3.3139,47.7475],[3.3156,47.7465],[3.3147,47.7444],[3.3157,47.7420],[3.3131,47.7439],[3.3135,47.7460],[3.3107,47.7467],[3.3115,47.7488],[3.3021,47.7464],[3.3046,47.7470],[3.3100,47.7535],[3.3046,47.7498],[3.3026,47.7530],[3.3018,47.7507],[3.3003,47.7513],[3.3026,47.7535],[3.2998,47.7531],[3.3001,47.7547],[3.2975,47.7548],[3.2997,47.7579],[3.2953,47.7624],[3.2930,47.7592],[3.2849,47.7593],[3.2856,47.7639],[3.2844,47.7656],[3.2823,47.7658],[3.2812,47.7625],[3.2818,47.7598],[3.2799,47.7595],[3.2787,47.7575],[3.2751,47.7579],[3.2737,47.7559],[3.2716,47.7574],[3.2722,47.7583],[3.2705,47.7580],[3.2686,47.7599],[3.2688,47.7640],[3.2673,47.7635],[3.2677,47.7623],[3.2652,47.7618],[3.2664,47.7608],[3.2638,47.7619],[3.2649,47.7634],[3.2684,47.7644],[3.2668,47.7664],[3.2690,47.7644],[3.2710,47.7647],[3.2708,47.7632],[3.2725,47.7628],[3.2776,47.7646],[3.2764,47.7668],[3.2791,47.7657],[3.2823,47.7668],[3.2790,47.7669],[3.2795,47.7685],[3.2825,47.7678],[3.2833,47.7693],[3.2840,47.7676],[3.2909,47.7676],[3.2914,47.7691],[3.2900,47.7690],[3.2883,47.7714],[3.2837,47.7701],[3.2840,47.7727],[3.2823,47.7735],[3.2791,47.7734],[3.2774,47.7710],[3.2747,47.7714],[3.2719,47.7698],[3.2679,47.7719],[3.2599,47.7715],[3.2583,47.7678],[3.2562,47.7698],[3.2573,47.7716],[3.2538,47.7723],[3.2474,47.7699],[3.2514,47.7696],[3.2516,47.7680],[3.2501,47.7670],[3.2492,47.7673],[3.2504,47.7684],[3.2486,47.7690],[3.2421,47.7678],[3.2490,47.7714],[3.2493,47.7732],[3.2475,47.7738],[3.2503,47.7748],[3.2515,47.7767],[3.2490,47.7780],[3.2499,47.7794],[3.2480,47.7801],[3.2474,47.7822],[3.2431,47.7800],[3.2408,47.7817],[3.2406,47.7806],[3.2388,47.7814],[3.2391,47.7802],[3.2353,47.7793],[3.2319,47.7759],[3.2279,47.7778],[3.2286,47.7792],[3.2302,47.7790],[3.2286,47.7796],[3.2270,47.7778],[3.2282,47.7799],[3.2267,47.7807],[3.2273,47.7823],[3.2296,47.7844],[3.2264,47.7867],[3.2279,47.7879],[3.2252,47.7884],[3.2281,47.7886],[3.2270,47.7898],[3.2293,47.7905],[3.2274,47.7915],[3.2278,47.7931],[3.2297,47.7947],[3.2237,47.7958],[3.2230,47.7986],[3.2214,47.7975],[3.2214,47.7959],[3.2162,47.7945],[3.2156,47.7923],[3.2092,47.7930],[3.2083,47.7943],[3.2021,47.7962],[3.1984,47.8001],[3.1979,47.8027],[3.2043,47.8027],[3.2056,47.8077],[3.2088,47.8102],[3.2071,47.8112],[3.2043,47.8106],[3.2054,47.8066],[3.2013,47.8074],[3.1968,47.8063],[3.1991,47.8093],[3.1977,47.8103],[3.1940,47.8068],[3.1956,47.8046],[3.1939,47.8024],[3.1907,47.8055],[3.1889,47.8045],[3.1865,47.8057],[3.1839,47.8048],[3.1835,47.8076],[3.1798,47.8056],[3.1791,47.8068],[3.1805,47.8075],[3.1797,47.8092],[3.1812,47.8096],[3.1829,47.8074],[3.1848,47.8101],[3.1835,47.8114],[3.1854,47.8157],[3.1826,47.8195],[3.1826,47.8216],[3.1834,47.8232],[3.1877,47.8252],[3.1874,47.8263],[3.1827,47.8242],[3.1781,47.8262],[3.1763,47.8256],[3.1812,47.8233],[3.1768,47.8215],[3.1732,47.8244],[3.1707,47.8236],[3.1687,47.8253],[3.1713,47.8271],[3.1694,47.8290],[3.1630,47.8291],[3.1616,47.8309],[3.1637,47.8314],[3.1571,47.8329],[3.1544,47.8384],[3.1509,47.8375],[3.1515,47.8460],[3.1535,47.8456],[3.1545,47.8411],[3.1583,47.8410],[3.1560,47.8423],[3.1564,47.8431],[3.1596,47.8418],[3.1636,47.8370],[3.1664,47.8382],[3.1691,47.8377],[3.1703,47.8382],[3.1705,47.8400],[3.1727,47.8400],[3.1729,47.8415],[3.1714,47.8421],[3.1721,47.8433],[3.1708,47.8438],[3.1731,47.8460],[3.1748,47.8450],[3.1732,47.8439],[3.1768,47.8425],[3.1837,47.8472],[3.1869,47.8451],[3.1794,47.8437],[3.1812,47.8417],[3.1791,47.8400],[3.1825,47.8384],[3.1844,47.8407],[3.1862,47.8396],[3.1915,47.8395],[3.1903,47.8408],[3.1912,47.8427],[3.1887,47.8461],[3.1892,47.8476],[3.1942,47.8476],[3.1963,47.8506],[3.1941,47.8504],[3.1912,47.8543],[3.1868,47.8536],[3.1836,47.8550],[3.1832,47.8582]]]}},{"type":"Feature","properties":{"name":"Bois Communaux de Ravières"},"geometry":{"type":"Polygon","coordinates":[[[4.2663,47.7414],[4.2781,47.7392],[4.2888,47.7336],[4.2930,47.7333],[4.2959,47.7374],[4.3022,47.7414],[4.3095,47.7524],[4.3113,47.7504],[4.3037,47.7409],[4.3080,47.7402],[4.3067,47.7363],[4.3097,47.7355],[4.3104,47.7367],[4.3111,47.7358],[4.3098,47.7339],[4.3132,47.7346],[4.3156,47.7332],[4.3203,47.7353],[4.3190,47.7336],[4.3215,47.7335],[4.3205,47.7316],[4.3169,47.7311],[4.3227,47.7320],[4.3213,47.7310],[4.3236,47.7304],[4.3301,47.7334],[4.3325,47.7353],[4.3322,47.7365],[4.3330,47.7358],[4.3247,47.7287],[4.3310,47.7331],[4.3328,47.7309],[4.3394,47.7320],[4.3386,47.7336],[4.3332,47.7359],[4.3345,47.7385],[4.3345,47.7353],[4.3397,47.7374],[4.3399,47.7356],[4.3411,47.7370],[4.3506,47.7360],[4.3513,47.7349],[4.3490,47.7331],[4.3462,47.7346],[4.3403,47.7324],[4.3487,47.7267],[4.3628,47.7302],[4.3649,47.7293],[4.3613,47.7278],[4.3612,47.7261],[4.3651,47.7259],[4.3645,47.7230],[4.3685,47.7253],[4.3755,47.7261],[4.3736,47.7290],[4.3770,47.7289],[4.3791,47.7305],[4.3782,47.7313],[4.3789,47.7328],[4.3828,47.7359],[4.3843,47.7331],[4.3858,47.7333],[4.3854,47.7350],[4.3879,47.7351],[4.3868,47.7362],[4.3874,47.7369],[4.3889,47.7364],[4.3886,47.7350],[4.3944,47.7352],[4.3973,47.7335],[4.3998,47.7337],[4.3983,47.7305],[4.4009,47.7305],[4.3986,47.7278],[4.3961,47.7295],[4.3948,47.7330],[4.3885,47.7316],[4.3905,47.7259],[4.3838,47.7200],[4.3805,47.7193],[4.3806,47.7202],[4.3745,47.7206],[4.3739,47.7167],[4.3718,47.7136],[4.3786,47.7142],[4.3808,47.7112],[4.3790,47.7103],[4.3828,47.7081],[4.3868,47.7093],[4.3894,47.7080],[4.3909,47.7087],[4.3927,47.7069],[4.3919,47.7050],[4.3933,47.7057],[4.4012,47.7017],[4.4041,47.7041],[4.4066,47.7026],[4.4093,47.7027],[4.4113,47.7058],[4.4099,47.6979],[4.4117,47.6950],[4.4064,47.6931],[4.4080,47.6895],[4.4054,47.6873],[4.4060,47.6863],[4.4048,47.6850],[4.4056,47.6844],[4.4033,47.6825],[4.4045,47.6819],[4.4020,47.6807],[4.4040,47.6802],[4.4028,47.6790],[4.3985,47.6796],[4.3986,47.6777],[4.3968,47.6767],[4.3973,47.6751],[4.3933,47.6742],[4.3938,47.6717],[4.3912,47.6709],[4.3896,47.6717],[4.3860,47.6687],[4.3889,47.6737],[4.3891,47.6768],[4.3914,47.6791],[4.3869,47.6810],[4.3802,47.6750],[4.3852,47.6726],[4.3820,47.6687],[4.3699,47.6691],[4.3614,47.6712],[4.3504,47.6781],[4.3470,47.6920],[4.3409,47.6894],[4.3344,47.6903],[4.3352,47.6917],[4.3378,47.6921],[4.3375,47.6930],[4.3424,47.6934],[4.3432,47.7006],[4.3529,47.7009],[4.3532,47.7028],[4.3435,47.7027],[4.3430,47.7008],[4.3400,47.6995],[4.3386,47.7018],[4.3366,47.7025],[4.3378,47.7050],[4.3295,47.7055],[4.3210,47.7099],[4.3219,47.7065],[4.3207,47.7057],[4.3137,47.7054],[4.3125,47.7043],[4.3096,47.7078],[4.3068,47.7083],[4.3059,47.7071],[4.3069,47.7091],[4.3049,47.7092],[4.3059,47.7081],[4.3046,47.7068],[4.3019,47.7077],[4.2996,47.7128],[4.2985,47.7123],[4.2992,47.7108],[4.2970,47.7093],[4.2962,47.7096],[4.2975,47.7100],[4.2951,47.7106],[4.2976,47.7113],[4.2969,47.7124],[4.2990,47.7137],[4.2996,47.7163],[4.2974,47.7153],[4.2969,47.7135],[4.2938,47.7147],[4.2943,47.7169],[4.2968,47.7169],[4.2911,47.7206],[4.2933,47.7208],[4.2926,47.7221],[4.2966,47.7238],[4.2964,47.7256],[4.2916,47.7257],[4.2895,47.7289],[4.2857,47.7281],[4.2807,47.7291],[4.2805,47.7301],[4.2724,47.7275],[4.2728,47.7297],[4.2707,47.7332],[4.2614,47.7336],[4.2590,47.7321],[4.2582,47.7295],[4.2589,47.7262],[4.2620,47.7234],[4.2580,47.7217],[4.2619,47.7217],[4.2625,47.7200],[4.2662,47.7209],[4.2626,47.7192],[4.2658,47.7197],[4.2672,47.7174],[4.2638,47.7177],[4.2575,47.7149],[4.2542,47.7148],[4.2518,47.7130],[4.2462,47.7125],[4.2374,47.7168],[4.2314,47.7155],[4.2320,47.7160],[4.2304,47.7165],[4.2389,47.7205],[4.2387,47.7247],[4.2427,47.7255],[4.2400,47.7273],[4.2373,47.7273],[4.2372,47.7283],[4.2350,47.7275],[4.2375,47.7293],[4.2362,47.7316],[4.2380,47.7331],[4.2434,47.7337],[4.2395,47.7338],[4.2366,47.7320],[4.2361,47.7329],[4.2334,47.7324],[4.2329,47.7332],[4.2346,47.7338],[4.2326,47.7341],[4.2330,47.7349],[4.2372,47.7359],[4.2401,47.7391],[4.2508,47.7438],[4.2663,47.7414]]]}},{"type":"Feature","properties":{"name":"Foret de Frétoy"},"geometry":{"type":"Polygon","coordinates":[[[3.4777,47.5865],[3.4863,47.5905],[3.4860,47.5924],[3.4873,47.5921],[3.4855,47.5941],[3.4806,47.5953],[3.4804,47.5964],[3.4889,47.5954],[3.4795,47.5968],[3.4799,47.5977],[3.4839,47.5983],[3.4845,47.5965],[3.4863,47.5988],[3.4848,47.5972],[3.4874,47.5983],[3.4892,47.5968],[3.4907,47.5978],[3.4886,47.6002],[3.4928,47.5979],[3.4967,47.6004],[3.4993,47.5991],[3.4986,47.5963],[3.5009,47.5953],[3.4971,47.5910],[3.5136,47.5888],[3.5090,47.5917],[3.5045,47.6004],[3.5058,47.6002],[3.5061,47.5978],[3.5106,47.5987],[3.5120,47.5962],[3.5165,47.5991],[3.5241,47.5940],[3.5238,47.5914],[3.5315,47.5901],[3.5297,47.5888],[3.5304,47.5885],[3.5322,47.5900],[3.5332,47.5891],[3.5321,47.5878],[3.5350,47.5868],[3.5396,47.5882],[3.5396,47.5863],[3.5407,47.5861],[3.5407,47.5877],[3.5434,47.5886],[3.5510,47.5881],[3.5498,47.5897],[3.5516,47.5891],[3.5519,47.5903],[3.5550,47.5907],[3.5528,47.5939],[3.5552,47.5946],[3.5552,47.5931],[3.5568,47.5932],[3.5566,47.5948],[3.5585,47.5909],[3.5569,47.5883],[3.5622,47.5887],[3.5645,47.5869],[3.5670,47.5896],[3.5664,47.5940],[3.5709,47.5990],[3.5698,47.6005],[3.5711,47.6012],[3.5725,47.6001],[3.5772,47.6018],[3.5811,47.5999],[3.5770,47.5986],[3.5738,47.5994],[3.5736,47.5977],[3.5702,47.5968],[3.5699,47.5952],[3.5712,47.5947],[3.5704,47.5934],[3.5773,47.5959],[3.5794,47.5982],[3.5816,47.5971],[3.5863,47.5987],[3.5883,47.5982],[3.5880,47.5935],[3.5905,47.5944],[3.5916,47.5928],[3.5933,47.5932],[3.5947,47.5908],[3.5974,47.5912],[3.5986,47.5894],[3.5989,47.5912],[3.6007,47.5897],[3.6011,47.5881],[3.5983,47.5873],[3.5906,47.5923],[3.5894,47.5919],[3.5934,47.5885],[3.5903,47.5871],[3.5935,47.5879],[3.5949,47.5865],[3.5922,47.5869],[3.5929,47.5858],[3.5867,47.5831],[3.5845,47.5805],[3.5855,47.5773],[3.5885,47.5748],[3.5954,47.5756],[3.5972,47.5732],[3.5971,47.5697],[3.5988,47.5694],[3.5974,47.5675],[3.5941,47.5675],[3.5936,47.5690],[3.5893,47.5662],[3.5910,47.5643],[3.5987,47.5612],[3.5940,47.5537],[3.5926,47.5432],[3.5889,47.5381],[3.5858,47.5398],[3.5820,47.5394],[3.5811,47.5413],[3.5797,47.5403],[3.5812,47.5387],[3.5778,47.5392],[3.5762,47.5382],[3.5769,47.5391],[3.5745,47.5395],[3.5759,47.5405],[3.5714,47.5428],[3.5719,47.5440],[3.5686,47.5432],[3.5694,47.5421],[3.5680,47.5435],[3.5688,47.5451],[3.5676,47.5441],[3.5661,47.5457],[3.5667,47.5467],[3.5622,47.5483],[3.5625,47.5551],[3.5527,47.5558],[3.5546,47.5494],[3.5532,47.5451],[3.5495,47.5434],[3.5511,47.5425],[3.5530,47.5445],[3.5540,47.5428],[3.5528,47.5396],[3.5542,47.5398],[3.5532,47.5395],[3.5531,47.5374],[3.5518,47.5372],[3.5536,47.5321],[3.5510,47.5333],[3.5514,47.5356],[3.5482,47.5368],[3.5460,47.5416],[3.5473,47.5435],[3.5454,47.5416],[3.5478,47.5386],[3.5479,47.5363],[3.5505,47.5351],[3.5496,47.5330],[3.5520,47.5319],[3.5501,47.5313],[3.5486,47.5326],[3.5469,47.5321],[3.5453,47.5382],[3.5462,47.5388],[3.5433,47.5409],[3.5445,47.5412],[3.5441,47.5426],[3.5422,47.5447],[3.5423,47.5478],[3.5445,47.5497],[3.5450,47.5524],[3.5472,47.5539],[3.5458,47.5542],[3.5461,47.5558],[3.5482,47.5540],[3.5481,47.5568],[3.5464,47.5586],[3.5470,47.5598],[3.5401,47.5591],[3.5425,47.5599],[3.5411,47.5627],[3.5396,47.5626],[3.5396,47.5614],[3.5324,47.5628],[3.5264,47.5605],[3.5281,47.5586],[3.5221,47.5555],[3.5233,47.5535],[3.5215,47.5522],[3.5226,47.5503],[3.5213,47.5499],[3.5220,47.5481],[3.5192,47.5472],[3.5149,47.5482],[3.5134,47.5435],[3.5110,47.5443],[3.5115,47.5432],[3.5088,47.5413],[3.5114,47.5386],[3.5099,47.5394],[3.5088,47.5379],[3.5047,47.5379],[3.5032,47.5348],[3.4989,47.5347],[3.4924,47.5317],[3.4856,47.5328],[3.4869,47.5277],[3.4825,47.5270],[3.4812,47.5285],[3.4758,47.5290],[3.4754,47.5308],[3.4729,47.5317],[3.4736,47.5332],[3.4689,47.5321],[3.4674,47.5344],[3.4625,47.5360],[3.4658,47.5377],[3.4642,47.5362],[3.4728,47.5382],[3.4716,47.5374],[3.4738,47.5365],[3.4737,47.5384],[3.4789,47.5413],[3.4797,47.5423],[3.4786,47.5430],[3.4759,47.5431],[3.4730,47.5407],[3.4693,47.5433],[3.4769,47.5444],[3.4765,47.5470],[3.4773,47.5456],[3.4791,47.5464],[3.4774,47.5481],[3.4789,47.5487],[3.4754,47.5507],[3.4784,47.5503],[3.4826,47.5468],[3.4803,47.5446],[3.4843,47.5438],[3.4855,47.5449],[3.4926,47.5421],[3.4908,47.5440],[3.4914,47.5469],[3.4850,47.5471],[3.4903,47.5495],[3.4894,47.5513],[3.4878,47.5512],[3.4873,47.5489],[3.4849,47.5501],[3.4829,47.5495],[3.4834,47.5515],[3.4822,47.5495],[3.4829,47.5520],[3.4815,47.5537],[3.4797,47.5534],[3.4815,47.5545],[3.4840,47.5535],[3.4848,47.5541],[3.4835,47.5550],[3.4867,47.5554],[3.4878,47.5572],[3.4840,47.5582],[3.4829,47.5574],[3.4834,47.5586],[3.4813,47.5585],[3.4807,47.5606],[3.4751,47.5581],[3.4763,47.5592],[3.4747,47.5607],[3.4792,47.5637],[3.4797,47.5681],[3.4718,47.5656],[3.4717,47.5683],[3.4701,47.5682],[3.4690,47.5614],[3.4726,47.5600],[3.4705,47.5596],[3.4714,47.5589],[3.4690,47.5561],[3.4676,47.5561],[3.4676,47.5580],[3.4702,47.5590],[3.4677,47.5583],[3.4673,47.5598],[3.4624,47.5599],[3.4632,47.5626],[3.4598,47.5652],[3.4576,47.5642],[3.4569,47.5594],[3.4561,47.5580],[3.4548,47.5586],[3.4541,47.5558],[3.4579,47.5555],[3.4540,47.5553],[3.4556,47.5551],[3.4543,47.5548],[3.4552,47.5528],[3.4526,47.5530],[3.4520,47.5483],[3.4493,47.5470],[3.4513,47.5453],[3.4514,47.5473],[3.4538,47.5453],[3.4515,47.5380],[3.4519,47.5436],[3.4507,47.5453],[3.4412,47.5511],[3.4462,47.5502],[3.4498,47.5476],[3.4503,47.5510],[3.4478,47.5532],[3.4499,47.5549],[3.4458,47.5551],[3.4521,47.5551],[3.4451,47.5554],[3.4488,47.5564],[3.4463,47.5567],[3.4474,47.5579],[3.4451,47.5588],[3.4462,47.5603],[3.4450,47.5615],[3.4457,47.5629],[3.4484,47.5627],[3.4500,47.5656],[3.4563,47.5684],[3.4488,47.5689],[3.4452,47.5667],[3.4422,47.5678],[3.4418,47.5661],[3.4432,47.5649],[3.4409,47.5634],[3.4364,47.5628],[3.4341,47.5654],[3.4322,47.5628],[3.4313,47.5627],[3.4317,47.5644],[3.4284,47.5638],[3.4281,47.5664],[3.4218,47.5643],[3.4221,47.5626],[3.4200,47.5624],[3.4213,47.5644],[3.4192,47.5651],[3.4184,47.5645],[3.4198,47.5641],[3.4180,47.5617],[3.4150,47.5624],[3.4152,47.5591],[3.4128,47.5616],[3.4114,47.5614],[3.4098,47.5650],[3.4055,47.5632],[3.4044,47.5661],[3.4087,47.5675],[3.4064,47.5702],[3.4063,47.5712],[3.4080,47.5714],[3.4109,47.5667],[3.4144,47.5654],[3.4113,47.5666],[3.4107,47.5687],[3.4084,47.5706],[3.4114,47.5754],[3.4070,47.5749],[3.4057,47.5784],[3.4009,47.5793],[3.3997,47.5817],[3.3977,47.5822],[3.4007,47.5793],[3.3951,47.5785],[3.3903,47.5803],[3.3891,47.5830],[3.3883,47.5816],[3.3913,47.5795],[3.3861,47.5801],[3.3871,47.5836],[3.3815,47.5835],[3.3782,47.5867],[3.3770,47.5853],[3.3779,47.5837],[3.3737,47.5838],[3.3745,47.5866],[3.3771,47.5856],[3.3753,47.5880],[3.3780,47.5875],[3.3790,47.5888],[3.3789,47.5900],[3.3764,47.5899],[3.3770,47.5927],[3.3800,47.5912],[3.3834,47.5859],[3.3851,47.5866],[3.3824,47.5911],[3.3836,47.5921],[3.3861,47.5908],[3.3911,47.5933],[3.3936,47.5857],[3.3946,47.5859],[3.3949,47.5841],[3.3974,47.5848],[3.3983,47.5864],[3.3960,47.5868],[3.3946,47.5920],[3.4010,47.5978],[3.4029,47.5977],[3.4027,47.5993],[3.4113,47.5968],[3.4140,47.5974],[3.4131,47.5966],[3.4140,47.5938],[3.4116,47.5949],[3.4099,47.5927],[3.4114,47.5918],[3.4106,47.5904],[3.4148,47.5907],[3.4109,47.5865],[3.4175,47.5836],[3.4174,47.5827],[3.4146,47.5830],[3.4145,47.5818],[3.4173,47.5814],[3.4217,47.5855],[3.4212,47.5871],[3.4233,47.5875],[3.4208,47.5888],[3.4227,47.5899],[3.4212,47.5906],[3.4227,47.5911],[3.4228,47.5932],[3.4240,47.5925],[3.4276,47.5962],[3.4347,47.5994],[3.4360,47.5978],[3.4380,47.5985],[3.4353,47.5957],[3.4379,47.5942],[3.4377,47.5929],[3.4427,47.5908],[3.4465,47.5951],[3.4471,47.5982],[3.4522,47.6003],[3.4492,47.6027],[3.4509,47.6037],[3.4510,47.6017],[3.4525,47.6008],[3.4519,47.6020],[3.4528,47.6023],[3.4545,47.5999],[3.4570,47.5998],[3.4541,47.5991],[3.4569,47.5992],[3.4556,47.5981],[3.4569,47.5970],[3.4599,47.5968],[3.4583,47.5965],[3.4592,47.5945],[3.4603,47.5970],[3.4612,47.5962],[3.4610,47.5992],[3.4621,47.5992],[3.4582,47.5995],[3.4592,47.6003],[3.4664,47.5993],[3.4665,47.5970],[3.4709,47.5975],[3.4650,47.5963],[3.4646,47.5946],[3.4657,47.5936],[3.4606,47.5889],[3.4615,47.5871],[3.4630,47.5872],[3.4626,47.5846],[3.4642,47.5843],[3.4626,47.5826],[3.4636,47.5813],[3.4627,47.5803],[3.4658,47.5797],[3.4713,47.5820],[3.4725,47.5807],[3.4774,47.5827],[3.4810,47.5812],[3.4818,47.5796],[3.4837,47.5797],[3.4827,47.5813],[3.4859,47.5826],[3.4877,47.5800],[3.4866,47.5775],[3.4848,47.5776],[3.4843,47.5740],[3.4874,47.5713],[3.4871,47.5684],[3.4892,47.5683],[3.4894,47.5651],[3.4905,47.5651],[3.4906,47.5660],[3.4938,47.5661],[3.4937,47.5694],[3.4971,47.5705],[3.4951,47.5713],[3.4969,47.5733],[3.4957,47.5795],[3.4973,47.5801],[3.5004,47.5785],[3.4998,47.5797],[3.5053,47.5828],[3.5045,47.5836],[3.5054,47.5845],[3.5085,47.5855],[3.5024,47.5869],[3.5026,47.5880],[3.5007,47.5890],[3.4903,47.5893],[3.4844,47.5866],[3.4810,47.5830],[3.4777,47.5865]]]}},{"type":"Feature","properties":{"name":"Forêt d\u0027Othe"},"geometry":{"type":"Polygon","coordinates":[[[3.4765,48.0925],[3.4772,48.0888],[3.4781,48.0891],[3.4776,48.0948],[3.4787,48.0960],[3.4819,48.0933],[3.4859,48.0921],[3.4880,48.0925],[3.4883,48.0941],[3.4924,48.0924],[3.4911,48.0904],[3.4935,48.0894],[3.4969,48.0906],[3.5025,48.0876],[3.5192,48.0839],[3.5188,48.0824],[3.5118,48.0831],[3.5129,48.0796],[3.5170,48.0791],[3.5174,48.0811],[3.5198,48.0816],[3.5326,48.0794],[3.5313,48.0742],[3.5379,48.0725],[3.5389,48.0749],[3.5452,48.0777],[3.5595,48.0700],[3.5855,48.0465],[3.5827,48.0461],[3.5815,48.0441],[3.5773,48.0450],[3.5806,48.0433],[3.5774,48.0400],[3.5773,48.0383],[3.5759,48.0387],[3.5753,48.0374],[3.5735,48.0378],[3.5752,48.0405],[3.5741,48.0408],[3.5717,48.0389],[3.5726,48.0368],[3.5709,48.0383],[3.5656,48.0385],[3.5651,48.0373],[3.5649,48.0383],[3.5608,48.0392],[3.5580,48.0388],[3.5603,48.0382],[3.5589,48.0362],[3.5574,48.0372],[3.5585,48.0383],[3.5551,48.0374],[3.5595,48.0342],[3.5566,48.0338],[3.5556,48.0350],[3.5548,48.0310],[3.5573,48.0305],[3.5530,48.0277],[3.5539,48.0267],[3.5490,48.0267],[3.5520,48.0200],[3.5508,48.0188],[3.5472,48.0195],[3.5461,48.0182],[3.5480,48.0176],[3.5472,48.0168],[3.5408,48.0212],[3.5419,48.0264],[3.5439,48.0278],[3.5406,48.0276],[3.5416,48.0281],[3.5371,48.0314],[3.5398,48.0323],[3.5408,48.0310],[3.5452,48.0302],[3.5513,48.0330],[3.5486,48.0353],[3.5448,48.0334],[3.5327,48.0423],[3.5207,48.0427],[3.5177,48.0384],[3.5205,48.0382],[3.5184,48.0360],[3.5253,48.0315],[3.5305,48.0340],[3.5302,48.0359],[3.5312,48.0357],[3.5365,48.0303],[3.5349,48.0299],[3.5343,48.0279],[3.5353,48.0271],[3.5294,48.0275],[3.5258,48.0299],[3.5222,48.0299],[3.5232,48.0285],[3.5212,48.0273],[3.5155,48.0328],[3.5101,48.0319],[3.5095,48.0286],[3.5083,48.0283],[3.5093,48.0270],[3.5086,48.0245],[3.5067,48.0253],[3.5031,48.0231],[3.4964,48.0288],[3.4938,48.0272],[3.4918,48.0237],[3.4944,48.0204],[3.4918,48.0201],[3.4894,48.0220],[3.4869,48.0202],[3.4879,48.0191],[3.4871,48.0150],[3.4901,48.0136],[3.4984,48.0132],[3.5020,48.0097],[3.4960,48.0120],[3.4899,48.0116],[3.4906,48.0128],[3.4812,48.0139],[3.4809,48.0151],[3.4778,48.0148],[3.4766,48.0122],[3.4709,48.0146],[3.4696,48.0166],[3.4676,48.0151],[3.4685,48.0141],[3.4641,48.0131],[3.4641,48.0110],[3.4568,48.0126],[3.4607,48.0132],[3.4605,48.0145],[3.4634,48.0169],[3.4669,48.0238],[3.4674,48.0283],[3.4655,48.0290],[3.4664,48.0339],[3.4645,48.0337],[3.4581,48.0321],[3.4634,48.0301],[3.4607,48.0219],[3.4586,48.0230],[3.4572,48.0208],[3.4549,48.0216],[3.4535,48.0201],[3.4538,48.0183],[3.4502,48.0174],[3.4536,48.0178],[3.4541,48.0169],[3.4511,48.0147],[3.4519,48.0141],[3.4493,48.0138],[3.4489,48.0097],[3.4485,48.0126],[3.4424,48.0121],[3.4416,48.0117],[3.4435,48.0099],[3.4420,48.0094],[3.4400,48.0126],[3.4385,48.0127],[3.4399,48.0087],[3.4383,48.0076],[3.4384,48.0163],[3.4339,48.0135],[3.4338,48.0115],[3.4306,48.0107],[3.4315,48.0088],[3.4371,48.0074],[3.4367,48.0058],[3.4403,48.0045],[3.4403,48.0030],[3.4379,48.0030],[3.4368,48.0049],[3.4297,48.0066],[3.4248,48.0096],[3.4255,48.0104],[3.4240,48.0125],[3.4211,48.0113],[3.4237,48.0058],[3.4185,48.0026],[3.4183,48.0008],[3.4191,48.0000],[3.4222,48.0010],[3.4274,47.9950],[3.4309,47.9965],[3.4316,47.9993],[3.4293,47.9998],[3.4296,48.0011],[3.4322,48.0006],[3.4341,47.9984],[3.4322,47.9978],[3.4348,47.9934],[3.4331,47.9921],[3.4258,47.9916],[3.4263,47.9934],[3.4208,47.9903],[3.4144,47.9906],[3.4161,47.9905],[3.4171,47.9882],[3.4140,47.9869],[3.4158,47.9865],[3.4141,47.9857],[3.4120,47.9863],[3.4113,47.9892],[3.4126,47.9893],[3.4111,47.9898],[3.4129,47.9905],[3.4090,47.9906],[3.4101,47.9936],[3.4073,47.9935],[3.4078,47.9911],[3.4057,47.9915],[3.4050,47.9898],[3.4041,47.9909],[3.4058,47.9934],[3.4040,47.9937],[3.4018,47.9912],[3.3965,47.9900],[3.4020,47.9960],[3.3863,47.9940],[3.3838,47.9949],[3.3814,47.9935],[3.3836,47.9971],[3.3858,47.9971],[3.3827,47.9983],[3.3830,48.0010],[3.3811,48.0005],[3.3795,47.9972],[3.3771,47.9964],[3.3725,47.9918],[3.3731,47.9940],[3.3745,47.9939],[3.3788,48.0003],[3.3777,48.0016],[3.3812,48.0033],[3.3904,48.0051],[3.3915,48.0041],[3.3865,48.0025],[3.3860,48.0001],[3.3945,48.0003],[3.3990,47.9986],[3.4009,48.0019],[3.4042,48.0012],[3.4063,48.0039],[3.4086,48.0037],[3.4125,48.0069],[3.4147,48.0057],[3.4189,48.0080],[3.4180,48.0100],[3.4201,48.0114],[3.4176,48.0156],[3.4223,48.0197],[3.4242,48.0245],[3.4239,48.0325],[3.4213,48.0377],[3.4215,48.0398],[3.4272,48.0397],[3.4282,48.0399],[3.4270,48.0413],[3.4286,48.0408],[3.4347,48.0386],[3.4331,48.0364],[3.4429,48.0329],[3.4472,48.0383],[3.4510,48.0375],[3.4530,48.0403],[3.4493,48.0410],[3.4517,48.0442],[3.4641,48.0517],[3.4651,48.0512],[3.4618,48.0481],[3.4648,48.0464],[3.4732,48.0526],[3.4710,48.0538],[3.4718,48.0548],[3.4793,48.0554],[3.4800,48.0578],[3.4903,48.0576],[3.4909,48.0661],[3.4716,48.0677],[3.4715,48.0706],[3.4808,48.0710],[3.4804,48.0739],[3.4751,48.0738],[3.4751,48.0761],[3.4796,48.0760],[3.4797,48.0775],[3.4846,48.0778],[3.4846,48.0767],[3.4902,48.0767],[3.4900,48.0868],[3.4840,48.0885],[3.4840,48.0859],[3.4754,48.0849],[3.4755,48.0863],[3.4736,48.0860],[3.4732,48.0840],[3.4674,48.0844],[3.4614,48.0802],[3.4642,48.0787],[3.4626,48.0771],[3.4591,48.0770],[3.4564,48.0779],[3.4593,48.0795],[3.4574,48.0806],[3.4580,48.0815],[3.4538,48.0784],[3.4534,48.0802],[3.4506,48.0812],[3.4517,48.0822],[3.4515,48.0866],[3.4503,48.0870],[3.4499,48.0907],[3.4482,48.0927],[3.4513,48.0964],[3.4521,48.0955],[3.4496,48.0935],[3.4517,48.0907],[3.4501,48.0892],[3.4536,48.0875],[3.4537,48.0838],[3.4557,48.0813],[3.4607,48.0852],[3.4601,48.0859],[3.4640,48.0866],[3.4634,48.0873],[3.4648,48.0881],[3.4651,48.0889],[3.4597,48.0911],[3.4652,48.0910],[3.4671,48.0947],[3.4688,48.0945],[3.4688,48.0967],[3.4710,48.0963],[3.4699,48.0950],[3.4715,48.0961],[3.4711,48.0950],[3.4737,48.0950],[3.4765,48.0925]]]}},{"type":"Feature","properties":{"name":"Bois des Grandes Chaumâtres"},"geometry":{"type":"Polygon","coordinates":[[[3.4825,47.4117],[3.4916,47.4144],[3.4923,47.4123],[3.4916,47.4134],[3.4896,47.4127],[3.4872,47.4099],[3.4923,47.4096],[3.4924,47.4121],[3.4971,47.4057],[3.4969,47.4023],[3.4904,47.4070],[3.4908,47.4089],[3.4864,47.4100],[3.4824,47.4079],[3.4776,47.4076],[3.4829,47.4111],[3.4779,47.4085],[3.4773,47.4105],[3.4747,47.4097],[3.4721,47.4109],[3.4753,47.4083],[3.4748,47.4075],[3.4707,47.4080],[3.4671,47.4067],[3.4643,47.4041],[3.4597,47.4048],[3.4589,47.4076],[3.4630,47.4061],[3.4597,47.4057],[3.4620,47.4051],[3.4647,47.4058],[3.4612,47.4072],[3.4618,47.4079],[3.4658,47.4061],[3.4641,47.4075],[3.4653,47.4093],[3.4589,47.4098],[3.4574,47.4111],[3.4608,47.4120],[3.4600,47.4131],[3.4619,47.4157],[3.4641,47.4146],[3.4635,47.4160],[3.4660,47.4163],[3.4682,47.4147],[3.4722,47.4164],[3.4730,47.4170],[3.4719,47.4185],[3.4702,47.4190],[3.4733,47.4209],[3.4771,47.4178],[3.4805,47.4173],[3.4810,47.4183],[3.4830,47.4172],[3.4819,47.4158],[3.4832,47.4147],[3.4809,47.4136],[3.4825,47.4117]]]}},{"type":"Feature","properties":{"name":"Bois de la Brandelle"},"geometry":{"type":"Polygon","coordinates":[[[2.9250,48.2052],[2.9262,48.2030],[2.9294,48.2027],[2.9299,48.1983],[2.9321,48.1982],[2.9316,48.1995],[2.9330,48.1981],[2.9358,48.2005],[2.9385,48.2005],[2.9358,48.1996],[2.9371,48.1957],[2.9352,48.1951],[2.9360,48.1917],[2.9457,48.1898],[2.9449,48.1890],[2.9395,48.1901],[2.9394,48.1872],[2.9422,48.1871],[2.9419,48.1859],[2.9397,48.1858],[2.9400,48.1849],[2.9369,48.1831],[2.9356,48.1796],[2.9335,48.1786],[2.9276,48.1824],[2.9265,48.1794],[2.9247,48.1799],[2.9252,48.1813],[2.9212,48.1831],[2.9213,48.1842],[2.9187,48.1859],[2.9170,48.1856],[2.9167,48.1873],[2.9140,48.1889],[2.9058,48.1859],[2.9054,48.1872],[2.9008,48.1887],[2.9008,48.1901],[2.8994,48.1896],[2.9005,48.1946],[2.9078,48.1941],[2.9108,48.1953],[2.9072,48.1958],[2.9127,48.1957],[2.9132,48.1965],[2.9103,48.1984],[2.9128,48.1971],[2.9144,48.1981],[2.9136,48.1968],[2.9148,48.1964],[2.9190,48.2028],[2.9226,48.2015],[2.9237,48.1985],[2.9259,48.1982],[2.9293,48.1951],[2.9262,48.1934],[2.9278,48.1918],[2.9317,48.1934],[2.9337,48.1904],[2.9351,48.1907],[2.9307,48.1974],[2.9236,48.1994],[2.9225,48.2040],[2.9250,48.2052]]]}},{"type":"Feature","properties":{"name":"Forêt de Champagne"},"geometry":{"type":"Polygon","coordinates":[[[2.8237,48.3962],[2.8236,48.3974],[2.8124,48.3962],[2.8102,48.3978],[2.8113,48.3988],[2.8067,48.3992],[2.8060,48.4013],[2.8061,48.3991],[2.8042,48.3988],[2.8036,48.3998],[2.8051,48.4003],[2.8028,48.4003],[2.8046,48.4015],[2.8025,48.4012],[2.8025,48.4056],[2.8072,48.4041],[2.8052,48.4043],[2.8044,48.4070],[2.8023,48.4082],[2.8030,48.4095],[2.7995,48.4089],[2.8010,48.4098],[2.7999,48.4119],[2.7960,48.4140],[2.7865,48.4154],[2.7619,48.4129],[2.7575,48.4142],[2.7631,48.4211],[2.7661,48.4228],[2.7731,48.4210],[2.7748,48.4243],[2.7861,48.4238],[2.7873,48.4281],[2.7895,48.4290],[2.7865,48.4295],[2.7870,48.4305],[2.7928,48.4290],[2.7925,48.4241],[2.7978,48.4241],[2.8016,48.4263],[2.8015,48.4278],[2.8074,48.4297],[2.8023,48.4299],[2.8074,48.4310],[2.8076,48.4325],[2.8050,48.4357],[2.8053,48.4377],[2.8078,48.4328],[2.8108,48.4352],[2.8092,48.4375],[2.8108,48.4385],[2.8108,48.4400],[2.8169,48.4410],[2.8191,48.4418],[2.8187,48.4431],[2.8210,48.4431],[2.8212,48.4408],[2.8360,48.4421],[2.8377,48.4409],[2.8446,48.4414],[2.8460,48.4400],[2.8537,48.4387],[2.8549,48.4366],[2.8592,48.4070],[2.8628,48.4015],[2.8583,48.4036],[2.8576,48.4010],[2.8564,48.4008],[2.8535,48.4047],[2.8502,48.4053],[2.8502,48.4085],[2.8476,48.4098],[2.8391,48.4102],[2.8379,48.4075],[2.8346,48.4062],[2.8332,48.4028],[2.8292,48.4045],[2.8316,48.4072],[2.8339,48.4063],[2.8358,48.4084],[2.8348,48.4089],[2.8374,48.4108],[2.8336,48.4130],[2.8289,48.4105],[2.8296,48.4113],[2.8285,48.4116],[2.8269,48.4095],[2.8289,48.4104],[2.8290,48.4091],[2.8274,48.4073],[2.8258,48.4078],[2.8267,48.4063],[2.8247,48.4044],[2.8319,48.4027],[2.8329,48.4018],[2.8326,48.3989],[2.8281,48.3959],[2.8261,48.3960],[2.8271,48.3974],[2.8237,48.3962]]]}},{"type":"Feature","properties":{"name":"Forêt de Soucy-Launay"},"geometry":{"type":"Polygon","coordinates":[[[3.3413,48.2619],[3.3362,48.2580],[3.3382,48.2602],[3.3301,48.2586],[3.3293,48.2612],[3.3311,48.2632],[3.3291,48.2652],[3.3236,48.2628],[3.3222,48.2636],[3.3204,48.2628],[3.3182,48.2644],[3.3086,48.2635],[3.3070,48.2649],[3.3149,48.2659],[3.3125,48.2679],[3.3138,48.2688],[3.3123,48.2724],[3.3080,48.2715],[3.3093,48.2736],[3.3118,48.2727],[3.3118,48.2768],[3.3157,48.2775],[3.3170,48.2761],[3.3202,48.2759],[3.3181,48.2826],[3.3200,48.2826],[3.3205,48.2781],[3.3252,48.2788],[3.3256,48.2739],[3.3279,48.2747],[3.3273,48.2765],[3.3305,48.2761],[3.3313,48.2789],[3.3436,48.2814],[3.3466,48.2803],[3.3471,48.2821],[3.3481,48.2820],[3.3480,48.2776],[3.3521,48.2773],[3.3536,48.2825],[3.3515,48.2842],[3.3515,48.2870],[3.3559,48.2895],[3.3612,48.2892],[3.3632,48.2872],[3.3616,48.2873],[3.3627,48.2865],[3.3607,48.2857],[3.3619,48.2852],[3.3543,48.2671],[3.3531,48.2676],[3.3517,48.2657],[3.3525,48.2657],[3.3499,48.2646],[3.3473,48.2674],[3.3444,48.2646],[3.3459,48.2634],[3.3413,48.2619]]]}},{"type":"Feature","properties":{"name":"Forêt de Voisines"},"geometry":{"type":"Polygon","coordinates":[[[3.3549,48.2655],[3.3525,48.2657],[3.3543,48.2671],[3.3593,48.2802],[3.3660,48.2770],[3.3642,48.2751],[3.3652,48.2748],[3.3668,48.2769],[3.3697,48.2758],[3.3730,48.2780],[3.3761,48.2767],[3.3742,48.2753],[3.3790,48.2732],[3.3819,48.2766],[3.3837,48.2753],[3.3920,48.2745],[3.3955,48.2731],[3.3953,48.2713],[3.3936,48.2713],[3.3934,48.2685],[3.3952,48.2679],[3.3945,48.2662],[3.3998,48.2659],[3.3994,48.2638],[3.3943,48.2657],[3.3925,48.2608],[3.3867,48.2593],[3.3873,48.2585],[3.3788,48.2582],[3.3725,48.2604],[3.3701,48.2583],[3.3646,48.2578],[3.3625,48.2578],[3.3626,48.2595],[3.3546,48.2597],[3.3564,48.2651],[3.3549,48.2655]]]}},{"type":"Feature","properties":{"name":"Bois de Traînel"},"geometry":{"type":"Polygon","coordinates":[[[3.4913,48.3323],[3.4901,48.3310],[3.4915,48.3298],[3.4875,48.3269],[3.4877,48.3256],[3.4951,48.3277],[3.4997,48.3272],[3.4972,48.3242],[3.4898,48.3226],[3.4878,48.3241],[3.4843,48.3214],[3.4798,48.3203],[3.4791,48.3213],[3.4759,48.3209],[3.4728,48.3193],[3.4726,48.3207],[3.4689,48.3194],[3.4712,48.3227],[3.4684,48.3243],[3.4623,48.3225],[3.4568,48.3238],[3.4562,48.3254],[3.4602,48.3297],[3.4606,48.3333],[3.4793,48.3402],[3.4831,48.3385],[3.4818,48.3400],[3.4852,48.3407],[3.4906,48.3359],[3.4964,48.3376],[3.4943,48.3340],[3.4958,48.3326],[3.4913,48.3323]]]}},{"type":"Feature","properties":{"name":"Bois des Fontemottes"},"geometry":{"type":"Polygon","coordinates":[[[3.4208,48.2213],[3.4185,48.2235],[3.4187,48.2212],[3.4163,48.2213],[3.4170,48.2175],[3.4127,48.2167],[3.4135,48.2161],[3.4119,48.2135],[3.4135,48.2118],[3.4041,48.2103],[3.4053,48.2085],[3.4112,48.2085],[3.4103,48.2079],[3.4122,48.2058],[3.4100,48.2065],[3.4088,48.2053],[3.4072,48.2079],[3.4065,48.2069],[3.3988,48.2094],[3.4010,48.2088],[3.4030,48.2098],[3.4026,48.2108],[3.3984,48.2114],[3.3973,48.2103],[3.3967,48.2130],[3.4026,48.2131],[3.4024,48.2173],[3.4004,48.2173],[3.3998,48.2187],[3.3962,48.2182],[3.3944,48.2142],[3.4000,48.2158],[3.4003,48.2148],[3.3934,48.2137],[3.3954,48.2184],[3.3936,48.2185],[3.3937,48.2203],[3.3921,48.2217],[3.3993,48.2222],[3.3973,48.2271],[3.4031,48.2277],[3.4022,48.2287],[3.4060,48.2301],[3.4063,48.2312],[3.4097,48.2295],[3.4112,48.2266],[3.4077,48.2255],[3.4084,48.2239],[3.4124,48.2235],[3.4131,48.2283],[3.4154,48.2298],[3.4169,48.2289],[3.4151,48.2257],[3.4220,48.2257],[3.4220,48.2244],[3.4203,48.2242],[3.4208,48.2213]]]}},{"type":"Feature","properties":{"name":"Forêt de Fiel"},"geometry":{"type":"Polygon","coordinates":[[[4.2908,48.0441],[4.2831,48.0428],[4.2810,48.0496],[4.2766,48.0546],[4.2829,48.0611],[4.2872,48.0702],[4.2903,48.0720],[4.2935,48.0688],[4.2999,48.0718],[4.2981,48.0734],[4.2985,48.0749],[4.3011,48.0723],[4.3027,48.0737],[4.3036,48.0731],[4.3014,48.0715],[4.3046,48.0698],[4.3026,48.0675],[4.3032,48.0664],[4.3052,48.0653],[4.3093,48.0678],[4.3140,48.0643],[4.3166,48.0669],[4.3204,48.0743],[4.3233,48.0737],[4.3174,48.0764],[4.3172,48.0775],[4.3106,48.0791],[4.3069,48.0819],[4.3044,48.0863],[4.3087,48.0813],[4.3132,48.0796],[4.3123,48.0803],[4.3141,48.0807],[4.3136,48.0799],[4.3154,48.0783],[4.3176,48.0783],[4.3182,48.0798],[4.3236,48.0799],[4.3189,48.0768],[4.3209,48.0758],[4.3258,48.0782],[4.3297,48.0768],[4.3348,48.0783],[4.3355,48.0764],[4.3371,48.0763],[4.3352,48.0759],[4.3354,48.0746],[4.3377,48.0750],[4.3388,48.0731],[4.3425,48.0730],[4.3393,48.0692],[4.3360,48.0692],[4.3359,48.0676],[4.3336,48.0666],[4.3342,48.0656],[4.3322,48.0635],[4.3264,48.0668],[4.3262,48.0700],[4.3245,48.0701],[4.3224,48.0728],[4.3174,48.0665],[4.3281,48.0599],[4.3147,48.0576],[4.3036,48.0517],[4.3060,48.0502],[4.3046,48.0508],[4.3044,48.0493],[4.2990,48.0475],[4.2973,48.0450],[4.2908,48.0441]]]}},{"type":"Feature","properties":{"name":"Forêt d\u0027Orient"},"geometry":{"type":"Polygon","coordinates":[[[4.4509,48.2609],[4.4482,48.2589],[4.4449,48.2616],[4.4421,48.2598],[4.4477,48.2579],[4.4484,48.2571],[4.4471,48.2555],[4.4501,48.2542],[4.4500,48.2528],[4.4472,48.2512],[4.4460,48.2483],[4.4467,48.2469],[4.4436,48.2438],[4.4330,48.2448],[4.4322,48.2428],[4.4210,48.2428],[4.4228,48.2411],[4.4212,48.2408],[4.4195,48.2441],[4.4247,48.2444],[4.4247,48.2460],[4.4175,48.2452],[4.4156,48.2425],[4.4132,48.2419],[4.4122,48.2429],[4.4080,48.2423],[4.4066,48.2435],[4.4073,48.2460],[4.4038,48.2469],[4.4045,48.2478],[4.4100,48.2511],[4.4137,48.2489],[4.4169,48.2497],[4.4153,48.2502],[4.4144,48.2536],[4.4111,48.2523],[4.4068,48.2542],[4.4025,48.2533],[4.4029,48.2549],[4.4066,48.2576],[4.4053,48.2585],[4.4057,48.2615],[4.4086,48.2614],[4.4093,48.2622],[4.4068,48.2629],[4.4094,48.2623],[4.4101,48.2646],[4.4124,48.2664],[4.4123,48.2682],[4.4185,48.2699],[4.4228,48.2744],[4.4233,48.2779],[4.4131,48.2795],[4.4119,48.2772],[4.4149,48.2773],[4.4110,48.2768],[4.4101,48.2754],[4.4119,48.2742],[4.4134,48.2749],[4.4108,48.2732],[4.4086,48.2728],[4.4043,48.2748],[4.4031,48.2738],[4.4050,48.2728],[4.3990,48.2716],[4.4025,48.2705],[4.3989,48.2683],[4.3984,48.2668],[4.4063,48.2667],[4.4061,48.2652],[4.4012,48.2666],[4.4010,48.2646],[4.3969,48.2612],[4.3927,48.2603],[4.3931,48.2617],[4.3885,48.2613],[4.3898,48.2562],[4.3870,48.2558],[4.3871,48.2544],[4.3850,48.2544],[4.3845,48.2529],[4.3785,48.2530],[4.3751,48.2568],[4.3725,48.2572],[4.3720,48.2541],[4.3743,48.2533],[4.3758,48.2541],[4.3781,48.2520],[4.3844,48.2519],[4.3832,48.2487],[4.3814,48.2487],[4.3802,48.2473],[4.3749,48.2480],[4.3739,48.2457],[4.3700,48.2438],[4.3699,48.2450],[4.3649,48.2457],[4.3647,48.2447],[4.3630,48.2468],[4.3596,48.2458],[4.3564,48.2469],[4.3584,48.2483],[4.3580,48.2507],[4.3618,48.2518],[4.3644,48.2555],[4.3585,48.2570],[4.3610,48.2587],[4.3575,48.2577],[4.3581,48.2619],[4.3564,48.2610],[4.3570,48.2620],[4.3507,48.2629],[4.3453,48.2656],[4.3482,48.2660],[4.3489,48.2680],[4.3524,48.2639],[4.3578,48.2633],[4.3585,48.2650],[4.3624,48.2663],[4.3622,48.2687],[4.3634,48.2697],[4.3654,48.2680],[4.3656,48.2716],[4.3672,48.2731],[4.3669,48.2790],[4.3689,48.2795],[4.3683,48.2782],[4.3708,48.2804],[4.3729,48.2785],[4.3703,48.2772],[4.3740,48.2779],[4.3747,48.2794],[4.3709,48.2806],[4.3736,48.2826],[4.3745,48.2807],[4.3747,48.2830],[4.3773,48.2832],[4.3754,48.2860],[4.3768,48.2897],[4.3787,48.2907],[4.3777,48.2932],[4.3719,48.2927],[4.3730,48.2950],[4.3685,48.2954],[4.3689,48.2979],[4.3669,48.2991],[4.3639,48.2979],[4.3622,48.3009],[4.3582,48.3009],[4.3577,48.3023],[4.3545,48.3017],[4.3549,48.3003],[4.3528,48.2990],[4.3538,48.2942],[4.3490,48.2935],[4.3478,48.2918],[4.3480,48.2898],[4.3514,48.2878],[4.3486,48.2867],[4.3446,48.2889],[4.3403,48.2867],[4.3393,48.2839],[4.3421,48.2838],[4.3426,48.2820],[4.3398,48.2795],[4.3361,48.2792],[4.3381,48.2824],[4.3391,48.2877],[4.3436,48.2897],[4.3488,48.2978],[4.3474,48.2990],[4.3377,48.3001],[4.3365,48.3019],[4.3389,48.3038],[4.3372,48.3046],[4.3377,48.3058],[4.3362,48.3076],[4.3385,48.3094],[4.3487,48.3073],[4.3518,48.3119],[4.3451,48.3150],[4.3468,48.3163],[4.3483,48.3158],[4.3540,48.3206],[4.3608,48.3183],[4.3654,48.3241],[4.3708,48.3273],[4.3718,48.3324],[4.3695,48.3325],[4.3693,48.3339],[4.3633,48.3361],[4.3628,48.3337],[4.3594,48.3314],[4.3595,48.3286],[4.3578,48.3294],[4.3589,48.3316],[4.3582,48.3330],[4.3556,48.3345],[4.3598,48.3326],[4.3640,48.3369],[4.3739,48.3341],[4.3759,48.3378],[4.3777,48.3374],[4.3797,48.3388],[4.3809,48.3371],[4.3828,48.3395],[4.3898,48.3400],[4.3913,48.3411],[4.3906,48.3441],[4.3926,48.3434],[4.3936,48.3412],[4.3919,48.3404],[4.3894,48.3334],[4.3817,48.3295],[4.3755,48.3188],[4.3693,48.3159],[4.3660,48.3114],[4.3660,48.3073],[4.3754,48.3052],[4.3658,48.3025],[4.3698,48.3006],[4.3735,48.3016],[4.3748,48.2982],[4.3797,48.3014],[4.3812,48.3047],[4.3851,48.3020],[4.3841,48.2987],[4.3856,48.2968],[4.3871,48.2997],[4.3909,48.2972],[4.3913,48.2955],[4.3925,48.2958],[4.3911,48.2994],[4.3919,48.3007],[4.3890,48.3034],[4.3918,48.3049],[4.3915,48.3069],[4.3934,48.3073],[4.3928,48.3098],[4.3949,48.3090],[4.3980,48.3101],[4.3977,48.3122],[4.4053,48.3184],[4.4118,48.3270],[4.4129,48.3261],[4.4111,48.3226],[4.4125,48.3214],[4.4097,48.3177],[4.4129,48.3181],[4.4154,48.3209],[4.4215,48.3229],[4.4246,48.3279],[4.4248,48.3241],[4.4258,48.3238],[4.4307,48.3275],[4.4347,48.3337],[4.4361,48.3317],[4.4351,48.3303],[4.4389,48.3283],[4.4441,48.3280],[4.4284,48.3134],[4.4331,48.3143],[4.4289,48.3105],[4.4279,48.3072],[4.4182,48.3046],[4.4195,48.3029],[4.4172,48.2991],[4.4210,48.3006],[4.4247,48.3042],[4.4287,48.3049],[4.4321,48.3041],[4.4388,48.2986],[4.4402,48.2991],[4.4405,48.3020],[4.4430,48.3021],[4.4369,48.3059],[4.4357,48.3105],[4.4385,48.3103],[4.4384,48.3122],[4.4436,48.3124],[4.4467,48.3162],[4.4566,48.3129],[4.4544,48.3145],[4.4561,48.3151],[4.4492,48.3170],[4.4400,48.3148],[4.4380,48.3158],[4.4389,48.3175],[4.4438,48.3198],[4.4477,48.3196],[4.4437,48.3229],[4.4466,48.3259],[4.4622,48.3302],[4.4642,48.3324],[4.4678,48.3305],[4.4724,48.3315],[4.4732,48.3350],[4.4705,48.3388],[4.4718,48.3405],[4.4702,48.3410],[4.4703,48.3436],[4.4745,48.3415],[4.4731,48.3410],[4.4760,48.3381],[4.4778,48.3325],[4.4861,48.3359],[4.4864,48.3385],[4.4889,48.3379],[4.4887,48.3367],[4.4952,48.3357],[4.4957,48.3364],[4.4932,48.3370],[4.4938,48.3381],[4.4952,48.3401],[4.4977,48.3403],[4.5018,48.3371],[4.5005,48.3345],[4.5018,48.3343],[4.5030,48.3369],[4.5027,48.3341],[4.5059,48.3331],[4.5034,48.3350],[4.5040,48.3361],[4.5053,48.3356],[4.5066,48.3317],[4.5094,48.3302],[4.5091,48.3294],[4.5119,48.3301],[4.5106,48.3282],[4.5144,48.3257],[4.5034,48.3195],[4.4980,48.3183],[4.5019,48.3166],[4.4997,48.3133],[4.5133,48.3222],[4.5152,48.3193],[4.5207,48.3165],[4.5252,48.3165],[4.5279,48.3151],[4.5299,48.3172],[4.5338,48.3172],[4.5333,48.3150],[4.5374,48.3143],[4.5356,48.3127],[4.5370,48.3123],[4.5373,48.3079],[4.5336,48.3065],[4.5325,48.3020],[4.5283,48.3045],[4.5275,48.3017],[4.5251,48.3009],[4.5242,48.3018],[4.5268,48.3049],[4.5248,48.3058],[4.5230,48.3043],[4.5233,48.3058],[4.5219,48.3067],[4.5241,48.3084],[4.5237,48.3096],[4.5221,48.3119],[4.5204,48.3121],[4.5188,48.3097],[4.5171,48.3100],[4.5173,48.3070],[4.5095,48.3062],[4.5106,48.3036],[4.5056,48.3029],[4.5041,48.2974],[4.4962,48.2952],[4.4995,48.2911],[4.4908,48.2885],[4.4913,48.2869],[4.4968,48.2867],[4.4866,48.2844],[4.4890,48.2827],[4.4899,48.2781],[4.4934,48.2786],[4.4926,48.2816],[4.4939,48.2818],[4.4937,48.2829],[4.4918,48.2827],[4.4919,48.2849],[4.4965,48.2855],[4.4963,48.2836],[4.4993,48.2835],[4.4992,48.2826],[4.4975,48.2828],[4.4965,48.2805],[4.4963,48.2796],[4.4980,48.2795],[4.4975,48.2778],[4.5026,48.2770],[4.5065,48.2748],[4.5061,48.2738],[4.5133,48.2720],[4.5125,48.2715],[4.5141,48.2706],[4.5117,48.2676],[4.5151,48.2685],[4.5157,48.2669],[4.5180,48.2673],[4.5164,48.2656],[4.5131,48.2658],[4.5124,48.2629],[4.5102,48.2628],[4.5119,48.2620],[4.5089,48.2608],[4.5071,48.2584],[4.5020,48.2595],[4.5013,48.2611],[4.4967,48.2584],[4.4948,48.2588],[4.4956,48.2602],[4.4915,48.2615],[4.4888,48.2598],[4.4883,48.2588],[4.4956,48.2538],[4.4900,48.2471],[4.4914,48.2442],[4.4856,48.2425],[4.4837,48.2436],[4.4857,48.2450],[4.4827,48.2468],[4.4855,48.2492],[4.4835,48.2503],[4.4865,48.2541],[4.4818,48.2573],[4.4807,48.2556],[4.4786,48.2562],[4.4794,48.2581],[4.4749,48.2605],[4.4736,48.2602],[4.4734,48.2588],[4.4701,48.2582],[4.4700,48.2597],[4.4684,48.2598],[4.4688,48.2579],[4.4665,48.2571],[4.4660,48.2596],[4.4616,48.2602],[4.4614,48.2611],[4.4551,48.2612],[4.4532,48.2599],[4.4524,48.2614],[4.4509,48.2609]]]}},{"type":"Feature","properties":{"name":"Forêt de Vauluisant"},"geometry":{"type":"Polygon","coordinates":[[[3.5048,48.3252],[3.5078,48.3228],[3.5095,48.3238],[3.5096,48.3255],[3.5119,48.3232],[3.5181,48.3272],[3.5211,48.3259],[3.5194,48.3255],[3.5211,48.3246],[3.5201,48.3244],[3.5227,48.3182],[3.5219,48.3171],[3.5102,48.3123],[3.5123,48.3096],[3.5077,48.3074],[3.5034,48.3058],[3.5033,48.3093],[3.5010,48.3126],[3.5029,48.3146],[3.5027,48.3164],[3.4979,48.3175],[3.4978,48.3130],[3.5028,48.3010],[3.4994,48.2988],[3.5030,48.2968],[3.5045,48.2981],[3.5091,48.2984],[3.5140,48.2952],[3.5164,48.2917],[3.5154,48.2905],[3.5204,48.2839],[3.5130,48.2829],[3.5164,48.2750],[3.5092,48.2714],[3.5062,48.2739],[3.5051,48.2743],[3.5045,48.2729],[3.5019,48.2740],[3.5041,48.2746],[3.5006,48.2760],[3.4991,48.2741],[3.4953,48.2755],[3.4865,48.2731],[3.4852,48.2712],[3.4845,48.2727],[3.4845,48.2711],[3.4840,48.2726],[3.4831,48.2723],[3.4826,48.2693],[3.4806,48.2686],[3.4768,48.2706],[3.4795,48.2683],[3.4765,48.2675],[3.4774,48.2684],[3.4741,48.2709],[3.4698,48.2709],[3.4683,48.2726],[3.4616,48.2733],[3.4571,48.2761],[3.4583,48.2800],[3.4662,48.2776],[3.4689,48.2803],[3.4633,48.2878],[3.4679,48.2885],[3.4772,48.2862],[3.4765,48.2880],[3.4731,48.2890],[3.4717,48.2920],[3.4823,48.2927],[3.4790,48.2951],[3.4713,48.2946],[3.4776,48.2962],[3.4788,48.2954],[3.4818,48.2984],[3.4803,48.2996],[3.4820,48.3003],[3.4806,48.3007],[3.4810,48.3021],[3.4769,48.3025],[3.4838,48.3041],[3.4810,48.3101],[3.4838,48.3099],[3.4843,48.3075],[3.4861,48.3077],[3.4860,48.3113],[3.4838,48.3121],[3.4846,48.3146],[3.4833,48.3187],[3.4853,48.3196],[3.4873,48.3187],[3.4880,48.3207],[3.4944,48.3223],[3.5032,48.3226],[3.5048,48.3252]]]}},{"type":"Feature","properties":{"name":"Bois de Mainbœuf"},"geometry":{"type":"Polygon","coordinates":[[[3.4385,48.3042],[3.4415,48.3046],[3.4422,48.3029],[3.4449,48.3027],[3.4447,48.3017],[3.4512,48.3023],[3.4567,48.2998],[3.4588,48.2926],[3.4643,48.2919],[3.4449,48.2877],[3.4354,48.2909],[3.4332,48.2907],[3.4301,48.2868],[3.4248,48.2890],[3.4243,48.2899],[3.4264,48.2912],[3.4280,48.2905],[3.4276,48.2893],[3.4330,48.2917],[3.4271,48.2961],[3.4313,48.2989],[3.4337,48.3047],[3.4352,48.3043],[3.4358,48.3012],[3.4385,48.3042]]]}}]}