{"type":"FeatureCollection","features":[{"type":"Feature","properties":{"name":"Bois domanial des Cinq-Cents Arpents"},"geometry":{"type":"Polygon","coordinates":[[[1.9346,48.6921],[1.9293,48.6944],[1.9309,48.6974],[1.9246,48.7020],[1.9265,48.7041],[1.9152,48.7081],[1.9106,48.7015],[1.9071,48.7023],[1.9083,48.7041],[1.9013,48.7070],[1.9015,48.7043],[1.8976,48.7048],[1.8959,48.7032],[1.8967,48.6979],[1.9009,48.6984],[1.9005,48.6996],[1.9020,48.6994],[1.9010,48.6984],[1.9047,48.6972],[1.9053,48.6985],[1.9091,48.6965],[1.9158,48.6999],[1.9218,48.6999],[1.9200,48.6953],[1.9252,48.6931],[1.9217,48.6914],[1.9304,48.6887],[1.9280,48.6871],[1.9299,48.6860],[1.9355,48.6855],[1.9324,48.6868],[1.9341,48.6877],[1.9329,48.6882],[1.9335,48.6893],[1.9375,48.6881],[1.9399,48.6900],[1.9346,48.6921]]]}},{"type":"Feature","properties":{"name":"Bois de Bréviande"},"geometry":{"type":"Polygon","coordinates":[[[2.6118,48.5487],[2.6091,48.5510],[2.6227,48.5506],[2.6222,48.5477],[2.6232,48.5476],[2.6265,48.5542],[2.6366,48.5587],[2.6318,48.5601],[2.6307,48.5611],[2.6317,48.5624],[2.6278,48.5600],[2.6220,48.5624],[2.6160,48.5599],[2.6111,48.5616],[2.6090,48.5565],[2.6026,48.5583],[2.6030,48.5594],[2.6002,48.5597],[2.5999,48.5612],[2.5976,48.5609],[2.6118,48.5487]]]}},{"type":"Feature","properties":{"name":"Forêt domaniale de Maurepas"},"geometry":{"type":"Polygon","coordinates":[[[1.9125,48.7817],[1.9150,48.7805],[1.9198,48.7820],[1.9226,48.7815],[1.9231,48.7804],[1.9291,48.7834],[1.9362,48.7835],[1.9368,48.7849],[1.9403,48.7818],[1.9421,48.7840],[1.9402,48.7865],[1.9421,48.7867],[1.9425,48.7839],[1.9521,48.7831],[1.9536,48.7843],[1.9521,48.7822],[1.9536,48.7812],[1.9569,48.7818],[1.9575,48.7802],[1.9551,48.7785],[1.9539,48.7749],[1.9495,48.7752],[1.9498,48.7815],[1.9489,48.7824],[1.9458,48.7813],[1.9447,48.7781],[1.9381,48.7748],[1.9381,48.7729],[1.9361,48.7734],[1.9377,48.7774],[1.9351,48.7774],[1.9367,48.7758],[1.9340,48.7765],[1.9366,48.7747],[1.9325,48.7748],[1.9341,48.7747],[1.9331,48.7738],[1.9341,48.7722],[1.9373,48.7703],[1.9348,48.7702],[1.9407,48.7683],[1.9398,48.7680],[1.9406,48.7666],[1.9366,48.7682],[1.9355,48.7673],[1.9251,48.7685],[1.9238,48.7693],[1.9261,48.7723],[1.9283,48.7729],[1.9206,48.7759],[1.9209,48.7776],[1.9178,48.7791],[1.9179,48.7773],[1.9132,48.7774],[1.9140,48.7791],[1.9125,48.7817]]]}},{"type":"Feature","properties":{"name":"Forêt régionale de Cheptainville"},"geometry":{"type":"Polygon","coordinates":[[[2.2728,48.5287],[2.2681,48.5280],[2.2674,48.5288],[2.2676,48.5278],[2.2672,48.5291],[2.2651,48.5283],[2.2623,48.5296],[2.2675,48.5277],[2.2609,48.5244],[2.2593,48.5247],[2.2574,48.5226],[2.2562,48.5230],[2.2562,48.5217],[2.2538,48.5221],[2.2493,48.5201],[2.2507,48.5192],[2.2381,48.5163],[2.2347,48.5215],[2.2392,48.5248],[2.2419,48.5238],[2.2484,48.5266],[2.2507,48.5251],[2.2524,48.5256],[2.2569,48.5292],[2.2558,48.5305],[2.2597,48.5355],[2.2601,48.5388],[2.2490,48.5402],[2.2465,48.5392],[2.2463,48.5364],[2.2398,48.5388],[2.2390,48.5377],[2.2362,48.5380],[2.2335,48.5355],[2.2293,48.5348],[2.2258,48.5370],[2.2226,48.5351],[2.2231,48.5360],[2.2190,48.5370],[2.2194,48.5388],[2.2179,48.5373],[2.2162,48.5375],[2.2132,48.5406],[2.2143,48.5419],[2.2225,48.5394],[2.2242,48.5423],[2.2297,48.5410],[2.2314,48.5447],[2.2333,48.5432],[2.2345,48.5462],[2.2365,48.5478],[2.2380,48.5474],[2.2383,48.5486],[2.2414,48.5478],[2.2410,48.5469],[2.2428,48.5477],[2.2422,48.5459],[2.2440,48.5459],[2.2439,48.5445],[2.2458,48.5443],[2.2466,48.5456],[2.2469,48.5433],[2.2476,48.5449],[2.2508,48.5446],[2.2515,48.5462],[2.2528,48.5461],[2.2532,48.5439],[2.2563,48.5437],[2.2571,48.5450],[2.2560,48.5458],[2.2612,48.5456],[2.2631,48.5441],[2.2680,48.5437],[2.2666,48.5427],[2.2691,48.5426],[2.2686,48.5417],[2.2699,48.5411],[2.2726,48.5423],[2.2721,48.5416],[2.2858,48.5355],[2.2881,48.5359],[2.2864,48.5335],[2.2864,48.5303],[2.2728,48.5287]]]}},{"type":"Feature","properties":{"name":"Forêt domaniale de Sénart"},"geometry":{"type":"Polygon","coordinates":[[[2.4359,48.6558],[2.4313,48.6587],[2.4319,48.6599],[2.4297,48.6609],[2.4296,48.6625],[2.4272,48.6624],[2.4321,48.6656],[2.4282,48.6682],[2.4271,48.6669],[2.4279,48.6651],[2.4244,48.6631],[2.4225,48.6636],[2.4216,48.6641],[2.4228,48.6653],[2.4209,48.6652],[2.4224,48.6660],[2.4194,48.6668],[2.4208,48.6678],[2.4190,48.6675],[2.4190,48.6688],[2.4172,48.6681],[2.4150,48.6716],[2.4183,48.6726],[2.4171,48.6738],[2.4177,48.6757],[2.4300,48.6770],[2.4284,48.6793],[2.4306,48.6809],[2.4359,48.6802],[2.4338,48.6820],[2.4353,48.6826],[2.4366,48.6868],[2.4390,48.6879],[2.4425,48.6846],[2.4551,48.6906],[2.4823,48.6883],[2.4865,48.6861],[2.4892,48.6827],[2.4901,48.6832],[2.5170,48.6609],[2.5043,48.6537],[2.5023,48.6542],[2.4908,48.6502],[2.4931,48.6489],[2.4972,48.6515],[2.5015,48.6505],[2.5048,48.6517],[2.5061,48.6487],[2.5041,48.6453],[2.5013,48.6457],[2.4992,48.6482],[2.4966,48.6464],[2.4996,48.6442],[2.4988,48.6431],[2.5009,48.6410],[2.4970,48.6424],[2.4906,48.6403],[2.4875,48.6378],[2.4814,48.6366],[2.4728,48.6374],[2.4795,48.6402],[2.4835,48.6389],[2.4816,48.6378],[2.4824,48.6375],[2.4854,48.6395],[2.4850,48.6421],[2.4784,48.6422],[2.4792,48.6445],[2.4776,48.6464],[2.4762,48.6456],[2.4691,48.6498],[2.4703,48.6507],[2.4682,48.6523],[2.4669,48.6517],[2.4592,48.6564],[2.4521,48.6564],[2.4505,48.6529],[2.4465,48.6547],[2.4492,48.6567],[2.4435,48.6564],[2.4458,48.6541],[2.4435,48.6527],[2.4359,48.6558]]]}},{"type":"Feature","properties":{"name":"Forêt domaniale de Versailles"},"geometry":{"type":"Polygon","coordinates":[[[2.1327,48.7878],[2.1286,48.7831],[2.1298,48.7831],[2.1301,48.7813],[2.1273,48.7773],[2.1181,48.7776],[2.1190,48.7750],[2.1183,48.7729],[2.1112,48.7731],[2.1029,48.7711],[2.0986,48.7726],[2.0961,48.7759],[2.0987,48.7776],[2.0987,48.7805],[2.0964,48.7795],[2.0960,48.7804],[2.0954,48.7777],[2.0892,48.7765],[2.0839,48.7809],[2.0775,48.7819],[2.0763,48.7806],[2.0797,48.7786],[2.0796,48.7773],[2.0747,48.7802],[2.0710,48.7780],[2.0694,48.7787],[2.0669,48.7773],[2.0664,48.7781],[2.0692,48.7803],[2.0677,48.7811],[2.0682,48.7820],[2.0748,48.7837],[2.0789,48.7864],[2.0670,48.7879],[2.0712,48.7909],[2.0673,48.7884],[2.0630,48.7881],[2.0615,48.7897],[2.0634,48.7931],[2.0661,48.7913],[2.0719,48.7917],[2.0833,48.7896],[2.0908,48.7840],[2.0953,48.7834],[2.1005,48.7807],[2.1032,48.7801],[2.1058,48.7812],[2.1077,48.7799],[2.1154,48.7809],[2.1160,48.7796],[2.1226,48.7808],[2.1253,48.7887],[2.1327,48.7878]]]}},{"type":"Feature","properties":{"name":"Bois Labette"},"geometry":{"type":"Polygon","coordinates":[[[2.2175,48.5815],[2.1945,48.5787],[2.1863,48.5787],[2.1822,48.5800],[2.1745,48.5786],[2.1735,48.5770],[2.1695,48.5775],[2.1706,48.5761],[2.1630,48.5753],[2.1600,48.5753],[2.1590,48.5774],[2.1520,48.5770],[2.1580,48.5747],[2.1577,48.5730],[2.1560,48.5738],[2.1537,48.5725],[2.1543,48.5707],[2.1502,48.5729],[2.1474,48.5712],[2.1456,48.5722],[2.1468,48.5707],[2.1440,48.5727],[2.1442,48.5713],[2.1429,48.5717],[2.1408,48.5734],[2.1436,48.5753],[2.1406,48.5748],[2.1403,48.5760],[2.1419,48.5773],[2.1444,48.5766],[2.1512,48.5809],[2.1539,48.5812],[2.1537,48.5821],[2.1483,48.5820],[2.1474,48.5837],[2.1532,48.5848],[2.1532,48.5858],[2.1589,48.5840],[2.1592,48.5816],[2.1561,48.5823],[2.1549,48.5813],[2.1579,48.5801],[2.1649,48.5814],[2.1705,48.5802],[2.1772,48.5822],[2.1768,48.5864],[2.1729,48.5884],[2.1739,48.5897],[2.1762,48.5890],[2.1756,48.5883],[2.1774,48.5880],[2.1807,48.5843],[2.1928,48.5835],[2.1937,48.5817],[2.2018,48.5843],[2.2130,48.5856],[2.2211,48.5859],[2.2214,48.5849],[2.2254,48.5854],[2.2252,48.5869],[2.2255,48.5854],[2.2272,48.5855],[2.2265,48.5875],[2.2292,48.5862],[2.2328,48.5881],[2.2319,48.5893],[2.2335,48.5899],[2.2333,48.5911],[2.2410,48.5911],[2.2286,48.5847],[2.2145,48.5830],[2.2175,48.5815]]]}},{"type":"Feature","properties":{"name":"Forêt domaniale de Meudon"},"geometry":{"type":"Polygon","coordinates":[[[2.2219,48.7876],[2.2120,48.7910],[2.2060,48.7840],[2.1966,48.7825],[2.1901,48.7864],[2.1798,48.7883],[2.1797,48.7943],[2.1791,48.7931],[2.1788,48.7948],[2.1774,48.7937],[2.1797,48.7909],[2.1790,48.7885],[2.1753,48.7895],[2.1734,48.7867],[2.1707,48.7871],[2.1734,48.7915],[2.1666,48.7986],[2.1752,48.7968],[2.1819,48.7971],[2.1811,48.7955],[2.1867,48.7962],[2.1868,48.7946],[2.1884,48.7943],[2.1883,48.7963],[2.1900,48.7964],[2.1899,48.7973],[2.1927,48.7974],[2.1927,48.7963],[2.1949,48.7964],[2.1990,48.7941],[2.2014,48.7950],[2.1968,48.8000],[2.1894,48.8004],[2.1885,48.8017],[2.1905,48.8028],[2.1884,48.8039],[2.1924,48.8078],[2.1959,48.8084],[2.1952,48.8114],[2.1996,48.8167],[2.2011,48.8177],[2.2026,48.8166],[2.2069,48.8166],[2.2107,48.8190],[2.2107,48.8178],[2.2133,48.8169],[2.2161,48.8178],[2.2136,48.8155],[2.2064,48.8139],[2.2078,48.8129],[2.2039,48.8104],[2.2070,48.8087],[2.2109,48.8114],[2.2144,48.8104],[2.2160,48.8128],[2.2226,48.8144],[2.2275,48.8114],[2.2289,48.8090],[2.2287,48.8059],[2.2266,48.8061],[2.2253,48.8047],[2.2278,48.8042],[2.2288,48.8057],[2.2304,48.8040],[2.2338,48.8043],[2.2330,48.8016],[2.2299,48.7983],[2.2316,48.7981],[2.2335,48.7996],[2.2324,48.7974],[2.2351,48.7955],[2.2365,48.7971],[2.2349,48.7990],[2.2377,48.7978],[2.2384,48.8004],[2.2400,48.7996],[2.2424,48.8034],[2.2472,48.8030],[2.2492,48.8056],[2.2566,48.8032],[2.2536,48.7993],[2.2523,48.7925],[2.2392,48.7882],[2.2252,48.7908],[2.2200,48.7936],[2.2227,48.7951],[2.2222,48.7962],[2.2181,48.7958],[2.2166,48.7938],[2.2185,48.7939],[2.2219,48.7876]]]}},{"type":"Feature","properties":{"name":"Forêt de l\u0027Ouye"},"geometry":{"type":"Polygon","coordinates":[[[1.9776,48.5056],[1.9819,48.5028],[1.9788,48.5013],[1.9810,48.4998],[1.9826,48.5004],[1.9853,48.4965],[1.9832,48.4949],[1.9842,48.4919],[1.9868,48.4908],[1.9899,48.4933],[1.9893,48.4946],[1.9967,48.4970],[1.9980,48.4991],[2.0014,48.5007],[2.0030,48.5037],[2.0026,48.5060],[2.0046,48.5079],[2.0108,48.5068],[2.0125,48.5053],[2.0154,48.5106],[2.0089,48.5138],[2.0024,48.5135],[1.9964,48.5165],[1.9920,48.5158],[1.9924,48.5177],[1.9943,48.5187],[1.9929,48.5209],[1.9939,48.5232],[1.9908,48.5238],[1.9913,48.5250],[1.9880,48.5235],[1.9852,48.5251],[1.9761,48.5253],[1.9748,48.5269],[1.9676,48.5262],[1.9620,48.5235],[1.9606,48.5218],[1.9625,48.5155],[1.9706,48.5101],[1.9686,48.5073],[1.9613,48.5034],[1.9652,48.5033],[1.9727,48.5071],[1.9752,48.5055],[1.9763,48.5064],[1.9776,48.5056]]]}},{"type":"Feature","properties":{"name":"Forêt domaniale de Port-Royal"},"geometry":{"type":"Polygon","coordinates":[[[2.0157,48.7360],[2.0062,48.7325],[1.9924,48.7362],[1.9878,48.7394],[1.9908,48.7413],[1.9919,48.7402],[1.9930,48.7415],[1.9953,48.7404],[1.9970,48.7414],[1.9973,48.7427],[1.9954,48.7450],[1.9969,48.7466],[1.9913,48.7475],[1.9870,48.7462],[1.9847,48.7485],[1.9863,48.7499],[1.9851,48.7514],[1.9715,48.7540],[1.9678,48.7560],[1.9670,48.7579],[1.9722,48.7609],[1.9785,48.7564],[1.9873,48.7568],[1.9956,48.7601],[1.9943,48.7613],[2.0074,48.7675],[2.0093,48.7669],[2.0083,48.7658],[2.0105,48.7649],[2.0188,48.7640],[2.0219,48.7625],[2.0222,48.7649],[2.0260,48.7642],[2.0274,48.7635],[2.0256,48.7621],[2.0269,48.7599],[2.0261,48.7576],[2.0317,48.7571],[2.0310,48.7553],[2.0237,48.7562],[2.0183,48.7594],[2.0167,48.7577],[2.0191,48.7565],[2.0180,48.7549],[2.0123,48.7534],[2.0099,48.7540],[2.0067,48.7510],[2.0153,48.7474],[2.0155,48.7461],[2.0163,48.7476],[2.0219,48.7466],[2.0226,48.7453],[2.0268,48.7445],[2.0275,48.7435],[2.0255,48.7423],[2.0291,48.7423],[2.0275,48.7405],[2.0212,48.7382],[2.0208,48.7394],[2.0163,48.7379],[2.0141,48.7388],[2.0170,48.7392],[2.0176,48.7406],[2.0161,48.7413],[2.0169,48.7425],[2.0149,48.7433],[2.0141,48.7425],[2.0171,48.7404],[2.0122,48.7402],[2.0114,48.7392],[2.0130,48.7390],[2.0112,48.7376],[2.0140,48.7389],[2.0164,48.7375],[2.0172,48.7353],[2.0157,48.7360]]]}},{"type":"Feature","properties":{"name":"Les Bois de Saint-Joint"},"geometry":{"type":"Polygon","coordinates":[[[1.9614,48.8149],[1.9676,48.8146],[1.9689,48.8160],[1.9796,48.8179],[1.9814,48.8159],[1.9843,48.8160],[1.9858,48.8173],[1.9888,48.8154],[1.9879,48.8141],[1.9893,48.8138],[1.9911,48.8169],[1.9950,48.8144],[1.9986,48.8153],[2.0002,48.8140],[2.0100,48.8168],[2.0334,48.8082],[2.0444,48.8065],[2.0494,48.8045],[2.0436,48.7992],[2.0449,48.8023],[2.0441,48.8034],[2.0461,48.8042],[2.0415,48.8061],[2.0405,48.8047],[2.0363,48.8064],[2.0348,48.8050],[2.0320,48.8057],[2.0323,48.8078],[2.0298,48.8086],[2.0269,48.8043],[2.0132,48.8103],[2.0108,48.8083],[2.0027,48.8097],[2.0016,48.8095],[2.0000,48.7992],[1.9948,48.7994],[1.9932,48.8012],[1.9917,48.8002],[1.9887,48.8024],[1.9860,48.8020],[1.9839,48.8046],[1.9761,48.8091],[1.9727,48.8070],[1.9712,48.8073],[1.9684,48.8116],[1.9649,48.8101],[1.9610,48.8105],[1.9595,48.8147],[1.9614,48.8149]]]}},{"type":"Feature","properties":{"name":"Forêt de Dourdan"},"geometry":{"type":"Polygon","coordinates":[[[1.9691,48.5376],[1.9668,48.5367],[1.9696,48.5348],[1.9691,48.5321],[1.9621,48.5352],[1.9595,48.5341],[1.9516,48.5370],[1.9473,48.5358],[1.9480,48.5366],[1.9464,48.5378],[1.9409,48.5400],[1.9393,48.5446],[1.9321,48.5483],[1.9277,48.5490],[1.9393,48.5556],[1.9485,48.5591],[1.9646,48.5607],[1.9719,48.5589],[1.9805,48.5520],[1.9841,48.5508],[1.9865,48.5469],[1.9906,48.5441],[1.9946,48.5446],[1.9972,48.5434],[1.9989,48.5443],[2.0057,48.5431],[2.0069,48.5410],[2.0121,48.5415],[2.0115,48.5385],[2.0030,48.5392],[2.0007,48.5415],[1.9975,48.5397],[1.9903,48.5385],[1.9865,48.5399],[1.9841,48.5375],[1.9898,48.5362],[1.9905,48.5351],[1.9878,48.5342],[1.9876,48.5357],[1.9855,48.5361],[1.9856,48.5339],[1.9799,48.5335],[1.9774,48.5310],[1.9784,48.5331],[1.9773,48.5349],[1.9758,48.5349],[1.9765,48.5359],[1.9716,48.5381],[1.9691,48.5376]]]}},{"type":"Feature","properties":{"name":"Forêt de Saint-Arnoult"},"geometry":{"type":"Polygon","coordinates":[[[1.9982,48.5401],[1.9903,48.5385],[1.9878,48.5400],[1.9849,48.5393],[1.9841,48.5375],[1.9898,48.5362],[1.9905,48.5351],[1.9878,48.5342],[1.9876,48.5357],[1.9855,48.5361],[1.9856,48.5339],[1.9799,48.5335],[1.9774,48.5310],[1.9784,48.5331],[1.9773,48.5349],[1.9715,48.5381],[1.9668,48.5367],[1.9696,48.5348],[1.9691,48.5321],[1.9621,48.5352],[1.9595,48.5341],[1.9516,48.5370],[1.9473,48.5358],[1.9480,48.5366],[1.9464,48.5378],[1.9409,48.5400],[1.9393,48.5446],[1.9321,48.5483],[1.9277,48.5490],[1.9393,48.5556],[1.9485,48.5591],[1.9646,48.5607],[1.9719,48.5589],[1.9805,48.5520],[1.9841,48.5508],[1.9865,48.5469],[1.9906,48.5441],[2.0052,48.5433],[2.0069,48.5410],[2.0120,48.5416],[2.0122,48.5395],[2.0115,48.5385],[2.0030,48.5392],[2.0007,48.5415],[1.9982,48.5401]]]}},{"type":"Feature","properties":{"name":"Forêt domaniale du Bréau"},"geometry":{"type":"Polygon","coordinates":[[[1.9485,48.5606],[1.9214,48.5513],[1.9195,48.5517],[1.9212,48.5523],[1.9161,48.5523],[1.9178,48.5569],[1.9117,48.5581],[1.9183,48.5643],[1.9248,48.5668],[1.9261,48.5666],[1.9252,48.5651],[1.9265,48.5634],[1.9286,48.5637],[1.9280,48.5628],[1.9311,48.5605],[1.9351,48.5622],[1.9362,48.5613],[1.9378,48.5629],[1.9485,48.5606]]]}},{"type":"Feature","properties":{"name":"Forêt domaniale de Notre-Dame"},"geometry":{"type":"Polygon","coordinates":[[[2.5457,48.7598],[2.5507,48.7618],[2.5576,48.7595],[2.5591,48.7605],[2.5600,48.7581],[2.5618,48.7573],[2.5587,48.7542],[2.5563,48.7537],[2.5525,48.7536],[2.5527,48.7548],[2.5484,48.7550],[2.5486,48.7559],[2.5482,48.7550],[2.5443,48.7563],[2.5455,48.7552],[2.5389,48.7554],[2.5392,48.7532],[2.5418,48.7532],[2.5423,48.7490],[2.5562,48.7461],[2.5540,48.7484],[2.5549,48.7499],[2.5572,48.7492],[2.5571,48.7462],[2.5586,48.7456],[2.5884,48.7430],[2.5912,48.7468],[2.6100,48.7465],[2.6107,48.7473],[2.6072,48.7514],[2.6074,48.7543],[2.6096,48.7532],[2.6083,48.7550],[2.6125,48.7573],[2.6147,48.7543],[2.6159,48.7620],[2.6131,48.7675],[2.6118,48.7679],[2.6129,48.7681],[2.6112,48.7723],[2.6086,48.7743],[2.6044,48.7751],[2.5955,48.7740],[2.5934,48.7721],[2.5928,48.7732],[2.5908,48.7729],[2.5912,48.7716],[2.5871,48.7728],[2.5856,48.7704],[2.5878,48.7700],[2.5888,48.7671],[2.5877,48.7664],[2.5865,48.7665],[2.5854,48.7688],[2.5812,48.7691],[2.5817,48.7727],[2.5801,48.7758],[2.5772,48.7751],[2.5765,48.7768],[2.5746,48.7733],[2.5730,48.7734],[2.5736,48.7717],[2.5639,48.7705],[2.5604,48.7727],[2.5580,48.7727],[2.5375,48.7643],[2.5392,48.7623],[2.5444,48.7616],[2.5449,48.7596],[2.5417,48.7583],[2.5436,48.7568],[2.5495,48.7574],[2.5494,48.7584],[2.5457,48.7587],[2.5457,48.7598]]]}},{"type":"Feature","properties":{"name":"Forêt de Sainte-Apolline"},"geometry":{"type":"Polygon","coordinates":[[[1.9679,48.7843],[1.9694,48.7835],[1.9693,48.7813],[1.9731,48.7804],[1.9760,48.7740],[1.9653,48.7720],[1.9665,48.7747],[1.9717,48.7767],[1.9711,48.7805],[1.9630,48.7845],[1.9601,48.7838],[1.9598,48.7884],[1.9563,48.7877],[1.9514,48.7893],[1.9544,48.7878],[1.9533,48.7867],[1.9545,48.7878],[1.9591,48.7866],[1.9539,48.7852],[1.9520,48.7867],[1.9524,48.7881],[1.9495,48.7900],[1.9489,48.7890],[1.9505,48.7883],[1.9455,48.7894],[1.9455,48.7882],[1.9404,48.7866],[1.9414,48.7892],[1.9377,48.7909],[1.9345,48.7900],[1.9281,48.7925],[1.9237,48.7924],[1.9238,48.7941],[1.9272,48.7935],[1.9240,48.7943],[1.9235,48.7962],[1.9230,48.7946],[1.9213,48.7942],[1.9157,48.7975],[1.9128,48.7977],[1.9127,48.7987],[1.9147,48.7990],[1.9138,48.7998],[1.9151,48.7996],[1.9125,48.8010],[1.9096,48.8004],[1.9110,48.8017],[1.9089,48.8020],[1.9093,48.8035],[1.9067,48.8044],[1.9070,48.8064],[1.9025,48.8070],[1.9040,48.8084],[1.9008,48.8090],[1.9030,48.8106],[1.9016,48.8125],[1.9005,48.8125],[1.9006,48.8109],[1.8956,48.8097],[1.8957,48.8110],[1.9024,48.8142],[1.9021,48.8124],[1.9042,48.8125],[1.9045,48.8110],[1.9058,48.8116],[1.9040,48.8094],[1.9050,48.8088],[1.9056,48.8105],[1.9084,48.8079],[1.9114,48.8088],[1.9159,48.8064],[1.9204,48.8077],[1.9209,48.8097],[1.9252,48.8120],[1.9243,48.8148],[1.9203,48.8157],[1.9230,48.8173],[1.9260,48.8162],[1.9285,48.8174],[1.9360,48.8137],[1.9393,48.8153],[1.9404,48.8131],[1.9432,48.8126],[1.9451,48.8104],[1.9446,48.8092],[1.9433,48.8096],[1.9412,48.8033],[1.9346,48.8000],[1.9354,48.7993],[1.9399,48.8009],[1.9400,48.7983],[1.9418,48.7982],[1.9421,48.7964],[1.9241,48.7969],[1.9396,48.7939],[1.9382,48.7927],[1.9477,48.7920],[1.9499,48.7925],[1.9495,48.7941],[1.9520,48.7939],[1.9602,48.7915],[1.9601,48.7899],[1.9613,48.7896],[1.9630,48.7911],[1.9623,48.7893],[1.9645,48.7888],[1.9682,48.7902],[1.9674,48.7914],[1.9740,48.7887],[1.9678,48.7860],[1.9607,48.7860],[1.9661,48.7855],[1.9713,48.7869],[1.9679,48.7843]]]}},{"type":"Feature","properties":{"name":"Bois du Chat Noir"},"geometry":{"type":"Polygon","coordinates":[[[2.1890,48.7525],[2.1909,48.7552],[2.1903,48.7569],[2.2089,48.7506],[2.2082,48.7498],[2.2199,48.7491],[2.2217,48.7483],[2.2198,48.7461],[2.2216,48.7446],[2.2207,48.7435],[2.2235,48.7431],[2.2240,48.7403],[2.2173,48.7382],[2.2170,48.7368],[2.2071,48.7355],[2.2069,48.7346],[2.2022,48.7363],[2.2008,48.7351],[2.1957,48.7357],[2.1957,48.7372],[2.1937,48.7367],[2.1942,48.7379],[2.1905,48.7393],[2.1930,48.7401],[2.1917,48.7390],[2.1938,48.7398],[2.1951,48.7394],[2.1948,48.7379],[2.2046,48.7369],[2.2124,48.7413],[2.2094,48.7429],[2.2081,48.7465],[2.2022,48.7482],[2.1992,48.7479],[2.1964,48.7491],[2.1959,48.7513],[2.1890,48.7525]]]}},{"type":"Feature","properties":{"name":"Bois des Bezelles"},"geometry":{"type":"Polygon","coordinates":[[[2.1889,48.6721],[2.1934,48.6719],[2.1935,48.6701],[2.1851,48.6607],[2.1607,48.6450],[2.1598,48.6463],[2.1610,48.6486],[2.1568,48.6469],[2.1548,48.6476],[2.1577,48.6474],[2.1553,48.6483],[2.1554,48.6495],[2.1573,48.6510],[2.1626,48.6506],[2.1646,48.6546],[2.1526,48.6568],[2.1535,48.6585],[2.1505,48.6585],[2.1532,48.6599],[2.1364,48.6658],[2.1371,48.6673],[2.1491,48.6651],[2.1507,48.6679],[2.1493,48.6650],[2.1571,48.6644],[2.1563,48.6630],[2.1636,48.6608],[2.1653,48.6628],[2.1694,48.6636],[2.1693,48.6627],[2.1714,48.6626],[2.1760,48.6636],[2.1752,48.6618],[2.1763,48.6636],[2.1787,48.6640],[2.1776,48.6621],[2.1811,48.6617],[2.1844,48.6627],[2.1882,48.6669],[2.1839,48.6704],[2.1867,48.6702],[2.1870,48.6718],[2.1889,48.6721]]]}},{"type":"Feature","properties":{"name":"Forêt Départementale de Méridon"},"geometry":{"type":"Polygon","coordinates":[[[2.0233,48.6786],[2.0235,48.6748],[2.0224,48.6786],[2.0175,48.6789],[2.0127,48.6773],[2.0115,48.6742],[2.0062,48.6760],[2.0102,48.6786],[2.0085,48.6798],[2.0171,48.6836],[2.0164,48.6855],[2.0198,48.6869],[2.0171,48.6898],[2.0207,48.6895],[2.0218,48.6925],[2.0258,48.6941],[2.0316,48.6944],[2.0311,48.6968],[2.0281,48.6965],[2.0287,48.6982],[2.0276,48.6987],[2.0328,48.7026],[2.0336,48.7002],[2.0314,48.6995],[2.0321,48.6971],[2.0394,48.6996],[2.0416,48.7029],[2.0420,48.7009],[2.0434,48.7010],[2.0441,48.7030],[2.0453,48.7026],[2.0454,48.7003],[2.0464,48.7021],[2.0463,48.6994],[2.0521,48.6984],[2.0556,48.6988],[2.0562,48.7014],[2.0608,48.6997],[2.0574,48.7000],[2.0582,48.6980],[2.0605,48.6990],[2.0593,48.6946],[2.0630,48.6923],[2.0618,48.6876],[2.0511,48.6876],[2.0526,48.6908],[2.0514,48.6914],[2.0530,48.6940],[2.0523,48.6947],[2.0382,48.6939],[2.0350,48.6917],[2.0359,48.6932],[2.0327,48.6933],[2.0320,48.6920],[2.0337,48.6913],[2.0314,48.6857],[2.0342,48.6846],[2.0337,48.6826],[2.0293,48.6821],[2.0293,48.6801],[2.0272,48.6799],[2.0278,48.6765],[2.0255,48.6769],[2.0249,48.6749],[2.0235,48.6787],[2.0252,48.6787],[2.0259,48.6803],[2.0248,48.6805],[2.0258,48.6808],[2.0228,48.6817],[2.0215,48.6843],[2.0226,48.6818],[2.0215,48.6794],[2.0233,48.6786]]]}},{"type":"Feature","properties":{"name":"Forêt régionale de Rougeau"},"geometry":{"type":"Polygon","coordinates":[[[2.5597,48.5870],[2.5577,48.5858],[2.5622,48.5852],[2.5615,48.5857],[2.5647,48.5930],[2.5623,48.5977],[2.5593,48.5972],[2.5584,48.5983],[2.5594,48.5983],[2.5579,48.5987],[2.5565,48.5980],[2.5538,48.6005],[2.5449,48.5981],[2.5468,48.5990],[2.5394,48.6007],[2.5396,48.6048],[2.5380,48.6064],[2.5355,48.6052],[2.5370,48.6011],[2.5402,48.5979],[2.5220,48.5952],[2.5232,48.5919],[2.5196,48.5929],[2.5184,48.5947],[2.5177,48.5934],[2.5154,48.5943],[2.5144,48.5925],[2.5133,48.5934],[2.5142,48.5918],[2.5160,48.5921],[2.5144,48.5916],[2.5144,48.5888],[2.5073,48.5889],[2.5055,48.5913],[2.5055,48.5903],[2.4996,48.5901],[2.5011,48.5878],[2.4948,48.5881],[2.4936,48.5868],[2.4914,48.5870],[2.4905,48.5844],[2.4889,48.5845],[2.4893,48.5832],[2.4932,48.5854],[2.4948,48.5826],[2.4892,48.5811],[2.4909,48.5811],[2.4914,48.5783],[2.4942,48.5762],[2.4975,48.5774],[2.4997,48.5759],[2.4988,48.5740],[2.4970,48.5748],[2.4937,48.5722],[2.5011,48.5702],[2.5222,48.5744],[2.5277,48.5741],[2.5277,48.5750],[2.5251,48.5748],[2.5254,48.5761],[2.5402,48.5745],[2.5476,48.5708],[2.5489,48.5719],[2.5458,48.5749],[2.5501,48.5758],[2.5505,48.5752],[2.5486,48.5740],[2.5497,48.5724],[2.5504,48.5737],[2.5543,48.5744],[2.5528,48.5754],[2.5521,48.5790],[2.5544,48.5794],[2.5537,48.5825],[2.5564,48.5853],[2.5563,48.5868],[2.5597,48.5870]]]}},{"type":"Feature","properties":{"name":"Bois de la Guyonnerie"},"geometry":{"type":"Polygon","coordinates":[[[2.1226,48.7261],[2.1245,48.7247],[2.1228,48.7227],[2.1254,48.7222],[2.1236,48.7207],[2.1254,48.7204],[2.1214,48.7154],[2.1239,48.7142],[2.1224,48.7136],[2.1224,48.7122],[2.1284,48.7106],[2.1306,48.7087],[2.1298,48.7082],[2.1345,48.7059],[2.1352,48.7037],[2.1424,48.7037],[2.1452,48.7022],[2.1467,48.7035],[2.1550,48.7036],[2.1565,48.7048],[2.1561,48.7039],[2.1588,48.7034],[2.1591,48.7044],[2.1645,48.7051],[2.1835,48.7035],[2.1871,48.7054],[2.1828,48.7065],[2.1852,48.7069],[2.1832,48.7073],[2.1839,48.7086],[2.1861,48.7090],[2.1850,48.7106],[2.1794,48.7129],[2.1788,48.7110],[2.1798,48.7119],[2.1841,48.7102],[2.1806,48.7094],[2.1812,48.7074],[2.1799,48.7060],[2.1738,48.7061],[2.1696,48.7086],[2.1672,48.7087],[2.1663,48.7075],[2.1667,48.7087],[2.1648,48.7072],[2.1554,48.7050],[2.1511,48.7050],[2.1511,48.7074],[2.1495,48.7076],[2.1400,48.7066],[2.1369,48.7098],[2.1327,48.7098],[2.1297,48.7114],[2.1290,48.7128],[2.1304,48.7119],[2.1304,48.7156],[2.1257,48.7169],[2.1277,48.7200],[2.1384,48.7246],[2.1338,48.7256],[2.1276,48.7235],[2.1226,48.7261]]]}},{"type":"Feature","properties":{"name":"Espace Rambouillet"},"geometry":{"type":"Polygon","coordinates":[[[1.8702,48.6270],[1.8716,48.6263],[1.8732,48.6278],[1.8719,48.6285],[1.8782,48.6339],[1.8934,48.6271],[1.8949,48.6246],[1.8907,48.6251],[1.8876,48.6218],[1.8794,48.6202],[1.8744,48.6141],[1.8613,48.6191],[1.8702,48.6270]]]}},{"type":"Feature","properties":{"name":"Forêt départementale de la Roche Turpin"},"geometry":{"type":"Polygon","coordinates":[[[2.2021,48.6219],[2.1941,48.6070],[2.2124,48.6024],[2.2077,48.6014],[2.2102,48.6006],[2.2086,48.5999],[2.2106,48.5993],[2.2087,48.5987],[2.2102,48.5972],[2.2053,48.5971],[2.2025,48.5993],[2.1994,48.5982],[2.1983,48.5992],[2.1941,48.5977],[2.1945,48.5961],[2.1926,48.5948],[2.1896,48.5957],[2.1888,48.5981],[2.1878,48.5979],[2.1887,48.5957],[2.1874,48.5957],[2.1797,48.5998],[2.1777,48.5981],[2.1806,48.5969],[2.1833,48.5937],[2.1824,48.5919],[2.1809,48.5924],[2.1812,48.5914],[2.1784,48.5937],[2.1789,48.5969],[2.1756,48.5985],[2.1754,48.5971],[2.1750,48.5980],[2.1740,48.5972],[2.1735,48.5991],[2.1720,48.5993],[2.1721,48.5976],[2.1689,48.5981],[2.1706,48.5994],[2.1699,48.6014],[2.1719,48.6021],[2.1714,48.6043],[2.1756,48.6063],[2.1739,48.6079],[2.1793,48.6085],[2.1809,48.6098],[2.1783,48.6104],[2.1794,48.6127],[2.1737,48.6178],[2.1670,48.6194],[2.1710,48.6211],[2.1656,48.6206],[2.1652,48.6168],[2.1725,48.6161],[2.1727,48.6146],[2.1698,48.6139],[2.1684,48.6151],[2.1634,48.6150],[2.1657,48.6222],[2.1680,48.6229],[2.1707,48.6259],[2.1715,48.6255],[2.1706,48.6239],[2.1694,48.6239],[2.1720,48.6224],[2.1716,48.6246],[2.1730,48.6244],[2.1772,48.6326],[2.1809,48.6309],[2.1822,48.6288],[2.1811,48.6280],[2.1824,48.6270],[2.1817,48.6261],[2.1828,48.6256],[2.1855,48.6259],[2.1874,48.6284],[2.1909,48.6288],[2.1939,48.6334],[2.1870,48.6377],[2.1882,48.6388],[2.1847,48.6401],[2.1882,48.6427],[2.1905,48.6422],[2.1908,48.6438],[2.1859,48.6433],[2.1866,48.6444],[2.1850,48.6461],[2.1781,48.6495],[2.1767,48.6475],[2.1752,48.6498],[2.1710,48.6470],[2.1688,48.6476],[2.1789,48.6532],[2.1963,48.6437],[2.2016,48.6378],[2.2083,48.6358],[2.2149,48.6317],[2.2071,48.6358],[2.2137,48.6308],[2.2073,48.6309],[2.2021,48.6258],[2.2011,48.6274],[2.2025,48.6374],[2.2004,48.6274],[2.2034,48.6219],[2.2021,48.6219]]]}}]}