{"type":"FeatureCollection","features":[{"type":"Feature","properties":{"name":"bois du Luzard"},"geometry":{"type":"Polygon","coordinates":[[[2.5891,48.8273],[2.5915,48.8277],[2.5934,48.8254],[2.5988,48.8260],[2.6007,48.8247],[2.6023,48.8258],[2.6017,48.8272],[2.6030,48.8270],[2.6079,48.8261],[2.6079,48.8241],[2.6105,48.8240],[2.6112,48.8258],[2.6121,48.8248],[2.6099,48.8235],[2.6094,48.8216],[2.6107,48.8217],[2.6095,48.8179],[2.6110,48.8177],[2.6112,48.8208],[2.6130,48.8206],[2.6094,48.8119],[2.6081,48.8123],[2.6056,48.8107],[2.5971,48.8146],[2.5956,48.8138],[2.5959,48.8098],[2.5918,48.8073],[2.5904,48.8088],[2.5742,48.8130],[2.5664,48.8183],[2.5704,48.8230],[2.5711,48.8216],[2.5730,48.8227],[2.5806,48.8226],[2.5891,48.8273]]]}},{"type":"Feature","properties":{"name":"Forêt domaniale de Montmorency"},"geometry":{"type":"Polygon","coordinates":[[[2.3219,49.0011],[2.3280,49.0009],[2.3276,49.0028],[2.3180,49.0061],[2.3207,49.0080],[2.3206,49.0093],[2.3164,49.0082],[2.3122,49.0105],[2.3106,49.0098],[2.3090,49.0129],[2.3048,49.0134],[2.3049,49.0118],[2.3031,49.0123],[2.3041,49.0136],[2.3025,49.0147],[2.3074,49.0159],[2.3075,49.0149],[2.3110,49.0150],[2.3111,49.0139],[2.3091,49.0138],[2.3117,49.0129],[2.3127,49.0148],[2.3150,49.0149],[2.3187,49.0140],[2.3157,49.0135],[2.3172,49.0122],[2.3192,49.0134],[2.3208,49.0128],[2.3206,49.0164],[2.3226,49.0174],[2.3196,49.0173],[2.3185,49.0192],[2.3237,49.0228],[2.3246,49.0210],[2.3340,49.0229],[2.3331,49.0203],[2.3352,49.0189],[2.3380,49.0206],[2.3414,49.0202],[2.3407,49.0182],[2.3417,49.0169],[2.3394,49.0165],[2.3393,49.0182],[2.3346,49.0178],[2.3434,49.0129],[2.3405,49.0141],[2.3361,49.0077],[2.3402,49.0067],[2.3379,49.0044],[2.3416,49.0041],[2.3368,49.0031],[2.3368,49.0006],[2.3353,49.0006],[2.3384,48.9979],[2.3334,48.9973],[2.3286,48.9993],[2.3243,48.9991],[2.3224,48.9996],[2.3219,49.0011]]]}},{"type":"Feature","properties":{"name":"Forêt domaniale de Montmorency"},"geometry":{"type":"Polygon","coordinates":[[[2.2531,49.0541],[2.2567,49.0559],[2.2618,49.0561],[2.2652,49.0528],[2.2651,49.0497],[2.2670,49.0489],[2.2731,49.0515],[2.2755,49.0502],[2.2766,49.0513],[2.2799,49.0480],[2.2805,49.0501],[2.2842,49.0496],[2.2846,49.0466],[2.2899,49.0442],[2.2927,49.0415],[2.2918,49.0410],[2.3037,49.0420],[2.3069,49.0388],[2.3055,49.0371],[2.3112,49.0344],[2.3106,49.0331],[2.3149,49.0302],[2.3145,49.0291],[2.3168,49.0285],[2.3164,49.0251],[2.3115,49.0261],[2.2983,49.0254],[2.2955,49.0232],[2.2912,49.0238],[2.2876,49.0195],[2.2861,49.0204],[2.2830,49.0187],[2.2785,49.0212],[2.2800,49.0226],[2.2754,49.0232],[2.2740,49.0213],[2.2769,49.0200],[2.2745,49.0190],[2.2793,49.0165],[2.2737,49.0137],[2.2698,49.0153],[2.2691,49.0162],[2.2703,49.0169],[2.2662,49.0179],[2.2674,49.0197],[2.2580,49.0239],[2.2563,49.0216],[2.2542,49.0223],[2.2553,49.0239],[2.2542,49.0242],[2.2467,49.0243],[2.2444,49.0264],[2.2410,49.0254],[2.2377,49.0278],[2.2320,49.0284],[2.2285,49.0303],[2.2302,49.0318],[2.2293,49.0321],[2.2280,49.0306],[2.2254,49.0311],[2.2261,49.0330],[2.2249,49.0344],[2.2263,49.0380],[2.2277,49.0393],[2.2294,49.0386],[2.2282,49.0402],[2.2307,49.0400],[2.2290,49.0408],[2.2316,49.0407],[2.2287,49.0413],[2.2293,49.0423],[2.2338,49.0417],[2.2400,49.0434],[2.2390,49.0440],[2.2398,49.0452],[2.2427,49.0444],[2.2434,49.0449],[2.2409,49.0467],[2.2418,49.0482],[2.2462,49.0508],[2.2513,49.0505],[2.2531,49.0541]]]}}]}