{"type":"FeatureCollection","features":[{"type":"Feature","properties":{"name":"Bois des Alluets"},"geometry":{"type":"Polygon","coordinates":[[[1.9154,48.9227],[1.9085,48.9238],[1.9030,48.9277],[1.9004,48.9273],[1.8978,48.9239],[1.8962,48.9249],[1.8981,48.9258],[1.8909,48.9278],[1.8876,48.9203],[1.8834,48.9199],[1.8849,48.9172],[1.8793,48.9175],[1.8808,48.9176],[1.8796,48.9184],[1.8803,48.9195],[1.8782,48.9196],[1.8783,48.9172],[1.8799,48.9164],[1.8788,48.9162],[1.8798,48.9151],[1.8783,48.9147],[1.8799,48.9144],[1.8815,48.9159],[1.8825,48.9131],[1.8808,48.9134],[1.8823,48.9113],[1.8830,48.9122],[1.8871,48.9111],[1.8942,48.9143],[1.9010,48.9144],[1.9033,48.9117],[1.9027,48.9098],[1.9000,48.9086],[1.9068,48.9070],[1.9064,48.9041],[1.9114,48.9029],[1.9113,48.9018],[1.9225,48.9006],[1.9227,48.8995],[1.9241,48.8997],[1.9236,48.8979],[1.9242,48.8991],[1.9278,48.8982],[1.9302,48.9011],[1.9285,48.9032],[1.9323,48.9030],[1.9317,48.9023],[1.9363,48.8996],[1.9404,48.8999],[1.9421,48.8989],[1.9413,48.8981],[1.9427,48.8957],[1.9452,48.8942],[1.9450,48.8915],[1.9427,48.8911],[1.9480,48.8879],[1.9491,48.8886],[1.9560,48.8861],[1.9583,48.8847],[1.9584,48.8833],[1.9600,48.8844],[1.9593,48.8830],[1.9637,48.8812],[1.9642,48.8827],[1.9620,48.8836],[1.9626,48.8847],[1.9661,48.8844],[1.9673,48.8865],[1.9665,48.8844],[1.9678,48.8836],[1.9654,48.8840],[1.9657,48.8824],[1.9697,48.8826],[1.9703,48.8810],[1.9711,48.8832],[1.9736,48.8822],[1.9726,48.8809],[1.9745,48.8798],[1.9731,48.8801],[1.9726,48.8759],[1.9672,48.8746],[1.9671,48.8763],[1.9651,48.8765],[1.9656,48.8775],[1.9628,48.8773],[1.9610,48.8788],[1.9605,48.8767],[1.9626,48.8757],[1.9590,48.8762],[1.9588,48.8779],[1.9551,48.8777],[1.9573,48.8788],[1.9560,48.8809],[1.9535,48.8793],[1.9527,48.8805],[1.9540,48.8814],[1.9503,48.8816],[1.9510,48.8825],[1.9494,48.8817],[1.9392,48.8854],[1.9368,48.8850],[1.9416,48.8875],[1.9347,48.8886],[1.9337,48.8893],[1.9363,48.8899],[1.9333,48.8908],[1.9336,48.8916],[1.9301,48.8912],[1.9297,48.8940],[1.9283,48.8938],[1.9272,48.8897],[1.9253,48.8888],[1.9272,48.8920],[1.9226,48.8943],[1.9246,48.8950],[1.9218,48.8973],[1.9184,48.8962],[1.9178,48.8980],[1.9145,48.8944],[1.9099,48.8968],[1.9126,48.8979],[1.9112,48.8995],[1.9030,48.8966],[1.9040,48.8984],[1.9004,48.8992],[1.8982,48.9010],[1.8990,48.9023],[1.8965,48.9035],[1.8933,48.9014],[1.8905,48.9041],[1.8894,48.9058],[1.8913,48.9094],[1.8856,48.9072],[1.8804,48.9093],[1.8714,48.9090],[1.8711,48.9106],[1.8722,48.9112],[1.8713,48.9124],[1.8757,48.9137],[1.8754,48.9161],[1.8768,48.9162],[1.8754,48.9177],[1.8778,48.9195],[1.8756,48.9212],[1.8761,48.9228],[1.8796,48.9245],[1.8802,48.9260],[1.8836,48.9240],[1.8848,48.9266],[1.8807,48.9280],[1.8815,48.9303],[1.8800,48.9291],[1.8773,48.9314],[1.8742,48.9310],[1.8755,48.9317],[1.8723,48.9321],[1.8707,48.9339],[1.8688,48.9334],[1.8721,48.9358],[1.8687,48.9379],[1.8679,48.9366],[1.8649,48.9379],[1.8675,48.9402],[1.8651,48.9408],[1.8664,48.9425],[1.8646,48.9439],[1.8668,48.9446],[1.8642,48.9485],[1.8659,48.9472],[1.8655,48.9487],[1.8727,48.9515],[1.8721,48.9537],[1.8756,48.9539],[1.8800,48.9515],[1.8822,48.9529],[1.8850,48.9526],[1.8830,48.9481],[1.8878,48.9464],[1.8899,48.9479],[1.8974,48.9467],[1.8981,48.9440],[1.8969,48.9429],[1.9020,48.9412],[1.9003,48.9393],[1.9019,48.9391],[1.9017,48.9372],[1.9034,48.9388],[1.9113,48.9397],[1.9122,48.9416],[1.9104,48.9418],[1.9125,48.9429],[1.9108,48.9439],[1.9159,48.9432],[1.9141,48.9423],[1.9173,48.9423],[1.9176,48.9413],[1.9207,48.9425],[1.9192,48.9432],[1.9201,48.9438],[1.9223,48.9428],[1.9214,48.9424],[1.9227,48.9410],[1.9204,48.9394],[1.9177,48.9402],[1.9172,48.9383],[1.9145,48.9364],[1.9152,48.9333],[1.9170,48.9324],[1.9293,48.9331],[1.9297,48.9298],[1.9326,48.9294],[1.9327,48.9269],[1.9371,48.9265],[1.9369,48.9253],[1.9389,48.9247],[1.9382,48.9237],[1.9401,48.9232],[1.9391,48.9213],[1.9324,48.9199],[1.9302,48.9209],[1.9266,48.9202],[1.9243,48.9223],[1.9225,48.9212],[1.9197,48.9224],[1.9201,48.9207],[1.9185,48.9190],[1.9154,48.9227]]]}},{"type":"Feature","properties":{"name":"Forêt de Marly-le-Roi"},"geometry":{"type":"Polygon","coordinates":[[[2.0044,48.9015],[2.0074,48.8946],[2.0110,48.8904],[2.0125,48.8915],[2.0215,48.8859],[2.0233,48.8874],[2.0255,48.8859],[2.0297,48.8866],[2.0349,48.8851],[2.0382,48.8893],[2.0384,48.8922],[2.0417,48.8952],[2.0411,48.8958],[2.0439,48.8931],[2.0491,48.8919],[2.0502,48.8952],[2.0571,48.8996],[2.0566,48.8974],[2.0597,48.8973],[2.0611,48.8955],[2.0573,48.8970],[2.0547,48.8952],[2.0563,48.8939],[2.0536,48.8922],[2.0481,48.8828],[2.0523,48.8813],[2.0538,48.8824],[2.0565,48.8809],[2.0613,48.8810],[2.0623,48.8796],[2.0717,48.8820],[2.0693,48.8800],[2.0702,48.8787],[2.0604,48.8711],[2.0555,48.8713],[2.0513,48.8692],[2.0504,48.8672],[2.0512,48.8632],[2.0500,48.8610],[2.0514,48.8630],[2.0508,48.8667],[2.0586,48.8656],[2.0676,48.8620],[2.0723,48.8637],[2.0752,48.8608],[2.0788,48.8628],[2.0772,48.8649],[2.0751,48.8652],[2.0773,48.8652],[2.0769,48.8664],[2.0794,48.8663],[2.0814,48.8637],[2.0810,48.8661],[2.0841,48.8677],[2.0897,48.8677],[2.0874,48.8628],[2.0877,48.8643],[2.0887,48.8633],[2.0916,48.8649],[2.0916,48.8639],[2.0949,48.8648],[2.0945,48.8624],[2.0973,48.8595],[2.0962,48.8569],[2.0946,48.8567],[2.0952,48.8561],[2.0997,48.8601],[2.1063,48.8583],[2.1012,48.8562],[2.1028,48.8543],[2.1075,48.8543],[2.1073,48.8488],[2.1085,48.8472],[2.1033,48.8462],[2.1025,48.8478],[2.1054,48.8493],[2.1053,48.8518],[2.1004,48.8519],[2.0998,48.8526],[2.1020,48.8537],[2.0979,48.8533],[2.0960,48.8553],[2.0927,48.8557],[2.0924,48.8583],[2.0905,48.8551],[2.0837,48.8548],[2.0837,48.8535],[2.0791,48.8493],[2.0837,48.8488],[2.0872,48.8514],[2.0894,48.8503],[2.0870,48.8507],[2.0850,48.8491],[2.0861,48.8469],[2.1055,48.8416],[2.0881,48.8449],[2.0929,48.8408],[2.0919,48.8389],[2.0883,48.8402],[2.0871,48.8389],[2.0855,48.8395],[2.0871,48.8414],[2.0842,48.8431],[2.0674,48.8450],[2.0670,48.8474],[2.0642,48.8477],[2.0627,48.8503],[2.0540,48.8561],[2.0478,48.8563],[2.0482,48.8592],[2.0471,48.8563],[2.0420,48.8552],[2.0418,48.8539],[2.0273,48.8539],[2.0270,48.8553],[2.0332,48.8630],[2.0345,48.8666],[2.0308,48.8650],[2.0304,48.8661],[2.0293,48.8653],[2.0265,48.8666],[2.0242,48.8652],[2.0221,48.8660],[2.0226,48.8678],[2.0109,48.8734],[2.0072,48.8719],[1.9982,48.8749],[1.9990,48.8761],[1.9943,48.8779],[1.9927,48.8771],[1.9936,48.8761],[1.9891,48.8745],[1.9879,48.8757],[1.9792,48.8743],[1.9779,48.8761],[1.9840,48.8773],[1.9898,48.8757],[1.9925,48.8779],[1.9894,48.8798],[1.9892,48.8818],[1.9861,48.8819],[1.9865,48.8827],[1.9851,48.8833],[1.9891,48.8872],[1.9910,48.8873],[1.9917,48.8898],[1.9947,48.8915],[2.0016,48.8925],[1.9972,48.8972],[2.0044,48.9015]]]}},{"type":"Feature","properties":{"name":"Forêt domaniale de Montmorency"},"geometry":{"type":"Polygon","coordinates":[[[2.3219,49.0011],[2.3280,49.0009],[2.3276,49.0028],[2.3180,49.0061],[2.3207,49.0080],[2.3206,49.0093],[2.3164,49.0082],[2.3122,49.0105],[2.3106,49.0098],[2.3090,49.0129],[2.3048,49.0134],[2.3049,49.0118],[2.3031,49.0123],[2.3041,49.0136],[2.3025,49.0147],[2.3074,49.0159],[2.3075,49.0149],[2.3110,49.0150],[2.3111,49.0139],[2.3091,49.0138],[2.3117,49.0129],[2.3127,49.0148],[2.3150,49.0149],[2.3187,49.0140],[2.3157,49.0135],[2.3172,49.0122],[2.3192,49.0134],[2.3208,49.0128],[2.3206,49.0164],[2.3226,49.0174],[2.3196,49.0173],[2.3185,49.0192],[2.3237,49.0228],[2.3246,49.0210],[2.3340,49.0229],[2.3331,49.0203],[2.3352,49.0189],[2.3380,49.0206],[2.3414,49.0202],[2.3407,49.0182],[2.3417,49.0169],[2.3394,49.0165],[2.3393,49.0182],[2.3346,49.0178],[2.3434,49.0129],[2.3405,49.0141],[2.3361,49.0077],[2.3402,49.0067],[2.3379,49.0044],[2.3416,49.0041],[2.3368,49.0031],[2.3368,49.0006],[2.3353,49.0006],[2.3384,48.9979],[2.3334,48.9973],[2.3286,48.9993],[2.3243,48.9991],[2.3224,48.9996],[2.3219,49.0011]]]}},{"type":"Feature","properties":{"name":"Bois de Bonnet"},"geometry":{"type":"Polygon","coordinates":[[[2.4404,49.1452],[2.4401,49.1463],[2.4350,49.1478],[2.4225,49.1497],[2.4225,49.1512],[2.4235,49.1512],[2.4216,49.1524],[2.4216,49.1538],[2.4156,49.1541],[2.4157,49.1561],[2.4122,49.1570],[2.4126,49.1521],[2.4148,49.1512],[2.4148,49.1485],[2.4029,49.1468],[2.4006,49.1477],[2.3963,49.1463],[2.3953,49.1474],[2.3942,49.1470],[2.3949,49.1460],[2.3931,49.1458],[2.3957,49.1483],[2.3933,49.1518],[2.3836,49.1554],[2.3799,49.1498],[2.3846,49.1491],[2.3850,49.1509],[2.3869,49.1512],[2.3902,49.1495],[2.3898,49.1478],[2.3852,49.1468],[2.3851,49.1458],[2.3886,49.1441],[2.3884,49.1418],[2.3864,49.1417],[2.3867,49.1436],[2.3846,49.1453],[2.3823,49.1458],[2.3857,49.1443],[2.3861,49.1417],[2.3850,49.1421],[2.3859,49.1428],[2.3837,49.1423],[2.3796,49.1445],[2.3862,49.1401],[2.3909,49.1424],[2.3940,49.1394],[2.4034,49.1387],[2.4235,49.1335],[2.4257,49.1349],[2.4309,49.1351],[2.4326,49.1321],[2.4354,49.1343],[2.4404,49.1452]]]}},{"type":"Feature","properties":{"name":"Forêt domaniale de Saint-Germain-en-Laye"},"geometry":{"type":"Polygon","coordinates":[[[2.0986,48.9396],[2.1223,48.9422],[2.1205,48.9405],[2.1201,48.9370],[2.1245,48.9343],[2.1233,48.9315],[2.1202,48.9289],[2.1220,48.9282],[2.1140,48.9280],[2.1136,48.9249],[2.1073,48.9232],[2.1058,48.9209],[2.1013,48.9191],[2.1061,48.9208],[2.1141,48.9212],[2.1100,48.9171],[2.1113,48.9191],[2.1082,48.9187],[2.1015,48.9034],[2.0954,48.9024],[2.0966,48.9045],[2.0938,48.9048],[2.0852,48.9219],[2.0914,48.9262],[2.0963,48.9391],[2.0986,48.9396]]]}},{"type":"Feature","properties":{"name":"Bois de Verneuil"},"geometry":{"type":"Polygon","coordinates":[[[1.9445,48.9854],[1.9458,48.9903],[1.9552,48.9882],[1.9550,48.9917],[1.9433,48.9956],[1.9352,48.9968],[1.9366,48.9949],[1.9340,48.9956],[1.9344,48.9935],[1.9271,48.9932],[1.9249,48.9910],[1.9273,48.9872],[1.9322,48.9871],[1.9348,48.9890],[1.9387,48.9892],[1.9378,48.9853],[1.9387,48.9834],[1.9354,48.9827],[1.9330,48.9838],[1.9331,48.9869],[1.9316,48.9858],[1.9294,48.9870],[1.9312,48.9848],[1.9305,48.9844],[1.9320,48.9842],[1.9307,48.9829],[1.9254,48.9860],[1.9198,48.9859],[1.9194,48.9839],[1.9222,48.9837],[1.9241,48.9807],[1.9274,48.9798],[1.9278,48.9765],[1.9375,48.9774],[1.9367,48.9722],[1.9382,48.9724],[1.9388,48.9709],[1.9462,48.9721],[1.9464,48.9732],[1.9510,48.9736],[1.9522,48.9723],[1.9561,48.9743],[1.9569,48.9731],[1.9577,48.9737],[1.9566,48.9746],[1.9601,48.9781],[1.9589,48.9800],[1.9613,48.9813],[1.9628,48.9798],[1.9649,48.9806],[1.9677,48.9835],[1.9635,48.9849],[1.9586,48.9840],[1.9553,48.9855],[1.9445,48.9854]]]}},{"type":"Feature","properties":{"name":"Forêt d\u0027Halatte"},"geometry":{"type":"Polygon","coordinates":[[[2.5541,49.2180],[2.5573,49.2173],[2.5565,49.2181],[2.5586,49.2193],[2.5571,49.2201],[2.5581,49.2210],[2.5625,49.2193],[2.5757,49.2238],[2.5758,49.2275],[2.5796,49.2279],[2.5796,49.2255],[2.5872,49.2282],[2.5880,49.2274],[2.5883,49.2285],[2.5930,49.2293],[2.5927,49.2320],[2.5944,49.2324],[2.6011,49.2301],[2.6021,49.2314],[2.6039,49.2308],[2.6091,49.2273],[2.6163,49.2288],[2.6211,49.2290],[2.6218,49.2282],[2.6244,49.2295],[2.6208,49.2318],[2.6221,49.2362],[2.6241,49.2359],[2.6263,49.2334],[2.6283,49.2338],[2.6292,49.2307],[2.6391,49.2326],[2.6380,49.2353],[2.6423,49.2373],[2.6409,49.2383],[2.6422,49.2395],[2.6421,49.2421],[2.6449,49.2423],[2.6339,49.2430],[2.6309,49.2474],[2.6287,49.2483],[2.6300,49.2486],[2.6278,49.2501],[2.6286,49.2508],[2.6263,49.2509],[2.6270,49.2554],[2.6327,49.2561],[2.6313,49.2584],[2.6324,49.2589],[2.6298,49.2614],[2.6315,49.2618],[2.6328,49.2646],[2.6336,49.2639],[2.6380,49.2655],[2.6381,49.2644],[2.6388,49.2654],[2.6401,49.2640],[2.6421,49.2650],[2.6403,49.2646],[2.6410,49.2652],[2.6397,49.2664],[2.6449,49.2676],[2.6448,49.2707],[2.6414,49.2675],[2.6431,49.2706],[2.6500,49.2699],[2.6511,49.2715],[2.6534,49.2710],[2.6563,49.2723],[2.6558,49.2738],[2.6569,49.2742],[2.6560,49.2751],[2.6578,49.2764],[2.6721,49.2757],[2.6737,49.2741],[2.6736,49.2753],[2.6756,49.2755],[2.6763,49.2768],[2.6741,49.2779],[2.6757,49.2786],[2.6751,49.2795],[2.6777,49.2838],[2.6764,49.2843],[2.6749,49.2827],[2.6696,49.2845],[2.6619,49.2840],[2.6628,49.2870],[2.6617,49.2886],[2.6499,49.2913],[2.6340,49.2904],[2.6278,49.2922],[2.6263,49.2968],[2.6228,49.2960],[2.6083,49.2999],[2.6064,49.2989],[2.6075,49.2978],[2.6068,49.2963],[2.6089,49.2953],[2.6077,49.2941],[2.6127,49.2897],[2.6119,49.2887],[2.6059,49.2920],[2.6072,49.2863],[2.6062,49.2861],[2.6052,49.2888],[2.6034,49.2887],[2.6032,49.2903],[2.6004,49.2889],[2.6034,49.2919],[2.6005,49.2923],[2.6010,49.2947],[2.5991,49.2940],[2.6000,49.2935],[2.5995,49.2923],[2.6017,49.2911],[2.5957,49.2924],[2.5938,49.2942],[2.5957,49.2946],[2.5943,49.2954],[2.5965,49.2976],[2.5997,49.2978],[2.6015,49.2949],[2.6007,49.2925],[2.6017,49.2924],[2.6017,49.2938],[2.6031,49.2940],[2.6025,49.2969],[2.5986,49.2990],[2.5853,49.2944],[2.5841,49.2934],[2.5844,49.2913],[2.5796,49.2925],[2.5800,49.2933],[2.5495,49.2948],[2.5454,49.2937],[2.5451,49.2924],[2.5420,49.2926],[2.5367,49.2897],[2.5391,49.2884],[2.5385,49.2877],[2.5345,49.2886],[2.5268,49.2864],[2.5258,49.2845],[2.5265,49.2838],[2.5281,49.2835],[2.5298,49.2856],[2.5309,49.2854],[2.5310,49.2825],[2.5330,49.2810],[2.5256,49.2798],[2.5260,49.2765],[2.5282,49.2757],[2.5274,49.2750],[2.5299,49.2751],[2.5353,49.2699],[2.5392,49.2712],[2.5366,49.2683],[2.5279,49.2735],[2.5230,49.2731],[2.5225,49.2708],[2.5196,49.2721],[2.5158,49.2709],[2.5178,49.2697],[2.5178,49.2680],[2.5140,49.2659],[2.5155,49.2658],[2.5162,49.2644],[2.5146,49.2634],[2.5145,49.2607],[2.5183,49.2597],[2.5231,49.2620],[2.5221,49.2664],[2.5230,49.2672],[2.5217,49.2704],[2.5232,49.2709],[2.5249,49.2705],[2.5265,49.2680],[2.5373,49.2652],[2.5367,49.2636],[2.5407,49.2612],[2.5431,49.2580],[2.5576,49.2558],[2.5540,49.2529],[2.5491,49.2549],[2.5430,49.2531],[2.5383,49.2524],[2.5342,49.2535],[2.5284,49.2517],[2.5270,49.2451],[2.5249,49.2456],[2.5234,49.2425],[2.5218,49.2431],[2.5205,49.2400],[2.5350,49.2347],[2.5426,49.2269],[2.5541,49.2180]]]}},{"type":"Feature","properties":{"name":"Bois de Cavillon"},"geometry":{"type":"Polygon","coordinates":[[[2.2699,49.2614],[2.2685,49.2607],[2.2717,49.2654],[2.2623,49.2692],[2.2616,49.2722],[2.2592,49.2716],[2.2625,49.2729],[2.2586,49.2723],[2.2459,49.2768],[2.2510,49.2766],[2.2600,49.2736],[2.2639,49.2763],[2.2671,49.2750],[2.2652,49.2735],[2.2665,49.2725],[2.2638,49.2704],[2.2651,49.2697],[2.2715,49.2690],[2.2751,49.2713],[2.2736,49.2681],[2.2772,49.2664],[2.2823,49.2691],[2.2816,49.2715],[2.2832,49.2687],[2.2851,49.2682],[2.2852,49.2697],[2.2894,49.2652],[2.2887,49.2637],[2.2867,49.2673],[2.2834,49.2676],[2.2799,49.2648],[2.2838,49.2631],[2.2874,49.2642],[2.2879,49.2634],[2.2793,49.2606],[2.2715,49.2611],[2.2747,49.2594],[2.2825,49.2586],[2.2870,49.2621],[2.2859,49.2600],[2.2885,49.2594],[2.2879,49.2585],[2.2898,49.2609],[2.2888,49.2631],[2.2898,49.2614],[2.2956,49.2639],[2.2967,49.2621],[2.2928,49.2608],[2.2910,49.2615],[2.2912,49.2607],[2.2931,49.2594],[2.2946,49.2607],[2.2977,49.2594],[2.2989,49.2601],[2.2980,49.2609],[2.2994,49.2610],[2.3003,49.2606],[2.2985,49.2588],[2.2995,49.2580],[2.3014,49.2602],[2.3030,49.2596],[2.2979,49.2619],[2.2975,49.2662],[2.2988,49.2676],[2.3005,49.2669],[2.2998,49.2687],[2.3048,49.2733],[2.3060,49.2760],[2.3008,49.2742],[2.3013,49.2726],[2.2996,49.2714],[2.2965,49.2746],[2.2883,49.2752],[2.2892,49.2757],[2.2880,49.2777],[2.2893,49.2776],[2.2882,49.2796],[2.2891,49.2801],[2.2857,49.2818],[2.2871,49.2785],[2.2827,49.2808],[2.2814,49.2828],[2.2819,49.2843],[2.2788,49.2867],[2.2777,49.2855],[2.2770,49.2880],[2.2779,49.2877],[2.2794,49.2897],[2.2738,49.2921],[2.2766,49.2931],[2.2714,49.2939],[2.2727,49.2928],[2.2695,49.2943],[2.2672,49.2970],[2.2686,49.2994],[2.2710,49.3000],[2.2694,49.2983],[2.2728,49.2950],[2.2750,49.2957],[2.2737,49.2948],[2.2754,49.2934],[2.2785,49.2945],[2.2773,49.2930],[2.2796,49.2949],[2.2790,49.2925],[2.2829,49.2908],[2.2795,49.2879],[2.2835,49.2860],[2.2854,49.2829],[2.2905,49.2838],[2.2915,49.2781],[2.2928,49.2782],[2.2902,49.2770],[2.2953,49.2779],[2.2959,49.2763],[2.3005,49.2762],[2.3017,49.2765],[2.3003,49.2781],[2.2960,49.2778],[2.2954,49.2788],[2.3127,49.2803],[2.3166,49.2796],[2.3178,49.2809],[2.3168,49.2824],[2.3186,49.2848],[2.3178,49.2853],[2.3207,49.2880],[2.3171,49.2904],[2.3185,49.2922],[2.3226,49.2931],[2.3212,49.2915],[2.3235,49.2927],[2.3228,49.2899],[2.3275,49.2888],[2.3266,49.2877],[2.3231,49.2892],[2.3229,49.2877],[2.3209,49.2879],[2.3220,49.2840],[2.3211,49.2837],[2.3311,49.2804],[2.3334,49.2826],[2.3394,49.2833],[2.3419,49.2800],[2.3337,49.2789],[2.3336,49.2757],[2.3305,49.2775],[2.3231,49.2773],[2.3248,49.2779],[2.3231,49.2789],[2.3172,49.2766],[2.3133,49.2769],[2.3136,49.2759],[2.3108,49.2757],[2.3117,49.2749],[2.3104,49.2744],[2.3081,49.2754],[2.3067,49.2717],[2.3047,49.2709],[2.3060,49.2707],[2.3065,49.2662],[2.3030,49.2629],[2.3113,49.2576],[2.3137,49.2547],[2.3085,49.2524],[2.3093,49.2549],[2.3034,49.2592],[2.2979,49.2566],[2.2988,49.2560],[2.3037,49.2580],[2.3045,49.2573],[2.3024,49.2562],[2.3052,49.2558],[2.3034,49.2549],[2.3011,49.2561],[2.2999,49.2554],[2.3024,49.2539],[2.3037,49.2545],[2.3025,49.2529],[2.2991,49.2554],[2.2965,49.2525],[2.2950,49.2524],[2.2965,49.2536],[2.2946,49.2541],[2.2944,49.2518],[2.2930,49.2511],[2.2920,49.2514],[2.2939,49.2529],[2.2931,49.2544],[2.2897,49.2538],[2.2903,49.2572],[2.2871,49.2544],[2.2872,49.2571],[2.2857,49.2565],[2.2856,49.2574],[2.2835,49.2570],[2.2817,49.2547],[2.2736,49.2560],[2.2713,49.2581],[2.2731,49.2598],[2.2712,49.2604],[2.2678,49.2592],[2.2699,49.2614]]]}},{"type":"Feature","properties":{"name":"Bois de la Tour du Lay"},"geometry":{"type":"Polygon","coordinates":[[[2.1894,49.1691],[2.1870,49.1734],[2.1780,49.1754],[2.1818,49.1711],[2.1753,49.1695],[2.1719,49.1667],[2.1784,49.1630],[2.1770,49.1603],[2.1758,49.1605],[2.1765,49.1628],[2.1752,49.1640],[2.1718,49.1640],[2.1719,49.1662],[2.1712,49.1647],[2.1687,49.1639],[2.1591,49.1676],[2.1570,49.1644],[2.1530,49.1622],[2.1516,49.1550],[2.1520,49.1542],[2.1573,49.1559],[2.1511,49.1537],[2.1526,49.1532],[2.1511,49.1513],[2.1515,49.1521],[2.1498,49.1534],[2.1470,49.1538],[2.1472,49.1571],[2.1498,49.1587],[2.1492,49.1630],[2.1518,49.1646],[2.1512,49.1655],[2.1525,49.1666],[2.1461,49.1642],[2.1471,49.1637],[2.1452,49.1600],[2.1423,49.1608],[2.1441,49.1626],[2.1407,49.1634],[2.1442,49.1627],[2.1455,49.1638],[2.1434,49.1643],[2.1431,49.1660],[2.1483,49.1662],[2.1531,49.1689],[2.1540,49.1683],[2.1602,49.1739],[2.1555,49.1713],[2.1529,49.1723],[2.1477,49.1713],[2.1428,49.1679],[2.1425,49.1659],[2.1404,49.1645],[2.1421,49.1687],[2.1411,49.1695],[2.1444,49.1703],[2.1385,49.1730],[2.1367,49.1782],[2.1355,49.1774],[2.1294,49.1789],[2.1325,49.1818],[2.1390,49.1820],[2.1386,49.1836],[2.1363,49.1837],[2.1383,49.1846],[2.1361,49.1849],[2.1387,49.1854],[2.1360,49.1858],[2.1391,49.1863],[2.1354,49.1885],[2.1392,49.1867],[2.1395,49.1903],[2.1400,49.1867],[2.1389,49.1849],[2.1405,49.1818],[2.1410,49.1858],[2.1446,49.1873],[2.1408,49.1863],[2.1410,49.1893],[2.1460,49.1918],[2.1467,49.1881],[2.1482,49.1886],[2.1471,49.1897],[2.1505,49.1893],[2.1500,49.1903],[2.1546,49.1917],[2.1566,49.1892],[2.1522,49.1880],[2.1536,49.1853],[2.1501,49.1843],[2.1487,49.1853],[2.1421,49.1856],[2.1420,49.1834],[2.1480,49.1844],[2.1487,49.1814],[2.1462,49.1799],[2.1441,49.1811],[2.1437,49.1790],[2.1431,49.1808],[2.1433,49.1785],[2.1420,49.1782],[2.1424,49.1768],[2.1435,49.1769],[2.1433,49.1751],[2.1410,49.1750],[2.1409,49.1737],[2.1434,49.1725],[2.1472,49.1736],[2.1488,49.1726],[2.1482,49.1744],[2.1530,49.1755],[2.1539,49.1783],[2.1590,49.1759],[2.1615,49.1792],[2.1645,49.1786],[2.1644,49.1796],[2.1614,49.1797],[2.1561,49.1831],[2.1589,49.1869],[2.1622,49.1870],[2.1575,49.1911],[2.1575,49.1926],[2.1603,49.1909],[2.1611,49.1927],[2.1646,49.1920],[2.1627,49.1883],[2.1644,49.1893],[2.1639,49.1905],[2.1669,49.1916],[2.1689,49.1914],[2.1695,49.1892],[2.1715,49.1900],[2.1719,49.1926],[2.1725,49.1915],[2.1772,49.1923],[2.1768,49.1883],[2.1797,49.1891],[2.1783,49.1870],[2.1747,49.1856],[2.1719,49.1868],[2.1712,49.1886],[2.1684,49.1872],[2.1700,49.1840],[2.1690,49.1829],[2.1761,49.1807],[2.1734,49.1781],[2.1743,49.1774],[2.1783,49.1795],[2.1772,49.1803],[2.1794,49.1826],[2.1824,49.1808],[2.1794,49.1787],[2.1805,49.1775],[2.1812,49.1787],[2.1893,49.1811],[2.1861,49.1812],[2.1890,49.1830],[2.1925,49.1822],[2.1953,49.1832],[2.1960,49.1823],[2.2001,49.1834],[2.1980,49.1804],[2.2007,49.1793],[2.2008,49.1777],[2.2039,49.1778],[2.2049,49.1760],[2.2066,49.1770],[2.2073,49.1752],[2.2120,49.1759],[2.2079,49.1743],[2.2074,49.1730],[2.2123,49.1747],[2.2127,49.1734],[2.2091,49.1722],[2.2182,49.1695],[2.2180,49.1680],[2.2202,49.1667],[2.2195,49.1656],[2.2211,49.1647],[2.2244,49.1652],[2.2257,49.1640],[2.2224,49.1642],[2.2242,49.1627],[2.2261,49.1630],[2.2230,49.1620],[2.2193,49.1579],[2.2280,49.1547],[2.2301,49.1584],[2.2298,49.1550],[2.2335,49.1526],[2.2336,49.1506],[2.2320,49.1523],[2.2291,49.1526],[2.2289,49.1540],[2.2238,49.1527],[2.2210,49.1489],[2.2190,49.1499],[2.2181,49.1490],[2.2170,49.1495],[2.2175,49.1509],[2.2142,49.1518],[2.2133,49.1507],[2.2150,49.1497],[2.2148,49.1476],[2.2121,49.1477],[2.2096,49.1458],[2.2119,49.1426],[2.2142,49.1419],[2.2130,49.1445],[2.2138,49.1452],[2.2175,49.1451],[2.2207,49.1419],[2.2263,49.1438],[2.2275,49.1418],[2.2259,49.1404],[2.2279,49.1399],[2.2271,49.1398],[2.2296,49.1384],[2.2272,49.1387],[2.2297,49.1376],[2.2333,49.1414],[2.2306,49.1427],[2.2323,49.1438],[2.2353,49.1392],[2.2335,49.1384],[2.2356,49.1378],[2.2312,49.1390],[2.2304,49.1366],[2.2276,49.1353],[2.2246,49.1404],[2.2258,49.1425],[2.2240,49.1411],[2.2223,49.1416],[2.2228,49.1399],[2.2217,49.1399],[2.2203,49.1371],[2.2138,49.1363],[2.2134,49.1349],[2.2098,49.1351],[2.2074,49.1363],[2.2062,49.1422],[2.2043,49.1431],[2.2037,49.1397],[2.2026,49.1393],[2.2032,49.1380],[2.2022,49.1381],[2.2030,49.1351],[2.2007,49.1340],[2.2050,49.1302],[2.2045,49.1277],[2.2087,49.1241],[2.2061,49.1208],[2.2058,49.1139],[2.2024,49.1127],[2.2028,49.1118],[2.2014,49.1127],[2.2024,49.1115],[2.1988,49.1119],[2.2006,49.1151],[2.2034,49.1146],[2.2052,49.1165],[2.2056,49.1211],[2.2038,49.1230],[2.2060,49.1243],[2.2044,49.1270],[2.2013,49.1264],[2.2038,49.1271],[2.2001,49.1316],[2.2011,49.1317],[2.1999,49.1326],[2.2006,49.1341],[2.1991,49.1340],[2.1995,49.1322],[2.1969,49.1305],[2.1994,49.1304],[2.1947,49.1293],[2.1960,49.1279],[2.1885,49.1277],[2.1895,49.1271],[2.1871,49.1254],[2.1887,49.1248],[2.1868,49.1209],[2.1853,49.1209],[2.1823,49.1236],[2.1831,49.1209],[2.1821,49.1202],[2.1838,49.1197],[2.1790,49.1170],[2.1800,49.1159],[2.1786,49.1147],[2.1767,49.1150],[2.1769,49.1171],[2.1791,49.1210],[2.1761,49.1226],[2.1788,49.1225],[2.1716,49.1254],[2.1726,49.1269],[2.1778,49.1259],[2.1792,49.1233],[2.1793,49.1243],[2.1819,49.1240],[2.1850,49.1265],[2.1828,49.1275],[2.1867,49.1271],[2.1905,49.1316],[2.1885,49.1341],[2.1897,49.1354],[2.1895,49.1393],[2.1848,49.1393],[2.1873,49.1413],[2.1860,49.1422],[2.1851,49.1400],[2.1824,49.1401],[2.1825,49.1375],[2.1798,49.1369],[2.1809,49.1359],[2.1791,49.1369],[2.1779,49.1345],[2.1753,49.1338],[2.1817,49.1399],[2.1796,49.1410],[2.1752,49.1395],[2.1734,49.1403],[2.1724,49.1458],[2.1694,49.1468],[2.1768,49.1506],[2.1799,49.1488],[2.1790,49.1468],[2.1878,49.1458],[2.1901,49.1498],[2.1896,49.1513],[2.1877,49.1512],[2.1871,49.1552],[2.1831,49.1550],[2.1866,49.1583],[2.1849,49.1606],[2.1864,49.1621],[2.1819,49.1596],[2.1816,49.1635],[2.1800,49.1636],[2.1823,49.1644],[2.1834,49.1633],[2.1838,49.1642],[2.1857,49.1622],[2.1969,49.1670],[2.2027,49.1672],[2.2017,49.1694],[2.2026,49.1698],[2.1948,49.1728],[2.1937,49.1709],[2.1901,49.1717],[2.1915,49.1700],[2.1894,49.1691]]]}},{"type":"Feature","properties":{"name":"Forêt d\u0027Ermenonville"},"geometry":{"type":"Polygon","coordinates":[[[2.6965,49.1351],[2.6972,49.1366],[2.6952,49.1366],[2.6938,49.1348],[2.6912,49.1344],[2.6913,49.1310],[2.6897,49.1285],[2.6864,49.1291],[2.6858,49.1281],[2.6886,49.1270],[2.6841,49.1252],[2.6856,49.1247],[2.6869,49.1189],[2.6851,49.1160],[2.6909,49.1138],[2.6894,49.1086],[2.6862,49.1090],[2.6858,49.1108],[2.6841,49.1109],[2.6845,49.1092],[2.6825,49.1098],[2.6823,49.1089],[2.6811,49.1097],[2.6830,49.1101],[2.6832,49.1116],[2.6799,49.1134],[2.6795,49.1121],[2.6775,49.1130],[2.6743,49.1098],[2.6716,49.1089],[2.6678,49.1111],[2.6638,49.1099],[2.6532,49.1133],[2.6487,49.1093],[2.6420,49.1101],[2.6446,49.1106],[2.6453,49.1123],[2.6407,49.1160],[2.6431,49.1180],[2.6408,49.1178],[2.6414,49.1185],[2.6403,49.1190],[2.6399,49.1170],[2.6370,49.1168],[2.6336,49.1226],[2.6268,49.1224],[2.6268,49.1232],[2.6346,49.1229],[2.6403,49.1202],[2.6417,49.1207],[2.6409,49.1248],[2.6433,49.1260],[2.6407,49.1267],[2.6295,49.1248],[2.6265,49.1261],[2.6261,49.1281],[2.6287,49.1310],[2.6321,49.1325],[2.6403,49.1309],[2.6452,49.1326],[2.6416,49.1348],[2.6430,49.1371],[2.6472,49.1396],[2.6476,49.1424],[2.6496,49.1436],[2.6447,49.1457],[2.6452,49.1470],[2.6488,49.1474],[2.6486,49.1486],[2.6394,49.1477],[2.6379,49.1466],[2.6357,49.1468],[2.6353,49.1483],[2.6280,49.1488],[2.6254,49.1476],[2.6256,49.1467],[2.6280,49.1467],[2.6256,49.1442],[2.6275,49.1421],[2.6261,49.1420],[2.6264,49.1405],[2.6278,49.1399],[2.6245,49.1388],[2.6205,49.1406],[2.6211,49.1425],[2.6185,49.1446],[2.6148,49.1449],[2.6221,49.1464],[2.6227,49.1482],[2.6243,49.1487],[2.6234,49.1499],[2.6283,49.1502],[2.6232,49.1527],[2.6213,49.1503],[2.6199,49.1513],[2.6213,49.1529],[2.6207,49.1541],[2.6179,49.1546],[2.6199,49.1561],[2.6275,49.1519],[2.6294,49.1512],[2.6303,49.1522],[2.6308,49.1499],[2.6378,49.1522],[2.6408,49.1546],[2.6453,49.1531],[2.6469,49.1504],[2.6492,49.1506],[2.6486,49.1527],[2.6496,49.1549],[2.6529,49.1543],[2.6582,49.1512],[2.6627,49.1458],[2.6596,49.1438],[2.6594,49.1463],[2.6511,49.1483],[2.6502,49.1468],[2.6510,49.1455],[2.6523,49.1464],[2.6559,49.1455],[2.6583,49.1425],[2.6634,49.1436],[2.6650,49.1465],[2.6716,49.1428],[2.6736,49.1430],[2.6729,49.1419],[2.6761,49.1415],[2.6818,49.1418],[2.6821,49.1435],[2.6792,49.1463],[2.6884,49.1469],[2.6883,49.1494],[2.6901,49.1498],[2.6897,49.1514],[2.6934,49.1491],[2.6962,49.1496],[2.6931,49.1523],[2.6949,49.1529],[2.6935,49.1560],[2.6962,49.1563],[2.6957,49.1590],[2.6992,49.1595],[2.7013,49.1568],[2.7041,49.1576],[2.7097,49.1554],[2.7171,49.1577],[2.7175,49.1555],[2.7206,49.1554],[2.7230,49.1592],[2.7212,49.1557],[2.7231,49.1554],[2.7230,49.1544],[2.7315,49.1532],[2.7430,49.1546],[2.7466,49.1523],[2.7389,49.1405],[2.7403,49.1427],[2.7373,49.1428],[2.7373,49.1412],[2.7347,49.1405],[2.7275,49.1400],[2.7290,49.1382],[2.7278,49.1384],[2.7271,49.1374],[2.7282,49.1369],[2.7241,49.1330],[2.7254,49.1318],[2.7259,49.1264],[2.7205,49.1268],[2.7208,49.1295],[2.7181,49.1303],[2.7040,49.1287],[2.7027,49.1303],[2.7044,49.1312],[2.7016,49.1341],[2.6965,49.1351]]]}},{"type":"Feature","properties":{"name":"Forêt de Carnelle"},"geometry":{"type":"Polygon","coordinates":[[[2.3246,49.0860],[2.3234,49.0884],[2.3180,49.0913],[2.3148,49.0954],[2.3065,49.0987],[2.3055,49.0999],[2.3083,49.1026],[2.3044,49.1018],[2.2966,49.1054],[2.3037,49.1048],[2.3045,49.1052],[2.3020,49.1059],[2.3040,49.1088],[2.3017,49.1095],[2.3020,49.1110],[2.2962,49.1139],[2.2961,49.1150],[2.2925,49.1159],[2.2932,49.1191],[2.2914,49.1244],[2.2937,49.1248],[2.2930,49.1275],[2.2942,49.1279],[2.2934,49.1287],[2.2946,49.1301],[2.2919,49.1310],[2.2895,49.1338],[2.3042,49.1335],[2.3245,49.1313],[2.3261,49.1294],[2.3282,49.1309],[2.3374,49.1292],[2.3386,49.1303],[2.3451,49.1307],[2.3504,49.1287],[2.3518,49.1293],[2.3514,49.1282],[2.3584,49.1241],[2.3588,49.1172],[2.3607,49.1160],[2.3551,49.1160],[2.3549,49.1151],[2.3534,49.1164],[2.3501,49.1163],[2.3494,49.1130],[2.3529,49.1118],[2.3515,49.1115],[2.3522,49.1103],[2.3511,49.1097],[2.3417,49.1107],[2.3429,49.1071],[2.3379,49.1065],[2.3369,49.1052],[2.3381,49.1074],[2.3350,49.1064],[2.3329,49.1079],[2.3294,49.1079],[2.3295,49.1095],[2.3238,49.1096],[2.3241,49.1079],[2.3267,49.1079],[2.3265,49.1070],[2.3234,49.1073],[2.3253,49.1065],[2.3252,49.1055],[2.3277,49.1070],[2.3280,49.1044],[2.3302,49.1040],[2.3321,49.1053],[2.3342,49.1034],[2.3307,49.1027],[2.3242,49.1048],[2.3190,49.1020],[2.3262,49.0982],[2.3239,49.0987],[2.3233,49.0977],[2.3255,49.0967],[2.3268,49.0975],[2.3266,49.0964],[2.3292,49.0958],[2.3305,49.0977],[2.3329,49.0967],[2.3382,49.1004],[2.3394,49.0996],[2.3308,49.0924],[2.3316,49.0912],[2.3366,49.0925],[2.3363,49.0917],[2.3394,49.0917],[2.3393,49.0900],[2.3336,49.0903],[2.3342,49.0895],[2.3301,49.0871],[2.3276,49.0871],[2.3301,49.0851],[2.3255,49.0832],[2.3241,49.0836],[2.3246,49.0860]]]}},{"type":"Feature","properties":{"name":"Bois de Montfaucon"},"geometry":{"type":"Polygon","coordinates":[[[1.9621,48.9200],[1.9633,48.9193],[1.9632,48.9171],[1.9646,48.9172],[1.9649,48.9162],[1.9638,48.9160],[1.9649,48.9148],[1.9598,48.9126],[1.9610,48.9108],[1.9625,48.9098],[1.9656,48.9106],[1.9656,48.9133],[1.9678,48.9150],[1.9689,48.9128],[1.9676,48.9108],[1.9701,48.9099],[1.9713,48.9120],[1.9734,48.9121],[1.9726,48.9102],[1.9736,48.9089],[1.9719,48.9063],[1.9664,48.9049],[1.9572,48.9061],[1.9589,48.9043],[1.9574,48.9025],[1.9588,48.9017],[1.9579,48.9006],[1.9561,48.9018],[1.9569,48.9044],[1.9536,48.9055],[1.9464,48.9043],[1.9460,48.9072],[1.9446,48.9075],[1.9404,48.9071],[1.9397,48.9040],[1.9373,48.9053],[1.9343,48.9046],[1.9384,48.9072],[1.9490,48.9108],[1.9514,48.9126],[1.9502,48.9145],[1.9533,48.9151],[1.9524,48.9167],[1.9573,48.9179],[1.9608,48.9207],[1.9621,48.9200]]]}},{"type":"Feature","properties":{"name":"Forêt de Chantilly"},"geometry":{"type":"Polygon","coordinates":[[[2.5120,49.1903],[2.5133,49.1904],[2.5136,49.1889],[2.5155,49.1888],[2.5160,49.1905],[2.5169,49.1888],[2.5290,49.1883],[2.5322,49.1898],[2.5329,49.1848],[2.5365,49.1840],[2.5403,49.1842],[2.5407,49.1902],[2.5456,49.1899],[2.5466,49.1885],[2.5452,49.1887],[2.5452,49.1860],[2.5466,49.1860],[2.5466,49.1840],[2.5615,49.1897],[2.5602,49.1886],[2.5621,49.1877],[2.5661,49.1885],[2.5714,49.1877],[2.5592,49.1713],[2.5518,49.1587],[2.5499,49.1590],[2.5472,49.1554],[2.5384,49.1552],[2.5370,49.1533],[2.5349,49.1531],[2.5261,49.1566],[2.5249,49.1559],[2.5250,49.1568],[2.5244,49.1560],[2.5212,49.1565],[2.5208,49.1552],[2.4911,49.1837],[2.4987,49.1836],[2.5065,49.1885],[2.5120,49.1903]]]}},{"type":"Feature","properties":{"name":"Forêt de l\u0027Hautil"},"geometry":{"type":"Polygon","coordinates":[[[1.9676,49.0254],[1.9652,49.0268],[1.9664,49.0283],[1.9652,49.0289],[1.9663,49.0307],[1.9641,49.0283],[1.9621,49.0296],[1.9604,49.0274],[1.9568,49.0280],[1.9563,49.0270],[1.9547,49.0303],[1.9566,49.0303],[1.9546,49.0304],[1.9556,49.0270],[1.9538,49.0267],[1.9548,49.0248],[1.9531,49.0246],[1.9542,49.0258],[1.9528,49.0256],[1.9526,49.0237],[1.9508,49.0234],[1.9495,49.0249],[1.9452,49.0251],[1.9449,49.0265],[1.9409,49.0269],[1.9453,49.0286],[1.9441,49.0292],[1.9391,49.0264],[1.9377,49.0277],[1.9344,49.0267],[1.9342,49.0284],[1.9305,49.0266],[1.9305,49.0278],[1.9285,49.0269],[1.9290,49.0256],[1.9337,49.0251],[1.9306,49.0239],[1.9343,49.0248],[1.9350,49.0238],[1.9329,49.0220],[1.9340,49.0225],[1.9348,49.0211],[1.9323,49.0207],[1.9330,49.0198],[1.9306,49.0203],[1.9347,49.0192],[1.9335,49.0180],[1.9287,49.0176],[1.9337,49.0179],[1.9306,49.0169],[1.9337,49.0170],[1.9307,49.0161],[1.9314,49.0147],[1.9337,49.0154],[1.9350,49.0172],[1.9332,49.0161],[1.9337,49.0173],[1.9355,49.0178],[1.9372,49.0164],[1.9367,49.0151],[1.9395,49.0155],[1.9393,49.0138],[1.9409,49.0155],[1.9449,49.0161],[1.9449,49.0174],[1.9509,49.0159],[1.9515,49.0169],[1.9537,49.0168],[1.9520,49.0151],[1.9546,49.0144],[1.9546,49.0117],[1.9522,49.0130],[1.9516,49.0119],[1.9419,49.0117],[1.9505,49.0116],[1.9550,49.0096],[1.9537,49.0105],[1.9580,49.0101],[1.9581,49.0112],[1.9559,49.0111],[1.9578,49.0117],[1.9569,49.0142],[1.9555,49.0146],[1.9573,49.0147],[1.9544,49.0172],[1.9606,49.0199],[1.9607,49.0178],[1.9658,49.0181],[1.9691,49.0165],[1.9650,49.0141],[1.9683,49.0141],[1.9711,49.0123],[1.9686,49.0081],[1.9701,49.0075],[1.9728,49.0079],[1.9700,49.0094],[1.9731,49.0105],[1.9744,49.0098],[1.9767,49.0129],[1.9749,49.0122],[1.9764,49.0143],[1.9784,49.0126],[1.9781,49.0094],[1.9803,49.0086],[1.9761,49.0067],[1.9769,49.0061],[1.9751,49.0061],[1.9740,49.0032],[1.9889,48.9936],[1.9910,48.9939],[1.9924,48.9925],[1.9960,48.9933],[1.9952,48.9929],[1.9965,48.9928],[1.9962,48.9920],[2.0000,48.9905],[1.9988,48.9896],[2.0021,48.9901],[2.0049,48.9925],[2.0073,48.9923],[2.0098,48.9903],[2.0085,48.9887],[2.0119,48.9864],[2.0110,48.9853],[2.0169,48.9838],[2.0204,48.9794],[2.0251,48.9809],[2.0265,48.9809],[2.0266,48.9795],[2.0295,48.9807],[2.0275,48.9812],[2.0272,48.9827],[2.0320,48.9820],[2.0333,48.9836],[2.0413,48.9842],[2.0440,48.9823],[2.0478,48.9842],[2.0457,48.9879],[2.0481,48.9885],[2.0454,48.9884],[2.0445,48.9899],[2.0454,48.9869],[2.0378,48.9887],[2.0369,48.9858],[2.0350,48.9882],[2.0369,48.9901],[2.0355,48.9903],[2.0361,48.9956],[2.0299,48.9957],[2.0261,49.0014],[2.0227,49.0023],[2.0177,49.0063],[2.0192,49.0045],[2.0154,49.0044],[2.0147,49.0057],[2.0118,49.0059],[2.0104,49.0094],[2.0141,49.0095],[2.0122,49.0129],[2.0154,49.0134],[2.0138,49.0176],[2.0085,49.0182],[2.0078,49.0197],[2.0021,49.0182],[2.0001,49.0199],[1.9996,49.0213],[2.0011,49.0217],[2.0002,49.0221],[2.0010,49.0231],[1.9976,49.0234],[2.0007,49.0253],[1.9993,49.0302],[1.9991,49.0283],[1.9952,49.0305],[1.9928,49.0296],[1.9936,49.0284],[1.9926,49.0278],[1.9895,49.0281],[1.9898,49.0270],[1.9881,49.0266],[1.9877,49.0249],[1.9890,49.0244],[1.9878,49.0225],[1.9829,49.0228],[1.9819,49.0240],[1.9755,49.0221],[1.9797,49.0248],[1.9725,49.0239],[1.9737,49.0259],[1.9724,49.0267],[1.9706,49.0241],[1.9673,49.0248],[1.9656,49.0239],[1.9642,49.0255],[1.9675,49.0254],[1.9676,49.0254]]]}},{"type":"Feature","properties":{"name":"Forêt régionale de Cormeilles"},"geometry":{"type":"Polygon","coordinates":[[[2.2030,48.9835],[2.2072,48.9829],[2.2061,48.9822],[2.2147,48.9788],[2.2106,48.9784],[2.2118,48.9770],[2.2101,48.9769],[2.2154,48.9765],[2.2122,48.9753],[2.2124,48.9717],[2.2110,48.9703],[2.2119,48.9696],[2.2112,48.9688],[2.2127,48.9692],[2.2141,48.9671],[2.2156,48.9678],[2.2157,48.9694],[2.2128,48.9723],[2.2138,48.9754],[2.2159,48.9766],[2.2231,48.9765],[2.2303,48.9715],[2.2291,48.9700],[2.2204,48.9665],[2.2196,48.9670],[2.2210,48.9678],[2.2189,48.9675],[2.2163,48.9653],[2.2179,48.9641],[2.2208,48.9657],[2.2271,48.9665],[2.2257,48.9674],[2.2308,48.9666],[2.2316,48.9679],[2.2302,48.9696],[2.2323,48.9699],[2.2331,48.9722],[2.2321,48.9731],[2.2364,48.9738],[2.2370,48.9758],[2.2115,48.9861],[2.2020,48.9887],[2.1990,48.9883],[2.1962,48.9901],[2.1928,48.9883],[2.1905,48.9830],[2.1860,48.9821],[2.1883,48.9798],[2.1906,48.9804],[2.1898,48.9813],[2.1913,48.9824],[2.1948,48.9806],[2.1936,48.9800],[2.1963,48.9807],[2.1984,48.9797],[2.1992,48.9812],[2.1959,48.9820],[2.1986,48.9832],[2.1979,48.9837],[2.1988,48.9844],[2.2030,48.9835]]]}},{"type":"Feature","properties":{"name":"Forêt domaniale de Montmorency"},"geometry":{"type":"Polygon","coordinates":[[[2.2531,49.0541],[2.2567,49.0559],[2.2618,49.0561],[2.2652,49.0528],[2.2651,49.0497],[2.2670,49.0489],[2.2731,49.0515],[2.2755,49.0502],[2.2766,49.0513],[2.2799,49.0480],[2.2805,49.0501],[2.2842,49.0496],[2.2846,49.0466],[2.2899,49.0442],[2.2927,49.0415],[2.2918,49.0410],[2.3037,49.0420],[2.3069,49.0388],[2.3055,49.0371],[2.3112,49.0344],[2.3106,49.0331],[2.3149,49.0302],[2.3145,49.0291],[2.3168,49.0285],[2.3164,49.0251],[2.3115,49.0261],[2.2983,49.0254],[2.2955,49.0232],[2.2912,49.0238],[2.2876,49.0195],[2.2861,49.0204],[2.2830,49.0187],[2.2785,49.0212],[2.2800,49.0226],[2.2754,49.0232],[2.2740,49.0213],[2.2769,49.0200],[2.2745,49.0190],[2.2793,49.0165],[2.2737,49.0137],[2.2698,49.0153],[2.2691,49.0162],[2.2703,49.0169],[2.2662,49.0179],[2.2674,49.0197],[2.2580,49.0239],[2.2563,49.0216],[2.2542,49.0223],[2.2553,49.0239],[2.2542,49.0242],[2.2467,49.0243],[2.2444,49.0264],[2.2410,49.0254],[2.2377,49.0278],[2.2320,49.0284],[2.2285,49.0303],[2.2302,49.0318],[2.2293,49.0321],[2.2280,49.0306],[2.2254,49.0311],[2.2261,49.0330],[2.2249,49.0344],[2.2263,49.0380],[2.2277,49.0393],[2.2294,49.0386],[2.2282,49.0402],[2.2307,49.0400],[2.2290,49.0408],[2.2316,49.0407],[2.2287,49.0413],[2.2293,49.0423],[2.2338,49.0417],[2.2400,49.0434],[2.2390,49.0440],[2.2398,49.0452],[2.2427,49.0444],[2.2434,49.0449],[2.2409,49.0467],[2.2418,49.0482],[2.2462,49.0508],[2.2513,49.0505],[2.2531,49.0541]]]}},{"type":"Feature","properties":{"name":"Forêt de L\u0027Isle-Adam"},"geometry":{"type":"Polygon","coordinates":[[[2.2969,49.0663],[2.2983,49.0666],[2.2987,49.0682],[2.2971,49.0711],[2.3070,49.0703],[2.3080,49.0705],[2.3072,49.0737],[2.3006,49.0748],[2.3001,49.0764],[2.3027,49.0761],[2.3017,49.0778],[2.2943,49.0822],[2.2873,49.0836],[2.2856,49.0863],[2.2827,49.0879],[2.2849,49.0888],[2.2751,49.0884],[2.2734,49.0899],[2.2736,49.0927],[2.2755,49.0942],[2.2746,49.0982],[2.2759,49.0987],[2.2698,49.0999],[2.2743,49.1005],[2.2692,49.1004],[2.2717,49.1019],[2.2688,49.1009],[2.2695,49.1024],[2.2682,49.1026],[2.2662,49.0996],[2.2673,49.0995],[2.2671,49.0984],[2.2636,49.0976],[2.2592,49.0928],[2.2579,49.0838],[2.2568,49.0839],[2.2534,49.0792],[2.2457,49.0754],[2.2448,49.0738],[2.2479,49.0710],[2.2473,49.0705],[2.2521,49.0686],[2.2515,49.0692],[2.2554,49.0705],[2.2490,49.0699],[2.2564,49.0707],[2.2556,49.0713],[2.2594,49.0743],[2.2633,49.0730],[2.2619,49.0693],[2.2653,49.0689],[2.2657,49.0669],[2.2716,49.0656],[2.2712,49.0643],[2.2722,49.0640],[2.2796,49.0656],[2.2774,49.0691],[2.2847,49.0724],[2.2941,49.0718],[2.2962,49.0692],[2.2951,49.0678],[2.2969,49.0663]]]}},{"type":"Feature","properties":{"name":"Forêt de Galluis"},"geometry":{"type":"Polygon","coordinates":[[[1.8120,49.0834],[1.8128,49.0830],[1.8108,49.0816],[1.8114,49.0808],[1.8161,49.0817],[1.8185,49.0785],[1.8180,49.0777],[1.8195,49.0797],[1.8221,49.0800],[1.8225,49.0783],[1.8187,49.0771],[1.8221,49.0771],[1.8222,49.0763],[1.8264,49.0764],[1.8278,49.0797],[1.8299,49.0796],[1.8308,49.0826],[1.8337,49.0860],[1.8355,49.0856],[1.8345,49.0833],[1.8324,49.0830],[1.8322,49.0814],[1.8402,49.0808],[1.8411,49.0817],[1.8423,49.0815],[1.8423,49.0799],[1.8478,49.0797],[1.8473,49.0790],[1.8494,49.0785],[1.8485,49.0779],[1.8539,49.0744],[1.8654,49.0796],[1.8669,49.0787],[1.8630,49.0759],[1.8642,49.0727],[1.8662,49.0711],[1.8686,49.0718],[1.8688,49.0700],[1.8587,49.0655],[1.8634,49.0634],[1.8631,49.0649],[1.8649,49.0652],[1.8641,49.0644],[1.8652,49.0638],[1.8612,49.0623],[1.8604,49.0609],[1.8589,49.0612],[1.8596,49.0633],[1.8571,49.0610],[1.8544,49.0621],[1.8474,49.0601],[1.8475,49.0578],[1.8496,49.0572],[1.8476,49.0566],[1.8506,49.0548],[1.8469,49.0552],[1.8446,49.0537],[1.8453,49.0507],[1.8434,49.0489],[1.8446,49.0484],[1.8439,49.0474],[1.8468,49.0486],[1.8461,49.0466],[1.8392,49.0461],[1.8353,49.0488],[1.8352,49.0513],[1.8332,49.0514],[1.8344,49.0518],[1.8345,49.0545],[1.8319,49.0543],[1.8296,49.0577],[1.8317,49.0599],[1.8309,49.0572],[1.8319,49.0560],[1.8337,49.0563],[1.8344,49.0598],[1.8377,49.0615],[1.8381,49.0633],[1.8339,49.0642],[1.8294,49.0633],[1.8283,49.0652],[1.8251,49.0664],[1.8226,49.0713],[1.8198,49.0733],[1.8218,49.0750],[1.8205,49.0757],[1.8183,49.0756],[1.8186,49.0735],[1.8166,49.0726],[1.8180,49.0715],[1.8173,49.0679],[1.8130,49.0666],[1.8153,49.0649],[1.8141,49.0636],[1.8132,49.0652],[1.8119,49.0650],[1.8111,49.0647],[1.8128,49.0630],[1.8119,49.0622],[1.8104,49.0630],[1.8069,49.0615],[1.8089,49.0594],[1.8091,49.0557],[1.8067,49.0563],[1.8060,49.0584],[1.8070,49.0594],[1.8046,49.0601],[1.8038,49.0584],[1.8053,49.0549],[1.7982,49.0558],[1.7982,49.0573],[1.8025,49.0576],[1.8006,49.0600],[1.7947,49.0589],[1.7960,49.0579],[1.7950,49.0574],[1.7914,49.0578],[1.7883,49.0558],[1.7857,49.0563],[1.7838,49.0547],[1.7827,49.0568],[1.7881,49.0581],[1.7871,49.0614],[1.7968,49.0662],[1.7947,49.0652],[1.7937,49.0670],[1.7889,49.0670],[1.7882,49.0685],[1.7865,49.0683],[1.7879,49.0698],[1.7867,49.0706],[1.7872,49.0739],[1.7919,49.0772],[1.7904,49.0780],[1.7973,49.0843],[1.7991,49.0831],[1.8019,49.0838],[1.8012,49.0858],[1.8022,49.0862],[1.7996,49.0893],[1.8021,49.0894],[1.8010,49.0900],[1.8018,49.0918],[1.8057,49.0934],[1.8077,49.0914],[1.8127,49.0912],[1.8114,49.0901],[1.8123,49.0886],[1.8103,49.0896],[1.8103,49.0884],[1.8086,49.0899],[1.8059,49.0878],[1.8043,49.0882],[1.8082,49.0861],[1.8066,49.0841],[1.8120,49.0834]]]}},{"type":"Feature","properties":{"name":"Forêt de Rosny"},"geometry":{"type":"Polygon","coordinates":[[[1.5845,49.0171],[1.5840,49.0159],[1.5969,49.0088],[1.6021,49.0052],[1.6022,49.0037],[1.6213,48.9946],[1.6176,48.9921],[1.6198,48.9922],[1.6191,48.9905],[1.6217,48.9895],[1.6217,48.9875],[1.6279,48.9856],[1.6294,48.9869],[1.6285,48.9849],[1.6293,48.9845],[1.6214,48.9827],[1.6205,48.9834],[1.6200,48.9824],[1.6212,48.9824],[1.6181,48.9802],[1.6184,48.9825],[1.6168,48.9822],[1.6170,48.9839],[1.6138,48.9841],[1.6113,48.9811],[1.6098,48.9820],[1.6093,48.9843],[1.6083,48.9821],[1.6097,48.9806],[1.6144,48.9798],[1.6082,48.9754],[1.6071,48.9763],[1.6039,48.9753],[1.6011,48.9729],[1.6022,48.9752],[1.6055,48.9765],[1.6044,48.9770],[1.6059,48.9799],[1.5998,48.9791],[1.6033,48.9806],[1.5931,48.9848],[1.5931,48.9867],[1.5847,48.9927],[1.5815,48.9967],[1.5824,48.9997],[1.5811,49.0015],[1.5787,49.0009],[1.5768,49.0019],[1.5786,48.9998],[1.5765,48.9990],[1.5751,49.0021],[1.5714,49.0002],[1.5730,48.9994],[1.5725,48.9946],[1.5861,48.9884],[1.5858,48.9783],[1.5869,48.9795],[1.5904,48.9781],[1.5844,48.9774],[1.5802,48.9758],[1.5806,48.9746],[1.5784,48.9763],[1.5763,48.9733],[1.5722,48.9744],[1.5692,48.9739],[1.5708,48.9752],[1.5687,48.9749],[1.5674,48.9757],[1.5682,48.9774],[1.5658,48.9779],[1.5675,48.9833],[1.5638,48.9865],[1.5473,48.9901],[1.5467,48.9907],[1.5508,48.9936],[1.5447,48.9934],[1.5441,48.9942],[1.5460,48.9968],[1.5450,48.9992],[1.5414,48.9995],[1.5313,48.9944],[1.5294,48.9983],[1.5314,48.9992],[1.5286,49.0015],[1.5269,49.0011],[1.5263,49.0037],[1.5267,49.0057],[1.5319,49.0059],[1.5396,49.0018],[1.5416,49.0036],[1.5469,49.0004],[1.5480,49.0011],[1.5497,49.0002],[1.5511,49.0026],[1.5489,49.0057],[1.5550,49.0006],[1.5576,49.0036],[1.5555,49.0041],[1.5600,49.0063],[1.5585,49.0075],[1.5600,49.0087],[1.5582,49.0101],[1.5600,49.0113],[1.5561,49.0111],[1.5549,49.0123],[1.5584,49.0118],[1.5604,49.0129],[1.5610,49.0117],[1.5630,49.0128],[1.5620,49.0111],[1.5652,49.0120],[1.5671,49.0093],[1.5691,49.0089],[1.5705,49.0091],[1.5690,49.0099],[1.5740,49.0106],[1.5754,49.0128],[1.5743,49.0133],[1.5754,49.0151],[1.5743,49.0165],[1.5757,49.0171],[1.5742,49.0174],[1.5749,49.0201],[1.5845,49.0171]]]}}]}