{"type": "FeatureCollection", "features": [{"type": "Feature", "properties": {"name": "Bassin de Monampteuil"}, "geometry": {"type": "Polygon", "coordinates": [[[3.5522779, 49.4689186], [3.5524947, 49.4692895], [3.5525686, 49.4694159], [3.5526365, 49.4694724], [3.5527451, 49.4695154], [3.5535468, 49.4695768], [3.5539371, 49.4695892], [3.5550684, 49.4695172], [3.5556593, 49.4694314], [3.5574435, 49.4690055], [3.5579483, 49.468885], [3.5582088, 49.468848], [3.5586098, 49.4688327], [3.5588847, 49.4688215], [3.5591095, 49.4688123], [3.5596961, 49.4687647], [3.5601096, 49.4686732], [3.5606279, 49.4685468], [3.5611812, 49.4683364], [3.561756, 49.4680047], [3.5620861, 49.4678627], [3.5623512, 49.4677486], [3.564134, 49.4673357], [3.5681582, 49.4663474], [3.5700121, 49.465869], [3.570635, 49.4656577], [3.5711145, 49.4654489], [3.5714423, 49.4652849], [3.5717019, 49.4651243], [3.5719465, 49.4649397], [3.5722169, 49.4646472], [3.5721418, 49.4644703], [3.5720619, 49.4643307], [3.5719857, 49.4641977], [3.5717984, 49.4640486], [3.5714229, 49.4639233], [3.5709455, 49.4638882], [3.5702642, 49.4639248], [3.5696841, 49.4639621], [3.5690304, 49.4640718], [3.5682008, 49.4642606], [3.5649414, 49.4650595], [3.563309, 49.4654566], [3.5610471, 49.4660219], [3.5552007, 49.4674549], [3.5543408, 49.4676882], [3.5538499, 49.4678559], [3.5532901, 49.4681501], [3.5527781, 49.4684682], [3.5523447, 49.468805], [3.5522835, 49.4688541], [3.5522779, 49.4689186]]]}}, {"type": "Feature", "properties": {"name": "Plan d'eau de la Frette"}, "geometry": {"type": "Polygon", "coordinates": [[[3.3127349, 49.6443011], [3.3125403, 49.6443321], [3.3121111, 49.6443807], [3.311741, 49.6444224], [3.3110007, 49.6445475], [3.3108237, 49.6445266], [3.3106896, 49.6445648], [3.3105394, 49.6446308], [3.3105072, 49.6447212], [3.310534, 49.644808], [3.3106198, 49.6448427], [3.3107593, 49.6448358], [3.3108934, 49.6448011], [3.3110597, 49.6447177], [3.3111885, 49.6446586], [3.3117893, 49.6445683], [3.3125671, 49.6444363], [3.3128502, 49.6444141], [3.3129332, 49.644605], [3.3133561, 49.6453828], [3.3135627, 49.6458885], [3.3137171, 49.6463428], [3.3137977, 49.6465206], [3.313979, 49.6466971], [3.3140439, 49.6468852], [3.3139959, 49.6470832], [3.31371, 49.6472082], [3.3135292, 49.6472155], [3.3125995, 49.6468815], [3.3123222, 49.6468541], [3.3121819, 49.6468954], [3.3121232, 49.6469722], [3.3119472, 49.6474135], [3.3118547, 49.6476577], [3.3117852, 49.6478816], [3.3117541, 49.6481698], [3.3114894, 49.6481498], [3.3114453, 49.6480914], [3.3114611, 49.6479257], [3.3114831, 49.6477518], [3.3115691, 49.6475897], [3.3115353, 49.6474907], [3.3114649, 49.6474788], [3.3113253, 49.6475048], [3.3112305, 49.647547], [3.3110718, 49.6476042], [3.310557, 49.6476908], [3.3101974, 49.6476844], [3.3096505, 49.6475906], [3.3092332, 49.6475507], [3.3092092, 49.6475484], [3.3090821, 49.6475625], [3.3089051, 49.6475904], [3.3088164, 49.6475921], [3.3086136, 49.6476476], [3.3083459, 49.6476457], [3.3079878, 49.6475783], [3.3078779, 49.6475006], [3.3080503, 49.6471972], [3.3078715, 49.647178], [3.3073627, 49.6475463], [3.3071707, 49.6475065], [3.3068208, 49.6475343], [3.3053838, 49.6464002], [3.3049188, 49.646063], [3.3047651, 49.6459256], [3.304752, 49.6458304], [3.3051344, 49.6453927], [3.305437, 49.6454167], [3.3057168, 49.6453985], [3.3059316, 49.6453672], [3.3062049, 49.6453429], [3.3065536, 49.6453221], [3.3070471, 49.6452839], [3.3074065, 49.645336], [3.307707, 49.6454367], [3.3078357, 49.6455583], [3.3078786, 49.6456139], [3.3079644, 49.6456208], [3.30812, 49.6456139], [3.3081951, 49.6455757], [3.3082327, 49.6454992], [3.3082219, 49.6453151], [3.3081576, 49.6452214], [3.3080342, 49.6451762], [3.3077767, 49.6451554], [3.3071651, 49.6451762], [3.3061191, 49.6452526], [3.305808, 49.6452735], [3.3053949, 49.6453136], [3.3052466, 49.6452773], [3.3053446, 49.6450641], [3.3055336, 49.6449591], [3.3055381, 49.6448639], [3.3056518, 49.6447191], [3.3061459, 49.6441758], [3.306221, 49.6440577], [3.3061996, 49.6438771], [3.3060815, 49.6433213], [3.3062103, 49.643099], [3.3059957, 49.6426891], [3.3056095, 49.6418206], [3.3055129, 49.6415983], [3.3055022, 49.6414038], [3.3056095, 49.6412509], [3.3057704, 49.6411536], [3.3060708, 49.6410772], [3.306339, 49.6410425], [3.3071544, 49.6411606], [3.3080664, 49.6412509], [3.3112958, 49.6414663], [3.3116346, 49.6415051], [3.3117893, 49.6415636], [3.3118386, 49.6414961], [3.3118629, 49.6415056], [3.3119004, 49.6415182], [3.3118467, 49.6415869], [3.3118698, 49.6415937], [3.311918, 49.6417581], [3.3118858, 49.6422583], [3.3120721, 49.6427735], [3.3121198, 49.6429304], [3.3122868, 49.6433179], [3.3127197, 49.643933], [3.3127839, 49.6441848], [3.3127349, 49.6443011]]]}}, {"type": "Feature", "properties": {"name": "Étang de Bihécourt"}, "geometry": {"type": "Polygon", "coordinates": [[[3.178031, 49.8915417], [3.1778642, 49.8913801], [3.1769783, 49.8904969], [3.1755411, 49.8902502], [3.1753452, 49.8902632], [3.1734697, 49.8908949], [3.1715084, 49.8914377], [3.1713148, 49.891559], [3.1716688, 49.8918839], [3.1725379, 49.8927617], [3.173482, 49.893598], [3.1741794, 49.89422], [3.1748236, 49.8946516], [3.1762178, 49.8952692], [3.1770488, 49.8952623], [3.1797482, 49.8941277], [3.1796194, 49.8939349], [3.1785557, 49.8936602], [3.1771582, 49.8923577], [3.1778009, 49.8918344], [3.178031, 49.8915417]]]}}, {"type": "Feature", "properties": {"name": "Lac de l'Ailette"}, "geometry": {"type": "Polygon", "coordinates": [[[3.6775539, 49.4602478], [3.6776781, 49.4604617], [3.6780094, 49.4608623], [3.6780441, 49.4611611], [3.678236, 49.4613205], [3.6782288, 49.4614802], [3.6780837, 49.461814], [3.6776607, 49.4620265], [3.6769161, 49.4621456], [3.6763721, 49.4622636], [3.67538, 49.4623926], [3.6745544, 49.4626641], [3.6738742, 49.4628044], [3.6729649, 49.4626689], [3.6727238, 49.4625422], [3.6721831, 49.462444], [3.6720763, 49.4623022], [3.6720592, 49.4622071], [3.6719057, 49.4621039], [3.6715755, 49.4623585], [3.6708524, 49.4624763], [3.67021, 49.4625324], [3.6697331, 49.4624346], [3.6693909, 49.4623382], [3.668646, 49.4621996], [3.668198, 49.4621405], [3.6679728, 49.4619711], [3.6675525, 49.4618866], [3.6674039, 49.4619432], [3.6673352, 49.4621073], [3.6672036, 49.4621133], [3.6671089, 49.4620952], [3.6668404, 49.4618768], [3.66682, 49.4620781], [3.6664761, 49.4639626], [3.6664697, 49.4639976], [3.6664649, 49.4640242], [3.6662827, 49.4652306], [3.6659346, 49.4672914], [3.6662085, 49.4674032], [3.6665472, 49.4675004], [3.6666562, 49.4675654], [3.666695, 49.4676177], [3.6666897, 49.4677014], [3.6666639, 49.4677798], [3.6666776, 49.4678103], [3.6668064, 49.4678487], [3.6669182, 49.467933], [3.667084, 49.4680892], [3.6671332, 49.4681569], [3.667457, 49.4682754], [3.6675668, 49.4683664], [3.667607, 49.4684282], [3.6676486, 49.4684838], [3.6676593, 49.468572], [3.6677274, 49.4686723], [3.6679165, 49.468711], [3.6681804, 49.4690265], [3.6685253, 49.46918], [3.6690165, 49.4694746], [3.6691994, 49.4696334], [3.6693973, 49.4698107], [3.6695234, 49.4698392], [3.6696647, 49.4698594], [3.6697622, 49.4698846], [3.6698227, 49.4699382], [3.669808, 49.4701003], [3.670165, 49.4703308], [3.6699826, 49.4709614], [3.6705273, 49.4712586], [3.6710128, 49.4715495], [3.6714854, 49.4717248], [3.6721659, 49.4720802], [3.67265, 49.4723598], [3.6729247, 49.4724465], [3.6729826, 49.4724647], [3.6734094, 49.4727127], [3.67386, 49.4729173], [3.6739714, 49.4729608], [3.6752707, 49.4734684], [3.6772758, 49.4741666], [3.6777942, 49.4743577], [3.6778649, 49.4743891], [3.67824, 49.4742242], [3.6784462, 49.4743866], [3.6784067, 49.4744211], [3.6782133, 49.4745903], [3.6786263, 49.4747913], [3.6789701, 49.4750217], [3.6795674, 49.475645], [3.6797748, 49.4758614], [3.6806347, 49.4765658], [3.6809088, 49.4767472], [3.6815418, 49.4774796], [3.6819039, 49.4774857], [3.6822802, 49.4774018], [3.6822529, 49.4775735], [3.6823186, 49.4777924], [3.682685, 49.4778316], [3.6835956, 49.4781068], [3.6839692, 49.4785134], [3.6841274, 49.4789532], [3.6844142, 49.4793615], [3.6843265, 49.4795661], [3.6848619, 49.4799605], [3.6851012, 49.4801247], [3.685272, 49.4799826], [3.6853981, 49.4799312], [3.6854276, 49.4799809], [3.6854061, 49.4800523], [3.6853525, 49.4801534], [3.6854738, 49.480189], [3.6856722, 49.4800166], [3.685876, 49.4797414], [3.6858404, 49.4797197], [3.6852822, 49.4793796], [3.6851092, 49.4792742], [3.6850746, 49.4791504], [3.6850467, 49.4790505], [3.6849706, 49.4789133], [3.6850441, 49.4788354], [3.6850777, 49.4787998], [3.6852393, 49.4786287], [3.6855816, 49.4782655], [3.6853015, 49.4780228], [3.6850711, 49.4778384], [3.6851196, 49.4776434], [3.6841811, 49.477111], [3.6832153, 49.4767821], [3.6829419, 49.476601], [3.6826834, 49.476737], [3.6826515, 49.4763919], [3.6816044, 49.4754305], [3.681647, 49.4753215], [3.6813149, 49.4753805], [3.6800116, 49.4746628], [3.6795007, 49.4744589], [3.6792072, 49.4742635], [3.6790905, 49.4742187], [3.6790528, 49.474185], [3.6791504, 49.4741052], [3.6790627, 49.4740455], [3.678707, 49.474245], [3.6784905, 49.4741383], [3.6785643, 49.47405], [3.6789721, 49.4738062], [3.6787844, 49.4733545], [3.6787281, 49.4730982], [3.6786398, 49.4728945], [3.6784345, 49.4727693], [3.6780127, 49.4726266], [3.6779761, 49.4726528], [3.6774462, 49.4725272], [3.677401, 49.4724671], [3.677008, 49.4723261], [3.6765831, 49.4721526], [3.6763019, 49.4720009], [3.6760326, 49.4717987], [3.6757092, 49.4714327], [3.6755612, 49.471485], [3.6755279, 49.4715285], [3.6755095, 49.471579], [3.6754587, 49.471621], [3.6753748, 49.4716276], [3.6753277, 49.4715859], [3.6753018, 49.4715104], [3.6752376, 49.4714169], [3.6752472, 49.4713532], [3.6753131, 49.4713229], [3.6754137, 49.4713352], [3.6755192, 49.471414], [3.6756457, 49.4713643], [3.6752617, 49.4710014], [3.674995, 49.4704602], [3.6748922, 49.4702699], [3.6748677, 49.4702198], [3.6750903, 49.4701315], [3.6752537, 49.470282], [3.6755227, 49.4701962], [3.6756595, 49.4701385], [3.6756906, 49.4699609], [3.6755563, 49.4698301], [3.6753797, 49.4697433], [3.6752133, 49.4697407], [3.6751335, 49.4697835], [3.6749586, 49.4699362], [3.6749814, 49.4700249], [3.6749732, 49.470099], [3.6747918, 49.470135], [3.6744434, 49.4701579], [3.6743156, 49.4701722], [3.6741541, 49.4701624], [3.6740945, 49.4701037], [3.6741286, 49.4700205], [3.6742641, 49.4700101], [3.6743145, 49.469889], [3.6744363, 49.4698443], [3.6745328, 49.4697149], [3.6745836, 49.4696519], [3.6745135, 49.4695767], [3.674211, 49.4695206], [3.6740603, 49.4695292], [3.6739447, 49.4696178], [3.6738676, 49.4697192], [3.6737684, 49.4698762], [3.6733982, 49.4697785], [3.6729344, 49.4695074], [3.6730512, 49.469408], [3.6731677, 49.4694501], [3.6733183, 49.469311], [3.6733411, 49.4691751], [3.6732494, 49.4690842], [3.673146, 49.4690029], [3.6735373, 49.4687882], [3.6734799, 49.468739], [3.6729263, 49.4690427], [3.6725963, 49.4691545], [3.6723007, 49.46919], [3.672079, 49.4691294], [3.6718074, 49.4689974], [3.6716637, 49.4687957], [3.6714211, 49.4685546], [3.6713847, 49.468511], [3.6710317, 49.4684415], [3.6710242, 49.4683997], [3.6711, 49.4683993], [3.6713286, 49.4684546], [3.6713004, 49.4683984], [3.6711013, 49.4680089], [3.6711444, 49.4675872], [3.6712118, 49.4674829], [3.6714394, 49.4673325], [3.6716163, 49.4673396], [3.6717734, 49.4673224], [3.671889, 49.4672319], [3.6719679, 49.4671251], [3.6720429, 49.4668202], [3.6720688, 49.4667162], [3.6721817, 49.4666316], [3.6723228, 49.4665713], [3.6725016, 49.4665861], [3.6726489, 49.4666155], [3.6729944, 49.4667372], [3.6731802, 49.4667627], [3.6735369, 49.4667331], [3.6738, 49.4667294], [3.6740444, 49.4667627], [3.6741659, 49.4668414], [3.6742641, 49.4670871], [3.6741915, 49.467262], [3.6741164, 49.4673572], [3.6741313, 49.4674528], [3.6740931, 49.4675393], [3.6741759, 49.4676508], [3.6741871, 49.4677762], [3.6741089, 49.467918], [3.6739115, 49.4680887], [3.6738717, 49.468208], [3.6738892, 49.4682653], [3.6739952, 49.4682868], [3.6743402, 49.4678427], [3.674707, 49.4679553], [3.6748859, 49.4679994], [3.6753927, 49.4679039], [3.6759462, 49.4676673], [3.6761822, 49.4675464], [3.6762454, 49.4674422], [3.6765897, 49.4671161], [3.6769986, 49.4669066], [3.6774044, 49.4668373], [3.6778766, 49.4667196], [3.677939, 49.4666828], [3.6783076, 49.4664653], [3.6789924, 49.4662295], [3.6795965, 49.4659967], [3.6796135, 49.4659902], [3.6798334, 49.4656851], [3.6800625, 49.4648987], [3.6800959, 49.4647162], [3.680109, 49.4646447], [3.6801991, 49.4645933], [3.6802808, 49.4644471], [3.6805791, 49.4641459], [3.6810239, 49.4638253], [3.6815599, 49.4634707], [3.6816907, 49.4634414], [3.68196, 49.4632553], [3.681993, 49.4632325], [3.6820207, 49.4632344], [3.6820827, 49.4632683], [3.682081, 49.4632868], [3.6820245, 49.4633252], [3.681995, 49.4633262], [3.6819586, 49.463303], [3.6817389, 49.4634554], [3.6819726, 49.463625], [3.682168, 49.4636251], [3.682398, 49.4635143], [3.6824101, 49.4634689], [3.6825912, 49.4633835], [3.6826877, 49.463394], [3.6827306, 49.4633696], [3.6825415, 49.4631795], [3.6825643, 49.4631673], [3.6827628, 49.46336], [3.6829077, 49.4632711], [3.6829855, 49.4632101], [3.6827856, 49.4631325], [3.6828031, 49.4631203], [3.6830042, 49.46319], [3.6831233, 49.4630718], [3.683119, 49.4630409], [3.6831053, 49.4629411], [3.6830974, 49.4628838], [3.6829373, 49.4630001], [3.6827747, 49.4629919], [3.6826493, 49.4629291], [3.6826013, 49.4628343], [3.6826492, 49.462755], [3.6827503, 49.462709], [3.6829661, 49.4626972], [3.6831192, 49.4626848], [3.6832339, 49.4625966], [3.6833408, 49.4625692], [3.6834301, 49.4625919], [3.6834853, 49.4625775], [3.6835048, 49.4625336], [3.6838898, 49.4624285], [3.6839978, 49.4624394], [3.6840321, 49.4624311], [3.6840872, 49.4623748], [3.6843486, 49.4623463], [3.6846579, 49.4622336], [3.6848148, 49.4622412], [3.6848636, 49.4623005], [3.6847531, 49.462407], [3.6848447, 49.4624229], [3.684939, 49.4623434], [3.685005, 49.4621289], [3.6852976, 49.4620978], [3.6857583, 49.4620233], [3.6859526, 49.4620195], [3.6863395, 49.4620853], [3.6868326, 49.4621995], [3.6873013, 49.4623027], [3.687595, 49.4623959], [3.6880092, 49.4624511], [3.6882448, 49.4624768], [3.6887615, 49.4625372], [3.6888433, 49.4625716], [3.6900304, 49.4626827], [3.6903302, 49.4626776], [3.6909595, 49.4625955], [3.6912445, 49.4625926], [3.6913963, 49.4625751], [3.6918007, 49.4625667], [3.691606, 49.4625067], [3.6915905, 49.4624225], [3.6916347, 49.4623416], [3.6918121, 49.462298], [3.6919637, 49.4622794], [3.6920085, 49.4622863], [3.6921555, 49.4623015], [3.6922657, 49.4623623], [3.6922597, 49.4624323], [3.692149, 49.4624826], [3.6919864, 49.4625131], [3.6919885, 49.4625667], [3.6920674, 49.4626354], [3.693052, 49.4628581], [3.6934715, 49.4627743], [3.6937972, 49.4627262], [3.6943975, 49.4626658], [3.6945956, 49.4626047], [3.6947158, 49.4626225], [3.6950092, 49.4625978], [3.6958402, 49.4624435], [3.6960892, 49.4623176], [3.6963262, 49.4622334], [3.696511, 49.4620435], [3.6965936, 49.4616468], [3.6966159, 49.4614403], [3.6966202, 49.4614001], [3.6966559, 49.4609085], [3.6966211, 49.4607466], [3.6961475, 49.4606596], [3.6950722, 49.4602877], [3.6942426, 49.4600609], [3.6941428, 49.459827], [3.6943278, 49.4596738], [3.6947914, 49.4595193], [3.694587, 49.4588848], [3.6939938, 49.4583537], [3.6935026, 49.4589305], [3.6930283, 49.4590686], [3.6908571, 49.4595684], [3.690167, 49.4593521], [3.6894173, 49.4587997], [3.6883115, 49.4593275], [3.6870514, 49.4600212], [3.6869784, 49.4600496], [3.6861445, 49.4603733], [3.6852422, 49.4604155], [3.6849638, 49.4602687], [3.6843869, 49.4604007], [3.6841119, 49.460293], [3.683296, 49.4604537], [3.6827748, 49.4604574], [3.6819157, 49.4608962], [3.6817402, 49.4609189], [3.6809941, 49.4610152], [3.680274, 49.4610306], [3.6795924, 49.4608429], [3.6790656, 49.4604654], [3.6785002, 49.4602755], [3.6778323, 49.4602736], [3.6776362, 49.4601764], [3.677562, 49.4602002], [3.6775539, 49.4602478]]]}}, {"type": "Feature", "properties": {"name": "Étang d'Isle"}, "geometry": {"type": "Polygon", "coordinates": [[[3.3114203, 49.8464227], [3.3115116, 49.8464582], [3.3115652, 49.8464815], [3.3116417, 49.8465222], [3.3116738, 49.8465827], [3.3117168, 49.846619], [3.3116457, 49.8466493], [3.3116296, 49.8467297], [3.3116886, 49.8467972], [3.3116645, 49.8468759], [3.3116819, 49.8469027], [3.3117852, 49.8469036], [3.311871, 49.8469096], [3.311938, 49.8469096], [3.3120118, 49.846901], [3.3120882, 49.8469096], [3.3121097, 49.8469494], [3.3119823, 49.846952], [3.3118817, 49.8469494], [3.3118643, 49.8469684], [3.3119555, 49.8469987], [3.3120131, 49.8470065], [3.3121794, 49.8470454], [3.3122613, 49.8470674], [3.3122599, 49.8470212], [3.3123156, 49.8469965], [3.312341, 49.8469628], [3.3123987, 49.8469667], [3.3125167, 49.8470268], [3.3124805, 49.8470597], [3.3123752, 49.8470795], [3.3123592, 49.847112], [3.3121929, 49.8470843], [3.312111, 49.8470618], [3.3120172, 49.8470315], [3.3119488, 49.8470203], [3.3118576, 49.8470021], [3.3118133, 49.8469727], [3.311702, 49.8469641], [3.311647, 49.8469944], [3.311639, 49.8470272], [3.3118536, 49.8470904], [3.3120534, 49.8471396], [3.3122908, 49.8472157], [3.3125281, 49.8472858], [3.3127467, 49.8473091], [3.3129586, 49.8473826], [3.3132966, 49.8474553], [3.3133382, 49.8474587], [3.3134012, 49.8474587], [3.3135085, 49.8474968], [3.3135755, 49.8475253], [3.3136091, 49.8475003], [3.3136587, 49.8474562], [3.313715, 49.847432], [3.313778, 49.8474441], [3.3137874, 49.8474916], [3.3138143, 49.8475141], [3.313892, 49.8475323], [3.313898, 49.8476134], [3.3139577, 49.8476265], [3.3140168, 49.8475876], [3.314112, 49.8475348], [3.3141388, 49.8475158], [3.3141093, 49.8474873], [3.3141026, 49.8474579], [3.3141924, 49.8474363], [3.3142528, 49.8474466], [3.3142635, 49.8474069], [3.3142582, 49.8473948], [3.3142697, 49.8473848], [3.3143118, 49.8473481], [3.314411, 49.847355], [3.3144258, 49.8474587], [3.3143467, 49.8474942], [3.3142555, 49.8475176], [3.314175, 49.8475547], [3.3141777, 49.8476568], [3.3141844, 49.8477052], [3.3141545, 49.847723], [3.3141147, 49.8477467], [3.3141254, 49.8477804], [3.3140355, 49.8477908], [3.3140047, 49.8477882], [3.3140476, 49.8478444], [3.3140704, 49.8478782], [3.3141817, 49.8478782], [3.3141951, 49.8479837], [3.3142059, 49.8480079], [3.3142702, 49.8480451], [3.3143735, 49.8480805], [3.3144271, 49.8480961], [3.3144755, 49.8481553], [3.314572, 49.8481929], [3.3144929, 49.848201], [3.3144927, 49.8483016], [3.31451, 49.8483795], [3.3145675, 49.8484587], [3.3148073, 49.848516], [3.3149435, 49.8485762], [3.3151027, 49.8486046], [3.3151983, 49.848538], [3.3152251, 49.8485414], [3.3152331, 49.8485864], [3.3152774, 49.8486245], [3.3152881, 49.8485769], [3.3153069, 49.8486037], [3.3154316, 49.84857], [3.3154786, 49.8485477], [3.3155416, 49.848525], [3.3155885, 49.8485241], [3.3156781, 49.848544], [3.3159386, 49.8485362], [3.3162175, 49.8485717], [3.3164032, 49.8486281], [3.3164817, 49.8486296], [3.316597, 49.8486513], [3.3167407, 49.8486417], [3.3167808, 49.8486392], [3.3170002, 49.8486489], [3.3171616, 49.8486763], [3.3171388, 49.8486296], [3.3170946, 49.848608], [3.3170409, 49.8486149], [3.3169886, 49.8485778], [3.3170369, 49.8485674], [3.3170946, 49.8485778], [3.3171308, 49.8485881], [3.317163, 49.8485942], [3.3171989, 49.8486271], [3.3172569, 49.8486582], [3.3173186, 49.8486547], [3.3173521, 49.8486098], [3.3173092, 49.8485933], [3.3173055, 49.8485833], [3.3174098, 49.8485259], [3.3174376, 49.8485117], [3.3174433, 49.8485319], [3.3175278, 49.8485994], [3.3177504, 49.8488259], [3.3176807, 49.8488553], [3.3176646, 49.8488718], [3.317627, 49.8488502], [3.317576, 49.8488502], [3.3175385, 49.8488553], [3.3174996, 49.8488908], [3.3174621, 49.8489107], [3.3174165, 49.848902], [3.3173977, 49.8488657], [3.317395, 49.8488398], [3.3173749, 49.8488138], [3.3173266, 49.8487905], [3.3172798, 49.8487709], [3.3172689, 49.8487723], [3.317222, 49.8488061], [3.3172203, 49.848826], [3.3172126, 49.8488294], [3.3172099, 49.8488761], [3.3171723, 49.8489064], [3.3171187, 49.8489427], [3.317045, 49.8489695], [3.3170195, 49.8489877], [3.3170141, 49.8490179], [3.3169672, 49.8490274], [3.3169243, 49.8490171], [3.3168907, 49.849024], [3.3168532, 49.8490421], [3.3168143, 49.8490663], [3.316758, 49.8490534], [3.3167392, 49.849062], [3.3167379, 49.849094], [3.3166721, 49.8491027], [3.3165984, 49.8490932], [3.3165643, 49.8491192], [3.316455, 49.8492441], [3.3163533, 49.8493999], [3.3164147, 49.849452], [3.3165246, 49.8494659], [3.3165488, 49.8495368], [3.3164924, 49.8496232], [3.3164361, 49.8496475], [3.3163986, 49.8496336], [3.3162913, 49.8496492], [3.3162323, 49.8496198], [3.3161008, 49.8496284], [3.3162832, 49.849753], [3.3162323, 49.8497927], [3.3160552, 49.8498377], [3.3160043, 49.8498896], [3.3159533, 49.849957], [3.3156931, 49.8500141], [3.3156073, 49.850002], [3.3154625, 49.850066], [3.3154497, 49.8500714], [3.3151916, 49.8501801], [3.3150977, 49.8501559], [3.3151594, 49.8501023], [3.3153069, 49.8500677], [3.315374, 49.8500349], [3.3153954, 49.8499415], [3.315433, 49.8498965], [3.31561, 49.8498169], [3.3156797, 49.8497029], [3.3156447, 49.8495248], [3.3156954, 49.8493195], [3.3158335, 49.8491859], [3.3159658, 49.8490833], [3.3160257, 49.8490162], [3.3161893, 49.8489574], [3.316353, 49.8488986], [3.3164039, 49.8488709], [3.3164173, 49.8488277], [3.3162305, 49.8486727], [3.3161576, 49.8486368], [3.3158853, 49.8486405], [3.315822, 49.8486492], [3.3154403, 49.848779], [3.3153233, 49.8487543], [3.3150662, 49.8487728], [3.3149147, 49.8487902], [3.314792, 49.8486974], [3.3146211, 49.8485795], [3.3144455, 49.8484942], [3.3143799, 49.8484182], [3.3143602, 49.8483087], [3.3143661, 49.8482262], [3.3143668, 49.8481817], [3.3143038, 49.8481359], [3.3142541, 49.8481653], [3.3142354, 49.8482206], [3.3142474, 49.8482881], [3.3142233, 49.8484057], [3.3142005, 49.8484169], [3.31412, 49.8483979], [3.3140878, 49.8483192], [3.3140784, 49.8482362], [3.3140717, 49.8481549], [3.3140154, 49.8481229], [3.3140208, 49.8480563], [3.3139671, 49.8480191], [3.3139591, 49.8479923], [3.3138907, 49.8478885], [3.3137821, 49.8477796], [3.3136654, 49.8476672], [3.3135796, 49.8476127], [3.313424, 49.8475755], [3.3131021, 49.8475089], [3.3129425, 49.8474665], [3.3128312, 49.8474354], [3.3126247, 49.8474051], [3.3124986, 49.8473818], [3.3122653, 49.8473143], [3.3121724, 49.847291], [3.3120578, 49.8472622], [3.3119179, 49.847227], [3.3115397, 49.8471154], [3.3113772, 49.8470691], [3.3113667, 49.8470661], [3.3111951, 49.8470315], [3.3111066, 49.8469857], [3.3110858, 49.8469758], [3.311018, 49.8469947], [3.3108989, 49.8469991], [3.3108008, 49.8470528], [3.3107083, 49.8470947], [3.3106973, 49.8471005], [3.3106091, 49.8471469], [3.3105902, 49.8471324], [3.310541, 49.8471063], [3.3104943, 49.8470683], [3.3104969, 49.8470293], [3.310456, 49.8469955], [3.3104117, 49.8469722], [3.3103643, 49.8469811], [3.3103167, 49.846977], [3.3102778, 49.8469467], [3.3102422, 49.8469486], [3.3102288, 49.8469252], [3.3102143, 49.8469136], [3.3101828, 49.8469214], [3.3102119, 49.8469546], [3.310174, 49.8469671], [3.3100657, 49.8469587], [3.310035, 49.8469467], [3.309878, 49.846932], [3.3098512, 49.8469555], [3.3098049, 49.8469535], [3.3097844, 49.846932], [3.3097008, 49.8469596], [3.3096591, 49.8469569], [3.3096768, 49.8469137], [3.3096736, 49.8468874], [3.3096903, 49.8468627], [3.3096788, 49.8468302], [3.3096824, 49.8467112], [3.3096618, 49.8466438], [3.3095342, 49.8465937], [3.3093763, 49.8465929], [3.3092245, 49.8465921], [3.3091358, 49.8465388], [3.3091577, 49.8464691], [3.3091139, 49.846437], [3.3091309, 49.8463994], [3.309205, 49.8463744], [3.3092354, 49.8463336], [3.3092534, 49.846308], [3.3091481, 49.8462408], [3.3089461, 49.8462222], [3.3088406, 49.846249], [3.3088188, 49.8462287], [3.3087985, 49.8462377], [3.3087891, 49.8462506], [3.3087556, 49.8462498], [3.3087154, 49.8462463], [3.3086443, 49.8462498], [3.3086, 49.8462671], [3.3085638, 49.8462835], [3.3085155, 49.8462904], [3.3084472, 49.8463458], [3.3083734, 49.846376], [3.3083425, 49.8463899], [3.3082861, 49.8464234], [3.3082501, 49.8464715], [3.3082634, 49.8464893], [3.3082795, 49.8465075], [3.3082607, 49.8465326], [3.3082406, 49.8465308], [3.3082071, 49.8465058], [3.3081937, 49.8465092], [3.3081649, 49.8465257], [3.3081266, 49.8465334], [3.3081239, 49.8465371], [3.3081092, 49.8465568], [3.308069, 49.8465663], [3.3080601, 49.8465726], [3.3080301, 49.846594], [3.3080193, 49.8466035], [3.3080027, 49.8465894], [3.3079949, 49.8465767], [3.3080059, 49.8465637], [3.3079389, 49.8465429], [3.3078933, 49.8465135], [3.3078289, 49.8464928], [3.3077592, 49.8465447], [3.3077082, 49.8465239], [3.3075795, 49.8464911], [3.3075097, 49.8464461], [3.3074534, 49.8463925], [3.3073488, 49.8463406], [3.3073139, 49.8463198], [3.3072737, 49.84628], [3.3071718, 49.8462576], [3.3070806, 49.8462282], [3.3069706, 49.846178], [3.3068767, 49.8461521], [3.3068231, 49.8461071], [3.3067828, 49.8460587], [3.3067721, 49.8460344], [3.3065844, 49.8459895], [3.3064476, 49.845967], [3.3062652, 49.845922], [3.3061337, 49.8458615], [3.3061096, 49.8457992], [3.3061042, 49.8457421], [3.3060694, 49.845692], [3.3060002, 49.8455683], [3.3059358, 49.8455509], [3.3058142, 49.8455574], [3.3056368, 49.8456171], [3.3055786, 49.8456421], [3.3056238, 49.8456777], [3.3056992, 49.8457283], [3.3056939, 49.8457542], [3.3056831, 49.8457975], [3.3056965, 49.8458407], [3.3057368, 49.8459134], [3.3058307, 49.8459756], [3.3059487, 49.8460102], [3.3059916, 49.8460293], [3.3060667, 49.8460604], [3.3061418, 49.8461036], [3.3061928, 49.8461451], [3.3062223, 49.846133], [3.3062518, 49.8461521], [3.3062679, 49.8461866], [3.3062974, 49.8462247], [3.306359, 49.8462576], [3.306528, 49.8464201], [3.3065736, 49.8464444], [3.3066353, 49.8464357], [3.3066031, 49.846472], [3.3065602, 49.8465014], [3.3066112, 49.8465637], [3.306646, 49.8465706], [3.3066943, 49.8465862], [3.3067211, 49.846626], [3.3067319, 49.8466502], [3.3067312, 49.8466788], [3.3067674, 49.846685], [3.3069051, 49.8466944], [3.3072274, 49.8467355], [3.3072536, 49.8467159], [3.3072858, 49.8467168], [3.3073072, 49.8467271], [3.3073474, 49.8467496], [3.3073877, 49.8467496], [3.307436, 49.8467531], [3.3074829, 49.8467617], [3.3075164, 49.8467929], [3.3075687, 49.8468058], [3.3075781, 49.8468197], [3.3075768, 49.8468404], [3.3076197, 49.8468811], [3.3076707, 49.8468932], [3.3077069, 49.8468672], [3.3077458, 49.8468672], [3.3077404, 49.8468992], [3.3077766, 49.8469304], [3.3078597, 49.8469503], [3.3079373, 49.8469656], [3.3080542, 49.8470212], [3.3081393, 49.8470297], [3.3081843, 49.8470238], [3.3082446, 49.8470307], [3.3083305, 49.8470618], [3.3083841, 49.847099], [3.30836, 49.8471448], [3.3083868, 49.8471751], [3.3084364, 49.8471734], [3.3084834, 49.8471751], [3.308529, 49.8471768], [3.308592, 49.8471647], [3.3086497, 49.8471656], [3.30871, 49.8471639], [3.3087368, 49.8471483], [3.3087637, 49.8471293], [3.3087838, 49.8471102], [3.3088334, 49.8471163], [3.3088602, 49.8471293], [3.3089527, 49.8471128], [3.3090372, 49.8471249], [3.309107, 49.8471535], [3.30917, 49.8471768], [3.3092237, 49.8471267], [3.3092773, 49.8470912], [3.3093296, 49.8470731], [3.3093122, 49.8470523], [3.309288, 49.8470073], [3.3093121, 49.8469983], [3.3093417, 49.8469874], [3.3094423, 49.8470151], [3.3095402, 49.8469848], [3.3095871, 49.8469598], [3.3096089, 49.8469835], [3.3096501, 49.8470272], [3.309626, 49.8470653], [3.3095455, 49.8470947], [3.3094624, 49.8471154], [3.3094409, 49.8471656], [3.309449, 49.8472175], [3.3094946, 49.847259], [3.3095643, 49.8472642], [3.3095723, 49.8473074], [3.3096287, 49.8473178], [3.3096501, 49.8473351], [3.3096984, 49.8473852], [3.3097976, 49.8473455], [3.3098862, 49.8473801], [3.3100015, 49.8474492], [3.3100525, 49.8475201], [3.3100685, 49.8475651], [3.3099827, 49.8476066], [3.3100256, 49.8476516], [3.3101141, 49.8476153], [3.3102187, 49.8475755], [3.3103019, 49.8476153], [3.310428, 49.8476723], [3.3105782, 49.8477363], [3.3106506, 49.8478038], [3.3107445, 49.8478436], [3.3107954, 49.8478903], [3.3109054, 49.8479179], [3.3109993, 49.8479439], [3.3110663, 49.8479958], [3.3111119, 49.84802], [3.3111736, 49.8480563], [3.3112434, 49.8480857], [3.3112809, 49.8481289], [3.3113614, 49.8481843], [3.3114338, 49.8481532], [3.3114606, 49.8480874], [3.3115035, 49.8480857], [3.311584, 49.8480944], [3.3116601, 49.8480815], [3.3116966, 49.8480753], [3.3117208, 49.8481341], [3.311702, 49.8482137], [3.3117476, 49.848212], [3.3119166, 49.8482258], [3.3120587, 49.848212], [3.3121365, 49.8481532], [3.3123082, 49.8481341], [3.3123295, 49.8481778], [3.3123538, 49.848212], [3.3122626, 49.8482344], [3.3121848, 49.8482846], [3.3123565, 49.8483486], [3.312563, 49.8484852], [3.3128151, 49.8486028], [3.3130565, 49.848666], [3.3131611, 49.8487343], [3.3133234, 49.8488623], [3.3135729, 49.8490075], [3.3137217, 49.8491148], [3.3138169, 49.8491649], [3.3139484, 49.8491926], [3.3139095, 49.8494624], [3.3138612, 49.8494987], [3.3137432, 49.8496077], [3.31366, 49.8496647], [3.3133757, 49.8496855], [3.3132496, 49.8496872], [3.3131558, 49.8496907], [3.3130404, 49.8497028], [3.3129761, 49.8497339], [3.3129144, 49.8498014], [3.3129519, 49.8501784], [3.3130082, 49.8507716], [3.3129197, 49.8507768], [3.312799, 49.8497063], [3.3129063, 49.8496613], [3.3132121, 49.8496059], [3.3133167, 49.8496094], [3.313491, 49.8496008], [3.3136252, 49.8495731], [3.3137083, 49.8494935], [3.313719, 49.8494261], [3.3137163, 49.8493655], [3.3136842, 49.8492964], [3.3136439, 49.8492462], [3.3135983, 49.8492134], [3.3135045, 49.8491805], [3.313442, 49.8491763], [3.3133891, 49.8491096], [3.313365, 49.8490248], [3.3132899, 49.8489764], [3.3131236, 49.8488467], [3.3130512, 49.8488052], [3.3129225, 49.8487483], [3.3127856, 49.8486859], [3.3126676, 49.8486253], [3.312453, 49.8485458], [3.3121124, 49.8483728], [3.3120266, 49.8483088], [3.311917, 49.8483478], [3.3118119, 49.8483495], [3.3117959, 49.8483832], [3.3117932, 49.8484351], [3.3118039, 49.8484904], [3.3117369, 49.8484973], [3.3116698, 49.8485164], [3.3115303, 49.8485112], [3.3114284, 49.8485181], [3.3112997, 49.8485302], [3.3111683, 49.848544], [3.3110663, 49.8485717], [3.3109376, 49.8485337], [3.3108142, 49.848525], [3.3107471, 49.848487], [3.3106613, 49.8484316], [3.3106399, 49.8483624], [3.3105567, 49.8482881], [3.3106318, 49.8481947], [3.3106372, 49.8481203], [3.310613, 49.848058], [3.3106077, 49.8479992], [3.3105406, 49.8479387], [3.3104977, 49.8479006], [3.3104829, 49.8478825], [3.3104199, 49.8478747], [3.3103797, 49.8478306], [3.3102778, 49.8477977], [3.3102013, 49.8477779], [3.3101249, 49.8477813], [3.3101061, 49.8477562], [3.3100498, 49.8477433], [3.3100216, 49.8477415], [3.3099787, 49.8477398], [3.3099639, 49.8477242], [3.3099452, 49.8476983], [3.3099452, 49.8476732], [3.3099264, 49.8476525], [3.3099344, 49.8476282], [3.309917, 49.8476049], [3.3099237, 49.8475833], [3.3099277, 49.8475608], [3.3098955, 49.8475556], [3.3098929, 49.8475383], [3.3098754, 49.8475193], [3.3098499, 49.847515], [3.3098178, 49.847508], [3.3098003, 49.8474873], [3.3097816, 49.8474786], [3.3097413, 49.8474804], [3.3097386, 49.8474942], [3.3097172, 49.8475063], [3.3097064, 49.8474942], [3.3096944, 49.8474735], [3.3096783, 49.8474752], [3.3096743, 49.8474959], [3.3096716, 49.8475176], [3.309634, 49.8474933], [3.3096059, 49.8474648], [3.3095697, 49.8474415], [3.3095281, 49.8474397], [3.3095053, 49.8474198], [3.3094838, 49.8474198], [3.3094664, 49.8474181], [3.3094563, 49.8474082], [3.3094456, 49.847403], [3.309459, 49.8474021], [3.3094657, 49.8473917], [3.3094483, 49.8473861], [3.3094624, 49.8473744], [3.3094476, 49.8473675], [3.3094349, 49.8473641], [3.3094221, 49.8473537], [3.3094107, 49.8473511], [3.3093866, 49.8473476], [3.3093779, 49.8473368], [3.3093765, 49.8473212], [3.3093631, 49.8473212], [3.3093551, 49.8473122], [3.3093477, 49.8472983], [3.309333, 49.847294], [3.3093175, 49.8472957], [3.3092994, 49.8472957], [3.3092713, 49.8472953], [3.3092635, 49.8472823], [3.3092451, 49.847278], [3.3092223, 49.8472737], [3.309229, 49.8472841], [3.3092129, 49.847291], [3.3091901, 49.847297], [3.3091955, 49.8472806], [3.3091727, 49.8472737], [3.3091392, 49.8472832], [3.3091311, 49.8472988], [3.3091056, 49.8472893], [3.3090962, 49.8472797], [3.3090949, 49.8472676], [3.3090761, 49.8472659], [3.3090681, 49.8472417], [3.309052, 49.8472356], [3.3090399, 49.8472408], [3.3090198, 49.8472365], [3.3090211, 49.8472235], [3.3089863, 49.8472218], [3.3089635, 49.8472019], [3.3088991, 49.8471872], [3.3088441, 49.8471837], [3.3087905, 49.8471768], [3.3087918, 49.8471863], [3.3087891, 49.8472028], [3.3087502, 49.8472071], [3.3087234, 49.8472183], [3.3086912, 49.8472279], [3.3086818, 49.8472157], [3.3086523, 49.8472132], [3.3086221, 49.8472162], [3.3086054, 49.847227], [3.3086148, 49.8472676], [3.3085772, 49.8472789], [3.308537, 49.8472867], [3.308537, 49.8473065], [3.308537, 49.8473178], [3.3084995, 49.8473308], [3.3084753, 49.8473135], [3.3085021, 49.8472841], [3.3084525, 49.8472763], [3.3084257, 49.8473091], [3.3084404, 49.8473135], [3.308427, 49.8473316], [3.3084096, 49.8473541], [3.3084257, 49.8473688], [3.3084418, 49.8473818], [3.3084324, 49.8474008], [3.3084002, 49.8473973], [3.3083935, 49.8473731], [3.3083761, 49.8473826], [3.3083613, 49.8474103], [3.3083184, 49.8474579], [3.3083037, 49.8474856], [3.3083439, 49.8474959], [3.3084056, 49.847508], [3.3084699, 49.8475565], [3.3085075, 49.8475962], [3.3085585, 49.8476222], [3.3086067, 49.8476499], [3.3086202, 49.8476689], [3.3086121, 49.8477329], [3.3086228, 49.847764], [3.3086282, 49.8477986], [3.3085799, 49.8478038], [3.3085129, 49.8478038], [3.3084477, 49.84784], [3.3083852, 49.8478584], [3.3082117, 49.8477126], [3.3081967, 49.8477228], [3.30836, 49.8478634], [3.3082393, 49.8478929], [3.3082084, 49.847879], [3.3081695, 49.8478851], [3.3081414, 49.847873], [3.3081266, 49.8478583], [3.3081011, 49.8478427], [3.3080931, 49.8478254], [3.3080824, 49.8478107], [3.3080408, 49.8477995], [3.308022, 49.8477856], [3.3080019, 49.8477761], [3.3078946, 49.8477761], [3.3079845, 49.8477657], [3.3079979, 49.8477407], [3.3079939, 49.8477286], [3.3079603, 49.8477208], [3.3079523, 49.8477035], [3.3079455, 49.8476857], [3.3079268, 49.8476784], [3.3078638, 49.8476557], [3.3078396, 49.8476533], [3.3078209, 49.847649], [3.3078155, 49.847636], [3.3077833, 49.8476265], [3.3077712, 49.8476326], [3.3077779, 49.8476421], [3.3077686, 49.8476551], [3.3077431, 49.8476611], [3.3077122, 49.8476516], [3.3076881, 49.8476499], [3.3076747, 49.8476429], [3.3076673, 49.8476574], [3.3076505, 49.8476378], [3.3076485, 49.8476291], [3.3076616, 49.847628], [3.3076672, 49.8476231], [3.3076633, 49.8476118], [3.3076639, 49.8476014], [3.3076512, 49.8475937], [3.3076297, 49.8475984], [3.3076163, 49.8475967], [3.3075868, 49.8475919], [3.30756, 49.8475898], [3.3075211, 49.847588], [3.3075057, 49.847601], [3.307507, 49.8476179], [3.3075164, 49.8476321], [3.3075258, 49.8476404], [3.307554, 49.8476408], [3.30756, 49.8476321], [3.3075721, 49.8476196], [3.3075902, 49.84762], [3.3076009, 49.8476231], [3.3076036, 49.8476282], [3.3076009, 49.8476425], [3.3075848, 49.8476516], [3.3075777, 49.8476587], [3.3075681, 49.8476663], [3.3075627, 49.8476758], [3.3075667, 49.8476909], [3.3075614, 49.8477013], [3.3075305, 49.8476918], [3.3075111, 49.8476866], [3.3074923, 49.8476784], [3.3074762, 49.8476715], [3.3074621, 49.8476676], [3.3074507, 49.8476529], [3.3074386, 49.8476442], [3.3074219, 49.8476425], [3.3074138, 49.8476429], [3.3073951, 49.8476455], [3.3073883, 49.8476395], [3.3073749, 49.8476317], [3.3073669, 49.8476252], [3.3073515, 49.8476019], [3.3073387, 49.847588], [3.3073186, 49.8475733], [3.3073092, 49.8475608], [3.3072992, 49.8475483], [3.3072985, 49.8475435], [3.3072985, 49.8475314], [3.3073086, 49.847524], [3.3073267, 49.8475163], [3.3073501, 49.8475098], [3.3073521, 49.8475046], [3.3073495, 49.8474955], [3.307336, 49.8474821], [3.3073293, 49.847476], [3.3073072, 49.8474743], [3.3072871, 49.8474773], [3.3072656, 49.8474756], [3.3072596, 49.8474596], [3.3072576, 49.8474471], [3.3072583, 49.8474419], [3.3072871, 49.8474393], [3.3073153, 49.847438], [3.3073421, 49.8474345], [3.3073696, 49.8474453], [3.3073656, 49.84746], [3.3073635, 49.8474678], [3.3073729, 49.8474821], [3.3074024, 49.8474834], [3.3074078, 49.8474912], [3.3074185, 49.8475041], [3.307444, 49.8475076], [3.3074614, 49.8475167], [3.3074789, 49.8475279], [3.307499, 49.8475422], [3.3075225, 49.8475413], [3.3075513, 49.847537], [3.3075754, 49.8475357], [3.3075734, 49.8475193], [3.3075593, 49.8474929], [3.3075493, 49.8474856], [3.3075272, 49.8474864], [3.3074963, 49.847483], [3.3074856, 49.8474722], [3.3074849, 49.8474505], [3.3074903, 49.8474289], [3.307493, 49.847403], [3.3074863, 49.8473822], [3.3074688, 49.847361], [3.3074453, 49.8473468], [3.307446, 49.847342], [3.3074655, 49.8473347], [3.3074467, 49.8473139], [3.307436, 49.8472862], [3.3074152, 49.8472603], [3.3074279, 49.8472525], [3.3073897, 49.8472408], [3.307385, 49.8472266], [3.3073816, 49.8472132], [3.3073763, 49.847208], [3.3073676, 49.8472019], [3.307389, 49.8471535], [3.3073971, 49.847131], [3.3074373, 49.847086], [3.3074373, 49.8470341], [3.3074319, 49.8469805], [3.3073837, 49.8469044], [3.3072844, 49.8468543], [3.3071959, 49.8468318], [3.3070618, 49.8468283], [3.3069625, 49.8468093], [3.3067882, 49.8467955], [3.3066809, 49.8467989], [3.3066568, 49.846837], [3.3066004, 49.8468595], [3.3065388, 49.8468283], [3.3064985, 49.8467764], [3.3064495, 49.8467112], [3.3064752, 49.8466794], [3.3064824, 49.846645], [3.3064797, 49.8466121], [3.3064529, 49.8465793], [3.3064422, 49.8465585], [3.306402, 49.8465343], [3.3063993, 49.8464945], [3.3063617, 49.8464444], [3.3063617, 49.8464063], [3.3063295, 49.8463804], [3.3062947, 49.8463648], [3.3062732, 49.8463371], [3.3062518, 49.8462973], [3.3061928, 49.84628], [3.3061847, 49.846261], [3.3061445, 49.8462316], [3.3061016, 49.8462455], [3.3060828, 49.8462178], [3.3061096, 49.8461918], [3.3060989, 49.8461659], [3.3060721, 49.8461642], [3.3060533, 49.8461417], [3.3060318, 49.8461209], [3.3059862, 49.8461175], [3.3059192, 49.8461054], [3.3058602, 49.8460829], [3.3058092, 49.8460794], [3.3056375, 49.8460846], [3.3055356, 49.8460327], [3.3055034, 49.8459704], [3.3055302, 49.8459237], [3.305549, 49.8458425], [3.3055195, 49.8457819], [3.3054918, 49.8457108], [3.3054752, 49.8456634], [3.305408, 49.8455981], [3.3052874, 49.845498], [3.3048521, 49.8453449], [3.3046371, 49.8452769], [3.3043971, 49.8451893], [3.3043286, 49.8451757], [3.3042587, 49.845112], [3.3040302, 49.8449482], [3.3038016, 49.8447573], [3.3031833, 49.8445492], [3.3029469, 49.8444761], [3.3027792, 49.8445517], [3.3026612, 49.8445774], [3.3025623, 49.8445673], [3.3023334, 49.8445093], [3.3021026, 49.8443804], [3.3019801, 49.8443851], [3.3016453, 49.8444033], [3.30151, 49.8443918], [3.3014495, 49.8443164], [3.3010736, 49.8443016], [3.3009714, 49.8442631], [3.3006448, 49.844307], [3.3004841, 49.844203], [3.2998386, 49.8437323], [3.2998772, 49.8437066], [3.2998815, 49.8436838], [3.2998869, 49.8436493], [3.2998869, 49.8436285], [3.2998413, 49.8435524], [3.2998896, 49.8435264], [3.2998574, 49.8434763], [3.2997876, 49.8434452], [3.2997286, 49.843395], [3.2997908, 49.8433964], [3.2997686, 49.8433264], [3.2997394, 49.8432999], [3.2997313, 49.8432532], [3.2996777, 49.8432341], [3.2996428, 49.8432324], [3.2995888, 49.8432421], [3.2994989, 49.843233], [3.2994309, 49.843267], [3.2993692, 49.8432756], [3.2993455, 49.8433031], [3.2993205, 49.843283], [3.2983865, 49.8425513], [3.2980659, 49.8423005], [3.298135, 49.842245], [3.2981664, 49.8422233], [3.2980956, 49.8421539], [3.2978247, 49.8419588], [3.298041, 49.8418503], [3.2980577, 49.8418628], [3.2980816, 49.841872], [3.298105, 49.8418752], [3.2981286, 49.8418755], [3.2981529, 49.8418754], [3.2981948, 49.8418652], [3.2983913, 49.8417641], [3.29857, 49.8416721], [3.298589, 49.8416602], [3.2985934, 49.8416385], [3.298595, 49.8416143], [3.29858, 49.8415922], [3.2986265, 49.8415669], [3.2987968, 49.8414743], [3.2989221, 49.8415617], [3.2989065, 49.8416246], [3.2989031, 49.8416677], [3.2989131, 49.8417104], [3.298936, 49.8417509], [3.2989658, 49.8417831], [3.2990038, 49.8418115], [3.2990489, 49.8418352], [3.2990997, 49.8418536], [3.2991546, 49.8418659], [3.3003059, 49.8420362], [3.3002777, 49.8421], [3.3003261, 49.8421079], [3.3003519, 49.8420388], [3.3011517, 49.8421726], [3.3011225, 49.8422377], [3.3011668, 49.842245], [3.301184, 49.8422026], [3.3016885, 49.8422802], [3.3024091, 49.8426396], [3.3027536, 49.8427406], [3.3028289, 49.8427711], [3.3028545, 49.8427598], [3.3029118, 49.842781], [3.3028968, 49.8427986], [3.3030194, 49.8428482], [3.3035346, 49.8430486], [3.303653, 49.8431073], [3.3037546, 49.8431986], [3.3037216, 49.8432395], [3.303768, 49.8433203], [3.3041771, 49.8433344], [3.3041985, 49.8433535], [3.3044426, 49.8433595], [3.3045727, 49.8433604], [3.3045756, 49.8433423], [3.3048444, 49.8433519], [3.304857, 49.8432739], [3.3048858, 49.8432714], [3.3049063, 49.8430106], [3.3050414, 49.8430637], [3.3050318, 49.8431787], [3.3051467, 49.843216], [3.3051875, 49.8433292], [3.3054069, 49.8434133], [3.305585, 49.8434666], [3.3057137, 49.843516], [3.3058276, 49.8435495], [3.3059381, 49.8436025], [3.3061168, 49.8436916], [3.3062873, 49.8437387], [3.3063805, 49.843775], [3.3067312, 49.8439335], [3.3069947, 49.844035], [3.3071041, 49.8441068], [3.3073313, 49.8442214], [3.3074427, 49.844291], [3.3076973, 49.8444034], [3.3077819, 49.8444089], [3.3078227, 49.8444182], [3.3083364, 49.8444676], [3.3083435, 49.8445175], [3.3084001, 49.8445343], [3.3084539, 49.8445011], [3.308672, 49.8446994], [3.3086116, 49.8447235], [3.3087629, 49.8448114], [3.3088184, 49.844883], [3.3087466, 49.8449199], [3.3087489, 49.8449785], [3.3087687, 49.8449965], [3.3088027, 49.8450848], [3.3089955, 49.8451826], [3.3091133, 49.8452444], [3.309197, 49.8452672], [3.3093162, 49.8452215], [3.3094355, 49.8452336], [3.3095254, 49.8451999], [3.309626, 49.8452215], [3.3097868, 49.8452067], [3.3098563, 49.8453295], [3.3100333, 49.8454977], [3.3102546, 49.8455857], [3.3103645, 49.8457372], [3.3104653, 49.8458559], [3.310533, 49.8458891], [3.3106868, 49.8459436], [3.3107592, 49.8459843], [3.3107828, 49.8460131], [3.3109329, 49.8460919], [3.3109336, 49.8461287], [3.3110006, 49.8461745], [3.3110744, 49.8461927], [3.3111575, 49.8462325], [3.3110918, 49.846248], [3.3111481, 49.8462878], [3.3111991, 49.8462982], [3.3112407, 49.8463077], [3.3112366, 49.8463363], [3.3113131, 49.846376], [3.3113614, 49.8464003], [3.3114203, 49.8464227]]]}}]}