{"type": "FeatureCollection", "features": [{"type": "Feature", "properties": {"name": "Étang de Saint-Bonnet"}, "geometry": {"type": "Polygon", "coordinates": [[[2.6906531, 46.6553566], [2.6922136, 46.6540594], [2.6920866, 46.6537011], [2.6919415, 46.653245], [2.6918884, 46.6523657], [2.6921636, 46.6509951], [2.6929625, 46.6500479], [2.6934576, 46.6496398], [2.6937635, 46.6491693], [2.6943749, 46.648959], [2.6947529, 46.6487693], [2.6949834, 46.6478239], [2.6949782, 46.6470412], [2.6952949, 46.6462498], [2.6959732, 46.6458767], [2.6958862, 46.6456775], [2.6960434, 46.64542], [2.6959912, 46.6453473], [2.6958077, 46.6452996], [2.6959342, 46.6450656], [2.6957671, 46.6450147], [2.6955604, 46.6447995], [2.6952519, 46.6448725], [2.6949637, 46.645025], [2.6951391, 46.6453533], [2.6948428, 46.6454455], [2.694794, 46.6456614], [2.694136, 46.6464277], [2.6939228, 46.6464816], [2.6939123, 46.6466476], [2.6940937, 46.6467823], [2.6938618, 46.6471405], [2.6930809, 46.6483468], [2.6930454, 46.6484055], [2.692872, 46.6486921], [2.6923062, 46.6487902], [2.6916757, 46.6492517], [2.6914531, 46.6495731], [2.691124, 46.6500481], [2.6902643, 46.6501215], [2.6905368, 46.6503862], [2.6907082, 46.6505527], [2.6905353, 46.6506583], [2.6904611, 46.6508442], [2.690603, 46.6510211], [2.6903304, 46.6511718], [2.690122, 46.6512019], [2.6898743, 46.6511677], [2.6895302, 46.6513426], [2.6893197, 46.6512986], [2.6889618, 46.6513858], [2.6883668, 46.6514424], [2.6880286, 46.6512218], [2.6874745, 46.6512143], [2.6871045, 46.6513672], [2.6871174, 46.6517176], [2.6869712, 46.6518206], [2.6863183, 46.6515391], [2.6863514, 46.6513983], [2.6862545, 46.6513844], [2.6861948, 46.6515379], [2.6857933, 46.6513672], [2.6856386, 46.6516375], [2.6849807, 46.6516038], [2.684493, 46.6514123], [2.6843574, 46.6515497], [2.6843656, 46.6516951], [2.6839317, 46.6517068], [2.6839153, 46.6516326], [2.6838807, 46.6516216], [2.6838741, 46.651661], [2.6836652, 46.6517345], [2.683635, 46.651715], [2.6834788, 46.6517541], [2.6833643, 46.6517965], [2.6834142, 46.6518323], [2.6835236, 46.6519732], [2.6838395, 46.6519779], [2.6838743, 46.6520697], [2.6840256, 46.6521096], [2.6841695, 46.6522558], [2.6841897, 46.6524403], [2.6840419, 46.6524721], [2.6839983, 46.6523734], [2.6838414, 46.6523388], [2.6836732, 46.6523515], [2.6838771, 46.6524396], [2.6839641, 46.6525853], [2.6839346, 46.6526404], [2.6837033, 46.652605], [2.6836652, 46.6530943], [2.6834862, 46.6531087], [2.6833087, 46.6532036], [2.6830602, 46.6533039], [2.6828566, 46.6532768], [2.6827083, 46.6532066], [2.6825666, 46.6531645], [2.6824636, 46.6532288], [2.6823116, 46.6532133], [2.6822375, 46.6530935], [2.6820161, 46.6532238], [2.6817195, 46.6532036], [2.681576, 46.6531448], [2.6819078, 46.6534262], [2.6820478, 46.6535537], [2.682023, 46.6537183], [2.6819198, 46.6538201], [2.6816999, 46.6539494], [2.6820837, 46.6538926], [2.6822024, 46.653762], [2.6823056, 46.6537399], [2.6823978, 46.6538053], [2.6825073, 46.6537857], [2.6825095, 46.6537002], [2.6826194, 46.6535788], [2.6827514, 46.6535318], [2.6830453, 46.6535827], [2.6834779, 46.6535344], [2.6837589, 46.6536583], [2.6836288, 46.653819], [2.6827975, 46.6541202], [2.6827619, 46.65422], [2.6828115, 46.6545775], [2.6832868, 46.654837], [2.6848031, 46.6550618], [2.6859865, 46.6549592], [2.6861853, 46.6550081], [2.6865154, 46.6550547], [2.6865948, 46.6550819], [2.6871728, 46.6551625], [2.6881244, 46.6552214], [2.6883332, 46.6551837], [2.6884925, 46.6552693], [2.6887462, 46.6552898], [2.6890067, 46.6553454], [2.6893313, 46.6553412], [2.6898384, 46.6551578], [2.6901265, 46.6551412], [2.6904469, 46.6551077], [2.6905664, 46.655179], [2.6906531, 46.6553566]]]}}, {"type": "Feature", "properties": {"name": "Plan d'eau de Vieure"}, "geometry": {"type": "Polygon", "coordinates": [[[2.9124408, 46.5064513], [2.9135149, 46.5066078], [2.9145078, 46.5066005], [2.9151991, 46.5065581], [2.9153006, 46.5065647], [2.9157022, 46.5065908], [2.9164594, 46.5069612], [2.9166342, 46.507012], [2.9173639, 46.5071191], [2.9178193, 46.5071353], [2.9187723, 46.5070808], [2.9194446, 46.5071066], [2.9198462, 46.5071973], [2.9200405, 46.5073102], [2.9202662, 46.507323], [2.9204395, 46.5072581], [2.9204891, 46.5072054], [2.9203448, 46.5070796], [2.9202451, 46.5069851], [2.9201719, 46.5069015], [2.9203598, 46.5067407], [2.9203328, 46.5066763], [2.9202497, 46.5066763], [2.9200163, 46.5069163], [2.9199185, 46.5068971], [2.9199323, 46.5067559], [2.9198769, 46.5066486], [2.9196845, 46.5065853], [2.9191528, 46.5066402], [2.9189592, 46.506596], [2.9184708, 46.5066055], [2.9177009, 46.5064831], [2.9175229, 46.5064159], [2.9172644, 46.506248], [2.9170674, 46.5062473], [2.9168388, 46.5062022], [2.9166904, 46.5060726], [2.9166822, 46.5058622], [2.916186, 46.5056069], [2.9156519, 46.5056113], [2.9152807, 46.5057985], [2.9147188, 46.5057872], [2.9144454, 46.5059157], [2.914135, 46.505903], [2.913822, 46.5057301], [2.9137062, 46.5052222], [2.9137271, 46.5047765], [2.9132063, 46.5040896], [2.9130395, 46.5038609], [2.9126088, 46.5035565], [2.9122633, 46.503295], [2.9119524, 46.5030429], [2.9116291, 46.5028289], [2.9111614, 46.5026289], [2.9109551, 46.5024976], [2.9108259, 46.5022909], [2.9108159, 46.5019228], [2.9109098, 46.5013263], [2.9110842, 46.5010327], [2.9115446, 46.5005368], [2.9121196, 46.5002248], [2.9126632, 46.4999715], [2.9127253, 46.4997311], [2.9130905, 46.4995788], [2.9133711, 46.4992634], [2.9132537, 46.4992126], [2.9131408, 46.4992], [2.9131086, 46.4991524], [2.9131731, 46.4991381], [2.9131546, 46.4990953], [2.9130924, 46.4990351], [2.9130372, 46.4990002], [2.9129681, 46.4989558], [2.9128391, 46.4989574], [2.9126571, 46.4989843], [2.912595, 46.4989558], [2.9125996, 46.4988876], [2.9127095, 46.4987745], [2.9129727, 46.4986942], [2.9132721, 46.4987021], [2.9133443, 46.4986586], [2.9134517, 46.4985214], [2.9134748, 46.4983422], [2.9137143, 46.4980695], [2.9138156, 46.4980489], [2.9139446, 46.4980568], [2.9139147, 46.4979998], [2.9139654, 46.4979379], [2.9140584, 46.4979171], [2.9141726, 46.4978856], [2.9142371, 46.4978174], [2.9143799, 46.4977017], [2.9145711, 46.4975447], [2.9146379, 46.4974797], [2.9146992, 46.4974502], [2.9148682, 46.4973687], [2.9150317, 46.4972736], [2.9151469, 46.4971737], [2.9151133, 46.4971658], [2.9150732, 46.4971563], [2.9149857, 46.4971943], [2.914836, 46.4973037], [2.9145964, 46.4974417], [2.9144928, 46.4975019], [2.9144352, 46.4976002], [2.9143454, 46.4976494], [2.914251, 46.4977049], [2.9141611, 46.4978095], [2.914092, 46.4978349], [2.9140575, 46.4978396], [2.9140644, 46.4977826], [2.9140183, 46.4977619], [2.9139654, 46.4977762], [2.9139677, 46.4978111], [2.9139538, 46.4978761], [2.913572, 46.4980065], [2.9134253, 46.4981328], [2.9133453, 46.4982694], [2.9132976, 46.4985061], [2.9131385, 46.4985943], [2.9128852, 46.4986197], [2.9124637, 46.4987846], [2.9122591, 46.4988836], [2.9121177, 46.4989555], [2.9120593, 46.4990388], [2.9120997, 46.4992637], [2.9119052, 46.4994508], [2.9117013, 46.4995059], [2.9113743, 46.499563], [2.9109953, 46.499703], [2.9103286, 46.5001591], [2.9102664, 46.5002654], [2.9101763, 46.5004285], [2.9101671, 46.500531], [2.910062, 46.5005693], [2.909984, 46.5007582], [2.9097551, 46.5008456], [2.9094972, 46.5010168], [2.9094183, 46.501099], [2.909464, 46.5014283], [2.9095592, 46.5016163], [2.9096821, 46.5019413], [2.9097317, 46.5023407], [2.9098254, 46.5024983], [2.9099077, 46.502619], [2.9101423, 46.5028745], [2.910329, 46.5030772], [2.9104314, 46.5032039], [2.9105673, 46.5033371], [2.9107305, 46.503586], [2.9107292, 46.5036764], [2.9107244, 46.504011], [2.9107679, 46.5041706], [2.9107788, 46.5042108], [2.9107533, 46.5043749], [2.9106943, 46.5044849], [2.9106393, 46.5045394], [2.9105803, 46.5046363], [2.9105401, 46.5047914], [2.9102799, 46.5049732], [2.910241, 46.5050231], [2.9100023, 46.5051717], [2.9097857, 46.5051876], [2.9096455, 46.5051587], [2.909342, 46.5051182], [2.9092035, 46.5050764], [2.9090453, 46.504982], [2.9087651, 46.5049602], [2.9086173, 46.505037], [2.9082789, 46.5052517], [2.9073407, 46.5053094], [2.9069513, 46.5054006], [2.9057331, 46.5059838], [2.9054096, 46.5059112], [2.9049772, 46.5055234], [2.9049055, 46.5054112], [2.9049034, 46.5053572], [2.9048391, 46.5052511], [2.9047747, 46.5052206], [2.9045805, 46.5052851], [2.9044133, 46.5053406], [2.9044119, 46.5053895], [2.9045231, 46.5056503], [2.9044033, 46.5058264], [2.9039187, 46.5058742], [2.9037604, 46.506025], [2.9033983, 46.5061013], [2.9029323, 46.5064599], [2.901758, 46.5067367], [2.9023074, 46.5073816], [2.9022351, 46.5074234], [2.9022946, 46.5074942], [2.902549, 46.5077969], [2.9026804, 46.5078652], [2.9057202, 46.5072532], [2.9068548, 46.5068591], [2.9083978, 46.50675], [2.9094592, 46.5066061], [2.9097274, 46.5066504], [2.9101673, 46.5066301], [2.9105026, 46.5066726], [2.9111329, 46.5066154], [2.9114333, 46.506523], [2.9119393, 46.506442], [2.9124408, 46.5064513]]]}}, {"type": "Feature", "properties": {"name": "Étang de Sault"}, "geometry": {"type": "Polygon", "coordinates": [[[2.5542566, 46.3295469], [2.5543666, 46.3295326], [2.5547888, 46.3298152], [2.5558215, 46.3304427], [2.5563926, 46.330777], [2.5566122, 46.3310274], [2.5570608, 46.331676], [2.5574595, 46.3321362], [2.5577342, 46.3326937], [2.5579158, 46.3331257], [2.5585343, 46.3334847], [2.5587602, 46.3337567], [2.5588491, 46.3338887], [2.5590268, 46.3340891], [2.5589829, 46.3341408], [2.5588641, 46.3341591], [2.5588964, 46.3342238], [2.5589809, 46.334295], [2.5591049, 46.3343356], [2.5592984, 46.3343612], [2.559693, 46.3343896], [2.5601453, 46.3345223], [2.5603322, 46.3344706], [2.5618307, 46.3340564], [2.561744, 46.3324931], [2.5617297, 46.3322362], [2.5617224, 46.3320986], [2.5615291, 46.3320447], [2.5615281, 46.3318793], [2.561153, 46.3317323], [2.561123, 46.3314981], [2.5611136, 46.3314246], [2.5609589, 46.3310467], [2.5608838, 46.3308633], [2.5603766, 46.330306], [2.5595979, 46.3298397], [2.559089, 46.3297351], [2.5585712, 46.3296879], [2.5581661, 46.3294939], [2.5575032, 46.3288217], [2.5571134, 46.3285404], [2.5570436, 46.328432], [2.5569222, 46.3282208], [2.5568897, 46.3281423], [2.5566393, 46.3279457], [2.5565035, 46.3279841], [2.5564347, 46.3280036], [2.5563629, 46.3280843], [2.5563604, 46.3283183], [2.556332, 46.3285044], [2.5562184, 46.3286202], [2.5556175, 46.32866], [2.5552138, 46.3286273], [2.5549023, 46.3285772], [2.5535635, 46.3281155], [2.5530852, 46.3279937], [2.5522628, 46.3276044], [2.551742, 46.3274785], [2.5513654, 46.327411], [2.5511174, 46.327338], [2.5509782, 46.3272146], [2.5508666, 46.3271853], [2.5508881, 46.3272359], [2.5519003, 46.3282078], [2.5518571, 46.3282756], [2.5522048, 46.328457], [2.5522991, 46.3285062], [2.55243, 46.3286859], [2.5524898, 46.3288021], [2.5532254, 46.3289286], [2.5535169, 46.3289132], [2.5535836, 46.3289443], [2.5535904, 46.3290506], [2.5538051, 46.3292285], [2.5542566, 46.3295469]]]}}, {"type": "Feature", "properties": {"name": "Étang de Goule"}, "geometry": {"type": "Polygon", "coordinates": [[[2.814456, 46.7217384], [2.814142, 46.7215828], [2.8142265, 46.7215025], [2.8141026, 46.7214395], [2.8139647, 46.7215084], [2.8137093, 46.7216283], [2.8134953, 46.7215557], [2.8133526, 46.7213854], [2.8129589, 46.7211465], [2.812568, 46.7210876], [2.8124313, 46.7211246], [2.8119604, 46.7209718], [2.8117231, 46.7207327], [2.8114246, 46.7206686], [2.8110958, 46.7207408], [2.811453, 46.7206103], [2.8116615, 46.7205882], [2.8117765, 46.7203614], [2.811719, 46.7200582], [2.8118233, 46.7202135], [2.8119096, 46.7204255], [2.8121433, 46.7205734], [2.812624, 46.7203664], [2.8133895, 46.7204386], [2.8142548, 46.7208243], [2.8145146, 46.7208834], [2.8144429, 46.7210987], [2.8141455, 46.7213961], [2.8142772, 46.7214679], [2.8143292, 46.7214345], [2.8146107, 46.7215417], [2.8148517, 46.7212467], [2.816019, 46.7214015], [2.8166911, 46.7213987], [2.8176158, 46.7213948], [2.8178702, 46.7216839], [2.8182083, 46.7219141], [2.818658, 46.7220044], [2.8185952, 46.7221127], [2.8179954, 46.7231611], [2.8179678, 46.7231859], [2.8179755, 46.7232219], [2.8183936, 46.7235855], [2.8185906, 46.7237896], [2.818884, 46.7239303], [2.820461, 46.7238604], [2.8207269, 46.7241315], [2.8211875, 46.7242694], [2.8217258, 46.7241735], [2.8224117, 46.7242055], [2.8229067, 46.7240299], [2.823127, 46.7240184], [2.8236677, 46.724332], [2.8234157, 46.7244594], [2.8233763, 46.7246361], [2.8235212, 46.7247413], [2.824555, 46.724755], [2.8252656, 46.7248638], [2.8254778, 46.7251903], [2.8250031, 46.7253766], [2.8242473, 46.7254598], [2.8207584, 46.7252034], [2.8203971, 46.7252325], [2.8197849, 46.7252456], [2.8193068, 46.7252608], [2.8189571, 46.7253157], [2.8184282, 46.72547], [2.8170653, 46.7259765], [2.8154059, 46.7261789], [2.8146778, 46.7256349], [2.8145393, 46.7257235], [2.8152629, 46.7262726], [2.8152672, 46.726361], [2.8151569, 46.7265115], [2.8148419, 46.726638], [2.8146862, 46.726783], [2.8144311, 46.7272936], [2.8141061, 46.7274703], [2.8139172, 46.727924], [2.8139935, 46.7281287], [2.8135815, 46.7283374], [2.8131895, 46.7287167], [2.8128892, 46.7293523], [2.8124014, 46.7296565], [2.8117961, 46.7297691], [2.8105517, 46.7295252], [2.810153, 46.7294826], [2.8093638, 46.7292924], [2.8089123, 46.7291007], [2.8081827, 46.7290892], [2.8072071, 46.7292446], [2.8062425, 46.7292887], [2.8050806, 46.7293138], [2.804528, 46.7291391], [2.8038559, 46.7289687], [2.8029454, 46.7286417], [2.8021897, 46.7284961], [2.8012081, 46.7285193], [2.8001636, 46.7287501], [2.7996278, 46.7290298], [2.7992018, 46.7295799], [2.7989852, 46.7300432], [2.7986492, 46.7305502], [2.7983463, 46.7310098], [2.7977909, 46.7318409], [2.7972823, 46.7322948], [2.7965997, 46.7326693], [2.7963032, 46.7331118], [2.7963328, 46.7335941], [2.7965377, 46.7337878], [2.7967436, 46.7338422], [2.7969856, 46.7338937], [2.7973114, 46.7339233], [2.7981996, 46.7338671], [2.7986534, 46.73389], [2.7987632, 46.7339793], [2.7983687, 46.7341782], [2.7974551, 46.7343976], [2.7970702, 46.7344958], [2.7968189, 46.7344876], [2.795808, 46.7346519], [2.795561, 46.7348802], [2.7954585, 46.73507], [2.7955303, 46.7351903], [2.7953768, 46.7352967], [2.7934131, 46.7346134], [2.7934744, 46.7344666], [2.7935329, 46.7341264], [2.7933276, 46.7339439], [2.7931591, 46.733794], [2.7929297, 46.7335242], [2.7930624, 46.7333811], [2.7932654, 46.7333082], [2.7935292, 46.7332466], [2.7936426, 46.7331231], [2.7938131, 46.7327388], [2.794245, 46.7320117], [2.7945629, 46.7316799], [2.7950593, 46.7314714], [2.7951786, 46.7311581], [2.795152, 46.730835], [2.7953414, 46.7306568], [2.7959139, 46.7306006], [2.7963579, 46.7305676], [2.7965704, 46.7304383], [2.7969594, 46.730024], [2.7974664, 46.729276], [2.7978778, 46.7283639], [2.7988285, 46.7272871], [2.7989984, 46.727166], [2.7993823, 46.7268829], [2.8002052, 46.7265381], [2.8005302, 46.7263222], [2.8007476, 46.7261988], [2.8014083, 46.7259897], [2.8024194, 46.7260857], [2.8027862, 46.7263776], [2.8033844, 46.7263565], [2.8038776, 46.7260363], [2.8041139, 46.7253911], [2.8045398, 46.7254168], [2.80481, 46.725447], [2.805022, 46.7259965], [2.8048552, 46.7266644], [2.8048377, 46.72726], [2.8048465, 46.7273617], [2.805108, 46.727497], [2.8052214, 46.7274694], [2.8055365, 46.7276117], [2.8057347, 46.7276886], [2.8065925, 46.7276728], [2.8073461, 46.7277007], [2.8083962, 46.7277647], [2.8100699, 46.7279731], [2.8105169, 46.7279018], [2.8108319, 46.7275598], [2.8114345, 46.7269692], [2.8116762, 46.7268728], [2.8121276, 46.7264258], [2.8125132, 46.7262717], [2.8134153, 46.725479], [2.813337, 46.7251963], [2.8134294, 46.7250794], [2.8137211, 46.725115], [2.8144844, 46.7256856], [2.8146339, 46.7255966], [2.8139159, 46.7250449], [2.813954, 46.7247775], [2.8143655, 46.7246767], [2.8155854, 46.7244398], [2.8157091, 46.7243515], [2.8156208, 46.7238908], [2.8154478, 46.7233697], [2.8152771, 46.723024], [2.8150193, 46.7224471], [2.8144509, 46.721926], [2.814456, 46.7217384]]]}}, {"type": "Feature", "properties": {"name": "Étang de Billot"}, "geometry": {"type": "Polygon", "coordinates": [[[2.9555659, 46.7025999], [2.9563912, 46.7024075], [2.9571902, 46.7022212], [2.957232, 46.7021819], [2.9572347, 46.7017055], [2.9572293, 46.7015396], [2.9568458, 46.7011647], [2.956717, 46.7009955], [2.956202, 46.7006423], [2.9561242, 46.7005062], [2.9558319, 46.7002284], [2.9556361, 46.6996177], [2.9555181, 46.6994393], [2.9547644, 46.698926], [2.9545042, 46.6984459], [2.9544157, 46.6978352], [2.9544693, 46.6973863], [2.95459, 46.6971324], [2.9547134, 46.6968013], [2.954818, 46.6957582], [2.9543915, 46.6952027], [2.9542488, 46.695502], [2.9542398, 46.6958574], [2.9540441, 46.6962116], [2.9538307, 46.6963949], [2.9536131, 46.6963783], [2.9535364, 46.696626], [2.9536473, 46.6966504], [2.9535479, 46.6967603], [2.9530257, 46.697421], [2.9527742, 46.6975592], [2.9521975, 46.6977616], [2.9513445, 46.6978388], [2.9505372, 46.697826], [2.949129, 46.6976549], [2.9487857, 46.6977469], [2.9484907, 46.6977524], [2.947914, 46.6976402], [2.9475063, 46.6977285], [2.946994, 46.6980522], [2.9466936, 46.6981129], [2.9464897, 46.6981755], [2.9461062, 46.6981424], [2.9457709, 46.6981479], [2.9455694, 46.6980673], [2.9453149, 46.6978701], [2.9452506, 46.6979051], [2.945272, 46.6980375], [2.9451969, 46.6980872], [2.9451433, 46.6981957], [2.9448777, 46.6984404], [2.9447007, 46.6985103], [2.9446256, 46.6985912], [2.9445398, 46.6986722], [2.9441991, 46.6987881], [2.9439685, 46.6987733], [2.9437378, 46.698777], [2.9434466, 46.6987506], [2.9431853, 46.6987881], [2.9430297, 46.6987899], [2.9427883, 46.6987274], [2.9428285, 46.6987752], [2.9428151, 46.698823], [2.9420574, 46.6990759], [2.9419877, 46.6991311], [2.9418576, 46.6991302], [2.9415907, 46.6990677], [2.9415585, 46.6990778], [2.9415719, 46.6991072], [2.9419099, 46.6991918], [2.9420426, 46.699178], [2.9424235, 46.6990217], [2.9425898, 46.6989904], [2.9429117, 46.6990235], [2.9431048, 46.69911], [2.9432228, 46.6991946], [2.9436198, 46.6992056], [2.9441079, 46.6995919], [2.944698, 46.6999378], [2.9458702, 46.7000095], [2.946023, 46.7000518], [2.9463288, 46.7000702], [2.9466024, 46.7001603], [2.946766, 46.7001364], [2.9472637, 46.6999286], [2.9482305, 46.6995], [2.9485524, 46.6992884], [2.9489815, 46.6991008], [2.9495099, 46.6990327], [2.9498962, 46.6989775], [2.9510334, 46.6991744], [2.951712, 46.6993326], [2.9520473, 46.6997115], [2.9522109, 46.7001419], [2.9527259, 46.7007398], [2.9529485, 46.7009017], [2.9534849, 46.7010874], [2.9536459, 46.7012272], [2.9539087, 46.7017386], [2.9542601, 46.7020127], [2.9550943, 46.702456], [2.955282, 46.7025774], [2.9555659, 46.7025999]]]}}, {"type": "Feature", "properties": {"name": "Étang de Bourbon"}, "geometry": {"type": "Polygon", "coordinates": [[[3.0579199, 46.5885946], [3.0578987, 46.5885041], [3.0579009, 46.5884144], [3.0579159, 46.5881625], [3.057797, 46.587912], [3.057544, 46.587473], [3.0573599, 46.5874892], [3.0570829, 46.58751], [3.0564727, 46.5875559], [3.0566487, 46.5879172], [3.0566243, 46.5879875], [3.0553349, 46.5882346], [3.0550414, 46.5882912], [3.0539358, 46.5887072], [3.053218, 46.5890792], [3.0529457, 46.589766], [3.052143, 46.5898372], [3.0510331, 46.5894456], [3.0504139, 46.5892062], [3.0495308, 46.5892564], [3.0487262, 46.5891733], [3.048286, 46.5891285], [3.0478911, 46.5892592], [3.0475189, 46.5893824], [3.0475402, 46.5895045], [3.0472996, 46.589576], [3.0470704, 46.5897241], [3.0477332, 46.5897594], [3.0477429, 46.5899382], [3.0483725, 46.5900582], [3.0499989, 46.5902453], [3.0510775, 46.5906463], [3.0512857, 46.5908932], [3.0520148, 46.5912953], [3.0522557, 46.5917689], [3.0521012, 46.5919123], [3.0526344, 46.5933841], [3.0522402, 46.594283], [3.0516107, 46.5946578], [3.0516157, 46.5951733], [3.051462, 46.5952538], [3.051552, 46.5960384], [3.0523845, 46.5967884], [3.0521343, 46.5982592], [3.0519465, 46.5987598], [3.0534433, 46.5985577], [3.0540325, 46.5979267], [3.053528, 46.597249], [3.0531314, 46.5964305], [3.0528152, 46.5957291], [3.0529746, 46.5950879], [3.0538039, 46.5943931], [3.053881, 46.5938999], [3.0540511, 46.5920229], [3.054021, 46.5915305], [3.0548091, 46.5896969], [3.0553339, 46.5891695], [3.0570981, 46.5887333], [3.0572245, 46.5887666], [3.0579199, 46.5885946]]]}}, {"type": "Feature", "properties": {"name": "Grand Étang"}, "geometry": {"type": "Polygon", "coordinates": [[[2.3687903, 46.3564024], [2.3689107, 46.3564937], [2.3688842, 46.3572504], [2.3689573, 46.3586503], [2.3684732, 46.3590674], [2.3677943, 46.359371], [2.3672689, 46.3592624], [2.36648, 46.3588701], [2.3654507, 46.3588057], [2.3649929, 46.3586509], [2.3646281, 46.3584297], [2.364755, 46.3583388], [2.3646823, 46.3582367], [2.3642886, 46.3581155], [2.3643409, 46.3579786], [2.3640884, 46.357763], [2.3637592, 46.3577294], [2.3637592, 46.357569], [2.3633757, 46.3573899], [2.3632213, 46.3574327], [2.3632479, 46.3573418], [2.3630714, 46.3571154], [2.3625159, 46.3567698], [2.3623223, 46.3566147], [2.3622329, 46.3563825], [2.3619344, 46.3561878], [2.3618962, 46.3561122], [2.3608582, 46.3555054], [2.3603935, 46.3553316], [2.3594368, 46.3548478], [2.358972, 46.3547168], [2.3591215, 46.354719], [2.3593806, 46.3546575], [2.3593708, 46.3545881], [2.3592642, 46.3545573], [2.359289, 46.3545283], [2.3593956, 46.3544033], [2.3595051, 46.3543321], [2.3595071, 46.354198], [2.3594377, 46.3540765], [2.3593212, 46.354032], [2.3597054, 46.3539722], [2.3599954, 46.3540269], [2.360164, 46.3540064], [2.360304, 46.3542404], [2.3606672, 46.3541604], [2.3610415, 46.3542339], [2.3612918, 46.3543708], [2.3614777, 46.3544238], [2.3616488, 46.3543776], [2.3620665, 46.3545385], [2.3621971, 46.3546103], [2.3628178, 46.3548402], [2.3631509, 46.3550469], [2.3634159, 46.3552869], [2.3640532, 46.3556906], [2.3643249, 46.3558024], [2.3644815, 46.3558339], [2.3645826, 46.3559215], [2.3647671, 46.3559968], [2.364894, 46.3560009], [2.3650526, 46.3560624], [2.3652827, 46.3561145], [2.3655167, 46.3562075], [2.3659544, 46.3564246], [2.3661889, 46.3564292], [2.3663713, 46.3563923], [2.3667243, 46.3563198], [2.3670277, 46.356302], [2.3672696, 46.3563635], [2.3674065, 46.3564498], [2.3675096, 46.3564142], [2.3680709, 46.3564912], [2.368394, 46.356432], [2.3685229, 46.3563649], [2.3686597, 46.3564032], [2.3687903, 46.3564024]]]}}, {"type": "Feature", "properties": {"name": "Lac de Sidiailles"}, "geometry": {"type": "Polygon", "coordinates": [[[2.324201, 46.4885124], [2.3240921, 46.4884359], [2.3241175, 46.4883139], [2.3242257, 46.4882106], [2.3244242, 46.4881173], [2.3243932, 46.4880578], [2.3242256, 46.4881108], [2.3240209, 46.4882358], [2.3238286, 46.4884024], [2.3237926, 46.4885464], [2.3237808, 46.4886473], [2.3235799, 46.4888506], [2.323607, 46.4890063], [2.3235566, 46.4890786], [2.3235086, 46.4892526], [2.3234171, 46.4894158], [2.3231669, 46.4894598], [2.3232964, 46.4895656], [2.3234871, 46.4897183], [2.3234477, 46.4898068], [2.323528, 46.4900266], [2.3238675, 46.490597], [2.3241746, 46.4907927], [2.3244586, 46.4912097], [2.3247027, 46.491247], [2.324965, 46.4913051], [2.3256321, 46.4916124], [2.3260135, 46.4918599], [2.3260706, 46.4919743], [2.3263024, 46.4921972], [2.3269735, 46.4926583], [2.3271594, 46.4927645], [2.3273431, 46.4928094], [2.3274008, 46.4929453], [2.3275971, 46.4931083], [2.3275821, 46.4931702], [2.3277685, 46.4933009], [2.3279863, 46.493529], [2.3279707, 46.4936475], [2.3280356, 46.4937995], [2.3279648, 46.4940689], [2.3279536, 46.4942013], [2.3281351, 46.4944507], [2.3280866, 46.4946012], [2.3281486, 46.4946819], [2.3281322, 46.4947593], [2.3282132, 46.4949694], [2.3282288, 46.4952061], [2.3281818, 46.4952996], [2.3282819, 46.4953204], [2.3284184, 46.4954654], [2.3285522, 46.4957704], [2.328715, 46.496066], [2.3288564, 46.4961622], [2.328957, 46.4962983], [2.3290771, 46.4965393], [2.3292386, 46.496706], [2.3292582, 46.4968899], [2.3294248, 46.4969774], [2.3295682, 46.4971848], [2.3301302, 46.4974981], [2.3301114, 46.4976059], [2.330242, 46.4977882], [2.3304335, 46.4979425], [2.3305314, 46.4981063], [2.3307916, 46.4984075], [2.3310896, 46.4986824], [2.331447, 46.498845], [2.3317884, 46.499056], [2.3320988, 46.4992477], [2.332398, 46.4994558], [2.3324946, 46.4996404], [2.3325133, 46.4998859], [2.3324221, 46.5001961], [2.3323422, 46.5004884], [2.3322928, 46.5006593], [2.3322845, 46.5006825], [2.3322204, 46.5009812], [2.3321893, 46.5011564], [2.3321719, 46.5012545], [2.3321658, 46.501309], [2.3321459, 46.5014875], [2.332064, 46.5016222], [2.3317934, 46.5017842], [2.3316146, 46.501809], [2.331372, 46.5018427], [2.3311178, 46.5018226], [2.3308589, 46.5015764], [2.3308227, 46.5015419], [2.3303238, 46.5011066], [2.3302326, 46.5009068], [2.3300162, 46.5007573], [2.329815, 46.5005378], [2.3298577, 46.5002427], [2.3296761, 46.5001018], [2.3293818, 46.5000103], [2.3290382, 46.4999948], [2.3285587, 46.5000627], [2.3281727, 46.5001648], [2.3280351, 46.5001545], [2.3278516, 46.50022], [2.3275912, 46.5001366], [2.3275298, 46.5002051], [2.3272184, 46.5003494], [2.3268117, 46.5005156], [2.3266924, 46.5004381], [2.3263228, 46.5006334], [2.3261833, 46.5007554], [2.3259249, 46.5008866], [2.3256219, 46.5010097], [2.3253094, 46.5009912], [2.3250686, 46.5009561], [2.3248441, 46.5008638], [2.3246163, 46.5007487], [2.3243881, 46.5006973], [2.3240477, 46.5005228], [2.3238645, 46.500338], [2.3236559, 46.5001366], [2.3235614, 46.4999087], [2.3235518, 46.4996892], [2.3236191, 46.4994481], [2.3235813, 46.4991968], [2.3233922, 46.4990232], [2.3230145, 46.4987614], [2.3227726, 46.4985052], [2.3224988, 46.4982335], [2.3223185, 46.4979701], [2.3220417, 46.497536], [2.321708, 46.4972544], [2.3215045, 46.4970997], [2.3213065, 46.4968785], [2.3210581, 46.4968589], [2.3208143, 46.4967799], [2.3206223, 46.4965878], [2.3203516, 46.4963724], [2.3199217, 46.4962132], [2.3194418, 46.4960869], [2.3190274, 46.4959619], [2.3186672, 46.4958888], [2.318278, 46.4958698], [2.3178258, 46.4957516], [2.3172462, 46.4957148], [2.3168699, 46.4956447], [2.3165349, 46.4955307], [2.3163079, 46.4955572], [2.3160934, 46.4955154], [2.3158893, 46.4954776], [2.3154842, 46.4953797], [2.3151012, 46.4954344], [2.3143786, 46.4953978], [2.3143462, 46.4955644], [2.3142456, 46.4957126], [2.3143255, 46.4957765], [2.3141852, 46.4958411], [2.3144376, 46.4958347], [2.3144626, 46.495915], [2.3143263, 46.4959805], [2.3141048, 46.4959813], [2.3139629, 46.4960546], [2.313615, 46.4962712], [2.3133157, 46.4963345], [2.313291, 46.4967134], [2.3136271, 46.4967167], [2.3142544, 46.4967232], [2.3144966, 46.4968757], [2.3146342, 46.4970747], [2.3151581, 46.4970882], [2.315771, 46.4970206], [2.3162382, 46.4970302], [2.3167438, 46.4971419], [2.3178733, 46.4974435], [2.3182558, 46.49761], [2.3185817, 46.4977538], [2.3188405, 46.4978681], [2.3193064, 46.4980528], [2.3196441, 46.4982335], [2.3197495, 46.4983569], [2.3199351, 46.498422], [2.3201009, 46.4984457], [2.3204667, 46.4985853], [2.3208028, 46.4987695], [2.3210412, 46.4990212], [2.3212255, 46.499136], [2.3214803, 46.4993234], [2.3216021, 46.4994883], [2.3218317, 46.4997555], [2.3221455, 46.4999874], [2.3223931, 46.5002575], [2.3226219, 46.5004789], [2.3228611, 46.5006543], [2.3230392, 46.5007255], [2.3232691, 46.5008786], [2.3235475, 46.5009949], [2.3236522, 46.50096], [2.3239048, 46.5011398], [2.3238251, 46.5011921], [2.3239206, 46.5013029], [2.3240375, 46.5013315], [2.3241384, 46.5013128], [2.3242596, 46.5013475], [2.3246263, 46.5014164], [2.3249133, 46.5014171], [2.3250769, 46.501361], [2.3252005, 46.501424], [2.3251088, 46.5015032], [2.3252641, 46.5015218], [2.3253784, 46.5014566], [2.3255197, 46.501479], [2.3258925, 46.5015052], [2.3261023, 46.5014371], [2.3263407, 46.5014356], [2.3266613, 46.5013396], [2.327018, 46.5011707], [2.3272945, 46.5011051], [2.3275848, 46.5009705], [2.3279592, 46.5007925], [2.328306, 46.5006851], [2.3286351, 46.5006928], [2.328924, 46.5007924], [2.3291021, 46.500837], [2.3291243, 46.5009967], [2.3291847, 46.5010704], [2.3294583, 46.5012735], [2.3295135, 46.5013708], [2.3295288, 46.5015693], [2.3297217, 46.5017201], [2.3296621, 46.5018272], [2.3297241, 46.5019117], [2.3297622, 46.502182], [2.3297305, 46.5023436], [2.3298802, 46.5025947], [2.3300607, 46.5028936], [2.3299652, 46.5030265], [2.3300712, 46.5031519], [2.3303667, 46.5032663], [2.3306095, 46.5034249], [2.3308431, 46.5035266], [2.3308498, 46.5036149], [2.3310604, 46.5037615], [2.3313761, 46.5039315], [2.3315925, 46.5040681], [2.3318323, 46.5042178], [2.3319967, 46.5043534], [2.3321845, 46.5044909], [2.3323628, 46.5047143], [2.3325498, 46.505017], [2.3326587, 46.5052342], [2.3328456, 46.5054861], [2.3328266, 46.5055831], [2.3326793, 46.5056517], [2.3325586, 46.5057548], [2.3323457, 46.50591], [2.3319707, 46.5060324], [2.3315415, 46.5060328], [2.3317162, 46.5062536], [2.3316926, 46.5064542], [2.3316593, 46.506685], [2.3316832, 46.5068988], [2.3315571, 46.506992], [2.3313492, 46.5070806], [2.3315061, 46.5071925], [2.3315987, 46.5074484], [2.3315882, 46.5076319], [2.331552, 46.5079317], [2.3315429, 46.5083572], [2.3314689, 46.508518], [2.3315662, 46.5086139], [2.3316032, 46.5087533], [2.3316665, 46.5088565], [2.3316395, 46.5089292], [2.3316873, 46.5090153], [2.3315764, 46.5090225], [2.3314191, 46.5090602], [2.3312364, 46.5091361], [2.3313928, 46.5091455], [2.3315715, 46.5091826], [2.3318815, 46.5093112], [2.3318767, 46.5093938], [2.3323351, 46.5091724], [2.3328259, 46.5089502], [2.3326246, 46.5088718], [2.3325297, 46.5087419], [2.3324953, 46.5085032], [2.3326093, 46.5083476], [2.3327579, 46.5083154], [2.3330431, 46.5083295], [2.3334025, 46.508211], [2.3338214, 46.5081332], [2.3336774, 46.5080806], [2.3334443, 46.5080638], [2.3331463, 46.5080607], [2.3329832, 46.5080343], [2.3327839, 46.5080079], [2.3324337, 46.5080334], [2.3323033, 46.5078159], [2.3321697, 46.5076499], [2.3324377, 46.5072501], [2.3325238, 46.5070998], [2.3323577, 46.5068626], [2.3326485, 46.5068999], [2.3328542, 46.506834], [2.333119, 46.5065454], [2.3333553, 46.5064155], [2.3335073, 46.5062464], [2.3338925, 46.5060021], [2.3339791, 46.5057841], [2.3339732, 46.5056303], [2.3340942, 46.5053905], [2.3342795, 46.5050429], [2.3343101, 46.5046151], [2.3342801, 46.504182], [2.3344064, 46.5037999], [2.3346585, 46.5037578], [2.3349442, 46.5038501], [2.3354125, 46.5039732], [2.3356998, 46.5039686], [2.3356738, 46.5039058], [2.3355496, 46.5038314], [2.3352894, 46.5037028], [2.3351816, 46.5035261], [2.3352213, 46.5034002], [2.3354297, 46.5032274], [2.3356402, 46.5031227], [2.3357172, 46.5028751], [2.3357156, 46.5026438], [2.3355351, 46.5023214], [2.3355182, 46.5021252], [2.3355686, 46.5019588], [2.3356392, 46.5017823], [2.3356789, 46.5016762], [2.3357931, 46.501656], [2.3361777, 46.5016343], [2.3365192, 46.5016507], [2.3368113, 46.5016234], [2.337105, 46.5015802], [2.3377879, 46.5016529], [2.3385003, 46.5015613], [2.3389021, 46.5015346], [2.3390633, 46.5014795], [2.339236, 46.5013763], [2.3394396, 46.5012611], [2.3398443, 46.5011371], [2.3401367, 46.501136], [2.3404395, 46.5011171], [2.3406187, 46.5010623], [2.3407225, 46.5009438], [2.3405353, 46.5009231], [2.3402074, 46.5009091], [2.3397105, 46.5009122], [2.3392121, 46.5009153], [2.3386883, 46.5007924], [2.3378673, 46.5006482], [2.337359, 46.5005819], [2.3367928, 46.5005014], [2.3364468, 46.5004624], [2.3359785, 46.5004798], [2.3354409, 46.5005645], [2.3350762, 46.500712], [2.3349654, 46.5006003], [2.3349171, 46.5004135], [2.3348484, 46.500139], [2.3347184, 46.4999368], [2.3346253, 46.4997688], [2.3345327, 46.499655], [2.3345263, 46.4994632], [2.334452, 46.4992928], [2.3342718, 46.4991523], [2.3340486, 46.4990169], [2.3337667, 46.4989183], [2.3336482, 46.4988055], [2.3336825, 46.4986936], [2.3338898, 46.4985749], [2.3340875, 46.4985101], [2.3344335, 46.4985101], [2.334643, 46.4983814], [2.3343753, 46.4983635], [2.3340328, 46.4982409], [2.3337648, 46.4980917], [2.3335709, 46.4978654], [2.3335787, 46.4977031], [2.3336162, 46.4974752], [2.3334609, 46.4972967], [2.3331171, 46.4970382], [2.3328934, 46.4968543], [2.332546, 46.4966536], [2.332251, 46.4964868], [2.3320563, 46.496281], [2.332074, 46.4961731], [2.3321469, 46.4959745], [2.3324063, 46.4956668], [2.3326413, 46.4954977], [2.3327188, 46.4953555], [2.3326236, 46.495268], [2.3324004, 46.4952313], [2.3320091, 46.4953677], [2.3317918, 46.4953393], [2.331574, 46.4951964], [2.3311845, 46.4950067], [2.3310778, 46.4948627], [2.3313879, 46.4946553], [2.3315193, 46.4944347], [2.331427, 46.4943748], [2.3312342, 46.494438], [2.330985, 46.494457], [2.3307795, 46.494298], [2.3305017, 46.4939758], [2.3299979, 46.4932599], [2.3297785, 46.4926212], [2.3292788, 46.4920547], [2.3288507, 46.4918174], [2.3268347, 46.4910448], [2.3251717, 46.4900496], [2.3245835, 46.4897918], [2.323947, 46.4893154], [2.324007, 46.4890857], [2.3241738, 46.4889867], [2.3242905, 46.4888048], [2.3243353, 46.488694], [2.3244358, 46.4886092], [2.324201, 46.4885124]]]}}, {"type": "Feature", "properties": {"name": "Étang de Bord"}, "geometry": {"type": "Polygon", "coordinates": [[[2.9633029, 46.7908177], [2.9631728, 46.7908731], [2.9629596, 46.7908986], [2.9622997, 46.7910087], [2.9615879, 46.7910324], [2.9610498, 46.7910822], [2.9602827, 46.791152], [2.9599394, 46.7911483], [2.9592366, 46.7910822], [2.9587378, 46.7910198], [2.9583086, 46.7910087], [2.9569943, 46.7911263], [2.9561146, 46.7911703], [2.9559383, 46.7911751], [2.9557069, 46.7911814], [2.9555781, 46.7910895], [2.9553313, 46.7909904], [2.9547091, 46.790781], [2.954414, 46.7906947], [2.9542477, 46.7906488], [2.9538883, 46.7905827], [2.9535852, 46.7905019], [2.9534672, 46.7904505], [2.9534297, 46.7903954], [2.9534538, 46.7903586], [2.9535289, 46.7903403], [2.9537837, 46.7903366], [2.9542102, 46.7903568], [2.9548003, 46.7903935], [2.9552133, 46.7903788], [2.9557122, 46.7903586], [2.9558866, 46.7903293], [2.9560073, 46.7902778], [2.9560862, 46.7902313], [2.9561467, 46.7900593], [2.9561226, 46.7899895], [2.9560529, 46.7898738], [2.9559563, 46.7896994], [2.9557659, 46.7893339], [2.955503, 46.7889317], [2.9553662, 46.7887481], [2.9553474, 46.7886893], [2.9553716, 46.7886158], [2.9554279, 46.7885663], [2.9555003, 46.7885387], [2.955562, 46.7885277], [2.9556318, 46.788535], [2.9557176, 46.7885497], [2.9558276, 46.7885993], [2.9560609, 46.7887866], [2.9563828, 46.7889942], [2.9568656, 46.7892292], [2.9570882, 46.7893339], [2.9574583, 46.7895782], [2.9577936, 46.7897196], [2.958086, 46.7898444], [2.9581745, 46.7899106], [2.9582442, 46.7899987], [2.9583971, 46.7902485], [2.9586814, 46.7905386], [2.9589121, 46.79068], [2.9589872, 46.7907131], [2.9590516, 46.7907094], [2.9591428, 46.7906819], [2.95936, 46.7905827], [2.9596712, 46.7904211], [2.9597597, 46.7903256], [2.9600118, 46.7899987], [2.9601566, 46.789905], [2.9602693, 46.7898518], [2.9604758, 46.7897398], [2.9606153, 46.7896259], [2.9606743, 46.7894992], [2.9607387, 46.7892788], [2.9608808, 46.788827], [2.960972, 46.7886324], [2.9610807, 46.7884545], [2.9611517, 46.7882302], [2.9611437, 46.7879951], [2.9610874, 46.7875525], [2.9610015, 46.7869685], [2.9610203, 46.78666], [2.961074, 46.7863496], [2.9611732, 46.7859382], [2.9611812, 46.7857802], [2.9611249, 46.7856774], [2.9607762, 46.785479], [2.960508, 46.7852899], [2.9596926, 46.7847554], [2.9593949, 46.7845222], [2.9591267, 46.7842834], [2.9589604, 46.7841971], [2.9587726, 46.7841677], [2.9586868, 46.7842007], [2.958558, 46.7841989], [2.9581799, 46.7840869], [2.9579894, 46.7839969], [2.9578365, 46.7838279], [2.9576085, 46.7834643], [2.9574825, 46.7832439], [2.957343, 46.7830712], [2.9571311, 46.78295], [2.9569165, 46.7828894], [2.9567502, 46.7828857], [2.956482, 46.7829114], [2.9562862, 46.7829169], [2.9561816, 46.7828875], [2.9561226, 46.7828435], [2.9560985, 46.7827865], [2.9561065, 46.7827608], [2.9561897, 46.7826194], [2.956305, 46.7824963], [2.9562943, 46.7823953], [2.9562192, 46.7822337], [2.9561172, 46.78196], [2.9558785, 46.781589], [2.9557578, 46.7814678], [2.9555637, 46.7813905], [2.9553528, 46.7812161], [2.9550604, 46.78106], [2.9546769, 46.7808708], [2.954414, 46.7807716], [2.9542504, 46.7806871], [2.9541861, 46.7805943], [2.954237, 46.7805916], [2.9543094, 46.7805916], [2.9544033, 46.7805696], [2.9546045, 46.7805384], [2.9547439, 46.7805292], [2.9548727, 46.7805292], [2.9549746, 46.7805512], [2.9551811, 46.7806045], [2.955562, 46.7807533], [2.9557095, 46.7808176], [2.9558249, 46.7808396], [2.9560421, 46.7809057], [2.9564016, 46.7810637], [2.9566993, 46.7812455], [2.9570024, 46.7815376], [2.9572679, 46.7817304], [2.9574718, 46.7818076], [2.9577373, 46.7818682], [2.9579011, 46.7818927], [2.9580082, 46.7819343], [2.9580887, 46.7820629], [2.9581101, 46.7822392], [2.9582147, 46.7824063], [2.9583998, 46.7825569], [2.9585446, 46.7826286], [2.9586653, 46.782612], [2.9587887, 46.7825716], [2.9589014, 46.7824963], [2.9589952, 46.7824633], [2.9591455, 46.7823953], [2.9592608, 46.7822906], [2.9593922, 46.7822135], [2.9595102, 46.7821657], [2.9596443, 46.7821565], [2.9597704, 46.7821951], [2.9598187, 46.7822759], [2.9598482, 46.7825018], [2.9598214, 46.782669], [2.9596953, 46.7829261], [2.9595531, 46.7831704], [2.9594941, 46.7833577], [2.9594968, 46.783433], [2.9595612, 46.7834753], [2.9597248, 46.7835212], [2.9600118, 46.78358], [2.960272, 46.7836442], [2.9604731, 46.783714], [2.9606797, 46.7838261], [2.9610981, 46.7840777], [2.9613207, 46.7841695], [2.9614226, 46.7842007], [2.9615058, 46.7842154], [2.9615755, 46.784254], [2.961656, 46.7843752], [2.961707, 46.7845148], [2.9617794, 46.7845883], [2.9618706, 46.7846213], [2.961943, 46.7846673], [2.9619725, 46.7847426], [2.962061, 46.7848509], [2.9621495, 46.7849115], [2.9622568, 46.7849593], [2.9624043, 46.7849758], [2.962576, 46.7849758], [2.9628362, 46.7850199], [2.9628549, 46.7850713], [2.9629032, 46.7851613], [2.9629435, 46.7853229], [2.9629676, 46.7854478], [2.9630266, 46.7855415], [2.9631446, 46.7855654], [2.9632144, 46.7855562], [2.9633324, 46.7855121], [2.9635175, 46.7854129], [2.9636918, 46.7853266], [2.9638608, 46.7852715], [2.9639842, 46.7852715], [2.9640351, 46.7853137], [2.9640888, 46.785389], [2.9640941, 46.7855011], [2.9640754, 46.7856278], [2.9639037, 46.7859033], [2.9636596, 46.7862082], [2.9634933, 46.7864157], [2.9634128, 46.7864579], [2.9633538, 46.7864469], [2.9632036, 46.7864598], [2.9631339, 46.7865057], [2.9631232, 46.7866122], [2.9631875, 46.7866544], [2.9632653, 46.7867114], [2.9633324, 46.7868601], [2.9634021, 46.7871007], [2.9636033, 46.787378], [2.963665, 46.7876737], [2.9637133, 46.7880906], [2.9636837, 46.7882339], [2.9636086, 46.7882945], [2.963504, 46.7883532], [2.9634263, 46.788434], [2.9633753, 46.7885699], [2.963378, 46.7887866], [2.9635014, 46.7891154], [2.9635738, 46.7893486], [2.9635067, 46.7895378], [2.9633699, 46.7897581], [2.9632626, 46.789872], [2.9631607, 46.7900299], [2.9631151, 46.7901952], [2.9630668, 46.7903293], [2.9630266, 46.7904082], [2.9630534, 46.7904982], [2.96315, 46.7905643], [2.9632573, 46.7906543], [2.9633404, 46.7907186], [2.9633672, 46.7907755], [2.9633538, 46.7907975], [2.9633029, 46.7908177]]]}}, {"type": "Feature", "properties": {"name": "Étang de Mont"}, "geometry": {"type": "Polygon", "coordinates": [[[3.6474832, 46.5920317], [3.6472766, 46.5919953], [3.6471672, 46.5918616], [3.6469929, 46.5918616], [3.6471104, 46.5918008], [3.6471185, 46.5917441], [3.6472279, 46.5916833], [3.6472644, 46.5916063], [3.647236, 46.5915334], [3.6471726, 46.591423], [3.6469984, 46.59133], [3.6467079, 46.5912588], [3.646404, 46.5911818], [3.6462865, 46.5911778], [3.6462581, 46.5911089], [3.6461366, 46.5910522], [3.6461001, 46.5909954], [3.646088, 46.5909144], [3.6458974, 46.5908513], [3.6457562, 46.5908214], [3.6457031, 46.5907882], [3.6457397, 46.5907741], [3.645922, 46.5908247], [3.6463626, 46.5907792], [3.6463778, 46.5906627], [3.6465196, 46.5907184], [3.6465529, 46.5906955], [3.6465446, 46.5906457], [3.6466794, 46.5906665], [3.6466774, 46.590598], [3.6467479, 46.590598], [3.6467728, 46.590569], [3.6468205, 46.5905876], [3.6468247, 46.590627], [3.6469305, 46.590683], [3.6472603, 46.5906021], [3.6473658, 46.5903937], [3.6475724, 46.5901546], [3.6475765, 46.5900088], [3.6476737, 46.5899399], [3.6479371, 46.5896077], [3.6481822, 46.5892349], [3.6481951, 46.589102], [3.6483734, 46.588982], [3.6485737, 46.5884219], [3.6487204, 46.5884105], [3.6487245, 46.5883545], [3.6488034, 46.5883337], [3.6488241, 46.5885121], [3.6488594, 46.5889146], [3.6486499, 46.5889332], [3.6486586, 46.5890411], [3.6488461, 46.5890378], [3.6488483, 46.5893687], [3.6487887, 46.5895268], [3.6487081, 46.5898281], [3.6486014, 46.590363], [3.6484487, 46.5903497], [3.6484209, 46.5904979], [3.6485184, 46.590529], [3.6483296, 46.5907614], [3.6483726, 46.5910043], [3.6484374, 46.5911502], [3.6485833, 46.5911113], [3.6487356, 46.5914484], [3.649067, 46.5916552], [3.6495418, 46.5920904], [3.6499928, 46.592312], [3.6505626, 46.5925415], [3.6512836, 46.5929939], [3.6518771, 46.5932708], [3.6522094, 46.593619], [3.6529528, 46.5939209], [3.6540346, 46.594399], [3.6544924, 46.5946421], [3.6548287, 46.5948325], [3.6554191, 46.594952], [3.6562024, 46.5951279], [3.656594, 46.5952005], [3.6568769, 46.5952887], [3.6570938, 46.5954276], [3.6573693, 46.5955454], [3.6574307, 46.5955952], [3.6574921, 46.5956467], [3.6575634, 46.595635], [3.6576481, 46.5956915], [3.6576131, 46.5957706], [3.6576598, 46.5958518], [3.6579507, 46.596152], [3.6579656, 46.5961941], [3.6579466, 46.5962254], [3.6579207, 46.5962343], [3.6578711, 46.5961989], [3.6578623, 46.5962105], [3.657935, 46.5962689], [3.658041, 46.5963367], [3.6581233, 46.5963885], [3.6581472, 46.5963779], [3.6581326, 46.5963288], [3.6580954, 46.5962544], [3.6580594, 46.5962165], [3.6580399, 46.5962067], [3.6576703, 46.5957742], [3.6577231, 46.5957672], [3.6577347, 46.5956958], [3.6578111, 46.5957921], [3.6579073, 46.5958136], [3.6579687, 46.5957589], [3.6579505, 46.5958452], [3.6580152, 46.5958601], [3.6580268, 46.5958037], [3.6580965, 46.5957937], [3.6581114, 46.5957456], [3.6581629, 46.5958153], [3.6582409, 46.5958668], [3.6582957, 46.5958568], [3.658299, 46.5957888], [3.6583355, 46.5957655], [3.6583604, 46.5958103], [3.6584052, 46.5958286], [3.6584317, 46.595812], [3.6584948, 46.5959182], [3.6582957, 46.5960559], [3.6580755, 46.5962026], [3.6581207, 46.5962425], [3.6581552, 46.5963367], [3.6581923, 46.5964204], [3.6581592, 46.5964297], [3.6580981, 46.5964217], [3.6579706, 46.5963659], [3.6578737, 46.5963147], [3.6577905, 46.5962433], [3.6577794, 46.5962501], [3.6578128, 46.5962958], [3.6575285, 46.5965179], [3.6573548, 46.5967149], [3.656886, 46.5972135], [3.6567408, 46.5972425], [3.6565686, 46.5971844], [3.6561983, 46.5969802], [3.6560243, 46.5968422], [3.6558236, 46.596771], [3.6556676, 46.5967527], [3.6555898, 46.5967001], [3.6550985, 46.5964975], [3.6548482, 46.5964235], [3.6545967, 46.5964106], [3.6543711, 46.5963483], [3.6536131, 46.5961259], [3.6533956, 46.5960129], [3.6527408, 46.5958109], [3.6523063, 46.5955425], [3.6522182, 46.5955566], [3.6517623, 46.5953136], [3.6515218, 46.5950603], [3.6512875, 46.5950223], [3.6510786, 46.5947691], [3.6506233, 46.5944786], [3.6504815, 46.5943368], [3.6504714, 46.5942406], [3.6502232, 46.5939823], [3.6499041, 46.5938912], [3.6493139, 46.593404], [3.6491999, 46.5931318], [3.6490227, 46.5929672], [3.6487125, 46.5927203], [3.6484149, 46.5923088], [3.6481174, 46.5922012], [3.6474832, 46.5920317]]]}}, {"type": "Feature", "properties": {"name": "Étang de Pirot"}, "geometry": {"type": "MultiPolygon", "coordinates": [[[[2.7884568, 46.6830587], [2.7912603, 46.6833198], [2.791293, 46.6833233], [2.7913186, 46.6833263], [2.7918496, 46.6833736], [2.7884568, 46.6830587]]], [[[2.7953927, 46.6616884], [2.7953661, 46.6620793], [2.795134, 46.662445], [2.7948319, 46.6628486], [2.7950609, 46.6635205], [2.7947262, 46.6666795], [2.7945507, 46.6668772], [2.7941993, 46.6670502], [2.7937956, 46.6671977], [2.7935622, 46.6673504], [2.7934934, 46.6675078], [2.7934067, 46.6678585], [2.7935971, 46.6682321], [2.793699, 46.6687769], [2.7936803, 46.6691487], [2.7939242, 46.6695773], [2.7937983, 46.669745], [2.7936508, 46.6697837], [2.7935408, 46.6698518], [2.7935743, 46.6701426], [2.7934628, 46.6704987], [2.7934228, 46.6707444], [2.7933047, 46.6710113], [2.7929775, 46.6715782], [2.7929936, 46.6717291], [2.7928219, 46.67195], [2.7927549, 46.6720178], [2.7925605, 46.6721227], [2.792484, 46.6721264], [2.7924759, 46.6721469], [2.7924867, 46.6721881], [2.792657, 46.6722405], [2.7927281, 46.6723162], [2.7928622, 46.672792], [2.7926932, 46.6732447], [2.7924572, 46.6734057], [2.7924089, 46.6741557], [2.7922344, 46.6748676], [2.7919073, 46.6758314], [2.7912646, 46.6767232], [2.7908058, 46.6774991], [2.7905072, 46.6778907], [2.7900908, 46.6780883], [2.7898461, 46.6781085], [2.7896136, 46.6780763], [2.7891858, 46.6779129], [2.7888255, 46.6777542], [2.7877669, 46.6769788], [2.7869703, 46.6759548], [2.7866019, 46.6753934], [2.7865239, 46.6754263], [2.7866344, 46.6757234], [2.7866361, 46.6761808], [2.7869923, 46.6767064], [2.7872321, 46.6768985], [2.7872912, 46.6772355], [2.7877606, 46.6776551], [2.7882649, 46.6781759], [2.7892579, 46.6791447], [2.789319, 46.6795027], [2.7892024, 46.6798803], [2.7887428, 46.6801287], [2.7886658, 46.6809799], [2.7882293, 46.6816236], [2.7883789, 46.6823455], [2.7884568, 46.6830587], [2.7953927, 46.6616884]]], [[[2.7961586, 46.6618891], [2.796105, 46.6618612], [2.7959937, 46.6618216], [2.7953927, 46.6616884], [2.7961586, 46.6618891]]], [[[2.7918496, 46.6833736], [2.7920742, 46.6823903], [2.7921058, 46.6821022], [2.7919195, 46.681774], [2.7923387, 46.6809137], [2.7928848, 46.67971], [2.7929899, 46.679422], [2.7928756, 46.6793401], [2.7929775, 46.6790015], [2.7932117, 46.6787322], [2.7935041, 46.6785431], [2.7949731, 46.6782709], [2.7965887, 46.6780612], [2.7976151, 46.6775992], [2.7981917, 46.6774262], [2.7987795, 46.6773644], [2.7991761, 46.6770968], [2.7993844, 46.6768207], [2.7998939, 46.6765786], [2.8003678, 46.6764145], [2.8007657, 46.6763026], [2.8011842, 46.6761733], [2.8019686, 46.6758082], [2.8020991, 46.6756007], [2.8021652, 46.6754955], [2.801482, 46.6756491], [2.8009476, 46.6756485], [2.7988413, 46.6757999], [2.7977903, 46.6762916], [2.797301, 46.6763097], [2.7967702, 46.6765169], [2.7958153, 46.6765371], [2.7954612, 46.676469], [2.7952789, 46.6763089], [2.7952172, 46.6754504], [2.7952789, 46.6745818], [2.7954317, 46.6743517], [2.7958153, 46.6739524], [2.7953727, 46.6738088], [2.7951582, 46.6736192], [2.7949753, 46.6725577], [2.7952754, 46.6719722], [2.79548, 46.6717401], [2.7954454, 46.6714575], [2.7958357, 46.6699091], [2.7952961, 46.6686065], [2.7953778, 46.6680695], [2.7958889, 46.6674848], [2.7961318, 46.6671425], [2.7962185, 46.6667412], [2.7960281, 46.6658688], [2.7960864, 46.6652765], [2.7961211, 46.6649723], [2.7965127, 46.6647956], [2.7962444, 46.6642931], [2.7961998, 46.6636346], [2.7963103, 46.6628475], [2.7961752, 46.6620996], [2.7961586, 46.6618891], [2.7918496, 46.6833736]]]]}}]}