{"type": "FeatureCollection", "features": [{"type": "Feature", "properties": {"name": "Lac artificiel EDF"}, "geometry": {"type": "Polygon", "coordinates": [[[5.8665141, 44.345817], [5.8664816, 44.3458125], [5.8664037, 44.3458252], [5.8658931, 44.3459402], [5.8654315, 44.3460085], [5.8651564, 44.346032], [5.8647913, 44.346041], [5.8644725, 44.3460176], [5.8641578, 44.3459573], [5.8638515, 44.3458694], [5.8622735, 44.345297], [5.862028, 44.3452157], [5.8617955, 44.3451469], [5.8616224, 44.3451154], [5.8613151, 44.3450762], [5.8611948, 44.3450399], [5.8608946, 44.344943], [5.8606698, 44.3448221], [5.8600055, 44.344293], [5.8598144, 44.3441783], [5.8597491, 44.3441467], [5.859671, 44.3441353], [5.8595659, 44.3441386], [5.8568487, 44.3444794], [5.8566963, 44.3445019], [5.8564028, 44.3446165], [5.8561625, 44.344721], [5.8558865, 44.3448574], [5.8556307, 44.3449697], [5.8554776, 44.3450017], [5.8553586, 44.3450055], [5.8551648, 44.3449878], [5.8538363, 44.3447111], [5.8537654, 44.3446494], [5.8535966, 44.3446299], [5.8532932, 44.344651], [5.8530885, 44.3447067], [5.8527807, 44.3448148], [5.851909, 44.3451736], [5.8510225, 44.3455627], [5.8509015, 44.3456282], [5.8508329, 44.3457743], [5.8507849, 44.3458215], [5.8507699, 44.3459926], [5.850776, 44.3461872], [5.8508219, 44.3462272], [5.8508328, 44.3462906], [5.850857, 44.346456], [5.8509738, 44.3466426], [5.8525001, 44.3478976], [5.8527557, 44.3480761], [5.85294, 44.3481592], [5.853172, 44.3482161], [5.8533967, 44.3482324], [5.8536489, 44.3482336], [5.8546101, 44.348079], [5.8545957, 44.3480377], [5.8612226, 44.3469734], [5.8630237, 44.346691], [5.8636676, 44.3466182], [5.8643898, 44.3465275], [5.8648328, 44.3464713], [5.8651045, 44.3464657], [5.8652378, 44.3465027], [5.8653924, 44.3465826], [5.8657997, 44.3465463], [5.8658808, 44.3463851], [5.8659415, 44.3463202], [5.8660445, 44.3462549], [5.8661676, 44.3462194], [5.8663197, 44.3461908], [5.8665009, 44.3461645], [5.8665746, 44.3461503], [5.8666273, 44.3461296], [5.8666553, 44.3461088], [5.86668, 44.3460737], [5.8666893, 44.3460409], [5.8666838, 44.3460071], [5.8666742, 44.3459896], [5.8673958, 44.3458461], [5.8673839, 44.345812], [5.8673705, 44.3457778], [5.8670816, 44.345836], [5.8670748, 44.345824], [5.8670949, 44.3458146], [5.8671496, 44.3457827], [5.86716, 44.3457919], [5.8672147, 44.3457657], [5.8672018, 44.34575], [5.867322, 44.3456964], [5.8673355, 44.345709], [5.8673358, 44.3457186], [5.8673388, 44.3457292], [5.8673457, 44.3457347], [5.8673578, 44.3457406], [5.8673718, 44.3457423], [5.8673832, 44.3457407], [5.8674048, 44.3457293], [5.8674214, 44.3457196], [5.8674274, 44.3457112], [5.8674312, 44.3457039], [5.8674301, 44.3456939], [5.8674227, 44.3456814], [5.8674124, 44.3456706], [5.867395, 44.3456636], [5.8673812, 44.3456594], [5.8673625, 44.3456574], [5.8673391, 44.3456617], [5.8673186, 44.3456698], [5.8668669, 44.3458736], [5.8666516, 44.345919], [5.8666136, 44.3458656], [5.8665791, 44.345844], [5.8665466, 44.3458272], [5.8665141, 44.345817]]]}}, {"type": "Feature", "properties": {"name": "Lac de Pelleautier"}, "geometry": {"type": "Polygon", "coordinates": [[[6.0061477, 44.5174174], [6.0062441, 44.5175144], [6.0064739, 44.5176549], [6.0064732, 44.5177274], [6.0063562, 44.5177997], [6.0060263, 44.5178805], [6.0058387, 44.5179872], [6.0056092, 44.5181941], [6.0053845, 44.5184905], [6.0051723, 44.5188606], [6.0050554, 44.5190505], [6.0049772, 44.5193648], [6.0049486, 44.5196162], [6.0050431, 44.5198119], [6.0050912, 44.51998], [6.0049819, 44.5199997], [6.0050357, 44.5201123], [6.0051591, 44.5202675], [6.0050311, 44.5204103], [6.0050295, 44.5205824], [6.0058709, 44.5222867], [6.0059028, 44.5224642], [6.0059091, 44.5224991], [6.0060913, 44.5226771], [6.0062203, 44.5227927], [6.0064277, 44.5228442], [6.0066349, 44.5228762], [6.006829, 44.5228591], [6.0070371, 44.5228142], [6.0071326, 44.5227356], [6.0072356, 44.5226462], [6.0072571, 44.5226275], [6.007298, 44.522541], [6.0073691, 44.5224505], [6.0074516, 44.5223373], [6.0075032, 44.5221981], [6.0076673, 44.5219906], [6.0077836, 44.5218479], [6.0078278, 44.5217937], [6.0079904, 44.5216604], [6.0082164, 44.5215113], [6.0085329, 44.5213396], [6.0091163, 44.5209504], [6.0092017, 44.5208832], [6.0095233, 44.5206418], [6.0097978, 44.5204419], [6.0100001, 44.5202274], [6.0102439, 44.5196865], [6.010395, 44.5193051], [6.0104338, 44.5191066], [6.0103664, 44.5188989], [6.0102765, 44.5186369], [6.0102913, 44.5184348], [6.0103193, 44.5182271], [6.0102449, 44.5177898], [6.0102113, 44.5173661], [6.0102566, 44.517205], [6.0103123, 44.5170751], [6.0103652, 44.5169796], [6.0105009, 44.5166539], [6.0103905, 44.5165293], [6.0096939, 44.5159943], [6.0094534, 44.5159118], [6.0093392, 44.5159104], [6.0092549, 44.5159243], [6.0091387, 44.5159667], [6.0090278, 44.5159726], [6.0088629, 44.5159564], [6.0085929, 44.5160074], [6.0075745, 44.5162381], [6.0074504, 44.5165088], [6.0070982, 44.516614], [6.0068245, 44.5167772], [6.00643, 44.5171775], [6.0061477, 44.5174174]]]}}, {"type": "Feature", "properties": {"name": "Plan d'Eau d'Embrun"}, "geometry": {"type": "Polygon", "coordinates": [[[6.4669349, 44.5474592], [6.466892, 44.5475885], [6.4668963, 44.5477288], [6.4669413, 44.5478535], [6.4670799, 44.5479543], [6.4671019, 44.5479703], [6.4671816, 44.5481295], [6.4671782, 44.5485593], [6.4671908, 44.5487472], [6.4672407, 44.5488652], [6.4673373, 44.5489497], [6.4674446, 44.5490112], [6.4678586, 44.5491305], [6.4683016, 44.5491622], [6.4684899, 44.5492447], [6.4689366, 44.5493846], [6.4689864, 44.549398], [6.4692141, 44.549459], [6.4695027, 44.5496772], [6.4698793, 44.5498419], [6.470447, 44.5500098], [6.4707851, 44.5500138], [6.4714229, 44.5502573], [6.4714956, 44.5503717], [6.4716878, 44.5505515], [6.471968, 44.550662], [6.4721436, 44.5508573], [6.4724684, 44.5509347], [6.4727921, 44.5510647], [6.4730785, 44.5510222], [6.473295, 44.5509477], [6.4733937, 44.5509132], [6.4734434, 44.5508907], [6.4734781, 44.5508444], [6.4735192, 44.5508078], [6.4736154, 44.5507765], [6.4737212, 44.5507888], [6.4737413, 44.5508328], [6.4738185, 44.5508317], [6.4738649, 44.5508625], [6.4739716, 44.5508392], [6.4740472, 44.5507811], [6.4742058, 44.5507312], [6.4743407, 44.5506728], [6.474421, 44.5506457], [6.4744963, 44.5505622], [6.4745311, 44.5503851], [6.4745936, 44.5502747], [6.4747007, 44.5501807], [6.4747761, 44.5500204], [6.4747715, 44.5499985], [6.474753, 44.5499693], [6.4747422, 44.5499407], [6.4747406, 44.5499099], [6.4747522, 44.5498719], [6.474777, 44.5498428], [6.4748048, 44.5498235], [6.4748418, 44.5498091], [6.4748804, 44.5498042], [6.4749191, 44.5498075], [6.47496, 44.5498152], [6.4749884, 44.5498318], [6.4750126, 44.549851], [6.4750296, 44.5498747], [6.4750427, 44.549905], [6.4750419, 44.5499347], [6.4750321, 44.5499578], [6.4750064, 44.5499991], [6.4752174, 44.5501382], [6.4755462, 44.5502875], [6.4758093, 44.5503661], [6.4761823, 44.5504488], [6.4765168, 44.550458], [6.4770843, 44.5504243], [6.4775382, 44.5503558], [6.4778301, 44.550239], [6.4780882, 44.5501204], [6.4782643, 44.5499675], [6.4782248, 44.549955], [6.4784258, 44.5497457], [6.4787822, 44.5498237], [6.4791356, 44.5489667], [6.4788693, 44.5489127], [6.4784684, 44.5488314], [6.478273, 44.5487918], [6.478107, 44.5487581], [6.4779058, 44.549262], [6.4780351, 44.5492929], [6.4780123, 44.5493526], [6.4777494, 44.5493015], [6.4778334, 44.5490956], [6.4777957, 44.5489652], [6.47774, 44.5488715], [6.477623, 44.5487464], [6.4774525, 44.5486478], [6.4771963, 44.5485609], [6.4764145, 44.5483868], [6.4759515, 44.5482189], [6.47583, 44.5483711], [6.4757885, 44.5483539], [6.4759141, 44.548195], [6.4758864, 44.5481409], [6.4748361, 44.5479006], [6.4746495, 44.547917], [6.4741208, 44.5477601], [6.473569, 44.5477805], [6.4730603, 44.5475623], [6.4726997, 44.5476025], [6.4724332, 44.5475508], [6.4718293, 44.5473019], [6.4690124, 44.5466911], [6.4686953, 44.546636], [6.468389, 44.5466192], [6.4681708, 44.5466303], [6.4679634, 44.5466797], [6.4677243, 44.5467747], [6.4674959, 44.5469002], [6.4672531, 44.5471191], [6.4670725, 44.5472815], [6.4669349, 44.5474592]]]}}]}