{"type": "FeatureCollection", "features": [{"type": "Feature", "properties": {"name": "Lac du Broc"}, "geometry": {"type": "Polygon", "coordinates": [[[7.1789081, 43.8190991], [7.1783689, 43.8191553], [7.178237, 43.8198339], [7.1779346, 43.8203543], [7.1782164, 43.8208154], [7.178447, 43.8213534], [7.1790105, 43.8214558], [7.1791119, 43.8217768], [7.1783701, 43.8218401], [7.1801569, 43.8235685], [7.1803929, 43.8236168], [7.1806585, 43.8236795], [7.1810797, 43.8237208], [7.1812469, 43.8236359], [7.1814655, 43.8230896], [7.1812326, 43.8229658], [7.1811961, 43.8229351], [7.1812452, 43.8229159], [7.1814142, 43.8228934], [7.1815205, 43.8228545], [7.1818787, 43.8222643], [7.182187, 43.8214302], [7.1824176, 43.8209691], [7.1824585, 43.820527], [7.1826482, 43.8201494], [7.1825457, 43.8195602], [7.1827675, 43.8186797], [7.1827536, 43.8183308], [7.1828531, 43.8181769], [7.1831612, 43.8173954], [7.1829704, 43.8171481], [7.1831212, 43.8169821], [7.182657, 43.8168013], [7.1825354, 43.8162061], [7.1826967, 43.816062], [7.1827265, 43.8157565], [7.1827962, 43.8154698], [7.1829144, 43.81525], [7.183191, 43.8150354], [7.1832743, 43.814732], [7.1832639, 43.8144739], [7.1832882, 43.8143114], [7.1831111, 43.8141799], [7.183125, 43.8139649], [7.1823407, 43.813822], [7.1809206, 43.8136805], [7.1801377, 43.8150516], [7.1797402, 43.8160917], [7.1797992, 43.8161108], [7.1797992, 43.8162255], [7.1797159, 43.8163187], [7.1795146, 43.8163593], [7.1791899, 43.8170753], [7.1791642, 43.8179463], [7.178973, 43.8182161], [7.1784726, 43.8185355], [7.1790874, 43.8186892], [7.1789081, 43.8190991]]]}}, {"type": "Feature", "properties": {"name": "Lac de l'Agnel"}, "geometry": {"type": "Polygon", "coordinates": [[[7.4439935, 44.1219927], [7.4435907, 44.1226767], [7.4435689, 44.1230622], [7.4436597, 44.1231449], [7.4432289, 44.1234093], [7.4427721, 44.1233824], [7.4426123, 44.1234372], [7.442484, 44.1233474], [7.4419337, 44.1233718], [7.4413881, 44.1234857], [7.4410679, 44.123699], [7.4405099, 44.1237161], [7.4402962, 44.1239206], [7.4400231, 44.1239036], [7.4399044, 44.1240314], [7.4396313, 44.1239633], [7.4394263, 44.1240309], [7.4392743, 44.1240809], [7.4390812, 44.1241304], [7.4388197, 44.1241795], [7.438653, 44.1241152], [7.4380285, 44.1241294], [7.4378483, 44.1240338], [7.4378831, 44.1239173], [7.4378675, 44.1238454], [7.437716, 44.123907], [7.4375537, 44.1239677], [7.4374907, 44.1238955], [7.4372908, 44.1239369], [7.4372251, 44.1240023], [7.4370776, 44.1239995], [7.4369481, 44.1240306], [7.4366431, 44.1240813], [7.4364304, 44.124048], [7.4361944, 44.1241296], [7.4359068, 44.124084], [7.4357016, 44.1241092], [7.4355629, 44.124151], [7.4353516, 44.1241415], [7.4350405, 44.1241275], [7.4349171, 44.124064], [7.4347051, 44.1240311], [7.4344381, 44.1239709], [7.4345268, 44.1236238], [7.4342567, 44.1233839], [7.4339639, 44.1234611], [7.4336903, 44.1234174], [7.4335915, 44.1232756], [7.4334243, 44.1231992], [7.4334243, 44.1230411], [7.4336447, 44.1229701], [7.4336751, 44.1228447], [7.4338119, 44.122801], [7.4338257, 44.1226234], [7.4336295, 44.1224792], [7.4336067, 44.1222828], [7.4337172, 44.1221238], [7.4336751, 44.121961], [7.4337967, 44.1217428], [7.4341253, 44.1217509], [7.4344777, 44.1218809], [7.4349289, 44.1220155], [7.4355293, 44.1221355], [7.4359636, 44.121955], [7.4365086, 44.1219773], [7.4367817, 44.1221734], [7.4367817, 44.1223779], [7.4374941, 44.1224035], [7.4376722, 44.1221649], [7.4379832, 44.1221143], [7.4380402, 44.1221989], [7.4384321, 44.1221137], [7.4386695, 44.1219432], [7.4387051, 44.1216961], [7.4390851, 44.1215767], [7.4393701, 44.1212869], [7.4392394, 44.1211847], [7.4389664, 44.1211761], [7.4391205, 44.1206591], [7.4394769, 44.1204261], [7.4398094, 44.1201107], [7.4402489, 44.1200209], [7.440783, 44.1197697], [7.4412671, 44.1198352], [7.4412958, 44.1204199], [7.4414835, 44.1205369], [7.4416022, 44.1208608], [7.4419446, 44.1210052], [7.4423946, 44.1207547], [7.443074, 44.1210312], [7.4433193, 44.1215057], [7.4436445, 44.1218856], [7.4439935, 44.1219927]]]}}, {"type": "Feature", "properties": {"name": "Lac Du Basto"}, "geometry": {"type": "Polygon", "coordinates": [[[7.437093, 44.0884885], [7.4370186, 44.0884958], [7.4370032, 44.0885411], [7.436965, 44.088542], [7.4369381, 44.0885204], [7.4368979, 44.0885343], [7.4368456, 44.0885266], [7.4367524, 44.0885681], [7.4367068, 44.0885801], [7.43669, 44.0885921], [7.4366766, 44.0885892], [7.4365807, 44.0886037], [7.4365318, 44.0886148], [7.436513, 44.0886302], [7.4364949, 44.0886268], [7.436454, 44.088675], [7.4364513, 44.0887337], [7.4364379, 44.0887641], [7.4364453, 44.088831], [7.4364232, 44.0888724], [7.4364245, 44.0888951], [7.4364091, 44.0889196], [7.4364278, 44.0889317], [7.436507, 44.0889182], [7.4365284, 44.0889235], [7.4365767, 44.0890304], [7.4365555, 44.0890592], [7.4364614, 44.0890376], [7.4363849, 44.0890304], [7.4362931, 44.0890372], [7.4362911, 44.0890617], [7.4362555, 44.0890752], [7.4362602, 44.0891292], [7.4362153, 44.0891985], [7.4361905, 44.0892062], [7.4361496, 44.0892915], [7.4361382, 44.089318], [7.4360758, 44.0893873], [7.4360718, 44.0894172], [7.4360088, 44.0894759], [7.4360007, 44.0895034], [7.4360094, 44.0895246], [7.4359746, 44.0895198], [7.4359705, 44.0895515], [7.4359216, 44.0896089], [7.4359383, 44.089632], [7.435945, 44.0896589], [7.4358995, 44.0896758], [7.4358813, 44.0897635], [7.435821, 44.0898492], [7.4357922, 44.0898607], [7.4357915, 44.0898834], [7.435768, 44.089894], [7.4357439, 44.089894], [7.435701, 44.0899272], [7.4357036, 44.0899431], [7.4356882, 44.0899523], [7.4356393, 44.0899402], [7.4356158, 44.0899441], [7.4355602, 44.0899677], [7.4355005, 44.0899667], [7.4354623, 44.0899744], [7.4354401, 44.089973], [7.4353469, 44.0899889], [7.4352524, 44.0899807], [7.4351967, 44.0899667], [7.4351149, 44.0899489], [7.4351136, 44.0899571], [7.4351263, 44.0899802], [7.4351089, 44.0899889], [7.4351162, 44.0900052], [7.435131, 44.0900163], [7.4350861, 44.090063], [7.435068, 44.0901213], [7.4350834, 44.0901454], [7.4350881, 44.0901724], [7.4351156, 44.0901839], [7.4351364, 44.0901825], [7.4351404, 44.0902152], [7.4351055, 44.0902687], [7.4351136, 44.0903135], [7.4351384, 44.0903265], [7.4351357, 44.0903751], [7.4351592, 44.0903958], [7.4351598, 44.0904502], [7.4351927, 44.0904796], [7.43519, 44.0905023], [7.4351598, 44.0904946], [7.4351565, 44.0905023], [7.4351685, 44.0905254], [7.4351417, 44.0905567], [7.4351243, 44.0906506], [7.4351028, 44.0906829], [7.4351082, 44.0907113], [7.4351042, 44.0907436], [7.4350814, 44.0907773], [7.4351236, 44.0908524], [7.4351699, 44.0908534], [7.4351645, 44.0908736], [7.4351176, 44.0908861], [7.4350921, 44.0909203], [7.4351035, 44.0909401], [7.4350666, 44.0909401], [7.4350338, 44.0909786], [7.4350391, 44.091007], [7.435023, 44.09102], [7.4350438, 44.0910277], [7.4350324, 44.0910927], [7.4350559, 44.091111], [7.4350693, 44.091125], [7.4350753, 44.0911635], [7.4351337, 44.0912175], [7.4351652, 44.0912122], [7.4351665, 44.091242], [7.4351384, 44.0912642], [7.4351457, 44.0912859], [7.4352048, 44.0913181], [7.4352088, 44.0914091], [7.435243, 44.091478], [7.435306, 44.0915267], [7.4353275, 44.0915512], [7.4354971, 44.0916432], [7.4355045, 44.0916735], [7.4355876, 44.0917443], [7.4356192, 44.0918094], [7.4357365, 44.0918908], [7.4357358, 44.0919235], [7.4357573, 44.0919428], [7.435758, 44.0919712], [7.435878, 44.092068], [7.435998, 44.0921778], [7.4361522, 44.0923353], [7.436163, 44.0923651], [7.4363769, 44.0925183], [7.4366478, 44.092682], [7.4367088, 44.0927475], [7.4367839, 44.0928125], [7.4368557, 44.0928284], [7.4368818, 44.0928641], [7.4369636, 44.0929108], [7.4369925, 44.0929291], [7.4370032, 44.0929575], [7.4370401, 44.0929575], [7.4370562, 44.0929792], [7.4370327, 44.0930061], [7.4370494, 44.0930177], [7.4371051, 44.0930153], [7.4371178, 44.0930225], [7.4372117, 44.0930249], [7.4372452, 44.0930418], [7.4373217, 44.0930553], [7.4373385, 44.0930673], [7.4373318, 44.0930967], [7.4373539, 44.0931155], [7.4373599, 44.0931371], [7.4373814, 44.093155], [7.4373908, 44.0931896], [7.4374404, 44.093205], [7.4374484, 44.0932262], [7.4374397, 44.0932763], [7.4374142, 44.0933004], [7.4373841, 44.0933235], [7.4374022, 44.0933471], [7.4374471, 44.0934126], [7.4374524, 44.0934487], [7.4375014, 44.0934613], [7.437602, 44.0934998], [7.4377126, 44.0936004], [7.4378125, 44.0936674], [7.4378353, 44.0937001], [7.4378883, 44.0937256], [7.4379272, 44.0937449], [7.4379359, 44.0937868], [7.4379634, 44.0938249], [7.4379889, 44.0938359], [7.4380144, 44.0938807], [7.4380405, 44.0938971], [7.4380559, 44.09394], [7.4380989, 44.0939925], [7.4381217, 44.0940681], [7.4381592, 44.0941408], [7.4382108, 44.0941547], [7.4382383, 44.0942766], [7.4382422, 44.0944057], [7.4382712, 44.0944283], [7.4383208, 44.0944519], [7.4383195, 44.0944777], [7.4383289, 44.0944972], [7.4383396, 44.0945025], [7.4383805, 44.0945022], [7.4384066, 44.0945126], [7.438416, 44.0945232], [7.4385401, 44.094567], [7.4385448, 44.0945906], [7.4385729, 44.0945993], [7.4386018, 44.0946228], [7.4385897, 44.0946532], [7.4385495, 44.0946864], [7.4385468, 44.0947033], [7.4385311, 44.0947034], [7.4385173, 44.0947172], [7.4384824, 44.0947201], [7.4384358, 44.0947204], [7.4384341, 44.09473], [7.4384432, 44.0947384], [7.4384398, 44.09475], [7.4384415, 44.094769], [7.438467, 44.0947871], [7.4384901, 44.0947909], [7.4384928, 44.0948246], [7.4385059, 44.0948364], [7.4384992, 44.0948535], [7.438475, 44.0948552], [7.4384288, 44.0948598], [7.4384187, 44.0948974], [7.4384415, 44.0949031], [7.4384643, 44.0948988], [7.4385159, 44.094906], [7.4385166, 44.0949388], [7.4384858, 44.0949681], [7.4384804, 44.0949884], [7.4383797, 44.0950154], [7.4383698, 44.095036], [7.4383986, 44.0950568], [7.438416, 44.095168], [7.4384408, 44.095285], [7.4384147, 44.0953298], [7.4384294, 44.0953577], [7.4384589, 44.0953626], [7.438465, 44.0953866], [7.4386071, 44.0954907], [7.4386092, 44.0955249], [7.4385949, 44.0956433], [7.438581, 44.0956804], [7.4385884, 44.0957045], [7.438589, 44.095808], [7.4386118, 44.095848], [7.4386058, 44.0958899], [7.4386581, 44.0959896], [7.4386769, 44.0960849], [7.4386604, 44.0961357], [7.4386541, 44.0961678], [7.4386836, 44.0961875], [7.4386816, 44.0962082], [7.4386983, 44.0962265], [7.4386782, 44.0962833], [7.4386943, 44.0963623], [7.4387513, 44.0964504], [7.4387641, 44.0964866], [7.4388348, 44.0965589], [7.4388438, 44.0965819], [7.4388803, 44.0966233], [7.4389055, 44.0967004], [7.4389062, 44.0967167], [7.4389216, 44.0967341], [7.438929, 44.0967813], [7.4389672, 44.0968699], [7.4390014, 44.0969209], [7.4390217, 44.0969366], [7.43903, 44.0969552], [7.4393968, 44.0970035], [7.4394457, 44.0969618], [7.4395037, 44.096932], [7.4395553, 44.0968434], [7.4396217, 44.0968304], [7.4396626, 44.0967476], [7.4396682, 44.0966294], [7.4396968, 44.0965675], [7.439741, 44.0965256], [7.4399623, 44.096475], [7.4400254, 44.0964278], [7.4400435, 44.0963825], [7.440026, 44.0963305], [7.4399335, 44.0962828], [7.4398986, 44.096265], [7.4399047, 44.0962357], [7.4398825, 44.0962092], [7.4399241, 44.0961273], [7.4399395, 44.0960214], [7.4399563, 44.095938], [7.4399241, 44.0958817], [7.4399576, 44.0958191], [7.4399469, 44.0957652], [7.4400448, 44.095599], [7.4401052, 44.0955451], [7.4401829, 44.0955696], [7.440189, 44.0956029], [7.4402493, 44.0956395], [7.4404019, 44.0957059], [7.4404579, 44.0957011], [7.4404605, 44.0956616], [7.4404646, 44.0955952], [7.4404666, 44.0955701], [7.4405122, 44.0955509], [7.4405551, 44.0955171], [7.4405484, 44.0954497], [7.440535, 44.0953293], [7.4405719, 44.0952704], [7.4405484, 44.095208], [7.4405538, 44.0951078], [7.4405256, 44.0950616], [7.4405122, 44.0949547], [7.4405484, 44.0948497], [7.4406141, 44.0948429], [7.4406342, 44.0948256], [7.4406423, 44.0947331], [7.4406892, 44.0946349], [7.440657, 44.0944885], [7.4406677, 44.094343], [7.4407013, 44.09424], [7.440712, 44.094162], [7.4406195, 44.0939886], [7.4406597, 44.0938981], [7.4406939, 44.093861], [7.4406946, 44.09382], [7.4407321, 44.0938061], [7.4406926, 44.0937285], [7.4406671, 44.0936707], [7.4406342, 44.0936443], [7.4406309, 44.0935836], [7.4406745, 44.09352], [7.4406631, 44.0935099], [7.4406778, 44.0934704], [7.4407053, 44.0934613], [7.4407522, 44.0934054], [7.4407579, 44.0933772], [7.4407918, 44.0933649], [7.4408156, 44.0933481], [7.4408481, 44.0933401], [7.4409762, 44.0933028], [7.4409936, 44.0932701], [7.4410325, 44.0932585], [7.4410446, 44.0932046], [7.4410835, 44.0931737], [7.4410768, 44.0931005], [7.4410325, 44.0929676], [7.4409614, 44.092931], [7.4409252, 44.0929493], [7.440889, 44.0929551], [7.4408501, 44.0929204], [7.4408783, 44.0928848], [7.4408595, 44.0928472], [7.4408247, 44.0927133], [7.4407549, 44.0926632], [7.4407241, 44.0926247], [7.4407844, 44.0925207], [7.4407844, 44.0924822], [7.4408206, 44.0924109], [7.4408944, 44.092302], [7.4409105, 44.0921181], [7.4408555, 44.0919399], [7.4408019, 44.0918994], [7.4407388, 44.0917944], [7.4406704, 44.0914361], [7.4406785, 44.0913359], [7.4406315, 44.0912964], [7.4405685, 44.0912685], [7.4405028, 44.0911683], [7.440484, 44.0910836], [7.4404277, 44.09102], [7.44037, 44.0908832], [7.4403284, 44.0908582], [7.4402051, 44.090706], [7.4400964, 44.0906472], [7.4400924, 44.0906145], [7.4399596, 44.0905365], [7.4399355, 44.0905018], [7.4398262, 44.0904406], [7.4396847, 44.0903111], [7.43967, 44.0902629], [7.4396197, 44.0902191], [7.4395962, 44.0902311], [7.4395808, 44.0902114], [7.4395935, 44.0901767], [7.4395707, 44.0901324], [7.4395365, 44.0901122], [7.4394849, 44.0900524], [7.4394815, 44.0899662], [7.4394594, 44.0898121], [7.439395, 44.0896011], [7.4393105, 44.0894268], [7.4393092, 44.0892775], [7.4392945, 44.0891985], [7.4392623, 44.0891773], [7.4392636, 44.0891147], [7.4391215, 44.0889837], [7.4390893, 44.0889201], [7.4389069, 44.0888845], [7.4388157, 44.088898], [7.4385729, 44.0888286], [7.4385072, 44.0887419], [7.438463, 44.0885907], [7.4383932, 44.0886177], [7.4383906, 44.0886938], [7.4383664, 44.0887178], [7.4383798, 44.0887612], [7.438357, 44.0887718], [7.4382739, 44.0887371], [7.4380338, 44.0886861], [7.4379292, 44.0886138], [7.4378648, 44.0886254], [7.4376959, 44.0886061], [7.4375953, 44.0885695], [7.4374124, 44.0885548], [7.4372428, 44.0884983], [7.437093, 44.0884885]]]}}, {"type": "Feature", "properties": {"name": "Baie d'Èze"}, "geometry": {"type": "MultiPolygon", "coordinates": [[[[7.3671339, 43.7202374], [7.3639665, 43.7192771], [7.3607992, 43.7183168], [7.3576318, 43.7173565], [7.3544645, 43.7163962], [7.3512971, 43.7154358], [7.3671339, 43.7202374]]], [[[7.3512971, 43.7154358], [7.3512704, 43.7154397], [7.351265, 43.7154615], [7.3512831, 43.7154703], [7.3512939, 43.7154989], [7.3512932, 43.7155381], [7.3513267, 43.7155696], [7.3513435, 43.7155924], [7.3513408, 43.7156617], [7.3513577, 43.7157059], [7.3513368, 43.7157402], [7.3513032, 43.7157412], [7.3512858, 43.7158275], [7.3513073, 43.7158459], [7.3513167, 43.7158754], [7.3513153, 43.7159089], [7.3512378, 43.7160568], [7.3512971, 43.7154358]]], [[[7.3512378, 43.7160568], [7.3512409, 43.7161023], [7.3512634, 43.71615], [7.3514608, 43.7163423], [7.3516496, 43.7165656], [7.3517404, 43.7167066], [7.3517925, 43.716813], [7.3518202, 43.7168806], [7.3518386, 43.7169502], [7.3518454, 43.7169993], [7.3518323, 43.717027], [7.3518127, 43.7170495], [7.3517746, 43.7170633], [7.3517362, 43.7170829], [7.3516949, 43.717075], [7.3516668, 43.7170619], [7.3516446, 43.7170454], [7.3516265, 43.7170105], [7.3515887, 43.7169646], [7.3512378, 43.7160568]]], [[[7.3516077, 43.7168934], [7.3514942, 43.7166476], [7.3513435, 43.7164934], [7.3512031, 43.7163384], [7.3511598, 43.7163247], [7.3511115, 43.7163213], [7.3516077, 43.7168934]]], [[[7.3511115, 43.7163213], [7.350924, 43.7163844], [7.3507104, 43.7164977], [7.3505931, 43.7166417], [7.3505752, 43.7166935], [7.350693, 43.7168952], [7.3507346, 43.716884], [7.35075, 43.7169228], [7.3507199, 43.7169339], [7.3507966, 43.7170966], [7.3510317, 43.7170333], [7.3512626, 43.7169731], [7.3512811, 43.7170008], [7.351312, 43.7169989], [7.3513415, 43.7170201], [7.3511115, 43.7163213]]], [[[7.3513415, 43.7170201], [7.3513556, 43.7170493], [7.3513407, 43.7170743], [7.3512992, 43.7171002], [7.3513039, 43.7171181], [7.3512714, 43.717137], [7.3512261, 43.7171418], [7.3511705, 43.7171549], [7.3511577, 43.7171658], [7.3510411, 43.7171927], [7.3509398, 43.7172194], [7.3508674, 43.7172526], [7.350856, 43.7173134], [7.3508593, 43.7173735], [7.3509115, 43.7174837], [7.3509559, 43.7175906], [7.3510137, 43.7176922], [7.3511054, 43.7178901], [7.3511564, 43.7179483], [7.351196, 43.7179619], [7.3512433, 43.7179943], [7.3513492, 43.7181661], [7.3518815, 43.7186498], [7.353852, 43.7198037], [7.3554586, 43.7209377], [7.3555966, 43.7210158], [7.3558502, 43.7211183], [7.3561485, 43.7212503], [7.3564357, 43.7213716], [7.3571156, 43.721591], [7.3574559, 43.7217067], [7.3577019, 43.7217572], [7.357917, 43.7217882], [7.3580248, 43.7216279], [7.3580438, 43.7216219], [7.3580625, 43.7216301], [7.3580662, 43.7216384], [7.3579557, 43.7217982], [7.3580013, 43.7218299], [7.3581783, 43.7219465], [7.3585016, 43.7221368], [7.3586697, 43.7222234], [7.3589084, 43.7223393], [7.3594492, 43.7225279], [7.3597789, 43.7226083], [7.3605026, 43.7226196], [7.360734, 43.72258], [7.3611637, 43.722448], [7.3615279, 43.7222838], [7.3619214, 43.7221985], [7.3624061, 43.7220938], [7.3628837, 43.7220782], [7.3632659, 43.7220948], [7.3634935, 43.7221383], [7.3642102, 43.7221602], [7.3644005, 43.72215], [7.3645702, 43.7221266], [7.364953, 43.7219948], [7.3658424, 43.7214299], [7.366168, 43.7211705], [7.3662418, 43.7210635], [7.3662405, 43.7209869], [7.3662646, 43.7209452], [7.3513415, 43.7170201]]], [[[7.3662646, 43.7209452], [7.366325, 43.7207902], [7.3663491, 43.7207291], [7.366443, 43.720669], [7.3666026, 43.7206323], [7.3670003, 43.7203678], [7.3670986, 43.720306], [7.3671339, 43.7202374], [7.3662646, 43.7209452]]]]}}, {"type": "Feature", "properties": {"name": "Lacs de Vens"}, "geometry": {"type": "MultiPolygon", "coordinates": [[[[6.9274425, 44.3071298], [6.9272266, 44.3071814], [6.9270968, 44.3073054], [6.9269328, 44.3074322], [6.9267902, 44.3075007], [6.9266382, 44.3076136], [6.9264688, 44.3077683], [6.9264409, 44.3078589], [6.9263801, 44.3079313], [6.9265823, 44.3078654], [6.9266735, 44.307876], [6.9267294, 44.3079036], [6.9267935, 44.3079454], [6.9267828, 44.3079807], [6.9268404, 44.3080842], [6.926985, 44.3081118], [6.9270969, 44.3079972], [6.9272859, 44.3079055], [6.9272834, 44.3078398], [6.9273007, 44.3077614], [6.9273336, 44.3076867], [6.9274372, 44.3076202], [6.9275227, 44.3075937], [6.927701, 44.3075702], [6.9278815, 44.3074644], [6.9278793, 44.3073131], [6.9277882, 44.3072118], [6.9276004, 44.3071258], [6.9274425, 44.3071298]]], [[[6.9302519, 44.3081741], [6.9301566, 44.3080959], [6.9300217, 44.308046], [6.9298381, 44.3079794], [6.9296753, 44.307947], [6.9295556, 44.3079437], [6.929129, 44.3079279], [6.9288454, 44.3079819], [6.9285635, 44.3081001], [6.9284153, 44.3081874], [6.9282618, 44.3082315], [6.9280956, 44.3083038], [6.9278213, 44.3084428], [6.9275888, 44.3085634], [6.9274877, 44.3086507], [6.9274968, 44.3086804], [6.927505, 44.3087069], [6.9277122, 44.3086893], [6.9277738, 44.3087287], [6.9279645, 44.3087699], [6.9280648, 44.3087181], [6.9283171, 44.3086811], [6.9284799, 44.3086746], [6.9286352, 44.3086928], [6.9288785, 44.3087246], [6.9289829, 44.3087593], [6.9292156, 44.3087615], [6.9293784, 44.308757], [6.9294235, 44.3087558], [6.92948, 44.3087979], [6.9295289, 44.3088046], [6.9295603, 44.3087915], [6.9296311, 44.3087647], [6.9297706, 44.3087663], [6.9298776, 44.3086615], [6.9299752, 44.3086341], [6.9301356, 44.3085343], [6.930217, 44.3084103], [6.9302054, 44.3083488], [6.9302681, 44.3082972], [6.9302519, 44.3081741]]], [[[6.9297338, 44.3097792], [6.9297713, 44.30988], [6.9298182, 44.3099203], [6.9298907, 44.3099539], [6.9299483, 44.3099597], [6.9300194, 44.3099405], [6.9301696, 44.3098195], [6.9304311, 44.3096132], [6.9304428, 44.3095866], [6.9304284, 44.3095681], [6.9302769, 44.3095316], [6.930179, 44.3094856], [6.9301079, 44.3094146], [6.9300368, 44.3093551], [6.9299926, 44.3093522], [6.9298531, 44.3093896], [6.9296694, 44.3094318], [6.9296238, 44.3094635], [6.9295835, 44.3095048], [6.9295809, 44.3095768], [6.9296868, 44.3097063], [6.9297338, 44.3097792]]], [[[6.9307371, 44.3092512], [6.9308024, 44.30921], [6.9307885, 44.3091576], [6.9307865, 44.3091111], [6.930735, 44.3090854], [6.930738, 44.3090334], [6.9307018, 44.3090064], [6.9306063, 44.309019], [6.9305102, 44.3090685], [6.9305041, 44.3091686], [6.9305996, 44.3092555], [6.9307371, 44.3092512]]], [[[6.9313981, 44.3116448], [6.9313721, 44.311794], [6.9313176, 44.3119308], [6.9314826, 44.3121217], [6.9317535, 44.3122148], [6.9318902, 44.3122033], [6.9319372, 44.3121668], [6.9321355, 44.3121391], [6.9323583, 44.3120104], [6.9325192, 44.3119432], [6.9326211, 44.3119423], [6.9328947, 44.3118127], [6.9330543, 44.3116956], [6.9330463, 44.311617], [6.9330007, 44.311544], [6.9330141, 44.3114788], [6.9330744, 44.3114442], [6.933179, 44.3114682], [6.9332769, 44.3115028], [6.9333628, 44.3114586], [6.9333708, 44.3114356], [6.9333266, 44.3113531], [6.9333306, 44.3112773], [6.9333118, 44.3112168], [6.9332823, 44.3111583], [6.9332461, 44.311045], [6.9332689, 44.3109587], [6.9332702, 44.3108397], [6.9331911, 44.3107706], [6.9331214, 44.3107082], [6.9330798, 44.3105546], [6.9329779, 44.3104616], [6.9328894, 44.3103339], [6.9328116, 44.3102024], [6.9327097, 44.3100652], [6.9326735, 44.3100604], [6.9326211, 44.3100076], [6.9326426, 44.3099539], [6.9325621, 44.3097908], [6.9325273, 44.3096631], [6.9324688, 44.3095818], [6.9323127, 44.3095566], [6.9322027, 44.3095547], [6.9318393, 44.3094376], [6.9313659, 44.3093455], [6.9313163, 44.3093004], [6.9311513, 44.3093176], [6.9310185, 44.3094683], [6.9308469, 44.309547], [6.9307181, 44.3095921], [6.9306444, 44.309642], [6.9306739, 44.3096996], [6.9308335, 44.3097063], [6.9307785, 44.3098666], [6.9306873, 44.3099011], [6.930631, 44.3098771], [6.9305076, 44.3099347], [6.9305733, 44.309998], [6.9305518, 44.3100374], [6.9306135, 44.3101612], [6.9305465, 44.3102053], [6.9304191, 44.310213], [6.9304486, 44.310284], [6.9305223, 44.3103387], [6.9304486, 44.3104539], [6.9304888, 44.3104951], [6.9303882, 44.3105758], [6.9303547, 44.3106439], [6.9303024, 44.3106995], [6.9303319, 44.31076], [6.9303024, 44.3108041], [6.9303445, 44.3109561], [6.9304043, 44.3110815], [6.9303896, 44.311189], [6.9305371, 44.3114145], [6.9307275, 44.3115181], [6.9308951, 44.311497], [6.9310413, 44.3115824], [6.9312036, 44.3115507], [6.9313981, 44.3116448]]], [[[6.9323543, 44.3144833], [6.9321772, 44.3144276], [6.9320753, 44.3143605], [6.9319332, 44.3141474], [6.9319761, 44.3139862], [6.9321424, 44.3139555], [6.9323543, 44.3141302], [6.9323489, 44.3143336], [6.9323865, 44.3144181], [6.9323543, 44.3144833]]], [[[6.9348018, 44.3122964], [6.9345979, 44.3122705], [6.9345242, 44.3123847], [6.9344772, 44.3124086], [6.9344759, 44.3124749], [6.9345979, 44.3124566], [6.9346637, 44.3125267], [6.9346301, 44.3125612], [6.9346583, 44.3125814], [6.9345872, 44.3126332], [6.9345845, 44.3126495], [6.9346368, 44.3126543], [6.9347361, 44.3126188], [6.9348541, 44.3126169], [6.9348702, 44.3125891], [6.9349198, 44.3125939], [6.9350043, 44.3126159], [6.9351142, 44.3125728], [6.9350378, 44.3125084], [6.9350097, 44.312449], [6.9350298, 44.3124067], [6.93507, 44.312352], [6.9351532, 44.312377], [6.9351867, 44.3124134], [6.935247, 44.3123396], [6.9350606, 44.312305], [6.9350311, 44.3122273], [6.9349506, 44.312163], [6.9349171, 44.3120901], [6.9348353, 44.3120382], [6.9346851, 44.3119826], [6.9346502, 44.3120008], [6.9346529, 44.3120478], [6.9348393, 44.312258], [6.9348018, 44.3122964]]], [[[6.9355563, 44.3138132], [6.9355346, 44.3137473], [6.9354763, 44.3136649], [6.9353084, 44.31366], [6.9352163, 44.3137211], [6.9349643, 44.3138044], [6.9348559, 44.3137599], [6.9348072, 44.3138548], [6.9345633, 44.3139905], [6.934375, 44.3141505], [6.9343114, 44.3143521], [6.9343449, 44.3143986], [6.9344138, 44.3144944], [6.9345213, 44.3146438], [6.9346338, 44.3148881], [6.9347801, 44.314922], [6.9348505, 44.3150044], [6.9348288, 44.3150451], [6.9348749, 44.3150838], [6.934986, 44.3151052], [6.9351553, 44.3151032], [6.9352515, 44.3151294], [6.9355644, 44.3153523], [6.9358028, 44.3155074], [6.9360087, 44.3157032], [6.936365, 44.3160618], [6.9365481, 44.3161972], [6.9367255, 44.3162786], [6.9371421, 44.3163721], [6.9372951, 44.3164468], [6.9375796, 44.3164681], [6.9380226, 44.3164012], [6.9383869, 44.3163896], [6.9387595, 44.3164671], [6.9392065, 44.3164729], [6.9394923, 44.3164836], [6.9396562, 44.31644], [6.9398323, 44.3163227], [6.9401412, 44.3161105], [6.9402969, 44.3160455], [6.9404175, 44.3158362], [6.9405112, 44.3157746], [6.940635, 44.3157752], [6.9407316, 44.3158242], [6.9408773, 44.3158204], [6.9409615, 44.3158105], [6.9410688, 44.3158817], [6.9410707, 44.3159188], [6.9412566, 44.3159242], [6.9413642, 44.3158956], [6.941459, 44.3159392], [6.9415877, 44.3159595], [6.9416676, 44.3159314], [6.9416514, 44.3158374], [6.94152, 44.3156862], [6.9414401, 44.3154788], [6.9413642, 44.3153169], [6.9412437, 44.315282], [6.9411312, 44.3152171], [6.940989, 44.3151289], [6.9408454, 44.3150707], [6.9406097, 44.3150184], [6.9404173, 44.3149622], [6.9402751, 44.3149583], [6.9401586, 44.314905], [6.9400272, 44.3148691], [6.9398213, 44.3148071], [6.9396913, 44.3147344], [6.9395206, 44.3147112], [6.939484, 44.3146559], [6.9395897, 44.3144659], [6.9395152, 44.3143952], [6.9394041, 44.3142672], [6.9393106, 44.3142479], [6.9391874, 44.3142217], [6.9389923, 44.3141461], [6.9387891, 44.3141306], [6.9384654, 44.3140579], [6.9382893, 44.3139949], [6.938124, 44.3139794], [6.9379506, 44.3139212], [6.9378626, 44.3138757], [6.9377759, 44.313835], [6.9376878, 44.3137884], [6.9374968, 44.3137177], [6.9372969, 44.3137288], [6.9370517, 44.313755], [6.9368418, 44.3137792], [6.9367564, 44.313819], [6.9364462, 44.31385], [6.9361699, 44.3138713], [6.9359586, 44.3138849], [6.9357595, 44.3138839], [6.9356226, 44.3138645], [6.9355563, 44.3138132]]]]}}]}