{"type": "FeatureCollection", "features": [{"type": "Feature", "properties": {"name": "Étang de Naguille"}, "geometry": {"type": "Polygon", "coordinates": [[[1.9156937, 42.6611777], [1.9158657, 42.6611309], [1.9160476, 42.6610964], [1.9162358, 42.6610895], [1.9164122, 42.6610983], [1.9165966, 42.661128], [1.9167669, 42.6611704], [1.916919, 42.6612422], [1.91707, 42.6613439], [1.9172086, 42.6614626], [1.917249, 42.6614371], [1.917302, 42.6614011], [1.9173993, 42.6611493], [1.9176227, 42.6610134], [1.9177779, 42.6607188], [1.9182233, 42.6605389], [1.9184968, 42.6601745], [1.9184289, 42.6599658], [1.9185142, 42.659836], [1.9192667, 42.6593088], [1.9195576, 42.6589643], [1.9197911, 42.6586772], [1.9201333, 42.6585496], [1.9203161, 42.6583605], [1.9205663, 42.6581919], [1.9207635, 42.6576849], [1.9211683, 42.6572914], [1.9214085, 42.6567855], [1.9215681, 42.6567474], [1.9217001, 42.6565618], [1.9215143, 42.6564433], [1.9211552, 42.6563209], [1.9210502, 42.6561403], [1.9210637, 42.6552011], [1.9210705, 42.6548839], [1.9208823, 42.6544391], [1.9206655, 42.6540416], [1.9203714, 42.6538084], [1.9204566, 42.6535396], [1.920116, 42.6529364], [1.9197672, 42.6525837], [1.9194897, 42.6522586], [1.9194372, 42.6518932], [1.9189449, 42.6517112], [1.9188293, 42.6517943], [1.9187054, 42.6517943], [1.9184748, 42.6513661], [1.9183017, 42.6511375], [1.9182507, 42.6508318], [1.9182821, 42.6503194], [1.9181221, 42.6498827], [1.9179493, 42.6494772], [1.917937, 42.6489757], [1.9177062, 42.6486435], [1.9174707, 42.6484548], [1.917094, 42.6483174], [1.9168058, 42.6482565], [1.9168195, 42.6479508], [1.9168736, 42.6474973], [1.9167362, 42.6469748], [1.916547, 42.6465169], [1.9163939, 42.6462534], [1.9164546, 42.6457882], [1.9161418, 42.6452916], [1.9154345, 42.6455801], [1.9142749, 42.646115], [1.9137664, 42.6462489], [1.9135445, 42.6467752], [1.9133343, 42.6470461], [1.913382, 42.6472792], [1.9133532, 42.6474531], [1.9132085, 42.6476295], [1.9130264, 42.6478487], [1.913032, 42.6480711], [1.9129971, 42.6482504], [1.9132182, 42.6485896], [1.9131675, 42.648728], [1.9129876, 42.6488682], [1.9129099, 42.6490654], [1.9128556, 42.6492808], [1.9125135, 42.6494395], [1.9121663, 42.6496042], [1.9118768, 42.6497374], [1.9117625, 42.6498949], [1.9115822, 42.6499157], [1.9113167, 42.6500508], [1.9111436, 42.6501961], [1.9109562, 42.6503884], [1.9107641, 42.6506355], [1.9104901, 42.65064], [1.910243, 42.6508287], [1.909918, 42.6507071], [1.9097927, 42.6507104], [1.9096654, 42.6508013], [1.9095732, 42.650762], [1.9094805, 42.6506974], [1.9093825, 42.6507394], [1.9094252, 42.6508965], [1.9095185, 42.6509659], [1.9097222, 42.6513177], [1.9098802, 42.6518122], [1.9099547, 42.651972], [1.91028, 42.6521366], [1.9104764, 42.6524491], [1.9108067, 42.6528062], [1.9113421, 42.653365], [1.9115791, 42.6536564], [1.9118182, 42.6539076], [1.9119957, 42.6540971], [1.9122595, 42.6543908], [1.9122688, 42.6544884], [1.9124459, 42.6546521], [1.9125947, 42.6546709], [1.9126846, 42.6547873], [1.9127288, 42.6549115], [1.9128241, 42.6550388], [1.9128428, 42.6552094], [1.9130118, 42.6553948], [1.9132633, 42.6555383], [1.9132002, 42.6557385], [1.9130098, 42.6559348], [1.9129012, 42.6560364], [1.9128509, 42.6561518], [1.9128301, 42.6563012], [1.9127503, 42.6563644], [1.9127657, 42.6564487], [1.9126397, 42.6566346], [1.9126886, 42.6567056], [1.9126965, 42.6567822], [1.9126659, 42.6568567], [1.912464, 42.6569887], [1.9123976, 42.6570804], [1.9125381, 42.6571223], [1.9127578, 42.6571787], [1.9128124, 42.6574277], [1.9128863, 42.6575485], [1.91315, 42.6576436], [1.9130802, 42.657758], [1.9131267, 42.6578949], [1.9129002, 42.6581907], [1.9127751, 42.6583586], [1.9136844, 42.6590446], [1.9142287, 42.6595441], [1.9144586, 42.6597591], [1.9146427, 42.6599703], [1.9147267, 42.6601444], [1.915133, 42.6604186], [1.9153138, 42.660591], [1.915566, 42.6607458], [1.9156551, 42.6608291], [1.915743, 42.6609687], [1.9156937, 42.6611777]]]}}, {"type": "Feature", "properties": {"name": "Étang de Soulcem"}, "geometry": {"type": "Polygon", "coordinates": [[[1.4521547, 42.6760707], [1.4521392, 42.6760216], [1.4521164, 42.6759863], [1.4519825, 42.6758707], [1.4519024, 42.6758613], [1.4517343, 42.6757824], [1.4516584, 42.6756182], [1.4515461, 42.6754931], [1.4515746, 42.6753979], [1.4515599, 42.6753209], [1.4514809, 42.6752736], [1.4513644, 42.6752434], [1.4512908, 42.6751626], [1.4512662, 42.6750654], [1.451176, 42.6749965], [1.4510182, 42.6747483], [1.4509364, 42.6747312], [1.4509222, 42.6747031], [1.4508372, 42.6746742], [1.4508022, 42.6746898], [1.4507094, 42.6746724], [1.450651, 42.6746369], [1.4506444, 42.6746134], [1.4506589, 42.6745994], [1.4505666, 42.6745323], [1.450513, 42.6744649], [1.4504734, 42.6743947], [1.4504686, 42.6743456], [1.4504648, 42.6743017], [1.4504843, 42.6742942], [1.4504532, 42.6742465], [1.4504617, 42.6742305], [1.4503899, 42.6741701], [1.4503908, 42.6741534], [1.4504151, 42.6741262], [1.450427, 42.6740608], [1.4504447, 42.6740483], [1.45045, 42.6740351], [1.4504326, 42.6740171], [1.4504195, 42.6740026], [1.450471, 42.6739116], [1.4505227, 42.6738822], [1.4505508, 42.6738348], [1.4505311, 42.6737971], [1.4505546, 42.6737291], [1.4505357, 42.6737041], [1.4505776, 42.6736416], [1.450685, 42.6734777], [1.450714, 42.6734426], [1.4507405, 42.6734394], [1.4507472, 42.67342], [1.4507323, 42.6733648], [1.4507912, 42.6732802], [1.4508509, 42.6732245], [1.4509153, 42.6732107], [1.4509957, 42.6731105], [1.4511529, 42.6730031], [1.4511877, 42.6729436], [1.4511879, 42.6728902], [1.4511712, 42.6728626], [1.4511786, 42.6728102], [1.4511608, 42.6727917], [1.4511451, 42.6727378], [1.4510686, 42.6726927], [1.4510625, 42.6726688], [1.4510496, 42.6726595], [1.4510098, 42.6726803], [1.4509848, 42.6726297], [1.4509045, 42.6723583], [1.4509284, 42.6721134], [1.4509384, 42.6719757], [1.4509767, 42.6718917], [1.4510737, 42.6717399], [1.4511828, 42.671605], [1.4512949, 42.6714744], [1.4513512, 42.6713363], [1.4514099, 42.671102], [1.4513916, 42.670906], [1.4513943, 42.670701], [1.4513717, 42.6705115], [1.4513366, 42.6703715], [1.451363, 42.6702905], [1.4513618, 42.6702378], [1.4513319, 42.6701546], [1.4513569, 42.6699336], [1.4513359, 42.6698828], [1.451321, 42.6697451], [1.451225, 42.6695173], [1.4510821, 42.6692812], [1.4509551, 42.6691703], [1.4508668, 42.6690216], [1.4508167, 42.6689446], [1.4507309, 42.6688927], [1.4505978, 42.6688145], [1.4505285, 42.6686806], [1.4504771, 42.6684771], [1.4504914, 42.6683655], [1.4504173, 42.6681246], [1.4504317, 42.66804], [1.4503099, 42.6678674], [1.4502003, 42.6677601], [1.4500843, 42.6677278], [1.4499834, 42.6676127], [1.4498994, 42.6674996], [1.4498917, 42.6674377], [1.4499089, 42.6673982], [1.4499465, 42.6673602], [1.4499591, 42.6673312], [1.4498832, 42.6673497], [1.4498581, 42.6673444], [1.4498557, 42.6673261], [1.4498701, 42.667199], [1.4497923, 42.6670709], [1.4497489, 42.6664648], [1.4495919, 42.6661436], [1.4494854, 42.6661092], [1.4494893, 42.6660465], [1.4492453, 42.665741], [1.4490813, 42.6653478], [1.4488761, 42.6646378], [1.4485238, 42.6641265], [1.4483578, 42.6637337], [1.448294, 42.6637273], [1.4482451, 42.6635899], [1.4482677, 42.6635338], [1.4483227, 42.6634309], [1.4483125, 42.6633527], [1.4482874, 42.663322], [1.4482218, 42.663233], [1.4480845, 42.6631941], [1.4479864, 42.6632236], [1.4479064, 42.6631017], [1.4477366, 42.6626526], [1.4478434, 42.6623731], [1.4479291, 42.6622241], [1.4480097, 42.661962], [1.4476072, 42.661324], [1.4475764, 42.6611361], [1.4474631, 42.6608378], [1.447383, 42.6607568], [1.4473966, 42.6606197], [1.4471124, 42.6602314], [1.4469756, 42.6603542], [1.4468201, 42.6603838], [1.4466148, 42.660217], [1.4464097, 42.6599155], [1.4463182, 42.6596501], [1.4462472, 42.6594354], [1.4463521, 42.6592869], [1.4464048, 42.6591674], [1.4462988, 42.6590224], [1.4462467, 42.6589414], [1.4461402, 42.659102], [1.446077, 42.6591592], [1.4459944, 42.6592276], [1.4458488, 42.6592642], [1.4456497, 42.6592577], [1.445355, 42.659199], [1.4452756, 42.6592283], [1.4451274, 42.6592307], [1.4451446, 42.6593069], [1.4451136, 42.6593458], [1.4449724, 42.6594147], [1.4449007, 42.6595019], [1.4449406, 42.6596229], [1.4448561, 42.6596985], [1.4449076, 42.6597953], [1.4447234, 42.6599574], [1.4443463, 42.660171], [1.4443333, 42.6602565], [1.4442067, 42.660246], [1.4441463, 42.6602455], [1.444149, 42.6603348], [1.4440699, 42.660546], [1.4441391, 42.6606689], [1.4441827, 42.6607912], [1.4442313, 42.6609382], [1.4441842, 42.6611161], [1.4443239, 42.6615405], [1.4443521, 42.6619437], [1.4442931, 42.6621049], [1.4443869, 42.6624725], [1.4444669, 42.6628982], [1.4445578, 42.6633271], [1.4446029, 42.6636159], [1.444713, 42.6637419], [1.4447457, 42.6638627], [1.444719, 42.6639505], [1.4446144, 42.6640454], [1.4444844, 42.6641535], [1.4444523, 42.6642343], [1.4445115, 42.6642815], [1.44456, 42.6643142], [1.4445539, 42.664358], [1.4444289, 42.6644258], [1.4437416, 42.6646126], [1.4436635, 42.6646838], [1.4434457, 42.6647148], [1.4434167, 42.664757], [1.4432933, 42.6647828], [1.4432365, 42.6647246], [1.4431593, 42.664707], [1.4424639, 42.6649093], [1.4423159, 42.665002], [1.4423357, 42.6650425], [1.4422191, 42.6650554], [1.4422168, 42.665148], [1.4424093, 42.6652519], [1.4423446, 42.6653559], [1.4424541, 42.6653989], [1.4425531, 42.6656411], [1.4425762, 42.6657961], [1.4424943, 42.6659371], [1.4423727, 42.6660791], [1.4423239, 42.6662347], [1.4421833, 42.6663783], [1.4421136, 42.6665312], [1.4421313, 42.6666653], [1.4422542, 42.6668155], [1.4424525, 42.6669528], [1.442462, 42.66701], [1.4424301, 42.6670573], [1.4425044, 42.6673254], [1.4426728, 42.6675921], [1.4428707, 42.6678926], [1.4430287, 42.6680628], [1.4430182, 42.6683481], [1.44309, 42.6684936], [1.4430831, 42.6686374], [1.4431106, 42.668678], [1.4431256, 42.6688248], [1.4431279, 42.6689512], [1.4432139, 42.6691244], [1.4432625, 42.6693722], [1.4434759, 42.6697204], [1.4435593, 42.6699387], [1.4437326, 42.6700927], [1.4437549, 42.6702068], [1.4439535, 42.6703464], [1.444024, 42.6704899], [1.4443818, 42.6705953], [1.4445844, 42.6708372], [1.4444563, 42.670871], [1.4445598, 42.6709742], [1.4445999, 42.6711431], [1.444626, 42.6713639], [1.4447501, 42.6715561], [1.4449032, 42.6718269], [1.4450101, 42.6720877], [1.4450647, 42.672391], [1.4454179, 42.6726603], [1.4460279, 42.672952], [1.4464871, 42.6732743], [1.4465285, 42.6735017], [1.4465893, 42.6736283], [1.4466953, 42.6739513], [1.446702, 42.6742011], [1.446822, 42.6743141], [1.4472024, 42.6745321], [1.4476489, 42.6746353], [1.448188, 42.6749146], [1.4485981, 42.6752021], [1.4487862, 42.675447], [1.4487976, 42.6757192], [1.448761, 42.6758005], [1.4488815, 42.6759114], [1.448894, 42.6760633], [1.4488434, 42.6761006], [1.4488674, 42.6762037], [1.4490456, 42.6764451], [1.4493102, 42.6765968], [1.4493806, 42.676668], [1.4493093, 42.6767191], [1.4493064, 42.6768163], [1.4493512, 42.6768619], [1.4493394, 42.6768978], [1.4493112, 42.6769435], [1.449386, 42.6770347], [1.4493746, 42.6771045], [1.4493598, 42.6771509], [1.4493799, 42.6772041], [1.4494368, 42.6772621], [1.4507677, 42.6767881], [1.4523042, 42.6761603], [1.4522029, 42.6761491], [1.4521533, 42.6761067], [1.4521547, 42.6760707]]]}}, {"type": "Feature", "properties": {"name": "Étang d'Izourt"}, "geometry": {"type": "Polygon", "coordinates": [[[1.501, 42.688], [1.500984, 42.6879273], [1.5010174, 42.68782], [1.5010661, 42.6877217], [1.5010691, 42.6876703], [1.5011087, 42.6875429], [1.501136, 42.6874088], [1.5012364, 42.687183], [1.5012729, 42.6870109], [1.5012881, 42.6866622], [1.5012881, 42.6864052], [1.501358, 42.6863136], [1.50125, 42.686], [1.5008411, 42.6855201], [1.5005309, 42.68512], [1.5004975, 42.6849859], [1.5004732, 42.6848675], [1.5004002, 42.6847915], [1.50025, 42.68475], [1.4997381, 42.6848036], [1.4993702, 42.6848214], [1.4992364, 42.6848505], [1.4991695, 42.6848572], [1.4991482, 42.6848125], [1.4991695, 42.6847387], [1.4992121, 42.6846784], [1.4992425, 42.684627], [1.4992212, 42.684589], [1.4991421, 42.684551], [1.4988472, 42.6845689], [1.4987043, 42.6845622], [1.4985696, 42.6845294], [1.498432, 42.6844567], [1.49826, 42.6844188], [1.4980192, 42.6844409], [1.4976795, 42.6845184], [1.4974989, 42.6845152], [1.4971893, 42.684795], [1.4969528, 42.6849325], [1.4968474, 42.6850162], [1.4968259, 42.6851284], [1.4968238, 42.6852233], [1.4968797, 42.6853497], [1.4968754, 42.685454], [1.4967958, 42.6855947], [1.4966432, 42.6858475], [1.4965529, 42.6860056], [1.4963723, 42.6861178], [1.4962175, 42.6862363], [1.4960304, 42.6864355], [1.4958778, 42.6865303], [1.4956886, 42.6865998], [1.4955058, 42.686671], [1.4952693, 42.6868227], [1.4951575, 42.6869175], [1.4950758, 42.687025], [1.4950543, 42.6870961], [1.4951339, 42.6871814], [1.4951468, 42.6872668], [1.4950909, 42.6874833], [1.4948715, 42.6882692], [1.4950114, 42.6885351], [1.495054, 42.6888436], [1.4951391, 42.6890134], [1.4951665, 42.6892056], [1.4952364, 42.6895409], [1.4953276, 42.6898203], [1.4953428, 42.6900437], [1.4954401, 42.690303], [1.495577, 42.6905041], [1.4957533, 42.6906204], [1.4957959, 42.6906829], [1.4958841, 42.6908394], [1.4960087, 42.6909645], [1.4962246, 42.6910584], [1.4963341, 42.6911232], [1.4964131, 42.6912216], [1.4964466, 42.6915054], [1.4964831, 42.6917445], [1.4964101, 42.691939], [1.4963554, 42.6923859], [1.4963326, 42.692555], [1.4964156, 42.692563], [1.4964817, 42.6926164], [1.4964753, 42.6926954], [1.497213, 42.6927789], [1.4981512, 42.6928971], [1.4980255, 42.6927793], [1.4980376, 42.692643], [1.4980985, 42.6925648], [1.498214, 42.692491], [1.4984056, 42.6923949], [1.4985211, 42.6923055], [1.4985606, 42.6922161], [1.4985576, 42.6921603], [1.4985241, 42.6921312], [1.4984147, 42.6920753], [1.4983539, 42.6920172], [1.4983295, 42.6919033], [1.4983812, 42.6917558], [1.4984785, 42.6916842], [1.4985758, 42.6916619], [1.4986944, 42.6916999], [1.4988039, 42.6916999], [1.4989346, 42.691653], [1.4991992, 42.6914205], [1.4995032, 42.691206], [1.4995549, 42.6911278], [1.4996036, 42.6907791], [1.499634, 42.6905534], [1.4996857, 42.6903411], [1.4997373, 42.6902092], [1.5000292, 42.6896862], [1.5002421, 42.6893689], [1.5003576, 42.6891834], [1.5004641, 42.6890001], [1.5005492, 42.6888369], [1.5006891, 42.6886201], [1.5008046, 42.6884324], [1.5009019, 42.6882178], [1.501, 42.688]]]}}, {"type": "Feature", "properties": {"name": "Étang d'Araing"}, "geometry": {"type": "Polygon", "coordinates": [[[0.8708064, 42.8279731], [0.8700534, 42.8280517], [0.8700068, 42.8280566], [0.8697385, 42.8282583], [0.8697143, 42.8283232], [0.869717, 42.8283999], [0.8696714, 42.8284511], [0.8696312, 42.8285061], [0.8695507, 42.8285494], [0.8695105, 42.8286242], [0.8693469, 42.8287658], [0.8692852, 42.8288484], [0.8692422, 42.8289291], [0.8692461, 42.8289619], [0.8692503, 42.8289979], [0.8692932, 42.8290491], [0.869438, 42.8291258], [0.8695507, 42.829175], [0.8695909, 42.8292123], [0.8695963, 42.8293008], [0.8695346, 42.8293402], [0.8695266, 42.8294031], [0.8695614, 42.8294385], [0.8696768, 42.8295074], [0.8696821, 42.8295861], [0.8697706, 42.8296785], [0.8697546, 42.8297159], [0.8696955, 42.8298457], [0.8697599, 42.8298831], [0.8697921, 42.8299126], [0.8698297, 42.82995], [0.8698243, 42.8299874], [0.8698404, 42.8300326], [0.8699074, 42.8300739], [0.8700147, 42.8300955], [0.8700469, 42.8301782], [0.8700335, 42.8302431], [0.8700335, 42.8302863], [0.8699906, 42.8303395], [0.8699423, 42.8303552], [0.8697653, 42.8304398], [0.8695909, 42.8305067], [0.869438, 42.8305814], [0.8693576, 42.8306227], [0.8693093, 42.8307289], [0.869084, 42.8310083], [0.8690089, 42.831081], [0.8689123, 42.8312286], [0.8688748, 42.8312699], [0.8688614, 42.8314174], [0.8688104, 42.8314862], [0.8688399, 42.831563], [0.8689713, 42.8316338], [0.8689874, 42.8316928], [0.8689231, 42.8317105], [0.8688989, 42.8317459], [0.8689177, 42.8318147], [0.8689123, 42.831919], [0.8689204, 42.8320291], [0.8688909, 42.8320724], [0.8688721, 42.832096], [0.8689392, 42.8321413], [0.8689016, 42.8322239], [0.8688667, 42.8323498], [0.8688319, 42.8324756], [0.8688533, 42.8325445], [0.8688909, 42.8326664], [0.8689165, 42.8327836], [0.8689901, 42.8331395], [0.8690397, 42.833228], [0.8691135, 42.8332949], [0.8692329, 42.8333342], [0.8693576, 42.8333293], [0.869489, 42.8333362], [0.8695668, 42.8333873], [0.8695668, 42.8334375], [0.8695695, 42.8334798], [0.869552, 42.8335221], [0.8695628, 42.8335594], [0.869607, 42.8335506], [0.8696446, 42.8335358], [0.8697009, 42.8334749], [0.8697411, 42.8334316], [0.8698243, 42.8334119], [0.8700737, 42.8334414], [0.87024, 42.8334336], [0.8703232, 42.8334572], [0.8705673, 42.8334473], [0.8707094, 42.8334906], [0.8707443, 42.8335594], [0.8707496, 42.8336322], [0.8707121, 42.8336617], [0.8706719, 42.8337443], [0.8706853, 42.8338073], [0.870755, 42.8338584], [0.8708569, 42.833886], [0.8709776, 42.8338899], [0.8711252, 42.8338741], [0.8712056, 42.8338781], [0.8712941, 42.8338643], [0.8714095, 42.8338545], [0.871498, 42.8338505], [0.8715677, 42.833821], [0.8716965, 42.8338584], [0.8717769, 42.8338781], [0.8718869, 42.8338702], [0.8721578, 42.8338053], [0.8724421, 42.8337522], [0.8725333, 42.833703], [0.8726379, 42.8337148], [0.8728525, 42.8337286], [0.873, 42.8337286], [0.8731341, 42.8337168], [0.8731797, 42.8337168], [0.8732843, 42.833705], [0.8734265, 42.8336657], [0.8734748, 42.8336322], [0.8735874, 42.8335476], [0.8736867, 42.8335024], [0.8738154, 42.8335044], [0.8738798, 42.8334945], [0.8739946, 42.8335136], [0.874062, 42.8335437], [0.874121, 42.8335309], [0.8741814, 42.8335137], [0.8742799, 42.8335274], [0.8743469, 42.8335299], [0.8744212, 42.8335191], [0.8744645, 42.8334924], [0.8744637, 42.8334682], [0.8744402, 42.8334506], [0.8743881, 42.8334503], [0.8743532, 42.8334247], [0.8743398, 42.8333952], [0.8743478, 42.8333224], [0.8743698, 42.8332926], [0.8744223, 42.8332704], [0.874507, 42.8332574], [0.8745918, 42.833248], [0.8748212, 42.8332572], [0.8748698, 42.8332886], [0.8748737, 42.8333264], [0.8748918, 42.8333472], [0.8749106, 42.8333707], [0.874893, 42.833398], [0.8748616, 42.8334051], [0.8748526, 42.83343], [0.874859, 42.8334573], [0.8748891, 42.8334794], [0.8749334, 42.8334708], [0.8749743, 42.8334854], [0.8750472, 42.8334851], [0.8751751, 42.8334904], [0.8753845, 42.8335133], [0.8754469, 42.8335652], [0.8759584, 42.833604], [0.876303, 42.8336522], [0.8764021, 42.83369], [0.8765927, 42.8337244], [0.8765857, 42.8337512], [0.8766735, 42.8338105], [0.8767081, 42.8338591], [0.8767196, 42.8339237], [0.8766411, 42.833969], [0.8766764, 42.8340222], [0.8779188, 42.8335117], [0.8789423, 42.8330912], [0.8781641, 42.8323998], [0.8782394, 42.8321352], [0.8782122, 42.8320099], [0.8779489, 42.831701], [0.877683, 42.8314567], [0.8775365, 42.8313192], [0.8773317, 42.8312988], [0.8771657, 42.8312149], [0.8771558, 42.8310142], [0.8771091, 42.8309883], [0.8769757, 42.8309752], [0.8768657, 42.8309364], [0.8767272, 42.8307663], [0.8766904, 42.8307095], [0.8765917, 42.8306842], [0.8762432, 42.8306236], [0.8758211, 42.8303762], [0.8751331, 42.8302894], [0.8749634, 42.8302866], [0.8749041, 42.8303209], [0.8746131, 42.8303331], [0.8744843, 42.8302502], [0.8744633, 42.8301257], [0.8744009, 42.829952], [0.87425, 42.8298595], [0.8741238, 42.8298132], [0.8739895, 42.8298361], [0.8738895, 42.82982], [0.8738554, 42.8297355], [0.8738216, 42.8296827], [0.873791, 42.8296766], [0.873682, 42.8297443], [0.8736276, 42.8296991], [0.873621, 42.8295691], [0.8735717, 42.8295108], [0.8731388, 42.8294214], [0.8728302, 42.8292869], [0.8722011, 42.8286157], [0.8721891, 42.8283279], [0.8720098, 42.8282462], [0.8718838, 42.8280741], [0.8716619, 42.8279485], [0.8713135, 42.8278567], [0.8708064, 42.8279731]]]}}, {"type": "Feature", "properties": {"name": "Lac de Filleit"}, "geometry": {"type": "Polygon", "coordinates": [[[1.3902791, 43.0697098], [1.3903541, 43.069747], [1.3904675, 43.0697621], [1.3906258, 43.0697702], [1.3907461, 43.0697607], [1.3908005, 43.0697685], [1.3908417, 43.0697914], [1.3908749, 43.0697942], [1.3909034, 43.0697769], [1.3909469, 43.0697897], [1.3910041, 43.0698484], [1.3910296, 43.0699093], [1.391026, 43.0700395], [1.3909722, 43.0700849], [1.3908992, 43.0700987], [1.3908329, 43.0700783], [1.3907462, 43.0700909], [1.3906697, 43.0701404], [1.390657, 43.0702394], [1.3906973, 43.0703246], [1.3914106, 43.0703605], [1.3923282, 43.0704273], [1.3924414, 43.0704196], [1.3924955, 43.0703637], [1.3924985, 43.0702826], [1.3925599, 43.0701528], [1.3926326, 43.0700862], [1.3927034, 43.0700352], [1.3927408, 43.0699689], [1.3927774, 43.069896], [1.3928304, 43.0697754], [1.3929218, 43.0697035], [1.3929537, 43.0696601], [1.3930482, 43.0695236], [1.3931486, 43.069467], [1.393165, 43.0694831], [1.3931799, 43.0694969], [1.3931316, 43.0695599], [1.3930901, 43.0696286], [1.3931651, 43.0695764], [1.3934183, 43.0694835], [1.3935956, 43.0693908], [1.3938566, 43.0693222], [1.3941223, 43.0693042], [1.3942539, 43.0692546], [1.3944292, 43.0691465], [1.3945826, 43.0690701], [1.3948, 43.0690402], [1.3948678, 43.0690128], [1.3948711, 43.0689527], [1.3947727, 43.068892], [1.3947705, 43.0687777], [1.3948727, 43.0686735], [1.3950734, 43.0685892], [1.3952679, 43.0685264], [1.3955243, 43.0685101], [1.3955663, 43.0684882], [1.3955876, 43.0683543], [1.3956291, 43.0683445], [1.3957328, 43.0683816], [1.3959252, 43.0683308], [1.3961309, 43.0682227], [1.3964242, 43.0680118], [1.396708, 43.0677876], [1.396773, 43.0676721], [1.3969493, 43.0676265], [1.3971164, 43.0674544], [1.3973592, 43.0673503], [1.3974535, 43.0671931], [1.3975856, 43.0671325], [1.3977415, 43.0671251], [1.3978697, 43.0670749], [1.3980084, 43.0670202], [1.3981856, 43.0668727], [1.3983112, 43.0668381], [1.3987267, 43.0667696], [1.3988985, 43.0666692], [1.3992068, 43.066653], [1.3994596, 43.0665759], [1.3996629, 43.0665818], [1.3998936, 43.0665419], [1.3999855, 43.0665447], [1.4000294, 43.0665559], [1.400077, 43.0665323], [1.4001221, 43.0664593], [1.4001188, 43.0663621], [1.400137, 43.0662636], [1.4001833, 43.0661941], [1.4002465, 43.0661921], [1.4003004, 43.0662158], [1.4003738, 43.0662152], [1.4005097, 43.0661662], [1.4006099, 43.0661716], [1.4007305, 43.0661309], [1.4007918, 43.0661301], [1.4008287, 43.0661751], [1.4007578, 43.066228], [1.4007796, 43.0662774], [1.400879, 43.066242], [1.4010948, 43.0661817], [1.4012859, 43.0661122], [1.4014281, 43.066023], [1.4015584, 43.0659812], [1.4017775, 43.0660069], [1.4018841, 43.0660862], [1.4019249, 43.0661718], [1.4020003, 43.0662477], [1.4021464, 43.0663271], [1.4022407, 43.0663715], [1.4023123, 43.0662985], [1.4023998, 43.066241], [1.4024403, 43.0661031], [1.4024337, 43.0658037], [1.4024477, 43.0657188], [1.4025492, 43.06569], [1.402678, 43.0657024], [1.4028547, 43.0656195], [1.4028955, 43.0655965], [1.403046, 43.0653533], [1.4030821, 43.0652649], [1.403155, 43.0652205], [1.4032858, 43.0652092], [1.4035444, 43.0651374], [1.4036234, 43.0650365], [1.4037098, 43.0649423], [1.4037825, 43.0649093], [1.4038464, 43.0648862], [1.4039061, 43.0648504], [1.4039851, 43.0648361], [1.4041487, 43.0648716], [1.4042633, 43.0649056], [1.4045484, 43.0648888], [1.4047349, 43.0648665], [1.4049534, 43.0649004], [1.4051843, 43.0649473], [1.4053676, 43.0650096], [1.4055284, 43.0650073], [1.4056887, 43.0650853], [1.4057244, 43.0650334], [1.4056483, 43.0649191], [1.4056265, 43.0648256], [1.4056424, 43.0647237], [1.4058469, 43.064639], [1.4060509, 43.0644476], [1.4061708, 43.0643798], [1.4063109, 43.0643662], [1.4063766, 43.0643299], [1.4064094, 43.0642872], [1.4066385, 43.0642232], [1.4070158, 43.0642047], [1.4072726, 43.0641474], [1.4075326, 43.0641311], [1.4077152, 43.0641496], [1.4079031, 43.0640967], [1.4080675, 43.0641041], [1.4081583, 43.0640752], [1.4080878, 43.0640327], [1.4079492, 43.0640056], [1.4076566, 43.0640273], [1.4074382, 43.0640135], [1.4073691, 43.0639629], [1.4072849, 43.0639276], [1.4071451, 43.0639441], [1.407027, 43.0640035], [1.4068813, 43.0640007], [1.4067602, 43.0639485], [1.4065837, 43.0639073], [1.4063658, 43.0638723], [1.4062723, 43.063836], [1.4061706, 43.0637145], [1.4060998, 43.0638322], [1.4059095, 43.0638855], [1.4056261, 43.0640872], [1.4053367, 43.0642516], [1.4050213, 43.0643619], [1.4048385, 43.0643956], [1.4046762, 43.0643809], [1.4045179, 43.064252], [1.4044266, 43.0641551], [1.4044215, 43.0640567], [1.4045155, 43.0639203], [1.4045764, 43.0638568], [1.4045697, 43.0638251], [1.4044976, 43.0637628], [1.4044392, 43.0636924], [1.4042969, 43.0635925], [1.4042165, 43.063572], [1.4041671, 43.0636175], [1.4042239, 43.0638778], [1.404013, 43.0640689], [1.4038023, 43.0642163], [1.4033908, 43.0643514], [1.403154, 43.0643374], [1.4030896, 43.0643106], [1.4030518, 43.0642651], [1.4030837, 43.064211], [1.4031686, 43.0641612], [1.4032907, 43.0639844], [1.4033009, 43.0638824], [1.4033489, 43.0638088], [1.4033453, 43.0637379], [1.4033893, 43.0636444], [1.4032995, 43.0633837], [1.4033479, 43.0633078], [1.4033092, 43.063035], [1.4030046, 43.0627103], [1.402824, 43.0624827], [1.4026783, 43.0624717], [1.402697, 43.0625762], [1.4027937, 43.0626939], [1.4029194, 43.0629597], [1.4029309, 43.0631283], [1.402815, 43.0634528], [1.4028339, 43.0636269], [1.402926, 43.0637208], [1.4029148, 43.0638171], [1.4028347, 43.0639033], [1.4025604, 43.0639923], [1.4024419, 43.064038], [1.4022985, 43.0640733], [1.4022027, 43.0640759], [1.4020771, 43.0641278], [1.4018124, 43.0641354], [1.4011523, 43.0640763], [1.4010361, 43.0641107], [1.4007441, 43.0640649], [1.4005118, 43.064074], [1.4003768, 43.0641613], [1.4002925, 43.0641584], [1.4002455, 43.0642356], [1.4001663, 43.0643122], [1.399985, 43.0643641], [1.3999081, 43.0643602], [1.3997885, 43.0643898], [1.3995284, 43.0643693], [1.3993111, 43.0643133], [1.3991721, 43.0641654], [1.3991695, 43.0641059], [1.3991479, 43.0640496], [1.3990561, 43.064007], [1.3988908, 43.0640609], [1.3987818, 43.0640176], [1.3985764, 43.0640896], [1.3984897, 43.0640733], [1.3983267, 43.0641593], [1.3982123, 43.0641374], [1.3981363, 43.0641455], [1.3980914, 43.0642061], [1.3979654, 43.0642366], [1.3979237, 43.0642669], [1.3978033, 43.0645832], [1.3975778, 43.0648494], [1.3974611, 43.0649731], [1.3973418, 43.0651356], [1.3972068, 43.0652519], [1.3970228, 43.0653586], [1.3968026, 43.0653802], [1.3965778, 43.0654424], [1.3964316, 43.0655229], [1.3962856, 43.0656203], [1.3960051, 43.0656801], [1.3958404, 43.0656996], [1.3956156, 43.0657115], [1.3953723, 43.0656296], [1.3951202, 43.0654853], [1.3949617, 43.0654497], [1.3947531, 43.0653661], [1.3946149, 43.0652217], [1.3945574, 43.0651939], [1.394579, 43.065167], [1.3944586, 43.0650293], [1.3943815, 43.0650097], [1.3943647, 43.0649935], [1.3943966, 43.0649719], [1.3944815, 43.0649431], [1.3944958, 43.0648957], [1.3945444, 43.0648595], [1.394655, 43.0647003], [1.3946625, 43.0646332], [1.3948479, 43.0644316], [1.3949767, 43.0642792], [1.3951542, 43.064159], [1.3952404, 43.0639919], [1.3952083, 43.0638824], [1.3951357, 43.0638179], [1.3946474, 43.0640968], [1.3945761, 43.0641161], [1.394535, 43.0640748], [1.394371, 43.0638894], [1.3943096, 43.0637743], [1.3943562, 43.0637157], [1.3944483, 43.0635522], [1.3942614, 43.0634211], [1.3941539, 43.063342], [1.3940221, 43.0634133], [1.3938981, 43.0636458], [1.3939357, 43.0637462], [1.3939079, 43.0638642], [1.3939143, 43.0639112], [1.3938989, 43.064001], [1.39391, 43.0640875], [1.3939304, 43.0641459], [1.3939655, 43.0642036], [1.3940094, 43.0642555], [1.3940078, 43.0642832], [1.3939671, 43.0642903], [1.3938956, 43.0642689], [1.3938661, 43.0642072], [1.393863, 43.0641282], [1.3938742, 43.0640623], [1.3938323, 43.0640178], [1.3937676, 43.0640038], [1.3937004, 43.0640319], [1.3936807, 43.0641193], [1.3936572, 43.064284], [1.3936756, 43.0643611], [1.3936745, 43.0644021], [1.3936429, 43.0644416], [1.3935958, 43.0644618], [1.3934844, 43.064457], [1.3934071, 43.0644511], [1.39332, 43.064452], [1.393196, 43.0644816], [1.3931673, 43.064541], [1.393184, 43.0646418], [1.3931444, 43.0648417], [1.393088, 43.0648513], [1.3930275, 43.064838], [1.3928873, 43.0647532], [1.3928041, 43.0647281], [1.3926321, 43.0647229], [1.3925173, 43.0647587], [1.3923716, 43.0647282], [1.3919995, 43.0646415], [1.3919046, 43.0645844], [1.3917455, 43.0645385], [1.3914896, 43.0645364], [1.3914032, 43.0645792], [1.3913138, 43.064644], [1.3911638, 43.0646537], [1.3910494, 43.0646281], [1.3910151, 43.0645646], [1.3909917, 43.0645388], [1.3909528, 43.0643773], [1.3909051, 43.0643707], [1.390824, 43.0644109], [1.3907316, 43.0644706], [1.3906661, 43.0644961], [1.3905352, 43.0645055], [1.3904941, 43.064519], [1.3904629, 43.0645546], [1.3903266, 43.0645759], [1.3902701, 43.0645373], [1.3902279, 43.0645202], [1.3901703, 43.0645305], [1.3900458, 43.0646065], [1.390002, 43.0646095], [1.3899301, 43.0646667], [1.3898386, 43.064694], [1.3897598, 43.0647006], [1.3896075, 43.0647288], [1.3895281, 43.0647077], [1.3894701, 43.0646611], [1.3891684, 43.0645605], [1.3891021, 43.064494], [1.3889187, 43.0640972], [1.3889098, 43.0640175], [1.3888566, 43.0639721], [1.3887674, 43.0639764], [1.3887159, 43.0640768], [1.388689, 43.0642003], [1.3886314, 43.0645414], [1.3884857, 43.0646141], [1.3883094, 43.0646443], [1.3881531, 43.0645906], [1.3880619, 43.0644848], [1.3878715, 43.064422], [1.3877481, 43.0644867], [1.3869107, 43.0645312], [1.3867944, 43.0645767], [1.3866109, 43.0645749], [1.3862813, 43.0645576], [1.3860426, 43.0646646], [1.3859507, 43.0646984], [1.3858776, 43.0646838], [1.3857258, 43.0645967], [1.385672, 43.0645674], [1.3856326, 43.0645339], [1.3855904, 43.0645914], [1.3855313, 43.0645872], [1.3854853, 43.0645778], [1.3854558, 43.0645425], [1.3854577, 43.0643404], [1.3854176, 43.0641912], [1.3853588, 43.0641013], [1.3852308, 43.0641041], [1.3851647, 43.0641326], [1.3851321, 43.0641433], [1.3850167, 43.0642073], [1.3850516, 43.0643645], [1.3851182, 43.0644749], [1.3851303, 43.0645798], [1.3851049, 43.0647704], [1.3850853, 43.064843], [1.3851056, 43.0649848], [1.3852185, 43.0651326], [1.3854042, 43.0652238], [1.3855845, 43.0652268], [1.3857647, 43.0652155], [1.3858695, 43.0652446], [1.3859204, 43.0651811], [1.3859833, 43.0651743], [1.3860804, 43.0652085], [1.386513, 43.0652831], [1.3872015, 43.065489], [1.3876909, 43.0655054], [1.388007, 43.0655492], [1.3882913, 43.0656396], [1.3885017, 43.0656508], [1.3887141, 43.0657386], [1.3890649, 43.0658651], [1.3897411, 43.0659287], [1.3899822, 43.0659111], [1.390324, 43.0658378], [1.3905779, 43.0658355], [1.390995, 43.0658897], [1.3912251, 43.0659332], [1.3916977, 43.0659468], [1.3917698, 43.0659884], [1.3918053, 43.0660581], [1.3919113, 43.0660759], [1.3918022, 43.0660929], [1.3915209, 43.0661057], [1.3913686, 43.0660879], [1.3910313, 43.0661197], [1.3907758, 43.0661069], [1.3905735, 43.0661211], [1.3903769, 43.0661838], [1.3902728, 43.0661912], [1.3901445, 43.0661941], [1.3898817, 43.066147], [1.3897455, 43.0661028], [1.3895955, 43.0660873], [1.3893147, 43.0661341], [1.3890745, 43.0661638], [1.3887494, 43.0662895], [1.3885641, 43.0663427], [1.388452, 43.0663574], [1.3882206, 43.0664269], [1.3872387, 43.0667447], [1.3871244, 43.0667787], [1.3869734, 43.0667859], [1.3868293, 43.0667434], [1.3867241, 43.0667074], [1.3865303, 43.0666799], [1.3864138, 43.0666833], [1.3863054, 43.0667128], [1.3862708, 43.0667068], [1.3862286, 43.0667425], [1.3861561, 43.0667915], [1.3860248, 43.0668196], [1.3859146, 43.0668362], [1.3857715, 43.066831], [1.3856433, 43.0668346], [1.3855039, 43.0668514], [1.3854059, 43.0668554], [1.3853236, 43.0668313], [1.3852427, 43.0668257], [1.385119, 43.0668576], [1.3850331, 43.0668921], [1.3849316, 43.0668915], [1.3847401, 43.0668861], [1.3848271, 43.0669156], [1.3849671, 43.066965], [1.3850486, 43.0669779], [1.3852198, 43.0670719], [1.3855195, 43.0672454], [1.3856478, 43.067258], [1.3857593, 43.0672814], [1.3858707, 43.0673303], [1.3860011, 43.0674393], [1.3860017, 43.0674971], [1.3860411, 43.0675218], [1.3860819, 43.0675181], [1.3861399, 43.0675574], [1.3862085, 43.0675908], [1.3863117, 43.0676325], [1.3864849, 43.0677159], [1.3865938, 43.0677869], [1.3866828, 43.0678741], [1.3867448, 43.0679313], [1.386767, 43.0679873], [1.3867564, 43.068015], [1.3866966, 43.0680661], [1.3866079, 43.0681144], [1.3865062, 43.0681723], [1.3864172, 43.0682334], [1.3863686, 43.0682989], [1.3863492, 43.0683338], [1.3863077, 43.0683514], [1.386327, 43.0683738], [1.3863446, 43.0684525], [1.3863934, 43.0685206], [1.3864599, 43.0685928], [1.386502, 43.0686443], [1.386509, 43.0686835], [1.3864768, 43.0687463], [1.3863641, 43.0688504], [1.3862658, 43.0689061], [1.3862083, 43.0689431], [1.3861662, 43.0689986], [1.3861327, 43.0690572], [1.3860725, 43.0690801], [1.3859685, 43.0691009], [1.3858039, 43.0690572], [1.3857108, 43.0690597], [1.3855972, 43.0691019], [1.3855036, 43.0691057], [1.3854368, 43.0691149], [1.3853283, 43.0691283], [1.3853215, 43.0691686], [1.3853664, 43.0692447], [1.3854106, 43.069334], [1.3854824, 43.0694147], [1.3855671, 43.0694716], [1.3855809, 43.0695188], [1.3856318, 43.0695499], [1.3856592, 43.0695886], [1.3856563, 43.0696331], [1.3856196, 43.0697087], [1.3855344, 43.06979], [1.3854146, 43.0698629], [1.3853157, 43.069928], [1.3851659, 43.0700059], [1.385026, 43.0700883], [1.3849616, 43.0701201], [1.3849088, 43.0701255], [1.3848571, 43.0701494], [1.3847944, 43.0701578], [1.3847645, 43.0701985], [1.3847415, 43.0702173], [1.3846733, 43.0702194], [1.3846307, 43.0702614], [1.3845534, 43.0703088], [1.3843933, 43.0703775], [1.3842997, 43.0704196], [1.3842327, 43.070444], [1.3841633, 43.0704518], [1.3840095, 43.0704606], [1.3839067, 43.0704735], [1.3840015, 43.0704981], [1.3840721, 43.0705223], [1.3842051, 43.0705215], [1.3843053, 43.0705037], [1.3843799, 43.0704904], [1.3844574, 43.0704987], [1.3845649, 43.0705194], [1.3847047, 43.0705307], [1.3848834, 43.0705036], [1.3849632, 43.0704669], [1.3850133, 43.0704508], [1.3850727, 43.0704557], [1.3851659, 43.0704627], [1.3851913, 43.0704744], [1.3852171, 43.07045], [1.3853074, 43.0704174], [1.3855233, 43.0703759], [1.3856161, 43.0703324], [1.3856822, 43.0702884], [1.3857511, 43.0702696], [1.3858511, 43.070255], [1.3859628, 43.0702714], [1.386087, 43.0702751], [1.3862181, 43.0702451], [1.3863291, 43.0702034], [1.3863823, 43.0702082], [1.3864092, 43.0701896], [1.3864268, 43.0701541], [1.3864292, 43.0701126], [1.3864464, 43.0700819], [1.3865024, 43.0700409], [1.3866116, 43.069961], [1.3866768, 43.0698484], [1.3867571, 43.0697718], [1.3868325, 43.0697264], [1.3869475, 43.0697145], [1.3870624, 43.0696978], [1.3871438, 43.069646], [1.3871886, 43.0695734], [1.3872698, 43.0694989], [1.3873188, 43.0694481], [1.3873415, 43.069397], [1.3873777, 43.0693698], [1.3874807, 43.0693438], [1.387933, 43.0692981], [1.3881835, 43.0691611], [1.3884549, 43.0690838], [1.3887069, 43.0690161], [1.3888985, 43.0689986], [1.3891416, 43.0688809], [1.3894418, 43.0687851], [1.3896181, 43.0687616], [1.3898554, 43.0687463], [1.3900456, 43.0687559], [1.3901375, 43.0687925], [1.3901852, 43.0688735], [1.3902193, 43.0690225], [1.3903067, 43.0690788], [1.3903397, 43.0691949], [1.3903201, 43.0694311], [1.3902424, 43.0695212], [1.3902166, 43.0696212], [1.3902428, 43.0696767], [1.3902791, 43.0697098]]]}}, {"type": "Feature", "properties": {"name": "Lac de Mondely"}, "geometry": {"type": "Polygon", "coordinates": [[[1.4442517, 43.0505616], [1.4443479, 43.05026], [1.4444785, 43.0500364], [1.4447603, 43.0497291], [1.4449953, 43.0494839], [1.4450633, 43.0493582], [1.4450667, 43.0492342], [1.4450476, 43.0491831], [1.4451132, 43.049109], [1.4454116, 43.0488374], [1.4455223, 43.0487413], [1.4458498, 43.0486119], [1.4462388, 43.0484298], [1.4463743, 43.0484086], [1.4464345, 43.0484228], [1.4464796, 43.0484435], [1.4465463, 43.0484249], [1.4466061, 43.0483769], [1.4467985, 43.0483309], [1.4469908, 43.0482988], [1.447256, 43.0482124], [1.4476107, 43.0480475], [1.447814, 43.0479561], [1.4480645, 43.047858], [1.4482629, 43.047748], [1.4484943, 43.0476684], [1.4487626, 43.0476129], [1.4489423, 43.0475462], [1.4489112, 43.0474126], [1.4489787, 43.0472994], [1.4489874, 43.0472671], [1.4488184, 43.0472252], [1.4487953, 43.0471927], [1.4488145, 43.0471007], [1.4487798, 43.0470952], [1.4487474, 43.04709], [1.4483221, 43.0472856], [1.448187, 43.0473168], [1.4480845, 43.0473311], [1.4480809, 43.047302], [1.4481749, 43.0472588], [1.448293, 43.0471898], [1.4484222, 43.047087], [1.4487418, 43.0468444], [1.4482386, 43.0469781], [1.447877, 43.0470728], [1.4474114, 43.0472018], [1.4471358, 43.0473507], [1.4467937, 43.0474104], [1.4465483, 43.0474994], [1.4464155, 43.0474991], [1.4463283, 43.0475385], [1.4462008, 43.0476061], [1.446054, 43.0475674], [1.4458688, 43.0475999], [1.4456127, 43.0476284], [1.4454521, 43.0476766], [1.4454192, 43.0477513], [1.4454053, 43.0478438], [1.4452904, 43.0478988], [1.4451824, 43.0478913], [1.4449977, 43.0478618], [1.4449374, 43.0478416], [1.4448684, 43.0478185], [1.4447573, 43.0477884], [1.44465, 43.0477901], [1.4446248, 43.0477931], [1.4445168, 43.0478059], [1.4443665, 43.0478691], [1.4442261, 43.047986], [1.4440517, 43.0480608], [1.4438683, 43.0481243], [1.4436605, 43.048132], [1.4433632, 43.0481431], [1.4430016, 43.0480589], [1.4427833, 43.0479897], [1.4426222, 43.0480103], [1.4425943, 43.0481088], [1.4425299, 43.0482143], [1.4424102, 43.0482366], [1.442286, 43.0482129], [1.4422254, 43.0482752], [1.442104, 43.0483384], [1.4421088, 43.0484685], [1.4421069, 43.048632], [1.4420374, 43.0488011], [1.4418211, 43.0489192], [1.4416446, 43.0489612], [1.4413497, 43.0490785], [1.4409259, 43.0492131], [1.4405652, 43.0493276], [1.4403188, 43.0494058], [1.4400868, 43.0495392], [1.4398282, 43.0495682], [1.4390194, 43.0498183], [1.4388754, 43.0498889], [1.4386665, 43.0500002], [1.4384691, 43.0501133], [1.4383243, 43.0501646], [1.4382047, 43.0501953], [1.4381164, 43.0501933], [1.4380604, 43.0501759], [1.4379941, 43.050172], [1.4378716, 43.0502367], [1.4378015, 43.0503012], [1.4377103, 43.0503487], [1.4372728, 43.0504457], [1.4370512, 43.0505206], [1.4368597, 43.0505705], [1.4366041, 43.0505942], [1.4364854, 43.0506067], [1.4364047, 43.0506237], [1.4361241, 43.0506119], [1.4359256, 43.0505857], [1.4357785, 43.0506014], [1.4355184, 43.0505196], [1.4353514, 43.0505003], [1.4352065, 43.0505096], [1.4350334, 43.0505208], [1.4349269, 43.0505108], [1.4347948, 43.0504425], [1.4346858, 43.0503499], [1.4345672, 43.0503205], [1.4344509, 43.0503194], [1.4343376, 43.0503277], [1.4342275, 43.0503785], [1.4341017, 43.0503796], [1.4340263, 43.0503803], [1.4338523, 43.0503107], [1.433688, 43.0502209], [1.4335976, 43.0501142], [1.433545, 43.0500357], [1.433438, 43.0500277], [1.4333951, 43.0500245], [1.4333407, 43.0500521], [1.433306, 43.0501009], [1.4332934, 43.0501575], [1.4333395, 43.050257], [1.4333856, 43.0503366], [1.4334128, 43.0503745], [1.4334561, 43.0504278], [1.4334629, 43.0504775], [1.4334416, 43.0505373], [1.4333902, 43.050577], [1.4333184, 43.0506358], [1.4330734, 43.050684], [1.4329375, 43.0506739], [1.4328147, 43.0507539], [1.4323181, 43.0507185], [1.4320081, 43.0508446], [1.431921, 43.0508469], [1.4317951, 43.0507568], [1.4316009, 43.0507164], [1.43136, 43.0507195], [1.4310229, 43.0507366], [1.4307525, 43.0507145], [1.4301076, 43.0507537], [1.4298264, 43.0507459], [1.4295802, 43.0507778], [1.4294171, 43.0506866], [1.4293767, 43.0506498], [1.4292682, 43.0507015], [1.4293338, 43.05075], [1.4293941, 43.0508386], [1.4293404, 43.0508622], [1.4292211, 43.0508425], [1.4291681, 43.0508622], [1.4291963, 43.0509171], [1.4291643, 43.0509861], [1.4290507, 43.0509863], [1.4290014, 43.0510185], [1.4289573, 43.0510733], [1.4288591, 43.0511143], [1.4287472, 43.0511357], [1.428735, 43.051138], [1.4286798, 43.0511695], [1.428651, 43.0512514], [1.4287062, 43.0513271], [1.4287817, 43.0512696], [1.4287992, 43.0512138], [1.4288824, 43.0512144], [1.4288846, 43.0512205], [1.4289069, 43.0512839], [1.4290727, 43.0513392], [1.4293207, 43.0512777], [1.4294581, 43.051275], [1.4297531, 43.0512308], [1.4297643, 43.0512304], [1.4301401, 43.0512142], [1.4303342, 43.0512416], [1.4310594, 43.0513469], [1.4314488, 43.0513932], [1.4315413, 43.0514472], [1.4316583, 43.0514445], [1.4318823, 43.0515071], [1.4320511, 43.0515198], [1.4322103, 43.0515355], [1.4322751, 43.0517694], [1.4323652, 43.0518277], [1.4328069, 43.0518398], [1.433249, 43.0518349], [1.4334584, 43.0518529], [1.4338001, 43.0518266], [1.4339602, 43.0518363], [1.4341979, 43.0518507], [1.4343165, 43.0518683], [1.4343548, 43.0518887], [1.4343583, 43.0519134], [1.4345903, 43.0519762], [1.4348587, 43.0520781], [1.4348881, 43.0521262], [1.4348903, 43.0521745], [1.4348044, 43.0524035], [1.434798, 43.0524206], [1.4347749, 43.0526338], [1.4346865, 43.0528994], [1.4346454, 43.0529452], [1.4345884, 43.0529844], [1.4345345, 43.0530082], [1.4344485, 43.0530383], [1.4343759, 43.0530578], [1.4343137, 43.0530554], [1.4342773, 43.0530487], [1.4342345, 43.0530951], [1.4341886, 43.0531794], [1.4340971, 43.0532488], [1.4339279, 43.05331], [1.4337631, 43.0533766], [1.4335894, 43.0534065], [1.4332388, 43.0536076], [1.4330668, 43.0536643], [1.4327941, 43.0537371], [1.4325977, 43.0537875], [1.4325068, 43.0538452], [1.432509, 43.0538935], [1.4325452, 43.0539295], [1.4326512, 43.0539647], [1.4327874, 43.0540012], [1.4329658, 43.0540067], [1.4334626, 43.0539832], [1.4336886, 43.0540347], [1.4338297, 43.0541069], [1.433889, 43.0541704], [1.433901, 43.0542163], [1.4338806, 43.0542899], [1.4338816, 43.0543135], [1.4338865, 43.0544354], [1.4339234, 43.0544635], [1.433952, 43.0545415], [1.433907, 43.0545579], [1.4339395, 43.054682], [1.4339233, 43.0548021], [1.4338042, 43.0550236], [1.4337008, 43.0552037], [1.4336094, 43.0552894], [1.433536, 43.0553072], [1.4334893, 43.0553335], [1.4334706, 43.0553816], [1.4334949, 43.0554367], [1.4335808, 43.0554921], [1.4336713, 43.0555525], [1.4336957, 43.0556386], [1.4336611, 43.0557034], [1.4336697, 43.0557865], [1.4337017, 43.0558253], [1.4336965, 43.055855], [1.4336647, 43.0559104], [1.4336418, 43.0559489], [1.4336291, 43.056006], [1.433636, 43.056069], [1.4337289, 43.0561615], [1.4337766, 43.0561848], [1.4338447, 43.056184], [1.4339425, 43.0561805], [1.4340109, 43.0561941], [1.4340933, 43.0562505], [1.4341187, 43.0563092], [1.4341748, 43.056366], [1.4341893, 43.0564078], [1.4341791, 43.0564446], [1.4342388, 43.0564852], [1.434283, 43.0565303], [1.4343106, 43.0565941], [1.4343098, 43.0566329], [1.4343079, 43.0567305], [1.4343504, 43.0569923], [1.43447, 43.0572068], [1.4344939, 43.0572386], [1.4345613, 43.0572555], [1.4345906, 43.0572628], [1.4345932, 43.0572838], [1.4346667, 43.0572828], [1.4352495, 43.0572307], [1.4358412, 43.0571762], [1.4358787, 43.0571512], [1.4359032, 43.0570493], [1.436091, 43.0558595], [1.4361673, 43.0557853], [1.4361635, 43.0557364], [1.4361348, 43.0556978], [1.4361465, 43.0556547], [1.4363163, 43.0555137], [1.4363467, 43.055415], [1.4365469, 43.0551752], [1.4366967, 43.0550817], [1.4368557, 43.0548865], [1.4369875, 43.0548352], [1.4370678, 43.054757], [1.4370834, 43.054639], [1.4371784, 43.0545539], [1.4373187, 43.0544785], [1.4374517, 43.0544215], [1.4375338, 43.054318], [1.4375985, 43.0540002], [1.4376573, 43.0538961], [1.4381947, 43.0536296], [1.4385657, 43.0535168], [1.4388475, 43.0533456], [1.4389682, 43.0533402], [1.4390736, 43.0532797], [1.4391729, 43.0532867], [1.4392694, 43.0532293], [1.4392796, 43.0531278], [1.4394113, 43.0529916], [1.4397107, 43.0527826], [1.4399183, 43.0527169], [1.4399665, 43.0527278], [1.4401341, 43.052662], [1.440189, 43.0527012], [1.4402278, 43.0526904], [1.4403089, 43.0525976], [1.4404385, 43.0525255], [1.4405791, 43.0524286], [1.4408219, 43.0523549], [1.4409338, 43.0522629], [1.4410576, 43.0522106], [1.4413153, 43.0521479], [1.4414613, 43.052075], [1.4416771, 43.0518888], [1.4417456, 43.0518443], [1.4419225, 43.0517366], [1.4421171, 43.0516736], [1.4425086, 43.0516254], [1.442659, 43.0516118], [1.4427872, 43.0516003], [1.4429153, 43.0515888], [1.4432832, 43.0515939], [1.4434647, 43.0516028], [1.4436139, 43.0516043], [1.4436965, 43.0515901], [1.4437587, 43.0515596], [1.4438097, 43.0515195], [1.4438773, 43.0515029], [1.4439278, 43.0515127], [1.4439682, 43.0515088], [1.4440839, 43.0515168], [1.4442208, 43.0516202], [1.4442533, 43.051563], [1.4442532, 43.0514579], [1.4442582, 43.0513923], [1.4442059, 43.0512988], [1.4441654, 43.0511927], [1.4441459, 43.0511147], [1.4440789, 43.0510291], [1.4440176, 43.0509013], [1.4440427, 43.0507707], [1.4441859, 43.0506364], [1.4442517, 43.0505616]]]}}, {"type": "Feature", "properties": {"name": "Étang Majeur"}, "geometry": {"type": "Polygon", "coordinates": [[[1.4279896, 42.7613686], [1.4279641, 42.7612577], [1.4280422, 42.7611897], [1.4279663, 42.7610818], [1.4279288, 42.7610698], [1.4279079, 42.7610738], [1.4278971, 42.7610868], [1.4278814, 42.7611051], [1.4278628, 42.7611088], [1.4278546, 42.761099], [1.4278551, 42.7610846], [1.4278693, 42.7610764], [1.4278577, 42.7610499], [1.4278727, 42.7610322], [1.4278958, 42.7610289], [1.4279204, 42.7609853], [1.4279129, 42.7609638], [1.4278916, 42.7609515], [1.4278589, 42.7609564], [1.4278362, 42.7609478], [1.4278144, 42.7609539], [1.4277457, 42.7609766], [1.4275776, 42.76098], [1.4275232, 42.7609882], [1.4274627, 42.7609832], [1.4274194, 42.7609652], [1.4274111, 42.7609597], [1.4273997, 42.7609177], [1.4273837, 42.760928], [1.4273275, 42.7608948], [1.4273126, 42.7608785], [1.4272954, 42.7608783], [1.427265, 42.7608452], [1.4272785, 42.760827], [1.4272581, 42.7608024], [1.4272952, 42.7607151], [1.4273423, 42.7606934], [1.4273272, 42.7606193], [1.4273552, 42.7605905], [1.4273444, 42.7605775], [1.4273215, 42.760579], [1.4273073, 42.7605738], [1.4273875, 42.7605004], [1.4275041, 42.7604281], [1.4276012, 42.7603923], [1.4276425, 42.7603853], [1.4276593, 42.7604083], [1.4276826, 42.7604045], [1.4276922, 42.7603386], [1.4277237, 42.7602743], [1.4277658, 42.760234], [1.4277417, 42.7602189], [1.4277487, 42.7601941], [1.4277925, 42.7601538], [1.4277659, 42.760145], [1.4277595, 42.7601223], [1.4278236, 42.7600756], [1.4278613, 42.7600836], [1.4278707, 42.7600637], [1.4277928, 42.7599796], [1.4277189, 42.7598565], [1.4276749, 42.759735], [1.4275474, 42.7597426], [1.4274309, 42.7597225], [1.4274162, 42.7596762], [1.4273485, 42.7596699], [1.4267187, 42.7597393], [1.4261384, 42.7597657], [1.4256932, 42.759658], [1.4255853, 42.7596776], [1.4253361, 42.759638], [1.425095, 42.7595935], [1.4246732, 42.7596683], [1.4245297, 42.759718], [1.423813, 42.7598571], [1.4229532, 42.760144], [1.4222895, 42.7603124], [1.4219727, 42.7604262], [1.4217343, 42.7604278], [1.4216775, 42.7604546], [1.4215496, 42.7604702], [1.4213758, 42.7604535], [1.4212597, 42.7604996], [1.4211927, 42.7605225], [1.4211323, 42.7606084], [1.4210904, 42.7606717], [1.4210082, 42.7606974], [1.420794, 42.7607334], [1.4205286, 42.7608259], [1.4203261, 42.760958], [1.4201462, 42.7610461], [1.4200916, 42.7610622], [1.4200017, 42.7610453], [1.4199211, 42.7610559], [1.4196883, 42.7610335], [1.4196147, 42.761068], [1.4195524, 42.7610744], [1.4194744, 42.7610628], [1.4194129, 42.7610968], [1.4192613, 42.7611663], [1.4192644, 42.7612124], [1.4192005, 42.761241], [1.4190394, 42.7612866], [1.4189676, 42.7613432], [1.4189314, 42.7614035], [1.4188825, 42.7614272], [1.4189271, 42.7615247], [1.4189403, 42.7616183], [1.41896, 42.7617309], [1.4189468, 42.7618343], [1.4189161, 42.7618875], [1.4189813, 42.7619863], [1.4190125, 42.7620315], [1.4191141, 42.7622216], [1.4192246, 42.7623064], [1.4193294, 42.7623488], [1.4193974, 42.7623538], [1.419462, 42.7623775], [1.4195762, 42.7625357], [1.419608, 42.7625487], [1.4196417, 42.7625425], [1.4196682, 42.7625586], [1.4196729, 42.7625925], [1.4196982, 42.7626001], [1.4197484, 42.7626544], [1.4197728, 42.7627052], [1.4197323, 42.762844], [1.4196959, 42.7630061], [1.4196342, 42.7630513], [1.4195542, 42.7631292], [1.419594, 42.7631675], [1.4196503, 42.7631951], [1.4198676, 42.7632325], [1.4200022, 42.7633063], [1.4200249, 42.7633394], [1.4200129, 42.7633913], [1.4200296, 42.7634172], [1.4200934, 42.7634319], [1.4202533, 42.76338], [1.4203531, 42.7633381], [1.4204206, 42.7633491], [1.4204491, 42.7633617], [1.4204791, 42.7633691], [1.4205063, 42.7634269], [1.4205396, 42.7634506], [1.4205937, 42.7634459], [1.4206404, 42.7634722], [1.4207264, 42.7634343], [1.420776, 42.7633328], [1.420857, 42.7632502], [1.420875, 42.7631478], [1.4210188, 42.7630224], [1.4212916, 42.762935], [1.4213761, 42.7629311], [1.4215049, 42.7629592], [1.4215385, 42.763001], [1.4216313, 42.7630168], [1.4216898, 42.7630123], [1.42172, 42.7630389], [1.4217149, 42.7630866], [1.4217516, 42.7630981], [1.4217549, 42.7631226], [1.421881, 42.7631278], [1.4219995, 42.7631182], [1.4221452, 42.7630852], [1.4223027, 42.7630005], [1.4223796, 42.7629782], [1.4227196, 42.7627107], [1.4228585, 42.7626852], [1.4231111, 42.7624798], [1.4232772, 42.762484], [1.4234186, 42.7624898], [1.423508, 42.7625654], [1.423521, 42.7626462], [1.4235109, 42.7628234], [1.4236281, 42.7628572], [1.4236966, 42.7628917], [1.4237094, 42.762942], [1.4237501, 42.762983], [1.4238499, 42.762952], [1.4238784, 42.7629711], [1.4239653, 42.7629386], [1.4242297, 42.762891], [1.4243721, 42.7629308], [1.4244469, 42.7629883], [1.4244957, 42.7630549], [1.4244851, 42.7630939], [1.4245273, 42.7631245], [1.4245698, 42.7632045], [1.4246012, 42.7632512], [1.4245831, 42.7632781], [1.4245987, 42.7633176], [1.4246357, 42.7633314], [1.4246754, 42.7634048], [1.4248003, 42.7634811], [1.4248467, 42.7634994], [1.4248815, 42.7634936], [1.4248989, 42.7634608], [1.4249238, 42.7634616], [1.4249877, 42.7634445], [1.4250551, 42.7634514], [1.4252207, 42.7633823], [1.4254726, 42.7632568], [1.4257335, 42.7630983], [1.4261484, 42.762958], [1.4264536, 42.762967], [1.4264457, 42.7629857], [1.426479, 42.762985], [1.4264821, 42.7629909], [1.42652, 42.7629922], [1.4265346, 42.7629841], [1.4266478, 42.7629809], [1.4266614, 42.7629697], [1.4266878, 42.7629662], [1.4267337, 42.7629734], [1.4267548, 42.7629599], [1.4268536, 42.7629472], [1.4268655, 42.7629216], [1.4268767, 42.7629198], [1.4268925, 42.762932], [1.4269188, 42.7629534], [1.4269649, 42.762945], [1.4269889, 42.7629263], [1.4269599, 42.7629123], [1.4269303, 42.7629105], [1.42698, 42.7628434], [1.4272586, 42.7627477], [1.427352, 42.7627035], [1.4273644, 42.7626852], [1.4274271, 42.76266], [1.4274863, 42.7626325], [1.4274973, 42.7626159], [1.4275961, 42.7625614], [1.427598, 42.7625417], [1.4276792, 42.7624256], [1.4277523, 42.7623655], [1.4278008, 42.7623586], [1.4278069, 42.7621839], [1.4278176, 42.7620855], [1.4278713, 42.7618491], [1.427945, 42.7616296], [1.4279208, 42.7616317], [1.4278982, 42.7616705], [1.427877, 42.7616663], [1.4278667, 42.7616818], [1.4278508, 42.7616893], [1.427836, 42.7616674], [1.4278662, 42.7616232], [1.4278764, 42.7615842], [1.4279197, 42.761509], [1.4279896, 42.7613686]]]}}, {"type": "Feature", "properties": {"name": "Étang de Laparan"}, "geometry": {"type": "Polygon", "coordinates": [[[1.7015824, 42.6768278], [1.7015207, 42.6771765], [1.7017227, 42.6770345], [1.7018858, 42.6769517], [1.7020644, 42.6768776], [1.7022666, 42.6768176], [1.7024619, 42.6767709], [1.7026904, 42.6767332], [1.7027374, 42.6767279], [1.702732, 42.6766786], [1.7029425, 42.6766687], [1.7031464, 42.6766825], [1.7031411, 42.6767315], [1.7033006, 42.6767486], [1.7034376, 42.6767791], [1.703648, 42.6768403], [1.70377, 42.6768866], [1.7038938, 42.676939], [1.7040476, 42.6770257], [1.7041916, 42.6771161], [1.7044545, 42.677333], [1.7044634, 42.6771903], [1.704521, 42.677069], [1.7046425, 42.6769445], [1.7048804, 42.6766835], [1.7050534, 42.6765859], [1.7050951, 42.6763398], [1.705205, 42.6761935], [1.7053496, 42.6760806], [1.7055749, 42.675963], [1.7057007, 42.6758442], [1.7058554, 42.6756059], [1.7061008, 42.6753909], [1.7061625, 42.6752608], [1.7063342, 42.6751355], [1.7064989, 42.675088], [1.7066453, 42.6749679], [1.7069109, 42.6746692], [1.7070088, 42.6745676], [1.7070892, 42.674537], [1.707159, 42.6744345], [1.707285, 42.6743201], [1.7073789, 42.6742008], [1.707458, 42.6741259], [1.7075211, 42.6740677], [1.7076753, 42.6740273], [1.7077947, 42.6739188], [1.7078631, 42.6738074], [1.7079154, 42.6737029], [1.7079596, 42.6736625], [1.7080508, 42.6736378], [1.7081299, 42.6735136], [1.7082426, 42.6733903], [1.7082855, 42.6733134], [1.7083311, 42.6732611], [1.7083271, 42.6731625], [1.7084303, 42.6730452], [1.7083888, 42.6729436], [1.7084344, 42.6728855], [1.7084035, 42.6728155], [1.7084075, 42.672774], [1.7084541, 42.6727224], [1.708433, 42.6726271], [1.7083365, 42.6724822], [1.7083056, 42.6723737], [1.7083096, 42.6722672], [1.7083056, 42.6721657], [1.7083338, 42.6720611], [1.7083552, 42.6719497], [1.7083915, 42.6718639], [1.7085122, 42.6718442], [1.7085618, 42.6718018], [1.7085993, 42.6715997], [1.708653, 42.6715287], [1.7086771, 42.6714508], [1.7086865, 42.6713492], [1.7087415, 42.6712516], [1.7088085, 42.6711648], [1.7088273, 42.6710643], [1.7087898, 42.670942], [1.70883, 42.6708828], [1.7088971, 42.6707546], [1.708944, 42.6706314], [1.708999, 42.6704913], [1.7090754, 42.6704213], [1.7091653, 42.6703553], [1.7092337, 42.6702665], [1.709231, 42.6701669], [1.7093235, 42.6700733], [1.7093101, 42.6699313], [1.7092726, 42.6698987], [1.7091653, 42.6698297], [1.7091304, 42.6697488], [1.7091157, 42.6695891], [1.7090794, 42.6695171], [1.7090459, 42.6694461], [1.7090499, 42.6693199], [1.7090714, 42.6692173], [1.7091304, 42.6691592], [1.7090969, 42.6690615], [1.7091063, 42.668956], [1.7091532, 42.6688801], [1.7090942, 42.6688101], [1.7090888, 42.6687105], [1.7090781, 42.6685399], [1.7090861, 42.6684216], [1.7090902, 42.6683358], [1.7090392, 42.6681879], [1.7089628, 42.668105], [1.7088877, 42.6680301], [1.7089024, 42.6679285], [1.7088099, 42.667894], [1.7087375, 42.6678151], [1.7086557, 42.6677037], [1.7085792, 42.6675301], [1.7085068, 42.6674177], [1.7083338, 42.6672994], [1.7082158, 42.6671416], [1.7080709, 42.6669207], [1.7079435, 42.6667787], [1.7078899, 42.6666633], [1.7077638, 42.6665036], [1.7076083, 42.6664227], [1.7075197, 42.6663409], [1.7073559, 42.6662301], [1.7072502, 42.6662985], [1.707285, 42.6665647], [1.7072774, 42.6667909], [1.7072502, 42.6670144], [1.7072287, 42.6672412], [1.7071241, 42.6675015], [1.7070222, 42.6677126], [1.7070517, 42.6679729], [1.7070436, 42.6681149], [1.7070141, 42.6683141], [1.7069364, 42.6684995], [1.7069444, 42.6686494], [1.7068747, 42.6688604], [1.7068559, 42.6690418], [1.7067432, 42.6691996], [1.7066064, 42.6694008], [1.706526, 42.669596], [1.7064428, 42.6697045], [1.7061907, 42.6698366], [1.7059037, 42.6699431], [1.7057455, 42.6699293], [1.7055121, 42.6698228], [1.7053378, 42.669665], [1.7052412, 42.6696433], [1.70515, 42.6697045], [1.7050534, 42.6698169], [1.7048335, 42.6699253], [1.7046806, 42.6700397], [1.7046458, 42.6701719], [1.7045653, 42.6703257], [1.7043641, 42.6704282], [1.7041925, 42.6705821], [1.7040583, 42.6707379], [1.7040181, 42.6708976], [1.7039698, 42.6710435], [1.7038438, 42.6711816], [1.7037901, 42.6713275], [1.7036372, 42.671434], [1.7035192, 42.6714774], [1.7034009, 42.6715798], [1.7033529, 42.6716214], [1.7031813, 42.6716943], [1.702964, 42.6718639], [1.7028701, 42.6719783], [1.7028674, 42.6721538], [1.7028594, 42.6722879], [1.7027172, 42.6724911], [1.7025939, 42.6726567], [1.7025509, 42.6727948], [1.7025804, 42.6730235], [1.7025509, 42.673203], [1.7024034, 42.6735067], [1.7023337, 42.6735994], [1.7022157, 42.6736723], [1.7021593, 42.6738261], [1.7021432, 42.6739721], [1.7020762, 42.6741219], [1.702044, 42.6742245], [1.7020386, 42.6744651], [1.7020816, 42.6747313], [1.7020574, 42.6750034], [1.7019823, 42.6752263], [1.7018965, 42.6753465], [1.7018455, 42.6755023], [1.701875, 42.6756404], [1.701816, 42.6757804], [1.7018214, 42.6760288], [1.7017812, 42.6761945], [1.7018321, 42.6763108], [1.701757, 42.6764292], [1.7017436, 42.676581], [1.7016631, 42.6767683], [1.7015824, 42.6768278]]]}}, {"type": "Feature", "properties": {"name": "Lac de Montbel"}, "geometry": {"type": "MultiPolygon", "coordinates": [[[[1.9626726, 42.9812386], [1.9631227, 42.9810722], [1.9635696, 42.9807615], [1.9637223, 42.9805833], [1.9642481, 42.9802934], [1.9647034, 42.980211], [1.9653259, 42.9801706], [1.9659625, 42.9801728], [1.9665669, 42.9801407], [1.967178, 42.9800584], [1.9676904, 42.9800559], [1.9683009, 42.9797749], [1.9687575, 42.9795183], [1.9690973, 42.9791462], [1.9691963, 42.9789159], [1.9692493, 42.9786966], [1.9694073, 42.9785664], [1.9699023, 42.9785253], [1.9704883, 42.9785521], [1.9707097, 42.9784573], [1.970792, 42.9782588], [1.9708884, 42.9782344], [1.9709854, 42.9781532], [1.9708496, 42.9780708], [1.9708097, 42.9779987], [1.9709456, 42.9778816], [1.9709202, 42.9777968], [1.9710684, 42.9776979], [1.9711312, 42.9775599], [1.9711343, 42.9771808], [1.9711197, 42.9768277], [1.9709223, 42.9768051], [1.9708294, 42.9767511], [1.9707538, 42.9767133], [1.970675, 42.9766664], [1.9706358, 42.9766345], [1.9706224, 42.9765472], [1.9707211, 42.9765035], [1.9707894, 42.9763773], [1.9707993, 42.9761341], [1.9708034, 42.9758423], [1.9710318, 42.9757587], [1.9710153, 42.9756588], [1.9705215, 42.9749566], [1.9704293, 42.9749228], [1.9700811, 42.9750561], [1.9699715, 42.9749754], [1.9699831, 42.9746259], [1.9703849, 42.9743306], [1.9709656, 42.9740847], [1.9725642, 42.9732182], [1.9730863, 42.9731204], [1.9740913, 42.9726507], [1.9747723, 42.9723145], [1.9749523, 42.9720136], [1.9748429, 42.9715355], [1.9750486, 42.9713616], [1.9752851, 42.9712661], [1.9741435, 42.970512], [1.9740376, 42.9705347], [1.9739322, 42.9706723], [1.9737294, 42.9710362], [1.9729487, 42.9713382], [1.9726083, 42.9716377], [1.9722618, 42.9719689], [1.9713383, 42.972064], [1.9707728, 42.9718144], [1.9703381, 42.9713188], [1.970358, 42.9708515], [1.9704962, 42.9702542], [1.9706079, 42.9699568], [1.9671693, 42.9686764], [1.9669574, 42.9687215], [1.9669201, 42.9689301], [1.966634, 42.9690937], [1.9662762, 42.9691175], [1.9655961, 42.9691448], [1.9646185, 42.9694047], [1.9643673, 42.969714], [1.9617723, 42.970554], [1.9607745, 42.9711172], [1.959663, 42.9713997], [1.9593019, 42.9714801], [1.9587252, 42.9717891], [1.9575082, 42.9719892], [1.9573364, 42.9720528], [1.9569081, 42.9723637], [1.9567156, 42.9723421], [1.9566399, 42.9721745], [1.9566647, 42.9718086], [1.9568276, 42.9714271], [1.9568127, 42.9713692], [1.9561461, 42.9711584], [1.9560023, 42.971185], [1.9558091, 42.9713592], [1.9556937, 42.9715087], [1.9554981, 42.9715951], [1.955062, 42.9714605], [1.9545711, 42.9714781], [1.9545844, 42.9713042], [1.9547243, 42.9711439], [1.9549885, 42.9710241], [1.9548919, 42.970873], [1.954666, 42.9708032], [1.9543798, 42.970772], [1.9541008, 42.9707234], [1.9539576, 42.9706076], [1.9539505, 42.9703225], [1.9541604, 42.9701428], [1.9544499, 42.9700719], [1.9547537, 42.969749], [1.9548937, 42.9694531], [1.9548366, 42.9692952], [1.9546612, 42.969248], [1.9543827, 42.9692406], [1.9536568, 42.9694227], [1.9531901, 42.9694788], [1.9530532, 42.9693842], [1.9530892, 42.9692309], [1.9530837, 42.969157], [1.9510852, 42.9692855], [1.9506115, 42.969316], [1.950233, 42.969347], [1.9499487, 42.9698601], [1.9496226, 42.9702476], [1.9498784, 42.970705], [1.9500747, 42.9711034], [1.9504019, 42.9718627], [1.9506404, 42.9723214], [1.9506436, 42.9729004], [1.9504905, 42.973063], [1.9504903, 42.9732389], [1.9506833, 42.9733367], [1.9515076, 42.9735402], [1.9518125, 42.9741364], [1.9518439, 42.9744999], [1.951559, 42.9747037], [1.9513166, 42.9750747], [1.9498219, 42.9753432], [1.9481692, 42.9759396], [1.9470821, 42.9763724], [1.9461628, 42.9764842], [1.9456116, 42.976492], [1.9448545, 42.9767503], [1.9441274, 42.9764039], [1.9441967, 42.9758047], [1.9442965, 42.9752074], [1.9449395, 42.9745626], [1.9451519, 42.9741693], [1.9451125, 42.9735103], [1.9454277, 42.9731842], [1.9453744, 42.972993], [1.9447175, 42.9732154], [1.9440621, 42.9732891], [1.9428466, 42.9737565], [1.9414953, 42.9742831], [1.9416348, 42.9744567], [1.9416889, 42.9746451], [1.9414902, 42.9748617], [1.9406652, 42.9750389], [1.9404083, 42.9747818], [1.9401945, 42.9746521], [1.9396413, 42.9747842], [1.938976, 42.9747574], [1.9365205, 42.9752425], [1.9352789, 42.9755964], [1.933768, 42.9758644], [1.9333392, 42.9758386], [1.9329522, 42.9756876], [1.9331615, 42.9760662], [1.9335456, 42.9762672], [1.9341761, 42.9763474], [1.9350582, 42.9763814], [1.9353375, 42.976555], [1.9352558, 42.9768826], [1.9346802, 42.9769755], [1.9341493, 42.9769039], [1.9335411, 42.9770081], [1.9322695, 42.977492], [1.9314377, 42.9777908], [1.9305052, 42.9783358], [1.9301116, 42.9786196], [1.929959, 42.9790251], [1.9301453, 42.9792968], [1.9307807, 42.9793839], [1.9314388, 42.9794468], [1.9317728, 42.9795503], [1.9314472, 42.9798124], [1.9315456, 42.9799904], [1.9319967, 42.9801756], [1.9324701, 42.9802617], [1.932743, 42.9804196], [1.9325489, 42.980735], [1.9325027, 42.9810865], [1.9311021, 42.9819983], [1.9308398, 42.9823502], [1.9304878, 42.9825392], [1.9308016, 42.9827862], [1.9311732, 42.982955], [1.9316198, 42.9830614], [1.9325902, 42.9832011], [1.9331408, 42.9832751], [1.9333245, 42.9832601], [1.9335936, 42.9832168], [1.9338396, 42.9832038], [1.9344488, 42.9832131], [1.9353212, 42.9831613], [1.9362569, 42.9829381], [1.9373475, 42.9824982], [1.9381088, 42.9823241], [1.9388796, 42.9821864], [1.9392387, 42.9821597], [1.93925, 42.9823251], [1.9391115, 42.9825765], [1.9393415, 42.9827008], [1.9396838, 42.9826595], [1.9402602, 42.982582], [1.9411218, 42.982415], [1.9416391, 42.9823789], [1.941931, 42.9824343], [1.9420212, 42.982499], [1.9420212, 42.9825837], [1.9419002, 42.9826368], [1.9416227, 42.9827359], [1.9413048, 42.9827498], [1.9411447, 42.9827595], [1.9409837, 42.9828483], [1.9407527, 42.9828572], [1.940366, 42.9828603], [1.9396959, 42.9829666], [1.9393246, 42.982983], [1.942247, 42.9854971], [1.9424962, 42.985439], [1.9426948, 42.9853642], [1.942951, 42.9854732], [1.9430065, 42.9857668], [1.9433958, 42.9857521], [1.9441583, 42.9854173], [1.9456224, 42.9850343], [1.9476422, 42.9847366], [1.9484913, 42.9847171], [1.9489576, 42.9847047], [1.9493948, 42.9845954], [1.9500532, 42.984612], [1.9506632, 42.9847111], [1.951296, 42.9847428], [1.9523861, 42.9846629], [1.9532364, 42.984612], [1.95398, 42.9844746], [1.9548852, 42.9843737], [1.9554355, 42.9843153], [1.9556838, 42.9843776], [1.9557699, 42.9845281], [1.9556393, 42.9846974], [1.9549463, 42.9850003], [1.9549161, 42.9854313], [1.9550415, 42.9856356], [1.9553932, 42.9857934], [1.9553909, 42.9859609], [1.954007, 42.9864368], [1.9528345, 42.9865008], [1.9522434, 42.986906], [1.951477, 42.9871838], [1.9508621, 42.9877046], [1.9498374, 42.9880533], [1.9497028, 42.988399], [1.9497884, 42.9885868], [1.9499714, 42.988688], [1.9492002, 42.9891271], [1.9492595, 42.9895193], [1.9491792, 42.9899834], [1.9489473, 42.99034], [1.948765, 42.9905692], [1.9487313, 42.9906969], [1.9487879, 42.9907798], [1.9490153, 42.9907762], [1.9494984, 42.9906571], [1.9497632, 42.9906394], [1.9501987, 42.9904281], [1.9510837, 42.9902678], [1.9515896, 42.990257], [1.9521543, 42.9904631], [1.9526182, 42.9907492], [1.9540159, 42.9907252], [1.9548914, 42.9902232], [1.9551596, 42.9901849], [1.9555238, 42.9902878], [1.9556632, 42.9907016], [1.9554297, 42.9908798], [1.9553118, 42.9910879], [1.9555944, 42.9912236], [1.9554825, 42.9916993], [1.9558931, 42.9919763], [1.9562588, 42.9921566], [1.956181, 42.9927239], [1.9565204, 42.9931577], [1.9567819, 42.9935632], [1.9568378, 42.9938818], [1.9569742, 42.9941676], [1.9585898, 42.9938898], [1.9601216, 42.9936158], [1.9599352, 42.9933588], [1.9599959, 42.9930309], [1.9603027, 42.9922701], [1.9606059, 42.9920622], [1.9610653, 42.9919534], [1.961536, 42.9917513], [1.9619924, 42.9915582], [1.9630617, 42.9913744], [1.9632801, 42.9910657], [1.9634273, 42.9905834], [1.9637385, 42.9902834], [1.9638269, 42.9897557], [1.9636545, 42.9895582], [1.962821, 42.989725], [1.9618034, 42.9899718], [1.9621644, 42.9893475], [1.9622513, 42.9888914], [1.9624796, 42.9885618], [1.9628652, 42.9882535], [1.9635434, 42.9881369], [1.9641974, 42.9881212], [1.9644872, 42.9879448], [1.9644895, 42.9876335], [1.9642574, 42.9874451], [1.9636885, 42.9873323], [1.963125, 42.9867731], [1.9627494, 42.9861459], [1.9618869, 42.985858], [1.9620023, 42.9856176], [1.9626432, 42.9853494], [1.963649, 42.9852534], [1.964104, 42.9855328], [1.9644466, 42.9855952], [1.964651, 42.985453], [1.9646457, 42.9853391], [1.9644841, 42.9851297], [1.9643793, 42.9847019], [1.9647056, 42.9835454], [1.9646223, 42.9834199], [1.9642096, 42.9835361], [1.9639512, 42.9834651], [1.9636496, 42.9836353], [1.9632481, 42.9836068], [1.9627411, 42.9836504], [1.9622145, 42.9837661], [1.9617286, 42.9837482], [1.9613621, 42.9835904], [1.9610294, 42.9832499], [1.960975, 42.9829211], [1.961204, 42.9826148], [1.9614754, 42.982313], [1.9616946, 42.9820424], [1.9620538, 42.9817471], [1.9622307, 42.9815341], [1.9626726, 42.9812386]]], [[[1.971228, 42.9756515], [1.9713406, 42.975592], [1.9714757, 42.9755499], [1.9727366, 42.9755202], [1.9727805, 42.9753673], [1.97267, 42.9750691], [1.9724225, 42.9750552], [1.9722624, 42.9749761], [1.9721, 42.9747587], [1.9719105, 42.9747026], [1.9707331, 42.9748508], [1.9706902, 42.9749173], [1.9711448, 42.9755776], [1.971228, 42.9756515]]], [[[1.9859869, 42.9660891], [1.9843335, 42.9655763], [1.983603, 42.9654803], [1.9835318, 42.9653434], [1.9836125, 42.9649781], [1.983412, 42.9648888], [1.9827274, 42.9650195], [1.9817603, 42.9653342], [1.9812146, 42.9654349], [1.9807783, 42.9653596], [1.9811442, 42.9649567], [1.9819071, 42.9645992], [1.9822775, 42.9643788], [1.9823664, 42.964134], [1.9825204, 42.9636446], [1.9832773, 42.9629259], [1.9839146, 42.9626224], [1.984599, 42.9624291], [1.9860601, 42.9612186], [1.9860899, 42.961112], [1.9860583, 42.960917], [1.9861539, 42.9607546], [1.986189, 42.9605831], [1.9860236, 42.9604056], [1.9859043, 42.9603384], [1.9857698, 42.9603124], [1.9854764, 42.960338], [1.9853233, 42.9604063], [1.9847576, 42.9608495], [1.9841035, 42.9610266], [1.9831837, 42.9615989], [1.9806014, 42.9626618], [1.9796075, 42.9632936], [1.9789917, 42.9634995], [1.9786596, 42.9637247], [1.9786937, 42.9640858], [1.9785485, 42.9643839], [1.9783803, 42.964188], [1.9782487, 42.9637516], [1.9777353, 42.9639997], [1.977102, 42.9640995], [1.9749994, 42.9654992], [1.9747489, 42.9657526], [1.9742542, 42.9657526], [1.9737577, 42.9650075], [1.973387, 42.9648304], [1.9720308, 42.9655648], [1.9716344, 42.9658197], [1.9704631, 42.9661844], [1.9695219, 42.9663248], [1.9683373, 42.9665798], [1.9668931, 42.9671605], [1.9657842, 42.9676111], [1.9642359, 42.9679349], [1.9636224, 42.9682306], [1.9633336, 42.9685028], [1.9632619, 42.9687253], [1.9636388, 42.9688957], [1.9644527, 42.9688287], [1.9656577, 42.9685804], [1.9667115, 42.9684009], [1.9671376, 42.9683359], [1.9672656, 42.9685331], [1.9707064, 42.9698132], [1.9708929, 42.9694826], [1.9712976, 42.9691477], [1.9719951, 42.9688626], [1.9727502, 42.9688258], [1.9733611, 42.9688987], [1.9742506, 42.9687423], [1.9747743, 42.9686872], [1.9753645, 42.968761], [1.9761601, 42.9688103], [1.9765187, 42.9687878], [1.9768392, 42.9688357], [1.9770831, 42.9689762], [1.9772009, 42.9691077], [1.9772427, 42.9694622], [1.9769678, 42.9697577], [1.9764853, 42.969993], [1.976036, 42.9700162], [1.9754225, 42.9699385], [1.9750288, 42.9699984], [1.9743297, 42.9703299], [1.974298, 42.9704159], [1.975441, 42.9711674], [1.9761114, 42.9706916], [1.9769315, 42.970187], [1.9774455, 42.9698661], [1.9777984, 42.9695648], [1.9780401, 42.9697156], [1.9788055, 42.9696962], [1.9798002, 42.969422], [1.9800599, 42.9695191], [1.9803147, 42.9698693], [1.9805542, 42.9699813], [1.980656, 42.9697896], [1.9809408, 42.9690579], [1.9812479, 42.968743], [1.981705, 42.9684514], [1.9821749, 42.9681085], [1.9823184, 42.9677719], [1.9826271, 42.9676067], [1.9832393, 42.9670689], [1.9835682, 42.9669244], [1.9838709, 42.9671694], [1.9841541, 42.9674313], [1.9852056, 42.9673733], [1.9860667, 42.9673225], [1.9865833, 42.9669391], [1.9865291, 42.9667703], [1.9862093, 42.9666318], [1.9862531, 42.9663009], [1.9859869, 42.9660891]]], [[[1.957074, 42.9712312], [1.9572958, 42.971063], [1.957279, 42.9708997], [1.9573699, 42.9705401], [1.958216, 42.9699227], [1.9588171, 42.9696267], [1.9591656, 42.969451], [1.9592074, 42.9693391], [1.958638, 42.9689321], [1.9578947, 42.9690582], [1.9574666, 42.9690424], [1.9571337, 42.9692266], [1.9568163, 42.9697677], [1.9565583, 42.9698613], [1.9562913, 42.9705245], [1.9561822, 42.9707425], [1.9560485, 42.970934], [1.9561356, 42.9710127], [1.95699, 42.9712491], [1.957074, 42.9712312]]], [[[1.9530777, 42.9690432], [1.9528457, 42.9686574], [1.9529276, 42.9683914], [1.9531616, 42.9681869], [1.9539679, 42.9677242], [1.9545007, 42.9674157], [1.9540496, 42.9670428], [1.9536244, 42.9670598], [1.9526072, 42.9676361], [1.9519427, 42.9678445], [1.9515071, 42.9679758], [1.9510106, 42.9679622], [1.9507588, 42.9679081], [1.9506714, 42.96776], [1.9506262, 42.9674497], [1.9505092, 42.9674944], [1.9505444, 42.9677297], [1.9506031, 42.9678816], [1.9506146, 42.9680339], [1.9505858, 42.9682121], [1.9503644, 42.968356], [1.9498966, 42.9684821], [1.9491783, 42.9685364], [1.9488637, 42.9686818], [1.9488579, 42.9688821], [1.9489965, 42.968977], [1.949197, 42.969038], [1.9500517, 42.9689779], [1.9502511, 42.9689828], [1.9503206, 42.9689059], [1.950284, 42.9688209], [1.9502462, 42.9687232], [1.9502792, 42.9686245], [1.9503804, 42.9685656], [1.9504697, 42.9686098], [1.950498, 42.9686863], [1.950487, 42.9687988], [1.9505942, 42.9689377], [1.950688, 42.9690365], [1.9508395, 42.9691628], [1.95107, 42.9691763], [1.9530777, 42.9690432]]]]}}, {"type": "Feature", "properties": {"name": "Lac du barrage de Labarre"}, "geometry": {"type": "MultiPolygon", "coordinates": [[[[1.6130125, 42.9960853], [1.6130437, 42.995901], [1.6131619, 42.9951832], [1.613221, 42.9941151], [1.6129018, 42.9934707], [1.6127153, 42.9931876], [1.6125621, 42.993102], [1.6119381, 42.9928956], [1.6116037, 42.9928302], [1.6111454, 42.9925996], [1.6108826, 42.9924031], [1.6107026, 42.9921202], [1.6106217, 42.9918688], [1.6106255, 42.9914339], [1.6106578, 42.9910585], [1.610734, 42.9907531], [1.6107784, 42.9905263], [1.6108405, 42.990208], [1.6109508, 42.9899751], [1.611137, 42.9897951], [1.6116101, 42.9891661], [1.6119021, 42.9885453], [1.611898, 42.9882634], [1.6120859, 42.9879828], [1.6122553, 42.9874707], [1.6124479, 42.9871771], [1.6125529, 42.9871784], [1.6127336, 42.9870098], [1.6129938, 42.9870068], [1.6132763, 42.9870972], [1.6134393, 42.9871976], [1.6134773, 42.9873583], [1.6131126, 42.9876032], [1.6132118, 42.9876827], [1.6132988, 42.987594], [1.6134634, 42.9875806], [1.6138004, 42.9877363], [1.6140388, 42.9876545], [1.614732, 42.9881076], [1.6137676, 42.9890475], [1.6135182, 42.9894869], [1.6133791, 42.9899208], [1.6133989, 42.9902001], [1.6134238, 42.9902013], [1.6134453, 42.9901559], [1.6134922, 42.9901186], [1.6136442, 42.990064], [1.6137933, 42.9900833], [1.6139073, 42.9901381], [1.6140565, 42.9904297], [1.6140479, 42.990713], [1.6139045, 42.990841], [1.6137208, 42.9908242], [1.6139686, 42.9913691], [1.6141096, 42.991581], [1.6145279, 42.9922095], [1.61523, 42.9929164], [1.6154745, 42.9935321], [1.6153914, 42.9943904], [1.6151833, 42.9945407], [1.6151489, 42.9946699], [1.6148963, 42.9948831], [1.6147488, 42.9949356], [1.6146267, 42.9952449], [1.6144195, 42.9954069], [1.6142452, 42.995673], [1.6142805, 42.9957203], [1.6142663, 42.9958386], [1.6142379, 42.9958843], [1.614273, 42.995994], [1.6142464, 42.9960483], [1.6141698, 42.9960857], [1.6140765, 42.9960859], [1.6139112, 42.9960811], [1.6130125, 42.9960853]]], [[[1.6133545, 42.9960581], [1.6133477, 42.9961388], [1.6132429, 42.9961366], [1.6132455, 42.9960885], [1.6130125, 42.9960853], [1.6133545, 42.9960581]]]]}}, {"type": "Feature", "properties": {"name": "Étang Fourcat"}, "geometry": {"type": "Polygon", "coordinates": [[[1.4872988, 42.6579363], [1.4871498, 42.6577815], [1.4869139, 42.6577666], [1.4867536, 42.6576792], [1.486635, 42.6575249], [1.4865625, 42.6575314], [1.4865468, 42.6575006], [1.4864824, 42.6574893], [1.4864433, 42.6575198], [1.486394, 42.6575043], [1.4863169, 42.6575123], [1.4862913, 42.657508], [1.4862793, 42.65755], [1.4862221, 42.6575971], [1.4861951, 42.6576877], [1.4861839, 42.6577787], [1.4861492, 42.6577827], [1.4861105, 42.6578176], [1.4861129, 42.6579136], [1.4860611, 42.657959], [1.4859515, 42.6580346], [1.4858604, 42.6580539], [1.485775, 42.6581335], [1.4857581, 42.6582727], [1.4858136, 42.6584433], [1.4859816, 42.6589179], [1.4859655, 42.6589583], [1.4860343, 42.6590952], [1.4860659, 42.6591049], [1.4860861, 42.6591533], [1.4860128, 42.6592082], [1.4859854, 42.6592528], [1.4859118, 42.6592879], [1.4858416, 42.6593884], [1.4858224, 42.6594949], [1.4857292, 42.6596405], [1.485684, 42.6597393], [1.4855855, 42.6597736], [1.4855151, 42.6597639], [1.4854706, 42.6597784], [1.4855154, 42.6598231], [1.4854805, 42.6598464], [1.4855171, 42.6599075], [1.4855987, 42.6599907], [1.4858053, 42.6601615], [1.4859492, 42.6603178], [1.486094, 42.6606874], [1.4860725, 42.6607601], [1.4862699, 42.6611373], [1.4863649, 42.6611999], [1.4864265, 42.6612687], [1.4864142, 42.6613218], [1.4864655, 42.6614003], [1.4865373, 42.6614974], [1.4865926, 42.6615706], [1.4866282, 42.6616323], [1.4866701, 42.6617343], [1.4867113, 42.6617394], [1.4867393, 42.6617965], [1.4867531, 42.6619223], [1.486835, 42.6619942], [1.4868624, 42.6620941], [1.4869294, 42.6621307], [1.486943, 42.6622116], [1.487055, 42.6623238], [1.4872039, 42.6625135], [1.4872856, 42.6625555], [1.4873483, 42.6626116], [1.4873238, 42.6626544], [1.4873725, 42.6626956], [1.4874083, 42.6628142], [1.4875236, 42.6629731], [1.4874907, 42.6631302], [1.4874517, 42.663177], [1.4874092, 42.6631847], [1.4873533, 42.663168], [1.4873183, 42.6631972], [1.4873365, 42.6632059], [1.4873566, 42.6632306], [1.4872938, 42.6632499], [1.4872481, 42.6632401], [1.4872316, 42.6633384], [1.4872543, 42.6634391], [1.487319, 42.6635312], [1.4873734, 42.6637061], [1.4875723, 42.6637338], [1.4877644, 42.6637765], [1.4878447, 42.6637265], [1.4878248, 42.6636965], [1.4878195, 42.6636665], [1.487852, 42.6636315], [1.4878383, 42.6636128], [1.4878358, 42.6635878], [1.4878524, 42.6635698], [1.4878241, 42.6635319], [1.4878566, 42.663523], [1.4878726, 42.6634968], [1.4878499, 42.6634751], [1.4878358, 42.6634338], [1.4878502, 42.6634066], [1.4878301, 42.663362], [1.4878488, 42.6633404], [1.4878907, 42.6633297], [1.4879188, 42.663312], [1.4879367, 42.6632876], [1.4879671, 42.6633173], [1.4879972, 42.6633318], [1.4881231, 42.6633434], [1.4882451, 42.6633715], [1.4883108, 42.6633863], [1.4884055, 42.6634311], [1.4883973, 42.6634458], [1.4885462, 42.6635226], [1.4887189, 42.6636021], [1.4888226, 42.6636451], [1.4888476, 42.6636293], [1.4889347, 42.6636454], [1.4890253, 42.6636496], [1.4891578, 42.6636876], [1.4892741, 42.6637535], [1.4893799, 42.6638366], [1.4893898, 42.6638592], [1.4894362, 42.6638773], [1.489492, 42.6639356], [1.4895418, 42.663961], [1.4897166, 42.6640634], [1.4898648, 42.6641448], [1.4898866, 42.6641803], [1.4899391, 42.6641842], [1.4899519, 42.664167], [1.4899521, 42.6641537], [1.4899759, 42.6641429], [1.4900137, 42.6641508], [1.4900152, 42.6641784], [1.490052, 42.6641956], [1.4900692, 42.6642183], [1.4901592, 42.6642498], [1.4902047, 42.6642373], [1.4902192, 42.6642406], [1.4902562, 42.6642623], [1.490286, 42.6642479], [1.4903344, 42.664229], [1.4903307, 42.6642234], [1.4903135, 42.6642169], [1.4903093, 42.6641863], [1.4902869, 42.6641685], [1.490284, 42.6641284], [1.4902752, 42.6640403], [1.4902528, 42.6640281], [1.4902408, 42.6640106], [1.4902658, 42.6639669], [1.4901593, 42.6639404], [1.4901083, 42.6638716], [1.490095, 42.6638271], [1.4900909, 42.6637885], [1.490113, 42.6637207], [1.4901529, 42.6636331], [1.4901574, 42.663541], [1.490144, 42.6634352], [1.4900838, 42.663337], [1.4900985, 42.6632788], [1.4900295, 42.6631637], [1.4900281, 42.6631137], [1.4901012, 42.6630362], [1.4901269, 42.662964], [1.4900813, 42.6629265], [1.489987, 42.6629301], [1.4898415, 42.6629197], [1.4897775, 42.6628904], [1.4897043, 42.6627602], [1.4897123, 42.6627167], [1.4895548, 42.6625531], [1.4895387, 42.6625139], [1.4895423, 42.662463], [1.4895143, 42.66245], [1.4894863, 42.6624262], [1.4894982, 42.6624051], [1.4894826, 42.6623773], [1.4894788, 42.6623495], [1.4894334, 42.6623432], [1.4894188, 42.6623084], [1.4894123, 42.6622412], [1.4893866, 42.6622098], [1.4894516, 42.6621322], [1.4894347, 42.6621147], [1.4894519, 42.6620849], [1.4894216, 42.6620768], [1.4894262, 42.6620583], [1.4894762, 42.6620417], [1.4895029, 42.6620142], [1.4895093, 42.6619525], [1.4895449, 42.6619227], [1.4896088, 42.6619072], [1.4896374, 42.6619096], [1.4896837, 42.6618546], [1.4896682, 42.6618363], [1.4896488, 42.6618124], [1.4896077, 42.6617685], [1.48962, 42.6617471], [1.4895318, 42.6617061], [1.4895436, 42.6616659], [1.4894879, 42.6615999], [1.4895261, 42.6615662], [1.4895265, 42.6615401], [1.4895527, 42.6615315], [1.4895553, 42.661489], [1.4895049, 42.661442], [1.489498, 42.6613774], [1.489552, 42.6613694], [1.4896573, 42.6613323], [1.4897069, 42.6613294], [1.4898492, 42.6613526], [1.4898786, 42.6613928], [1.4899417, 42.6614277], [1.4899947, 42.6614064], [1.4900484, 42.6614196], [1.4900978, 42.6614662], [1.4900708, 42.6615143], [1.4900078, 42.6615296], [1.4899685, 42.6615929], [1.4899809, 42.6616227], [1.4899585, 42.6616579], [1.4899617, 42.6617055], [1.4899392, 42.6617378], [1.4898105, 42.661856], [1.48975, 42.6618636], [1.4897218, 42.6618653], [1.4896681, 42.6619172], [1.4896496, 42.6619597], [1.4896213, 42.6619855], [1.4895992, 42.6620167], [1.4896384, 42.6620573], [1.4897113, 42.6620689], [1.4897433, 42.6620737], [1.4897767, 42.6620565], [1.4897941, 42.6620788], [1.4898774, 42.6620858], [1.4899245, 42.6620605], [1.490031, 42.6621471], [1.4900819, 42.6621357], [1.4901771, 42.6621448], [1.4901961, 42.6621754], [1.4902816, 42.6621944], [1.4903492, 42.6622556], [1.4903658, 42.6622875], [1.4904198, 42.6623264], [1.4904539, 42.6623848], [1.4905128, 42.6624144], [1.490612, 42.6625079], [1.4906689, 42.6625433], [1.4906793, 42.6625402], [1.49071, 42.6625618], [1.4907289, 42.6625901], [1.4907474, 42.6626263], [1.4907928, 42.6626337], [1.4910749, 42.6628183], [1.4911174, 42.6628362], [1.491222, 42.6628316], [1.4912672, 42.6628091], [1.4913535, 42.6628154], [1.4914474, 42.6628435], [1.4914923, 42.6628637], [1.4915045, 42.6628866], [1.4915008, 42.6629174], [1.491522, 42.6629192], [1.4915258, 42.6629385], [1.4915875, 42.6629753], [1.4916397, 42.6631141], [1.4917716, 42.6632091], [1.4918685, 42.6632713], [1.4919156, 42.6632787], [1.491921, 42.6632572], [1.4919786, 42.6632247], [1.4920513, 42.6632152], [1.4921068, 42.6631803], [1.4922154, 42.6631519], [1.4922664, 42.6631542], [1.4923754, 42.663135], [1.4923914, 42.6631462], [1.4924467, 42.6631475], [1.4924806, 42.6631772], [1.4925245, 42.6631494], [1.4925637, 42.6631489], [1.4925716, 42.6631761], [1.4925799, 42.6632283], [1.492603, 42.6632575], [1.4926012, 42.6633019], [1.4926928, 42.6633255], [1.4927108, 42.6633671], [1.4927029, 42.6633914], [1.4927097, 42.6634082], [1.4927451, 42.6634343], [1.4927428, 42.663449], [1.4927791, 42.6634761], [1.492796, 42.6634644], [1.4928013, 42.6634349], [1.4928995, 42.6633929], [1.4930024, 42.6634129], [1.493022, 42.6634413], [1.4930699, 42.6634403], [1.4931024, 42.6634602], [1.4931424, 42.6634482], [1.4931899, 42.6634371], [1.4931769, 42.663401], [1.4931314, 42.6633945], [1.4930747, 42.6633557], [1.4930197, 42.6633198], [1.4929684, 42.6632353], [1.492968, 42.6631862], [1.4929278, 42.6631638], [1.4928757, 42.6631609], [1.4928436, 42.663142], [1.4928624, 42.6631285], [1.4928569, 42.6631034], [1.4928197, 42.6630867], [1.4927769, 42.6630857], [1.492735, 42.6630864], [1.4926916, 42.6630728], [1.4926684, 42.6630139], [1.492682, 42.6629607], [1.49268, 42.6629171], [1.492616, 42.6628663], [1.4926267, 42.662829], [1.4925562, 42.6627688], [1.4925759, 42.6627399], [1.4925643, 42.662675], [1.4925039, 42.6626587], [1.4925098, 42.6626156], [1.4924254, 42.6625985], [1.4923474, 42.662544], [1.4923013, 42.6623975], [1.4922903, 42.6623171], [1.4921906, 42.6622621], [1.4921383, 42.6621231], [1.4921461, 42.6620323], [1.492175, 42.6619975], [1.4921854, 42.6619533], [1.4921545, 42.6618989], [1.4921397, 42.6618373], [1.4921497, 42.6618174], [1.4921216, 42.6618041], [1.4921142, 42.6617499], [1.4921665, 42.6616747], [1.4921564, 42.6615462], [1.4921677, 42.6615051], [1.4922059, 42.6614888], [1.4922393, 42.6613913], [1.4922679, 42.6613823], [1.4922748, 42.661354], [1.4922542, 42.6613389], [1.492245, 42.6612605], [1.4922897, 42.6611268], [1.4923442, 42.661089], [1.4924214, 42.6610545], [1.4925205, 42.6610403], [1.492595, 42.6609903], [1.4925921, 42.6609579], [1.4926465, 42.6608868], [1.4926366, 42.6608678], [1.4926525, 42.6608404], [1.4927461, 42.660766], [1.4927234, 42.6607357], [1.4927276, 42.6606744], [1.4926771, 42.6606142], [1.4925577, 42.6605783], [1.4925073, 42.6605473], [1.4924912, 42.6605118], [1.4924946, 42.6604426], [1.4924374, 42.6603932], [1.4923006, 42.6603479], [1.4921799, 42.6601979], [1.4921542, 42.6601237], [1.4920753, 42.6600618], [1.4919975, 42.6600204], [1.491921, 42.6599651], [1.4918645, 42.6599565], [1.4918459, 42.6599322], [1.4918554, 42.6598113], [1.4917937, 42.6597541], [1.4916167, 42.6597601], [1.4914986, 42.6596417], [1.4915139, 42.6595315], [1.4915808, 42.6594948], [1.4914852, 42.6593695], [1.4913802, 42.6593264], [1.4913044, 42.6593517], [1.4912521, 42.6593227], [1.4911895, 42.6593218], [1.491104, 42.6593456], [1.4910722, 42.6593478], [1.4910675, 42.6593086], [1.4910311, 42.6592992], [1.4909831, 42.6592515], [1.490932, 42.6592557], [1.4908911, 42.6593216], [1.4907649, 42.6593677], [1.49072, 42.659388], [1.4906024, 42.659362], [1.4904906, 42.6592875], [1.4903007, 42.6592386], [1.4901477, 42.6591138], [1.4900421, 42.6590306], [1.4899704, 42.659077], [1.4897837, 42.6590089], [1.4896467, 42.6590489], [1.489457, 42.6590551], [1.4892991, 42.6589641], [1.4891919, 42.658829], [1.4892207, 42.6587727], [1.4891813, 42.6587146], [1.4891774, 42.6586195], [1.4890196, 42.6585727], [1.4886206, 42.6584484], [1.4885768, 42.6584206], [1.4885406, 42.6584236], [1.4883944, 42.658486], [1.488296, 42.6584687], [1.4882295, 42.6584052], [1.4881861, 42.6583044], [1.4879259, 42.6581525], [1.4876416, 42.6580578], [1.4872988, 42.6579363]]]}}, {"type": "Feature", "properties": {"name": "Étang de Gnioure"}, "geometry": {"type": "Polygon", "coordinates": [[[1.5273327, 42.7026785], [1.5274376, 42.702542], [1.5275912, 42.7024163], [1.5277487, 42.7023213], [1.5279135, 42.7022541], [1.5281242, 42.7022109], [1.5283106, 42.7021891], [1.5285607, 42.7021995], [1.5287974, 42.7022602], [1.5290631, 42.7023621], [1.5301622, 42.7028084], [1.5302378, 42.7027135], [1.5301855, 42.7026785], [1.5301877, 42.7026328], [1.5302499, 42.7025342], [1.5304031, 42.7025471], [1.5305315, 42.7025539], [1.5306586, 42.7025588], [1.5307809, 42.7025115], [1.5308989, 42.7024144], [1.5310746, 42.7022533], [1.5312551, 42.7021393], [1.5316237, 42.7018406], [1.531741, 42.7017048], [1.5318023, 42.7013542], [1.5319161, 42.7012191], [1.5320955, 42.7011001], [1.5321612, 42.700965], [1.5322049, 42.7007816], [1.5321612, 42.7003988], [1.5321699, 42.7000772], [1.5321524, 42.6998649], [1.5320474, 42.6996011], [1.5318373, 42.6993084], [1.5318154, 42.6991443], [1.5319598, 42.698858], [1.5320955, 42.6986425], [1.5322766, 42.6985069], [1.5323669, 42.6983289], [1.5324676, 42.6981632], [1.5324676, 42.698041], [1.5325857, 42.6979509], [1.5327608, 42.6977257], [1.5327915, 42.6975584], [1.5328921, 42.6974716], [1.5329841, 42.6972207], [1.5329359, 42.6970373], [1.5329841, 42.6968572], [1.5331329, 42.6967285], [1.5331548, 42.6965741], [1.5331066, 42.6963939], [1.5332204, 42.6962234], [1.5333211, 42.695979], [1.5333211, 42.6957666], [1.5332073, 42.6954996], [1.5332117, 42.6953903], [1.533146, 42.6952358], [1.533216, 42.6950686], [1.5332948, 42.694853], [1.5333079, 42.694689], [1.5331766, 42.6945474], [1.5331022, 42.6943415], [1.5331985, 42.6941421], [1.533181, 42.6938976], [1.5333342, 42.693711], [1.5333824, 42.6934279], [1.5333736, 42.6931319], [1.5333999, 42.6928359], [1.533343, 42.6925271], [1.5332992, 42.692318], [1.5330497, 42.6921314], [1.532949, 42.6919898], [1.5326777, 42.6918708], [1.5324544, 42.6915941], [1.5321524, 42.6909893], [1.5321831, 42.6908638], [1.5320255, 42.6907287], [1.5317585, 42.6905099], [1.5316797, 42.6901303], [1.5315965, 42.6895737], [1.5314565, 42.6890944], [1.5311939, 42.6887919], [1.5311282, 42.6883512], [1.5310713, 42.6879715], [1.5311545, 42.6875661], [1.5311895, 42.6871093], [1.5312201, 42.6868454], [1.5312989, 42.6865301], [1.5314434, 42.6861569], [1.5314696, 42.6859317], [1.5313383, 42.6857065], [1.5313252, 42.6854362], [1.5314434, 42.6850791], [1.5313864, 42.6848217], [1.5315003, 42.684516], [1.5316491, 42.6842329], [1.5318898, 42.683776], [1.5321831, 42.68348], [1.5324019, 42.6832161], [1.5325376, 42.6830745], [1.5324588, 42.6829297], [1.5323144, 42.6827303], [1.5321918, 42.6824568], [1.5319949, 42.6822444], [1.5317891, 42.6822219], [1.5316529, 42.6821658], [1.5313996, 42.6822058], [1.5311939, 42.6824761], [1.5309356, 42.6828171], [1.5306774, 42.6831067], [1.5305592, 42.6833738], [1.5305154, 42.6836827], [1.5304585, 42.6840849], [1.5303535, 42.6844291], [1.5302222, 42.6847541], [1.5301521, 42.6849471], [1.5298895, 42.685108], [1.5296969, 42.6852013], [1.5294912, 42.6851466], [1.5293249, 42.6849729], [1.5292155, 42.6847959], [1.5290885, 42.6846125], [1.5290141, 42.6845257], [1.5290623, 42.6843551], [1.528839, 42.6843133], [1.5284933, 42.6843776], [1.5282613, 42.6844356], [1.5279899, 42.6846576], [1.5277929, 42.6849471], [1.5277798, 42.6853268], [1.5277842, 42.6855327], [1.5277273, 42.6857837], [1.5278805, 42.6860443], [1.5280731, 42.6863596], [1.5281956, 42.6866299], [1.5283444, 42.6869677], [1.5283838, 42.6871511], [1.5284933, 42.6874181], [1.5284451, 42.6875951], [1.5283182, 42.6877399], [1.5279987, 42.6878911], [1.5278323, 42.6879747], [1.527666, 42.6879812], [1.5275216, 42.6880069], [1.5273552, 42.6879651], [1.5271758, 42.6879683], [1.5270095, 42.688068], [1.5269219, 42.688052], [1.5268957, 42.6879651], [1.5267819, 42.6879651], [1.5266112, 42.688171], [1.5264448, 42.6885732], [1.5262697, 42.688911], [1.5262304, 42.6891587], [1.5263398, 42.689223], [1.5264798, 42.689207], [1.526633, 42.6892681], [1.5268256, 42.6894225], [1.5269482, 42.6894836], [1.5269701, 42.6895673], [1.5269263, 42.6897185], [1.5269438, 42.689918], [1.5270051, 42.6900595], [1.5269482, 42.6901786], [1.5267862, 42.690378], [1.5266943, 42.6904488], [1.5266155, 42.6904456], [1.526598, 42.6905775], [1.5267031, 42.6907416], [1.5268431, 42.6910086], [1.526795, 42.6911067], [1.5268191, 42.6912258], [1.5267534, 42.6912917], [1.5266418, 42.6913802], [1.5266615, 42.691496], [1.5266878, 42.6916424], [1.5265958, 42.6917357], [1.526412, 42.6918354], [1.5262982, 42.6919062], [1.5262676, 42.6920751], [1.5263179, 42.6921829], [1.5264339, 42.6923759], [1.526574, 42.6924242], [1.5267665, 42.6924258], [1.5268475, 42.6925191], [1.5268847, 42.6926156], [1.5268803, 42.6927378], [1.5268453, 42.6929807], [1.526865, 42.6931737], [1.5267731, 42.6932542], [1.5266834, 42.6933619], [1.5266768, 42.693481], [1.5267556, 42.6936772], [1.5269022, 42.6938139], [1.5270554, 42.6939217], [1.5271276, 42.6940134], [1.5271276, 42.6941662], [1.5271802, 42.6943849], [1.5272918, 42.6945394], [1.5274231, 42.694631], [1.527585, 42.6947678], [1.5277295, 42.6948916], [1.5278674, 42.6950235], [1.5278411, 42.6950814], [1.5277054, 42.6951152], [1.5276025, 42.6952519], [1.5274778, 42.6952809], [1.5272633, 42.6952519], [1.5272042, 42.6951812], [1.5271999, 42.6950959], [1.5271386, 42.6950927], [1.527062, 42.6951522], [1.5268869, 42.6952037], [1.5267118, 42.6953179], [1.5266549, 42.695461], [1.5266681, 42.6956363], [1.5267753, 42.6959162], [1.5268431, 42.6960385], [1.5268628, 42.6962218], [1.5268278, 42.696402], [1.526795, 42.6965435], [1.5268366, 42.696669], [1.526876, 42.6968121], [1.5268738, 42.6969665], [1.5267819, 42.6970743], [1.5268016, 42.6971451], [1.5268191, 42.6972287], [1.5267184, 42.697277], [1.5267709, 42.6974008], [1.5269766, 42.6976308], [1.5271473, 42.697819], [1.5271211, 42.6979525], [1.5269985, 42.698205], [1.527027, 42.6982967], [1.526992, 42.69839], [1.5269307, 42.698501], [1.5269482, 42.6987342], [1.5270182, 42.6989964], [1.5271561, 42.6991379], [1.5272371, 42.6992151], [1.5273531, 42.6994563], [1.5275084, 42.6996815], [1.5276682, 42.7000772], [1.5277995, 42.7002412], [1.5278805, 42.7003393], [1.5278914, 42.7005002], [1.527933, 42.700669], [1.5279374, 42.7008122], [1.5280096, 42.7009055], [1.5279746, 42.7009746], [1.5278345, 42.701084], [1.5276529, 42.701269], [1.5274909, 42.7013896], [1.5273377, 42.7014089], [1.5270445, 42.7015424], [1.5269569, 42.7016469], [1.5271036, 42.701745], [1.5272721, 42.7018673], [1.5272852, 42.7020313], [1.5272765, 42.7023272], [1.5272699, 42.7025106], [1.5272896, 42.7026199], [1.5273327, 42.7026785]]]}}]}