{"type": "FeatureCollection", "features": [{"type": "Feature", "properties": {"name": "Lac d'Amance"}, "geometry": {"type": "Polygon", "coordinates": [[[4.5242974, 48.3395525], [4.524168, 48.3392422], [4.5247388, 48.3374337], [4.5252102, 48.3365985], [4.5255338, 48.3363881], [4.5258782, 48.3356278], [4.5253804, 48.3356691], [4.5251851, 48.3361481], [4.5244791, 48.3362162], [4.5242646, 48.3365025], [4.5239427, 48.3365382], [4.5235243, 48.3367154], [4.5239212, 48.3368384], [4.5238072, 48.3370737], [4.5233633, 48.3370948], [4.5224943, 48.3382584], [4.5221295, 48.3402171], [4.5224299, 48.340696], [4.5225479, 48.3416363], [4.522151, 48.3420574], [4.5188358, 48.3430144], [4.5169561, 48.3440912], [4.5150704, 48.3445821], [4.515145, 48.345082], [4.5143329, 48.3455516], [4.5132997, 48.345404], [4.5133673, 48.3457024], [4.5129242, 48.3457954], [4.5136869, 48.3461801], [4.5121517, 48.346459], [4.5114007, 48.3461063], [4.5118195, 48.3457571], [4.5119526, 48.344704], [4.5113041, 48.3443582], [4.5111217, 48.343649], [4.5116846, 48.3419006], [4.5115616, 48.3412922], [4.512141, 48.3404828], [4.5127418, 48.3386257], [4.5137932, 48.3378572], [4.5144621, 48.3365153], [4.5144187, 48.3356948], [4.5149407, 48.333859], [4.515778, 48.3334867], [4.5169199, 48.3321714], [4.5183043, 48.3287333], [4.5184053, 48.3285619], [4.5188932, 48.3277337], [4.519157, 48.3271806], [4.5191883, 48.3268652], [4.5190315, 48.32642], [4.518751, 48.3260097], [4.5183744, 48.3256389], [4.5181989, 48.3255148], [4.5170816, 48.3247251], [4.5165047, 48.3240528], [4.5169017, 48.3231932], [4.5170655, 48.3226848], [4.5171674, 48.3218894], [4.5176234, 48.3213004], [4.5180418, 48.3211774], [4.5181865, 48.3209103], [4.5183072, 48.3208211], [4.5183608, 48.3207641], [4.5183045, 48.3206695], [4.5184064, 48.320534], [4.5184949, 48.3205161], [4.5185352, 48.3204163], [4.518444, 48.3203699], [4.5184708, 48.3202432], [4.5185888, 48.3202201], [4.5186865, 48.3200948], [4.5185119, 48.3198035], [4.5183286, 48.3194977], [4.5183233, 48.3192266], [4.5182054, 48.3191356], [4.518192, 48.3190157], [4.5178164, 48.3180212], [4.5174552, 48.3179837], [4.5173659, 48.3179744], [4.5165428, 48.3190301], [4.5152309, 48.3193132], [4.5151091, 48.320083], [4.5146, 48.320648], [4.514276, 48.3215783], [4.5138597, 48.32197], [4.5133211, 48.3222197], [4.5124317, 48.3221433], [4.5117274, 48.3215309], [4.5113413, 48.3212588], [4.5099094, 48.3203826], [4.5094346, 48.3200883], [4.5085835, 48.3198566], [4.5084825, 48.3197191], [4.5069448, 48.3211745], [4.5068634, 48.3211364], [4.5067823, 48.3210969], [4.5084406, 48.3195195], [4.5080659, 48.3195659], [4.507997, 48.3193521], [4.5074338, 48.3190457], [4.5065686, 48.3183542], [4.505178, 48.3176305], [4.5024239, 48.3149899], [4.5017286, 48.3143392], [4.5011997, 48.3142778], [4.5009701, 48.3136906], [4.4996526, 48.3132518], [4.5018413, 48.3156877], [4.5019797, 48.3162728], [4.5019167, 48.3166254], [4.5014765, 48.3171981], [4.5010527, 48.3178409], [4.4987889, 48.3180793], [4.4979534, 48.3182612], [4.498351, 48.3184318], [4.4997358, 48.3187336], [4.5008682, 48.3192929], [4.5014945, 48.3193343], [4.5019808, 48.3191081], [4.5034046, 48.3194644], [4.5037366, 48.3197687], [4.5042749, 48.3200777], [4.5046534, 48.3201827], [4.5050027, 48.3204691], [4.5054609, 48.3210279], [4.5061854, 48.3211979], [4.506536, 48.3210866], [4.5067026, 48.32117], [4.5067696, 48.3212222], [4.5068292, 48.3212654], [4.5068022, 48.3213527], [4.5075842, 48.3214208], [4.5088365, 48.3222593], [4.5096304, 48.3229045], [4.5110107, 48.3235723], [4.5119908, 48.3241918], [4.5128705, 48.3242678], [4.513632, 48.3247862], [4.5141231, 48.3253165], [4.5143408, 48.325849], [4.5143264, 48.3261072], [4.5140607, 48.3265153], [4.5139112, 48.3266166], [4.5140721, 48.326812], [4.5137127, 48.3272774], [4.5134082, 48.3273706], [4.5129564, 48.3275806], [4.5124134, 48.3287872], [4.5125218, 48.3289295], [4.5119264, 48.3300772], [4.5112678, 48.330124], [4.5104083, 48.3299716], [4.5099214, 48.3297353], [4.5091489, 48.3293608], [4.509212, 48.3295636], [4.5093742, 48.3301525], [4.5098677, 48.3306055], [4.5099233, 48.3308037], [4.5090782, 48.3333263], [4.5090148, 48.3335156], [4.5087935, 48.3339959], [4.5084462, 48.3342823], [4.508064, 48.3343646], [4.5070555, 48.3335758], [4.5069408, 48.3334584], [4.5068261, 48.3333409], [4.5066652, 48.3332588], [4.5064399, 48.3332731], [4.5061824, 48.333833], [4.5058981, 48.3343715], [4.5058341, 48.3347063], [4.505929, 48.3350772], [4.5059881, 48.3353422], [4.5063689, 48.3370506], [4.5057037, 48.3371305], [4.5044311, 48.336847], [4.5041373, 48.3372157], [4.5050385, 48.3389502], [4.5049097, 48.339499], [4.5045418, 48.339917], [4.5039431, 48.3397224], [4.5036652, 48.339632], [4.5026518, 48.3383272], [4.502088, 48.3377863], [4.502009, 48.3375145], [4.501511, 48.3373821], [4.5012264, 48.3375807], [4.5008707, 48.3379827], [4.5004722, 48.3386165], [4.498909, 48.3392879], [4.4986427, 48.3392532], [4.4983184, 48.3392226], [4.4981039, 48.3393474], [4.4984994, 48.3394641], [4.4988066, 48.3395506], [4.4985368, 48.3402981], [4.4958546, 48.3405081], [4.4957602, 48.3409367], [4.4962896, 48.3414255], [4.4978609, 48.3421009], [4.499341, 48.3428728], [4.4995807, 48.3435553], [4.4995668, 48.3442267], [4.4989241, 48.3445361], [4.4985797, 48.3453926], [4.4969704, 48.3452268], [4.4962623, 48.3444327], [4.4947173, 48.3441764], [4.494256, 48.3437906], [4.4940001, 48.3444007], [4.4926467, 48.3449754], [4.4924214, 48.3456439], [4.4916613, 48.3458145], [4.4912416, 48.345911], [4.4909264, 48.3459835], [4.490939, 48.346134], [4.4909575, 48.3463543], [4.4923362, 48.3466638], [4.4928458, 48.3468506], [4.4934641, 48.3470294], [4.493087, 48.3476347], [4.492121, 48.3475064], [4.4915416, 48.3481321], [4.4905009, 48.3472911], [4.4896949, 48.3475053], [4.4897177, 48.3476173], [4.4942914, 48.3519646], [4.4947753, 48.3522217], [4.4952538, 48.3524387], [4.504654, 48.3554893], [4.5054065, 48.3557344], [4.5071413, 48.3560313], [4.5089867, 48.355991], [4.5148472, 48.3548454], [4.5150218, 48.3547667], [4.5153001, 48.3546622], [4.5156481, 48.3545924], [4.5158102, 48.3546215], [4.5195009, 48.3527621], [4.5200267, 48.3526815], [4.5201548, 48.35263], [4.5206093, 48.3522922], [4.520724, 48.3521107], [4.5207451, 48.3520722], [4.5207267, 48.3520023], [4.5207065, 48.3518756], [4.5208464, 48.3517604], [4.5209618, 48.3516984], [4.5210813, 48.3515664], [4.5211926, 48.35157], [4.5216663, 48.3517814], [4.5217727, 48.3517942], [4.5218883, 48.3517771], [4.5225384, 48.3513571], [4.5227837, 48.3511388], [4.5227209, 48.3509819], [4.5228566, 48.3508951], [4.5228751, 48.3508316], [4.5224624, 48.35052], [4.5223009, 48.3503003], [4.5222981, 48.3502275], [4.5223649, 48.3501146], [4.5226397, 48.3500826], [4.5228145, 48.350109], [4.5231648, 48.3500495], [4.5237651, 48.3498115], [4.5244112, 48.3494715], [4.52529, 48.3489448], [4.52533, 48.3489153], [4.5256412, 48.3486861], [4.5256611, 48.3486418], [4.525664, 48.3485923], [4.5256571, 48.3485273], [4.5256414, 48.3484778], [4.5255978, 48.3484879], [4.5254819, 48.3482731], [4.5253782, 48.3482943], [4.525297, 48.348122], [4.5239227, 48.3476487], [4.5240447, 48.3474884], [4.5217735, 48.3466984], [4.5208937, 48.3478315], [4.5208759, 48.3478609], [4.5208654, 48.3478975], [4.5208562, 48.3479292], [4.5208544, 48.3479671], [4.5208579, 48.3479973], [4.5208642, 48.3480346], [4.5208792, 48.3480758], [4.5208983, 48.3481085], [4.5209274, 48.3481466], [4.5209731, 48.3481903], [4.5210125, 48.3482196], [4.5210669, 48.3482505], [4.5211116, 48.3482709], [4.5211795, 48.3482969], [4.5234265, 48.349076], [4.523441, 48.3490662], [4.5234518, 48.3490613], [4.5234673, 48.349059], [4.5234831, 48.349058], [4.5234995, 48.3490603], [4.5235134, 48.3490652], [4.5235221, 48.349071], [4.5235284, 48.3490773], [4.5235328, 48.3490897], [4.5235326, 48.3491007], [4.5235295, 48.3491113], [4.5235185, 48.3491205], [4.5235056, 48.3491279], [4.5234912, 48.3491331], [4.523464, 48.3491462], [4.5234349, 48.3491435], [4.5233703, 48.3491269], [4.521036, 48.3483275], [4.5206694, 48.3481893], [4.5205705, 48.3481754], [4.5200743, 48.3481913], [4.5198655, 48.3482177], [4.519656, 48.3482608], [4.5195084, 48.3483788], [4.5193904, 48.3484823], [4.5193246, 48.3485259], [4.5192549, 48.3485518], [4.5191771, 48.3485589], [4.5190725, 48.3485428], [4.5188378, 48.3484546], [4.5186007, 48.3483554], [4.5184734, 48.3482867], [4.5184634, 48.3482793], [4.518463, 48.3482723], [4.5184797, 48.3482631], [4.5185189, 48.3482503], [4.5185742, 48.3480853], [4.5185994, 48.3479106], [4.5186343, 48.3477128], [4.5186825, 48.3473794], [4.5187641, 48.3472237], [4.5189491, 48.3470936], [4.5191385, 48.3470033], [4.5193021, 48.3468749], [4.5194024, 48.3467388], [4.5195687, 48.346516], [4.5197243, 48.3462878], [4.5198745, 48.3460775], [4.5203949, 48.3455587], [4.5205182, 48.345482], [4.5206497, 48.3454464], [4.5207811, 48.3454446], [4.5208884, 48.3454749], [4.5209501, 48.3454517], [4.5211647, 48.3452111], [4.5212129, 48.3452004], [4.5213202, 48.3451933], [4.5214972, 48.3450738], [4.5218475, 48.3448623], [4.5221828, 48.3446733], [4.5223089, 48.3445967], [4.5224296, 48.3445254], [4.5225288, 48.344479], [4.5226442, 48.3444558], [4.5228105, 48.3444202], [4.5231243, 48.3443096], [4.5243715, 48.3438247], [4.5246424, 48.3436857], [4.5247658, 48.3435894], [4.5248865, 48.3435056], [4.5250984, 48.3432222], [4.525498, 48.3427658], [4.5256, 48.3425946], [4.5256375, 48.3424039], [4.5256965, 48.3422184], [4.5257528, 48.3420937], [4.5256922, 48.3419843], [4.5257003, 48.3418613], [4.5257941, 48.3416848], [4.5258505, 48.3415903], [4.5258317, 48.3415118], [4.5259578, 48.3413995], [4.5261267, 48.3413442], [4.5264191, 48.3413656], [4.5266659, 48.3412622], [4.5268418, 48.3411577], [4.5270081, 48.3410507], [4.5270913, 48.3409277], [4.5271621, 48.3407862], [4.5271111, 48.340722], [4.5270172, 48.3406864], [4.5266916, 48.340646], [4.5263081, 48.3406424], [4.5255903, 48.3405847], [4.5251692, 48.3404528], [4.5247685, 48.3403072], [4.5245335, 48.340205], [4.5244064, 48.3401985], [4.5243458, 48.3401765], [4.5244171, 48.3400897], [4.5245432, 48.3400166], [4.5245566, 48.3399346], [4.5244922, 48.3397991], [4.5242974, 48.3395525]]]}}, {"type": "Feature", "properties": {"name": "Étang de Ramerupt"}, "geometry": {"type": "Polygon", "coordinates": [[[4.635991, 48.3411312], [4.6364783, 48.3418483], [4.63669, 48.3425004], [4.6366301, 48.3429554], [4.6370923, 48.3429577], [4.6382109, 48.3427912], [4.6388213, 48.3426598], [4.6389483, 48.342552], [4.63922, 48.3426036], [4.6398164, 48.342498], [4.6399363, 48.342369], [4.6399399, 48.342233], [4.6400422, 48.3420805], [4.6400251, 48.3417976], [4.6401699, 48.3415879], [4.640075, 48.3409285], [4.6403246, 48.3403978], [4.6403421, 48.3400002], [4.6405115, 48.3397656], [4.640448, 48.3395053], [4.6404571, 48.3392474], [4.6406385, 48.3385483], [4.6399857, 48.3382082], [4.6399469, 48.3381495], [4.6395058, 48.3380182], [4.6388636, 48.3378822], [4.6387225, 48.337861], [4.638472, 48.3376922], [4.6381473, 48.3375866], [4.6378233, 48.3375755], [4.6375369, 48.3375936], [4.6369688, 48.337732], [4.6368312, 48.3377344], [4.6366865, 48.3376171], [4.6365242, 48.337718], [4.6364183, 48.3377461], [4.6358467, 48.3369463], [4.6363548, 48.3381519], [4.6363054, 48.3385366], [4.6361537, 48.3387312], [4.6359279, 48.338818], [4.6350598, 48.3390385], [4.6342941, 48.3391229], [4.6341601, 48.3391792], [4.6334755, 48.3392168], [4.6330733, 48.3391863], [4.6321417, 48.3395451], [4.6319194, 48.339578], [4.6310161, 48.3394349], [4.6318665, 48.3396225], [4.6320782, 48.3397281], [4.6321629, 48.3399532], [4.6322229, 48.3401456], [4.6321347, 48.3402042], [4.6321488, 48.3403144], [4.6320747, 48.340359], [4.6316213, 48.340332], [4.6318365, 48.3404047], [4.6321664, 48.3403965], [4.6322582, 48.3403778], [4.6323182, 48.3403015], [4.6323905, 48.340291], [4.6324646, 48.3403062], [4.6326322, 48.3403309], [4.6327134, 48.3402535], [4.6330556, 48.3401503], [4.6343577, 48.3401221], [4.6350121, 48.340222], [4.6355821, 48.3405138], [4.635991, 48.3411312]]]}}, {"type": "Feature", "properties": {"name": "Étang de Laborde"}, "geometry": {"type": "Polygon", "coordinates": [[[4.6274931, 48.3328569], [4.6282216, 48.3328458], [4.6300638, 48.3322877], [4.6312042, 48.3323654], [4.632334, 48.332634], [4.6330045, 48.3319036], [4.633461, 48.3312021], [4.6334734, 48.3309982], [4.6328309, 48.3309142], [4.6321036, 48.3305187], [4.6320505, 48.3302817], [4.6305778, 48.3299139], [4.6296849, 48.3295013], [4.6287409, 48.3290554], [4.6284877, 48.3285575], [4.6276224, 48.3281923], [4.6265372, 48.3282208], [4.6263526, 48.3285975], [4.6267265, 48.3288864], [4.6266713, 48.3295041], [4.6261826, 48.330783], [4.6260893, 48.3317299], [4.6274931, 48.3328569]]]}}, {"type": "Feature", "properties": {"name": "Étang de la Horre"}, "geometry": {"type": "Polygon", "coordinates": [[[4.6599122, 48.505279], [4.6595765, 48.5053194], [4.6590746, 48.5043242], [4.6646753, 48.5026963], [4.664866, 48.5022879], [4.6665288, 48.5012231], [4.6675899, 48.5012898], [4.6690874, 48.5000844], [4.6697017, 48.499409], [4.6706379, 48.4991994], [4.6709699, 48.4994357], [4.6712391, 48.499554], [4.6720229, 48.4996622], [4.6726175, 48.5001541], [4.6732591, 48.500373], [4.6733421, 48.4995895], [4.6712879, 48.4983824], [4.6694991, 48.4977747], [4.666959, 48.4964398], [4.6645704, 48.495851], [4.6637815, 48.4961552], [4.6627079, 48.4956525], [4.6620918, 48.4948844], [4.6620841, 48.4943112], [4.6636264, 48.4943438], [4.6645228, 48.4942475], [4.6647265, 48.4935419], [4.6646119, 48.4930585], [4.6644951, 48.4926201], [4.6653859, 48.4919056], [4.6670105, 48.4916419], [4.6678073, 48.4914756], [4.6688032, 48.4914492], [4.6695462, 48.4913648], [4.6691482, 48.4904823], [4.6655429, 48.4907423], [4.6645597, 48.4915463], [4.663726, 48.4921946], [4.6635135, 48.4925675], [4.6627068, 48.4927228], [4.6619785, 48.49289], [4.6615621, 48.4929971], [4.6609516, 48.4928472], [4.660386, 48.4924694], [4.6596727, 48.4915863], [4.659056, 48.4908407], [4.6581975, 48.4901133], [4.6574455, 48.4893681], [4.6573409, 48.4889722], [4.6568734, 48.4882708], [4.6564384, 48.4875216], [4.6563819, 48.4874103], [4.6562069, 48.4864582], [4.656535, 48.4852983], [4.6565798, 48.4850075], [4.6574345, 48.4846465], [4.6575608, 48.4843715], [4.6573797, 48.4840788], [4.6568892, 48.4835645], [4.6565594, 48.4830267], [4.6565064, 48.4829402], [4.6562801, 48.4826613], [4.6557007, 48.4825805], [4.6551915, 48.4823077], [4.654769, 48.4820406], [4.6545547, 48.4818804], [4.6540922, 48.4815645], [4.6537759, 48.4812726], [4.6535663, 48.4810473], [4.653325, 48.4809187], [4.6532526, 48.480796], [4.6533143, 48.4806413], [4.6534323, 48.4805151], [4.6535007, 48.4802633], [4.6534779, 48.4800226], [4.6533056, 48.4798989], [4.6531085, 48.4798462], [4.6528637, 48.4798537], [4.652474, 48.4798671], [4.6520374, 48.4799025], [4.6517265, 48.4799489], [4.6514045, 48.4799781], [4.6509513, 48.480051], [4.6508623, 48.4801353], [4.6510398, 48.4803577], [4.6511363, 48.48042], [4.6512919, 48.4805391], [4.6513804, 48.4806929], [4.6514421, 48.4808298], [4.6513879, 48.4809692], [4.6512356, 48.4810031], [4.6510049, 48.4809596], [4.6509432, 48.481068], [4.6507957, 48.4810983], [4.6506763, 48.4810938], [4.650737, 48.4811759], [4.6507308, 48.4820664], [4.6510873, 48.4825181], [4.6510149, 48.4828863], [4.651055, 48.4832162], [4.6513612, 48.48347], [4.6516739, 48.4836654], [4.6519648, 48.4841335], [4.6526521, 48.4845503], [4.6531068, 48.4848142], [4.6530173, 48.4849622], [4.6527106, 48.4850338], [4.6516785, 48.4850023], [4.6500619, 48.48489], [4.6492715, 48.484856], [4.6483434, 48.484845], [4.6478321, 48.4849651], [4.6472311, 48.4855255], [4.6470422, 48.4860531], [4.6468495, 48.4865133], [4.6465543, 48.4869508], [4.6459501, 48.4874392], [4.6454781, 48.4877228], [4.6455239, 48.4880884], [4.6461209, 48.4884904], [4.6472892, 48.4885193], [4.6487951, 48.4883842], [4.6489361, 48.48852], [4.6490805, 48.4887383], [4.6494349, 48.4891641], [4.6498869, 48.4897759], [4.6511806, 48.4901205], [4.6513577, 48.4902227], [4.6524935, 48.4902072], [4.6533935, 48.4901941], [4.654727, 48.4899112], [4.655443, 48.4901651], [4.6561044, 48.4909301], [4.6574159, 48.4924873], [4.657613, 48.4927127], [4.6575543, 48.4931705], [4.6564941, 48.4938908], [4.6558687, 48.4945378], [4.6534646, 48.4949658], [4.6538687, 48.4960686], [4.6535022, 48.4966459], [4.6524739, 48.497035], [4.6505438, 48.4964376], [4.6492862, 48.496343], [4.6485042, 48.4962179], [4.6480404, 48.4966484], [4.6503303, 48.4976896], [4.6520536, 48.4998385], [4.6533122, 48.5033791], [4.6537399, 48.504173], [4.6551582, 48.5048607], [4.6567526, 48.5052377], [4.6577563, 48.5055739], [4.6589337, 48.5059683], [4.6599122, 48.505279]]]}}, {"type": "Feature", "properties": {"name": "Étang du Parc aux Pourceaux"}, "geometry": {"type": "Polygon", "coordinates": [[[4.405359, 48.2594159], [4.4054812, 48.2596425], [4.4070955, 48.2600201], [4.4078387, 48.2603232], [4.4083776, 48.2607575], [4.4087345, 48.261137], [4.4092775, 48.2615231], [4.40966, 48.2620407], [4.4109336, 48.2619166], [4.4108525, 48.2605754], [4.4119415, 48.2582125], [4.4114957, 48.2572166], [4.4118782, 48.256625], [4.4128655, 48.2563292], [4.4137961, 48.2552112], [4.4140306, 48.2543156], [4.4137695, 48.2540925], [4.413424, 48.2541253], [4.4125287, 48.2539029], [4.4120741, 48.2535132], [4.4117844, 48.2529777], [4.4115738, 48.2528045], [4.4104353, 48.2531405], [4.4090911, 48.2535805], [4.4094422, 48.2542501], [4.4097268, 48.2553419], [4.409048, 48.2560485], [4.4074713, 48.2565361], [4.407081, 48.2569799], [4.4072167, 48.2574318], [4.4076157, 48.2579275], [4.4072579, 48.2585375], [4.4062842, 48.2587476], [4.4055808, 48.2588626], [4.405359, 48.2594159]]]}}, {"type": "Feature", "properties": {"name": "Plan d'eau du Monteuil"}, "geometry": {"type": "Polygon", "coordinates": [[[3.4944088, 48.5045044], [3.4924618, 48.5028557], [3.491645, 48.5022767], [3.4901728, 48.5014586], [3.4899639, 48.5020313], [3.4893181, 48.5026543], [3.4898404, 48.502906], [3.4901064, 48.503485], [3.4901823, 48.5041268], [3.4898594, 48.5050393], [3.4893181, 48.5055364], [3.4890521, 48.5057504], [3.4891661, 48.5059643], [3.4888527, 48.5062852], [3.4888052, 48.5065621], [3.4886722, 48.506883], [3.4883778, 48.5070089], [3.4880264, 48.5070151], [3.487428, 48.5073801], [3.4872191, 48.5073801], [3.4871526, 48.5072417], [3.487447, 48.5069522], [3.4873995, 48.5065684], [3.4871811, 48.5064614], [3.4869057, 48.5064237], [3.4866777, 48.5064237], [3.4864688, 48.5065684], [3.4863358, 48.5065747], [3.4861934, 48.5064237], [3.4858609, 48.5064614], [3.4853386, 48.5066754], [3.4852816, 48.5070969], [3.4859274, 48.5077702], [3.4860889, 48.5081037], [3.4860129, 48.5085001], [3.4860319, 48.5086763], [3.4864593, 48.5094251], [3.4866112, 48.5098026], [3.4872476, 48.5099599], [3.4878364, 48.5101487], [3.4880929, 48.5101675], [3.4882828, 48.5098341], [3.4883398, 48.509444], [3.4886722, 48.5087204], [3.4886817, 48.5080093], [3.4892136, 48.5073927], [3.4905812, 48.5066439], [3.4908662, 48.5065432], [3.4911416, 48.5063607], [3.491398, 48.5060461], [3.4916165, 48.5059203], [3.4919394, 48.5059391], [3.4922718, 48.5058322], [3.4926232, 48.5055238], [3.4930696, 48.5053099], [3.493345, 48.5050833], [3.4938294, 48.504926], [3.4944088, 48.5045044]]]}}, {"type": "Feature", "properties": {"name": "Lac d'Orient"}, "geometry": {"type": "Polygon", "coordinates": [[[4.3537002, 48.2954679], [4.3529969, 48.2966035], [4.3527786, 48.29748], [4.35302, 48.297737], [4.3528001, 48.2989714], [4.353193, 48.2995968], [4.3540687, 48.3000445], [4.3548879, 48.3002529], [4.3562226, 48.3004505], [4.3570922, 48.3006098], [4.3576339, 48.3008185], [4.3579746, 48.300862], [4.3581441, 48.3008533], [4.3582478, 48.3009205], [4.3589384, 48.3009957], [4.3596369, 48.3008271], [4.3599069, 48.3006661], [4.3604468, 48.3007218], [4.3611329, 48.3010202], [4.3616098, 48.3011206], [4.3621723, 48.3009219], [4.3623287, 48.3007923], [4.3625021, 48.2990574], [4.3639323, 48.2979169], [4.3651168, 48.2984432], [4.3658817, 48.2985125], [4.3663136, 48.2991331], [4.3668945, 48.2990749], [4.3670823, 48.2988137], [4.3689073, 48.2978926], [4.3690725, 48.29659], [4.3685183, 48.2954005], [4.368815, 48.295246], [4.3698099, 48.2952785], [4.3710922, 48.2957813], [4.3717724, 48.2957377], [4.3723743, 48.2956218], [4.3730438, 48.2949815], [4.373113, 48.2944633], [4.372951, 48.2940828], [4.371384, 48.2931249], [4.3719408, 48.2926963], [4.3726688, 48.2927444], [4.3745517, 48.2925389], [4.3753633, 48.2929318], [4.3777142, 48.2931651], [4.3787478, 48.2906725], [4.3768125, 48.2897291], [4.3771336, 48.2889632], [4.3763912, 48.2886455], [4.3763918, 48.2883018], [4.3761621, 48.2881244], [4.3763059, 48.2876243], [4.3759759, 48.2872785], [4.3763874, 48.2868487], [4.3763882, 48.2866528], [4.3754492, 48.2859506], [4.3753886, 48.2853702], [4.3760113, 48.2849576], [4.3772227, 48.2842879], [4.3774134, 48.2841496], [4.3774778, 48.2840282], [4.3771291, 48.2839961], [4.3770154, 48.2838052], [4.3771506, 48.2835749], [4.3773383, 48.2834071], [4.3772578, 48.2831822], [4.3770272, 48.282993], [4.3769166, 48.2830288], [4.3765837, 48.2831366], [4.3758756, 48.2832912], [4.3751818, 48.2832643], [4.3746799, 48.2829614], [4.3746722, 48.2824896], [4.3747894, 48.2817569], [4.3751335, 48.2812152], [4.3748331, 48.2809653], [4.3745005, 48.2807011], [4.3743986, 48.2807368], [4.3745756, 48.2812259], [4.374404, 48.2814687], [4.373948, 48.2819149], [4.37357, 48.2826304], [4.3731698, 48.2832544], [4.3722294, 48.2839673], [4.3710697, 48.2849879], [4.3702237, 48.2859078], [4.3692354, 48.2861807], [4.3684009, 48.2865149], [4.3671118, 48.2870882], [4.3667116, 48.2871214], [4.3660174, 48.2864157], [4.3655051, 48.2855508], [4.3652952, 48.2857202], [4.3648995, 48.2865299], [4.3633425, 48.2876263], [4.3620784, 48.2889429], [4.3616903, 48.2889684], [4.3613148, 48.2888471], [4.360829, 48.288436], [4.3612238, 48.2875287], [4.3615371, 48.28646], [4.3611047, 48.2849422], [4.3614201, 48.2843], [4.3609996, 48.2830938], [4.3602196, 48.2820614], [4.3603767, 48.2812925], [4.3615956, 48.2808941], [4.3629753, 48.2806485], [4.3636453, 48.2807374], [4.3652369, 48.2804268], [4.3654655, 48.2803281], [4.3657874, 48.280096], [4.3663453, 48.279889], [4.3669407, 48.2799104], [4.3673216, 48.2800246], [4.367622, 48.2797354], [4.3678754, 48.279346], [4.3669474, 48.27895], [4.3668892, 48.2787065], [4.3666178, 48.2782791], [4.3668039, 48.2774608], [4.3668446, 48.2761148], [4.3671794, 48.2752194], [4.3665421, 48.2745521], [4.3665638, 48.2743713], [4.3667073, 48.2740051], [4.3671434, 48.2735706], [4.3672185, 48.2731207], [4.3665668, 48.2726491], [4.3662594, 48.2721113], [4.3656242, 48.27162], [4.3654848, 48.2710412], [4.3654853, 48.2703907], [4.3650787, 48.2693973], [4.3650508, 48.2691103], [4.3658138, 48.2686512], [4.3656499, 48.2683517], [4.3654307, 48.2680422], [4.3646914, 48.2684272], [4.364207, 48.2687003], [4.3636812, 48.2693157], [4.3634404, 48.2697294], [4.3622103, 48.2687003], [4.3624474, 48.2677923], [4.3625853, 48.2671716], [4.3624496, 48.2663125], [4.3617937, 48.265939], [4.3611251, 48.2661207], [4.3609679, 48.2658558], [4.3610318, 48.2656994], [4.3608402, 48.2654455], [4.3605806, 48.2654994], [4.360376, 48.2653341], [4.3600222, 48.2654062], [4.3595326, 48.2649117], [4.3588844, 48.2651437], [4.3585255, 48.2650005], [4.358503, 48.2645059], [4.3586612, 48.2642999], [4.3583528, 48.2640413], [4.358363, 48.2637846], [4.3582219, 48.2633853], [4.3578131, 48.2633068], [4.3576087, 48.2634221], [4.3573303, 48.2636071], [4.3571393, 48.263671], [4.3569451, 48.2637928], [4.3568074, 48.2635871], [4.3563765, 48.2634214], [4.3562242, 48.2635149], [4.3559034, 48.2632296], [4.3556137, 48.2635282], [4.3553369, 48.2635989], [4.3553567, 48.2640113], [4.3551411, 48.2641556], [4.3548985, 48.2639987], [4.3545784, 48.2639731], [4.3541771, 48.2637567], [4.3540183, 48.2640203], [4.3537565, 48.2641781], [4.3533837, 48.2640838], [4.3530103, 48.2638842], [4.3526745, 48.264052], [4.3524197, 48.2639274], [4.3522427, 48.2640717], [4.3521617, 48.2643984], [4.3516682, 48.264492], [4.3514804, 48.2650155], [4.3511092, 48.2650848], [4.3508528, 48.2649991], [4.3503136, 48.2652212], [4.349958, 48.2657351], [4.3509359, 48.266821], [4.3506731, 48.267162], [4.3497198, 48.267252], [4.3489387, 48.2680122], [4.34931, 48.2673231], [4.3489473, 48.2665142], [4.3481561, 48.265979], [4.3476013, 48.265754], [4.3471996, 48.2658068], [4.346491, 48.2655065], [4.3453242, 48.265594], [4.3440225, 48.2656751], [4.3433071, 48.2657197], [4.3406357, 48.2647227], [4.343517, 48.262626], [4.3436243, 48.262171], [4.3432863, 48.2614246], [4.3426324, 48.2609111], [4.3413624, 48.2597786], [4.3412393, 48.2596683], [4.3388993, 48.2581668], [4.337585, 48.2575065], [4.3363644, 48.2567487], [4.3357905, 48.2569929], [4.3357287, 48.2569445], [4.3356632, 48.2568931], [4.3357847, 48.2568214], [4.3363185, 48.2566464], [4.3362906, 48.2564675], [4.33626, 48.2563264], [4.3365121, 48.256125], [4.3361556, 48.2557848], [4.3358948, 48.2555892], [4.3356338, 48.2553808], [4.3351681, 48.255049], [4.334954, 48.2551416], [4.3345114, 48.2552485], [4.3344217, 48.2552194], [4.3343697, 48.2552656], [4.3342151, 48.2552918], [4.3340467, 48.2553878], [4.3328043, 48.2560971], [4.3324357, 48.2563739], [4.3322464, 48.2566478], [4.332043, 48.2570325], [4.3320649, 48.2573909], [4.3323377, 48.2578091], [4.3334493, 48.2586385], [4.3340716, 48.2586642], [4.3340956, 48.2587579], [4.3333651, 48.2587493], [4.3323794, 48.2580175], [4.3320731, 48.2577532], [4.3319509, 48.2576052], [4.3318406, 48.2574095], [4.3318212, 48.2572021], [4.3318785, 48.2569034], [4.3319917, 48.2566544], [4.3322933, 48.256298], [4.3326019, 48.2560125], [4.3329894, 48.2557579], [4.3337957, 48.2553209], [4.3337465, 48.2551134], [4.3335047, 48.2549921], [4.3332921, 48.255006], [4.3330075, 48.2551026], [4.3327982, 48.2551043], [4.3324133, 48.2549787], [4.3322273, 48.2548429], [4.3321937, 48.2546915], [4.3322118, 48.2544954], [4.3325373, 48.2541772], [4.3324598, 48.2540258], [4.3322841, 48.2539863], [4.3321136, 48.2539983], [4.3319715, 48.2539656], [4.3319073, 48.2538342], [4.3321718, 48.2532347], [4.3323944, 48.2531715], [4.3320801, 48.252909], [4.3317673, 48.2528147], [4.3312587, 48.2525404], [4.3302959, 48.2519163], [4.3294853, 48.2517849], [4.3291994, 48.2515641], [4.3292809, 48.2511509], [4.3292434, 48.2509673], [4.3283614, 48.2503354], [4.3278481, 48.2500532], [4.3267478, 48.2495127], [4.3258568, 48.2488579], [4.3253997, 48.2482932], [4.325076, 48.2480582], [4.3250548, 48.2478724], [4.3248274, 48.247528], [4.3236912, 48.2465856], [4.323379, 48.2464738], [4.322614, 48.2463092], [4.3225904, 48.2460652], [4.3224622, 48.2456697], [4.3221489, 48.2453564], [4.3217235, 48.2453335], [4.3216232, 48.2454336], [4.3213646, 48.245402], [4.3212006, 48.2453769], [4.3210178, 48.245382], [4.3206147, 48.2453096], [4.3205889, 48.2451614], [4.3203776, 48.2450703], [4.3202344, 48.2447795], [4.320214, 48.2446466], [4.319876, 48.2445426], [4.3194575, 48.2441563], [4.3191739, 48.2440175], [4.3188134, 48.2440552], [4.3187428, 48.2439883], [4.3192953, 48.243606], [4.3193038, 48.2432367], [4.3194522, 48.2429669], [4.3192499, 48.2427701], [4.3166512, 48.2443575], [4.3137271, 48.2461174], [4.3077975, 48.2496822], [4.3025203, 48.2528924], [4.3018736, 48.2532637], [4.3019731, 48.2535144], [4.302174, 48.2536871], [4.3023165, 48.2537455], [4.3023494, 48.2538428], [4.30228, 48.2539158], [4.3019926, 48.2541651], [4.3014659, 48.254576], [4.3009665, 48.2551478], [4.3005405, 48.2557802], [4.2998617, 48.2568014], [4.2997412, 48.2571017], [4.2997, 48.2575114], [4.2995874, 48.2577263], [4.2994026, 48.2579206], [4.2992311, 48.2582295], [4.2992011, 48.2583344], [4.2992217, 48.2584019], [4.2994375, 48.2586554], [4.2995613, 48.2588565], [4.2996964, 48.2590339], [4.2997396, 48.2591576], [4.2997366, 48.2592732], [4.2996495, 48.2593861], [4.299445, 48.2594698], [4.2993043, 48.259551], [4.2991798, 48.2596864], [4.299051, 48.2599307], [4.2989131, 48.2603934], [4.2988721, 48.260531], [4.2988493, 48.260808], [4.2989131, 48.2610678], [4.2991007, 48.261435], [4.2994126, 48.2616467], [4.3002963, 48.2620725], [4.3014159, 48.2624617], [4.3014947, 48.2626466], [4.3012958, 48.2628989], [4.3010668, 48.2629943], [4.3005716, 48.2629424], [4.2998377, 48.2627852], [4.2994103, 48.26278], [4.2989675, 48.2628175], [4.2985284, 48.2629272], [4.2982977, 48.2631597], [4.2983034, 48.2633695], [4.2982752, 48.2636256], [4.2983669, 48.2638955], [4.2984832, 48.2642211], [4.2985065, 48.2642778], [4.2985601, 48.2643297], [4.298615, 48.2643653], [4.2989254, 48.2644783], [4.3001722, 48.265379], [4.3009005, 48.2657926], [4.3010283, 48.2658485], [4.3016319, 48.2660975], [4.3038288, 48.266959], [4.3067471, 48.267069], [4.3054886, 48.2675254], [4.304494, 48.2687337], [4.3022977, 48.2682525], [4.301587, 48.2681195], [4.3015886, 48.2684174], [4.3013939, 48.2685263], [4.302121, 48.2707946], [4.3022223, 48.2709969], [4.3022887, 48.2712911], [4.3022555, 48.2718748], [4.3022232, 48.2728121], [4.3032832, 48.2741353], [4.3039591, 48.2746837], [4.3050599, 48.2748958], [4.3062637, 48.2746587], [4.3073868, 48.2737786], [4.3101583, 48.2708876], [4.3127618, 48.2706696], [4.3127288, 48.2711367], [4.3125045, 48.2712978], [4.3122042, 48.2713968], [4.3112161, 48.2721644], [4.3102473, 48.2734248], [4.3100148, 48.2739724], [4.3103426, 48.2747601], [4.3108213, 48.2755086], [4.3114209, 48.2758479], [4.3118781, 48.2762495], [4.3109972, 48.2766902], [4.3108199, 48.2773053], [4.3098289, 48.2771343], [4.3071713, 48.2768594], [4.306787, 48.2771906], [4.3064795, 48.2782366], [4.3067424, 48.2786626], [4.3068926, 48.2790803], [4.3069021, 48.2793297], [4.3092473, 48.2824805], [4.3098109, 48.2831215], [4.3099986, 48.2833463], [4.3101327, 48.2834249], [4.31024, 48.2834249], [4.3102776, 48.2834014], [4.3097352, 48.282534], [4.3112169, 48.2822301], [4.3114575, 48.2822644], [4.3120047, 48.2822216], [4.3130239, 48.2821145], [4.3133136, 48.281986], [4.3136891, 48.2814791], [4.3137642, 48.2813791], [4.3148672, 48.2812788], [4.3159636, 48.2811792], [4.3162801, 48.2811525], [4.3168809, 48.281074], [4.3171223, 48.2811168], [4.3174281, 48.2811418], [4.3180289, 48.2811097], [4.3183937, 48.2810668], [4.3189945, 48.2809597], [4.3196543, 48.2808062], [4.3199815, 48.2806884], [4.3207433, 48.280435], [4.3214085, 48.2802922], [4.3217894, 48.2803778], [4.3220737, 48.2805528], [4.3221702, 48.2807884], [4.3219986, 48.2810311], [4.3218001, 48.2812382], [4.3213441, 48.2814095], [4.3210062, 48.2814095], [4.3206789, 48.2813382], [4.3202712, 48.2813596], [4.3198153, 48.2815202], [4.3194183, 48.2817772], [4.3191179, 48.2819058], [4.3184956, 48.281945], [4.318163, 48.2819129], [4.3178411, 48.2818986], [4.3176534, 48.2818237], [4.3175783, 48.2817023], [4.3174764, 48.2816559], [4.317353, 48.2816594], [4.3171169, 48.2818665], [4.3169507, 48.2820521], [4.3166932, 48.2822842], [4.3162801, 48.2825448], [4.3159797, 48.2826554], [4.3156525, 48.2828553], [4.3154164, 48.282941], [4.3152126, 48.2830695], [4.3149819, 48.2832516], [4.314703, 48.2833444], [4.3144723, 48.2833194], [4.3140176, 48.2831525], [4.3137428, 48.2833354], [4.3142041, 48.2840564], [4.3136784, 48.2838994], [4.3127235, 48.2844562], [4.3125304, 48.284599], [4.3126377, 48.2846633], [4.3125626, 48.2848203], [4.3123587, 48.2848203], [4.3122407, 48.2846847], [4.3118381, 48.2847926], [4.3114522, 48.2848025], [4.3104326, 48.2836336], [4.310331, 48.2837014], [4.3103098, 48.2837783], [4.3104225, 48.2840353], [4.3110876, 48.2851562], [4.311377, 48.2851685], [4.3115648, 48.2852149], [4.3115165, 48.2854398], [4.3115809, 48.2855647], [4.3114897, 48.2855826], [4.3113663, 48.2855826], [4.3112697, 48.2855183], [4.3111356, 48.2855183], [4.3109371, 48.2853969], [4.3107998, 48.2853122], [4.3100327, 48.2856892], [4.3092334, 48.28554], [4.307748, 48.2860308], [4.3074575, 48.2869316], [4.3080337, 48.2868188], [4.3087182, 48.286918], [4.3091308, 48.2871847], [4.3081259, 48.2889733], [4.3085615, 48.2894138], [4.309201, 48.2894851], [4.3094252, 48.2897864], [4.3090647, 48.2911648], [4.3090196, 48.2922734], [4.3085057, 48.2929158], [4.3077805, 48.2934512], [4.3082397, 48.2945119], [4.3092149, 48.2944113], [4.3103253, 48.2946554], [4.3108521, 48.2948353], [4.3116375, 48.294507], [4.3119336, 48.2941422], [4.3122984, 48.2939616], [4.3126342, 48.2941165], [4.3131106, 48.2940608], [4.3136835, 48.2936575], [4.3146564, 48.2928508], [4.3148207, 48.2924761], [4.3158046, 48.2917274], [4.3162533, 48.2912743], [4.3165108, 48.2908746], [4.3164679, 48.2903463], [4.3166607, 48.2896893], [4.316587, 48.2891012], [4.3165534, 48.2888327], [4.3170899, 48.2885614], [4.3176404, 48.2886204], [4.3184451, 48.2886953], [4.3190083, 48.2888595], [4.3194589, 48.2888809], [4.3200597, 48.2888631], [4.3211809, 48.2887703], [4.3218354, 48.288856], [4.3225596, 48.2889309], [4.3233988, 48.2890614], [4.3245789, 48.2891613], [4.325228, 48.289786], [4.3253196, 48.2900036], [4.3256897, 48.2906603], [4.3262208, 48.2907781], [4.3263817, 48.2908781], [4.3262262, 48.2914099], [4.3259874, 48.2916531], [4.3256548, 48.2918244], [4.3248582, 48.2919845], [4.3234072, 48.2921242], [4.3226615, 48.2922706], [4.3226374, 48.2925411], [4.322455, 48.2928873], [4.3220392, 48.2931807], [4.321653, 48.2932449], [4.3210897, 48.2930593], [4.3206847, 48.292898], [4.3200973, 48.292888], [4.3196735, 48.2929951], [4.3195528, 48.2932692], [4.3196923, 48.2936368], [4.320277, 48.2940722], [4.3204567, 48.294337], [4.3204379, 48.2946218], [4.3200517, 48.2948824], [4.3194616, 48.2951036], [4.3191237, 48.2952785], [4.3191666, 48.2957639], [4.3197191, 48.2960887], [4.3201322, 48.2963385], [4.3203628, 48.2967667], [4.3203038, 48.2969737], [4.3201054, 48.2971058], [4.3193758, 48.2970665], [4.3185229, 48.2970237], [4.3175948, 48.2971129], [4.3166989, 48.2972628], [4.316133, 48.2973991], [4.3158648, 48.2976097], [4.3157146, 48.2978488], [4.3157119, 48.298262], [4.316184, 48.2986439], [4.3168116, 48.2986831], [4.317171, 48.2986439], [4.3174929, 48.2986439], [4.3180266, 48.2987303], [4.3182305, 48.2989408], [4.3184129, 48.2992049], [4.3187938, 48.2993762], [4.3198666, 48.2996474], [4.3202824, 48.2998001], [4.3204379, 48.2998394], [4.3205667, 48.2999322], [4.3206096, 48.3001177], [4.3205667, 48.3002212], [4.3200383, 48.3005824], [4.3191827, 48.3012026], [4.3186784, 48.3018413], [4.3185658, 48.3021446], [4.3186677, 48.3024123], [4.318952, 48.3026442], [4.3197272, 48.3029875], [4.3202985, 48.3030903], [4.3209315, 48.3031795], [4.3215055, 48.3032401], [4.3219453, 48.3032722], [4.3224845, 48.3033408], [4.3224818, 48.3035078], [4.3223423, 48.3038182], [4.3222994, 48.3040359], [4.3224335, 48.3043677], [4.3226427, 48.3046889], [4.3227983, 48.3048102], [4.3229726, 48.3048751], [4.3236992, 48.3048136], [4.3239566, 48.3048136], [4.3242892, 48.3048136], [4.3245575, 48.3047494], [4.3247828, 48.304621], [4.3249973, 48.3044782], [4.3252548, 48.3042427], [4.3258342, 48.3040429], [4.3262097, 48.3040286], [4.326553, 48.3041785], [4.3267569, 48.3044854], [4.3268726, 48.3045397], [4.3270362, 48.3045033], [4.3271703, 48.3044034], [4.3276209, 48.3041144], [4.3277792, 48.3040366], [4.3279159, 48.3038789], [4.3281144, 48.3035934], [4.3280715, 48.3033329], [4.3278462, 48.3030439], [4.3277711, 48.302894], [4.3277765, 48.3027013], [4.3277926, 48.3025407], [4.3273527, 48.3017236], [4.3267358, 48.3009242], [4.3263227, 48.2999571], [4.3261189, 48.299611], [4.3262798, 48.2992042], [4.3264032, 48.299065], [4.3266285, 48.298908], [4.3268699, 48.2987331], [4.327122, 48.2983905], [4.3273795, 48.2982835], [4.3277389, 48.2982513], [4.3280286, 48.2983084], [4.3282432, 48.2983191], [4.3286321, 48.2983163], [4.3288789, 48.2983056], [4.3290586, 48.2984119], [4.3292839, 48.2986546], [4.3296165, 48.2991685], [4.3298954, 48.2997216], [4.3301958, 48.3000999], [4.3306572, 48.3006173], [4.3314618, 48.3009849], [4.331714, 48.3010634], [4.3320787, 48.301067], [4.332465, 48.3010884], [4.3334682, 48.301249], [4.3338442, 48.3014744], [4.3345906, 48.3013686], [4.3355703, 48.3011286], [4.3358844, 48.3009964], [4.3356891, 48.3005501], [4.3360025, 48.3004392], [4.3363219, 48.3002339], [4.3366181, 48.3002515], [4.3371234, 48.3006832], [4.3373194, 48.3006244], [4.3377073, 48.3003814], [4.3377368, 48.3000705], [4.3381421, 48.3000721], [4.3385291, 48.3002972], [4.3394035, 48.3003712], [4.3401443, 48.2999771], [4.3401003, 48.2995106], [4.3405933, 48.2993907], [4.3409871, 48.2996245], [4.344563, 48.2992055], [4.3451123, 48.2992662], [4.3463606, 48.2989996], [4.347419, 48.2990281], [4.3487558, 48.2980931], [4.3488398, 48.2978357], [4.3481796, 48.2968532], [4.3479761, 48.2959621], [4.3477937, 48.2952876], [4.3472251, 48.2949628], [4.3462005, 48.2947986], [4.3459645, 48.2946844], [4.3457714, 48.2943275], [4.3454978, 48.2936459], [4.3451223, 48.2929499], [4.3447996, 48.2924982], [4.3440485, 48.2913757], [4.3435451, 48.2908727], [4.3435827, 48.2905264], [4.3437651, 48.2902123], [4.3435988, 48.2897198], [4.343283, 48.2895211], [4.3425795, 48.2892451], [4.3419097, 48.2890774], [4.3413672, 48.2891701], [4.3410936, 48.2891059], [4.3402353, 48.2889024], [4.3399456, 48.2886383], [4.3391302, 48.2876995], [4.3387654, 48.2868928], [4.3384275, 48.2857684], [4.3382236, 48.2851152], [4.338347, 48.284876], [4.3383899, 48.2844834], [4.3383685, 48.2838087], [4.3380817, 48.2823749], [4.3376289, 48.2813399], [4.3358901, 48.2796355], [4.3357989, 48.2793107], [4.3360725, 48.2791964], [4.3364963, 48.2791572], [4.3370005, 48.2791429], [4.3375692, 48.2790608], [4.3382129, 48.2791143], [4.3387922, 48.2792678], [4.3389907, 48.2793357], [4.3394252, 48.2793392], [4.3398437, 48.2794535], [4.3403533, 48.2799318], [4.3405518, 48.2802353], [4.3412492, 48.2808636], [4.3416408, 48.2814419], [4.3425903, 48.2820202], [4.3428424, 48.2826093], [4.3428585, 48.2830483], [4.3421128, 48.2837551], [4.341512, 48.2838979], [4.3409809, 48.2839836], [4.3403426, 48.2837587], [4.3398812, 48.2836159], [4.3395325, 48.2836409], [4.339259, 48.2838729], [4.3392697, 48.2845548], [4.339613, 48.2852723], [4.3398812, 48.2859398], [4.34001, 48.2863717], [4.3403104, 48.2866858], [4.3413135, 48.2870427], [4.34163, 48.287289], [4.3419143, 48.2875318], [4.3420753, 48.2876424], [4.3422469, 48.2876317], [4.3424991, 48.2875889], [4.3428746, 48.2875389], [4.3433392, 48.287695], [4.3435719, 48.28806], [4.3438509, 48.288342], [4.3442103, 48.2887418], [4.3443176, 48.288856], [4.3445858, 48.288906], [4.3450096, 48.2887025], [4.3452993, 48.2884777], [4.3461147, 48.288035], [4.3469086, 48.2877923], [4.3472305, 48.2876888], [4.3474665, 48.2874961], [4.3476489, 48.2872462], [4.3482819, 48.2868], [4.3486145, 48.2867179], [4.3488827, 48.2868893], [4.3492207, 48.287314], [4.3495694, 48.2874425], [4.3501004, 48.2874782], [4.3503901, 48.2875032], [4.3509105, 48.2875139], [4.3513611, 48.2877673], [4.3515113, 48.2880136], [4.3514952, 48.2882242], [4.351109, 48.2885419], [4.3505242, 48.2888167], [4.349446, 48.2891987], [4.3485877, 48.2894735], [4.3482068, 48.2896662], [4.3479533, 48.2898209], [4.3477554, 48.2918204], [4.3482011, 48.2927741], [4.3489525, 48.2935067], [4.3494567, 48.2936601], [4.3500092, 48.2935923], [4.3505242, 48.2933925], [4.3510285, 48.2931854], [4.3512806, 48.2932568], [4.3515059, 48.2935459], [4.3516239, 48.2938386], [4.3518063, 48.2941883], [4.352037, 48.2944203], [4.3524018, 48.2944346], [4.3526968, 48.2944096], [4.3532708, 48.294249], [4.3535444, 48.2941669], [4.3538448, 48.2941598], [4.3538931, 48.2942883], [4.3539575, 48.2945381], [4.3539521, 48.2951056], [4.3537002, 48.2954679]]]}}, {"type": "Feature", "properties": {"name": "Lac d'Auzon-Temple"}, "geometry": {"type": "Polygon", "coordinates": [[[4.3906357, 48.3332946], [4.3907574, 48.3334282], [4.3911007, 48.3339096], [4.39137, 48.3344729], [4.3922347, 48.3372586], [4.3927771, 48.3390541], [4.3929595, 48.339375], [4.3932974, 48.3397066], [4.3936945, 48.3400033], [4.3941718, 48.3402272], [4.394601, 48.3403703], [4.3950141, 48.3404697], [4.3984956, 48.3411222], [4.4018003, 48.3417277], [4.4065604, 48.3425998], [4.4104616, 48.343039], [4.4126556, 48.3432797], [4.4134603, 48.34331], [4.4135309, 48.3433889], [4.4146563, 48.3434589], [4.4160406, 48.3434699], [4.4175077, 48.3433732], [4.4186042, 48.3431684], [4.4196997, 48.3428943], [4.4219575, 48.3421895], [4.423463, 48.3417091], [4.4252564, 48.3411367], [4.4266487, 48.3407106], [4.4275965, 48.3404787], [4.4288138, 48.3403133], [4.4299127, 48.3402623], [4.4311315, 48.3403283], [4.4322012, 48.3404887], [4.4331845, 48.3407233], [4.434202, 48.3410882], [4.4350577, 48.3414792], [4.4359552, 48.3420528], [4.436585, 48.3425768], [4.43713, 48.3430968], [4.438995, 48.3450642], [4.4404342, 48.346603], [4.4406713, 48.3468451], [4.4411015, 48.3471534], [4.4414951, 48.3473809], [4.4419829, 48.3475729], [4.4426396, 48.3477485], [4.4433546, 48.3478464], [4.4456334, 48.3480537], [4.4493107, 48.3484201], [4.4549591, 48.3489345], [4.4587803, 48.3492788], [4.4618801, 48.3495845], [4.4634976, 48.3497182], [4.4624833, 48.3494184], [4.4631588, 48.3486802], [4.4637866, 48.3489274], [4.4644867, 48.3487711], [4.4656593, 48.3484391], [4.4664643, 48.3475893], [4.4669079, 48.3468375], [4.4672674, 48.3462171], [4.4673773, 48.3460567], [4.467667, 48.3459248], [4.4679674, 48.345857], [4.4681346, 48.3457564], [4.4678262, 48.3457084], [4.4674829, 48.3457655], [4.4671825, 48.3458725], [4.4677833, 48.3451629], [4.4680301, 48.3452129], [4.4686711, 48.3452574], [4.4687238, 48.3451511], [4.4686487, 48.3450798], [4.4682893, 48.344766], [4.4678762, 48.3444701], [4.4673022, 48.3441528], [4.4668087, 48.3438069], [4.4666746, 48.3435752], [4.4667175, 48.3432329], [4.466975, 48.3429512], [4.467211, 48.3428407], [4.4676187, 48.3425518], [4.4678977, 48.3422595], [4.468005, 48.3421561], [4.4683107, 48.3416676], [4.4684449, 48.3411434], [4.4684449, 48.3409723], [4.4684663, 48.3408332], [4.4684931, 48.340712], [4.4685843, 48.3403661], [4.4685414, 48.340063], [4.4684341, 48.3398348], [4.4684824, 48.3395816], [4.4685039, 48.3393106], [4.4686755, 48.3391145], [4.4690242, 48.3389647], [4.4694587, 48.3389041], [4.4698664, 48.3388863], [4.4700864, 48.3388791], [4.4704351, 48.3387222], [4.4707355, 48.3384548], [4.4708803, 48.3382016], [4.471406, 48.3378201], [4.4722008, 48.3371343], [4.4727364, 48.3367182], [4.4729134, 48.3365613], [4.4729295, 48.3364008], [4.473187, 48.3360941], [4.4734659, 48.3356983], [4.4734552, 48.3352347], [4.4733908, 48.3347105], [4.4734338, 48.3339081], [4.4731173, 48.3333874], [4.4726103, 48.3325385], [4.4725084, 48.3321714], [4.4725137, 48.3318861], [4.4726457, 48.3315874], [4.4726243, 48.3314126], [4.4725223, 48.3312379], [4.4716747, 48.3307742], [4.4710686, 48.330464], [4.470575, 48.33025], [4.4701352, 48.3301751], [4.4699206, 48.3301787], [4.4695826, 48.3302393], [4.46925, 48.3303142], [4.4689496, 48.3304818], [4.4686975, 48.3305674], [4.4683059, 48.3305638], [4.4681932, 48.3305353], [4.4680591, 48.3303962], [4.4679411, 48.3302963], [4.4677373, 48.3302322], [4.4674208, 48.330168], [4.4670774, 48.3300966], [4.4668575, 48.3299754], [4.4663264, 48.3295082], [4.4659402, 48.3291943], [4.4657471, 48.3288947], [4.4656827, 48.3287092], [4.4656183, 48.3284025], [4.4654788, 48.3281386], [4.465452, 48.3278818], [4.4655164, 48.3277284], [4.4657471, 48.3272969], [4.4660153, 48.3269687], [4.4660958, 48.326794], [4.4663479, 48.3265086], [4.4665625, 48.3263374], [4.4667824, 48.3261948], [4.4668521, 48.326102], [4.4668253, 48.3260735], [4.4667234, 48.3261234], [4.4664123, 48.3262661], [4.4661816, 48.3263624], [4.4660582, 48.3265657], [4.4659456, 48.3266977], [4.4657685, 48.3268332], [4.4655647, 48.3269188], [4.4653984, 48.3270543], [4.4651302, 48.3273397], [4.4649585, 48.3275501], [4.4647439, 48.3276215], [4.4645825, 48.3276169], [4.4639012, 48.3273477], [4.4637718, 48.3273218], [4.4638342, 48.3273851], [4.4646447, 48.3279389], [4.4646608, 48.3282634], [4.4647493, 48.3286344], [4.4649317, 48.3289696], [4.4650175, 48.3292514], [4.4651194, 48.3295938], [4.4651409, 48.3298434], [4.4651677, 48.3300931], [4.4651355, 48.3304033], [4.4653072, 48.3310203], [4.4652374, 48.3315375], [4.4650014, 48.3320581], [4.4644703, 48.3325111], [4.4638105, 48.3330531], [4.4634243, 48.3332315], [4.4633116, 48.3332243], [4.4631239, 48.3331637], [4.46292, 48.3330995], [4.4629758, 48.3328595], [4.4633513, 48.3322142], [4.4634962, 48.3319859], [4.46373, 48.3316623], [4.46373, 48.3312593], [4.4636228, 48.3309205], [4.4634296, 48.3306815], [4.4631882, 48.3304961], [4.4630112, 48.3303855], [4.4627108, 48.330307], [4.4626464, 48.3302928], [4.462051, 48.3301073], [4.4616004, 48.3299825], [4.46108, 48.3298791], [4.4607421, 48.3298755], [4.4601413, 48.3299112], [4.4593956, 48.3298862], [4.4588162, 48.3298684], [4.4581618, 48.3297828], [4.4578077, 48.3296294], [4.4577541, 48.3294618], [4.4576843, 48.3293334], [4.4575288, 48.3293013], [4.4571694, 48.3292585], [4.4569977, 48.3292585], [4.4564344, 48.3292621], [4.4554367, 48.3290552], [4.4549914, 48.3289803], [4.4541921, 48.3287948], [4.4537469, 48.3286486], [4.4530549, 48.3284988], [4.4527169, 48.3284311], [4.4524219, 48.3283847], [4.4522019, 48.3282135], [4.4521933, 48.3281199], [4.4523253, 48.3278568], [4.4526311, 48.3273967], [4.452792, 48.3272006], [4.4529958, 48.32709], [4.4533392, 48.3270008], [4.4536879, 48.3269295], [4.4539024, 48.3268867], [4.4539722, 48.3268368], [4.4539507, 48.3266584], [4.4539293, 48.3265978], [4.453881, 48.3264658], [4.4536986, 48.3264302], [4.4534733, 48.3263838], [4.4532372, 48.3262982], [4.4531192, 48.3261983], [4.4530173, 48.3259986], [4.4531192, 48.3257025], [4.4532855, 48.3254778], [4.4533231, 48.325328], [4.4532587, 48.3251996], [4.4531782, 48.3250605], [4.4531997, 48.3249321], [4.4532641, 48.3246182], [4.4535752, 48.3242223], [4.4537093, 48.3239619], [4.453763, 48.3238193], [4.4537951, 48.3235874], [4.4537737, 48.3235482], [4.4536771, 48.3236052], [4.4535806, 48.3238478], [4.4533982, 48.3241046], [4.4532051, 48.3242187], [4.45291, 48.3242936], [4.4526042, 48.3243579], [4.4523414, 48.3244078], [4.4520678, 48.324472], [4.4518747, 48.3246361], [4.4516762, 48.3251033], [4.4515045, 48.3254457], [4.451129, 48.3260985], [4.4507964, 48.3264409], [4.4505389, 48.3266977], [4.4502546, 48.3268974], [4.4500132, 48.3269901], [4.4498523, 48.3269973], [4.4496431, 48.3269438], [4.4492729, 48.3267868], [4.4486346, 48.3265835], [4.447964, 48.3263909], [4.4476368, 48.3262055], [4.4466927, 48.3258416], [4.4464727, 48.325699], [4.4461026, 48.325649], [4.4459202, 48.3256276], [4.445652, 48.3255099], [4.4451155, 48.3252246], [4.4451069, 48.3251203], [4.4447829, 48.325007], [4.4445523, 48.3249071], [4.4441875, 48.3247145], [4.4436939, 48.3243115], [4.4434096, 48.3239191], [4.4432433, 48.3235339], [4.4432348, 48.3232584], [4.4433528, 48.3229552], [4.4436671, 48.3225922], [4.4440695, 48.3221463], [4.4445683, 48.3216042], [4.4451606, 48.3212145], [4.4458451, 48.3209228], [4.4464566, 48.320641], [4.4475402, 48.3199133], [4.4479801, 48.3196815], [4.4482108, 48.3195887], [4.4482269, 48.3195138], [4.4480928, 48.3194781], [4.4477494, 48.3195102], [4.4474276, 48.3195174], [4.4470413, 48.3195709], [4.4461991, 48.3197671], [4.4458129, 48.3197564], [4.4450619, 48.3196957], [4.4445201, 48.3196636], [4.4441446, 48.3196886], [4.4433399, 48.3195745], [4.4428142, 48.319471], [4.4425299, 48.3193783], [4.4424118, 48.3192998], [4.4423604, 48.3191384], [4.4422509, 48.318886], [4.4421544, 48.318754], [4.4417306, 48.3186077], [4.4410922, 48.3184543], [4.4407382, 48.3183224], [4.4404163, 48.3181868], [4.4403573, 48.3180584], [4.4403358, 48.3178907], [4.44025, 48.3177659], [4.440191, 48.3178871], [4.4401159, 48.3180191], [4.439971, 48.3180298], [4.4395258, 48.3179406], [4.4392468, 48.3178836], [4.4389947, 48.3177944], [4.4388713, 48.3175661], [4.4384636, 48.316874], [4.4382061, 48.3164673], [4.4381632, 48.3161427], [4.438292, 48.3157788], [4.4385334, 48.3153293], [4.4388145, 48.3150359], [4.4393777, 48.3148361], [4.439853, 48.3147942], [4.4409474, 48.3149583], [4.4416737, 48.314961], [4.4423099, 48.3150368], [4.4431006, 48.315175], [4.443621, 48.3152642], [4.443834, 48.3153719], [4.4446327, 48.3160285], [4.4452764, 48.3165244], [4.4456359, 48.3167706], [4.4459041, 48.3169168], [4.4463547, 48.3170131], [4.4468268, 48.3170524], [4.447508, 48.3170809], [4.4483771, 48.3170345], [4.4485541, 48.3169989], [4.4486314, 48.3168553], [4.4486045, 48.316734], [4.4487441, 48.3167126], [4.4489023, 48.3167019], [4.449171, 48.316651], [4.4480605, 48.3159108], [4.4477601, 48.3157021], [4.4477516, 48.3157939], [4.4476422, 48.3158216], [4.4473471, 48.3158288], [4.446859, 48.3158073], [4.4464834, 48.3157289], [4.4461133, 48.315497], [4.4458258, 48.3151393], [4.4455715, 48.3145801], [4.4452764, 48.3141342], [4.4449224, 48.3136418], [4.4447454, 48.3133493], [4.4445683, 48.3131138], [4.4442089, 48.3129033], [4.4439193, 48.3128106], [4.4437315, 48.3126929], [4.4436725, 48.3125573], [4.4434955, 48.312543], [4.4432272, 48.3125894], [4.4430073, 48.3126714], [4.4423904, 48.3128356], [4.4419666, 48.3129033], [4.4416662, 48.3129033], [4.4408454, 48.3128463], [4.4402607, 48.3127], [4.4396063, 48.3125823], [4.4389625, 48.312461], [4.4386138, 48.3123432], [4.4384261, 48.3122433], [4.4381954, 48.3119971], [4.438233, 48.3118081], [4.4383724, 48.3116546], [4.4385548, 48.311594], [4.4387372, 48.311487], [4.4387587, 48.3114085], [4.4387909, 48.3112158], [4.4386353, 48.3108055], [4.4386514, 48.3105451], [4.4386031, 48.3103631], [4.4385334, 48.3102739], [4.4383456, 48.3102025], [4.4379647, 48.3102025], [4.4377019, 48.3102097], [4.4372084, 48.3102489], [4.4366075, 48.3103738], [4.4361999, 48.3104594], [4.4359585, 48.3105272], [4.4358404, 48.3105237], [4.435642, 48.3104844], [4.4355937, 48.3103239], [4.4354274, 48.3101419], [4.4353737, 48.3100277], [4.4353812, 48.3099055], [4.4354671, 48.3097164], [4.4355368, 48.3096237], [4.4358673, 48.3094319], [4.4361248, 48.3092892], [4.4362803, 48.3091643], [4.4363769, 48.309043], [4.4364413, 48.3088503], [4.4366451, 48.3078798], [4.4365485, 48.3074374], [4.4364756, 48.3069512], [4.4364756, 48.3066158], [4.4366472, 48.3060414], [4.437012, 48.305235], [4.4375216, 48.3047782], [4.4377198, 48.304608], [4.4377749, 48.304576], [4.4365471, 48.3038464], [4.4362403, 48.303666], [4.4345354, 48.3026998], [4.433251, 48.3039759], [4.4318777, 48.3046753], [4.4312748, 48.304685], [4.4297776, 48.305558], [4.4292491, 48.3055856], [4.4288518, 48.3056201], [4.4287581, 48.3055558], [4.428885, 48.30549], [4.4288769, 48.3054222], [4.4285926, 48.3054811], [4.4283587, 48.3054306], [4.4282359, 48.3053794], [4.4281071, 48.3052242], [4.4279007, 48.3050938], [4.4275251, 48.3048602], [4.4274929, 48.3046961], [4.4275278, 48.3046158], [4.4275358, 48.3045587], [4.427442, 48.3045052], [4.4272327, 48.3044285], [4.4270048, 48.3046051], [4.4268003, 48.3046046], [4.4263557, 48.3048995], [4.4252962, 48.3045998], [4.4241315, 48.3043263], [4.4230539, 48.3040467], [4.4225759, 48.3035701], [4.4215781, 48.3017949], [4.4204038, 48.3014846], [4.4194431, 48.3007613], [4.4198239, 48.3012875], [4.4203043, 48.3016956], [4.4208301, 48.3022211], [4.4212356, 48.3026337], [4.4212224, 48.3030337], [4.4209731, 48.3032944], [4.4208948, 48.3034514], [4.4208829, 48.3035764], [4.4208604, 48.3036725], [4.4212258, 48.3037202], [4.4217255, 48.3040838], [4.4226355, 48.3045806], [4.4246291, 48.305225], [4.425502, 48.3055837], [4.4264727, 48.3057743], [4.4276985, 48.3062403], [4.4277718, 48.3062633], [4.4287178, 48.3055913], [4.428803, 48.3056547], [4.4277251, 48.3064187], [4.4280191, 48.3066203], [4.4284375, 48.3069593], [4.4286897, 48.3072518], [4.4286682, 48.3075409], [4.4286116, 48.3081215], [4.4286906, 48.308328], [4.4290544, 48.3087005], [4.4294209, 48.3093551], [4.4295289, 48.30967], [4.4296148, 48.3100732], [4.4297596, 48.3104443], [4.4299688, 48.3107547], [4.43024, 48.3110481], [4.430575, 48.3113862], [4.4308754, 48.3116787], [4.4313582, 48.3121996], [4.4319107, 48.3128739], [4.4324043, 48.3134519], [4.4327315, 48.3138265], [4.4330531, 48.3141725], [4.4331014, 48.3144437], [4.4330155, 48.3146827], [4.4328602, 48.3148325], [4.4327261, 48.3148932], [4.4324686, 48.3148825], [4.4322594, 48.3148397], [4.4320073, 48.3146113], [4.4318893, 48.3142938], [4.4317927, 48.3140976], [4.4315835, 48.3139085], [4.4309773, 48.3135803], [4.4304385, 48.3133422], [4.4299366, 48.3132449], [4.4295343, 48.3131772], [4.4291588, 48.3132271], [4.4288101, 48.313377], [4.4285794, 48.3135054], [4.4283356, 48.3135527], [4.4280191, 48.3135313], [4.427547, 48.31341], [4.4272735, 48.3133885], [4.4271662, 48.3133101], [4.4267853, 48.3131638], [4.4266673, 48.3130853], [4.4264956, 48.313096], [4.4264205, 48.3131781], [4.426442, 48.3133921], [4.4265922, 48.3134813], [4.4266726, 48.3135669], [4.4266834, 48.3136561], [4.4266887, 48.313756], [4.4267156, 48.3138309], [4.4267799, 48.3138773], [4.4269731, 48.3139059], [4.4271823, 48.3138844], [4.4273593, 48.3138274], [4.4274934, 48.313806], [4.4276758, 48.3137988], [4.4279708, 48.3138559], [4.4284536, 48.3140129], [4.4290115, 48.3142983], [4.4294431, 48.3145899], [4.4298401, 48.3149467], [4.4303443, 48.315439], [4.4308164, 48.3158742], [4.4313367, 48.316338], [4.4317015, 48.3167269], [4.4317283, 48.3170479], [4.4317313, 48.3173485], [4.4318761, 48.3175661], [4.4321283, 48.3178051], [4.4321765, 48.3179585], [4.4321497, 48.3180833], [4.4321819, 48.3181904], [4.4322892, 48.3183152], [4.4324823, 48.3184615], [4.4328954, 48.3187076], [4.4334694, 48.3189395], [4.433641, 48.3190608], [4.4337376, 48.3192177], [4.4339575, 48.3194104], [4.4342901, 48.3195459], [4.4346871, 48.3197314], [4.4350358, 48.3198991], [4.4354649, 48.319974], [4.435819, 48.3200739], [4.4361033, 48.3202201], [4.4363447, 48.320427], [4.4364413, 48.3205019], [4.4364252, 48.3206803], [4.4366451, 48.3209906], [4.4368007, 48.3211904], [4.4368221, 48.3214151], [4.4367041, 48.3215899], [4.4364037, 48.3217183], [4.4356795, 48.3218895], [4.4352128, 48.3220001], [4.434907, 48.3221321], [4.4348212, 48.3222177], [4.4347997, 48.3222926], [4.4349768, 48.322314], [4.4355186, 48.3222676], [4.4368275, 48.3222462], [4.4371708, 48.3222926], [4.4376322, 48.3224032], [4.4381579, 48.3226208], [4.4384261, 48.3227884], [4.4386192, 48.3230773], [4.4387158, 48.3234982], [4.4386889, 48.3237479], [4.4384958, 48.3239976], [4.4383617, 48.3240868], [4.4382866, 48.3242009], [4.4381364, 48.3243151], [4.4380989, 48.3243828], [4.438233, 48.32439], [4.4384636, 48.3243507], [4.4386728, 48.3243686], [4.4387694, 48.3244363], [4.4390054, 48.3244863], [4.4391986, 48.3245433], [4.4393434, 48.324661], [4.4395741, 48.3249036], [4.4399335, 48.3252389], [4.4402607, 48.3254029], [4.4408079, 48.3256383], [4.4415804, 48.3261841], [4.4420042, 48.3265728], [4.4425352, 48.3269045], [4.4429054, 48.3271542], [4.443474, 48.3274574], [4.4437315, 48.3276214], [4.4439944, 48.3278354], [4.4444503, 48.328028], [4.4451102, 48.328292], [4.4462689, 48.3286522], [4.446859, 48.3288876], [4.4474276, 48.3290374], [4.4478138, 48.3293798], [4.4478567, 48.3295866], [4.4478299, 48.329822], [4.4478567, 48.3302215], [4.448023, 48.3306138], [4.4482913, 48.3308884], [4.4484736, 48.3310952], [4.4486614, 48.3313591], [4.4486399, 48.3316052], [4.4485166, 48.3317728], [4.4484039, 48.3318049], [4.4480713, 48.3318798], [4.4477763, 48.3320011], [4.4475456, 48.3320581], [4.4475027, 48.3321758], [4.4474866, 48.3323399], [4.4473149, 48.3323791], [4.4471057, 48.3323791], [4.4468321, 48.3323007], [4.4466658, 48.3322186], [4.4463815, 48.3321081], [4.4461187, 48.3319654], [4.4459309, 48.3317907], [4.4456841, 48.3316373], [4.4456037, 48.3315375], [4.4455339, 48.3312771], [4.4454374, 48.331138], [4.4453194, 48.3310667], [4.4450404, 48.3310524], [4.4445415, 48.3309847], [4.4440587, 48.3308634], [4.4436993, 48.3307885], [4.443533, 48.3307956], [4.4433023, 48.330678], [4.4430127, 48.3305995], [4.4427713, 48.330546], [4.4425728, 48.3305103], [4.4423689, 48.3304711], [4.4419827, 48.3303391], [4.4416286, 48.3302678], [4.4408723, 48.3301287], [4.4408723, 48.3301715], [4.4418057, 48.3303641], [4.4422026, 48.3304961], [4.4427069, 48.3307956], [4.442841, 48.3308634], [4.4429805, 48.3309597], [4.4428893, 48.3309847], [4.4425728, 48.3309169], [4.4421436, 48.3307814], [4.4420149, 48.3306601], [4.4416877, 48.3305246], [4.4414248, 48.3304497], [4.4411512, 48.3304176], [4.4409313, 48.3303784], [4.4408347, 48.3303641], [4.4407113, 48.3303534], [4.4406416, 48.3303819], [4.440486, 48.3303819], [4.4403948, 48.3303641], [4.4402393, 48.3302821], [4.4400891, 48.3303106], [4.4399871, 48.3304354], [4.4398423, 48.3304925], [4.4396599, 48.3305924], [4.4394239, 48.3306566], [4.439381, 48.3307279], [4.4394882, 48.3308777], [4.4395312, 48.3309989], [4.4394239, 48.3311059], [4.4392951, 48.3312058], [4.4391127, 48.3312129], [4.4386836, 48.3309633], [4.4384797, 48.330949], [4.4381579, 48.3311416], [4.438072, 48.3313556], [4.4380828, 48.3316266], [4.4387265, 48.3317407], [4.4391235, 48.3319476], [4.439499, 48.332076], [4.4397779, 48.3323684], [4.4398959, 48.3326609], [4.4400998, 48.3328534], [4.4402714, 48.3328962], [4.4404646, 48.3328677], [4.4407006, 48.3326609], [4.4411273, 48.3324019], [4.4414725, 48.3325065], [4.4416871, 48.3325351], [4.4419661, 48.3327063], [4.4420304, 48.3328703], [4.442127, 48.3330486], [4.4422987, 48.3331913], [4.4425776, 48.3332198], [4.4427386, 48.333284], [4.4430175, 48.3333339], [4.4432428, 48.3332983], [4.443629, 48.3330558], [4.4439187, 48.3329131], [4.4439509, 48.3330629], [4.44379, 48.3333411], [4.4437041, 48.3336477], [4.4439295, 48.333498], [4.4443101, 48.3333681], [4.4450774, 48.3331128], [4.4453778, 48.3331485], [4.4457212, 48.3333482], [4.4460538, 48.3335907], [4.4465795, 48.333876], [4.447134, 48.3343045], [4.448207, 48.3353241], [4.4495301, 48.3362606], [4.4493853, 48.3363437], [4.4491705, 48.3365969], [4.4489774, 48.3368679], [4.4489881, 48.3373137], [4.4489988, 48.3376418], [4.4490739, 48.3377487], [4.4493743, 48.3383799], [4.4495943, 48.3386224], [4.4498625, 48.3387508], [4.450297, 48.3389041], [4.450694, 48.338954], [4.4512197, 48.3389718], [4.4519761, 48.3389683], [4.4520565, 48.3390146], [4.4519654, 48.3391002], [4.4517347, 48.3391787], [4.4515684, 48.3392642], [4.4515255, 48.3393855], [4.4516059, 48.3395281], [4.4517991, 48.339603], [4.4519922, 48.3396814], [4.4520834, 48.3397884], [4.4522175, 48.339874], [4.4523087, 48.3399738], [4.4524428, 48.3401093], [4.4524642, 48.340334], [4.4523677, 48.3405265], [4.4523409, 48.3406585], [4.4522228, 48.3407904], [4.4521102, 48.3409116], [4.4519654, 48.341122], [4.4519332, 48.3413716], [4.4520297, 48.3415463], [4.452373, 48.3417032], [4.4528183, 48.3418209], [4.4530704, 48.3419599], [4.4533065, 48.3422274], [4.4534888, 48.3424591], [4.4536659, 48.3426017], [4.4538268, 48.3426089], [4.4539824, 48.3425411], [4.4542184, 48.3424092], [4.4544544, 48.342345], [4.4546905, 48.3423379], [4.4550392, 48.3423201], [4.4554469, 48.3422666], [4.4558063, 48.3421774], [4.4561442, 48.3421275], [4.4562408, 48.3422381], [4.4561496, 48.3424377], [4.4559833, 48.3426231], [4.4558653, 48.3427337], [4.455522, 48.3427123], [4.4553932, 48.342641], [4.4550874, 48.3425661], [4.454948, 48.3425625], [4.4547012, 48.3425982], [4.4545832, 48.3427016], [4.4545242, 48.3428763], [4.4544438, 48.3431794], [4.4544277, 48.3434361], [4.4543794, 48.3437142], [4.4543204, 48.3439103], [4.4541809, 48.3439781], [4.4540146, 48.344028], [4.4540093, 48.3440779], [4.4541058, 48.3440921], [4.4543311, 48.3441064], [4.4545242, 48.3442027], [4.4545886, 48.344331], [4.4544599, 48.3444416], [4.4542721, 48.3445307], [4.4540361, 48.3446198], [4.4536498, 48.3447339], [4.4535318, 48.3448266], [4.4532904, 48.3449728], [4.4531188, 48.3449835], [4.4530222, 48.3449407], [4.4529686, 48.3448409], [4.4530651, 48.3446626], [4.4532368, 48.3444915], [4.4534299, 48.3443275], [4.4537249, 48.3442205], [4.453843, 48.34411], [4.4536928, 48.3440351], [4.4532153, 48.3441207], [4.4528398, 48.3442669], [4.4527808, 48.3444309], [4.452813, 48.3446448], [4.4527325, 48.3447054], [4.4526574, 48.3446127], [4.4525555, 48.3444023], [4.452475, 48.3445414], [4.4525287, 48.3448195], [4.4523892, 48.344848], [4.4523087, 48.3447018], [4.452239, 48.3444808], [4.4521693, 48.3444166], [4.4519922, 48.3444166], [4.4518259, 48.3443596], [4.4515148, 48.3442811], [4.4512788, 48.3442811], [4.4509837, 48.3442811], [4.4508067, 48.3442811], [4.4506136, 48.344167], [4.4504379, 48.3440119], [4.4502555, 48.343937], [4.4500946, 48.3440012], [4.450116, 48.3441652], [4.4499926, 48.344265], [4.4497942, 48.3442829], [4.4496118, 48.3442508], [4.4493865, 48.344126], [4.4488447, 48.3440939], [4.448673, 48.3439548], [4.4487535, 48.34388], [4.4491665, 48.3437694], [4.449542, 48.3436874], [4.4496332, 48.3434343], [4.4492094, 48.3432239], [4.4489895, 48.3430456], [4.4490753, 48.3428816], [4.4492523, 48.3428353], [4.4497459, 48.3428888], [4.4499658, 48.342846], [4.449998, 48.3426784], [4.449821, 48.3424145], [4.4495957, 48.3422042], [4.4493435, 48.341976], [4.4493543, 48.3416729], [4.4490163, 48.3412771], [4.4487374, 48.3407387], [4.4485756, 48.3404356], [4.4483594, 48.3400652], [4.4481939, 48.339806], [4.4480668, 48.3395548], [4.4478898, 48.3393231], [4.4478791, 48.3390663], [4.4477771, 48.3390734], [4.4476913, 48.3392125], [4.4474875, 48.3392303], [4.4472461, 48.3391483], [4.4470047, 48.3390057], [4.4468437, 48.3387882], [4.446656, 48.3385992], [4.4465165, 48.338428], [4.4463609, 48.3383852], [4.4462, 48.3384779], [4.4460337, 48.3384672], [4.4460176, 48.3382961], [4.4461624, 48.3380893], [4.446436, 48.337829], [4.4462912, 48.3378503], [4.4459854, 48.3380679], [4.4457494, 48.3382426], [4.4455831, 48.3382462], [4.4456153, 48.338075], [4.4454704, 48.337993], [4.4452022, 48.3377826], [4.4449072, 48.3374617], [4.4445692, 48.3371336], [4.4440274, 48.3367092], [4.4437324, 48.3365452], [4.4431047, 48.3362064], [4.4426756, 48.3359889], [4.441946, 48.3359675], [4.4415222, 48.3359283], [4.4409107, 48.3358391], [4.4400953, 48.3356929], [4.4393496, 48.3356252], [4.4391726, 48.3357179], [4.4390814, 48.3359211], [4.4389366, 48.3361601], [4.4386898, 48.3362457], [4.4383465, 48.3361173], [4.4382231, 48.3359675], [4.4375847, 48.3358106], [4.4369786, 48.3355324], [4.4368015, 48.3352365], [4.4365977, 48.3349547], [4.4364904, 48.3345375], [4.4364797, 48.3343307], [4.436544, 48.3340275], [4.4362973, 48.3336994], [4.4360452, 48.3332608], [4.4358198, 48.3330112], [4.4354309, 48.3329666], [4.4353612, 48.3330129], [4.4352137, 48.3332002], [4.4349374, 48.3334534], [4.4346853, 48.3335942], [4.4344922, 48.3336174], [4.4342803, 48.3334908], [4.4340201, 48.3332697], [4.4337063, 48.332642], [4.4336741, 48.3324192], [4.433666, 48.3323015], [4.4335453, 48.3320536], [4.4333549, 48.3318753], [4.4330759, 48.3316667], [4.4330035, 48.3315472], [4.4326656, 48.3311816], [4.4324624, 48.3309992], [4.4323062, 48.3308571], [4.4319358, 48.3304995], [4.4317631, 48.3303059], [4.4317617, 48.3302347], [4.431818, 48.3301634], [4.4317912, 48.3300511], [4.4315122, 48.3292825], [4.4310777, 48.3282821], [4.4309463, 48.3279575], [4.4306539, 48.3275687], [4.4304987, 48.3274469], [4.4298063, 48.3272531], [4.4292565, 48.3270997], [4.4289105, 48.3269071], [4.4285645, 48.3265647], [4.4284733, 48.3263989], [4.428409, 48.3262625], [4.4283292, 48.3261892], [4.4282024, 48.3261795], [4.4281326, 48.3261866], [4.4277142, 48.3257497], [4.4274353, 48.3252397], [4.4271375, 48.3249187], [4.4267996, 48.3246975], [4.4262013, 48.3243844], [4.4261907, 48.3242731], [4.4261639, 48.324125], [4.426011, 48.3240252], [4.4254743, 48.3239235], [4.4252868, 48.3239756], [4.4250594, 48.3240389], [4.4249006, 48.3241643], [4.4248094, 48.324521], [4.4249187, 48.3249501], [4.4251259, 48.3260903], [4.4251607, 48.3264078], [4.4249055, 48.3270003], [4.4247396, 48.3273244], [4.4247691, 48.3275652], [4.4247209, 48.3277417], [4.4246538, 48.3277774], [4.4245498, 48.3277357], [4.4243883, 48.3275563], [4.4242917, 48.3272067], [4.4238451, 48.3262294], [4.4237539, 48.3255518], [4.4231209, 48.3244853], [4.4226596, 48.3240323], [4.4224101, 48.3237844], [4.4218469, 48.3230995], [4.4216008, 48.3230075], [4.4214445, 48.3230068], [4.421171, 48.3227928], [4.4205983, 48.3225644], [4.4201034, 48.32247], [4.4197413, 48.3224718], [4.4195447, 48.3225484], [4.4193497, 48.3225556], [4.4192666, 48.3225146], [4.4192571, 48.3224449], [4.4193122, 48.3223719], [4.4193792, 48.3223095], [4.419331, 48.3222916], [4.4192103, 48.3222988], [4.4190225, 48.3222577], [4.4180811, 48.3219492], [4.4177002, 48.3218029], [4.4174561, 48.321819], [4.417212, 48.3218315], [4.4168982, 48.3216941], [4.4164271, 48.3214262], [4.4160479, 48.3213339], [4.4158682, 48.321341], [4.4154203, 48.3212893], [4.4150126, 48.3210574], [4.4147524, 48.3209236], [4.414511, 48.3208184], [4.4144788, 48.3207221], [4.4145808, 48.3206401], [4.4147578, 48.3205687], [4.4148758, 48.3204403], [4.4149053, 48.3203369], [4.4149938, 48.3202512], [4.4150582, 48.3201603], [4.4149912, 48.3201621], [4.4149053, 48.3202102], [4.4147793, 48.3202923], [4.4146451, 48.3203743], [4.4144359, 48.3204153], [4.4140256, 48.3202976], [4.4134906, 48.3198945], [4.4131874, 48.3196662], [4.4132115, 48.3195824], [4.4132464, 48.3194504], [4.4130989, 48.3192096], [4.4128609, 48.3191457], [4.4127824, 48.3190705], [4.4128011, 48.319033], [4.4131069, 48.3189902], [4.4133912, 48.3189631], [4.41372, 48.3187693], [4.4138163, 48.3187125], [4.4137339, 48.3186765], [4.4136227, 48.3186968], [4.4134046, 48.318778], [4.4132866, 48.3187976], [4.4131069, 48.3187405], [4.4129352, 48.3187655], [4.4126725, 48.3188705], [4.4125141, 48.3188707], [4.4125141, 48.3188368], [4.4126752, 48.3187312], [4.4129217, 48.3186165], [4.4129352, 48.3185336], [4.4128494, 48.3184302], [4.4127488, 48.3183606], [4.4129795, 48.3181359], [4.4131243, 48.3179896], [4.4132316, 48.317747], [4.4133014, 48.3175758], [4.4133872, 48.3174331], [4.413237, 48.3174795], [4.4131619, 48.3175544], [4.4131404, 48.317665], [4.4130331, 48.3179575], [4.4129151, 48.3180752], [4.412682, 48.3182264], [4.4125718, 48.3183428], [4.412384, 48.3184605], [4.411912, 48.3185461], [4.4117349, 48.318514], [4.4115096, 48.3184034], [4.4112307, 48.3181751], [4.4109035, 48.3180289], [4.4103885, 48.317904], [4.4095624, 48.3175758], [4.4092244, 48.3173796], [4.4090259, 48.3171049], [4.4088006, 48.3169479], [4.408527, 48.316684], [4.4084734, 48.3164806], [4.4085002, 48.3163022], [4.4084734, 48.3161096], [4.4085056, 48.3158813], [4.4084144, 48.3159027], [4.4083125, 48.3160525], [4.4083178, 48.3162238], [4.4083607, 48.3163415], [4.4083178, 48.3164342], [4.4083017, 48.3165234], [4.4083017, 48.3167196], [4.40835, 48.3168944], [4.4083232, 48.3169836], [4.408173, 48.3170871], [4.4080925, 48.3171013], [4.4078565, 48.3170585], [4.4076097, 48.3169051], [4.4074112, 48.3168766], [4.4070786, 48.3167803], [4.4068265, 48.3166304], [4.4066548, 48.3165662], [4.4066817, 48.3166947], [4.4069231, 48.3168481], [4.4073361, 48.3169836], [4.4077063, 48.3171156], [4.4080442, 48.3172547], [4.4082427, 48.317244], [4.4084948, 48.3172226], [4.4086987, 48.3172833], [4.408806, 48.317401], [4.4089562, 48.3175722], [4.4091761, 48.3177399], [4.4096053, 48.317904], [4.4101524, 48.3182179], [4.4105494, 48.3184962], [4.4108017, 48.3187979], [4.4112736, 48.3192275], [4.4116706, 48.3194237], [4.4119603, 48.3199659], [4.4121695, 48.3200979], [4.4121856, 48.3203119], [4.412368, 48.32069], [4.4125979, 48.3209466], [4.412722, 48.3214855], [4.4126201, 48.3220847], [4.4123406, 48.3223032], [4.4118571, 48.3224833], [4.4117081, 48.3225877], [4.4116482, 48.322867], [4.4127756, 48.3252664], [4.4132102, 48.3259691], [4.4133443, 48.3263864], [4.4131994, 48.3265826], [4.4126469, 48.3267787], [4.4121319, 48.3269571], [4.4118154, 48.3271283], [4.4117403, 48.3274742], [4.4118315, 48.3279557], [4.4120675, 48.3283801], [4.4124055, 48.3288937], [4.412604, 48.3292468], [4.4134033, 48.3301277], [4.4135159, 48.3303346], [4.413414, 48.330381], [4.413296, 48.3303239], [4.4129366, 48.3298674], [4.4124699, 48.3293324], [4.412325, 48.3290293], [4.4121802, 48.3287903], [4.4120246, 48.3284871], [4.4117618, 48.3282268], [4.4115579, 48.3279629], [4.4114775, 48.3277917], [4.4113112, 48.327649], [4.4112092, 48.3275099], [4.4111663, 48.3273565], [4.4111663, 48.327246], [4.4111931, 48.3271211], [4.4110215, 48.3268073], [4.4104689, 48.3257158], [4.4090098, 48.3237469], [4.407894, 48.3225413], [4.4074166, 48.3220241], [4.4072766, 48.3218047], [4.4068372, 48.3213642], [4.4065207, 48.3210824], [4.4060218, 48.3208577], [4.4055659, 48.3204046], [4.4053352, 48.3200443], [4.4053298, 48.3197768], [4.4053888, 48.3195449], [4.4052816, 48.319363], [4.4052762, 48.3188493], [4.4051153, 48.3184498], [4.4051689, 48.3181145], [4.4032914, 48.3164913], [4.4021863, 48.3154853], [4.4016767, 48.3152641], [4.4011402, 48.3153034], [4.4009149, 48.3152605], [4.4004643, 48.3151143], [4.4004643, 48.3149894], [4.4002551, 48.3148574], [4.3999118, 48.3147718], [4.3998098, 48.3146755], [4.4001746, 48.3145827], [4.4001532, 48.3144543], [4.4000834, 48.3143116], [4.4001639, 48.3141296], [4.399944, 48.3138728], [4.3995953, 48.313698], [4.3989086, 48.3133697], [4.3986565, 48.3131343], [4.3982595, 48.3124921], [4.3982113, 48.3119105], [4.3979913, 48.3115823], [4.3976265, 48.3113861], [4.3972832, 48.3110935], [4.3971437, 48.3109472], [4.3971813, 48.3107153], [4.3969131, 48.310594], [4.3968487, 48.3104121], [4.3966341, 48.3101944], [4.3964625, 48.3100874], [4.3964034, 48.310016], [4.3966483, 48.3096156], [4.3964732, 48.3094202], [4.3961138, 48.309306], [4.3957311, 48.3093051], [4.3954057, 48.3092418], [4.395173, 48.3091161], [4.3950033, 48.3091455], [4.3949711, 48.3092668], [4.3949014, 48.3094694], [4.3946405, 48.3095462], [4.3944723, 48.3096485], [4.3942148, 48.3099697], [4.3940002, 48.310066], [4.3937802, 48.3100767], [4.3931472, 48.3098698], [4.3924713, 48.30962], [4.3923443, 48.3094526], [4.3922997, 48.3092882], [4.3925732, 48.3089706], [4.392643, 48.3087851], [4.3927449, 48.3085782], [4.3926685, 48.3081896], [4.3928511, 48.3079201], [4.3928576, 48.3077825], [4.3928415, 48.307547], [4.3927449, 48.3074507], [4.3925464, 48.3074578], [4.3921709, 48.3075078], [4.3916506, 48.3075613], [4.3913126, 48.3074792], [4.3907547, 48.3072437], [4.390626, 48.3071403], [4.3905777, 48.3070154], [4.3905938, 48.3069262], [4.3905247, 48.306835], [4.3894565, 48.3067792], [4.389081, 48.3067078], [4.3888932, 48.306615], [4.3884695, 48.3062368], [4.3873751, 48.3048738], [4.3868333, 48.3039674], [4.3866456, 48.3033001], [4.3865919, 48.3024188], [4.3865222, 48.3021154], [4.3863775, 48.3020131], [4.3862647, 48.3019334], [4.3859227, 48.3018109], [4.3859911, 48.3017165], [4.3862352, 48.3017736], [4.3864524, 48.3018503], [4.3866295, 48.3019538], [4.3867234, 48.3021126], [4.3867421, 48.3023071], [4.386718, 48.3027959], [4.3867314, 48.3031474], [4.3868038, 48.3034686], [4.3870318, 48.3041626], [4.3872571, 48.3045462], [4.3874905, 48.3048299], [4.3882844, 48.3058397], [4.3886975, 48.3063606], [4.388853, 48.3065123], [4.3890032, 48.3066157], [4.3891803, 48.306655], [4.3893626, 48.3066693], [4.3895182, 48.3066871], [4.3896657, 48.3066889], [4.3896684, 48.3066336], [4.3895799, 48.3066015], [4.3894672, 48.3065533], [4.3893868, 48.3064445], [4.3893734, 48.3063642], [4.3895491, 48.3063356], [4.3900104, 48.3063392], [4.3902625, 48.3063713], [4.3906005, 48.3063035], [4.3909599, 48.3060252], [4.3911155, 48.3055721], [4.3907561, 48.3053651], [4.3903698, 48.3053044], [4.390107, 48.3052795], [4.3899353, 48.3052902], [4.3895169, 48.3053223], [4.3889, 48.3052723], [4.3884547, 48.3052438], [4.388208, 48.3050689], [4.3879558, 48.3047442], [4.3879773, 48.3045658], [4.3881543, 48.3044945], [4.3883421, 48.3045373], [4.3885298, 48.3044445], [4.3885137, 48.3042839], [4.3883206, 48.3041305], [4.3881972, 48.3039521], [4.3880041, 48.3034811], [4.3878646, 48.3031742], [4.3876232, 48.3025533], [4.3879773, 48.3021358], [4.3884386, 48.3019538], [4.3887444, 48.3018289], [4.3890126, 48.301547], [4.3894525, 48.3010153], [4.3896939, 48.3006977], [4.3899997, 48.3006227], [4.3901982, 48.3007155], [4.3911101, 48.3009403], [4.3918504, 48.3011152], [4.3920381, 48.3011366], [4.3920972, 48.3010688], [4.391963, 48.3009618], [4.3913783, 48.3007548], [4.3905683, 48.3004158], [4.3903859, 48.3002552], [4.3903376, 48.3000803], [4.3906219, 48.2998448], [4.3907896, 48.2995396], [4.3909607, 48.2991379], [4.3913546, 48.2987848], [4.3916418, 48.2985088], [4.3917512, 48.298478], [4.3919845, 48.2984976], [4.3921588, 48.2985512], [4.3924163, 48.2986725], [4.3925585, 48.298776], [4.3927516, 48.2989223], [4.3928535, 48.2989312], [4.3928294, 48.2988331], [4.3926846, 48.2987153], [4.3924566, 48.2985601], [4.392124, 48.298271], [4.3920516, 48.2980801], [4.3921991, 48.2978731], [4.3922152, 48.2977197], [4.3921669, 48.2975484], [4.3921615, 48.2973753], [4.3921454, 48.2972343], [4.3920972, 48.2970666], [4.3921454, 48.2967704], [4.3922232, 48.2961744], [4.3922527, 48.2958782], [4.3922098, 48.2958282], [4.392132, 48.295846], [4.3920274, 48.2961316], [4.3919791, 48.2967775], [4.3918906, 48.2973753], [4.3918209, 48.2975769], [4.3916948, 48.2976483], [4.3915741, 48.2976715], [4.3915232, 48.2977875], [4.3914937, 48.2980373], [4.3912898, 48.2982407], [4.3910538, 48.2983246], [4.3904959, 48.2985708], [4.3893881, 48.2992578], [4.3887873, 48.2996878], [4.3882562, 48.3000072], [4.3878619, 48.3002017], [4.3873872, 48.3006085], [4.3870546, 48.3008725], [4.3868105, 48.3009225], [4.3866067, 48.3009136], [4.3863572, 48.300803], [4.3862875, 48.3006691], [4.3862553, 48.30043], [4.3861507, 48.3002463], [4.3858919, 48.3000018], [4.3856263, 48.2997752], [4.3853527, 48.2993791], [4.3850542, 48.2988103], [4.3850633, 48.298627], [4.3851408, 48.2984905], [4.385393, 48.2981354], [4.3855512, 48.2977268], [4.3856183, 48.2971897], [4.3855834, 48.2970916], [4.3855217, 48.2970826], [4.3853286, 48.2973931], [4.3852106, 48.2976697], [4.3850403, 48.2980694], [4.3847613, 48.2983513], [4.3846433, 48.2984941], [4.3844502, 48.298958], [4.3845414, 48.2991543], [4.384595, 48.2993184], [4.3846326, 48.2995968], [4.3847238, 48.3001321], [4.3848364, 48.3004104], [4.3849169, 48.3006781], [4.3851154, 48.3009207], [4.385287, 48.3011669], [4.3854211, 48.3013561], [4.3854828, 48.3015327], [4.3856303, 48.3016023], [4.3859308, 48.3016933], [4.3858561, 48.3017871], [4.3855673, 48.3016837], [4.3854101, 48.3016457], [4.3853943, 48.3016719], [4.3853715, 48.3018592], [4.3852911, 48.3020341], [4.3851194, 48.3022232], [4.3846956, 48.3024302], [4.3839392, 48.303126], [4.3835101, 48.3035292], [4.3828824, 48.3038896], [4.3823513, 48.3042643], [4.3820831, 48.3047532], [4.3819168, 48.3051314], [4.3816808, 48.3053276], [4.3814018, 48.3053633], [4.3810639, 48.3053312], [4.3809137, 48.3051278], [4.3808493, 48.3047781], [4.380624, 48.3043392], [4.3802431, 48.3032616], [4.3798086, 48.302523], [4.3795619, 48.3023802], [4.3793365, 48.3022553], [4.3791434, 48.3022125], [4.37902, 48.3021162], [4.3789235, 48.3018913], [4.3789289, 48.3017486], [4.3790898, 48.3016451], [4.37902, 48.3015452], [4.3787518, 48.301506], [4.3783763, 48.301324], [4.3780115, 48.3011527], [4.3776521, 48.3009992], [4.3772766, 48.3005353], [4.3772069, 48.300232], [4.3771157, 48.3001107], [4.3769547, 48.2999715], [4.3767563, 48.2999679], [4.3765202, 48.2998287], [4.376488, 48.2997217], [4.376531, 48.2995147], [4.3765631, 48.2993684], [4.3762091, 48.29919], [4.3759784, 48.29914], [4.3756351, 48.2986511], [4.375383, 48.2983977], [4.375104, 48.2983585], [4.3748894, 48.2983692], [4.3747822, 48.2985262], [4.3748412, 48.2987475], [4.3746695, 48.2989045], [4.3746212, 48.2993042], [4.3744925, 48.2997038], [4.3743047, 48.3003783], [4.3740848, 48.3008743], [4.3739185, 48.3014239], [4.3739238, 48.3017914], [4.3737254, 48.3019128], [4.373205, 48.3021055], [4.3730065, 48.3021483], [4.3724218, 48.3021947], [4.3720839, 48.302109], [4.3718049, 48.3019449], [4.3713758, 48.3013454], [4.3709573, 48.3010706], [4.3708339, 48.3009136], [4.3707427, 48.3008636], [4.3705657, 48.3008565], [4.3701956, 48.3008957], [4.3701044, 48.3009386], [4.3699274, 48.3010313], [4.3696377, 48.3012169], [4.3694607, 48.3015202], [4.3692353, 48.301745], [4.3690744, 48.3018557], [4.3685594, 48.3019128], [4.3678781, 48.3019591], [4.3674222, 48.3020484], [4.3670681, 48.3022803], [4.3669394, 48.3024337], [4.3671218, 48.3026122], [4.3677977, 48.3027977], [4.3682322, 48.3028584], [4.3686238, 48.3029119], [4.3689349, 48.302944], [4.3691227, 48.3030154], [4.3692836, 48.3031974], [4.3696001, 48.3033544], [4.3699113, 48.3033901], [4.3702224, 48.3033651], [4.3703565, 48.3033758], [4.3706194, 48.3034507], [4.3708018, 48.3035364], [4.3711665, 48.3036256], [4.3714187, 48.3037184], [4.3714187, 48.3038076], [4.3713382, 48.3038932], [4.3714401, 48.3040038], [4.3717942, 48.3042108], [4.372159, 48.3044142], [4.3727812, 48.3046854], [4.3732479, 48.3048281], [4.3738917, 48.3048566], [4.3742886, 48.3048031], [4.3746963, 48.3045962], [4.3753186, 48.3045533], [4.3757638, 48.3046318], [4.3760643, 48.3047353], [4.3762305, 48.3048388], [4.3762413, 48.304953], [4.3763271, 48.3051064], [4.3764559, 48.3052242], [4.37637, 48.3054632], [4.3762145, 48.3055881], [4.3760964, 48.3055917], [4.3758443, 48.3056738], [4.3757102, 48.3058165], [4.3753079, 48.3059521], [4.3750772, 48.3059592], [4.37475, 48.3059235], [4.3743852, 48.3059342], [4.3735752, 48.3059485], [4.3726471, 48.30592], [4.3722448, 48.3059342], [4.3718049, 48.3060092], [4.3714187, 48.3062161], [4.3709359, 48.3066157], [4.370893, 48.3067727], [4.370952, 48.3068726], [4.37107, 48.3069119], [4.3713275, 48.3069083], [4.3713865, 48.3070154], [4.371483, 48.3071938], [4.3716708, 48.3074757], [4.3717942, 48.3076683], [4.3719712, 48.3078003], [4.3721536, 48.307911], [4.3721804, 48.3080715], [4.3720785, 48.3083213], [4.3716869, 48.3087459], [4.3714079, 48.3088779], [4.3711504, 48.3088779], [4.3709627, 48.3088137], [4.3708447, 48.3086781], [4.3708286, 48.3084533], [4.370893, 48.3082463], [4.3706623, 48.3079823], [4.370378, 48.307522], [4.3700293, 48.3070903], [4.3698093, 48.306944], [4.3695679, 48.3069119], [4.3693909, 48.3070296], [4.3690691, 48.3070653], [4.3687096, 48.3072259], [4.3686935, 48.3074685], [4.3688867, 48.3076362], [4.3688545, 48.3077647], [4.3686023, 48.3078895], [4.3683341, 48.3081001], [4.3682644, 48.3081429], [4.3681786, 48.3080715], [4.3680927, 48.3080751], [4.3680123, 48.3081036], [4.367905, 48.3080394], [4.3678191, 48.3079787], [4.3677548, 48.3085032], [4.3675724, 48.3098376], [4.3675348, 48.3102729], [4.3676797, 48.3102801], [4.3678621, 48.3103015], [4.3681625, 48.3099946], [4.3683502, 48.3099875], [4.3687579, 48.3100517], [4.3691549, 48.3101837], [4.3695733, 48.3103407], [4.3696538, 48.3104299], [4.3697021, 48.3106725], [4.3698898, 48.3109151], [4.3700293, 48.3111149], [4.3700668, 48.3112862], [4.3699327, 48.3115609], [4.3697986, 48.3117357], [4.3696323, 48.3119212], [4.3696055, 48.3121032], [4.3694821, 48.3122495], [4.3691549, 48.3123993], [4.3688545, 48.3124635], [4.368517, 48.312422], [4.3683449, 48.3121765], [4.3682644, 48.3121603], [4.3681786, 48.3121781], [4.3680069, 48.3122673], [4.3679211, 48.3122923], [4.3679264, 48.3124065], [4.3680069, 48.3126205], [4.3683824, 48.3132306], [4.3687365, 48.3137301], [4.3691871, 48.3142331], [4.3696538, 48.3146505], [4.3699649, 48.3149181], [4.3703619, 48.3151785], [4.3707588, 48.3154461], [4.3711558, 48.3156565], [4.3715474, 48.3158777], [4.3719658, 48.3160597], [4.3725398, 48.3163129], [4.3747178, 48.3172333], [4.3756995, 48.3176828], [4.3762949, 48.318036], [4.3771371, 48.3186282], [4.3776789, 48.3191311], [4.3780384, 48.319652], [4.378371, 48.3201621], [4.3785694, 48.3205901], [4.3791112, 48.3220633], [4.379417, 48.3228695], [4.379755, 48.3228195], [4.3798354, 48.3226483], [4.3802109, 48.3224165], [4.3804094, 48.3224129], [4.3806186, 48.3224878], [4.3806186, 48.3226769], [4.3806508, 48.3228374], [4.3808761, 48.3229979], [4.3811014, 48.3230443], [4.3813858, 48.32303], [4.3815789, 48.3231441], [4.3817505, 48.323269], [4.3820402, 48.3233617], [4.3822333, 48.323351], [4.3824318, 48.3233153], [4.3827, 48.3233724], [4.3827054, 48.3234759], [4.3825713, 48.3235508], [4.3824104, 48.3236471], [4.3822762, 48.3237648], [4.3821851, 48.3238611], [4.3820509, 48.3239503], [4.3818042, 48.3240608], [4.3815842, 48.3241785], [4.3814609, 48.3242891], [4.3814072, 48.3244532], [4.3815038, 48.324735], [4.3815628, 48.3250488], [4.3814555, 48.3252486], [4.3812087, 48.3254804], [4.3810254, 48.3257806], [4.3811769, 48.3261403], [4.381654, 48.3267752], [4.3819276, 48.3269713], [4.3819651, 48.3270783], [4.3819651, 48.3272495], [4.3822602, 48.327781], [4.3825498, 48.328266], [4.3825123, 48.3283694], [4.3826786, 48.3286191], [4.3828181, 48.328694], [4.3832901, 48.3287582], [4.3836871, 48.3288545], [4.3838909, 48.3290328], [4.3838802, 48.3293538], [4.383789, 48.3294965], [4.3840143, 48.329657], [4.3845105, 48.3298859], [4.3841833, 48.3302354], [4.3839795, 48.3303888], [4.3845427, 48.3305849], [4.3860233, 48.331004], [4.3877882, 48.3315283], [4.3885982, 48.3318457], [4.389464, 48.3322997], [4.3896885, 48.33233], [4.3899352, 48.3324299], [4.3901176, 48.3324013], [4.3903483, 48.3323407], [4.3905307, 48.3324049], [4.3908096, 48.332273], [4.3910028, 48.3322088], [4.391271, 48.3322123], [4.3916519, 48.3322266], [4.3918396, 48.332305], [4.3918182, 48.3323728], [4.3917806, 48.3324406], [4.3918933, 48.332569], [4.3919791, 48.3327152], [4.3919415, 48.3329398], [4.3917484, 48.3331324], [4.3913997, 48.3332038], [4.3910028, 48.3332251], [4.3906357, 48.3332946]]]}}]}