{"type": "FeatureCollection", "features": [{"type": "Feature", "properties": {"name": "Lac du Gast"}, "geometry": {"type": "Polygon", "coordinates": [[[-1.0648867, 48.8008587], [-1.0641142, 48.8008538], [-1.0634962, 48.800952], [-1.0628235, 48.8012184], [-1.0622045, 48.8012898], [-1.0624545, 48.8008927], [-1.062242, 48.8004983], [-1.0619315, 48.7999383], [-1.0611885, 48.7997202], [-1.0608044, 48.799545], [-1.0601349, 48.7997217], [-1.0592959, 48.799687], [-1.0586575, 48.7994793], [-1.0557928, 48.8001365], [-1.0549868, 48.8004764], [-1.0546092, 48.8008301], [-1.0539348, 48.8022184], [-1.05372, 48.8025263], [-1.0532444, 48.8027945], [-1.0529842, 48.8030492], [-1.0529065, 48.8033134], [-1.052522, 48.8035164], [-1.0525449, 48.8044394], [-1.0523569, 48.8044518], [-1.052341, 48.8047554], [-1.0524867, 48.804939], [-1.0523684, 48.8049533], [-1.0522123, 48.8048439], [-1.0518532, 48.8044086], [-1.051107, 48.8042292], [-1.0497927, 48.8042859], [-1.0495202, 48.8043772], [-1.0492047, 48.8048681], [-1.0490527, 48.8048121], [-1.0488158, 48.8043353], [-1.0489277, 48.8035384], [-1.0488874, 48.8034407], [-1.0491165, 48.8032506], [-1.0495033, 48.8028318], [-1.049523, 48.8026742], [-1.0494998, 48.8024841], [-1.0494641, 48.8021921], [-1.0493973, 48.8021525], [-1.0492675, 48.8015788], [-1.0490798, 48.8015612], [-1.0490417, 48.8015336], [-1.049135, 48.8014829], [-1.0493717, 48.8014474], [-1.0494985, 48.8013632], [-1.049933, 48.8009925], [-1.0501084, 48.8003925], [-1.0500091, 48.7999644], [-1.0492666, 48.7990574], [-1.0489887, 48.7986277], [-1.0493567, 48.7982637], [-1.0499875, 48.79801], [-1.050215, 48.7972489], [-1.0498878, 48.7972185], [-1.0499736, 48.7966559], [-1.0503534, 48.7967089], [-1.051024, 48.796417], [-1.0515196, 48.796241], [-1.0520046, 48.7958615], [-1.0520904, 48.7948579], [-1.0525871, 48.7940953], [-1.053027, 48.7946515], [-1.0533757, 48.7944607], [-1.0546472, 48.7951782], [-1.0573314, 48.7964693], [-1.0579162, 48.7970227], [-1.0585459, 48.7971549], [-1.0593195, 48.7974997], [-1.0604203, 48.7978114], [-1.0635241, 48.7983612], [-1.0654037, 48.7987929], [-1.0655021, 48.7989446], [-1.0659492, 48.7990238], [-1.0661344, 48.7991994], [-1.0661657, 48.79938], [-1.0662781, 48.7996088], [-1.0654891, 48.8003176], [-1.0648867, 48.8008587]]]}}, {"type": "Feature", "properties": {"name": "Lac de la Dathée"}, "geometry": {"type": "Polygon", "coordinates": [[[-0.9638916, 48.8137025], [-0.9634601, 48.8137478], [-0.9627865, 48.813557], [-0.9616133, 48.812824], [-0.961468, 48.8127332], [-0.9610356, 48.812351], [-0.9605963, 48.8122164], [-0.9601912, 48.8122874], [-0.9598882, 48.8124849], [-0.9597503, 48.8127413], [-0.9597088, 48.8131052], [-0.9596243, 48.8133236], [-0.9593855, 48.8133182], [-0.9588625, 48.8132599], [-0.9587691, 48.8126142], [-0.9590647, 48.8115953], [-0.9589349, 48.8111566], [-0.9584752, 48.8107143], [-0.9580117, 48.8105451], [-0.9571963, 48.8101671], [-0.9569865, 48.8099819], [-0.9568202, 48.8098141], [-0.956456, 48.8096739], [-0.9560075, 48.8097092], [-0.9554559, 48.8099671], [-0.9547855, 48.8103769], [-0.9546342, 48.8103978], [-0.9546257, 48.8105747], [-0.9545361, 48.8107641], [-0.9543875, 48.8107609], [-0.9540635, 48.8105069], [-0.9537695, 48.810284], [-0.9532636, 48.8100929], [-0.9526676, 48.8092068], [-0.9523012, 48.8088692], [-0.9520996, 48.8084501], [-0.951856, 48.808254], [-0.9516618, 48.8082116], [-0.9511908, 48.8083448], [-0.9508926, 48.8085656], [-0.9504099, 48.8089127], [-0.95031, 48.8089846], [-0.9501051, 48.8091228], [-0.9499484, 48.8091383], [-0.9498138, 48.8090405], [-0.9496233, 48.8089387], [-0.9493948, 48.8088677], [-0.9491261, 48.808938], [-0.9489469, 48.8090292], [-0.9485668, 48.8092226], [-0.9483749, 48.8093202], [-0.9481288, 48.8093591], [-0.9479019, 48.809352], [-0.9476879, 48.8093128], [-0.947484, 48.8093556], [-0.9472694, 48.8094753], [-0.9472051, 48.8095969], [-0.9466793, 48.8098569], [-0.9461273, 48.8101112], [-0.945864, 48.8101625], [-0.9453168, 48.8102126], [-0.9446838, 48.8101957], [-0.9444692, 48.8102593], [-0.9442268, 48.8103804], [-0.9442201, 48.8102369], [-0.9442006, 48.8101689], [-0.9441818, 48.8101314], [-0.9441128, 48.8100431], [-0.9440678, 48.8099963], [-0.9439988, 48.8099437], [-0.9439196, 48.8098987], [-0.9437745, 48.8098403], [-0.943572, 48.8097897], [-0.9437933, 48.8096739], [-0.9438802, 48.8096124], [-0.9439757, 48.8095902], [-0.9440873, 48.8094757], [-0.9441688, 48.8093559], [-0.944201, 48.8090847], [-0.9443383, 48.8090087], [-0.9443812, 48.8089444], [-0.9443405, 48.8088416], [-0.9444156, 48.8087829], [-0.9445561, 48.8087794], [-0.9447374, 48.8088398], [-0.945188, 48.8090652], [-0.9453812, 48.8091076], [-0.9456065, 48.8090309], [-0.9458961, 48.808861], [-0.9460249, 48.808549], [-0.9460571, 48.8077806], [-0.9459954, 48.8074192], [-0.9457871, 48.8072074], [-0.9457781, 48.8071026], [-0.9459291, 48.8070788], [-0.9464047, 48.807374], [-0.946733, 48.8075609], [-0.9470441, 48.8075679], [-0.9473016, 48.8074906], [-0.9475269, 48.8073641], [-0.9476213, 48.8070999], [-0.9479346, 48.8069172], [-0.9481028, 48.8069137], [-0.9483187, 48.8068087], [-0.9484936, 48.8066628], [-0.9487007, 48.8062409], [-0.9488063, 48.8061049], [-0.948956, 48.8061236], [-0.9491277, 48.8063307], [-0.9494082, 48.8064448], [-0.9503083, 48.8064069], [-0.9511345, 48.8065222], [-0.951289, 48.806396], [-0.9517997, 48.8064794], [-0.9522101, 48.8064024], [-0.9525534, 48.8061565], [-0.9527803, 48.8059707], [-0.9528704, 48.805829], [-0.9530131, 48.8058014], [-0.9531869, 48.8059088], [-0.953828, 48.8062321], [-0.9543644, 48.8063028], [-0.9548769, 48.8062059], [-0.9553729, 48.8062427], [-0.955713, 48.806165], [-0.9562623, 48.8061615], [-0.9566378, 48.8060947], [-0.9567789, 48.8061293], [-0.9568781, 48.8061904], [-0.9567687, 48.8062756], [-0.9565467, 48.8064212], [-0.9547559, 48.8073091], [-0.9538989, 48.8077693], [-0.9533983, 48.8080339], [-0.9533146, 48.8082689], [-0.9533994, 48.8085292], [-0.9536048, 48.8088974], [-0.9540211, 48.809038], [-0.9546782, 48.809151], [-0.9551943, 48.8091592], [-0.9558445, 48.8089596], [-0.9568846, 48.8087402], [-0.957391, 48.808719], [-0.9595255, 48.8089249], [-0.9596725, 48.808929], [-0.9598463, 48.8088387], [-0.9600437, 48.8088377], [-0.9600748, 48.8089401], [-0.9610217, 48.809599], [-0.9611765, 48.8097763], [-0.9616262, 48.8101038], [-0.9622962, 48.8105013], [-0.962852, 48.8106447], [-0.9631127, 48.8109107], [-0.963367, 48.8110407], [-0.9632109, 48.8111269], [-0.9636395, 48.8115173], [-0.9638101, 48.8117881], [-0.9640188, 48.8119373], [-0.9645337, 48.8119906], [-0.9646378, 48.8121881], [-0.9645949, 48.8123333], [-0.964398, 48.8125258], [-0.9642473, 48.8127703], [-0.9640102, 48.8129151], [-0.9638396, 48.8131069], [-0.9638643, 48.8132341], [-0.9639388, 48.8133394], [-0.9641392, 48.8135199], [-0.9638916, 48.8137025]]]}}, {"type": "Feature", "properties": {"name": "Avant-Port"}, "geometry": {"type": "Polygon", "coordinates": [[[0.2326295, 49.4262945], [0.2326119, 49.4262816], [0.232004, 49.426068], [0.23373, 49.42399], [0.233836, 49.42386], [0.233875, 49.423809], [0.233897, 49.42378], [0.233915, 49.42375], [0.233937, 49.423713], [0.23395, 49.423679], [0.233964, 49.423643], [0.2340087, 49.4235467], [0.2341011, 49.4235563], [0.2341297, 49.4232346], [0.2341797, 49.4226444], [0.2342169, 49.4221664], [0.2342254, 49.4220565], [0.2342236, 49.4220142], [0.2342231, 49.4220021], [0.2342144, 49.4219311], [0.2341934, 49.4218607], [0.234173, 49.4218103], [0.2341887, 49.4218049], [0.2341786, 49.4217691], [0.2341595, 49.4217381], [0.2341403, 49.4217419], [0.2341327, 49.421732], [0.2341237, 49.421718], [0.2341147, 49.421708], [0.2338663, 49.42149], [0.2336294, 49.4212919], [0.2336386, 49.421286], [0.2339727, 49.4210728], [0.2341344, 49.4212459], [0.234296, 49.4214262], [0.2343604, 49.4214957], [0.2343794, 49.4215108], [0.2344001, 49.4215164], [0.234423, 49.4215163], [0.2344471, 49.4215118], [0.2344564, 49.4215065], [0.2344667, 49.4214955], [0.2344701, 49.421482], [0.2344667, 49.4214681], [0.23446, 49.421459], [0.2340301, 49.4209896], [0.234001, 49.4209572], [0.2340634, 49.4209155], [0.2341284, 49.4208719], [0.2341755, 49.4209134], [0.234188, 49.4209205], [0.2342023, 49.4209245], [0.234215, 49.420924], [0.23423, 49.420921], [0.234242, 49.420917], [0.23425, 49.420912], [0.235316, 49.420273], [0.235319, 49.420163], [0.2356, 49.419978], [0.235876, 49.420097], [0.235792, 49.420274], [0.235796, 49.420286], [0.235805, 49.420296], [0.235818, 49.420306], [0.235836, 49.42031], [0.235856, 49.420311], [0.2358735, 49.4203075], [0.235897, 49.420298], [0.235989, 49.420252], [0.236037, 49.420209], [0.236087, 49.4201878], [0.236104, 49.420165], [0.236241, 49.420224], [0.236225, 49.420241], [0.23622, 49.420247], [0.236216, 49.420252], [0.236203, 49.420283], [0.23618, 49.420307], [0.236178, 49.420311], [0.236075, 49.42054], [0.235668, 49.420884], [0.235346, 49.42116], [0.23533, 49.421183], [0.235325, 49.421209], [0.235329, 49.421226], [0.235338, 49.421241], [0.235361, 49.421262], [0.235388, 49.421273], [0.23541, 49.421279], [0.235435, 49.421282], [0.235464, 49.421282], [0.235492, 49.421276], [0.235518, 49.421265], [0.23554, 49.42125], [0.236177, 49.420706], [0.236486, 49.420442], [0.236495, 49.420438], [0.236503, 49.420435], [0.236511, 49.420435], [0.236519, 49.420438], [0.2366787, 49.4205262], [0.2366672, 49.4205341], [0.2367426, 49.4205762], [0.2367519, 49.420578], [0.2367614, 49.4205775], [0.23677, 49.4205741], [0.2367998, 49.4205503], [0.2367928, 49.4205432], [0.2368816, 49.4204708], [0.2368927, 49.420476], [0.236932, 49.420444], [0.236986, 49.420401], [0.237086, 49.420318], [0.237101, 49.420307], [0.237105, 49.420296], [0.237101, 49.420288], [0.237087, 49.420279], [0.236913, 49.420181], [0.236823, 49.420127], [0.238014, 49.41921], [0.238204, 49.419063], [0.2395316, 49.4180345], [0.2395411, 49.4180315], [0.2395549, 49.4180319], [0.239565, 49.4180366], [0.2402345, 49.4184084], [0.2402594, 49.4184069], [0.240495, 49.4183923], [0.240507, 49.418381], [0.2406039, 49.4183769], [0.2406079, 49.4183857], [0.241062, 49.4183644], [0.2410745, 49.4183609], [0.2410819, 49.4183555], [0.2410843, 49.4183486], [0.2410771, 49.4182722], [0.2410803, 49.4182642], [0.2410889, 49.4182582], [0.2410991, 49.4182547], [0.2414236, 49.4182394], [0.2417954, 49.4182219], [0.2450721, 49.4166628], [0.245112, 49.4166438], [0.247404, 49.416384], [0.2501022, 49.41607], [0.2501129, 49.4160663], [0.2501164, 49.4160599], [0.250098, 49.415993], [0.250145, 49.415977], [0.250171, 49.41596], [0.250175, 49.415951], [0.250187, 49.415932], [0.250196, 49.415905], [0.2502508, 49.415828], [0.2502717, 49.4157741], [0.2503186, 49.4157506], [0.2508838, 49.4158073], [0.2511579, 49.4158283], [0.2512283, 49.4158533], [0.25126, 49.415834], [0.251326, 49.415788], [0.251309, 49.415773], [0.251336, 49.415715], [0.2514243, 49.4157544], [0.251475, 49.415777], [0.251448, 49.415907], [0.251393, 49.415947], [0.251373, 49.415972], [0.251334, 49.416041], [0.251328, 49.416068], [0.251325, 49.416086], [0.251378, 49.416368], [0.251182, 49.416392], [0.2513079, 49.4169174], [0.2514921, 49.4169004], [0.2515738, 49.4172177], [0.2515566, 49.4172626], [0.2511111, 49.4173111], [0.2509355, 49.4173361], [0.2504487, 49.4173897], [0.2497219, 49.4174725], [0.2486033, 49.4175998], [0.2484825, 49.417578], [0.2484745, 49.4175554], [0.2479316, 49.4172998], [0.2476377, 49.4171615], [0.246779, 49.417285], [0.2460498, 49.4173442], [0.2457636, 49.417382], [0.2452049, 49.4174542], [0.2451612, 49.4174682], [0.2451472, 49.4174638], [0.2446715, 49.4176855], [0.2444184, 49.4178085], [0.2442921, 49.4178685], [0.2442081, 49.4179085], [0.2441721, 49.4179275], [0.2441501, 49.4179405], [0.2441181, 49.4179665], [0.2440071, 49.4180985], [0.2438111, 49.4183315], [0.2438041, 49.4183565], [0.2438151, 49.4183965], [0.2438592, 49.418447], [0.2418974, 49.4193812], [0.2416912, 49.4192165], [0.2416469, 49.4192173], [0.2415436, 49.4191388], [0.2415517, 49.4191022], [0.2411883, 49.4188405], [0.2411467, 49.4188409], [0.241105, 49.418525], [0.2411074, 49.4184987], [0.2410998, 49.4184877], [0.2410851, 49.4184814], [0.2407731, 49.4184964], [0.240611, 49.418503], [0.240611, 49.418516], [0.240514, 49.418523], [0.240494, 49.418509], [0.24023, 49.418527], [0.2401673, 49.4185755], [0.238505, 49.419861], [0.237622, 49.420546], [0.2376053, 49.4205504], [0.237586, 49.420549], [0.2373024, 49.4203986], [0.2372864, 49.4203986], [0.2372744, 49.4204046], [0.236956, 49.420667], [0.236956, 49.420677], [0.236965, 49.420689], [0.237194, 49.4208126], [0.2358439, 49.4218507], [0.2359384, 49.4218986], [0.2356602, 49.4221363], [0.2354965, 49.4223073], [0.2354073, 49.42243], [0.2352704, 49.4226404], [0.2352262, 49.4227166], [0.2351854, 49.422787], [0.2351278, 49.4229406], [0.2350543, 49.4229263], [0.2350251, 49.4230307], [0.2350391, 49.4230309], [0.235024, 49.4231201], [0.23501, 49.4231194], [0.2349937, 49.4232253], [0.2349879, 49.4232808], [0.2349863, 49.4233036], [0.2349862, 49.4233125], [0.2349873, 49.4233197], [0.2349913, 49.4233282], [0.2349973, 49.423335], [0.2350044, 49.4233426], [0.2350126, 49.4233484], [0.2350259, 49.4233546], [0.2350387, 49.4233588], [0.235053, 49.423362], [0.2350654, 49.4233633], [0.2350794, 49.4233631], [0.2350926, 49.4233618], [0.2351057, 49.4233574], [0.2351161, 49.4233528], [0.2351281, 49.4233452], [0.2351382, 49.4233522], [0.235149, 49.4233567], [0.235162, 49.4233597], [0.2351791, 49.4233618], [0.2352009, 49.4233627], [0.2352295, 49.4233612], [0.2352572, 49.4233574], [0.2352951, 49.4233485], [0.2353229, 49.4233398], [0.2353589, 49.4233258], [0.2355183, 49.4232613], [0.2357028, 49.4231855], [0.2363889, 49.4228619], [0.2364938, 49.4229498], [0.2365085, 49.4229428], [0.2365918, 49.4230148], [0.2367385, 49.4231417], [0.23673, 49.4231508], [0.2368702, 49.4232686], [0.2368283, 49.4234161], [0.2367787, 49.4234527], [0.2367142, 49.4234428], [0.2366654, 49.4234658], [0.2366591, 49.4235228], [0.2366448, 49.4235597], [0.2365319, 49.4236404], [0.2364077, 49.4236893], [0.2362845, 49.4237545], [0.2362242, 49.4237616], [0.2361126, 49.4238025], [0.2358972, 49.4239102], [0.235798, 49.423947], [0.2356729, 49.4240073], [0.2355616, 49.4240291], [0.2355435, 49.4240564], [0.2355462, 49.4241183], [0.2355405, 49.4241419], [0.2354546, 49.424171], [0.2352933, 49.4242346], [0.235188, 49.4242944], [0.235151, 49.4242987], [0.235105, 49.4243329], [0.2350982, 49.4243535], [0.2351238, 49.4243818], [0.2350701, 49.4244228], [0.235038, 49.4244105], [0.2349963, 49.4244081], [0.2349297, 49.4244723], [0.2349776, 49.4244995], [0.2349159, 49.424551], [0.2348649, 49.4245335], [0.2348066, 49.4245955], [0.2348991, 49.4246653], [0.2348395, 49.4247098], [0.2347429, 49.4246513], [0.2347085, 49.4246726], [0.2347738, 49.4247429], [0.2347309, 49.4247686], [0.2346404, 49.4247157], [0.2344924, 49.4249121], [0.2344471, 49.4249726], [0.2346777, 49.4250844], [0.2346048, 49.4251843], [0.2345055, 49.425289], [0.2342352, 49.4252274], [0.2340195, 49.4254871], [0.2335852, 49.4260424], [0.2333517, 49.4263167], [0.2332109, 49.426484], [0.2329226, 49.4263877], [0.2328911, 49.4264023], [0.2328802, 49.4264154], [0.2328992, 49.4264221], [0.2328124, 49.4265269], [0.2326923, 49.4264441], [0.2325215, 49.4264249], [0.2326295, 49.4262945]]]}}, {"type": "Feature", "properties": {"name": "Lac de Pont-L'Évêque"}, "geometry": {"type": "Polygon", "coordinates": [[[0.2027508, 49.2702612], [0.2021687, 49.2701796], [0.2020129, 49.2700954], [0.2010749, 49.2700307], [0.2007348, 49.2700351], [0.2003585, 49.2704], [0.200336, 49.2707313], [0.2002475, 49.2708102], [0.1990855, 49.2708193], [0.1986626, 49.2708226], [0.1968531, 49.2713492], [0.1942415, 49.2728595], [0.1925595, 49.2741277], [0.1932705, 49.2751735], [0.193866, 49.2753844], [0.1942898, 49.275972], [0.194853, 49.276924], [0.1953787, 49.2774745], [0.1953895, 49.2776234], [0.196296, 49.2786983], [0.1964784, 49.2793387], [0.1964839, 49.2796138], [0.1964945, 49.2801468], [0.1966401, 49.2803103], [0.196965, 49.2805361], [0.1972141, 49.2805896], [0.1976109, 49.2806229], [0.1979081, 49.2804689], [0.1985107, 49.2804178], [0.1990593, 49.2802166], [0.2004178, 49.2793356], [0.2006849, 49.2790936], [0.2007617, 49.2786567], [0.2013898, 49.2781277], [0.2018452, 49.2776313], [0.2019976, 49.2770989], [0.2022466, 49.2768922], [0.2023082, 49.2767423], [0.2022758, 49.2765901], [0.2010563, 49.2752686], [0.2008204, 49.2744569], [0.2023734, 49.2744947], [0.2024856, 49.2744682], [0.2026239, 49.2744356], [0.2030405, 49.2742592], [0.2031665, 49.2741228], [0.2036914, 49.2738057], [0.2042783, 49.2733327], [0.2043425, 49.2732835], [0.20469, 49.273017], [0.2048738, 49.2725489], [0.2047235, 49.2721264], [0.2027508, 49.2702612]]]}}]}