{"type": "FeatureCollection", "features": [{"type": "Feature", "properties": {"name": "Étang de Saint-Maigrin"}, "geometry": {"type": "Polygon", "coordinates": [[[-0.2601305, 45.4111088], [-0.2602453, 45.4112309], [-0.2600157, 45.4120635], [-0.2599486, 45.4123425], [-0.2598418, 45.4127862], [-0.2598303, 45.4128228], [-0.2597271, 45.4131499], [-0.2596332, 45.413211], [-0.2590767, 45.4131719], [-0.2590141, 45.4130498], [-0.258875, 45.4130059], [-0.258628, 45.4130083], [-0.2583011, 45.41294], [-0.2579464, 45.4128667], [-0.2577307, 45.4128545], [-0.2575812, 45.4129131], [-0.2573238, 45.4131109], [-0.2572508, 45.4133453], [-0.2573134, 45.4137774], [-0.2572925, 45.4141558], [-0.2571708, 45.4143634], [-0.2570525, 45.4144976], [-0.2567395, 45.4145294], [-0.2564126, 45.4144903], [-0.2560474, 45.4143951], [-0.2560543, 45.4142242], [-0.2561517, 45.4139214], [-0.2560126, 45.4137115], [-0.2558144, 45.413504], [-0.2558178, 45.4132134], [-0.2557031, 45.4129278], [-0.2553727, 45.4127471], [-0.2550492, 45.4128081], [-0.2548127, 45.4130254], [-0.2546353, 45.4130865], [-0.2543954, 45.4130352], [-0.2541345, 45.4130767], [-0.2540024, 45.412979], [-0.2535746, 45.4127398], [-0.2530807, 45.4126153], [-0.2526668, 45.4125029], [-0.2523677, 45.4124395], [-0.2521104, 45.4124126], [-0.2517486, 45.4124468], [-0.2513035, 45.4123882], [-0.25122, 45.4123101], [-0.2509765, 45.4121172], [-0.2506844, 45.4121025], [-0.2503888, 45.4120757], [-0.2500723, 45.4120806], [-0.2496619, 45.4120244], [-0.2494567, 45.4120122], [-0.2491715, 45.4120684], [-0.2490045, 45.4121587], [-0.2488793, 45.412293], [-0.2487263, 45.4123101], [-0.2486046, 45.4121758], [-0.2484133, 45.4120049], [-0.2479681, 45.4118706], [-0.2474916, 45.4117558], [-0.2471021, 45.4115532], [-0.2465248, 45.411331], [-0.2462848, 45.4113505], [-0.2458953, 45.4111992], [-0.24577, 45.4110551], [-0.2453249, 45.4109941], [-0.244511, 45.4109013], [-0.2439754, 45.4107939], [-0.2436172, 45.4107792], [-0.2433007, 45.410662], [-0.242932, 45.4103617], [-0.2425912, 45.4102494], [-0.2422156, 45.4100565], [-0.2415374, 45.409993], [-0.2408174, 45.4098538], [-0.240181, 45.4097318], [-0.2396871, 45.4096805], [-0.2395202, 45.4095853], [-0.2373743, 45.4097025], [-0.2373813, 45.4096559], [-0.2373882, 45.4096097], [-0.2385672, 45.4095071], [-0.2396071, 45.4094095], [-0.2401532, 45.4094266], [-0.2407514, 45.4093777], [-0.2413496, 45.4092483], [-0.2417878, 45.4091238], [-0.2420069, 45.4092141], [-0.2423547, 45.40918], [-0.2427408, 45.4092898], [-0.2431685, 45.409451], [-0.2435059, 45.4095584], [-0.2439302, 45.4094949], [-0.2441876, 45.4094266], [-0.2445667, 45.4094705], [-0.2449353, 45.4096658], [-0.2453909, 45.4097269], [-0.2458535, 45.4099076], [-0.2465039, 45.4100834], [-0.2469282, 45.4101932], [-0.2474986, 45.4103202], [-0.247902, 45.4102762], [-0.2483403, 45.4102836], [-0.2486463, 45.4103739], [-0.2490741, 45.4104252], [-0.2493628, 45.4103226], [-0.2495019, 45.4101566], [-0.2497106, 45.4098368], [-0.2498984, 45.4093728], [-0.2499784, 45.4092874], [-0.250041, 45.4093069], [-0.2501279, 45.4094583], [-0.2502566, 45.4098612], [-0.2503262, 45.4100956], [-0.2505209, 45.4103568], [-0.2509383, 45.4106425], [-0.2514148, 45.4109452], [-0.2515852, 45.4110356], [-0.251766, 45.4109941], [-0.2519678, 45.4108158], [-0.2521138, 45.4105228], [-0.2523399, 45.4102958], [-0.2523538, 45.4100882], [-0.252486, 45.4097269], [-0.2526807, 45.409595], [-0.2530598, 45.4093753], [-0.2532511, 45.409451], [-0.2532789, 45.4096243], [-0.2531433, 45.409954], [-0.2530424, 45.4103837], [-0.253185, 45.4108012], [-0.2535815, 45.4111723], [-0.2539745, 45.4113603], [-0.2544023, 45.4114848], [-0.2549031, 45.4115288], [-0.2554492, 45.4114506], [-0.2558874, 45.4114751], [-0.2562422, 45.4114482], [-0.2567291, 45.411353], [-0.2571986, 45.4111918], [-0.2576785, 45.4109892], [-0.2580368, 45.4109867], [-0.2583115, 45.4111162], [-0.2588298, 45.4111162], [-0.2592193, 45.411204], [-0.2596714, 45.411204], [-0.259894, 45.4110722], [-0.2601305, 45.4111088]]]}}, {"type": "Feature", "properties": {"name": "Grand plan d'eau"}, "geometry": {"type": "Polygon", "coordinates": [[[-0.7137713, 45.3341552], [-0.7137348, 45.3341757], [-0.7137092, 45.3342683], [-0.7137567, 45.3343325], [-0.7137311, 45.3344045], [-0.7137092, 45.334479], [-0.7136726, 45.3345742], [-0.7137018, 45.3346461], [-0.7136653, 45.3347849], [-0.7137567, 45.3349392], [-0.7138518, 45.3349777], [-0.7139249, 45.3349494], [-0.7140273, 45.3348723], [-0.7142028, 45.3347515], [-0.7142942, 45.3346307], [-0.714382, 45.3345793], [-0.7144661, 45.3344379], [-0.714499, 45.3342811], [-0.7145465, 45.3341706], [-0.7146416, 45.3342477], [-0.7146782, 45.3343788], [-0.7147147, 45.3344559], [-0.7147513, 45.3345536], [-0.7146965, 45.3345973], [-0.7145758, 45.3346795], [-0.7145027, 45.3347747], [-0.7144917, 45.3348878], [-0.7143674, 45.334952], [-0.7142101, 45.3350034], [-0.7141187, 45.3351397], [-0.7140785, 45.3352271], [-0.714115, 45.3353222], [-0.7142028, 45.3353684], [-0.7143381, 45.3353761], [-0.7144807, 45.3353376], [-0.7145648, 45.3353761], [-0.7145538, 45.3354224], [-0.7146891, 45.3355484], [-0.7148281, 45.3355715], [-0.7149963, 45.3355432], [-0.7151279, 45.3355047], [-0.7151682, 45.3354198], [-0.7151938, 45.3353247], [-0.7152962, 45.3352579], [-0.7153876, 45.3352502], [-0.7154461, 45.3352836], [-0.7154534, 45.3353761], [-0.7153218, 45.3354918], [-0.7152157, 45.3355895], [-0.7150804, 45.3357206], [-0.7148903, 45.3359853], [-0.7148647, 45.3361139], [-0.7150073, 45.336245], [-0.7152486, 45.3363246], [-0.7155814, 45.3364146], [-0.7159726, 45.3365226], [-0.7161006, 45.3366562], [-0.7162176, 45.3366485], [-0.7162725, 45.3366048], [-0.7165248, 45.3366974], [-0.7166747, 45.3367873], [-0.7168173, 45.3368156], [-0.7169417, 45.3368413], [-0.7170075, 45.3369004], [-0.7170258, 45.3370392], [-0.7170916, 45.3372628], [-0.7171062, 45.3373554], [-0.7172049, 45.3374145], [-0.717311, 45.3375456], [-0.7173951, 45.337669], [-0.7174755, 45.3378103], [-0.7175523, 45.3379389], [-0.7176328, 45.3380083], [-0.7177717, 45.3380674], [-0.7178595, 45.3380725], [-0.7180277, 45.3380211], [-0.7182983, 45.3380597], [-0.7183531, 45.337998], [-0.7185031, 45.3380597], [-0.718631, 45.3380365], [-0.7187225, 45.3379877], [-0.7188102, 45.3379928], [-0.7187956, 45.3378746], [-0.7187444, 45.3378592], [-0.7188066, 45.3377949], [-0.7187919, 45.3377178], [-0.7186786, 45.3376715], [-0.7185579, 45.3375713], [-0.7185177, 45.3375199], [-0.7184116, 45.3375353], [-0.7183824, 45.3375045], [-0.7183897, 45.3374402], [-0.7183824, 45.3372603], [-0.7184701, 45.3371703], [-0.7184336, 45.3370906], [-0.7183349, 45.3370341], [-0.7182434, 45.336885], [-0.7181959, 45.3367256], [-0.7181996, 45.3365354], [-0.718174, 45.3363812], [-0.7181081, 45.3362887], [-0.7180387, 45.3361396], [-0.7179436, 45.3360625], [-0.7178302, 45.3359699], [-0.7178193, 45.3358825], [-0.7177278, 45.3357514], [-0.7174024, 45.3354918], [-0.717289, 45.3352862], [-0.7172708, 45.3351808], [-0.717183, 45.335114], [-0.7171026, 45.3349289], [-0.7170514, 45.3348775], [-0.7169782, 45.3346924], [-0.7172305, 45.3344662], [-0.7172744, 45.3343531], [-0.7172519, 45.3343076], [-0.7172159, 45.3342348], [-0.7170696, 45.3341629], [-0.7169782, 45.3341732], [-0.716927, 45.334132], [-0.7169161, 45.3339675], [-0.7169965, 45.3337362], [-0.7170733, 45.3334997], [-0.7170184, 45.3334071], [-0.7169051, 45.3333506], [-0.7167369, 45.3333352], [-0.7166052, 45.3333609], [-0.7162652, 45.3334483], [-0.7160897, 45.3335973], [-0.7158666, 45.333767], [-0.715724, 45.3338493], [-0.7155887, 45.3338364], [-0.71549, 45.3337516], [-0.71549, 45.3335896], [-0.7156033, 45.3334688], [-0.7157935, 45.33333], [-0.7160458, 45.3331244], [-0.7161299, 45.3328596], [-0.7161226, 45.3327542], [-0.7160567, 45.3325588], [-0.715947, 45.3324817], [-0.7158227, 45.3324689], [-0.7155777, 45.3326334], [-0.7154278, 45.332785], [-0.715245, 45.3328545], [-0.7151535, 45.3328724], [-0.7150146, 45.332839], [-0.7149744, 45.3326874], [-0.7149305, 45.3323943], [-0.7150548, 45.3321938], [-0.7150694, 45.3320087], [-0.7151279, 45.3318391], [-0.7152303, 45.3317619], [-0.7153291, 45.3316977], [-0.7153839, 45.331636], [-0.715362, 45.3315126], [-0.7152852, 45.3312966], [-0.7151572, 45.3312118], [-0.7151426, 45.3310524], [-0.7150694, 45.3308725], [-0.7149744, 45.3307902], [-0.7146087, 45.3307979], [-0.7142723, 45.330744], [-0.7142138, 45.3307131], [-0.7145831, 45.3307182], [-0.7147879, 45.3307362], [-0.7149488, 45.3307208], [-0.7149927, 45.3306437], [-0.7148683, 45.3305486], [-0.7148025, 45.3304329], [-0.7146014, 45.3304175], [-0.7145209, 45.330474], [-0.7144697, 45.3305666], [-0.7144515, 45.3306051], [-0.7143344, 45.3305614], [-0.714148, 45.3304946], [-0.71402, 45.3304689], [-0.7139176, 45.330474], [-0.7138335, 45.3305691], [-0.7138737, 45.3306643], [-0.7140858, 45.3306874], [-0.714115, 45.330726], [-0.7139395, 45.3307131], [-0.7137604, 45.3307465], [-0.7135848, 45.3308931], [-0.7135227, 45.3309522], [-0.713519, 45.3309907], [-0.7134706, 45.3309938], [-0.7134203, 45.3309496], [-0.7133727, 45.3308982], [-0.7133654, 45.3307671], [-0.7133654, 45.3305666], [-0.7132521, 45.3300961], [-0.7131643, 45.3299188], [-0.7131095, 45.3299213], [-0.71304, 45.3298365], [-0.7128498, 45.3298314], [-0.7127255, 45.3298493], [-0.7126048, 45.3297954], [-0.712561, 45.3297208], [-0.7124915, 45.3297002], [-0.7123452, 45.3297234], [-0.7120746, 45.3297414], [-0.7114201, 45.3299239], [-0.7112226, 45.3298725], [-0.7111824, 45.3299445], [-0.7110873, 45.3298545], [-0.7109667, 45.3299085], [-0.7108496, 45.3300242], [-0.7108058, 45.3301321], [-0.7108387, 45.3303018], [-0.710835, 45.3304278], [-0.7109922, 45.330474], [-0.7111422, 45.3305074], [-0.7107948, 45.3305589], [-0.7108204, 45.3306386], [-0.7110544, 45.3308236], [-0.7114237, 45.3310756], [-0.7116102, 45.3312889], [-0.7116029, 45.3314972], [-0.7115371, 45.3315974], [-0.7115298, 45.33169], [-0.711676, 45.3318879], [-0.7117236, 45.332019], [-0.7118845, 45.3321501], [-0.7120454, 45.3322041], [-0.7122392, 45.3321784], [-0.712316, 45.3320293], [-0.7123891, 45.3320139], [-0.7124513, 45.332019], [-0.7124988, 45.3320524], [-0.7125756, 45.3319882], [-0.7126231, 45.3318982], [-0.7125683, 45.3318031], [-0.7126853, 45.3317542], [-0.7129339, 45.3317105], [-0.7131204, 45.3316694], [-0.7132594, 45.331672], [-0.7131643, 45.3317619], [-0.713029, 45.3317928], [-0.7130254, 45.3318519], [-0.7130071, 45.331929], [-0.7129303, 45.3320833], [-0.7128462, 45.3322195], [-0.7127036, 45.3322863], [-0.7126524, 45.33233], [-0.7126816, 45.3324329], [-0.712678, 45.3324843], [-0.7125975, 45.3324714], [-0.712433, 45.3324509], [-0.7123745, 45.3325897], [-0.712433, 45.3327259], [-0.7125061, 45.3328724], [-0.7126195, 45.3328827], [-0.7127913, 45.3328699], [-0.7130071, 45.3328724], [-0.7131277, 45.3328416], [-0.7131497, 45.3327696], [-0.7132192, 45.3327259], [-0.7133142, 45.3328082], [-0.7133508, 45.332839], [-0.7133508, 45.3329161], [-0.7133947, 45.3329676], [-0.7134459, 45.3330138], [-0.7133801, 45.333073], [-0.7131533, 45.3331064], [-0.7131021, 45.3332041], [-0.7131241, 45.33333], [-0.7132338, 45.3335202], [-0.7132704, 45.3336076], [-0.7133545, 45.3335845], [-0.7135483, 45.333456], [-0.7135629, 45.3333249], [-0.7135812, 45.3332992], [-0.7136982, 45.33333], [-0.7137165, 45.333438], [-0.7136762, 45.3335665], [-0.7135556, 45.3337156], [-0.7135519, 45.3338184], [-0.7136214, 45.3339444], [-0.7137567, 45.3340241], [-0.7138335, 45.3340755], [-0.7137713, 45.3341552]]]}}, {"type": "Feature", "properties": {"name": "Lac de Cadeuil"}, "geometry": {"type": "Polygon", "coordinates": [[[-0.9425916, 45.7595104], [-0.9425114, 45.7594153], [-0.9423937, 45.7594171], [-0.9422974, 45.7592175], [-0.9417305, 45.758794], [-0.9414524, 45.7587044], [-0.9400644, 45.7590641], [-0.9397694, 45.7590271], [-0.9382944, 45.7595337], [-0.9379465, 45.7595126], [-0.9372809, 45.7598292], [-0.935579, 45.7594365], [-0.9348348, 45.7593434], [-0.9343287, 45.759331], [-0.933923, 45.7594256], [-0.9336653, 45.7595139], [-0.9329762, 45.7593385], [-0.9323158, 45.7594741], [-0.9320365, 45.7597409], [-0.9322499, 45.7608702], [-0.9325928, 45.7611469], [-0.932603, 45.7613175], [-0.9323915, 45.7615399], [-0.932132, 45.7616345], [-0.9315795, 45.761715], [-0.9313676, 45.7617019], [-0.9314346, 45.7605922], [-0.9313273, 45.7605155], [-0.9308901, 45.760697], [-0.9307453, 45.7615129], [-0.9306648, 45.7619077], [-0.9308097, 45.7620481], [-0.9309089, 45.7622763], [-0.9313756, 45.7623568], [-0.9317386, 45.762382], [-0.9324402, 45.7625911], [-0.9326632, 45.7627585], [-0.9330981, 45.7629795], [-0.9334385, 45.7630006], [-0.9338167, 45.7629215], [-0.9342024, 45.7625099], [-0.9341486, 45.7622296], [-0.9337314, 45.7621251], [-0.9343518, 45.7615206], [-0.9346888, 45.7615803], [-0.9348546, 45.7615281], [-0.9351166, 45.7615729], [-0.9351915, 45.7619311], [-0.9356836, 45.7623005], [-0.9357371, 45.7624087], [-0.9360797, 45.7626453], [-0.9362618, 45.7627179], [-0.936457, 45.7627959], [-0.9366818, 45.7630017], [-0.937379, 45.7625467], [-0.9375636, 45.7627221], [-0.9383819, 45.7629422], [-0.9386707, 45.7629087], [-0.9388205, 45.7627445], [-0.9388926, 45.762584], [-0.9388498, 45.762446], [-0.9391975, 45.7619684], [-0.9392614, 45.761948], [-0.9393258, 45.7619274], [-0.9394355, 45.7619063], [-0.9395211, 45.7619342], [-0.9397086, 45.7619829], [-0.939866, 45.7619497], [-0.9403794, 45.7620206], [-0.9405506, 45.7619497], [-0.9406308, 45.7618527], [-0.9405399, 45.7617557], [-0.9406041, 45.7614497], [-0.9407378, 45.7614572], [-0.9408768, 45.7615766], [-0.9410373, 45.7615318], [-0.9410361, 45.7613797], [-0.9409149, 45.7613136], [-0.940921, 45.7611615], [-0.9411603, 45.7607408], [-0.9414919, 45.7603639], [-0.9419412, 45.7600468], [-0.941953, 45.7598667], [-0.9420964, 45.7598821], [-0.9424707, 45.7597408], [-0.9425135, 45.7596251], [-0.9425916, 45.7595104]]]}}]}