{"type": "FeatureCollection", "features": [{"type": "Feature", "properties": {"name": "Lac de la Roberte"}, "geometry": {"type": "Polygon", "coordinates": [[[4.7041955, 44.5243418], [4.704219, 44.5244328], [4.7045201, 44.5253094], [4.7049796, 44.5264253], [4.7054698, 44.527178], [4.7055806, 44.5271586], [4.7057901, 44.5270269], [4.7070473, 44.5267316], [4.7072379, 44.5267214], [4.7075027, 44.526648], [4.7077481, 44.5266186], [4.7086354, 44.5263854], [4.7094193, 44.5262119], [4.7098367, 44.5261688], [4.7099777, 44.5262796], [4.7108083, 44.5259798], [4.7109531, 44.5259336], [4.7110329, 44.5258655], [4.7110597, 44.5253709], [4.7112518, 44.5253483], [4.7115708, 44.5236399], [4.711286, 44.5235988], [4.7109311, 44.5236574], [4.710678, 44.5230774], [4.7103578, 44.5225365], [4.7098261, 44.5222229], [4.7094803, 44.5222407], [4.7089318, 44.522456], [4.7085907, 44.522515], [4.7083629, 44.5224598], [4.7082273, 44.5225047], [4.7081285, 44.5226974], [4.7079871, 44.5226835], [4.7077752, 44.5226407], [4.7073319, 44.5223901], [4.7067284, 44.5225102], [4.7056116, 44.5227757], [4.7044744, 44.5231596], [4.7042764, 44.5232623], [4.7040959, 44.5233775], [4.703974, 44.5236161], [4.7039666, 44.5238175], [4.7039187, 44.5239071], [4.7040263, 44.5240028], [4.7040855, 44.5241576], [4.7041955, 44.5243418]]]}}, {"type": "Feature", "properties": {"name": "Lac de Grande ile"}, "geometry": {"type": "Polygon", "coordinates": [[[4.6932919, 44.4980307], [4.6938234, 44.4983782], [4.6964031, 44.4978491], [4.6964585, 44.4976359], [4.6967242, 44.4975253], [4.6971782, 44.4976122], [4.6982632, 44.4974147], [4.6986065, 44.4973042], [4.6990272, 44.4968224], [4.6989054, 44.4961669], [4.6985732, 44.4954641], [4.6981636, 44.4953456], [4.6983075, 44.4951245], [4.6979643, 44.4942478], [4.6975989, 44.4935607], [4.6973332, 44.493458], [4.6971782, 44.4932606], [4.6973553, 44.4928341], [4.6966467, 44.4910096], [4.6961115, 44.4904994], [4.6959334, 44.4906978], [4.6954174, 44.4907167], [4.6947977, 44.4912071], [4.6943216, 44.4922417], [4.6940116, 44.4924708], [4.6936352, 44.4932843], [4.6940559, 44.4937028], [4.6941628, 44.4941605], [4.694233, 44.494461], [4.6942995, 44.4951008], [4.6944323, 44.4955351], [4.6946759, 44.4959063], [4.6950856, 44.4959774], [4.6951742, 44.4961906], [4.6949859, 44.4962538], [4.6947645, 44.4962143], [4.694067, 44.496467], [4.6934469, 44.4967751], [4.6932919, 44.4980307]]]}}]}