{"type": "FeatureCollection", "features": [{"type": "Feature", "properties": {"name": "Plan d'eau d'Igoville"}, "geometry": {"type": "Polygon", "coordinates": [[[1.1362534, 49.3153016], [1.1405006, 49.3154471], [1.1409528, 49.3151948], [1.141166, 49.3134678], [1.1409025, 49.3133297], [1.1386165, 49.3132105], [1.1385239, 49.3133495], [1.1384066, 49.3138203], [1.1380924, 49.3138047], [1.1381148, 49.3133699], [1.1379492, 49.3132259], [1.1377275, 49.3131669], [1.137338, 49.3132029], [1.1372491, 49.3130091], [1.1373283, 49.3128624], [1.1395099, 49.312933], [1.1397083, 49.3128455], [1.1397462, 49.3127086], [1.1398542, 49.3125926], [1.1400029, 49.3125774], [1.1400525, 49.3127676], [1.1401575, 49.3129692], [1.1403734, 49.3130205], [1.1414203, 49.3130557], [1.1419308, 49.3131389], [1.1449321, 49.3130894], [1.1450714, 49.3124644], [1.1451238, 49.3111182], [1.1450551, 49.3110365], [1.1450073, 49.3108583], [1.1448505, 49.3108687], [1.1430218, 49.3109434], [1.1429286, 49.3109157], [1.142831, 49.3109512], [1.1419898, 49.3109856], [1.1402971, 49.3110547], [1.1398126, 49.311194], [1.1393327, 49.3112163], [1.1384165, 49.3111836], [1.1378377, 49.3113262], [1.1377806, 49.3113298], [1.1376964, 49.3113351], [1.137555, 49.3112698], [1.13656, 49.311287], [1.1361866, 49.3113539], [1.135922, 49.311319], [1.1357176, 49.3113281], [1.1356779, 49.3114011], [1.1355028, 49.3114741], [1.1352315, 49.3113106], [1.1349684, 49.3113463], [1.1348015, 49.3114595], [1.1347539, 49.3115548], [1.1347817, 49.3116599], [1.1347689, 49.3117901], [1.1347227, 49.3120267], [1.1345354, 49.3124185], [1.1346771, 49.3128829], [1.1346515, 49.3131761], [1.1346868, 49.3138138], [1.1347243, 49.3139792], [1.1348241, 49.3140484], [1.1347565, 49.3141208], [1.1347808, 49.3144056], [1.1348332, 49.3146593], [1.1347987, 49.3147991], [1.1348354, 49.3148631], [1.1348271, 49.3149477], [1.134755, 49.3149767], [1.1347206, 49.3151161], [1.1348427, 49.3151758], [1.1349485, 49.3152275], [1.1353545, 49.3152228], [1.1356678, 49.3151764], [1.1358103, 49.3152182], [1.1362534, 49.3153016]]]}}, {"type": "Feature", "properties": {"name": "La Grand-Mare"}, "geometry": {"type": "Polygon", "coordinates": [[[0.5324153, 49.4219608], [0.5323575, 49.4219125], [0.5330333, 49.4216786], [0.5334946, 49.4215894], [0.5337048, 49.4214503], [0.5333138, 49.4214871], [0.5328673, 49.4215931], [0.532166, 49.4217524], [0.5316766, 49.4213433], [0.5328495, 49.4210302], [0.5334302, 49.4208414], [0.5331037, 49.4208699], [0.5327166, 49.4209621], [0.5314993, 49.4211951], [0.5313802, 49.4210955], [0.5321809, 49.4207123], [0.5332567, 49.4204444], [0.5320999, 49.4206192], [0.5311895, 49.4209799], [0.5302865, 49.4203605], [0.529515, 49.4192713], [0.5295579, 49.4202833], [0.5289565, 49.4206973], [0.5262703, 49.4210404], [0.5253415, 49.4206881], [0.5251913, 49.4216721], [0.5240648, 49.4219408], [0.5239239, 49.4219279], [0.5216508, 49.4217803], [0.5212324, 49.4216041], [0.5199449, 49.421981], [0.5192583, 49.4224765], [0.5175524, 49.4232825], [0.5169086, 49.4235198], [0.5159967, 49.4246643], [0.5154549, 49.4248579], [0.5131374, 49.4246276], [0.5114906, 49.425165], [0.5111472, 49.4251057], [0.5096237, 49.4243624], [0.509039, 49.4237618], [0.5074887, 49.4228005], [0.5067109, 49.4223748], [0.5063783, 49.4223434], [0.5049781, 49.4216769], [0.5038516, 49.4212512], [0.5029719, 49.4212739], [0.5026607, 49.4212739], [0.5023228, 49.4213323], [0.5014698, 49.4209328], [0.5007161, 49.4206292], [0.5004559, 49.4204111], [0.4999249, 49.4202213], [0.4994394, 49.4201337], [0.4980017, 49.419981], [0.4973741, 49.4200211], [0.4986803, 49.4201171], [0.499831, 49.4202781], [0.5003728, 49.4204687], [0.5006544, 49.4207321], [0.5016012, 49.4211195], [0.5017166, 49.4213149], [0.5023335, 49.4215574], [0.5027626, 49.42141], [0.5036746, 49.4213402], [0.5039428, 49.4214815], [0.5038355, 49.4216525], [0.5055736, 49.4222806], [0.5076496, 49.4232158], [0.5087923, 49.4240759], [0.5094574, 49.424816], [0.5112492, 49.4257686], [0.5125044, 49.4257442], [0.5138777, 49.4252138], [0.5149935, 49.4255732], [0.5168014, 49.425397], [0.5174773, 49.4239629], [0.5176919, 49.4237291], [0.518357, 49.4236698], [0.5192851, 49.4233174], [0.5199986, 49.4228812], [0.5200951, 49.4225602], [0.5210875, 49.4220856], [0.5219941, 49.4221031], [0.5225413, 49.4221572], [0.524828, 49.4223287], [0.5251581, 49.4222362], [0.5270474, 49.4244567], [0.5271225, 49.4252592], [0.5282074, 49.4262064], [0.5281847, 49.4266898], [0.5302421, 49.4283056], [0.5300635, 49.4284317], [0.5280143, 49.4290021], [0.5263969, 49.4295892], [0.5256459, 49.4304771], [0.5246642, 49.4312376], [0.5238729, 49.4315159], [0.5228537, 49.4314426], [0.5199676, 49.4321142], [0.5198329, 49.4323101], [0.5193373, 49.4323139], [0.5187928, 49.432532], [0.5183315, 49.4337373], [0.5182028, 49.43451], [0.5184334, 49.4346845], [0.5190772, 49.4327587], [0.5192086, 49.4326663], [0.5197656, 49.4326677], [0.5227464, 49.4318229], [0.5235404, 49.4318194], [0.52475, 49.4316458], [0.5259356, 49.4310074], [0.5266329, 49.4301142], [0.5263969, 49.430027], [0.5267456, 49.429563], [0.5283335, 49.4289899], [0.5301735, 49.428505], [0.5304283, 49.4284151], [0.5317228, 49.4290648], [0.5323042, 49.4293566], [0.5324244, 49.4292533], [0.5326344, 49.4290729], [0.5336513, 49.4286072], [0.535794, 49.430085], [0.5358705, 49.4304343], [0.5359442, 49.4305277], [0.5360368, 49.4305216], [0.5360099, 49.4303925], [0.5360622, 49.430334], [0.536254, 49.4302974], [0.5361789, 49.4301317], [0.5358718, 49.4300205], [0.5338628, 49.4285089], [0.5340641, 49.4279214], [0.5342464, 49.4255837], [0.5338312, 49.4245397], [0.5324153, 49.4219608]]]}}, {"type": "Feature", "properties": {"name": "Grand lac de Bouafles"}, "geometry": {"type": "Polygon", "coordinates": [[[1.3463911, 49.1986317], [1.346367, 49.1987965], [1.3464367, 49.1989735], [1.3467076, 49.1992784], [1.346832, 49.1993888], [1.3469624, 49.1995045], [1.3470873, 49.1995953], [1.3472286, 49.199698], [1.3476545, 49.2000075], [1.3479924, 49.2002441], [1.3488185, 49.2007138], [1.3491054, 49.2008099], [1.3495052, 49.2009925], [1.3497144, 49.2011327], [1.3503259, 49.2014587], [1.3504922, 49.2015077], [1.350798, 49.2015638], [1.3515276, 49.2018723], [1.3534641, 49.2026714], [1.3540435, 49.2029238], [1.3549085, 49.2033558], [1.3554624, 49.2035337], [1.355685, 49.2036248], [1.3567337, 49.2039718], [1.3569376, 49.2040156], [1.3571173, 49.2039788], [1.3572755, 49.2039385], [1.3575438, 49.2038929], [1.3577262, 49.2039157], [1.35782, 49.2039402], [1.3578469, 49.204154], [1.3578469, 49.2042942], [1.3578469, 49.2044449], [1.3578871, 49.2046237], [1.3579461, 49.2047026], [1.3583431, 49.2049128], [1.35894, 49.2050902], [1.3592496, 49.2052388], [1.3595018, 49.2052441], [1.3596788, 49.2052896], [1.3598049, 49.2053755], [1.359947, 49.2054876], [1.3599792, 49.2055507], [1.3599309, 49.2056804], [1.3599336, 49.2069018], [1.3599282, 49.2071051], [1.3598773, 49.2071068], [1.3606411, 49.2072703], [1.360521, 49.207049], [1.360521, 49.2069964], [1.360521, 49.2069386], [1.360521, 49.2065461], [1.3604835, 49.2060572], [1.3606507, 49.2058496], [1.3609448, 49.2058679], [1.3616555, 49.2060499], [1.3623449, 49.2062237], [1.3625568, 49.2062044], [1.3627097, 49.2061816], [1.3627884, 49.2061483], [1.3630471, 49.2060386], [1.3632515, 49.2060747], [1.3634688, 49.2060221], [1.3637583, 49.2061217], [1.3638765, 49.206101], [1.3640428, 49.2060467], [1.3643968, 49.2059976], [1.3647373, 49.2059013], [1.3647991, 49.2058521], [1.3647133, 49.2054579], [1.3647455, 49.2053036], [1.3648689, 49.205216], [1.3650808, 49.2048638], [1.3651398, 49.2046822], [1.3643654, 49.2040335], [1.3632617, 49.2030278], [1.3626587, 49.2026469], [1.3623208, 49.2025523], [1.3618567, 49.2022611], [1.3619187, 49.2020872], [1.3620901, 49.2016059], [1.3624493, 49.2014948], [1.3630329, 49.2014299], [1.3632444, 49.201154], [1.3633627, 49.2007936], [1.3605661, 49.1991174], [1.3595707, 49.1985029], [1.3593923, 49.1983927], [1.3592604, 49.1982952], [1.3589868, 49.1979377], [1.3589787, 49.1977238], [1.3588151, 49.1972927], [1.35874, 49.1971104], [1.358571, 49.1969053], [1.3580872, 49.1965782], [1.357876, 49.1964521], [1.3573507, 49.1961386], [1.3559478, 49.1950316], [1.355862, 49.1949194], [1.3557762, 49.1948563], [1.3556984, 49.1947161], [1.355575, 49.1945794], [1.3553899, 49.1944883], [1.3552022, 49.1943691], [1.3549179, 49.1942849], [1.3548535, 49.1942183], [1.3548133, 49.1941026], [1.3545071, 49.1937825], [1.3542527, 49.1935961], [1.3537994, 49.1934786], [1.3529252, 49.1929651], [1.3525513, 49.1929152], [1.3523785, 49.1925922], [1.3523731, 49.1922732], [1.3522336, 49.1922696], [1.3521156, 49.1925431], [1.352003, 49.1932688], [1.3517428, 49.1932459], [1.3518474, 49.1923012], [1.3520894, 49.1917547], [1.3521271, 49.1914599], [1.3520997, 49.1913702], [1.3520415, 49.1912347], [1.3518113, 49.1911659], [1.3516769, 49.1910993], [1.3515952, 49.1911053], [1.3515392, 49.1911372], [1.3513208, 49.1911214], [1.3510418, 49.1908087], [1.350861, 49.1907216], [1.3506699, 49.1905084], [1.3503909, 49.1903156], [1.350407, 49.1901876], [1.3502086, 49.1900789], [1.3500449, 49.1900807], [1.349184, 49.1902577], [1.3489198, 49.190404], [1.3486834, 49.190402], [1.3483552, 49.1904663], [1.3482774, 49.1905663], [1.3481411, 49.1906122], [1.3479779, 49.190564], [1.3474915, 49.1906575], [1.3470435, 49.1907436], [1.3469234, 49.1909325], [1.347422, 49.1916277], [1.3478763, 49.1921346], [1.3473334, 49.1933294], [1.34666, 49.1936358], [1.3449944, 49.1941643], [1.3447725, 49.1943945], [1.345337, 49.1954768], [1.3464797, 49.197354], [1.3466686, 49.1977739], [1.3467264, 49.1978903], [1.3466996, 49.1980358], [1.3465869, 49.1981813], [1.3463911, 49.1986317]]]}}, {"type": "Feature", "properties": {"name": "Lac des Deux Amants"}, "geometry": {"type": "MultiPolygon", "coordinates": [[[[1.2375986, 49.2921759], [1.2373438, 49.2922198], [1.2370854, 49.2922821], [1.237004, 49.2924921], [1.2370783, 49.2926837], [1.2372093, 49.2927922], [1.2371899, 49.2928613], [1.2370338, 49.292877], [1.236895, 49.2928377], [1.2368181, 49.2927451], [1.2366395, 49.2923998], [1.2366572, 49.2921898], [1.2369438, 49.2919959], [1.2371739, 49.2918897], [1.2372022, 49.2918112], [1.2371562, 49.2917304], [1.2370075, 49.2916335], [1.2361617, 49.2911834], [1.2358158, 49.290945], [1.2358481, 49.2907528], [1.2361913, 49.2901392], [1.236381, 49.2900839], [1.2364739, 49.2899496], [1.2362357, 49.2898496], [1.2355816, 49.2895862], [1.2354605, 49.2895494], [1.2354201, 49.2894888], [1.2354928, 49.2894361], [1.2357027, 49.2894104], [1.2375986, 49.2921759]]], [[[1.2357027, 49.2894104], [1.235513, 49.2893466], [1.2350891, 49.2893492], [1.2346611, 49.2894309], [1.2342816, 49.2895783], [1.2342372, 49.2897442], [1.2340595, 49.2899075], [1.2338779, 49.2899075], [1.2337083, 49.2898206], [1.2336679, 49.2896679], [1.2337365, 49.289502], [1.2336468, 49.289501], [1.2330311, 49.2892641], [1.2327864, 49.2892744], [1.2326996, 49.2890891], [1.2335915, 49.2884044], [1.2332622, 49.2878392], [1.2324981, 49.2867009], [1.2319576, 49.2862214], [1.2311368, 49.2863656], [1.2302563, 49.2863527], [1.2289287, 49.2865212], [1.2281554, 49.2865927], [1.2270165, 49.2866591], [1.2249736, 49.2866251], [1.2238761, 49.2866481], [1.2220894, 49.2867242], [1.2220156, 49.2868881], [1.2216075, 49.2872033], [1.220427, 49.2882683], [1.2207344, 49.2885189], [1.220702, 49.2886563], [1.2205204, 49.2886941], [1.2202521, 49.2886583], [1.2200367, 49.2886801], [1.2192542, 49.2892726], [1.2187366, 49.2894958], [1.2180814, 49.289851], [1.2177894, 49.2902217], [1.2186571, 49.2905474], [1.2199442, 49.2909888], [1.2206941, 49.2913646], [1.2211598, 49.291761], [1.2210729, 49.2920647], [1.221736, 49.2925023], [1.2215308, 49.2926619], [1.221365, 49.2925795], [1.2213571, 49.2924714], [1.2208914, 49.2922037], [1.2206309, 49.2922397], [1.2199226, 49.292333], [1.2195728, 49.2928852], [1.2186406, 49.2935289], [1.218263, 49.293398], [1.218329, 49.2929665], [1.2187534, 49.2925039], [1.2189987, 49.291654], [1.2179621, 49.2911169], [1.2177626, 49.2913073], [1.2168793, 49.2917851], [1.2162253, 49.29164], [1.2159134, 49.2917208], [1.2160033, 49.2919759], [1.2160208, 49.2921861], [1.2158413, 49.2923643], [1.2151757, 49.2924066], [1.2142843, 49.2922685], [1.2140892, 49.2924711], [1.2135265, 49.2930551], [1.2134002, 49.2933598], [1.2132676, 49.2934669], [1.2129709, 49.2937676], [1.2126213, 49.2943107], [1.2111531, 49.2956048], [1.2105936, 49.296126], [1.2105334, 49.2967202], [1.2108879, 49.2969986], [1.2109782, 49.297416], [1.2104148, 49.2982441], [1.2095484, 49.2993639], [1.2090369, 49.3004963], [1.2090179, 49.3011057], [1.2093337, 49.3013074], [1.2091253, 49.3014104], [1.208819, 49.3012633], [1.2086719, 49.3013333], [1.20864, 49.3015378], [1.2087566, 49.3017622], [1.2096257, 49.3020907], [1.2100911, 49.3022524], [1.2103639, 49.3022415], [1.2105898, 49.3021779], [1.2108777, 49.3020254], [1.2109322, 49.3018462], [1.2124909, 49.3009533], [1.212849, 49.3004042], [1.2137989, 49.2991294], [1.2139584, 49.2990146], [1.2145465, 49.2991013], [1.2148269, 49.2993053], [1.2145956, 49.2997834], [1.2145722, 49.3002921], [1.2145053, 49.3008463], [1.2147324, 49.3011001], [1.2151999, 49.3019045], [1.2153325, 49.3019415], [1.2154209, 49.3018716], [1.2155977, 49.3019415], [1.2155914, 49.3020404], [1.2152504, 49.302168], [1.2154651, 49.3024974], [1.2156735, 49.3026127], [1.2159758, 49.3026918], [1.2161669, 49.3024519], [1.2163213, 49.3024512], [1.2162862, 49.3025663], [1.2162418, 49.3027115], [1.2162923, 49.3028145], [1.2165379, 49.3029535], [1.2167176, 49.3032515], [1.2169, 49.3033596], [1.2169426, 49.3034042], [1.217097, 49.3035895], [1.2174965, 49.3038596], [1.2177094, 49.3039811], [1.218437, 49.3041713], [1.2186215, 49.3042538], [1.2187015, 49.3043375], [1.2186841, 49.3046101], [1.2186503, 49.3047519], [1.218586, 49.3050061], [1.2184636, 49.3050546], [1.2184955, 49.3051746], [1.2185213, 49.3052931], [1.2182776, 49.3057214], [1.2181332, 49.3060345], [1.2181542, 49.3061869], [1.2182776, 49.3061159], [1.2183948, 49.3059072], [1.218465, 49.3057468], [1.2186604, 49.3054174], [1.2188623, 49.3055978], [1.2193864, 49.3060877], [1.2196551, 49.3061729], [1.2202199, 49.306236], [1.2204969, 49.3063002], [1.2209449, 49.3063348], [1.2213752, 49.3063617], [1.2217878, 49.3062964], [1.2218821, 49.3062272], [1.2219765, 49.3060696], [1.2221238, 49.3060197], [1.2225541, 49.3059889], [1.2228076, 49.3059697], [1.2231672, 49.306012], [1.2236388, 49.3059851], [1.2242047, 49.3059582], [1.2245407, 49.3059966], [1.2246939, 49.3059851], [1.2248675, 49.3060219], [1.2248801, 49.3061742], [1.224779, 49.3062648], [1.2245391, 49.3062277], [1.2242676, 49.3064665], [1.2243442, 49.3066201], [1.2245299, 49.3067545], [1.2247917, 49.3067697], [1.2252775, 49.306773], [1.225531, 49.3067038], [1.2256783, 49.3067339], [1.2258256, 49.3067974], [1.2264178, 49.306802], [1.2270518, 49.3067461], [1.2287377, 49.3066462], [1.2296809, 49.3065462], [1.2303116, 49.306527], [1.2307124, 49.3064348], [1.23096, 49.306477], [1.2314316, 49.3063425], [1.2321154, 49.306035], [1.2327951, 49.3058088], [1.2342352, 49.3054063], [1.2350391, 49.3050703], [1.2359196, 49.3046564], [1.2363065, 49.3044285], [1.236672, 49.3041017], [1.2369811, 49.3033499], [1.2370434, 49.3031985], [1.2370964, 49.302818], [1.2372497, 49.3025797], [1.2376112, 49.3023065], [1.2379842, 49.3017509], [1.2388661, 49.3008129], [1.2392864, 49.3005311], [1.2398547, 49.3002609], [1.241074, 49.2995353], [1.2423424, 49.2986662], [1.2433927, 49.297715], [1.2439168, 49.2969007], [1.2436978, 49.2960086], [1.2430005, 49.2952941], [1.2403865, 49.2940454], [1.2378499, 49.2926768], [1.2378393, 49.2925337], [1.237995, 49.2924691], [1.2382463, 49.2924483], [1.2384515, 49.292356], [1.2385294, 49.2922175], [1.2384232, 49.2920536], [1.2382215, 49.2920005], [1.2380622, 49.292049], [1.2378711, 49.2921667], [1.2375986, 49.2921759], [1.2357027, 49.2894104]]]]}}, {"type": "Feature", "properties": {"name": "Les Étangs de Pont-Audemer"}, "geometry": {"type": "MultiPolygon", "coordinates": [[[[0.4889387, 49.3617991], [0.4896612, 49.3617169], [0.4903601, 49.3613182], [0.4910838, 49.3612078], [0.4912469, 49.3611432], [0.4911396, 49.3608015], [0.4942826, 49.3594881], [0.4935734, 49.3585671], [0.4930289, 49.357884], [0.4929957, 49.3576091], [0.4919915, 49.3565825], [0.4918257, 49.3565752], [0.4900426, 49.3571073], [0.489946, 49.3574704], [0.4892808, 49.357868], [0.4883903, 49.3568694], [0.4866281, 49.3576576], [0.487178, 49.358094], [0.48783, 49.3588327], [0.4890283, 49.3579516], [0.4892422, 49.3579932], [0.4885798, 49.3584921], [0.488047, 49.3590786], [0.4881636, 49.3595597], [0.4889352, 49.3596033], [0.4889388, 49.359724], [0.4884317, 49.3598713], [0.488313, 49.3603604], [0.4887854, 49.361666], [0.4889387, 49.3617991]]], [[[0.4891735, 49.3647151], [0.4890884, 49.3644983], [0.4891761, 49.3644624], [0.4893495, 49.3646929], [0.4896832, 49.3647844], [0.4899109, 49.365051], [0.4900241, 49.3654561], [0.4902351, 49.3655535], [0.4904932, 49.3655609], [0.4913652, 49.3650872], [0.4918972, 49.3650611], [0.4922575, 49.3650045], [0.4928891, 49.3647814], [0.4936565, 49.3644588], [0.4937953, 49.3640982], [0.4943439, 49.3638976], [0.4942677, 49.3638088], [0.4942062, 49.3636716], [0.4940435, 49.3636563], [0.4938881, 49.3637087], [0.4936784, 49.3636038], [0.4936678, 49.3634518], [0.4937591, 49.3634013], [0.4938866, 49.3634589], [0.4940376, 49.3634777], [0.4942671, 49.3634917], [0.4948966, 49.3631519], [0.4954301, 49.3628609], [0.4958281, 49.3625138], [0.4975157, 49.361583], [0.4962899, 49.3604801], [0.4961884, 49.3604593], [0.4959761, 49.3605789], [0.4959517, 49.3606496], [0.4956074, 49.3608293], [0.4954177, 49.3608556], [0.4953665, 49.360938], [0.495112, 49.3609924], [0.4951452, 49.3611412], [0.4950428, 49.3612821], [0.4948078, 49.361431], [0.4940659, 49.3614733], [0.4936035, 49.3613992], [0.4933181, 49.3613535], [0.4923784, 49.3616271], [0.4912581, 49.3620021], [0.4913629, 49.3622218], [0.4914386, 49.3623922], [0.4914009, 49.3625039], [0.491234, 49.3625465], [0.4911041, 49.362441], [0.4910438, 49.3622638], [0.4909573, 49.3621013], [0.4908842, 49.3620323], [0.490621, 49.3616441], [0.4905156, 49.3615502], [0.4903874, 49.3615733], [0.4896931, 49.3619555], [0.4888682, 49.3620635], [0.4886288, 49.3621195], [0.4883765, 49.3622504], [0.4883346, 49.3623188], [0.4883119, 49.362435], [0.4882881, 49.3625035], [0.4883172, 49.362618], [0.4882981, 49.3627325], [0.488221, 49.3628966], [0.4884134, 49.3630362], [0.4884226, 49.3632783], [0.4887943, 49.3634925], [0.4888146, 49.3638177], [0.4889631, 49.3639733], [0.4890075, 49.3640397], [0.4888869, 49.364175], [0.4886371, 49.3639047], [0.4883378, 49.3637183], [0.4876533, 49.3634013], [0.4874969, 49.3632047], [0.4873692, 49.3631344], [0.4872151, 49.3629651], [0.4870037, 49.3630081], [0.4868913, 49.3629952], [0.4864552, 49.3627158], [0.4862946, 49.3623332], [0.4863353, 49.3619227], [0.4862407, 49.3618324], [0.4863375, 49.3617422], [0.4863598, 49.3615904], [0.4859755, 49.361188], [0.4854954, 49.3604352], [0.4849485, 49.3601253], [0.4847664, 49.3598951], [0.4846177, 49.3598364], [0.4844593, 49.3598279], [0.4826321, 49.3603038], [0.4819173, 49.3596856], [0.4816633, 49.3596472], [0.4810848, 49.3597691], [0.4795539, 49.360436], [0.4794599, 49.3604734], [0.47951, 49.3606195], [0.4794691, 49.3606998], [0.4787697, 49.3609931], [0.4784676, 49.3611762], [0.4783791, 49.3613971], [0.4785791, 49.362752], [0.4786822, 49.3634627], [0.4788499, 49.3635672], [0.4792485, 49.3636998], [0.4809577, 49.3635787], [0.481176, 49.3635139], [0.4817856, 49.3635035], [0.4818314, 49.3636223], [0.4820826, 49.3637582], [0.4823595, 49.3637463], [0.482652, 49.3639273], [0.4827952, 49.3640518], [0.4830151, 49.3641669], [0.4833049, 49.3643582], [0.4836085, 49.3648228], [0.4834404, 49.3649538], [0.4835385, 49.3650614], [0.4843831, 49.3647425], [0.4846376, 49.364764], [0.4862446, 49.3651682], [0.4875605, 49.3656518], [0.4886042, 49.3659393], [0.4888392, 49.3658884], [0.4890386, 49.3658218], [0.4893485, 49.3657109], [0.4894516, 49.365528], [0.4894149, 49.3652395], [0.4893543, 49.3648881], [0.4891735, 49.3647151]]], [[[0.4885103, 49.3617151], [0.488053, 49.3603673], [0.4880773, 49.3599079], [0.4877414, 49.359844], [0.4875218, 49.3597197], [0.4873023, 49.3596913], [0.4869839, 49.3595731], [0.4868994, 49.3594805], [0.4868224, 49.3594944], [0.4867245, 49.3594622], [0.4855146, 49.3598953], [0.4855156, 49.3600083], [0.4862761, 49.3612585], [0.4866674, 49.3613388], [0.4867603, 49.3612533], [0.4870094, 49.3612927], [0.4871241, 49.3613738], [0.4873806, 49.3613864], [0.4873885, 49.3614776], [0.4870489, 49.3616439], [0.4870165, 49.36172], [0.4864689, 49.3618309], [0.4864152, 49.3619602], [0.4871431, 49.3627812], [0.4874833, 49.3630537], [0.4879023, 49.3633677], [0.4881271, 49.3627472], [0.4883938, 49.3620604], [0.4885103, 49.3617151]]], [[[0.4852426, 49.3598446], [0.4858244, 49.3596839], [0.486815, 49.3593457], [0.487198, 49.3591443], [0.4870212, 49.3587701], [0.4865057, 49.3582545], [0.4857766, 49.3583864], [0.4844251, 49.3587797], [0.4848412, 49.3593961], [0.4852426, 49.3598446]]], [[[0.4931096, 49.3612609], [0.4932293, 49.3611034], [0.4934109, 49.361028], [0.4927908, 49.3603633], [0.49261, 49.3604511], [0.4922255, 49.3605698], [0.4919493, 49.3607208], [0.4915886, 49.3608762], [0.4915588, 49.3609786], [0.4915739, 49.361067], [0.4916374, 49.3611545], [0.4916507, 49.3612213], [0.4915447, 49.3613537], [0.4914594, 49.3613782], [0.4910691, 49.3614179], [0.4909607, 49.36149], [0.4908861, 49.361591], [0.4908885, 49.3616687], [0.4910616, 49.3619379], [0.4911441, 49.3620041], [0.493219, 49.3613131], [0.4931096, 49.3612609]]], [[[0.4935375, 49.3607788], [0.4942375, 49.3609632], [0.494664, 49.3609954], [0.4949993, 49.3608654], [0.4958361, 49.3601736], [0.4959971, 49.3601037], [0.4960802, 49.3600101], [0.4960051, 49.3599123], [0.4956537, 49.3598103], [0.4949322, 49.3597586], [0.494774, 49.3598033], [0.4946131, 49.3598732], [0.4941303, 49.3598522], [0.4940444, 49.3599989], [0.4938164, 49.3601708], [0.4935294, 49.3605579], [0.4935375, 49.3607788]]], [[[0.4953018, 49.3594979], [0.4966381, 49.3597516], [0.4967561, 49.3596048], [0.4971343, 49.3593141], [0.4977861, 49.3590039], [0.4982474, 49.358948], [0.498741, 49.3590109], [0.4989797, 49.3591045], [0.499256, 49.3590528], [0.4993767, 49.3589997], [0.4992774, 49.3587383], [0.4993123, 49.3583987], [0.4991594, 49.3584169], [0.498808, 49.3579585], [0.4988295, 49.3578467], [0.4984942, 49.3574036], [0.4978639, 49.3572736], [0.4973167, 49.3573855], [0.4968768, 49.3573295], [0.4959971, 49.3575671], [0.4958656, 49.357746], [0.495576, 49.3579207], [0.4945701, 49.3582659], [0.4945031, 49.358368], [0.4953018, 49.3594979]]], [[[0.4935911, 49.3576272], [0.4955304, 49.357101], [0.4961231, 49.3568938], [0.4964557, 49.356824], [0.4968527, 49.3567261], [0.4969707, 49.3567052], [0.4970485, 49.3566517], [0.4970163, 49.3565748], [0.4968205, 49.3566073], [0.4963806, 49.3567261], [0.4962197, 49.3567052], [0.4960051, 49.356789], [0.4954579, 49.356803], [0.4952782, 49.3567216], [0.494656, 49.3564001], [0.4942805, 49.3562464], [0.494023, 49.3562184], [0.4938835, 49.3561136], [0.4938272, 49.3559155], [0.4939586, 49.3557013], [0.4939693, 49.3555615], [0.4938449, 49.3554853], [0.4936233, 49.3554962], [0.4926899, 49.3559644], [0.4930037, 49.3562044], [0.4930037, 49.356442], [0.4928508, 49.3565584], [0.4927114, 49.3566982], [0.4929796, 49.3571664], [0.4933015, 49.3574525], [0.4933658, 49.3575504], [0.4934543, 49.35763], [0.4935911, 49.3576272]]]]}}, {"type": "Feature", "properties": {"name": "Étangs de Breuil"}, "geometry": {"type": "MultiPolygon", "coordinates": [[[[0.9095619, 48.7992645], [0.9099988, 48.7985919], [0.9104826, 48.7983226], [0.9107079, 48.7987254], [0.9106489, 48.7991353], [0.9103753, 48.7992625], [0.9101929, 48.7992661], [0.9100374, 48.7991883], [0.9100642, 48.7993509], [0.9098282, 48.7994357], [0.9095619, 48.7992645]]], [[[0.9029553, 48.800202], [0.903174, 48.8002679], [0.9033267, 48.8002679], [0.9033847, 48.8002558], [0.9034216, 48.8002124], [0.9035164, 48.7999539], [0.9036745, 48.7994767], [0.9020739, 48.7989821], [0.9019949, 48.7992251], [0.9028299, 48.7999556], [0.9029553, 48.800202]]], [[[0.9052892, 48.8015994], [0.9049173, 48.8015292], [0.9046837, 48.8014528], [0.9045057, 48.8013534], [0.9042355, 48.8011189], [0.9040384, 48.8009597], [0.9038349, 48.8008393], [0.9037205, 48.8007922], [0.9036347, 48.8007849], [0.9035155, 48.8009691], [0.9034646, 48.801145], [0.9035044, 48.801257], [0.9036506, 48.8013439], [0.9038699, 48.8014706], [0.9043181, 48.8015502], [0.9046614, 48.8016266], [0.9049825, 48.8016999], [0.9053337, 48.8018203], [0.9053846, 48.801903], [0.9054498, 48.8020307], [0.905623, 48.8020977], [0.905766, 48.8020788], [0.90589, 48.8019794], [0.9059949, 48.8018129], [0.9060855, 48.8017062], [0.9061014, 48.8016067], [0.9062127, 48.8013921], [0.9063716, 48.8012204], [0.9066434, 48.8010686], [0.9067435, 48.8009849], [0.9066831, 48.8009084], [0.9062397, 48.8008027], [0.905917, 48.8007315], [0.9052352, 48.8006383], [0.9049189, 48.8006258], [0.9048267, 48.8005839], [0.9048553, 48.8005305], [0.9049777, 48.800519], [0.9050254, 48.8004405], [0.9049412, 48.800341], [0.9047727, 48.8002531], [0.9046741, 48.8002332], [0.9046487, 48.8001798], [0.9047218, 48.8001013], [0.9048083, 48.8000858], [0.9047855, 48.8000138], [0.9046725, 48.800029], [0.904369, 48.8000248], [0.9042069, 48.8000531], [0.9040956, 48.8001515], [0.9040145, 48.8002279], [0.9039605, 48.8002646], [0.9039907, 48.80034], [0.904013, 48.8004195], [0.9040336, 48.8004834], [0.9041369, 48.8004939], [0.9044262, 48.800475], [0.9045486, 48.8005724], [0.9045231, 48.8006111], [0.9043976, 48.8005902], [0.9040972, 48.8005567], [0.9039605, 48.8005357], [0.9038922, 48.8005745], [0.9038826, 48.8006153], [0.903916, 48.8007252], [0.9040114, 48.8008163], [0.904369, 48.8010623], [0.9045994, 48.8011681], [0.9047822, 48.8012832], [0.9049761, 48.801345], [0.9051812, 48.8014162], [0.9052876, 48.8014549], [0.9053592, 48.8015418], [0.9053464, 48.8015899], [0.9052892, 48.8015994]]], [[[0.904582, 48.7994836], [0.9044516, 48.7996186], [0.9044405, 48.7997349], [0.9045184, 48.7998647], [0.9046519, 48.799938], [0.9046869, 48.799961], [0.9047949, 48.7999516], [0.9048394, 48.7999861], [0.9048108, 48.8000112], [0.9048442, 48.8000845], [0.9048919, 48.8001327], [0.9050381, 48.8003107], [0.9053067, 48.8005525], [0.9054084, 48.8006027], [0.9056007, 48.8005891], [0.9058026, 48.8005828], [0.905952, 48.8006697], [0.9063271, 48.800721], [0.9065274, 48.8007273], [0.9066879, 48.800787], [0.9068675, 48.8008132], [0.9070026, 48.8007378], [0.9071107, 48.8006258], [0.9074635, 48.8004331], [0.9076018, 48.8003567], [0.9077321, 48.8002164], [0.9078068, 48.8000856], [0.9078322, 48.7998887], [0.9078163, 48.7997725], [0.9077178, 48.7997181], [0.9075382, 48.7997191], [0.9073363, 48.7996511], [0.9071027, 48.7995799], [0.9067403, 48.7994784], [0.9065496, 48.799447], [0.9061364, 48.7993548], [0.9057994, 48.7992899], [0.9056214, 48.7992721], [0.9055229, 48.7992983], [0.9053925, 48.7992857], [0.9052972, 48.799269], [0.905178, 48.7992931], [0.9051271, 48.7993674], [0.9049825, 48.7994344], [0.9048076, 48.7994637], [0.9046503, 48.7994564], [0.904582, 48.7994836]]], [[[0.906233, 48.7962244], [0.9068123, 48.7964117], [0.9068016, 48.796818], [0.9072576, 48.7970548], [0.9075634, 48.7967933], [0.9074239, 48.7966308], [0.9076009, 48.7962703], [0.9068553, 48.7961537], [0.9060238, 48.7956395], [0.9047041, 48.796523], [0.9032021, 48.7976555], [0.9046398, 48.7981997], [0.9045003, 48.7984806], [0.9046505, 48.7985513], [0.9054498, 48.7975407], [0.906233, 48.7962244]]], [[[0.9062169, 48.7969276], [0.9071235, 48.797159], [0.906925, 48.79747], [0.9073381, 48.7975866], [0.9079335, 48.7967385], [0.9088347, 48.797152], [0.9080837, 48.7985124], [0.9082554, 48.7987562], [0.9077028, 48.7992792], [0.9066192, 48.7990601], [0.905026, 48.79844], [0.9062169, 48.7969276]]], [[[0.9114242, 48.8003981], [0.9110936, 48.8005446], [0.9109887, 48.8005509], [0.9102258, 48.8003834], [0.9100447, 48.8003834], [0.9098635, 48.8004483], [0.9096537, 48.8005509], [0.9094693, 48.8005551], [0.9082042, 48.8002934], [0.9080611, 48.8003457], [0.9068659, 48.8013465], [0.9068564, 48.8014701], [0.9077846, 48.8017213], [0.9080579, 48.8017276], [0.9081215, 48.8016941], [0.9081406, 48.8015852], [0.9082097, 48.8015504], [0.9086013, 48.8015327], [0.9088908, 48.8016376], [0.9088876, 48.8017946], [0.9087998, 48.8020274], [0.9091832, 48.8021631], [0.9094979, 48.8022301], [0.9097268, 48.8023494], [0.9100288, 48.8024604], [0.9103117, 48.802473], [0.9106168, 48.8025316], [0.9106677, 48.8026154], [0.9105882, 48.8030278], [0.9106486, 48.8031199], [0.910868, 48.8031723], [0.9109724, 48.8031616], [0.9118025, 48.8005258], [0.911758, 48.8004337], [0.9116436, 48.8003939], [0.9114242, 48.8003981]]], [[[0.9082406, 48.8000533], [0.9094538, 48.8003132], [0.9096042, 48.8001284], [0.9097464, 48.8001311], [0.9105959, 48.8002569], [0.9108537, 48.8002993], [0.9109097, 48.8002908], [0.91095, 48.8002274], [0.9109485, 48.8001478], [0.9098967, 48.7999964], [0.9092763, 48.7999029], [0.9080969, 48.799793], [0.9082406, 48.8000533]]], [[[0.9097122, 48.7961762], [0.9098067, 48.7963703], [0.909914, 48.7964197], [0.9102412, 48.7962678], [0.911695, 48.7969215], [0.910311, 48.798236], [0.9097584, 48.798077], [0.9099033, 48.7977025], [0.9097584, 48.7975116], [0.9098818, 48.797282], [0.9097799, 48.7971406], [0.9093024, 48.7972148], [0.9090664, 48.7971618], [0.9090235, 48.7970523], [0.9080311, 48.7966318], [0.907956, 48.796395], [0.908191, 48.7959699], [0.9097122, 48.7961762]]], [[[0.9088896, 48.8022909], [0.90859, 48.8022304], [0.9082724, 48.8021002], [0.9080872, 48.8020079], [0.9079424, 48.8019454], [0.9073338, 48.8018756], [0.9071594, 48.8018838], [0.9069975, 48.8023514], [0.9070006, 48.8024406], [0.9071687, 48.8024878], [0.9073493, 48.8025001], [0.9074536, 48.80254], [0.9075999, 48.8024539], [0.9077354, 48.8024324], [0.9079393, 48.8024426], [0.9081744, 48.8025534], [0.90826, 48.8026385], [0.9083051, 48.8027225], [0.9083098, 48.8027748], [0.9083456, 48.8027994], [0.908411, 48.8027861], [0.9085417, 48.8027513], [0.9086382, 48.8026754], [0.9088998, 48.8024027], [0.9089371, 48.8024016], [0.9089667, 48.8024098], [0.9088811, 48.802539], [0.9088904, 48.8026077], [0.908906, 48.802658], [0.908878, 48.8026795], [0.9086382, 48.8027533], [0.9085511, 48.8028364], [0.9085729, 48.8028763], [0.9086242, 48.8028835], [0.908727, 48.8028415], [0.9088717, 48.8027646], [0.9091239, 48.8025421], [0.9091364, 48.8025042], [0.9091161, 48.8024529], [0.9091255, 48.802416], [0.9091535, 48.8023524], [0.9088896, 48.8022909]]], [[[0.9117395, 48.8019232], [0.9114449, 48.8030487], [0.9114846, 48.8032079], [0.9119789, 48.8033607], [0.9124478, 48.8034329], [0.9129389, 48.8034937], [0.9132711, 48.8035879], [0.9134991, 48.8037304], [0.9136382, 48.8037773], [0.9138051, 48.8037198], [0.9138321, 48.8032759], [0.9139482, 48.8029713], [0.9139958, 48.8027169], [0.9139879, 48.802428], [0.9138989, 48.8020951], [0.912799, 48.8019726], [0.9122094, 48.8019181], [0.9117395, 48.8019232]]], [[[0.9141993, 48.8016093], [0.9137352, 48.801602], [0.9129214, 48.8015507], [0.9128149, 48.8015067], [0.9128499, 48.8012958], [0.9129143, 48.801178], [0.9129977, 48.8010513], [0.9130239, 48.8009728], [0.9130065, 48.8009006], [0.9129461, 48.8008126], [0.9129524, 48.8007739], [0.912989, 48.8007346], [0.9129953, 48.8006933], [0.9129556, 48.8006786], [0.9128785, 48.8007388], [0.9128356, 48.8008022], [0.912772, 48.8008938], [0.9127593, 48.8011], [0.9127243, 48.801211], [0.9125336, 48.8015952], [0.9125416, 48.8017496], [0.9122285, 48.8017308], [0.9119805, 48.8017224], [0.9117087, 48.8016648], [0.9116722, 48.8016156], [0.9120775, 48.8002096], [0.9121124, 48.8001793], [0.912211, 48.8001657], [0.9133331, 48.8002986], [0.914183, 48.8004365], [0.9142454, 48.8005069], [0.9143837, 48.8009487], [0.9143185, 48.8012398], [0.9143137, 48.8013727], [0.9142533, 48.8015863], [0.9141993, 48.8016093]]], [[[0.9126846, 48.8017726], [0.9132854, 48.8018218], [0.9139434, 48.8018365], [0.9140626, 48.8018239], [0.9140149, 48.8017779], [0.9136923, 48.801736], [0.913225, 48.8016962], [0.9126783, 48.8016742], [0.9126433, 48.8017328], [0.9126846, 48.8017726]]], [[[0.9144807, 48.8023295], [0.91458, 48.8017068], [0.9149984, 48.8016785], [0.9150011, 48.8023825], [0.9144807, 48.8023295]]], [[[0.9141484, 48.8035905], [0.9141532, 48.803714], [0.9141421, 48.8038313], [0.9141754, 48.8039129], [0.9143026, 48.8039642], [0.9144393, 48.8039569], [0.9145553, 48.8038344], [0.9146475, 48.8036522], [0.9146856, 48.8035141], [0.9147889, 48.8034073], [0.9149956, 48.8033372], [0.9151132, 48.8033717], [0.915288, 48.8034], [0.9154724, 48.8034104], [0.9156091, 48.8033727], [0.9155137, 48.8031215], [0.9154358, 48.8028326], [0.9153421, 48.8025908], [0.9152658, 48.8025206], [0.9149765, 48.8025311], [0.9148144, 48.8025133], [0.9146904, 48.8025122], [0.914541, 48.8025258], [0.9144202, 48.8025897], [0.9143773, 48.802641], [0.9143423, 48.8028409], [0.9142358, 48.8030482], [0.9142056, 48.8032356], [0.9141484, 48.8035905]]], [[[0.914692, 48.8043254], [0.9150576, 48.803536], [0.9155344, 48.8035863], [0.9156711, 48.8036659], [0.9159635, 48.804183], [0.9159508, 48.804227], [0.9157841, 48.8042544], [0.9155082, 48.8043084], [0.9153623, 48.8043566], [0.9150941, 48.8044457], [0.9149097, 48.8044028], [0.9147031, 48.8043547], [0.914692, 48.8043254]]], [[[0.9158538, 48.8026818], [0.9157998, 48.8027698], [0.9159333, 48.8030336], [0.9159683, 48.8032513], [0.9160446, 48.803356], [0.9162099, 48.8033979], [0.9171094, 48.803423], [0.9180821, 48.8034963], [0.9181934, 48.8034565], [0.9182284, 48.8033204], [0.9180281, 48.8022024], [0.9178596, 48.8022212], [0.9176244, 48.8022547], [0.9175259, 48.8022819], [0.9175767, 48.8024725], [0.9175004, 48.8026735], [0.9172938, 48.8027279], [0.9169441, 48.8026839], [0.9166358, 48.8026504], [0.9162353, 48.8026379], [0.9160287, 48.8026504], [0.9158538, 48.8026818]]], [[[0.9160525, 48.8035423], [0.9160716, 48.8037517], [0.9163068, 48.8040804], [0.9166056, 48.8043086], [0.9168218, 48.8044028], [0.9170538, 48.8044468], [0.9174003, 48.8044384], [0.9177404, 48.8044635], [0.9180456, 48.8045368], [0.9182172, 48.8045598], [0.9182935, 48.8045263], [0.9182427, 48.8037329], [0.9181791, 48.8036345], [0.9163036, 48.80349], [0.9161256, 48.8034963], [0.9160525, 48.8035423]]], [[[0.9154247, 48.8021647], [0.9153055, 48.8021678], [0.915226, 48.8021919], [0.9151958, 48.8022578], [0.9151911, 48.8023385], [0.915253, 48.8023887], [0.9154978, 48.8024013], [0.9159651, 48.802441], [0.9166692, 48.8025311], [0.9171206, 48.8025761], [0.9173192, 48.8025604], [0.9174814, 48.8024829], [0.9174814, 48.8023542], [0.9173796, 48.8022369], [0.9171969, 48.8021909], [0.917003, 48.8022045], [0.9164276, 48.8022086], [0.9158348, 48.8022013], [0.9157092, 48.802194], [0.9156615, 48.8021615], [0.9156885, 48.802127], [0.9158554, 48.8021385], [0.916221, 48.8021605], [0.9166231, 48.8021814], [0.9169775, 48.8021626], [0.917084, 48.8021574], [0.9172684, 48.8021291], [0.9173558, 48.8020642], [0.9173463, 48.8017763], [0.9172716, 48.8016706], [0.9170808, 48.8016412], [0.9164499, 48.8016957], [0.9161558, 48.8016988], [0.9157791, 48.801635], [0.9156552, 48.8016172], [0.9154787, 48.8015564], [0.915447, 48.8015795], [0.9154803, 48.8016287], [0.9155073, 48.8016747], [0.9154533, 48.8017208], [0.91535, 48.8017459], [0.9152721, 48.8018203], [0.9152753, 48.8019647], [0.9153119, 48.8020129], [0.9153436, 48.8020673], [0.9153738, 48.802104], [0.9154263, 48.8021186], [0.9154724, 48.8021186], [0.915493, 48.8021458], [0.9154787, 48.8021668], [0.9154247, 48.8021647]]], [[[0.914727, 48.8012194], [0.9147842, 48.8012884], [0.914878, 48.8013062], [0.9150814, 48.8013377], [0.915253, 48.801412], [0.9154454, 48.8014476], [0.9155455, 48.8014141], [0.9155916, 48.8013523], [0.9155566, 48.8012748], [0.9154422, 48.8012225], [0.9152769, 48.8012047], [0.9150798, 48.8011817], [0.9149447, 48.8011356], [0.914816, 48.8011199], [0.9147413, 48.8011565], [0.914727, 48.8012194]]], [[[0.9157664, 48.8012194], [0.9157505, 48.8013052], [0.9157283, 48.8013785], [0.9157299, 48.8014978], [0.9158077, 48.8015428], [0.9160716, 48.8015774], [0.9161924, 48.8015345], [0.9162401, 48.8014685], [0.9162687, 48.8013607], [0.9162607, 48.8012644], [0.9161797, 48.8011911], [0.9160668, 48.8011848], [0.9159587, 48.8012047], [0.9158665, 48.8011701], [0.9158157, 48.8011743], [0.9157696, 48.8011974], [0.9157664, 48.8012194]]], [[[0.9165134, 48.8013387], [0.9165404, 48.801367], [0.9166342, 48.8014204], [0.91672, 48.8014298], [0.9171174, 48.8014224], [0.9171921, 48.8013764], [0.9172143, 48.8012926], [0.9171603, 48.8012183], [0.917057, 48.8012026], [0.9169728, 48.8012382], [0.9167789, 48.8012665], [0.9166914, 48.8012686], [0.9165849, 48.8013094], [0.9165134, 48.8013387]]], [[[0.91655, 48.8010676], [0.9164721, 48.8010749], [0.9160652, 48.8010163], [0.9160159, 48.8009859], [0.9160303, 48.8009346], [0.9159953, 48.8008666], [0.9159349, 48.8008027], [0.9159746, 48.8007577], [0.9160398, 48.8007409], [0.9166292, 48.8008411], [0.9166771, 48.8008749], [0.9166867, 48.8009168], [0.9166533, 48.8009775], [0.91655, 48.8010676]]], [[[0.9150385, 48.8006425], [0.9149956, 48.8007127], [0.9150162, 48.8007493], [0.9150464, 48.8007744], [0.9150591, 48.8008121], [0.9151005, 48.8008341], [0.9151911, 48.8008686], [0.9152387, 48.8008676], [0.9152817, 48.8007985], [0.9153484, 48.8007556], [0.9154819, 48.8006771], [0.9154613, 48.8006341], [0.9153659, 48.8006038], [0.9152928, 48.8006216], [0.9152515, 48.8006519], [0.9151704, 48.8006561], [0.9150385, 48.8006425]]], [[[0.9157934, 48.8002484], [0.9151577, 48.8001168], [0.9141438, 48.7997952], [0.9144067, 48.7988977], [0.914927, 48.7983429], [0.9153079, 48.7984065], [0.915442, 48.7985726], [0.9158229, 48.7984878], [0.9159409, 48.7979224], [0.9161635, 48.7980187], [0.9157934, 48.8002484]]], [[[0.9169575, 48.8005664], [0.9188296, 48.8008597], [0.9209674, 48.8007457], [0.9211015, 48.8006468], [0.9206831, 48.8003641], [0.9202324, 48.8003005], [0.9197389, 48.800092], [0.9193902, 48.8001415], [0.9191757, 48.8002722], [0.918709, 48.8002475], [0.9185212, 48.8001203], [0.918768, 48.7996221], [0.919181, 48.7995726], [0.9184354, 48.799145], [0.9170782, 48.8000744], [0.9170782, 48.8003606], [0.9169575, 48.8005664]]], [[[0.9168555, 48.7997749], [0.9171264, 48.7999101], [0.9176951, 48.7995037], [0.9176629, 48.7993164], [0.9180759, 48.7992175], [0.9182422, 48.798903], [0.9174269, 48.7985426], [0.916649, 48.7984896], [0.9165525, 48.7986521], [0.9165095, 48.7990302], [0.9165685, 48.7990549], [0.916708, 48.7989878], [0.9169467, 48.7989905], [0.9168555, 48.7997749]]], [[[0.9140982, 48.7986936], [0.913999, 48.7980867], [0.9137469, 48.7981221], [0.9140902, 48.7978995], [0.9140204, 48.7977758], [0.9138112, 48.7977828], [0.9136235, 48.797956], [0.9131568, 48.797956], [0.9129449, 48.7984852], [0.9140982, 48.7986936]]], [[[0.9130924, 48.7980037], [0.9128698, 48.7978213], [0.9117164, 48.7975315], [0.9107777, 48.798157], [0.9107777, 48.7983231], [0.9111746, 48.7986481], [0.9116199, 48.7986658], [0.9123012, 48.7986022], [0.9124567, 48.7986693], [0.9127303, 48.7986437], [0.9130924, 48.7980037]]], [[[0.9104263, 48.7961785], [0.9104947, 48.7960977], [0.9109131, 48.7961233], [0.911809, 48.7962391], [0.9121697, 48.7964612], [0.9119176, 48.7967333], [0.9104263, 48.7961785]]], [[[0.9120061, 48.7974047], [0.9117433, 48.7973394], [0.9117111, 48.7972002], [0.9125157, 48.7962797], [0.9128993, 48.7964016], [0.9132024, 48.7966808], [0.9128778, 48.7971101], [0.9121885, 48.7969052], [0.912049, 48.7970342], [0.9126016, 48.797232], [0.9126284, 48.7973964], [0.9122985, 48.7974935], [0.9120061, 48.7974047]]], [[[0.9135537, 48.7973058], [0.9134062, 48.7970077], [0.9134625, 48.7968654], [0.9136584, 48.7968177], [0.9138944, 48.7970969], [0.9142297, 48.7970174], [0.9142404, 48.7971622], [0.9140419, 48.7972577], [0.9135537, 48.7973058]]], [[[0.9156003, 48.7982307], [0.9156941, 48.7978041], [0.9153991, 48.7976556], [0.915206, 48.7977122], [0.915096, 48.7980223], [0.9156003, 48.7982307]]], [[[0.9185738, 48.8039645], [0.9188152, 48.8039398], [0.918927, 48.8037335], [0.9194256, 48.8037365], [0.9194002, 48.8032427], [0.9195742, 48.8032168], [0.9197674, 48.8037386], [0.919914, 48.8037395], [0.9200226, 48.8043957], [0.9211909, 48.8043519], [0.9215246, 48.801138], [0.9181343, 48.8013423], [0.9185738, 48.8039645]]], [[[0.9281865, 48.8058978], [0.9282711, 48.8056978], [0.9284464, 48.805213], [0.9271787, 48.805032], [0.9273182, 48.8044731], [0.9257416, 48.8042789], [0.9248243, 48.8051872], [0.9236008, 48.8050445], [0.9233099, 48.8048568], [0.9233271, 48.8034057], [0.9242567, 48.8028803], [0.9222794, 48.8019857], [0.9220181, 48.8043395], [0.9219645, 48.8054921], [0.9231554, 48.8057312], [0.9235202, 48.8053854], [0.9244429, 48.8054412], [0.9254084, 48.8059853], [0.9272645, 48.8055613], [0.926653, 48.8071017], [0.9271928, 48.8078559], [0.9281503, 48.8080695], [0.9285993, 48.807713], [0.9287628, 48.8070547], [0.9285139, 48.8066635], [0.9279774, 48.8066943], [0.9281865, 48.8058978]]], [[[0.9290431, 48.8053118], [0.9292619, 48.8053502], [0.9296009, 48.8049372], [0.9297056, 48.8047439], [0.9297329, 48.8045807], [0.9295908, 48.8044378], [0.9292025, 48.8043069], [0.928998, 48.8049319], [0.9290199, 48.8051024], [0.9290431, 48.8053118]]], [[[0.929822, 48.805648], [0.9300875, 48.8057558], [0.9302435, 48.8056081], [0.9299909, 48.8054927], [0.929822, 48.805648]]], [[[0.92891, 48.805713], [0.9287273, 48.8059928], [0.9293486, 48.8063301], [0.929301, 48.8064853], [0.9302111, 48.8066533], [0.9308239, 48.8066394], [0.9323524, 48.8066045], [0.9343323, 48.8068818], [0.9355139, 48.8070328], [0.9363475, 48.8069055], [0.9368422, 48.8065082], [0.9367766, 48.806383], [0.9355041, 48.8056002], [0.9344536, 48.8055488], [0.9336785, 48.805283], [0.9321333, 48.8056805], [0.9312449, 48.8059401], [0.9308242, 48.8063013], [0.9302552, 48.8062423], [0.9295894, 48.8061779], [0.929185, 48.8057447], [0.92891, 48.805713]]], [[[0.9387712, 48.8058175], [0.9366944, 48.8052748], [0.9362123, 48.8054895], [0.9366385, 48.805707], [0.9364214, 48.8058216], [0.9374752, 48.8064103], [0.9385813, 48.8060075], [0.9387712, 48.8058175]]], [[[0.9378609, 48.8045939], [0.9385713, 48.8047226], [0.9382472, 48.8048175], [0.9381211, 48.8049835], [0.9389614, 48.8051851], [0.9392674, 48.8049112], [0.9393216, 48.8046014], [0.9397207, 48.8045465], [0.9399938, 48.8039876], [0.93949, 48.8039039], [0.9378737, 48.8043668], [0.9378609, 48.8045939]]]]}}, {"type": "Feature", "properties": {"name": "Lac de l'Onglais"}, "geometry": {"type": "Polygon", "coordinates": [[[1.1831551, 49.1566422], [1.1829372, 49.1568265], [1.182529, 49.1571631], [1.1828309, 49.1589639], [1.1838013, 49.1599952], [1.1839222, 49.1604806], [1.1853051, 49.1606853], [1.185877, 49.1601607], [1.1855764, 49.1594294], [1.1856709, 49.1593265], [1.1860573, 49.1591913], [1.1868437, 49.1591424], [1.1879438, 49.1577858], [1.187626, 49.1572357], [1.1878641, 49.1569874], [1.1882523, 49.1568779], [1.1884811, 49.1569643], [1.1885873, 49.1568743], [1.1885817, 49.1567828], [1.1888152, 49.156278], [1.1886045, 49.1558614], [1.1888135, 49.1556119], [1.1889485, 49.1552417], [1.1889167, 49.1548588], [1.1888968, 49.1545608], [1.1887199, 49.1543386], [1.1886696, 49.1540351], [1.1883937, 49.1539409], [1.1878327, 49.1542846], [1.1879489, 49.1548538], [1.1880881, 49.1549207], [1.1881981, 49.1552883], [1.1879623, 49.1554098], [1.1858988, 49.1551333], [1.185479, 49.1552353], [1.1854219, 49.1556537], [1.1843463, 49.1561752], [1.1831551, 49.1566422]]]}}, {"type": "Feature", "properties": {"name": "Lac du Mesnil"}, "geometry": {"type": "Polygon", "coordinates": [[[1.2535044, 49.2919491], [1.2535963, 49.2919918], [1.2537317, 49.2922283], [1.2538178, 49.2922517], [1.2541207, 49.2919722], [1.2542057, 49.2919758], [1.2543328, 49.2920288], [1.2544324, 49.2921779], [1.2542976, 49.2923274], [1.2543878, 49.2924419], [1.254629, 49.2924722], [1.255143, 49.2915615], [1.25508, 49.2912495], [1.2552327, 49.2911937], [1.2557014, 49.2912726], [1.2558519, 49.2909383], [1.2545887, 49.2905493], [1.2543957, 49.290556], [1.2542653, 49.2906535], [1.2538978, 49.2906412], [1.253635, 49.2906237], [1.2534124, 49.2904435], [1.2531484, 49.2903062], [1.2529617, 49.2902091], [1.2506819, 49.2891245], [1.2500279, 49.2888678], [1.2491369, 49.2885191], [1.2473077, 49.2878858], [1.2450975, 49.287228], [1.2445144, 49.2871608], [1.2442196, 49.2871406], [1.2430687, 49.2876732], [1.2419012, 49.2877456], [1.2415551, 49.2878258], [1.2411731, 49.287806], [1.2409509, 49.2898029], [1.2408874, 49.2905205], [1.2407244, 49.2923627], [1.2407103, 49.293384], [1.2407571, 49.2935137], [1.240899, 49.2936351], [1.2417605, 49.2940703], [1.2433212, 49.2946793], [1.2442618, 49.2947986], [1.2452376, 49.2955837], [1.245366, 49.2955842], [1.2457787, 49.295306], [1.2459179, 49.2953498], [1.246012, 49.2954059], [1.2464569, 49.295789], [1.2471999, 49.2961144], [1.2478552, 49.2959156], [1.2480987, 49.2958417], [1.2482845, 49.2956406], [1.248361, 49.2955578], [1.2484921, 49.2954159], [1.248385, 49.2953646], [1.2476058, 49.2949902], [1.2468317, 49.2946059], [1.24685, 49.2945153], [1.2469141, 49.2944363], [1.2471647, 49.294281], [1.2472905, 49.29429], [1.2476053, 49.2944235], [1.2477079, 49.294462], [1.2478055, 49.2944657], [1.2479738, 49.2943765], [1.2480835, 49.2942541], [1.2482263, 49.294135], [1.2484302, 49.2941379], [1.2485758, 49.2941768], [1.2494595, 49.2945655], [1.2495331, 49.2945965], [1.2495701, 49.2946121], [1.2509264, 49.2951834], [1.2511572, 49.2951818], [1.2513465, 49.2951225], [1.2521432, 49.2943353], [1.2521279, 49.2942421], [1.2519579, 49.2941503], [1.2519531, 49.2939869], [1.2527407, 49.2932965], [1.2538158, 49.2936428], [1.2539163, 49.2935658], [1.2540521, 49.2934008], [1.2542367, 49.2933664], [1.2543709, 49.2932828], [1.2543387, 49.2931729], [1.2538244, 49.2930066], [1.2537346, 49.2929163], [1.2534779, 49.2928845], [1.2533884, 49.2927999], [1.2533874, 49.2927139], [1.2530365, 49.2925092], [1.2530364, 49.2922513], [1.2535044, 49.2919491]]]}}]}