{"type": "FeatureCollection", "features": [{"type": "Feature", "properties": {"name": "Étang de Perruchet"}, "geometry": {"type": "Polygon", "coordinates": [[[1.0095005, 48.4326696], [1.0089344, 48.4318879], [1.0084623, 48.4320908], [1.0077354, 48.4321338], [1.0059639, 48.4315342], [1.0055472, 48.4310986], [1.0054703, 48.4306541], [1.0051608, 48.4306607], [1.0049687, 48.4304202], [1.0054788, 48.4302022], [1.0064248, 48.42951], [1.0060406, 48.4289694], [1.0054987, 48.4284779], [1.0042956, 48.4287447], [1.0020158, 48.4295423], [1.0020786, 48.4298235], [1.0015461, 48.4302481], [1.0013303, 48.430482], [1.0015503, 48.4306457], [1.0013464, 48.4307738], [1.0010943, 48.4307383], [1.0012051, 48.4304904], [1.0008837, 48.4305283], [1.0006588, 48.4308581], [1.0001616, 48.4328996], [1.0000291, 48.4332807], [1.0005321, 48.4334732], [1.0018068, 48.4334288], [1.0030197, 48.4333503], [1.004219, 48.4334611], [1.0047124, 48.4332995], [1.0058874, 48.4335537], [1.0069012, 48.4335282], [1.0080617, 48.4335264], [1.0086371, 48.4334543], [1.0087874, 48.4332252], [1.0094823, 48.4329751], [1.0095005, 48.4326696]]]}}, {"type": "Feature", "properties": {"name": "Plan d'eau de la Borde"}, "geometry": {"type": "Polygon", "coordinates": [[[0.827466, 48.336982], [0.827461, 48.33702], [0.827379, 48.337173], [0.827379, 48.337233], [0.827767, 48.337695], [0.827831, 48.337772], [0.827933, 48.337889], [0.828013, 48.337932], [0.828104, 48.337951], [0.828523, 48.337896], [0.828604, 48.337912], [0.829232, 48.338043], [0.829304, 48.338065], [0.829548, 48.338356], [0.82957, 48.338392], [0.829633, 48.338455], [0.829697, 48.338521], [0.829752, 48.338583], [0.829786, 48.338584], [0.829859, 48.338589], [0.829929, 48.338584], [0.829992, 48.338581], [0.83004, 48.338602], [0.830102, 48.338624], [0.83018, 48.338651], [0.830265, 48.338692], [0.830387, 48.338749], [0.830456, 48.338779], [0.830525, 48.338795], [0.830595, 48.338805], [0.830698, 48.338812], [0.830804, 48.338825], [0.830898, 48.338839], [0.830992, 48.338862], [0.831085, 48.338896], [0.831124, 48.338899], [0.831224, 48.3389], [0.831306, 48.338892], [0.831409, 48.338874], [0.831513, 48.338846], [0.831627, 48.338814], [0.831753, 48.338778], [0.831872, 48.338748], [0.831929, 48.33872], [0.831961, 48.338693], [0.832172, 48.338814], [0.832229, 48.338825], [0.832806, 48.338965], [0.833124, 48.33921], [0.833187, 48.339227], [0.83357, 48.339349], [0.833722, 48.339516], [0.83413, 48.339974], [0.834207, 48.340056], [0.834578, 48.340356], [0.83472, 48.340468], [0.834829, 48.340656], [0.834951, 48.340832], [0.834976, 48.341006], [0.834836, 48.341181], [0.834506, 48.341374], [0.834202, 48.341561], [0.834153, 48.341569], [0.834101, 48.341588], [0.834058, 48.341609], [0.833987, 48.341612], [0.833912, 48.341596], [0.833824, 48.341572], [0.833738, 48.341565], [0.833661, 48.341562], [0.833575, 48.341574], [0.83353, 48.34161], [0.833494, 48.341644], [0.833453, 48.341686], [0.83341, 48.341719], [0.83334, 48.341747], [0.83328, 48.341766], [0.833197, 48.341794], [0.833087, 48.341777], [0.83292, 48.341745], [0.832568, 48.341565], [0.832512, 48.34154], [0.832482, 48.341528], [0.83242, 48.341516], [0.832335, 48.341477], [0.832033, 48.341296], [0.831755, 48.341148], [0.831703, 48.341096], [0.831621, 48.341004], [0.831161, 48.340842], [0.830769, 48.340577], [0.830694, 48.34053], [0.830514, 48.340441], [0.830535, 48.340352], [0.830425, 48.340292], [0.830366, 48.340276], [0.830313, 48.340282], [0.830118, 48.340346], [0.830021, 48.340313], [0.829895, 48.340275], [0.829582, 48.340195], [0.829291, 48.340072], [0.82906, 48.340061], [0.828955, 48.340116], [0.828597, 48.340289], [0.828546, 48.340294], [0.828485, 48.340301], [0.828403, 48.340307], [0.828322, 48.340304], [0.82824, 48.340301], [0.828183, 48.340292], [0.828099, 48.340299], [0.828038, 48.340306], [0.827989, 48.340317], [0.827922, 48.340344], [0.827849, 48.340376], [0.827776, 48.34041], [0.827691, 48.340455], [0.827605, 48.340498], [0.827532, 48.340537], [0.827436, 48.340591], [0.827349, 48.340628], [0.827262, 48.34067], [0.827188, 48.340696], [0.827111, 48.340714], [0.827007, 48.340723], [0.82693, 48.340713], [0.826857, 48.340701], [0.826777, 48.340677], [0.826727, 48.340645], [0.826689, 48.340612], [0.826668, 48.340584], [0.826655, 48.340541], [0.826655, 48.340502], [0.826665, 48.34045], [0.826681, 48.340385], [0.826691, 48.34031], [0.8268, 48.33987], [0.826857, 48.33963], [0.826939, 48.339383], [0.826759, 48.33914], [0.826587, 48.338897], [0.826641, 48.3388], [0.826668, 48.338751], [0.826781, 48.338652], [0.826783, 48.338595], [0.826773, 48.338525], [0.826741, 48.33848], [0.826682, 48.33839], [0.826593, 48.338238], [0.826489, 48.33812], [0.826407, 48.338032], [0.826372, 48.338009], [0.82613, 48.337883], [0.826066, 48.337858], [0.825837, 48.337821], [0.825609, 48.337812], [0.825516, 48.337818], [0.825319, 48.337846], [0.825058, 48.337905], [0.824675, 48.338017], [0.824306, 48.338092], [0.823885, 48.338152], [0.823756, 48.338155], [0.823524, 48.338141], [0.8231607, 48.3379911], [0.8230618, 48.3379558], [0.8229108, 48.3379503], [0.822548, 48.337964], [0.822279, 48.337935], [0.822216, 48.337924], [0.821945, 48.337767], [0.82191, 48.337744], [0.821774, 48.337577], [0.821738, 48.337522], [0.821699, 48.337384], [0.82176, 48.337122], [0.821872, 48.336921], [0.822008, 48.336801], [0.822044, 48.33677], [0.822442, 48.33648], [0.822603, 48.336374], [0.822821, 48.336212], [0.823266, 48.336006], [0.823324, 48.335982], [0.823522, 48.335903], [0.823579, 48.335887], [0.823855, 48.335836], [0.823955, 48.335819], [0.824075, 48.335824], [0.82416, 48.335849], [0.824381, 48.335957], [0.824548, 48.336029], [0.824732, 48.336085], [0.824876, 48.336118], [0.824951, 48.336128], [0.82523, 48.336146], [0.825463, 48.336162], [0.82558, 48.336163], [0.825657, 48.336171], [0.82612, 48.336274], [0.826771, 48.336443], [0.826835, 48.336455], [0.827363, 48.336562], [0.827486, 48.336747], [0.82748, 48.336923], [0.827466, 48.336982]]]}}, {"type": "Feature", "properties": {"name": "Plan d'eau de Mézières-Écluzelles"}, "geometry": {"type": "Polygon", "coordinates": [[[1.4328461, 48.7149021], [1.4328554, 48.7148925], [1.4330264, 48.7148647], [1.4331429, 48.7148908], [1.4332436, 48.7148859], [1.4333563, 48.71487], [1.4334314, 48.7148452], [1.4335333, 48.7147868], [1.4336245, 48.7147072], [1.4337291, 48.7145656], [1.4338069, 48.7144682], [1.4338418, 48.714401], [1.4338981, 48.7143373], [1.4340349, 48.7143567], [1.4341153, 48.7144134], [1.4341085, 48.7145439], [1.4340993, 48.7146417], [1.4340753, 48.7147817], [1.434088, 48.7148445], [1.434116, 48.7148886], [1.4341604, 48.7149079], [1.4342429, 48.7149137], [1.4343106, 48.7149053], [1.4343692, 48.7148761], [1.4343946, 48.714825], [1.4344039, 48.714751], [1.4344077, 48.7146417], [1.4344131, 48.7144859], [1.434405, 48.7143957], [1.4343997, 48.7143213], [1.4343997, 48.7142859], [1.4345043, 48.7142382], [1.4346652, 48.7142116], [1.4348234, 48.714109], [1.4349522, 48.7139851], [1.4350112, 48.713886], [1.4350675, 48.7137586], [1.4350944, 48.7136807], [1.4351399, 48.7136187], [1.435148, 48.7135674], [1.4351239, 48.7135462], [1.4350702, 48.7135161], [1.4349373, 48.7135086], [1.4348166, 48.7135068], [1.4347779, 48.7134807], [1.4348342, 48.71344], [1.4349227, 48.7134205], [1.4349629, 48.7133869], [1.4350783, 48.7133427], [1.4350944, 48.7132966], [1.4350568, 48.7132294], [1.4350219, 48.7131391], [1.4350836, 48.7129391], [1.4351936, 48.7126613], [1.4354189, 48.7123215], [1.435435, 48.7122613], [1.4354243, 48.7122153], [1.435435, 48.7121551], [1.435486, 48.7120578], [1.4356898, 48.711879], [1.4357228, 48.7117742], [1.4357354, 48.7116489], [1.4357569, 48.7115445], [1.435781, 48.7114454], [1.4358185, 48.7113675], [1.4358481, 48.7113003], [1.435891, 48.7112596], [1.4359419, 48.7111959], [1.4360251, 48.7111764], [1.4361136, 48.711164], [1.4361941, 48.7111605], [1.4362718, 48.7111835], [1.4363389, 48.7112259], [1.4364125, 48.711429], [1.4363764, 48.7115162], [1.43636, 48.711639], [1.4363696, 48.7117299], [1.4364301, 48.7118118], [1.4365305, 48.7119228], [1.4365937, 48.7119516], [1.4366733, 48.7119164], [1.4367359, 48.7118206], [1.4367976, 48.7117587], [1.43687, 48.711702], [1.4368995, 48.7116419], [1.4370202, 48.7115357], [1.4370577, 48.7114613], [1.4370363, 48.7114366], [1.4369758, 48.7114166], [1.4369504, 48.7113764], [1.4370094, 48.7113516], [1.4370229, 48.7113003], [1.4370175, 48.7112454], [1.4369531, 48.71121], [1.43676, 48.7111251], [1.4365735, 48.7110857], [1.4365386, 48.711068], [1.4365401, 48.7110348], [1.436591, 48.7110136], [1.4366688, 48.7110242], [1.4369343, 48.7110737], [1.4371275, 48.7111197], [1.4371677, 48.7111003], [1.4372079, 48.7110596], [1.4372079, 48.7109994], [1.4371555, 48.7109423], [1.4369278, 48.7108805], [1.4369053, 48.7108656], [1.4368827, 48.7108433], [1.4368483, 48.7108238], [1.436786, 48.7108042], [1.4366457, 48.7107601], [1.436573, 48.7107277], [1.4365334, 48.7107047], [1.436493, 48.7106944], [1.4364414, 48.7106864], [1.4363988, 48.7106766], [1.4363417, 48.7106582], [1.436291, 48.7106413], [1.4362618, 48.7106245], [1.4362457, 48.7105945], [1.4362219, 48.7105674], [1.4362042, 48.7105422], [1.436198, 48.7105131], [1.4362009, 48.7104712], [1.4361984, 48.7104234], [1.4362037, 48.7103675], [1.4362129, 48.7102896], [1.4362204, 48.7102411], [1.4362167, 48.7101924], [1.4361975, 48.7101237], [1.436161, 48.71004], [1.4361098, 48.7099636], [1.436075, 48.7099271], [1.436059, 48.7099025], [1.4360574, 48.7098808], [1.4360527, 48.7098437], [1.4360321, 48.7097814], [1.4359844, 48.709715], [1.4359223, 48.7096596], [1.4358761, 48.7096071], [1.4358516, 48.709549], [1.4358455, 48.7094973], [1.435855, 48.7094381], [1.4358701, 48.7093839], [1.435873, 48.7093672], [1.4358714, 48.7093568], [1.4358665, 48.7093512], [1.4358577, 48.7093481], [1.4358491, 48.7093496], [1.4358412, 48.7093549], [1.4358333, 48.7093634], [1.4357897, 48.7094728], [1.4356256, 48.7099691], [1.435373, 48.7108294], [1.4353578, 48.7108607], [1.4353452, 48.7108785], [1.4353223, 48.7108988], [1.4352938, 48.7109132], [1.4352656, 48.7109189], [1.4352381, 48.710919], [1.4352039, 48.710908], [1.4351736, 48.7108942], [1.4351556, 48.7108799], [1.4351426, 48.7108654], [1.4351404, 48.7108541], [1.4351418, 48.710837], [1.4354044, 48.7100704], [1.4356362, 48.7095286], [1.4356549, 48.7094755], [1.435663, 48.709426], [1.435671, 48.7093923], [1.4356481, 48.7093565], [1.4351898, 48.7092095], [1.4351764, 48.7092055], [1.4351633, 48.7092015], [1.4348127, 48.7090419], [1.4344782, 48.7089824], [1.4344636, 48.7089779], [1.4344518, 48.7089743], [1.4341563, 48.7088783], [1.4340074, 48.7088194], [1.4339692, 48.7088161], [1.4339192, 48.7088231], [1.4338791, 48.7088493], [1.4338552, 48.7088739], [1.4338234, 48.70893], [1.4336755, 48.7095056], [1.4335339, 48.7101192], [1.4335297, 48.7101545], [1.4335356, 48.7101808], [1.4335513, 48.7102055], [1.4335816, 48.7102358], [1.4336278, 48.7102715], [1.4337069, 48.71032], [1.4337635, 48.7103536], [1.433812, 48.7103827], [1.4338298, 48.7103969], [1.4338404, 48.7104094], [1.433849, 48.7104274], [1.4338492, 48.710443], [1.4338431, 48.7104573], [1.4338338, 48.7104677], [1.4338149, 48.7104791], [1.4337864, 48.7104844], [1.4337425, 48.7104858], [1.4336973, 48.7104836], [1.4336147, 48.7104794], [1.4335906, 48.7104813], [1.4335697, 48.710487], [1.4335529, 48.7104964], [1.4335391, 48.7105119], [1.4335295, 48.7105316], [1.4335206, 48.7105643], [1.4334937, 48.7107955], [1.4334963, 48.7108117], [1.433506, 48.7108258], [1.4335203, 48.7108349], [1.433543, 48.710843], [1.4349697, 48.7110111], [1.4350126, 48.7110234], [1.4350413, 48.7110421], [1.4350563, 48.7110691], [1.4350575, 48.7111022], [1.4350502, 48.7111397], [1.435027, 48.7111864], [1.4349791, 48.7112592], [1.434958, 48.7112711], [1.4349288, 48.7112752], [1.4348983, 48.7112748], [1.4348546, 48.7112658], [1.4347496, 48.7112326], [1.4346853, 48.7112127], [1.4346252, 48.7111995], [1.4345621, 48.7111892], [1.4344785, 48.7111826], [1.4341612, 48.711177], [1.4340864, 48.7111872], [1.4340002, 48.7112153], [1.4338909, 48.711236], [1.4336157, 48.7112419], [1.4333886, 48.7112482], [1.4331922, 48.7112796], [1.4330746, 48.7113321], [1.4329835, 48.7113976], [1.4327635, 48.7115711], [1.4325729, 48.7117131], [1.4325661, 48.7117252], [1.4325689, 48.7117377], [1.4325818, 48.7117477], [1.4326049, 48.7117565], [1.4327122, 48.7117808], [1.4327629, 48.7117932], [1.4328093, 48.7118152], [1.4328352, 48.7118371], [1.4328421, 48.7118605], [1.432835, 48.7118854], [1.4328121, 48.7119085], [1.4327673, 48.7119344], [1.4327159, 48.7119487], [1.4326722, 48.7119525], [1.4326302, 48.7119442], [1.4325966, 48.711926], [1.4325488, 48.7118893], [1.4324949, 48.7118458], [1.4324549, 48.7118334], [1.4324149, 48.7118318], [1.4323768, 48.7118409], [1.432346, 48.7118608], [1.4323152, 48.7119021], [1.432286, 48.71197], [1.4322778, 48.7120134], [1.4322817, 48.7120625], [1.4323014, 48.712104], [1.4323321, 48.7121439], [1.4323792, 48.7121822], [1.4324467, 48.7122192], [1.4329842, 48.7124081], [1.4330077, 48.7124228], [1.4330139, 48.7124431], [1.4330063, 48.7124644], [1.4329859, 48.7124879], [1.4329642, 48.7125002], [1.4329322, 48.7125063], [1.4328932, 48.7125044], [1.4328482, 48.7124958], [1.4322199, 48.7123182], [1.4321798, 48.7123114], [1.4321493, 48.712311], [1.4321266, 48.7123155], [1.4321063, 48.7123237], [1.4320933, 48.7123359], [1.4320818, 48.7123577], [1.4320608, 48.7124238], [1.4320523, 48.712492], [1.4320531, 48.712546], [1.4320701, 48.712609], [1.4321034, 48.7126787], [1.4321339, 48.7127355], [1.4321379, 48.7127662], [1.4321308, 48.7127926], [1.432113, 48.7128145], [1.4320833, 48.7128343], [1.4320552, 48.712844], [1.4320212, 48.712846], [1.4319865, 48.7128391], [1.4319604, 48.7128296], [1.4319118, 48.7128074], [1.4318827, 48.7128016], [1.431857, 48.7128059], [1.4318417, 48.7128164], [1.4313769, 48.7134944], [1.4313141, 48.713598], [1.4312914, 48.7136635], [1.4312837, 48.7137427], [1.4312889, 48.7138075], [1.4313072, 48.7138636], [1.4313443, 48.7139118], [1.4314145, 48.7139752], [1.4315133, 48.7140456], [1.4315756, 48.7140795], [1.4316189, 48.7140947], [1.4316611, 48.7141061], [1.4317035, 48.7141085], [1.4317463, 48.7141066], [1.4317947, 48.7140962], [1.4318249, 48.7140889], [1.4318594, 48.7140842], [1.4318944, 48.7140861], [1.4319277, 48.7140948], [1.4319589, 48.7141112], [1.4320522, 48.7141754], [1.4320741, 48.7141976], [1.4320874, 48.7142216], [1.4320864, 48.7142566], [1.4320812, 48.7142911], [1.4320803, 48.7143164], [1.4320874, 48.7143415], [1.4321019, 48.7143626], [1.4321275, 48.7143843], [1.4327023, 48.7147337], [1.4327219, 48.7147506], [1.4327338, 48.7147724], [1.4327375, 48.714794], [1.432732, 48.7148177], [1.4327215, 48.7148357], [1.4327126, 48.7148449], [1.432704, 48.7148537], [1.4327021, 48.7148603], [1.4326904, 48.714867], [1.4326713, 48.7148696], [1.4326538, 48.7148655], [1.4326402, 48.714857], [1.4326193, 48.7148439], [1.4325817, 48.7148295], [1.4325554, 48.7148203], [1.432524, 48.7148201], [1.4324857, 48.7148278], [1.4324599, 48.71483], [1.4324321, 48.7148262], [1.4324019, 48.7148172], [1.43227, 48.7147532], [1.4320469, 48.7146189], [1.4316537, 48.7143994], [1.4312739, 48.7141894], [1.4311274, 48.7140807], [1.4310937, 48.7139811], [1.4310979, 48.7138417], [1.4311005, 48.7136577], [1.4312481, 48.7133037], [1.4312722, 48.7131657], [1.4314278, 48.7128984], [1.4315565, 48.7126206], [1.4315941, 48.7124365], [1.4316289, 48.7122949], [1.4317657, 48.7120206], [1.4318569, 48.7118082], [1.431983, 48.7116861], [1.4322271, 48.7114684], [1.4324509, 48.7113228], [1.4326804, 48.7112136], [1.4327796, 48.7111835], [1.4328467, 48.7110861], [1.4329942, 48.7108029], [1.43319, 48.7103534], [1.4332409, 48.7101534], [1.433359, 48.709472], [1.4334663, 48.7088082], [1.4334716, 48.7086649], [1.4334663, 48.7085233], [1.4334314, 48.7084489], [1.4333307, 48.708337], [1.4332556, 48.7083087], [1.4330785, 48.7083211], [1.4323973, 48.7084485], [1.431952, 48.7084963], [1.4315792, 48.7085671], [1.4311912, 48.7086342], [1.4311295, 48.7086495], [1.4310979, 48.7086611], [1.4310773, 48.708672], [1.4310646, 48.708684], [1.4310576, 48.7086987], [1.4310551, 48.7087171], [1.4310548, 48.7087421], [1.4311435, 48.7094472], [1.4312615, 48.7101367], [1.4312622, 48.7101558], [1.4312584, 48.7101727], [1.4312494, 48.7101875], [1.4312352, 48.7102004], [1.4312169, 48.7102123], [1.4311908, 48.7102248], [1.4311542, 48.7102366], [1.4311162, 48.7102457], [1.4300959, 48.7104184], [1.4295797, 48.7105091], [1.4277597, 48.7108733], [1.4274126, 48.7109445], [1.4268987, 48.7110839], [1.426829, 48.7111352], [1.4267002, 48.7112768], [1.4264588, 48.7115724], [1.4263317, 48.7117587], [1.4261547, 48.7119162], [1.4258865, 48.7120755], [1.4257856, 48.7121175], [1.4256182, 48.7120772], [1.4250389, 48.7118826], [1.4246832, 48.7117193], [1.4245947, 48.7116963], [1.4245227, 48.7117097], [1.4244794, 48.7117317], [1.4241951, 48.7122414], [1.4241441, 48.712337], [1.4241403, 48.7124489], [1.4241189, 48.7125339], [1.4239821, 48.7126684], [1.4237622, 48.7129179], [1.4236774, 48.7129352], [1.4235771, 48.7129604], [1.4234575, 48.7129546], [1.4226367, 48.7127653], [1.4224801, 48.7127622], [1.4223336, 48.7127139], [1.4221217, 48.7126626], [1.4219543, 48.7126471], [1.4218578, 48.7126701], [1.4218015, 48.7127002], [1.4216673, 48.7128436], [1.4214662, 48.7130347], [1.4212661, 48.713321], [1.4208691, 48.7138873], [1.4207926, 48.7139829], [1.4207803, 48.7140083], [1.4207758, 48.7140307], [1.4207799, 48.7140529], [1.4207934, 48.7140749], [1.4208238, 48.7140969], [1.4208573, 48.7141128], [1.4208918, 48.7141268], [1.420947, 48.7141392], [1.4210071, 48.7141483], [1.4210716, 48.7141534], [1.4211416, 48.7141619], [1.4211738, 48.7141741], [1.4211937, 48.7141894], [1.4211954, 48.7142053], [1.4211878, 48.7142314], [1.4211704, 48.7142626], [1.4210971, 48.714367], [1.4205828, 48.7150524], [1.4205341, 48.7151081], [1.4204848, 48.7151553], [1.4204442, 48.7152035], [1.4204104, 48.7152573], [1.4203225, 48.7154097], [1.4202681, 48.7154864], [1.4202345, 48.7155168], [1.4201973, 48.7155353], [1.4201502, 48.7155477], [1.4200897, 48.7155543], [1.4200076, 48.7155622], [1.419911, 48.7155703], [1.4198644, 48.7155796], [1.4198229, 48.7155969], [1.4197904, 48.7156202], [1.4197464, 48.7156702], [1.4196662, 48.7157652], [1.4195935, 48.7158371], [1.4195241, 48.7159151], [1.4193656, 48.7161352], [1.4192757, 48.7162909], [1.4192048, 48.7164533], [1.4191788, 48.7165487], [1.4191704, 48.7166141], [1.4191796, 48.7166757], [1.4192005, 48.716738], [1.4192037, 48.7168188], [1.4191713, 48.7172108], [1.4191434, 48.7174625], [1.4190934, 48.7180386], [1.4190875, 48.7180704], [1.4190885, 48.7181312], [1.419082, 48.7181984], [1.4190765, 48.7182314], [1.4190875, 48.7182636], [1.4191035, 48.7182982], [1.4191166, 48.718355], [1.4191154, 48.7183928], [1.4191177, 48.718431], [1.4191346, 48.7184675], [1.419165, 48.718509], [1.4191872, 48.7185607], [1.4192399, 48.7187401], [1.4193066, 48.7189031], [1.4193525, 48.7190038], [1.4193897, 48.7190968], [1.4194149, 48.7192011], [1.4194266, 48.71933], [1.4194252, 48.7194412], [1.4194118, 48.7195363], [1.4193758, 48.719653], [1.4193188, 48.7198105], [1.4192943, 48.7199444], [1.419268, 48.7201202], [1.419266, 48.7202347], [1.4192796, 48.7202994], [1.419305, 48.7203454], [1.4193501, 48.7203832], [1.4194135, 48.720416], [1.419506, 48.7204426], [1.4197132, 48.7204882], [1.4200794, 48.7205658], [1.4201372, 48.7205808], [1.4202065, 48.7205962], [1.4202842, 48.7206074], [1.4203762, 48.7206111], [1.4205603, 48.720616], [1.4206646, 48.7206129], [1.420766, 48.7206015], [1.4208719, 48.7205822], [1.4209814, 48.7205543], [1.4210872, 48.7205189], [1.4211937, 48.7204717], [1.421261, 48.7204342], [1.4213147, 48.7203935], [1.4213512, 48.7203527], [1.421364, 48.7203087], [1.42137, 48.7202527], [1.4213778, 48.7201656], [1.4213884, 48.7201137], [1.4214037, 48.720085], [1.4214237, 48.7200563], [1.4214496, 48.7200358], [1.4214934, 48.7200095], [1.4215476, 48.7199842], [1.4221581, 48.7197546], [1.4222198, 48.7197286], [1.4223125, 48.719681], [1.42239, 48.719641], [1.4224653, 48.7196131], [1.4225422, 48.7195947], [1.4226295, 48.719585], [1.422715, 48.7195862], [1.4227721, 48.7195921], [1.4229412, 48.7196168], [1.4230449, 48.7196266], [1.4231228, 48.7196269], [1.4232238, 48.7196196], [1.4233464, 48.7196103], [1.4234733, 48.7196055], [1.4235878, 48.7196119], [1.4237024, 48.7196337], [1.4237522, 48.7196502], [1.4238132, 48.7196736], [1.4240427, 48.719728], [1.4241023, 48.7197379], [1.4241613, 48.7197432], [1.4242176, 48.7197407], [1.4242587, 48.7197345], [1.4242948, 48.7197186], [1.4243259, 48.719694], [1.4243656, 48.7196445], [1.4243885, 48.7196237], [1.4244135, 48.7196091], [1.4244414, 48.7196014], [1.4244736, 48.7196011], [1.424505, 48.7196061], [1.4245319, 48.7196185], [1.424556, 48.7196331], [1.4245931, 48.719652], [1.4250433, 48.7198216], [1.42509, 48.719837], [1.4251497, 48.719848], [1.4252138, 48.7198511], [1.4252972, 48.719848], [1.4253559, 48.7198388], [1.4254001, 48.7198232], [1.4254414, 48.7198013], [1.4254902, 48.7197702], [1.425621, 48.7196993], [1.425798, 48.7196174], [1.4259567, 48.7195525], [1.4261332, 48.7194925], [1.4262989, 48.7194421], [1.426364, 48.7194273], [1.4264103, 48.7194213], [1.4264726, 48.7194199], [1.4265153, 48.7194216], [1.4265662, 48.7194276], [1.4266368, 48.7194386], [1.4266847, 48.7194437], [1.4267298, 48.7194449], [1.4267756, 48.7194408], [1.4268205, 48.7194332], [1.4268587, 48.7194207], [1.4268956, 48.7194035], [1.4269384, 48.71938], [1.4269752, 48.7193676], [1.4270175, 48.7193638], [1.4270529, 48.7193674], [1.4270832, 48.7193757], [1.4271101, 48.7193888], [1.4271242, 48.7194064], [1.4271281, 48.7194254], [1.4271186, 48.7194547], [1.4270985, 48.7194868], [1.4270669, 48.7195187], [1.4270386, 48.7195516], [1.4270209, 48.7195687], [1.42701, 48.7195782], [1.4269975, 48.7195925], [1.4269865, 48.719609], [1.4269719, 48.7196219], [1.4269523, 48.719629], [1.4269403, 48.7196312], [1.4269327, 48.7196342], [1.426928, 48.7196384], [1.4269223, 48.7196463], [1.4269095, 48.7196619], [1.4268851, 48.7196873], [1.4267721, 48.719787], [1.4265736, 48.7199303], [1.426338, 48.720138], [1.4263082, 48.7201742], [1.4262965, 48.7202023], [1.4262979, 48.7202344], [1.426308, 48.7202644], [1.4263385, 48.7202949], [1.4263816, 48.7203236], [1.4264454, 48.7203558], [1.4266749, 48.7204374], [1.4266992, 48.720447], [1.4269098, 48.7205241], [1.4269421, 48.7205437], [1.4269583, 48.7205673], [1.4269558, 48.7205899], [1.4269464, 48.7206119], [1.4269324, 48.7206295], [1.4269114, 48.7206581], [1.4267238, 48.7209558], [1.426787, 48.7209772], [1.4267944, 48.7209691], [1.426804, 48.7209617], [1.4268159, 48.7209561], [1.426828, 48.7209542], [1.4268447, 48.720955], [1.4269616, 48.7209678], [1.4272086, 48.7206721], [1.4272238, 48.7206636], [1.4272439, 48.7206571], [1.4272732, 48.7206548], [1.4273146, 48.72066], [1.427343, 48.7206687], [1.4273717, 48.7206717], [1.4274171, 48.7206687], [1.4274555, 48.7206597], [1.4274889, 48.7206458], [1.42752, 48.7206235], [1.4275493, 48.7205929], [1.4276638, 48.7204718], [1.4276817, 48.7204527], [1.4278202, 48.7203062], [1.4278788, 48.7202262], [1.4278889, 48.7201954], [1.4278906, 48.7201763], [1.4278871, 48.7201611], [1.4278725, 48.7201477], [1.4278395, 48.7201312], [1.4278218, 48.7201215], [1.427815, 48.7201137], [1.427813, 48.7201038], [1.4278157, 48.7200907], [1.4278293, 48.7200673], [1.4278435, 48.7200554], [1.4278625, 48.7200442], [1.4278783, 48.7200314], [1.4278928, 48.7200114], [1.4279203, 48.7199663], [1.4279674, 48.7198863], [1.4280028, 48.7198329], [1.4280232, 48.7198108], [1.4280451, 48.7197987], [1.4280815, 48.7197924], [1.4281169, 48.7197893], [1.4281445, 48.7197929], [1.4281677, 48.7198001], [1.4281908, 48.7198057], [1.4282235, 48.7198076], [1.4282597, 48.7198034], [1.4283029, 48.7197909], [1.4283355, 48.7197771], [1.4283712, 48.7197665], [1.4284113, 48.7197621], [1.4284964, 48.7197591], [1.4285632, 48.719753], [1.4286438, 48.7197389], [1.4287231, 48.7197207], [1.4288203, 48.7196875], [1.4289591, 48.7196314], [1.4290143, 48.7196026], [1.429124, 48.7195313], [1.4292445, 48.7194471], [1.4292663, 48.7194181], [1.429276, 48.719392], [1.4292863, 48.7193394], [1.4292964, 48.7193151], [1.4293132, 48.7192966], [1.4293413, 48.7192771], [1.4294117, 48.7192454], [1.4295319, 48.7191889], [1.4296039, 48.7191459], [1.4296677, 48.7190941], [1.4298018, 48.7189589], [1.4299499, 48.7187738], [1.4302235, 48.7185313], [1.4303442, 48.7183898], [1.4304139, 48.7182393], [1.430607, 48.7178217], [1.4307028, 48.7175284], [1.4307212, 48.7174728], [1.4307401, 48.7174161], [1.4307602, 48.7173882], [1.4307741, 48.7173668], [1.4307798, 48.7173519], [1.4307769, 48.7173329], [1.4307659, 48.7173167], [1.4307505, 48.7173034], [1.4307278, 48.7172951], [1.4306883, 48.7172911], [1.4306598, 48.7172836], [1.4306403, 48.7172763], [1.4306237, 48.7172671], [1.4306137, 48.717253], [1.4306095, 48.7172342], [1.4306094, 48.7172069], [1.4306164, 48.7171849], [1.4306257, 48.7171678], [1.4306398, 48.7171561], [1.4306616, 48.7171497], [1.4306928, 48.7171483], [1.4307213, 48.7171504], [1.430754, 48.7171575], [1.4307829, 48.717167], [1.4308081, 48.71718], [1.4308262, 48.7171864], [1.4308468, 48.7171906], [1.4308689, 48.7171904], [1.4308986, 48.7171827], [1.4309245, 48.7171711], [1.4309529, 48.7171513], [1.4309744, 48.7171276], [1.430995, 48.7170982], [1.4310189, 48.7170463], [1.4310381, 48.7169863], [1.4310445, 48.7169382], [1.4310349, 48.7169029], [1.4310344, 48.7168815], [1.4310432, 48.7168582], [1.4310636, 48.7168374], [1.4311006, 48.716813], [1.4311609, 48.7167692], [1.4312446, 48.7167148], [1.4313173, 48.7166541], [1.4313732, 48.7166103], [1.4314426, 48.7165627], [1.4315646, 48.7164945], [1.4318205, 48.7163682], [1.4318829, 48.7163405], [1.4319311, 48.7163231], [1.4319738, 48.7163109], [1.4320007, 48.716299], [1.4320209, 48.7162874], [1.4320409, 48.716273], [1.4320625, 48.7162566], [1.4320798, 48.716247], [1.4321041, 48.7162401], [1.4321233, 48.716238], [1.4321455, 48.716239], [1.4321769, 48.7162412], [1.4322186, 48.7162421], [1.4322604, 48.7162408], [1.4323367, 48.7162331], [1.4324088, 48.7162218], [1.4325007, 48.7162036], [1.4325823, 48.7161815], [1.4327165, 48.7161353], [1.432873, 48.7160617], [1.4329808, 48.7159972], [1.4330639, 48.7159441], [1.4332114, 48.7158963], [1.4333616, 48.7158326], [1.433418, 48.7157919], [1.4334904, 48.7157388], [1.4335038, 48.7157087], [1.4334636, 48.7156645], [1.4334019, 48.7156114], [1.433316, 48.7155583], [1.4331349, 48.7155049], [1.4330329, 48.71545], [1.4329471, 48.7154164], [1.4328479, 48.7154111], [1.4327555, 48.7154433], [1.4326628, 48.715473], [1.4325555, 48.7154889], [1.4325033, 48.715468], [1.4324256, 48.7154186], [1.4323934, 48.7153602], [1.4324175, 48.7153124], [1.4325087, 48.7152717], [1.4325838, 48.7152823], [1.4326401, 48.7152859], [1.4328118, 48.7152646], [1.4329647, 48.7152505], [1.4330559, 48.7152699], [1.4331444, 48.7153212], [1.4332034, 48.7153602], [1.4332463, 48.7153903], [1.4333026, 48.7154592], [1.4333751, 48.7155087], [1.4334636, 48.7155565], [1.4335521, 48.7155937], [1.4336084, 48.7156185], [1.4336513, 48.7156202], [1.4337023, 48.7155795], [1.4338296, 48.7154695], [1.4339088, 48.7153903], [1.4339598, 48.7153407], [1.4339598, 48.7152982], [1.433941, 48.7152451], [1.4338954, 48.7151903], [1.4338257, 48.7151567], [1.4337545, 48.7151757], [1.4336084, 48.7151779], [1.4334594, 48.7151562], [1.433308, 48.7151248], [1.4331551, 48.7150947], [1.4330008, 48.7150607], [1.4329191, 48.7150151], [1.432864, 48.7149916], [1.4328225, 48.7149549], [1.4328379, 48.7149105], [1.4328461, 48.7149021]]]}}, {"type": "Feature", "properties": {"name": "Étang de la Balastière"}, "geometry": {"type": "Polygon", "coordinates": [[[1.1425415, 48.2087214], [1.1424532, 48.2089819], [1.1424347, 48.2090369], [1.1423824, 48.2090897], [1.1421262, 48.2091665], [1.1419755, 48.209228], [1.1419143, 48.2093023], [1.1418674, 48.2094337], [1.1418352, 48.2096071], [1.1418447, 48.2098143], [1.1418486, 48.2099056], [1.1419973, 48.2099217], [1.1420174, 48.209923], [1.1420612, 48.2099257], [1.1421778, 48.2100491], [1.1423079, 48.2101214], [1.1424943, 48.2101733], [1.1426614, 48.2101837], [1.1428138, 48.21016], [1.1429819, 48.2101264], [1.1431508, 48.2101369], [1.1431903, 48.2102486], [1.1432589, 48.2103152], [1.1435196, 48.2103702], [1.1437059, 48.2102956], [1.1441379, 48.2103681], [1.1443007, 48.2104881], [1.1447191, 48.2105668], [1.1452293, 48.2107078], [1.1455246, 48.2108614], [1.1457767, 48.2110384], [1.146138, 48.2112496], [1.1465491, 48.2114245], [1.1468147, 48.2115138], [1.1470615, 48.211521], [1.1473332, 48.2114704], [1.1474611, 48.2114781], [1.1478313, 48.211596], [1.1481976, 48.2118304], [1.1486359, 48.2122341], [1.1489283, 48.212656], [1.1491107, 48.2128007], [1.1493482, 48.2128352], [1.1499548, 48.2128135], [1.1502968, 48.2128662], [1.1505757, 48.2129788], [1.1509524, 48.2130874], [1.1513724, 48.2131272], [1.1518847, 48.2130557], [1.1523861, 48.213043], [1.152588, 48.2130009], [1.1527349, 48.2128537], [1.1526974, 48.2127733], [1.1525606, 48.2127536], [1.1524908, 48.2126875], [1.1524131, 48.2126035], [1.1525284, 48.2125266], [1.1526603, 48.2125345], [1.1527591, 48.2126428], [1.1528395, 48.2126035], [1.1527483, 48.2124033], [1.1527215, 48.2120762], [1.1528037, 48.2118842], [1.1527848, 48.2116901], [1.1528797, 48.2115366], [1.1530779, 48.2115605], [1.1536844, 48.2115365], [1.1540599, 48.2114915], [1.1541988, 48.2113966], [1.1545488, 48.2109505], [1.1546312, 48.2107697], [1.1546286, 48.2105212], [1.1545964, 48.2103997], [1.1544194, 48.2102359], [1.153958, 48.2100315], [1.153671, 48.2099564], [1.1535906, 48.2100368], [1.153494, 48.2100654], [1.1533679, 48.2100189], [1.1533642, 48.2098947], [1.1532794, 48.2098027], [1.152928, 48.2097776], [1.1525928, 48.2097026], [1.1523675, 48.2096883], [1.1519303, 48.2096132], [1.1516406, 48.2094845], [1.151375, 48.2094309], [1.150852, 48.2093826], [1.1504673, 48.2094477], [1.1500795, 48.2094631], [1.1499025, 48.209413], [1.1493339, 48.2093576], [1.1478969, 48.209158], [1.147577, 48.2090859], [1.1472069, 48.2089483], [1.1468394, 48.2088893], [1.1458798, 48.2088112], [1.1445065, 48.2086128], [1.1440875, 48.2086086], [1.1436658, 48.2086194], [1.1425415, 48.2087214]]]}}]}