{"type": "FeatureCollection", "features": [{"type": "Feature", "properties": {"name": "Lac de Brennilis"}, "geometry": {"type": "Polygon", "coordinates": [[[-3.8863015, 48.3482526], [-3.8866329, 48.3481757], [-3.886832, 48.3481674], [-3.886983, 48.348247], [-3.8872682, 48.3482078], [-3.8875133, 48.34826], [-3.8877761, 48.3481959], [-3.888, 48.3481988], [-3.8883233, 48.3479891], [-3.8887203, 48.3478928], [-3.8888598, 48.3478661], [-3.88901, 48.3478643], [-3.8892889, 48.3480105], [-3.8895062, 48.3478946], [-3.8897022, 48.3478832], [-3.8898495, 48.3479], [-3.8899487, 48.3479196], [-3.8900587, 48.3480051], [-3.8901526, 48.3479695], [-3.8902411, 48.347875], [-3.8905, 48.348], [-3.8910162, 48.3481335], [-3.891373, 48.348137], [-3.8914347, 48.3480515], [-3.8915259, 48.3480444], [-3.8916761, 48.347973], [-3.8918263, 48.3480283], [-3.891947, 48.3480283], [-3.8920435, 48.3479891], [-3.8921481, 48.3479624], [-3.8922458, 48.3480245], [-3.8924298, 48.3479891], [-3.8926712, 48.3480444], [-3.8930011, 48.3480479], [-3.8931405, 48.348071], [-3.8936287, 48.3478857], [-3.8942483, 48.3478857], [-3.8946158, 48.3476612], [-3.894774, 48.3477591], [-3.8949319, 48.347906], [-3.8950905, 48.3480907], [-3.8951656, 48.3483527], [-3.8952515, 48.3482921], [-3.8952917, 48.3483002], [-3.8953185, 48.3483296], [-3.8953668, 48.3484258], [-3.8955322, 48.3487825], [-3.8957691, 48.3489909], [-3.8961446, 48.3492904], [-3.8966435, 48.3493902], [-3.8970887, 48.3494294], [-3.8975018, 48.3496505], [-3.8978022, 48.3497039], [-3.8980294, 48.3499791], [-3.8989127, 48.3500105], [-3.9006561, 48.3505331], [-3.9011014, 48.3506005], [-3.9011335, 48.3504939], [-3.90225, 48.35125], [-3.9027482, 48.3513973], [-3.9029092, 48.3515684], [-3.903089, 48.3516498], [-3.9038104, 48.3517289], [-3.9041534, 48.3519282], [-3.9046365, 48.3522636], [-3.9049946, 48.3525927], [-3.9061073, 48.3528422], [-3.9072704, 48.3535434], [-3.9081142, 48.3542494], [-3.9089012, 48.354456], [-3.9094591, 48.3547647], [-3.9098918, 48.3547875], [-3.9103174, 48.3547233], [-3.9110697, 48.3548101], [-3.9119214, 48.35498], [-3.9123881, 48.3551654], [-3.9125061, 48.3553971], [-3.9126803, 48.3556283], [-3.9130855, 48.3556858], [-3.9132812, 48.3557771], [-3.9135648, 48.3557873], [-3.9139639, 48.3556509], [-3.9145005, 48.355562], [-3.9147994, 48.3556652], [-3.9152493, 48.355734], [-3.9153493, 48.3558854], [-3.915938, 48.3560738], [-3.9160233, 48.3562156], [-3.9166226, 48.3563173], [-3.9167947, 48.3567213], [-3.9166113, 48.3576525], [-3.9166964, 48.3580595], [-3.9169371, 48.3581418], [-3.9169532, 48.3584234], [-3.9170463, 48.3584885], [-3.9172268, 48.3583307], [-3.9174467, 48.3583521], [-3.91801, 48.3586658], [-3.9182729, 48.3585909], [-3.9185411, 48.3586587], [-3.9187825, 48.3586694], [-3.9194978, 48.3588814], [-3.9206195, 48.3592146], [-3.9210554, 48.3594932], [-3.9213428, 48.3601418], [-3.9220762, 48.3604979], [-3.9221245, 48.3605835], [-3.9222908, 48.3606227], [-3.9223445, 48.3603981], [-3.9226449, 48.3604872], [-3.922559, 48.360587], [-3.9226341, 48.3606227], [-3.9228755, 48.3606227], [-3.9230204, 48.3606262], [-3.9235804, 48.3611219], [-3.9235935, 48.3613455], [-3.9239752, 48.3618452], [-3.9236665, 48.3624], [-3.9233546, 48.3627431], [-3.9230633, 48.3628646], [-3.9225, 48.36275], [-3.9224321, 48.3627608], [-3.9216503, 48.3629577], [-3.9206278, 48.3630499], [-3.9190775, 48.3630249], [-3.9180289, 48.3629852], [-3.9173341, 48.3633778], [-3.9167225, 48.3636416], [-3.9165938, 48.3637378], [-3.9163752, 48.3636808], [-3.915996, 48.3635036], [-3.9156242, 48.3635311], [-3.9153962, 48.3637561], [-3.9152634, 48.3639409], [-3.9150127, 48.3640372], [-3.9148021, 48.3642154], [-3.9144548, 48.3642297], [-3.9138426, 48.3643712], [-3.9135844, 48.3644756], [-3.913237, 48.3645041], [-3.9120662, 48.364415], [-3.911496, 48.3642536], [-3.9106098, 48.3641528], [-3.9093033, 48.3641732], [-3.9091587, 48.3643865], [-3.9088972, 48.3644649], [-3.9085352, 48.3645913], [-3.9081663, 48.3647642], [-3.9076849, 48.3647857], [-3.907308, 48.3647536], [-3.9070186, 48.3646815], [-3.9065301, 48.3646751], [-3.906042, 48.3645183], [-3.9056287, 48.3642534], [-3.9050778, 48.3639445], [-3.9050013, 48.3637271], [-3.9044751, 48.3636443], [-3.9042076, 48.3635352], [-3.9041696, 48.3635197], [-3.9037782, 48.3635453], [-3.903333, 48.3636112], [-3.9021167, 48.3642892], [-3.9018846, 48.3644185], [-3.9009588, 48.3648177], [-3.9006838, 48.3650632], [-3.9003664, 48.3653487], [-3.9001036, 48.3655555], [-3.89983, 48.3655947], [-3.8995615, 48.3655286], [-3.8989838, 48.3653346], [-3.8987571, 48.3652204], [-3.8984227, 48.3651987], [-3.8981992, 48.3652276], [-3.8979203, 48.3654236], [-3.8975984, 48.3655269], [-3.8971975, 48.3654451], [-3.8967977, 48.3653426], [-3.8961339, 48.3655947], [-3.8955975, 48.3656873], [-3.8952514, 48.3657541], [-3.894998, 48.3659614], [-3.8948625, 48.3662504], [-3.8947636, 48.3666068], [-3.8945139, 48.3670986], [-3.8944763, 48.3676831], [-3.8945476, 48.3683646], [-3.8944656, 48.3684404], [-3.8944436, 48.3687984], [-3.8946587, 48.3693937], [-3.8945675, 48.3695719], [-3.8946694, 48.3698214], [-3.8948464, 48.370078], [-3.8951469, 48.3702205], [-3.8954499, 48.3703243], [-3.8954526, 48.3708924], [-3.8955814, 48.3710865], [-3.8956082, 48.3711684], [-3.8954312, 48.3711399], [-3.8952504, 48.3709953], [-3.8951254, 48.3711007], [-3.8951415, 48.3712468], [-3.8951361, 48.3713537], [-3.89486, 48.3713887], [-3.8946642, 48.3714135], [-3.8939027, 48.3713896], [-3.8937038, 48.3710861], [-3.893052, 48.3704094], [-3.8927433, 48.3700005], [-3.8922554, 48.3693545], [-3.8920296, 48.3690653], [-3.8914634, 48.36834], [-3.8915379, 48.3680966], [-3.8913867, 48.3677972], [-3.891436, 48.367618], [-3.8914194, 48.3670702], [-3.8911249, 48.3666557], [-3.8909577, 48.3659316], [-3.8908668, 48.365538], [-3.8912016, 48.3647572], [-3.8913986, 48.364393], [-3.8914408, 48.3642828], [-3.8914772, 48.3641877], [-3.8916179, 48.3638202], [-3.8918424, 48.3633974], [-3.891888, 48.3632869], [-3.8920167, 48.3631604], [-3.8922527, 48.3630392], [-3.8925524, 48.3629298], [-3.892757, 48.3627594], [-3.8929957, 48.3626097], [-3.8931727, 48.3625581], [-3.893349, 48.362588], [-3.8942161, 48.3625794], [-3.894828, 48.3625581], [-3.8959837, 48.3624422], [-3.897449, 48.3625898], [-3.8979954, 48.3624725], [-3.8986152, 48.3624091], [-3.8993206, 48.3620377], [-3.8995811, 48.3614757], [-3.8995261, 48.3608761], [-3.8991773, 48.3602102], [-3.899092, 48.3600474], [-3.8989703, 48.359815], [-3.8982596, 48.358987], [-3.8979314, 48.3588055], [-3.897744, 48.3587019], [-3.8973691, 48.3584028], [-3.89678, 48.3583818], [-3.8965275, 48.3584526], [-3.8962766, 48.3585003], [-3.8955598, 48.3584832], [-3.8953526, 48.3584666], [-3.8945147, 48.3584381], [-3.8938194, 48.3585885], [-3.8933881, 48.3588658], [-3.8930306, 48.3594086], [-3.8926822, 48.3597209], [-3.8922611, 48.3598991], [-3.8919387, 48.3598671], [-3.8916097, 48.3599255], [-3.8912874, 48.3599826], [-3.8904919, 48.3603087], [-3.8900673, 48.3606921], [-3.8898607, 48.3610247], [-3.8892586, 48.3614515], [-3.8885853, 48.361817], [-3.8883185, 48.3618933], [-3.888179, 48.3618993], [-3.8878814, 48.3619812], [-3.8874811, 48.3620914], [-3.8863567, 48.3618817], [-3.8861228, 48.3619647], [-3.8860399, 48.3621504], [-3.8861022, 48.3622921], [-3.8866394, 48.3624992], [-3.8872357, 48.36269], [-3.888, 48.3635], [-3.8882021, 48.3641433], [-3.8881495, 48.3643269], [-3.8878075, 48.3646667], [-3.8875055, 48.3648488], [-3.8872091, 48.3647729], [-3.8867439, 48.3649456], [-3.8867411, 48.365101], [-3.8857878, 48.3655819], [-3.8850464, 48.365635], [-3.8845968, 48.3657992], [-3.8842088, 48.3658334], [-3.8840103, 48.3657158], [-3.8839677, 48.3655782], [-3.8839049, 48.3652714], [-3.8841015, 48.3645326], [-3.8843322, 48.3643187], [-3.8844824, 48.3642261], [-3.8847721, 48.3641548], [-3.8847184, 48.3640122], [-3.8843966, 48.3639587], [-3.8841766, 48.3637414], [-3.8840962, 48.3634135], [-3.8845629, 48.363246], [-3.8838065, 48.3629287], [-3.8831949, 48.3629073], [-3.8825727, 48.3626579], [-3.8815856, 48.3627791], [-3.8814086, 48.3629109], [-3.8812745, 48.3629038], [-3.8809794, 48.3628717], [-3.8807058, 48.3631854], [-3.8800782, 48.3632673], [-3.8794417, 48.3632926], [-3.8783776, 48.3636629], [-3.8779785, 48.3637399], [-3.8777064, 48.3636966], [-3.8775402, 48.3635879], [-3.877352, 48.3635744], [-3.877415, 48.3630507], [-3.8780936, 48.3623172], [-3.8789144, 48.3617027], [-3.8792808, 48.3613256], [-3.8792971, 48.3605999], [-3.8793454, 48.3600654], [-3.879372, 48.3598859], [-3.8793795, 48.3595838], [-3.8793988, 48.3594147], [-3.8798693, 48.3591292], [-3.8802442, 48.3592379], [-3.8804075, 48.3593968], [-3.8804948, 48.359427], [-3.8807426, 48.3593656], [-3.8809008, 48.3591082], [-3.8811696, 48.358781], [-3.8821261, 48.3585721], [-3.8828057, 48.3580734], [-3.8828438, 48.3577826], [-3.8827464, 48.3574921], [-3.8826343, 48.3573701], [-3.8825727, 48.3572275], [-3.8824099, 48.3571639], [-3.8822669, 48.3570778], [-3.8822427, 48.3569584], [-3.8821408, 48.3569352], [-3.8820657, 48.3568942], [-3.8819397, 48.3567695], [-3.8818753, 48.3566465], [-3.8817325, 48.3565721], [-3.8816285, 48.3565235], [-3.881467, 48.356506], [-3.8813301, 48.3563581], [-3.8797498, 48.3557887], [-3.8790832, 48.3556719], [-3.8788471, 48.3556845], [-3.8786828, 48.355663], [-3.878473, 48.355507], [-3.8783723, 48.3553703], [-3.8782899, 48.3552051], [-3.8782282, 48.3550315], [-3.878237, 48.3549709], [-3.8782573, 48.3548299], [-3.8782724, 48.3548009], [-3.8782576, 48.354755], [-3.8782208, 48.3547055], [-3.8781483, 48.354673], [-3.8780729, 48.3546593], [-3.8781061, 48.3546102], [-3.8781088, 48.3545772], [-3.87809, 48.3545357], [-3.8780522, 48.3544951], [-3.8779231, 48.3544527], [-3.8779479, 48.354411], [-3.8779539, 48.3543624], [-3.8779304, 48.3543134], [-3.8778938, 48.354287], [-3.8778379, 48.3542577], [-3.8777673, 48.3542403], [-3.8777976, 48.354202], [-3.8777876, 48.3541436], [-3.8777648, 48.3541044], [-3.8777353, 48.354079], [-3.8776157, 48.3540306], [-3.8776314, 48.3539725], [-3.8776213, 48.3539146], [-3.8775768, 48.3538709], [-3.8774445, 48.3538199], [-3.8774724, 48.3537787], [-3.8774691, 48.3537234], [-3.8774184, 48.3536628], [-3.877288, 48.3536124], [-3.8773088, 48.353579], [-3.8773122, 48.3535452], [-3.8772958, 48.3534892], [-3.8772599, 48.3534547], [-3.8771304, 48.3534053], [-3.8771559, 48.353358], [-3.8771532, 48.3532912], [-3.8771014, 48.3532466], [-3.8769756, 48.3531882], [-3.8769987, 48.3531407], [-3.8769896, 48.3530809], [-3.876943, 48.3530385], [-3.8768209, 48.3529871], [-3.8768408, 48.352924], [-3.8768247, 48.3528732], [-3.8767845, 48.3528304], [-3.8766182, 48.3527511], [-3.8766148, 48.3527344], [-3.8766181, 48.3526468], [-3.8766101, 48.3525969], [-3.8765646, 48.3525416], [-3.8764423, 48.3524969], [-3.8764679, 48.3524463], [-3.8764586, 48.3523982], [-3.8764112, 48.35234], [-3.8762872, 48.3522924], [-3.876299, 48.352236], [-3.8762804, 48.3521545], [-3.8762863, 48.3521501], [-3.8764274, 48.3521377], [-3.8764658, 48.3521183], [-3.876539, 48.3521442], [-3.8765283, 48.3521549], [-3.8765561, 48.3521656], [-3.8766208, 48.3520622], [-3.8765611, 48.3520416], [-3.8765616, 48.3519983], [-3.8767187, 48.351875], [-3.8768818, 48.3517445], [-3.878395, 48.3514115], [-3.8786376, 48.3513403], [-3.878717, 48.3512592], [-3.8787545, 48.3511665], [-3.8787666, 48.3510292], [-3.8788044, 48.3507664], [-3.8787295, 48.350594], [-3.8786773, 48.3505617], [-3.8784816, 48.3504407], [-3.8779271, 48.3501743], [-3.8771281, 48.3495673], [-3.8767628, 48.3492897], [-3.8763714, 48.3489924], [-3.8759728, 48.3487762], [-3.8757142, 48.348636], [-3.8754947, 48.3485364], [-3.8753066, 48.3483777], [-3.8750549, 48.3481125], [-3.8748216, 48.3479272], [-3.8747107, 48.3478392], [-3.8744569, 48.3474403], [-3.8742564, 48.3470261], [-3.8746701, 48.3468165], [-3.8747782, 48.3468197], [-3.8749674, 48.346842], [-3.8749579, 48.346809], [-3.8748828, 48.3467359], [-3.874864, 48.3466468], [-3.8748958, 48.3465555], [-3.8754905, 48.346223], [-3.8760085, 48.3461992], [-3.8771787, 48.3461409], [-3.8780022, 48.3462599], [-3.8783278, 48.3465618], [-3.8789724, 48.3468288], [-3.879244, 48.3468732], [-3.8798261, 48.3468696], [-3.8802633, 48.3469712], [-3.8807488, 48.3470906], [-3.8810868, 48.3472562], [-3.8815529, 48.3474285], [-3.8819022, 48.3476842], [-3.882522, 48.3480109], [-3.8827765, 48.3484508], [-3.8828368, 48.348813], [-3.8827296, 48.3490479], [-3.8825162, 48.3492861], [-3.8824958, 48.3494954], [-3.882863, 48.3500521], [-3.8833033, 48.3501953], [-3.8839603, 48.3501826], [-3.8845386, 48.349931], [-3.8854015, 48.3493128], [-3.8856451, 48.3489552], [-3.8857813, 48.3486936], [-3.8860538, 48.3483762], [-3.8863015, 48.3482526]]]}}, {"type": "Feature", "properties": {"name": "Lac de Lannéon"}, "geometry": {"type": "Polygon", "coordinates": [[[-4.6601579, 48.4473577], [-4.6594938, 48.4471168], [-4.6588525, 48.446944], [-4.6583362, 48.4469787], [-4.6578085, 48.4469643], [-4.657195, 48.4470451], [-4.6567207, 48.4470818], [-4.656234, 48.4471195], [-4.6558158, 48.4471949], [-4.6549679, 48.447446], [-4.6548105, 48.447558], [-4.6542369, 48.4477514], [-4.6538605, 48.4477569], [-4.6533757, 48.4478096], [-4.6528282, 48.4478697], [-4.652328, 48.4478297], [-4.6520072, 48.4477577], [-4.6517483, 48.4474521], [-4.6512883, 48.4474303], [-4.6510418, 48.447463], [-4.6506146, 48.4473322], [-4.6504174, 48.4470052], [-4.6503517, 48.4464167], [-4.650226, 48.4457519], [-4.6506776, 48.4455953], [-4.6506873, 48.4452637], [-4.6508939, 48.4449343], [-4.6514526, 48.4447381], [-4.6518305, 48.4444329], [-4.6515019, 48.4440951], [-4.6518469, 48.4435937], [-4.6518634, 48.4428634], [-4.6520605, 48.4429179], [-4.6526685, 48.4439316], [-4.653145, 48.4442041], [-4.6541758, 48.4447263], [-4.6549145, 48.4448505], [-4.657822, 48.4458024], [-4.6587034, 48.4461355], [-4.6591363, 48.4462785], [-4.6596845, 48.4464678], [-4.6604404, 48.4469121], [-4.6601579, 48.4473577]]]}}, {"type": "Feature", "properties": {"name": "Loc'h Lougar"}, "geometry": {"type": "Polygon", "coordinates": [[[-3.8632133, 47.8210086], [-3.8632917, 47.821122], [-3.8633233, 47.8212252], [-3.863267, 47.8213205], [-3.8633454, 47.8213701], [-3.8633365, 47.8214513], [-3.8632831, 47.8215142], [-3.8632447, 47.8216091], [-3.8631932, 47.8216166], [-3.8631372, 47.8216783], [-3.8631417, 47.8217354], [-3.863096, 47.8217705], [-3.8630034, 47.8217261], [-3.8629351, 47.8218045], [-3.8629816, 47.8218695], [-3.8629424, 47.8219399], [-3.862864, 47.8219895], [-3.8628822, 47.8220249], [-3.8628432, 47.8220787], [-3.8627588, 47.8220826], [-3.8626332, 47.822201], [-3.8626663, 47.8222484], [-3.8625662, 47.8223367], [-3.8624437, 47.8224096], [-3.8623401, 47.8223549], [-3.8623049, 47.8223874], [-3.8623851, 47.8224476], [-3.8622939, 47.822528], [-3.8622013, 47.8225517], [-3.8622256, 47.8226138], [-3.862186, 47.8226518], [-3.8621925, 47.8227307], [-3.8621154, 47.8227618], [-3.8620757, 47.8228328], [-3.8621374, 47.8227988], [-3.8622079, 47.8228121], [-3.8622057, 47.822899], [-3.8621709, 47.8229843], [-3.8620228, 47.8230462], [-3.8619766, 47.8230251], [-3.861873, 47.82307], [-3.8618609, 47.8231801], [-3.8618835, 47.8232787], [-3.8619371, 47.8233695], [-3.8620412, 47.8234359], [-3.8619126, 47.8236924], [-3.861743, 47.8239587], [-3.861684, 47.8240821], [-3.8616526, 47.8242088], [-3.8617959, 47.8242028], [-3.8618453, 47.8240926], [-3.8618708, 47.8239676], [-3.8619259, 47.8239069], [-3.8619942, 47.8239602], [-3.8619863, 47.8241047], [-3.862003, 47.8242531], [-3.8621223, 47.8242434], [-3.862208, 47.8240971], [-3.8622586, 47.8239365], [-3.862208, 47.8238476], [-3.8621352, 47.8237679], [-3.8620735, 47.8236939], [-3.8622057, 47.8235415], [-3.8623266, 47.8234838], [-3.8624217, 47.8234113], [-3.8626961, 47.8232297], [-3.8627588, 47.8231516], [-3.8627677, 47.8230463], [-3.8629373, 47.8230355], [-3.8629849, 47.8228614], [-3.8631305, 47.8227908], [-3.8632613, 47.8226567], [-3.8635345, 47.8225694], [-3.8636557, 47.8224377], [-3.863616, 47.8223327], [-3.8638232, 47.8219806], [-3.8641162, 47.8217749], [-3.8648414, 47.8217676], [-3.8647377, 47.8216595], [-3.8643146, 47.8216491], [-3.864114, 47.8215899], [-3.8640306, 47.8215144], [-3.8640619, 47.8214167], [-3.8641577, 47.8214175], [-3.8642657, 47.8212859], [-3.8643358, 47.8211444], [-3.864344, 47.8210649], [-3.8644582, 47.8209912], [-3.8645894, 47.8209201], [-3.8648097, 47.8208108], [-3.8650084, 47.8206463], [-3.8651837, 47.82045], [-3.8652987, 47.8202465], [-3.8656203, 47.8200771], [-3.8659281, 47.8199662], [-3.8661984, 47.8199264], [-3.8664621, 47.8199854], [-3.8666995, 47.8200561], [-3.8675103, 47.8201989], [-3.8676712, 47.8201794], [-3.8678032, 47.8201151], [-3.868236, 47.8197592], [-3.8685526, 47.8197718], [-3.8687728, 47.819799], [-3.8689049, 47.8198381], [-3.868964, 47.8197553], [-3.8691714, 47.8197314], [-3.8693461, 47.8196478], [-3.8695425, 47.8194962], [-3.8698004, 47.819503], [-3.8701859, 47.8195316], [-3.8703984, 47.8196156], [-3.8706783, 47.8196351], [-3.8709313, 47.8196953], [-3.8712313, 47.8197178], [-3.8716858, 47.8198321], [-3.8722209, 47.8199193], [-3.8727323, 47.8200574], [-3.8729755, 47.8201433], [-3.8731945, 47.8202774], [-3.8732218, 47.8205823], [-3.8732173, 47.8207371], [-3.8731322, 47.8207822], [-3.873027, 47.8207913], [-3.8729867, 47.8208439], [-3.8729128, 47.820901], [-3.873027, 47.8209581], [-3.8731793, 47.8209972], [-3.8733202, 47.8209588], [-3.8735397, 47.8209702], [-3.8737121, 47.8209882], [-3.8738578, 47.821016], [-3.8739114, 47.8209792], [-3.8739338, 47.8209251], [-3.8738823, 47.8208544], [-3.8738107, 47.8208123], [-3.8738877, 47.8205758], [-3.8740838, 47.8204079], [-3.8741854, 47.8202357], [-3.8742338, 47.8201583], [-3.8743087, 47.820087], [-3.8742182, 47.820002], [-3.874116, 47.8199335], [-3.8740547, 47.8197885], [-3.8740816, 47.8196186], [-3.874142, 47.8194232], [-3.8742416, 47.8192532], [-3.8744197, 47.8190683], [-3.8746625, 47.8189164], [-3.8747802, 47.8188924], [-3.8749148, 47.8188911], [-3.8749682, 47.8187977], [-3.875266, 47.8189015], [-3.8753041, 47.8188669], [-3.8750936, 47.8187135], [-3.8750538, 47.8186721], [-3.8749414, 47.8186008], [-3.8748785, 47.8185188], [-3.8749011, 47.8184234], [-3.8748339, 47.8183407], [-3.8748227, 47.8182369], [-3.8747376, 47.8181165], [-3.8745943, 47.8181377], [-3.8745137, 47.8180851], [-3.8745339, 47.8180054], [-3.8743771, 47.817858], [-3.8741107, 47.8177287], [-3.8739467, 47.8177433], [-3.8738711, 47.8176175], [-3.8735823, 47.8175513], [-3.8733264, 47.8174736], [-3.8732419, 47.8173514], [-3.8730897, 47.8173138], [-3.8729777, 47.8171499], [-3.8727225, 47.8170822], [-3.8726329, 47.8169574], [-3.8724023, 47.8168642], [-3.8723217, 47.8167349], [-3.8721359, 47.8166522], [-3.8720776, 47.816535], [-3.8718403, 47.8164598], [-3.8717704, 47.8163842], [-3.8718045, 47.8163094], [-3.8715851, 47.8161245], [-3.8713813, 47.8160132], [-3.87135, 47.8158975], [-3.8712382, 47.8157636], [-3.8711932, 47.815705], [-3.8710387, 47.8156749], [-3.8709022, 47.8156794], [-3.8708551, 47.8157276], [-3.8708753, 47.8157772], [-3.8708036, 47.8158283], [-3.8707163, 47.8158554], [-3.8707835, 47.8158944], [-3.8708686, 47.8158944], [-3.8708967, 47.8159301], [-3.8706648, 47.8160704], [-3.8705529, 47.8161606], [-3.8705887, 47.8162192], [-3.8705372, 47.8162779], [-3.8703782, 47.8163726], [-3.8702282, 47.8164974], [-3.8701566, 47.8165981], [-3.870123, 47.8166417], [-3.8701133, 47.8166933], [-3.8702058, 47.8167951], [-3.8703133, 47.8168793], [-3.8704723, 47.816986], [-3.8705764, 47.8170293], [-3.87062, 47.8171078], [-3.8707253, 47.8171228], [-3.8708126, 47.8171514], [-3.8708641, 47.8172085], [-3.8708954, 47.8172717], [-3.870929, 47.8173709], [-3.8709887, 47.8174664], [-3.8709469, 47.8175228], [-3.870882, 47.8175694], [-3.8707992, 47.8176866], [-3.8708507, 47.8177137], [-3.8709134, 47.8177242], [-3.870985, 47.8177197], [-3.8710544, 47.8177393], [-3.8710298, 47.8177904], [-3.8710243, 47.8178465], [-3.8710589, 47.8179077], [-3.8710701, 47.8179618], [-3.8709828, 47.8180039], [-3.8709335, 47.8179332], [-3.8708619, 47.8178866], [-3.8707835, 47.8179227], [-3.8707342, 47.8179768], [-3.8707611, 47.8180475], [-3.8708084, 47.8181152], [-3.8707544, 47.8181527], [-3.8706783, 47.8181708], [-3.8705852, 47.8181327], [-3.870414, 47.8181242], [-3.8703782, 47.8181738], [-3.8703402, 47.8182399], [-3.870213, 47.818229], [-3.8700939, 47.8181497], [-3.8698744, 47.8180986], [-3.8695408, 47.8180024], [-3.8693348, 47.8178941], [-3.8692229, 47.8178595], [-3.8691064, 47.81784], [-3.8689631, 47.817834], [-3.8688333, 47.8178069], [-3.8686586, 47.8177498], [-3.8684885, 47.8176761], [-3.8682154, 47.8175898], [-3.868016, 47.8175649], [-3.8679175, 47.8175769], [-3.8678286, 47.8175984], [-3.8677765, 47.817637], [-3.867772, 47.8177148], [-3.8678302, 47.8177904], [-3.8678315, 47.8178864], [-3.8677339, 47.8179558], [-3.8676112, 47.8179811], [-3.8671616, 47.8179101], [-3.8669986, 47.8179264], [-3.8668629, 47.81804], [-3.866704, 47.8181272], [-3.8665777, 47.8182534], [-3.8664621, 47.8183437], [-3.8663265, 47.8184191], [-3.8661979, 47.81847], [-3.8660526, 47.8185027], [-3.8659584, 47.8185481], [-3.8658881, 47.8185956], [-3.8659516, 47.8186534], [-3.8660394, 47.8186883], [-3.8661644, 47.8187105], [-3.8662853, 47.818715], [-3.8665271, 47.8187195], [-3.8666032, 47.8187346], [-3.8666663, 47.8187653], [-3.8666905, 47.8188173], [-3.8666834, 47.818866], [-3.8666072, 47.8189364], [-3.8667398, 47.8189556], [-3.8668685, 47.8189547], [-3.8669256, 47.8190022], [-3.8669699, 47.8190642], [-3.8668972, 47.8190938], [-3.8667779, 47.8190548], [-3.8666548, 47.8190317], [-3.8666592, 47.8191044], [-3.8666821, 47.8191926], [-3.8665651, 47.8192052], [-3.8664039, 47.8191646], [-3.8662405, 47.819142], [-3.8660166, 47.819145], [-3.8657613, 47.8191495], [-3.8655341, 47.8191357], [-3.8653762, 47.8191195], [-3.8652665, 47.8190713], [-3.8652038, 47.8189944], [-3.8650851, 47.8189947], [-3.8648971, 47.8190518], [-3.8646888, 47.8190909], [-3.864455, 47.8190854], [-3.8643127, 47.8189992], [-3.8642608, 47.8188966], [-3.8641671, 47.8188864], [-3.864031, 47.818963], [-3.8640373, 47.8190473], [-3.8640686, 47.8191285], [-3.8641492, 47.8192668], [-3.864194, 47.8193495], [-3.8642136, 47.8194386], [-3.8641649, 47.8195269], [-3.8641393, 47.8196329], [-3.8640037, 47.8197344], [-3.8638866, 47.819827], [-3.8638694, 47.819992], [-3.8639432, 47.8201523], [-3.8639765, 47.8203093], [-3.8639253, 47.8204124], [-3.8638469, 47.8204963], [-3.8636096, 47.8205086], [-3.8633869, 47.820532], [-3.8631573, 47.8205342], [-3.8629255, 47.8205137], [-3.8627543, 47.8205222], [-3.8626334, 47.8205402], [-3.8626513, 47.8204575], [-3.8626446, 47.8204154], [-3.8625752, 47.8204024], [-3.8624028, 47.8204936], [-3.8623669, 47.8205793], [-3.8622611, 47.8206257], [-3.8620759, 47.820683], [-3.8618632, 47.8207131], [-3.8617087, 47.8207402], [-3.8616751, 47.8207913], [-3.8615125, 47.8208156], [-3.8614131, 47.8208138], [-3.8612967, 47.8208379], [-3.8611273, 47.820804], [-3.8610437, 47.8207341], [-3.8609832, 47.8206499], [-3.8609653, 47.8205086], [-3.8609122, 47.8204925], [-3.8608825, 47.8206334], [-3.860822, 47.82068], [-3.8608198, 47.8207386], [-3.8607963, 47.8207821], [-3.8606384, 47.820877], [-3.8604145, 47.820901], [-3.8602958, 47.8209642], [-3.8601548, 47.8209642], [-3.8600787, 47.8210243], [-3.8600048, 47.8210739], [-3.8598603, 47.8211045], [-3.8597786, 47.8210634], [-3.85966, 47.8210754], [-3.8595771, 47.8210754], [-3.8594267, 47.8210578], [-3.8594092, 47.8209777], [-3.8593017, 47.8209852], [-3.8591539, 47.8209115], [-3.8590309, 47.8208217], [-3.8589188, 47.8207371], [-3.8588405, 47.8206605], [-3.8587464, 47.8205913], [-3.8586546, 47.8205372], [-3.8585852, 47.8205146], [-3.8585897, 47.8204455], [-3.8585302, 47.8203977], [-3.8584307, 47.8203733], [-3.8584419, 47.8202891], [-3.8583795, 47.8202216], [-3.8583322, 47.8202771], [-3.8583071, 47.8203372], [-3.8582404, 47.8203869], [-3.8581531, 47.8204223], [-3.8581486, 47.8204906], [-3.8581732, 47.8205552], [-3.8581598, 47.8206139], [-3.858169, 47.8206746], [-3.8582247, 47.8207341], [-3.8582079, 47.8208018], [-3.8580807, 47.8208221], [-3.8581438, 47.8208675], [-3.8581508, 47.8209311], [-3.8581179, 47.8209807], [-3.8580277, 47.8210499], [-3.8578687, 47.8210995], [-3.8577433, 47.8211536], [-3.8576336, 47.8212092], [-3.8576157, 47.8212528], [-3.8577792, 47.8212468], [-3.857965, 47.8212513], [-3.8581549, 47.8212622], [-3.8583792, 47.8212769], [-3.8585864, 47.8213035], [-3.8587487, 47.821337], [-3.8589069, 47.8213822], [-3.8589882, 47.8213836], [-3.8590615, 47.8213505], [-3.8590554, 47.8212724], [-3.8590532, 47.8212197], [-3.8591124, 47.8211889], [-3.8592435, 47.8211791], [-3.8593219, 47.8211987], [-3.859385, 47.8212304], [-3.8594741, 47.821331], [-3.8594562, 47.8213971], [-3.8594607, 47.8214498], [-3.8595323, 47.8214543], [-3.8595995, 47.8214362], [-3.8596197, 47.8213911], [-3.8596093, 47.8213275], [-3.8596891, 47.821331], [-3.8597764, 47.8213791], [-3.8598659, 47.8214047], [-3.8599712, 47.8213611], [-3.8600411, 47.8213033], [-3.8602735, 47.8212799], [-3.8604078, 47.8212543], [-3.8605522, 47.8211917], [-3.8607235, 47.8211791], [-3.8608802, 47.8211972], [-3.8610526, 47.8211746], [-3.8612502, 47.8211778], [-3.8613639, 47.8211641], [-3.8614669, 47.821137], [-3.8615407, 47.8211551], [-3.8619025, 47.8211508], [-3.8621744, 47.8210769], [-3.8624548, 47.8210064], [-3.862658, 47.8209717], [-3.8628552, 47.8209499], [-3.8630879, 47.8209762], [-3.8632133, 47.8210086]]]}}, {"type": "Feature", "properties": {"name": "Étang de Poulguidou"}, "geometry": {"type": "Polygon", "coordinates": [[[-4.4441696, 48.0155762], [-4.4443118, 48.0152558], [-4.4441756, 48.0150825], [-4.4440165, 48.0150204], [-4.443817, 48.0146704], [-4.4435997, 48.0144411], [-4.4431916, 48.0143489], [-4.4435869, 48.0137119], [-4.4439082, 48.013583], [-4.4433024, 48.013055], [-4.4442826, 48.0133638], [-4.4446082, 48.012767], [-4.4449741, 48.0126177], [-4.4454359, 48.0125025], [-4.4442225, 48.0121365], [-4.4438459, 48.0121304], [-4.4436569, 48.0120685], [-4.4434382, 48.0119198], [-4.4432577, 48.0118191], [-4.4430295, 48.0117509], [-4.442989, 48.0116547], [-4.4430677, 48.0114869], [-4.4433272, 48.011366], [-4.4436856, 48.0112613], [-4.4439426, 48.0112536], [-4.444185, 48.011272], [-4.4443753, 48.0112743], [-4.4445669, 48.0112985], [-4.4446279, 48.0113919], [-4.4447352, 48.01147], [-4.4449228, 48.0115123], [-4.4452651, 48.0115277], [-4.4456105, 48.0115958], [-4.4458124, 48.0115941], [-4.4459334, 48.0115859], [-4.4461787, 48.0116534], [-4.4465189, 48.0116168], [-4.446682, 48.0115705], [-4.4467917, 48.0114574], [-4.44687, 48.0112795], [-4.4468314, 48.01121], [-4.446879, 48.0111915], [-4.44698, 48.0112422], [-4.4470412, 48.0112325], [-4.4471161, 48.011173], [-4.4472545, 48.0111059], [-4.4473352, 48.0110707], [-4.4474062, 48.0109997], [-4.4475131, 48.0109049], [-4.447563, 48.0108323], [-4.4475897, 48.0107175], [-4.4475576, 48.0104532], [-4.4474684, 48.0103519], [-4.4473098, 48.010328], [-4.4474989, 48.0102375], [-4.4476266, 48.0102509], [-4.447814, 48.0101978], [-4.4485608, 48.0099958], [-4.4489727, 48.0100852], [-4.4493557, 48.0102958], [-4.4495237, 48.0103778], [-4.4496873, 48.0103043], [-4.4497946, 48.010342], [-4.4498476, 48.010495], [-4.4498348, 48.0105663], [-4.4497436, 48.0108605], [-4.4493869, 48.0112212], [-4.4487485, 48.0118476], [-4.4486014, 48.0120283], [-4.4484226, 48.012245], [-4.4484072, 48.0123395], [-4.4483084, 48.0125006], [-4.448263, 48.0127333], [-4.4483933, 48.0129734], [-4.4486235, 48.0131485], [-4.4488307, 48.0131604], [-4.4490355, 48.0131528], [-4.4494233, 48.0130236], [-4.449656, 48.0129702], [-4.4501595, 48.0129797], [-4.4505434, 48.0131232], [-4.4509286, 48.0132963], [-4.4511085, 48.013461], [-4.4510895, 48.013679], [-4.450817, 48.0139283], [-4.4508288, 48.014295], [-4.4510857, 48.0146241], [-4.4511763, 48.0147823], [-4.4516417, 48.0151875], [-4.4516757, 48.0152397], [-4.4516816, 48.0152906], [-4.4516675, 48.0153173], [-4.451646, 48.0153567], [-4.4515887, 48.0153848], [-4.4514946, 48.0154607], [-4.4514589, 48.015434], [-4.4513612, 48.0154374], [-4.4512687, 48.0154349], [-4.4512081, 48.0154453], [-4.4511934, 48.0154991], [-4.4510798, 48.0154578], [-4.4510035, 48.0154695], [-4.4509365, 48.015457], [-4.4506787, 48.0154196], [-4.4505896, 48.0154385], [-4.4504986, 48.0154128], [-4.4503268, 48.0154097], [-4.4500413, 48.0154944], [-4.4496604, 48.0156374], [-4.4494214, 48.0157858], [-4.4493546, 48.0158744], [-4.4490035, 48.0158374], [-4.4486384, 48.0158018], [-4.4485086, 48.0157891], [-4.4483873, 48.0156567], [-4.4482766, 48.015497], [-4.4482787, 48.0153083], [-4.4483437, 48.015187], [-4.4483698, 48.0151264], [-4.4482751, 48.0150144], [-4.4481429, 48.0149083], [-4.4479953, 48.0148904], [-4.4478108, 48.0149786], [-4.4474355, 48.0149815], [-4.4471059, 48.0149619], [-4.446721, 48.0148949], [-4.4464728, 48.0148916], [-4.446096, 48.0148175], [-4.4459706, 48.0147885], [-4.445805, 48.0147739], [-4.4454343, 48.0148343], [-4.4453053, 48.0149084], [-4.4451012, 48.0149494], [-4.4449153, 48.015029], [-4.4448143, 48.0151334], [-4.4446838, 48.0153418], [-4.4446005, 48.015587], [-4.4444619, 48.0157105], [-4.4443295, 48.0157561], [-4.4441829, 48.0157745], [-4.4439433, 48.0159397], [-4.4438476, 48.0159165], [-4.4439665, 48.0158233], [-4.4441696, 48.0155762]]]}}, {"type": "Feature", "properties": {"name": "Étang de Trunvel"}, "geometry": {"type": "Polygon", "coordinates": [[[-4.3577683, 47.8947517], [-4.35691, 47.8949855], [-4.3561697, 47.8954243], [-4.355939, 47.89573], [-4.3554641, 47.8959063], [-4.3546018, 47.8960519], [-4.3542478, 47.8962353], [-4.3540627, 47.8963288], [-4.3537274, 47.8963684], [-4.3534948, 47.8963165], [-4.3531215, 47.8962848], [-4.3528891, 47.8963785], [-4.3526569, 47.8965352], [-4.3523812, 47.8966377], [-4.3521221, 47.8966513], [-4.3520368, 47.8967805], [-4.3515304, 47.8969236], [-4.3512239, 47.8970788], [-4.351004, 47.8971472], [-4.3509194, 47.8972113], [-4.3508014, 47.8973987], [-4.3506361, 47.8975627], [-4.3503395, 47.8976429], [-4.3501153, 47.8976361], [-4.3500428, 47.8976726], [-4.3498209, 47.8977824], [-4.3496484, 47.8977915], [-4.3494919, 47.8978213], [-4.3493439, 47.8978361], [-4.3491805, 47.8979468], [-4.3489933, 47.8980137], [-4.3489296, 47.8980281], [-4.3488396, 47.8980085], [-4.3487822, 47.8980148], [-4.3487116, 47.898005], [-4.3486376, 47.8979934], [-4.3485846, 47.8979994], [-4.3485066, 47.8979961], [-4.3484647, 47.8980183], [-4.3484209, 47.8980747], [-4.3483981, 47.8981198], [-4.3483579, 47.8981831], [-4.34832, 47.8982572], [-4.3482976, 47.8983414], [-4.3482525, 47.8984355], [-4.3481844, 47.8984659], [-4.3481265, 47.8985071], [-4.3480088, 47.8984998], [-4.3479403, 47.8984558], [-4.3478529, 47.89841], [-4.3478753, 47.8983539], [-4.3478966, 47.8982555], [-4.3479316, 47.8979847], [-4.3479615, 47.8979436], [-4.3479648, 47.8979065], [-4.3479311, 47.8978343], [-4.3479061, 47.8978012], [-4.3478786, 47.8977266], [-4.3478247, 47.8976775], [-4.3477662, 47.897655], [-4.3476837, 47.8976368], [-4.3475183, 47.8976001], [-4.3473995, 47.897583], [-4.3473016, 47.8975931], [-4.3470608, 47.8976781], [-4.3467731, 47.8978259], [-4.3465672, 47.8979494], [-4.3464219, 47.8979952], [-4.3462579, 47.8980089], [-4.3461232, 47.8980232], [-4.3460366, 47.8980577], [-4.3459399, 47.8980448], [-4.3457835, 47.8980762], [-4.3456362, 47.8980916], [-4.345548, 47.8980911], [-4.3454952, 47.8981058], [-4.345416, 47.8981297], [-4.3453154, 47.8981297], [-4.3452672, 47.8981425], [-4.3452427, 47.8981729], [-4.345143, 47.8981811], [-4.3450172, 47.8981739], [-4.344942, 47.8981235], [-4.3448657, 47.8980389], [-4.3447701, 47.8980135], [-4.3447452, 47.8979935], [-4.3447613, 47.897973], [-4.3446552, 47.8979768], [-4.3446047, 47.8980029], [-4.3445786, 47.8980415], [-4.3445466, 47.8981015], [-4.3445448, 47.8981681], [-4.3444867, 47.8981711], [-4.3444751, 47.8981832], [-4.3444702, 47.8982028], [-4.3444062, 47.8981959], [-4.3443897, 47.8981684], [-4.3443256, 47.8981218], [-4.3442502, 47.898088], [-4.3441354, 47.8980858], [-4.3439696, 47.898141], [-4.3438838, 47.8982051], [-4.3438047, 47.8982382], [-4.343669, 47.8983316], [-4.3434961, 47.8983957], [-4.3433407, 47.8985096], [-4.3431759, 47.8986573], [-4.3431952, 47.8987794], [-4.3432214, 47.8989023], [-4.3432101, 47.8991695], [-4.3430609, 47.8994579], [-4.3429189, 47.8996528], [-4.3427723, 47.8997503], [-4.3425648, 47.8998588], [-4.3420506, 47.9000687], [-4.3417158, 47.9001232], [-4.3413001, 47.90017], [-4.3409004, 47.9002095], [-4.3407506, 47.9002267], [-4.3406997, 47.9003349], [-4.340691, 47.9006525], [-4.3404372, 47.9006099], [-4.3402831, 47.900607], [-4.3402493, 47.9003053], [-4.3403188, 47.9001903], [-4.3402487, 47.9001251], [-4.3400749, 47.9000665], [-4.3398817, 47.9000141], [-4.3396721, 47.8997594], [-4.3400385, 47.8997173], [-4.340178, 47.8995663], [-4.3402037, 47.8994243], [-4.3400763, 47.8994016], [-4.3399835, 47.8994103], [-4.3398907, 47.8994006], [-4.3397987, 47.8993543], [-4.3396852, 47.8993512], [-4.3396775, 47.899307], [-4.3396069, 47.8992906], [-4.3395088, 47.8993369], [-4.3394397, 47.8993369], [-4.3393873, 47.8993024], [-4.3393124, 47.8992577], [-4.3393262, 47.8992165], [-4.3393017, 47.8991791], [-4.3391774, 47.8991785], [-4.3390271, 47.8991476], [-4.3389166, 47.8990941], [-4.3387887, 47.8990613], [-4.3385817, 47.8990917], [-4.3385702, 47.8989929], [-4.3386516, 47.8989236], [-4.3387471, 47.8988508], [-4.3397808, 47.8980612], [-4.3397615, 47.8985564], [-4.3399231, 47.8986358], [-4.3402937, 47.8987107], [-4.3407146, 47.898801], [-4.3411754, 47.8988713], [-4.3413757, 47.898846], [-4.3416041, 47.898687], [-4.3417093, 47.8985875], [-4.3417418, 47.8984849], [-4.3417407, 47.898386], [-4.3417711, 47.8983053], [-4.3418245, 47.898096], [-4.3419067, 47.8979889], [-4.3419349, 47.8978856], [-4.3419913, 47.8978391], [-4.3420303, 47.8977526], [-4.3420756, 47.8976971], [-4.3422104, 47.8976057], [-4.3424284, 47.8974958], [-4.3425369, 47.8974311], [-4.3426045, 47.8973412], [-4.3428363, 47.8972835], [-4.3429439, 47.897242], [-4.343025, 47.8971707], [-4.3432019, 47.8970995], [-4.3433383, 47.8970485], [-4.343639, 47.89704], [-4.3438108, 47.897019], [-4.343965, 47.8970076], [-4.3441261, 47.8969958], [-4.3441988, 47.8969665], [-4.3444497, 47.8969135], [-4.3445541, 47.8968894], [-4.3448715, 47.8967855], [-4.3450879, 47.8966888], [-4.3453491, 47.8966072], [-4.3456095, 47.8965602], [-4.3458548, 47.8964992], [-4.3460528, 47.8964687], [-4.3462718, 47.8964553], [-4.346638, 47.896455], [-4.347008, 47.896423], [-4.347212, 47.8964179], [-4.3473713, 47.8963975], [-4.3475491, 47.8963586], [-4.3478217, 47.896312], [-4.3479422, 47.8962683], [-4.3480277, 47.8962033], [-4.3480653, 47.8961331], [-4.3480722, 47.8960884], [-4.3481258, 47.8960568], [-4.3481534, 47.8960146], [-4.3482071, 47.8959776], [-4.3482571, 47.8959397], [-4.3482968, 47.8959197], [-4.348388, 47.8958983], [-4.3485385, 47.8958866], [-4.3487022, 47.8958987], [-4.3488435, 47.8958853], [-4.3489183, 47.89585], [-4.3489877, 47.8957998], [-4.3490855, 47.8957175], [-4.3490882, 47.8956735], [-4.3491028, 47.8956444], [-4.3491273, 47.8956273], [-4.3491555, 47.895592], [-4.3492121, 47.8955825], [-4.3492658, 47.8955349], [-4.3493594, 47.8954943], [-4.3494844, 47.895472], [-4.3495871, 47.8954739], [-4.3498763, 47.8955444], [-4.350052, 47.8955933], [-4.3501601, 47.8956035], [-4.3502602, 47.8955823], [-4.3503956, 47.8955569], [-4.3505196, 47.8955161], [-4.3506886, 47.8954638], [-4.3508045, 47.8954088], [-4.3508479, 47.8953615], [-4.3508493, 47.8953099], [-4.3508095, 47.8952571], [-4.3508252, 47.8951681], [-4.3508694, 47.895051], [-4.3510015, 47.8948889], [-4.3510999, 47.894879], [-4.3511725, 47.8948113], [-4.3512148, 47.8947619], [-4.3513128, 47.8947127], [-4.3513757, 47.8946407], [-4.3514472, 47.8945476], [-4.3516043, 47.8944528], [-4.3517353, 47.8942908], [-4.3518776, 47.8940891], [-4.3520679, 47.8939318], [-4.3521857, 47.8938054], [-4.3523581, 47.8937164], [-4.3526434, 47.8936134], [-4.3527996, 47.8934709], [-4.3528811, 47.8933951], [-4.3530144, 47.8931305], [-4.3530882, 47.8930098], [-4.3532032, 47.892905], [-4.3533702, 47.8928672], [-4.353488, 47.8928648], [-4.3536327, 47.8928483], [-4.3537998, 47.8927595], [-4.3539842, 47.8926374], [-4.3541728, 47.8926229], [-4.3544696, 47.892592], [-4.3546574, 47.892614], [-4.3548967, 47.8925961], [-4.3549734, 47.8926151], [-4.3550754, 47.8926043], [-4.355129, 47.8925684], [-4.3552648, 47.8924597], [-4.3552962, 47.892275], [-4.3553176, 47.8921392], [-4.3553627, 47.8920301], [-4.3554837, 47.8918852], [-4.3555377, 47.8917694], [-4.355535, 47.8917079], [-4.3554851, 47.8915524], [-4.3555016, 47.8914724], [-4.3555269, 47.8914203], [-4.3556382, 47.8913035], [-4.3557168, 47.8912376], [-4.3557936, 47.8911493], [-4.3559099, 47.8910698], [-4.3560743, 47.891004], [-4.3566519, 47.8908016], [-4.3569271, 47.8906714], [-4.3573371, 47.8904633], [-4.357955, 47.8902028], [-4.3582895, 47.8903222], [-4.3590314, 47.8903801], [-4.3591852, 47.8904163], [-4.3593336, 47.8904923], [-4.3600323, 47.8907256], [-4.3604759, 47.8908182], [-4.3604912, 47.8909615], [-4.3605894, 47.8911158], [-4.3608287, 47.8913051], [-4.3609944, 47.8914923], [-4.3611681, 47.891603], [-4.3613839, 47.8917188], [-4.3618829, 47.8919221], [-4.362013, 47.8920684], [-4.3623321, 47.8921342], [-4.3627493, 47.8921095], [-4.3632078, 47.8923094], [-4.3636959, 47.8923903], [-4.3638355, 47.8928202], [-4.3641842, 47.8929604], [-4.3643287, 47.893095], [-4.3642557, 47.8931866], [-4.3641412, 47.8932842], [-4.3640018, 47.8933345], [-4.3638998, 47.8933741], [-4.3638247, 47.8934352], [-4.3620062, 47.8932302], [-4.3615288, 47.8938129], [-4.3608046, 47.8940683], [-4.3606383, 47.894338], [-4.3609333, 47.8945143], [-4.3606544, 47.8946762], [-4.3606705, 47.8947625], [-4.3605417, 47.8948668], [-4.36059, 47.8951258], [-4.3602038, 47.8950826], [-4.3601126, 47.8949747], [-4.3598122, 47.894856], [-4.359383, 47.8947805], [-4.3577683, 47.8947517]]]}}, {"type": "Feature", "properties": {"name": "Retenue du Moulin-Neuf"}, "geometry": {"type": "Polygon", "coordinates": [[[-4.2389628, 47.9005584], [-4.2388255, 47.9000556], [-4.2389, 47.8997945], [-4.2389547, 47.8995428], [-4.2389751, 47.8993047], [-4.2391049, 47.8990249], [-4.2389724, 47.8985947], [-4.2389526, 47.8982153], [-4.2391548, 47.8979833], [-4.2390481, 47.8975154], [-4.2389651, 47.8971116], [-4.2385456, 47.8968735], [-4.2383305, 47.8967872], [-4.2379459, 47.8968098], [-4.2377769, 47.8965926], [-4.2379792, 47.8962193], [-4.2385033, 47.8955503], [-4.2392927, 47.8942181], [-4.2393095, 47.8932393], [-4.2391808, 47.8925224], [-4.2386154, 47.8918181], [-4.2367482, 47.8901832], [-4.2364884, 47.8898106], [-4.2365184, 47.889457], [-4.2366273, 47.8889009], [-4.236637, 47.8882678], [-4.23652, 47.8878221], [-4.2364031, 47.8873199], [-4.2364857, 47.8870609], [-4.2364777, 47.8867576], [-4.2362524, 47.8865943], [-4.2368684, 47.8860727], [-4.2372793, 47.8857248], [-4.2376925, 47.8858423], [-4.2394251, 47.8877162], [-4.2403874, 47.8888836], [-4.240712, 47.891085], [-4.2409879, 47.8916784], [-4.2415046, 47.892357], [-4.2424433, 47.893288], [-4.2420706, 47.8939485], [-4.2420826, 47.8941083], [-4.2426218, 47.8945759], [-4.2428468, 47.8946189], [-4.2437079, 47.8945058], [-4.2445279, 47.8943792], [-4.2454901, 47.8943403], [-4.2464758, 47.8943528], [-4.247069, 47.8944721], [-4.2473717, 47.8946034], [-4.2475496, 47.8946805], [-4.2478597, 47.8949481], [-4.2475097, 47.8951122], [-4.2476446, 47.8953987], [-4.247313, 47.895666], [-4.2464531, 47.8957804], [-4.2458845, 47.8959962], [-4.2456777, 47.8963057], [-4.2454429, 47.8965581], [-4.2455138, 47.897091], [-4.2463126, 47.8979763], [-4.2466242, 47.8982477], [-4.2470539, 47.8985282], [-4.2464789, 47.8987676], [-4.2462455, 47.8987478], [-4.2459693, 47.8985859], [-4.2458593, 47.8984223], [-4.2454162, 47.8980847], [-4.2441641, 47.8977859], [-4.2434083, 47.8976262], [-4.2425795, 47.8974298], [-4.2420548, 47.8973841], [-4.2416471, 47.8974276], [-4.2412614, 47.8975287], [-4.2409294, 47.8977733], [-4.2407684, 47.8980822], [-4.2407341, 47.8983624], [-4.2407888, 47.8984994], [-4.2409009, 47.8987886], [-4.241005, 47.8989752], [-4.2408741, 47.8995856], [-4.2404836, 47.9009465], [-4.2404348, 47.9012342], [-4.2402197, 47.9015298], [-4.2398892, 47.9018758], [-4.2397374, 47.9023764], [-4.2396655, 47.9026619], [-4.2393384, 47.9027153], [-4.2393136, 47.9027194], [-4.2392224, 47.90223], [-4.2392836, 47.9020556], [-4.2390186, 47.9018294], [-4.2389628, 47.9005584]]]}}, {"type": "Feature", "properties": {"name": "Étang du Fret"}, "geometry": {"type": "Polygon", "coordinates": [[[-4.5093924, 48.2841387], [-4.5093282, 48.2841801], [-4.5092377, 48.2842436], [-4.5092, 48.2842605], [-4.5091555, 48.2842747], [-4.5090259, 48.2843228], [-4.5090626, 48.2843835], [-4.509188, 48.2843258], [-4.5092627, 48.2842964], [-4.5092859, 48.2842622], [-4.5092768, 48.2842404], [-4.5093502, 48.2841933], [-4.5094116, 48.2841521], [-4.5094273, 48.2841609], [-4.5093644, 48.2842022], [-4.5093833, 48.2842137], [-4.5094447, 48.2841725], [-4.5095105, 48.2841689], [-4.5095384, 48.2841847], [-4.5096272, 48.2841168], [-4.5097315, 48.2840251], [-4.5097831, 48.2839953], [-4.5098403, 48.2838904], [-4.5098549, 48.2838826], [-4.5099031, 48.2838611], [-4.5099362, 48.2838499], [-4.5100166, 48.2838309], [-4.5100533, 48.2838265], [-4.5101398, 48.2838297], [-4.5102297, 48.2838356], [-4.5102694, 48.2838428], [-4.5103403, 48.2838544], [-4.5103824, 48.2838485], [-4.5104194, 48.2838384], [-4.5104571, 48.2838133], [-4.5105062, 48.2837833], [-4.5106167, 48.283686], [-4.5106714, 48.2836383], [-4.5107189, 48.2836], [-4.5107277, 48.2835735], [-4.5107521, 48.2835156], [-4.5107671, 48.2834407], [-4.5107942, 48.2833486], [-4.5108294, 48.2832534], [-4.5108671, 48.2831785], [-4.5109176, 48.2831141], [-4.5109565, 48.2829799], [-4.5110489, 48.2828932], [-4.5110559, 48.2828722], [-4.5110631, 48.2828531], [-4.51107, 48.2828409], [-4.5110805, 48.2828246], [-4.5110977, 48.2828048], [-4.5111124, 48.2827882], [-4.511169, 48.2827571], [-4.5111825, 48.2827318], [-4.5111866, 48.2827207], [-4.5111895, 48.2827009], [-4.5111989, 48.2826278], [-4.511202, 48.28261], [-4.5112102, 48.2825977], [-4.5112564, 48.2825408], [-4.5112947, 48.282479], [-4.5112804, 48.2824226], [-4.511279, 48.282358], [-4.511336, 48.2822942], [-4.5113783, 48.2822468], [-4.5114364, 48.2821401], [-4.5114314, 48.2821159], [-4.5114269, 48.2820849], [-4.5114249, 48.2820713], [-4.5114262, 48.2820408], [-4.5114272, 48.282028], [-4.5114314, 48.2820081], [-4.5114391, 48.2819822], [-4.5114627, 48.2819277], [-4.5114833, 48.2818725], [-4.5114974, 48.2818412], [-4.5115041, 48.281828], [-4.5115154, 48.2818077], [-4.511535, 48.2817849], [-4.5115657, 48.2817496], [-4.5116, 48.2817259], [-4.5116192, 48.2817107], [-4.5116348, 48.2816999], [-4.5116405, 48.2816898], [-4.5116491, 48.2816706], [-4.5116553, 48.2816339], [-4.5116572, 48.2815985], [-4.511658, 48.2815838], [-4.5116101, 48.2815199], [-4.5115795, 48.2815034], [-4.5115528, 48.2814785], [-4.5115437, 48.2814458], [-4.5115387, 48.2814314], [-4.5115324, 48.2814181], [-4.511513, 48.2814045], [-4.5114992, 48.2813893], [-4.5114911, 48.2813732], [-4.5114856, 48.2813549], [-4.5114779, 48.2813417], [-4.5114751, 48.2813068], [-4.5115059, 48.2812691], [-4.5115247, 48.2812389], [-4.5115508, 48.2812118], [-4.5115607, 48.2812003], [-4.5115813, 48.2811745], [-4.5115875, 48.2811584], [-4.5115918, 48.2811386], [-4.5115992, 48.2811008], [-4.511604, 48.2810653], [-4.5116065, 48.2810435], [-4.5115967, 48.2810111], [-4.5115881, 48.2809857], [-4.5115776, 48.2809561], [-4.5115726, 48.2809417], [-4.5115659, 48.2809353], [-4.5115513, 48.2809235], [-4.5115452, 48.2809112], [-4.5115429, 48.2808957], [-4.5115497, 48.2808835], [-4.5115721, 48.2808506], [-4.5116209, 48.2808085], [-4.5116531, 48.280706], [-4.5116371, 48.28059], [-4.511646, 48.280563], [-4.5116543, 48.2805311], [-4.5116601, 48.2805121], [-4.5116685, 48.280491], [-4.5116804, 48.2804648], [-4.5116871, 48.2804516], [-4.5116972, 48.2804323], [-4.511756, 48.2803344], [-4.5117689, 48.280315], [-4.5117915, 48.2802831], [-4.5118209, 48.2802391], [-4.5118785, 48.2801521], [-4.5118881, 48.2801397], [-4.511919, 48.2800955], [-4.5119286, 48.2800831], [-4.5119369, 48.2800708], [-4.5119445, 48.2800547], [-4.5119474, 48.2800447], [-4.5119531, 48.2800345], [-4.5119836, 48.2799884], [-4.5120052, 48.2799596], [-4.5120285, 48.2799326], [-4.5120507, 48.2799077], [-4.5120603, 48.2798953], [-4.5120926, 48.2798608], [-4.5121115, 48.2798429], [-4.5121615, 48.2798025], [-4.5122124, 48.2797678], [-4.5122273, 48.2797619], [-4.5123892, 48.279694], [-4.5124352, 48.2796753], [-4.5125125, 48.2796448], [-4.5125247, 48.2796401], [-4.5125768, 48.2796034], [-4.5126796, 48.279532], [-4.512746, 48.2794855], [-4.5127656, 48.2794725], [-4.5127944, 48.279454], [-4.5129114, 48.2793807], [-4.5130024, 48.2793484], [-4.5130865, 48.2793382], [-4.5131566, 48.2793184], [-4.5132053, 48.2792888], [-4.5132166, 48.2792642], [-4.513235, 48.2792335], [-4.5132501, 48.2792161], [-4.5132552, 48.2791922], [-4.513262, 48.27918], [-4.5132697, 48.2791638], [-4.5132812, 48.2791445], [-4.5133074, 48.2791277], [-4.5133998, 48.2791035], [-4.5135092, 48.2791011], [-4.5135587, 48.2790124], [-4.513557, 48.2789831], [-4.5135114, 48.278959], [-4.5134188, 48.2789715], [-4.5133303, 48.279026], [-4.5132391, 48.2790336], [-4.5132175, 48.2790232], [-4.5131807, 48.279007], [-4.5131533, 48.2789961], [-4.5131219, 48.2789514], [-4.5130766, 48.2789532], [-4.5130477, 48.278951], [-4.5130053, 48.2789352], [-4.5129872, 48.2789295], [-4.5129063, 48.2789379], [-4.5128616, 48.2789262], [-4.5128139, 48.278882], [-4.5127973, 48.2788861], [-4.5127772, 48.2788864], [-4.5127209, 48.2788842], [-4.5126849, 48.2788826], [-4.5126647, 48.278882], [-4.5126209, 48.2788868], [-4.5125983, 48.2788893], [-4.5125716, 48.278893], [-4.5125269, 48.2789008], [-4.5125031, 48.2789053], [-4.5124278, 48.27892], [-4.5123509, 48.2789338], [-4.5122651, 48.2789453], [-4.5121974, 48.2789526], [-4.5120389, 48.2789679], [-4.5119676, 48.2789816], [-4.5118105, 48.2790214], [-4.5115856, 48.2790235], [-4.511472, 48.2789658], [-4.5112922, 48.2789263], [-4.511109, 48.2789218], [-4.5109308, 48.2789212], [-4.5107379, 48.2789408], [-4.5105971, 48.2789403], [-4.5103936, 48.2789477], [-4.5102915, 48.2789506], [-4.5102033, 48.2789507], [-4.5100888, 48.2790111], [-4.5100086, 48.2790614], [-4.5099447, 48.2791048], [-4.5098937, 48.2791483], [-4.5098698, 48.2791909], [-4.5098586, 48.2792319], [-4.5098387, 48.2793213], [-4.5098336, 48.2793452], [-4.5098309, 48.2794051], [-4.5097821, 48.2794902], [-4.5097692, 48.2795077], [-4.5096868, 48.2796193], [-4.5095762, 48.2797475], [-4.5094242, 48.2798834], [-4.5092289, 48.2800682], [-4.5091732, 48.2801692], [-4.5091817, 48.28026], [-4.5092009, 48.2803547], [-4.5092376, 48.2804312], [-4.5093092, 48.2805158], [-4.5093358, 48.2805405], [-4.5093762, 48.2805712], [-4.5094746, 48.2806363], [-4.5094987, 48.2806602], [-4.5094791, 48.2806774], [-4.5090717, 48.2806763], [-4.5090054, 48.2807139], [-4.5089368, 48.2807154], [-4.5089027, 48.2807079], [-4.5088104, 48.2807041], [-4.5087559, 48.2807047], [-4.508688, 48.2807111], [-4.5084672, 48.2807414], [-4.5084146, 48.2807252], [-4.508393, 48.2807149], [-4.5083156, 48.2807012], [-4.5082531, 48.2806561], [-4.5081914, 48.2806203], [-4.5081392, 48.2805417], [-4.5081089, 48.2804973], [-4.5080816, 48.2804597], [-4.508012, 48.2803988], [-4.5079748, 48.2803635], [-4.5079165, 48.2802846], [-4.507867, 48.2802096], [-4.5077734, 48.2801437], [-4.5076205, 48.2801313], [-4.5074759, 48.2801046], [-4.5072732, 48.2801033], [-4.5071715, 48.2801159], [-4.5069942, 48.2801916], [-4.5068987, 48.2802652], [-4.5068448, 48.2802991], [-4.5067867, 48.2803234], [-4.5067104, 48.2803509], [-4.5066344, 48.2803608], [-4.5065719, 48.2803551], [-4.5064921, 48.2803593], [-4.5063748, 48.2803709], [-4.5062483, 48.2803889], [-4.5061325, 48.2804112], [-4.5060391, 48.2804239], [-4.5058696, 48.2804322], [-4.5056557, 48.2804313], [-4.5052921, 48.2804402], [-4.5050976, 48.2804579], [-4.5051016, 48.2805469], [-4.5055517, 48.2806885], [-4.5056507, 48.2808093], [-4.5057022, 48.2809751], [-4.5057001, 48.2814024], [-4.5057456, 48.2814896], [-4.5057865, 48.2816268], [-4.5058407, 48.281732], [-4.5059759, 48.2818215], [-4.5060539, 48.2819333], [-4.5061411, 48.2820103], [-4.5062383, 48.2820843], [-4.5071099, 48.2826558], [-4.5082346, 48.2833742], [-4.509224, 48.2839815], [-4.5092019, 48.2840036], [-4.5092072, 48.2840697], [-4.5092314, 48.2840881], [-4.5092682, 48.2841141], [-4.5092965, 48.2841376], [-4.5093479, 48.2841157], [-4.5093924, 48.2841387]]]}}, {"type": "Feature", "properties": {"name": "Étang du Guic"}, "geometry": {"type": "Polygon", "coordinates": [[[-3.5753968, 48.5144628], [-3.5754624, 48.5146599], [-3.5754329, 48.5152203], [-3.5754993, 48.5158515], [-3.5751191, 48.516249], [-3.5746483, 48.5166141], [-3.5744939, 48.5169076], [-3.573553, 48.5173394], [-3.573033, 48.5178239], [-3.5727935, 48.5180217], [-3.5720415, 48.5183809], [-3.5717142, 48.5183775], [-3.5709937, 48.518714], [-3.570265, 48.519409], [-3.5697773, 48.5197087], [-3.5690564, 48.5201517], [-3.5687274, 48.5205165], [-3.568486, 48.5209287], [-3.5681164, 48.5211568], [-3.5681164, 48.5214296], [-3.5681164, 48.521557], [-3.5680997, 48.5217246], [-3.5679324, 48.5217759], [-3.5675433, 48.5217776], [-3.5671639, 48.5218457], [-3.566825, 48.5221887], [-3.5664324, 48.5223949], [-3.5661084, 48.5224467], [-3.564, 48.520791], [-3.5639889, 48.5207493], [-3.5652083, 48.5198165], [-3.5659507, 48.5194145], [-3.5663617, 48.5192729], [-3.5662586, 48.5190236], [-3.5668606, 48.5186013], [-3.5679237, 48.5180806], [-3.5690052, 48.5177701], [-3.5692477, 48.5175638], [-3.56965, 48.5168575], [-3.5712165, 48.5157515], [-3.571624, 48.515476], [-3.5716939, 48.5150835], [-3.571888, 48.5146871], [-3.5721821, 48.5146322], [-3.5727668, 48.5146748], [-3.5731905, 48.5146587], [-3.5735661, 48.5148987], [-3.5739834, 48.5148655], [-3.5745616, 48.5144426], [-3.5748415, 48.5141116], [-3.5749877, 48.5137555], [-3.575056, 48.5138015], [-3.5753968, 48.5144628]]]}}, {"type": "Feature", "properties": {"name": "Étang de Kergalan"}, "geometry": {"type": "Polygon", "coordinates": [[[-4.3742961, 47.9077376], [-4.3742103, 47.9077124], [-4.3741781, 47.9076693], [-4.3742076, 47.9075902], [-4.3741459, 47.907538], [-4.3741057, 47.9074373], [-4.3740359, 47.9073259], [-4.3737347, 47.9069212], [-4.3732976, 47.906489], [-4.3728147, 47.905903], [-4.3722543, 47.9056215], [-4.3719107, 47.9055945], [-4.3715213, 47.9054667], [-4.3714596, 47.9052993], [-4.3717388, 47.9050221], [-4.3716395, 47.9046693], [-4.3713737, 47.9045685], [-4.3711723, 47.9044659], [-4.3711723, 47.9043345], [-4.3714864, 47.9041239], [-4.3718151, 47.9038413], [-4.3716005, 47.9034385], [-4.3710104, 47.9027696], [-4.3706242, 47.9023093], [-4.3701251, 47.90155], [-4.3699184, 47.9012404], [-4.3694781, 47.9009739], [-4.3692579, 47.9008893], [-4.3692794, 47.9004195], [-4.3690941, 47.9001855], [-4.3689223, 47.9001585], [-4.3685517, 47.9004537], [-4.3683423, 47.901127], [-4.3680845, 47.9012584], [-4.367314, 47.9014492], [-4.3668253, 47.9015788], [-4.3663876, 47.9017948], [-4.3659661, 47.9021278], [-4.3659607, 47.9026318], [-4.3655619, 47.9036435], [-4.3659052, 47.9040319], [-4.3668601, 47.9049813], [-4.366506, 47.9054164], [-4.3667153, 47.9059163], [-4.3669459, 47.9062651], [-4.3669567, 47.9064773], [-4.3666187, 47.907218], [-4.3663988, 47.9074769], [-4.3658503, 47.9076294], [-4.3652897, 47.9077832], [-4.3646017, 47.9080559], [-4.3638936, 47.9084406], [-4.3634322, 47.9086852], [-4.3629494, 47.9091814], [-4.3627402, 47.909336], [-4.3620965, 47.9096309], [-4.3616995, 47.9099041], [-4.3612341, 47.9102586], [-4.3613065, 47.910496], [-4.3616632, 47.9105337], [-4.3621662, 47.9104291], [-4.3627617, 47.9102637], [-4.3631908, 47.9101451], [-4.3636253, 47.9101271], [-4.3639418, 47.9100767], [-4.3643656, 47.9097531], [-4.3647465, 47.9095338], [-4.3656324, 47.9091437], [-4.3664746, 47.9089729], [-4.3669567, 47.9088937], [-4.3672839, 47.9087535], [-4.3678793, 47.9086708], [-4.3680564, 47.9084514], [-4.3679598, 47.9082069], [-4.3678686, 47.9077646], [-4.3679115, 47.9075812], [-4.3681797, 47.9074446], [-4.3687537, 47.9073223], [-4.3694457, 47.9071785], [-4.3699232, 47.9073475], [-4.370465, 47.9075021], [-4.3704918, 47.9076639], [-4.370465, 47.9078078], [-4.3714198, 47.9080307], [-4.3718812, 47.908099], [-4.3718973, 47.9082573], [-4.3719617, 47.9083903], [-4.3719617, 47.9085054], [-4.3717256, 47.9086924], [-4.3717417, 47.9091526], [-4.371849, 47.9093612], [-4.3720099, 47.9098574], [-4.3717524, 47.9101343], [-4.3717793, 47.910386], [-4.3720582, 47.9106053], [-4.3724927, 47.9107096], [-4.3736461, 47.9104507], [-4.374145, 47.9103572], [-4.3745956, 47.910332], [-4.3749389, 47.9104938], [-4.3753788, 47.9110799], [-4.3759537, 47.9114502], [-4.3761281, 47.9116049], [-4.3764204, 47.9118512], [-4.376753, 47.9120615], [-4.3768701, 47.9120939], [-4.3770454, 47.9122161], [-4.3771634, 47.9122143], [-4.377031, 47.9119573], [-4.3767521, 47.9115222], [-4.3764463, 47.9111698], [-4.3758455, 47.9105514], [-4.3753627, 47.9097891], [-4.3750784, 47.9093864], [-4.3749109, 47.9088725], [-4.3746439, 47.908518], [-4.3744442, 47.9081491], [-4.3743147, 47.9079611], [-4.3743122, 47.9077951], [-4.3742961, 47.9077376]]]}}, {"type": "Feature", "properties": {"name": "Anse de Kerhuon"}, "geometry": {"type": "MultiPolygon", "coordinates": [[[[-4.3860514, 48.4100965], [-4.3861462, 48.4101923], [-4.3860099, 48.4102835], [-4.3861752, 48.4104633], [-4.3862003, 48.4106947], [-4.3860989, 48.4108309], [-4.3862151, 48.410977], [-4.3861773, 48.4111433], [-4.3861227, 48.4112206], [-4.3861202, 48.4113821], [-4.3857772, 48.4116295], [-4.385595, 48.411843], [-4.3857135, 48.412189], [-4.3857247, 48.4123416], [-4.385755, 48.4123796], [-4.3858033, 48.4125072], [-4.3853688, 48.4125223], [-4.3850621, 48.4123239], [-4.384954, 48.4118604], [-4.384758, 48.4114243], [-4.3845904, 48.4112944], [-4.384655, 48.4109466], [-4.3845547, 48.4105083], [-4.3845675, 48.4103887], [-4.3846455, 48.4101992], [-4.3847117, 48.4100076], [-4.3843597, 48.409471], [-4.3836795, 48.4092302], [-4.3833454, 48.4091191], [-4.3830343, 48.4089569], [-4.3827013, 48.408536], [-4.3824544, 48.408283], [-4.381918, 48.408022], [-4.3815098, 48.4079163], [-4.381137, 48.407647], [-4.3809012, 48.4073077], [-4.3808224, 48.4068692], [-4.3808785, 48.4066475], [-4.3810566, 48.4065406], [-4.3806601, 48.4065131], [-4.3805368, 48.4062549], [-4.3805538, 48.4060314], [-4.3805158, 48.4058917], [-4.3803542, 48.4057515], [-4.3799135, 48.4055183], [-4.3794827, 48.4053959], [-4.3786978, 48.4051764], [-4.3782228, 48.4049045], [-4.3776935, 48.4046792], [-4.377441, 48.404543], [-4.3771007, 48.4042061], [-4.3767835, 48.4037929], [-4.376606, 48.4030879], [-4.3769197, 48.4024017], [-4.3774034, 48.4016735], [-4.3775346, 48.4014102], [-4.376883, 48.4011535], [-4.3764131, 48.4005817], [-4.3763239, 48.4003253], [-4.3860514, 48.4100965]]], [[[-4.3763239, 48.4003253], [-4.3763147, 48.4003124], [-4.3766503, 48.400285], [-4.3771372, 48.4001305], [-4.3775603, 48.4001639], [-4.3776898, 48.4001228], [-4.3779215, 48.400161], [-4.3788415, 48.4005707], [-4.3807849, 48.4014706], [-4.3820129, 48.4020125], [-4.3821006, 48.4021198], [-4.3821704, 48.4022015], [-4.3821647, 48.4023609], [-4.382081, 48.4024383], [-4.3819139, 48.4024895], [-4.3817779, 48.4025356], [-4.3816706, 48.4025989], [-4.3816066, 48.4026526], [-4.3815478, 48.4028346], [-4.3815965, 48.4029712], [-4.381687, 48.4031081], [-4.3817731, 48.4032496], [-4.3818213, 48.403398], [-4.3817374, 48.403643], [-4.3819539, 48.4040155], [-4.3819847, 48.4042074], [-4.3819575, 48.4042958], [-4.3820381, 48.4046389], [-4.3820025, 48.4049916], [-4.3820429, 48.4050902], [-4.3821212, 48.4051754], [-4.3822402, 48.4052077], [-4.3829804, 48.4054506], [-4.3837871, 48.4056707], [-4.384145, 48.4058359], [-4.3844458, 48.4061205], [-4.3846628, 48.406497], [-4.3847406, 48.4069796], [-4.38476, 48.4072503], [-4.3847691, 48.4074388], [-4.3846134, 48.4076147], [-4.3845714, 48.407713], [-4.3845896, 48.4078048], [-4.3849602, 48.4080627], [-4.3851363, 48.4084202], [-4.3852397, 48.4085574], [-4.3853027, 48.4087097], [-4.385286, 48.4087468], [-4.3852136, 48.4087602], [-4.3852448, 48.4090654], [-4.3855365, 48.4096177], [-4.3858301, 48.4097847], [-4.3859793, 48.4099949], [-4.3860514, 48.4100965], [-4.3763239, 48.4003253]]]]}}, {"type": "Feature", "properties": {"name": "Étang de Kermor"}, "geometry": {"type": "Polygon", "coordinates": [[[-4.16056, 47.8595971], [-4.1604991, 47.859621], [-4.1604441, 47.8595967], [-4.1604267, 47.8595625], [-4.1603908, 47.8594968], [-4.1602564, 47.8591297], [-4.1601028, 47.8587231], [-4.1600181, 47.8584241], [-4.1599251, 47.8581847], [-4.1599147, 47.8580029], [-4.1597933, 47.8575967], [-4.1597387, 47.8574767], [-4.1597079, 47.8573588], [-4.1597991, 47.8572706], [-4.1596327, 47.8568578], [-4.1596191, 47.8566132], [-4.1595952, 47.8565597], [-4.1596408, 47.8564904], [-4.1596569, 47.8564148], [-4.1596623, 47.8562493], [-4.1597872, 47.8560679], [-4.1597964, 47.8559793], [-4.1601484, 47.8556613], [-4.1603825, 47.8554565], [-4.1607237, 47.8552135], [-4.1609088, 47.8550028], [-4.1609645, 47.8548814], [-4.1611804, 47.8546943], [-4.1615068, 47.8545235], [-4.1620118, 47.8542477], [-4.1622855, 47.8541696], [-4.1629237, 47.8540258], [-4.1631049, 47.8539168], [-4.1633128, 47.8538304], [-4.1634208, 47.8537403], [-4.1634294, 47.8536144], [-4.1635689, 47.8534875], [-4.1636373, 47.8533957], [-4.1637164, 47.8533579], [-4.1639424, 47.8531163], [-4.1642299, 47.8528903], [-4.164545, 47.8527295], [-4.1648671, 47.8526038], [-4.1649929, 47.8526277], [-4.1650915, 47.8526464], [-4.1652225, 47.852925], [-4.1651809, 47.8530168], [-4.1652349, 47.8530447], [-4.1654973, 47.8540831], [-4.1653431, 47.854321], [-4.1654003, 47.8546371], [-4.1652329, 47.8546544], [-4.1652292, 47.8546682], [-4.1652071, 47.8546578], [-4.1651883, 47.8546371], [-4.1651642, 47.8545872], [-4.1651239, 47.8544706], [-4.1651286, 47.8545314], [-4.1651762, 47.8546745], [-4.1652285, 47.8547006], [-4.1652493, 47.8547766], [-4.1652574, 47.8548486], [-4.1650817, 47.8549066], [-4.1651474, 47.8550722], [-4.1651997, 47.8552788], [-4.1652292, 47.8552666], [-4.1651568, 47.8549534], [-4.1652077, 47.854894], [-4.1652828, 47.8548868], [-4.1653858, 47.8552223], [-4.1654639, 47.8552095], [-4.1655378, 47.8551988], [-4.1655706, 47.8553408], [-4.1656314, 47.8553539], [-4.1656337, 47.8553828], [-4.1654706, 47.8554815], [-4.165441, 47.8554696], [-4.1653997, 47.855419], [-4.1651324, 47.8554293], [-4.1646845, 47.8557357], [-4.1647089, 47.8557876], [-4.1646619, 47.8558506], [-4.1646405, 47.8559154], [-4.1646915, 47.8560135], [-4.1643867, 47.8562924], [-4.1641171, 47.8565456], [-4.1638625, 47.8568019], [-4.1635417, 47.8571446], [-4.1631945, 47.8573595], [-4.1626963, 47.857719], [-4.1623176, 47.8579622], [-4.1620615, 47.8581895], [-4.161987, 47.8585124], [-4.1619395, 47.8586177], [-4.1618536, 47.8587119], [-4.1616337, 47.8588795], [-4.1613804, 47.8590383], [-4.1610155, 47.8593042], [-4.16056, 47.8595971]]]}}, {"type": "Feature", "properties": {"name": "Lac du Drennec"}, "geometry": {"type": "Polygon", "coordinates": [[[-3.9983496, 48.3964972], [-3.9986327, 48.3966745], [-3.9987493, 48.3967502], [-3.9989347, 48.3968355], [-3.9990748, 48.3969057], [-3.9992454, 48.3970004], [-3.9994518, 48.3970945], [-3.9996475, 48.3971802], [-3.9998356, 48.3972693], [-3.9999202, 48.3972926], [-4.0001468, 48.3973571], [-4.0002341, 48.3973736], [-4.0003459, 48.3973674], [-4.0004925, 48.3973819], [-4.0005891, 48.397365], [-4.00069, 48.3973195], [-4.0007471, 48.3973085], [-4.0007831, 48.3973281], [-4.0008367, 48.3973283], [-4.000909, 48.3973286], [-4.0009569, 48.3973338], [-4.0010119, 48.3973267], [-4.0010672, 48.3973232], [-4.0011112, 48.3973193], [-4.0011593, 48.3973117], [-4.0012364, 48.3973047], [-4.0013392, 48.3973061], [-4.0014559, 48.39731], [-4.0016035, 48.3973453], [-4.0016846, 48.3973659], [-4.0017449, 48.3973622], [-4.0017772, 48.3973623], [-4.0018024, 48.3973638], [-4.0018444, 48.3973816], [-4.0021194, 48.3975065], [-4.0022565, 48.3975505], [-4.0022882, 48.3975613], [-4.0023072, 48.3975637], [-4.0023197, 48.3975629], [-4.0023346, 48.397558], [-4.0023429, 48.3975483], [-4.002345, 48.397532], [-4.0023204, 48.3973207], [-4.0023159, 48.3972204], [-4.0023151, 48.3971408], [-4.0023381, 48.3969764], [-4.0023534, 48.3969171], [-4.0023772, 48.3968649], [-4.002432, 48.3967783], [-4.0025304, 48.3966763], [-4.002625, 48.3965886], [-4.0027882, 48.3965005], [-4.0028682, 48.3964306], [-4.0029519, 48.3963454], [-4.0029963, 48.3962129], [-4.0030387, 48.3961507], [-4.0030754, 48.3960969], [-4.0031064, 48.3960362], [-4.0031277, 48.3959816], [-4.0031379, 48.3959469], [-4.0031439, 48.3959207], [-4.0031342, 48.3958192], [-4.0031102, 48.3956125], [-4.0031112, 48.3954393], [-4.0031367, 48.3952788], [-4.0031486, 48.3952334], [-4.0031744, 48.3951811], [-4.0032165, 48.3951445], [-4.0032404, 48.3951268], [-4.0032879, 48.3950985], [-4.0033317, 48.3950821], [-4.0033713, 48.3950731], [-4.0034203, 48.3950646], [-4.003494, 48.3950606], [-4.0035971, 48.3950721], [-4.00374, 48.3950955], [-4.0038518, 48.3951217], [-4.0039321, 48.3951539], [-4.0040334, 48.3952066], [-4.0040753, 48.3952255], [-4.0041385, 48.3952541], [-4.0042449, 48.3952933], [-4.0043602, 48.395331], [-4.0045161, 48.3953713], [-4.0046573, 48.3953973], [-4.0049669, 48.3954531], [-4.0050491, 48.395472], [-4.0051362, 48.3954992], [-4.0051956, 48.395523], [-4.0053171, 48.3955695], [-4.0054225, 48.3956027], [-4.0055044, 48.3956221], [-4.0055769, 48.3956355], [-4.0056708, 48.3956389], [-4.0058115, 48.395637], [-4.0059199, 48.3956273], [-4.006085, 48.3956412], [-4.0062251, 48.3956374], [-4.0063299, 48.3956341], [-4.0064231, 48.3956101], [-4.0066085, 48.3956302], [-4.006849, 48.395707], [-4.0069823, 48.3957731], [-4.0072846, 48.3959517], [-4.0074421, 48.3960534], [-4.0075735, 48.3961218], [-4.007664, 48.3961479], [-4.0077828, 48.3961949], [-4.007942, 48.3963048], [-4.0080654, 48.3963883], [-4.0081491, 48.3964775], [-4.0081948, 48.3966083], [-4.0081916, 48.3967445], [-4.0081531, 48.3968275], [-4.0080451, 48.396942], [-4.0078455, 48.3971378], [-4.0078026, 48.3972267], [-4.0077557, 48.397326], [-4.0077343, 48.3973878], [-4.0077194, 48.3974841], [-4.00772, 48.3975547], [-4.0077289, 48.3976079], [-4.0077523, 48.3976608], [-4.0077996, 48.3977382], [-4.0078588, 48.3978021], [-4.0079466, 48.397878], [-4.008018, 48.3979296], [-4.0081061, 48.397976], [-4.0081582, 48.3979916], [-4.0082023, 48.397994], [-4.0083405, 48.3979621], [-4.0084051, 48.3979369], [-4.008477, 48.3979081], [-4.0085903, 48.3978976], [-4.0087978, 48.397883], [-4.0089731, 48.3979224], [-4.0090064, 48.3979224], [-4.0090696, 48.3979338], [-4.0091486, 48.3979488], [-4.0091845, 48.3979603], [-4.009317, 48.3980086], [-4.0094242, 48.398058], [-4.0095483, 48.398123], [-4.0096862, 48.3982228], [-4.0098737, 48.3983455], [-4.0101016, 48.3984728], [-4.0102715, 48.3985798], [-4.0104358, 48.3986911], [-4.0105632, 48.3987839], [-4.0108211, 48.3990074], [-4.0108896, 48.3991166], [-4.0109697, 48.3992126], [-4.0110741, 48.3993382], [-4.0112036, 48.3993978], [-4.0113248, 48.399467], [-4.0114081, 48.3995334], [-4.0115671, 48.3996574], [-4.0118975, 48.3999076], [-4.0119912, 48.3999921], [-4.0121263, 48.4000965], [-4.0121775, 48.4001538], [-4.0122383, 48.4002448], [-4.0122829, 48.4002566], [-4.012354, 48.4002034], [-4.0124198, 48.4001647], [-4.012514, 48.4001481], [-4.0126404, 48.4001383], [-4.0127326, 48.4001404], [-4.0129468, 48.400197], [-4.0131702, 48.4002527], [-4.0132386, 48.4002497], [-4.0132933, 48.4002168], [-4.0132906, 48.4001238], [-4.0132833, 48.4000553], [-4.0132539, 48.3999736], [-4.0132433, 48.3998442], [-4.0133263, 48.3996453], [-4.0134946, 48.3994627], [-4.013636, 48.3992655], [-4.0137113, 48.3991511], [-4.0137855, 48.3990437], [-4.0138065, 48.3989734], [-4.0138068, 48.3989135], [-4.0138948, 48.3987935], [-4.0138963, 48.3987213], [-4.0138973, 48.3986701], [-4.0139198, 48.3985671], [-4.0138101, 48.3984394], [-4.0136205, 48.3982472], [-4.0135508, 48.3981436], [-4.0135266, 48.3980842], [-4.0135228, 48.3980468], [-4.0135455, 48.3978888], [-4.0135707, 48.3976765], [-4.0136268, 48.3975757], [-4.0137386, 48.3974365], [-4.0137477, 48.3973379], [-4.0137455, 48.3972555], [-4.0136791, 48.3971799], [-4.0135589, 48.3970186], [-4.0133348, 48.3968494], [-4.0132298, 48.3966979], [-4.0131537, 48.3965361], [-4.0130775, 48.3963825], [-4.0130086, 48.3962274], [-4.0129657, 48.3960707], [-4.0129902, 48.3959576], [-4.0130766, 48.3958061], [-4.0131142, 48.3957474], [-4.0131883, 48.3957075], [-4.0132509, 48.3956932], [-4.0133332, 48.3956732], [-4.0134298, 48.3956707], [-4.0135081, 48.3957051], [-4.0136053, 48.3956607], [-4.0136805, 48.3955538], [-4.0137175, 48.3953787], [-4.0136892, 48.3952924], [-4.0135941, 48.3950656], [-4.0135721, 48.3949036], [-4.0135997, 48.3947213], [-4.0136503, 48.3942714], [-4.0137363, 48.3940909], [-4.0138523, 48.3938931], [-4.0139721, 48.3936899], [-4.0141036, 48.393567], [-4.0142071, 48.3934333], [-4.0142862, 48.3933475], [-4.0144872, 48.3932732], [-4.0146649, 48.3932179], [-4.0148288, 48.3931866], [-4.0154469, 48.3931839], [-4.0155448, 48.3932184], [-4.0156245, 48.3932317], [-4.0157102, 48.393229], [-4.0158218, 48.3932198], [-4.0159154, 48.3931941], [-4.0161528, 48.3930318], [-4.0163167, 48.3928247], [-4.0163116, 48.392678], [-4.0163447, 48.3925884], [-4.0163853, 48.392422], [-4.0166057, 48.3922011], [-4.0169005, 48.391944], [-4.0170724, 48.3918678], [-4.0172555, 48.3917117], [-4.0173111, 48.3916354], [-4.0173728, 48.3915725], [-4.0174884, 48.3914815], [-4.0176139, 48.3914024], [-4.0177651, 48.3912996], [-4.0179287, 48.3912126], [-4.018285, 48.3910988], [-4.0185386, 48.3910503], [-4.0187327, 48.3910344], [-4.0189266, 48.3910405], [-4.0192824, 48.3890146], [-4.0187988, 48.3889575], [-4.0183193, 48.3890278], [-4.018235, 48.389048], [-4.0181439, 48.3891137], [-4.0179492, 48.3892243], [-4.0176902, 48.3893713], [-4.017532, 48.389452], [-4.0170602, 48.3895069], [-4.0167714, 48.3895279], [-4.0165767, 48.3895071], [-4.0163008, 48.3893771], [-4.0160661, 48.3891891], [-4.0159022, 48.3892555], [-4.0157757, 48.3892848], [-4.0156488, 48.3892993], [-4.0155059, 48.3892766], [-4.0153151, 48.389242], [-4.0150372, 48.3892258], [-4.0148644, 48.3892737], [-4.0148823, 48.3893179], [-4.0148842, 48.389332], [-4.0148896, 48.3893723], [-4.0148756, 48.3894012], [-4.0147944, 48.3894116], [-4.0147289, 48.3893826], [-4.014455, 48.3894319], [-4.0142454, 48.3894758], [-4.0141255, 48.3895009], [-4.0139424, 48.3895225], [-4.0138522, 48.3894918], [-4.0137163, 48.3893855], [-4.0133789, 48.3893414], [-4.0130957, 48.3893278], [-4.0129144, 48.3894627], [-4.0126003, 48.3895991], [-4.0125899, 48.3897157], [-4.0126158, 48.3897875], [-4.0126301, 48.389833], [-4.0126486, 48.3898985], [-4.0127127, 48.3899558], [-4.0127599, 48.390042], [-4.0127732, 48.3900663], [-4.0127907, 48.390095], [-4.012804, 48.3901169], [-4.0128264, 48.3901347], [-4.0128679, 48.3901677], [-4.0129082, 48.3904684], [-4.0126719, 48.3907506], [-4.0125106, 48.3907678], [-4.012424, 48.3907314], [-4.0122496, 48.3906856], [-4.0118923, 48.3905189], [-4.0118251, 48.3903324], [-4.011531, 48.3899794], [-4.010967, 48.3895518], [-4.0103448, 48.3892901], [-4.0098627, 48.3890242], [-4.009705, 48.3888936], [-4.0097087, 48.3883467], [-4.0096692, 48.3878947], [-4.0096247, 48.3877298], [-4.0097627, 48.3874489], [-4.0097073, 48.387314], [-4.0096674, 48.38715], [-4.009467, 48.3869636], [-4.0093598, 48.3868398], [-4.0091261, 48.3866245], [-4.0090425, 48.3865055], [-4.0089313, 48.3863613], [-4.0087751, 48.3861249], [-4.0087098, 48.386032], [-4.008617, 48.3858999], [-4.0084333, 48.3856384], [-4.0081316, 48.3854485], [-4.0076936, 48.3851385], [-4.007504, 48.3850043], [-4.0073814, 48.3849504], [-4.0071533, 48.3848279], [-4.0067273, 48.3846934], [-4.006243, 48.3846577], [-4.0059433, 48.3846937], [-4.0056391, 48.3847303], [-4.0054536, 48.3848938], [-4.0052571, 48.3849592], [-4.0051123, 48.3848822], [-4.0050693, 48.3847998], [-4.0048725, 48.384835], [-4.0048808, 48.3849127], [-4.0046346, 48.3850222], [-4.0042598, 48.385193], [-4.0040559, 48.3852702], [-4.0037861, 48.3853238], [-4.0036222, 48.3853656], [-4.0035328, 48.3853884], [-4.0033632, 48.3854101], [-4.0031803, 48.3854139], [-4.0030744, 48.3854154], [-4.0030258, 48.3854124], [-4.0029382, 48.3854119], [-4.0028501, 48.3853917], [-4.002734, 48.3853566], [-4.002724, 48.3853702], [-4.0027195, 48.385379], [-4.0027244, 48.3854035], [-4.0027345, 48.3854252], [-4.0027542, 48.3854568], [-4.0027759, 48.3854807], [-4.0028009, 48.3854966], [-4.0028293, 48.3855068], [-4.0028714, 48.3855177], [-4.0029875, 48.3855446], [-4.003115, 48.3855587], [-4.0031479, 48.3855634], [-4.0034182, 48.385602], [-4.003597, 48.3856167], [-4.0038414, 48.3855912], [-4.0040005, 48.3855736], [-4.0041567, 48.3856001], [-4.004311, 48.3856096], [-4.0045166, 48.3856851], [-4.0047759, 48.3856398], [-4.0050014, 48.3856256], [-4.0051324, 48.3855953], [-4.0052563, 48.3855832], [-4.005338, 48.385579], [-4.0054705, 48.3855542], [-4.0055533, 48.3855884], [-4.0056052, 48.3855835], [-4.0056966, 48.3855621], [-4.0057672, 48.3855651], [-4.0058319, 48.3855389], [-4.0058885, 48.3855338], [-4.0059544, 48.3855113], [-4.0060317, 48.3855394], [-4.0062821, 48.3855325], [-4.0064581, 48.385559], [-4.006603, 48.3855813], [-4.0066607, 48.3855956], [-4.0067254, 48.3856116], [-4.0068272, 48.3856328], [-4.0070099, 48.3856723], [-4.00729, 48.3857705], [-4.0075618, 48.3859167], [-4.0075948, 48.3859493], [-4.0076241, 48.38599], [-4.0076097, 48.3860274], [-4.0076457, 48.3860535], [-4.0076668, 48.3861103], [-4.0076895, 48.3861987], [-4.0076412, 48.386289], [-4.0076032, 48.3864753], [-4.0075527, 48.38659], [-4.0075271, 48.3866779], [-4.0074994, 48.3867719], [-4.0074815, 48.3868579], [-4.0074457, 48.3869285], [-4.0074414, 48.3869799], [-4.0074165, 48.3870439], [-4.0073681, 48.3871353], [-4.0073108, 48.3872372], [-4.0072043, 48.3874166], [-4.0070186, 48.3875609], [-4.006872, 48.3876057], [-4.006739, 48.3876873], [-4.0065466, 48.3877639], [-4.0064669, 48.3878138], [-4.0063701, 48.3878712], [-4.0062257, 48.3880066], [-4.0061433, 48.388131], [-4.0060788, 48.3882285], [-4.0058589, 48.3882888], [-4.0057546, 48.3883104], [-4.0056623, 48.3884197], [-4.0056516, 48.3885092], [-4.0056649, 48.3886326], [-4.0056515, 48.3887421], [-4.0055763, 48.3888269], [-4.0054951, 48.3888835], [-4.0053754, 48.3889319], [-4.0052511, 48.3889609], [-4.005153, 48.3889649], [-4.0050926, 48.3889782], [-4.0049598, 48.3890166], [-4.0048173, 48.3890413], [-4.0046714, 48.3890975], [-4.0045141, 48.3891038], [-4.0043482, 48.3891729], [-4.0042251, 48.3892487], [-4.004116, 48.3893343], [-4.0040486, 48.3893885], [-4.0038989, 48.3894729], [-4.0036425, 48.3896277], [-4.0035165, 48.3896061], [-4.003405, 48.3896547], [-4.0030762, 48.3896406], [-4.002824, 48.3896357], [-4.0025686, 48.3895887], [-4.0024619, 48.3895827], [-4.0024302, 48.3896223], [-4.0022911, 48.3897311], [-4.0021966, 48.3897965], [-4.0021041, 48.3898369], [-4.0020328, 48.3898679], [-4.0019702, 48.3898951], [-4.0019255, 48.3899638], [-4.0018229, 48.3900635], [-4.0017075, 48.390153], [-4.0016602, 48.3902346], [-4.0015865, 48.3903568], [-4.0015869, 48.390504], [-4.001493, 48.3906193], [-4.0014231, 48.390711], [-4.0013952, 48.3907772], [-4.0013521, 48.3908364], [-4.0012927, 48.3908971], [-4.0012056, 48.390999], [-4.0011119, 48.3910836], [-4.0010549, 48.391134], [-4.0009884, 48.3911775], [-4.0008979, 48.3912667], [-4.0008472, 48.391318], [-4.0007492, 48.3913945], [-4.000696, 48.3914473], [-4.0006197, 48.3914779], [-4.0005593, 48.3914784], [-4.0005237, 48.3914685], [-4.0004854, 48.3914544], [-4.0004508, 48.391441], [-4.0004308, 48.3914314], [-4.0004128, 48.3914265], [-4.0003995, 48.3914196], [-4.0002787, 48.3913708], [-4.0001787, 48.3913811], [-4.0001018, 48.3913776], [-4.0000526, 48.3913849], [-4.0000027, 48.3914019], [-3.9999538, 48.3914363], [-3.9999132, 48.391489], [-3.999885, 48.3915413], [-3.9998421, 48.3916094], [-3.9997888, 48.3918314], [-3.9997458, 48.3920328], [-3.9997715, 48.3922369], [-3.999799, 48.3924058], [-3.9998211, 48.392503], [-3.9998674, 48.3926002], [-3.9999285, 48.3927092], [-3.9999882, 48.392745], [-4.0000549, 48.3928], [-4.0001903, 48.3928123], [-4.0002641, 48.3927961], [-4.0003079, 48.3928], [-4.0001941, 48.3929117], [-4.00022, 48.3930885], [-4.0003139, 48.3932631], [-4.0003999, 48.3932984], [-4.0004339, 48.3933656], [-4.0004813, 48.3935013], [-4.0005182, 48.3936337], [-4.0005822, 48.3937732], [-4.0007005, 48.3938043], [-4.0007737, 48.3939158], [-4.0008121, 48.3940371], [-4.0007347, 48.3941937], [-4.0007445, 48.3942221], [-4.0007499, 48.3942725], [-4.0007478, 48.394461], [-4.000754, 48.3945276], [-4.0008157, 48.3946519], [-4.0008669, 48.3947686], [-4.0009503, 48.3949717], [-4.0009866, 48.3950548], [-4.0010046, 48.3950842], [-4.0010173, 48.3950971], [-4.0010291, 48.3951081], [-4.0011104, 48.3951554], [-4.001217, 48.3952114], [-4.0012101, 48.395324], [-4.0012869, 48.3954802], [-4.001494, 48.3955706], [-4.0016248, 48.3956585], [-4.0017876, 48.3957388], [-4.0018085, 48.395779], [-4.0018333, 48.3958399], [-4.0018549, 48.3958738], [-4.0018692, 48.3959083], [-4.0018743, 48.3959364], [-4.0018992, 48.396], [-4.001914, 48.3960594], [-4.001895, 48.3961253], [-4.0018526, 48.3961728], [-4.0017854, 48.3962108], [-4.0017369, 48.3962434], [-4.001681, 48.3962758], [-4.0016129, 48.3963025], [-4.0015404, 48.3963053], [-4.0014386, 48.3962727], [-4.0013072, 48.3962498], [-4.0011767, 48.3962172], [-4.0010764, 48.3961954], [-4.0009761, 48.3961749], [-4.0008017, 48.3961166], [-4.000743, 48.3960933], [-4.0006758, 48.3960824], [-4.0005751, 48.3960475], [-4.0004957, 48.3960223], [-4.0003139, 48.3959584], [-4.0001676, 48.3959159], [-3.9997658, 48.3958193], [-3.9997085, 48.3957309], [-3.9996627, 48.3956735], [-3.99956, 48.3956636], [-3.999479, 48.3956558], [-3.9991086, 48.3956095], [-3.9988252, 48.3955921], [-3.998716, 48.39558], [-3.9985361, 48.395552], [-3.9983756, 48.395541], [-3.9982666, 48.3955209], [-3.9981921, 48.3955184], [-3.998089, 48.3956889], [-3.9980174, 48.3958236], [-3.9979558, 48.396006], [-3.9979406, 48.3961182], [-3.9979417, 48.3962192], [-3.998009, 48.3962813], [-3.9982689, 48.3964402], [-3.9983496, 48.3964972]]]}}]}