{"type": "FeatureCollection", "features": [{"type": "Feature", "properties": {"name": "Lac de Miélan"}, "geometry": {"type": "Polygon", "coordinates": [[[0.328005, 43.4335581], [0.3280346, 43.4334496], [0.328069, 43.4333686], [0.3280991, 43.433316], [0.3281052, 43.4332868], [0.3281093, 43.4332089], [0.3280824, 43.4330988], [0.327997, 43.4329707], [0.327955, 43.4329313], [0.3278679, 43.4328661], [0.3276506, 43.4327587], [0.3274843, 43.4326259], [0.327377, 43.4325719], [0.327234, 43.4325177], [0.3270753, 43.4324736], [0.3268316, 43.4324358], [0.3267309, 43.4324368], [0.3266475, 43.4324395], [0.3261619, 43.4325012], [0.3258736, 43.4324911], [0.3257878, 43.4325008], [0.3257073, 43.4325281], [0.3256711, 43.4325583], [0.3256481, 43.4325875], [0.3256349, 43.4326557], [0.3256363, 43.4327453], [0.3256349, 43.4328008], [0.3256194, 43.4328441], [0.3255612, 43.4329128], [0.3254914, 43.4330336], [0.325478, 43.4330735], [0.325478, 43.4331348], [0.3254512, 43.4331933], [0.3254145, 43.4332359], [0.325305, 43.4333053], [0.3252219, 43.4333394], [0.3251615, 43.4333734], [0.3250797, 43.4334153], [0.325022, 43.4334497], [0.3247538, 43.4335789], [0.3246063, 43.4336753], [0.3245352, 43.4337143], [0.3244856, 43.4337542], [0.3244668, 43.4337903], [0.3244655, 43.4338331], [0.3244789, 43.4339013], [0.324495, 43.433951], [0.324547, 43.434046], [0.3245607, 43.4341087], [0.324554, 43.4341535], [0.3245205, 43.4342402], [0.3244795, 43.4342906], [0.3244038, 43.43436], [0.3243354, 43.4344057], [0.3243005, 43.4344262], [0.3242147, 43.4344583], [0.3241704, 43.4344632], [0.3240605, 43.4344525], [0.3239679, 43.4344194], [0.3238499, 43.4343853], [0.3237802, 43.4343785], [0.3237239, 43.4343824], [0.3236635, 43.4344145], [0.3236032, 43.4344681], [0.3234985, 43.4345723], [0.3234275, 43.4346706], [0.3233953, 43.4347369], [0.3233135, 43.4348294], [0.3231584, 43.4349648], [0.3230828, 43.4350086], [0.3230385, 43.4350251], [0.3229447, 43.4350436], [0.322895, 43.4350758], [0.3228763, 43.4350894], [0.3228709, 43.4351498], [0.3228857, 43.4351936], [0.3228816, 43.4352335], [0.3228562, 43.4352783], [0.3228026, 43.4352809], [0.3227757, 43.4352764], [0.3227261, 43.4352696], [0.3226738, 43.4352842], [0.3226523, 43.4353105], [0.3226389, 43.4353689], [0.3226657, 43.4354302], [0.3227118, 43.4354894], [0.3227328, 43.4355461], [0.3227301, 43.4355929], [0.3226912, 43.4356581], [0.3226697, 43.4356805], [0.3226228, 43.4357526], [0.322604, 43.4358139], [0.3226027, 43.4359113], [0.3225839, 43.4360067], [0.3225571, 43.4360515], [0.322482, 43.4361178], [0.3224565, 43.4361616], [0.3224525, 43.4361976], [0.3224511, 43.4362453], [0.3224672, 43.4362765], [0.3225182, 43.4363349], [0.3225735, 43.4363691], [0.3226604, 43.4364099], [0.3227516, 43.4364615], [0.3228307, 43.4365781], [0.3228427, 43.4366105], [0.3228427, 43.4366417], [0.3228119, 43.4366933], [0.3227743, 43.4367176], [0.3226912, 43.4367819], [0.3226657, 43.4368423], [0.3226644, 43.4369221], [0.3226867, 43.4369989], [0.3227234, 43.4370789], [0.3227368, 43.4371383], [0.322718, 43.4372377], [0.3226972, 43.4373007], [0.3226671, 43.4373526], [0.3226121, 43.4374052], [0.3225639, 43.4374411], [0.3224391, 43.4375006], [0.3224068, 43.437551], [0.3223975, 43.4375843], [0.3224257, 43.4376589], [0.3224109, 43.4377236], [0.3223854, 43.4377772], [0.3223551, 43.4378231], [0.3223063, 43.4378862], [0.322139, 43.4380375], [0.3220396, 43.438175], [0.3220099, 43.4382455], [0.3219643, 43.4383858], [0.321916, 43.4384569], [0.321776, 43.4385675], [0.3217712, 43.4385903], [0.321802, 43.438638], [0.3217967, 43.4386662], [0.3217457, 43.4387831], [0.3217471, 43.4388123], [0.3217725, 43.4388308], [0.3218436, 43.4388337], [0.3218825, 43.4388503], [0.3218959, 43.4388766], [0.3219026, 43.4389106], [0.3219026, 43.4389616], [0.3218785, 43.4389905], [0.3218356, 43.4390119], [0.3216894, 43.439047], [0.3216371, 43.4390694], [0.3215915, 43.4391112], [0.3215645, 43.4392261], [0.3215794, 43.4392933], [0.3216183, 43.4393712], [0.3216586, 43.4395923], [0.3216317, 43.4396274], [0.3216076, 43.4396507], [0.3215186, 43.4397045], [0.3213745, 43.439804], [0.3210061, 43.4400967], [0.3209841, 43.4401207], [0.3209749, 43.4401645], [0.32098, 43.4401951], [0.3210006, 43.4402161], [0.3210658, 43.440235], [0.3211154, 43.4402437], [0.3211503, 43.4402574], [0.3212173, 43.4402876], [0.3212737, 43.4403197], [0.3212947, 43.4403456], [0.3213648, 43.4403996], [0.3214654, 43.4404482], [0.3215647, 43.4404745], [0.3216384, 43.4405037], [0.3216867, 43.4405291], [0.3217524, 43.4405729], [0.3217848, 43.440604], [0.3218409, 43.4407598], [0.321845, 43.4409234], [0.3217967, 43.4410968], [0.3217752, 43.4411513], [0.3217162, 43.4412438], [0.3216183, 43.4413879], [0.3215639, 43.441459], [0.3214963, 43.4415233], [0.3214507, 43.4415593], [0.3213541, 43.4416421], [0.3212374, 43.4417531], [0.3211838, 43.441791], [0.3210738, 43.4418456], [0.3209209, 43.441902], [0.3208478, 43.4419366], [0.3207667, 43.4419887], [0.3207278, 43.4420267], [0.3206916, 43.4420744], [0.3206366, 43.4421299], [0.3204623, 43.4423636], [0.3204328, 43.4423889], [0.3203523, 43.4424444], [0.3202485, 43.4424825], [0.3201646, 43.4424863], [0.3198346, 43.4424892], [0.3197622, 43.4424931], [0.3196608, 43.4425087], [0.3196375, 43.4425174], [0.3196026, 43.4425447], [0.3196013, 43.4425729], [0.3196281, 43.4426246], [0.3196987, 43.4426772], [0.3198172, 43.4427404], [0.3199124, 43.4428018], [0.319989, 43.4428467], [0.3202035, 43.4429478], [0.3202423, 43.4429732], [0.3203188, 43.4430345], [0.3203722, 43.4430838], [0.3204314, 43.4431163], [0.3204797, 43.4431455], [0.3205146, 43.4431728], [0.3205441, 43.4432059], [0.3205428, 43.4432448], [0.3205272, 43.4432769], [0.3205025, 43.4432993], [0.3204636, 43.443314], [0.320406, 43.4433256], [0.3203697, 43.443348], [0.3203322, 43.4433899], [0.3202651, 43.4434162], [0.3201941, 43.4434542], [0.3201163, 43.4434873], [0.3200619, 43.4435384], [0.3199902, 43.4436509], [0.3199433, 43.44372], [0.3198735, 43.4437755], [0.3197555, 43.4438884], [0.3196456, 43.4439634], [0.3195906, 43.4440199], [0.3195832, 43.4440584], [0.3195986, 43.44409], [0.3196187, 43.4441212], [0.3196201, 43.4441474], [0.3196107, 43.4441767], [0.3195839, 43.4442078], [0.3195423, 43.4442482], [0.3195088, 43.4442935], [0.3194941, 43.4443225], [0.3194739, 43.444387], [0.3194377, 43.4444639], [0.3193666, 43.4445506], [0.3193586, 43.4445992], [0.3193586, 43.4446431], [0.319372, 43.4446966], [0.3193974, 43.4447307], [0.3194095, 43.4447638], [0.3194095, 43.4448281], [0.3193787, 43.4448826], [0.3193465, 43.4449206], [0.3192969, 43.4450199], [0.3192593, 43.4450665], [0.3191842, 43.4451231], [0.3189535, 43.4452769], [0.3188503, 43.4453616], [0.3187309, 43.4454395], [0.3186223, 43.4455437], [0.3185794, 43.4455642], [0.318519, 43.4455797], [0.318301, 43.4455894], [0.3181046, 43.4455827], [0.3179638, 43.4455807], [0.3178136, 43.445569], [0.3177077, 43.4455457], [0.3175575, 43.4454999], [0.3175145, 43.445495], [0.3174168, 43.4455005], [0.3173362, 43.4455457], [0.3173093, 43.4455749], [0.3172772, 43.4456236], [0.3172829, 43.4456912], [0.317312, 43.4457472], [0.3173549, 43.4458066], [0.3173697, 43.4458563], [0.3173389, 43.4459595], [0.3173375, 43.4460179], [0.3173576, 43.4460705], [0.3173912, 43.4461221], [0.3174649, 43.446199], [0.317544, 43.4462594], [0.3176929, 43.4463645], [0.3178391, 43.4464356], [0.3179155, 43.4464599], [0.3179732, 43.4464872], [0.317974, 43.4465119], [0.3179236, 43.4466595], [0.3178713, 43.4467676], [0.317819, 43.4469809], [0.3177492, 43.4472243], [0.317713, 43.4473022], [0.3176929, 43.4473469], [0.3176621, 43.4474054], [0.3176567, 43.4474667], [0.3176647, 43.4475242], [0.3176993, 43.4475754], [0.3177372, 43.4476011], [0.3177761, 43.4476429], [0.317831, 43.4477276], [0.3178471, 43.447824], [0.3178418, 43.447938], [0.3178285, 43.4480675], [0.317775, 43.4482704], [0.3177854, 43.448455], [0.3177971, 43.4485016], [0.3178217, 43.4485591], [0.3178444, 43.4485932], [0.3178887, 43.4486195], [0.3180079, 43.4486524], [0.3181905, 43.4486789], [0.3182722, 43.4487078], [0.3183071, 43.448748], [0.3183502, 43.4488742], [0.3183863, 43.4489106], [0.3184782, 43.4489613], [0.3193559, 43.4491151], [0.3202046, 43.4492548], [0.321275, 43.4494198], [0.3223042, 43.449578], [0.3224959, 43.4496109], [0.322659, 43.4496399], [0.323001, 43.4496948], [0.3230506, 43.4496856], [0.3231177, 43.4496379], [0.3231809, 43.4495562], [0.3231861, 43.4494685], [0.3230412, 43.4492465], [0.3229711, 43.4490937], [0.3230165, 43.4490562], [0.3230877, 43.4490169], [0.3230533, 43.4489525], [0.3229458, 43.4488028], [0.3230045, 43.4485953], [0.3230803, 43.4483974], [0.3231579, 43.4482641], [0.3232384, 43.4481648], [0.3234006, 43.4479019], [0.3234677, 43.4477754], [0.3234892, 43.4476984], [0.323579, 43.4475368], [0.3237074, 43.4473185], [0.3237131, 43.4471026], [0.3237493, 43.4469458], [0.3238137, 43.4468309], [0.3238325, 43.4467053], [0.3239451, 43.4463996], [0.3239867, 43.4459858], [0.3240057, 43.4458579], [0.3239894, 43.4457161], [0.3239183, 43.4455252], [0.3238995, 43.4452925], [0.3239076, 43.4450501], [0.3239411, 43.444795], [0.32398, 43.44472], [0.3240269, 43.4445963], [0.3240994, 43.4444435], [0.3241738, 43.4442595], [0.3242871, 43.4440744], [0.3244065, 43.4438807], [0.3244869, 43.4436966], [0.3245674, 43.4434697], [0.3245889, 43.4433393], [0.3247109, 43.4432443], [0.324896, 43.4432], [0.3250736, 43.4431406], [0.3252178, 43.443052], [0.325224, 43.4429966], [0.3251548, 43.4429293], [0.3249349, 43.442755], [0.3249013, 43.4426577], [0.3249169, 43.4425419], [0.3250757, 43.4422029], [0.3252257, 43.4420102], [0.3254378, 43.4418982], [0.3256725, 43.44168], [0.3259266, 43.4414596], [0.3259729, 43.4414385], [0.3261796, 43.4413569], [0.3261633, 43.441126], [0.3261918, 43.4409622], [0.3263028, 43.4408212], [0.3264329, 43.4406771], [0.3265911, 43.4406157], [0.3267319, 43.4405388], [0.3267883, 43.440421], [0.3268057, 43.440346], [0.326858, 43.4402321], [0.3269706, 43.4401233], [0.326964, 43.4400159], [0.3269747, 43.439825], [0.3269318, 43.4396868], [0.3268258, 43.4395163], [0.3267695, 43.4393654], [0.3267615, 43.4390557], [0.3267494, 43.4390129], [0.3267495, 43.4388809], [0.3268298, 43.4386594], [0.3268553, 43.4385426], [0.3268643, 43.4383341], [0.3268473, 43.4381414], [0.3268017, 43.4379641], [0.3267212, 43.4377849], [0.3266971, 43.4375941], [0.3267212, 43.4375269], [0.3266904, 43.4374091], [0.3266614, 43.4372731], [0.3266582, 43.4371189], [0.326632, 43.4370152], [0.3266461, 43.4368939], [0.326678, 43.4367992], [0.3267896, 43.4366972], [0.3268562, 43.4366211], [0.3268701, 43.4365024], [0.3268218, 43.4362804], [0.3268513, 43.4361752], [0.326909, 43.4360895], [0.3270324, 43.4359892], [0.3271571, 43.4357565], [0.3272483, 43.4356289], [0.3272858, 43.4355666], [0.3273167, 43.4355042], [0.3273274, 43.4354556], [0.3273235, 43.4354163], [0.3273126, 43.4353455], [0.3272992, 43.435292], [0.3273033, 43.435217], [0.3273126, 43.4351507], [0.3273556, 43.4350465], [0.3274038, 43.4349745], [0.3274441, 43.4349238], [0.3274803, 43.4348635], [0.3274897, 43.4348226], [0.3275044, 43.4347807], [0.3275058, 43.4347261], [0.3275138, 43.4346843], [0.3275054, 43.4345876], [0.3275366, 43.4345012], [0.3275608, 43.4344681], [0.3275782, 43.4344262], [0.3275782, 43.4344028], [0.3275768, 43.4343561], [0.3275366, 43.4342217], [0.3275339, 43.434135], [0.3275567, 43.4339763], [0.3276104, 43.4339032], [0.3277016, 43.4338467], [0.327782, 43.4337903], [0.3278705, 43.4337523], [0.3279279, 43.4337133], [0.3279738, 43.4336276], [0.328005, 43.4335581]]]}}, {"type": "Feature", "properties": {"name": "Lac de Tailluret"}, "geometry": {"type": "Polygon", "coordinates": [[[-0.1375913, 43.9368634], [-0.1379588, 43.9369677], [-0.1386293, 43.9369271], [-0.1395547, 43.9370643], [-0.1399785, 43.937128], [-0.1402333, 43.9374737], [-0.1406195, 43.9376939], [-0.140928, 43.9378542], [-0.1412981, 43.9382347], [-0.1415878, 43.9382096], [-0.1420169, 43.9381208], [-0.1427975, 43.9380648], [-0.1436209, 43.9384317], [-0.1440661, 43.9385283], [-0.1445744, 43.9383574], [-0.1452396, 43.9384771], [-0.1458646, 43.9385833], [-0.1458753, 43.9386838], [-0.1462481, 43.9387379], [-0.1464439, 43.9386413], [-0.1467383, 43.938325], [-0.147382, 43.9386611], [-0.1476824, 43.9385781], [-0.1479694, 43.9387326], [-0.1487902, 43.9390899], [-0.1494741, 43.939339], [-0.1497263, 43.9394453], [-0.1499436, 43.9394757], [-0.1502305, 43.9392811], [-0.1506382, 43.939142], [-0.1508689, 43.9389296], [-0.1513866, 43.9388176], [-0.151585, 43.9384216], [-0.1521456, 43.9381435], [-0.152092, 43.9376355], [-0.1523817, 43.9369402], [-0.1526123, 43.9368359], [-0.1524648, 43.936778], [-0.1522261, 43.9365887], [-0.1522556, 43.9362951], [-0.1524487, 43.9361811], [-0.1527862, 43.9362862], [-0.1528966, 43.9363318], [-0.1530227, 43.9367644], [-0.15302, 43.9370175], [-0.1529047, 43.9373265], [-0.1535833, 43.9389798], [-0.1537979, 43.9394356], [-0.1550102, 43.9399069], [-0.1558685, 43.9407876], [-0.1559651, 43.9411275], [-0.1565713, 43.941282], [-0.156118, 43.9415079], [-0.1559544, 43.9417397], [-0.1558149, 43.9419039], [-0.1557988, 43.9420642], [-0.1560731, 43.9421598], [-0.1564747, 43.9422998], [-0.156464, 43.9425219], [-0.1563728, 43.9427401], [-0.1559651, 43.9430549], [-0.1558149, 43.9432171], [-0.1558297, 43.9435222], [-0.1558363, 43.9436575], [-0.1550853, 43.9449958], [-0.1548399, 43.9451117], [-0.154573, 43.9451378], [-0.1543236, 43.9450634], [-0.1541787, 43.9449359], [-0.153594, 43.944119], [-0.1530629, 43.9433736], [-0.1529972, 43.9432859], [-0.152912, 43.9431721], [-0.1525667, 43.9427111], [-0.1520222, 43.9424697], [-0.1520993, 43.9421981], [-0.1521966, 43.9418556], [-0.1518264, 43.9414616], [-0.1514402, 43.9410174], [-0.1514027, 43.9404689], [-0.1511988, 43.9403916], [-0.1500803, 43.9405577], [-0.1490718, 43.9407895], [-0.1486239, 43.9407644], [-0.1483476, 43.9405886], [-0.1480338, 43.9405152], [-0.1474732, 43.9402275], [-0.1468241, 43.939903], [-0.14566, 43.9400421], [-0.1445764, 43.9399146], [-0.1437932, 43.9397755], [-0.1424629, 43.9396944], [-0.1417712, 43.9397049], [-0.141164, 43.9397142], [-0.140531, 43.9396137], [-0.1401662, 43.9393124], [-0.1403084, 43.9388335], [-0.1395976, 43.9385013], [-0.1392355, 43.9381942], [-0.1387688, 43.9380223], [-0.1381921, 43.9378291], [-0.1375779, 43.9380435], [-0.137079, 43.937804], [-0.1364621, 43.9374737], [-0.1363843, 43.9371898], [-0.136497, 43.9369271], [-0.1364574, 43.9365829], [-0.1364064, 43.9365442], [-0.1363018, 43.9365056], [-0.1361328, 43.9362545], [-0.1361586, 43.9361319], [-0.1360309, 43.935932], [-0.1360604, 43.9358103], [-0.1361516, 43.9357581], [-0.1363125, 43.9357601], [-0.1364064, 43.9358083], [-0.1364467, 43.9358682], [-0.1364172, 43.9359358], [-0.1363581, 43.9360768], [-0.1364628, 43.9361483], [-0.136629, 43.936185], [-0.1368704, 43.9361792], [-0.1371306, 43.9361889], [-0.1374364, 43.936241], [-0.137651, 43.9363183], [-0.13771, 43.9363859], [-0.13771, 43.9364554], [-0.1376241, 43.9365153], [-0.1375464, 43.9365327], [-0.1374739, 43.9365694], [-0.1374498, 43.9366196], [-0.1374525, 43.9366717], [-0.1375913, 43.9368634]]]}}, {"type": "Feature", "properties": {"name": "Lac de Candau"}, "geometry": {"type": "Polygon", "coordinates": [[[0.1792324, 43.725287], [0.1792601, 43.7251952], [0.1794337, 43.7249541], [0.1794076, 43.7248899], [0.1793412, 43.7248531], [0.1788363, 43.7247523], [0.1787236, 43.7246815], [0.1786577, 43.7245771], [0.17867, 43.7244063], [0.1787572, 43.7242008], [0.1787948, 43.724156], [0.1787826, 43.7239527], [0.1787706, 43.7238183], [0.1786485, 43.7236658], [0.1785654, 43.7235049], [0.1781586, 43.7234979], [0.1780517, 43.7234671], [0.1779364, 43.7234604], [0.1778921, 43.7234807], [0.1776505, 43.7234524], [0.1774101, 43.7233751], [0.1771559, 43.7231279], [0.1771022, 43.7231046], [0.1769507, 43.7230833], [0.1768126, 43.7230297], [0.1765175, 43.7226559], [0.1764548, 43.7225235], [0.1765439, 43.7220414], [0.1764466, 43.7219311], [0.1763713, 43.7217507], [0.1761769, 43.7214231], [0.1761878, 43.7213002], [0.1763123, 43.7212176], [0.1765465, 43.7211654], [0.1767871, 43.7211488], [0.176905, 43.7211164], [0.1772243, 43.7209617], [0.1773933, 43.7208386], [0.1774511, 43.7207472], [0.1775783, 43.7204093], [0.1777004, 43.7202561], [0.1777488, 43.7201637], [0.1778533, 43.7198539], [0.17786, 43.7197007], [0.1778975, 43.7196484], [0.1779847, 43.7195864], [0.1782502, 43.7194633], [0.1782704, 43.7194354], [0.1782355, 43.7194308], [0.1779377, 43.7195234], [0.1778331, 43.7195292], [0.1772812, 43.719467], [0.1769292, 43.7194691], [0.1767495, 43.7194516], [0.1766667, 43.7194008], [0.1766624, 43.7192859], [0.1766288, 43.7192006], [0.1766463, 43.7185628], [0.1761861, 43.7177736], [0.1761447, 43.7175053], [0.1761554, 43.7173241], [0.1762936, 43.7170876], [0.1764338, 43.7169334], [0.1765966, 43.7166843], [0.1766436, 43.7164885], [0.1765993, 43.7163063], [0.1765363, 43.7162152], [0.1763915, 43.7161153], [0.1761903, 43.7160562], [0.1759596, 43.7160165], [0.175113, 43.7159894], [0.174884, 43.7159438], [0.1746514, 43.7158639], [0.174298, 43.7157237], [0.1741365, 43.7156144], [0.1739869, 43.7154359], [0.1740123, 43.7152032], [0.1740043, 43.714988], [0.1731218, 43.7137686], [0.1730213, 43.713723], [0.1728898, 43.713756], [0.1728147, 43.71382], [0.1727745, 43.7143463], [0.1727182, 43.7144859], [0.172627, 43.7145925], [0.172455, 43.7146955], [0.1722179, 43.7146303], [0.1721141, 43.7146303], [0.1716533, 43.7147379], [0.1714417, 43.7148523], [0.1713211, 43.7149716], [0.1712483, 43.7151548], [0.1712483, 43.71543], [0.1714092, 43.7157015], [0.1716614, 43.7160698], [0.1718223, 43.7163063], [0.1719511, 43.7170275], [0.1718223, 43.7172446], [0.1718384, 43.7173687], [0.1720369, 43.7174927], [0.1720959, 43.7176013], [0.1720335, 43.7178991], [0.1719859, 43.7181906], [0.1719913, 43.7182953], [0.1720503, 43.7183864], [0.1723587, 43.7185182], [0.172686, 43.718714], [0.1729606, 43.7191107], [0.1730306, 43.7192035], [0.1730628, 43.7192975], [0.1729515, 43.7196183], [0.1729542, 43.7196784], [0.1729287, 43.7197405], [0.1727772, 43.7198287], [0.1726592, 43.7199246], [0.1727343, 43.7201708], [0.1726685, 43.7202435], [0.1725894, 43.7202988], [0.1724406, 43.7203152], [0.1721656, 43.7203172], [0.1720798, 43.7203337], [0.172065, 43.720354], [0.1720811, 43.720385], [0.1721348, 43.7203996], [0.1722313, 43.7203841], [0.1723266, 43.7203676], [0.1727034, 43.7203947], [0.1728335, 43.7204219], [0.1731151, 43.7206622], [0.1731299, 43.7207427], [0.1731125, 43.7208435], [0.1729703, 43.7209714], [0.1729743, 43.7210121], [0.1731835, 43.7213736], [0.1732157, 43.7214696], [0.1732278, 43.7215772], [0.1731929, 43.7216983], [0.1731983, 43.7217439], [0.1732278, 43.7217807], [0.1734008, 43.7218864], [0.1734906, 43.721962], [0.173547, 43.7220443], [0.1735617, 43.7222081], [0.1735269, 43.7222954], [0.1734357, 43.7224049], [0.1734209, 43.7224582], [0.1734893, 43.7225949], [0.1735443, 43.722936], [0.1736288, 43.7231076], [0.1737374, 43.7232055], [0.1738514, 43.7233489], [0.1739131, 43.7234953], [0.1738778, 43.7236516], [0.173948, 43.7238151], [0.1738581, 43.7240961], [0.1738849, 43.7242987], [0.1738782, 43.7244034], [0.173803, 43.7244954], [0.1736113, 43.7246059], [0.1734236, 43.7246699], [0.1730108, 43.7247162], [0.1728697, 43.7247523], [0.1727544, 43.7248085], [0.1725572, 43.724856], [0.1719363, 43.7248754], [0.1716312, 43.7248652], [0.1715315, 43.7248898], [0.1715474, 43.7249248], [0.1718652, 43.7249374], [0.1720677, 43.7249665], [0.1721522, 43.7250043], [0.1721361, 43.7250362], [0.1721965, 43.7250682], [0.1723856, 43.7250479], [0.1729148, 43.725077], [0.1731272, 43.7252214], [0.1731741, 43.7252097], [0.1732211, 43.7251506], [0.1733109, 43.7251458], [0.173957, 43.7251799], [0.174284, 43.7253173], [0.1746078, 43.7253803], [0.1746825, 43.7254246], [0.174703, 43.7255625], [0.1746668, 43.7256643], [0.1746759, 43.7257302], [0.1748572, 43.7259085], [0.1749015, 43.7259812], [0.1748964, 43.7260665], [0.174813, 43.726333], [0.1745622, 43.7269571], [0.1743691, 43.727274], [0.1742846, 43.7274921], [0.1743845, 43.7277015], [0.1744321, 43.7279728], [0.1743449, 43.7280513], [0.1742159, 43.7281213], [0.1740821, 43.7281685], [0.1738796, 43.7283352], [0.1733552, 43.7285688], [0.1727966, 43.7288616], [0.1726927, 43.7289593], [0.1727343, 43.7290165], [0.1729047, 43.72901], [0.1734316, 43.7288392], [0.1739949, 43.7287374], [0.1741211, 43.7286997], [0.1741894, 43.7286463], [0.1742148, 43.7285785], [0.1746453, 43.7284796], [0.1748186, 43.7284963], [0.1750128, 43.7285872], [0.1751806, 43.7286865], [0.175218, 43.7287665], [0.1752247, 43.7288925], [0.1752542, 43.7289651], [0.1753295, 43.7290174], [0.175353, 43.7290338], [0.1764035, 43.7292316], [0.1789757, 43.7285669], [0.1791608, 43.7285106], [0.1791967, 43.7284665], [0.1792402, 43.7281554], [0.1793647, 43.7280338], [0.1795249, 43.7278972], [0.1798139, 43.7277634], [0.1799387, 43.7276534], [0.1799145, 43.7276268], [0.1797016, 43.7276028], [0.1794524, 43.7274989], [0.1793848, 43.7273758], [0.1793727, 43.7271897], [0.1794116, 43.7270405], [0.1794049, 43.7267962], [0.1794492, 43.7265026], [0.179531, 43.7262012], [0.1794652, 43.725899], [0.1792869, 43.7255683], [0.1792346, 43.7253968], [0.1792324, 43.725287]]]}}, {"type": "Feature", "properties": {"name": "Lac de Saint-Jean"}, "geometry": {"type": "Polygon", "coordinates": [[[0.1865378, 43.6501425], [0.1864531, 43.6502254], [0.1859777, 43.6504316], [0.1858704, 43.6505224], [0.1857731, 43.6505418], [0.1857329, 43.6506087], [0.1855287, 43.6506011], [0.1853239, 43.6506325], [0.1847472, 43.6507916], [0.1845742, 43.6508673], [0.1843534, 43.6510056], [0.1841611, 43.6511735], [0.184076, 43.651221], [0.1837159, 43.6513428], [0.1836716, 43.6513695], [0.1835898, 43.6514728], [0.1833471, 43.6516417], [0.1831667, 43.6517183], [0.1829964, 43.6517683], [0.1829032, 43.6518644], [0.1827651, 43.6519323], [0.1823339, 43.6520061], [0.1819088, 43.6520512], [0.1816043, 43.6521055], [0.1813468, 43.6522103], [0.1812717, 43.6523035], [0.1812181, 43.6524781], [0.1811162, 43.6527459], [0.1809365, 43.6529517], [0.1807594, 43.6531244], [0.1803571, 43.6533398], [0.1800406, 43.6533573], [0.1798663, 43.6533786], [0.1796624, 43.653462], [0.1795283, 43.6534795], [0.1787964, 43.6536219], [0.1786163, 43.6536969], [0.1782462, 43.6538075], [0.1779592, 43.6538308], [0.1776937, 43.6538676], [0.1770238, 43.6538964], [0.1769353, 43.6539196], [0.176286, 43.6540239], [0.175804, 43.654068], [0.1756123, 43.6540491], [0.1753622, 43.6539894], [0.1752371, 43.6539439], [0.1742692, 43.6533854], [0.1736502, 43.6532025], [0.1735933, 43.6531967], [0.1735201, 43.6532102], [0.1734973, 43.6532326], [0.1735027, 43.6533039], [0.1735621, 43.6533949], [0.1737848, 43.6536749], [0.174007, 43.6538531], [0.1742866, 43.6541801], [0.1743141, 43.6543043], [0.1746594, 43.6548418], [0.1747285, 43.6548894], [0.1748874, 43.6550679], [0.175165, 43.6552853], [0.1752518, 43.6553404], [0.1755942, 43.6554813], [0.1756867, 43.6555589], [0.1757578, 43.6557471], [0.1758161, 43.6558611], [0.1758765, 43.655931], [0.1758369, 43.656044], [0.1756498, 43.6561891], [0.1756407, 43.6562807], [0.1777811, 43.6575581], [0.1784599, 43.6579633], [0.1786459, 43.6580166], [0.1793218, 43.6575397], [0.1794038, 43.657441], [0.17948, 43.6573238], [0.1795028, 43.6572874], [0.1795323, 43.6572375], [0.1795404, 43.6571812], [0.1795511, 43.6571157], [0.1795726, 43.6570609], [0.1796202, 43.6569973], [0.1797979, 43.6568668], [0.179877, 43.6568038], [0.1800046, 43.656714], [0.1801734, 43.6566408], [0.1803605, 43.6565631], [0.1805663, 43.656452], [0.1807111, 43.6563846], [0.1808721, 43.6563167], [0.1809338, 43.6562822], [0.1810317, 43.6562163], [0.1812161, 43.6560845], [0.1813395, 43.6559582], [0.1814501, 43.6558097], [0.1815688, 43.6556079], [0.1816436, 43.6554437], [0.1817089, 43.6553595], [0.1818585, 43.6552843], [0.1820455, 43.6552702], [0.1823399, 43.6552712], [0.1825636, 43.6552558], [0.1828782, 43.6552341], [0.1831298, 43.6552168], [0.1833547, 43.6551138], [0.1839762, 43.655084], [0.1841182, 43.6550374], [0.184599, 43.6547681], [0.1848511, 43.6546686], [0.1849015, 43.6545856], [0.1849195, 43.654478], [0.1849128, 43.6540942], [0.1849974, 43.6539965], [0.18518, 43.6537858], [0.1852696, 43.653708], [0.1853876, 43.6536222], [0.1856538, 43.6535275], [0.185981, 43.6533053], [0.18625, 43.6532159], [0.1865342, 43.6531967], [0.1868722, 43.6530763], [0.1870961, 43.6529573], [0.187638, 43.6524422], [0.1877325, 43.652302], [0.1878049, 43.6522574], [0.1884949, 43.6523248], [0.188855, 43.6523365], [0.1889549, 43.6523268], [0.1891682, 43.6522423], [0.1892272, 43.6521948], [0.1892822, 43.652124], [0.1893948, 43.6519066], [0.1903188, 43.6503725], [0.1904201, 43.6502846], [0.1905931, 43.6501759], [0.1906461, 43.650157], [0.1907426, 43.6501517], [0.1907761, 43.6501483], [0.1908144, 43.6501391], [0.1908655, 43.6501053], [0.1911422, 43.6499969], [0.1911946, 43.6499625], [0.1912375, 43.6499164], [0.1913951, 43.649815], [0.1916036, 43.6496665], [0.1917102, 43.6495884], [0.1916546, 43.6494719], [0.1914722, 43.6494564], [0.1911771, 43.649569], [0.1908821, 43.6497863], [0.1906943, 43.6498679], [0.190646, 43.6498368], [0.1906782, 43.6496932], [0.1905978, 43.649666], [0.1903886, 43.6498174], [0.1903081, 43.6498989], [0.1900852, 43.6498186], [0.1900667, 43.6497048], [0.1899755, 43.6496777], [0.1898092, 43.6497242], [0.189718, 43.6496427], [0.1897931, 43.6495224], [0.1900238, 43.6493322], [0.1900345, 43.6492274], [0.1898897, 43.6492196], [0.1896053, 43.6492352], [0.1893318, 43.6492196], [0.1888704, 43.6490993], [0.188393, 43.6489363], [0.1880282, 43.6489091], [0.1877385, 43.6489829], [0.1875615, 43.6490799], [0.1874323, 43.6493281], [0.187182, 43.649471], [0.1870526, 43.6495272], [0.1869185, 43.6496199], [0.1867982, 43.6497397], [0.1865378, 43.6501425]]]}}, {"type": "Feature", "properties": {"name": "Lac du Lizet"}, "geometry": {"type": "Polygon", "coordinates": [[[0.3666151, 43.577144], [0.3666296, 43.5771988], [0.366628, 43.5772343], [0.3666011, 43.5773283], [0.3665932, 43.577397], [0.3666364, 43.5774821], [0.369735, 43.5783556], [0.3699222, 43.5783341], [0.3700358, 43.5783137], [0.370169, 43.5782584], [0.3702944, 43.5781806], [0.37035, 43.5781806], [0.3704305, 43.5781515], [0.3704412, 43.5781709], [0.3704593, 43.5781763], [0.3704908, 43.578168], [0.3705525, 43.5781262], [0.3706786, 43.5780174], [0.3707819, 43.5779096], [0.3708275, 43.5778833], [0.3709133, 43.5778503], [0.3709951, 43.5778076], [0.3711315, 43.5777291], [0.3711547, 43.5777056], [0.3712124, 43.5775074], [0.3712472, 43.5774384], [0.3712981, 43.5774027], [0.3713357, 43.5773947], [0.3715932, 43.5774121], [0.3717233, 43.5773995], [0.3718429, 43.5773783], [0.3719071, 43.577348], [0.372068, 43.5772334], [0.3721029, 43.5771654], [0.3721008, 43.5770426], [0.3720666, 43.577008], [0.3717669, 43.5769054], [0.3716898, 43.5768661], [0.3716053, 43.5768078], [0.371431, 43.5767301], [0.3712928, 43.5766883], [0.3712351, 43.5766544], [0.3711453, 43.5764998], [0.3711547, 43.5764037], [0.3711951, 43.5763031], [0.3713774, 43.5759309], [0.3715624, 43.5757323], [0.3717005, 43.5756147], [0.3718199, 43.5755467], [0.3718652, 43.5755317], [0.371899, 43.5755467], [0.3719486, 43.5755506], [0.3722128, 43.5754573], [0.3723027, 43.5754078], [0.3723986, 43.5753631], [0.3725226, 43.5753242], [0.3727815, 43.575263], [0.3730671, 43.5752096], [0.3734352, 43.5751142], [0.3737095, 43.5750736], [0.373985, 43.5750428], [0.3741132, 43.575026], [0.3743496, 43.5749733], [0.3745142, 43.5749531], [0.3746402, 43.5749434], [0.3747502, 43.5749337], [0.3748253, 43.5749191], [0.3749688, 43.574923], [0.3752196, 43.5749201], [0.3753752, 43.5748695], [0.3754857, 43.5748179], [0.3755321, 43.5747724], [0.3755366, 43.5747173], [0.3754623, 43.5746315], [0.3752249, 43.5745188], [0.3751341, 43.5744871], [0.3749259, 43.5744605], [0.3747515, 43.574444], [0.3746107, 43.5744012], [0.3744927, 43.5743769], [0.3742915, 43.5742516], [0.3741882, 43.5741781], [0.3741521, 43.5741263], [0.3741312, 43.5740607], [0.3741641, 43.5739591], [0.3742218, 43.5738591], [0.3742431, 43.5737664], [0.3742459, 43.5736609], [0.3742486, 43.5736307], [0.3742735, 43.573612], [0.3743814, 43.5735831], [0.3744994, 43.5735394], [0.3746382, 43.5734919], [0.3748821, 43.5734834], [0.3750166, 43.5734663], [0.3752568, 43.5734432], [0.3754382, 43.5733929], [0.3755615, 43.5733332], [0.3756849, 43.5732263], [0.3756951, 43.5731411], [0.3756794, 43.5730454], [0.3756742, 43.5730138], [0.3755026, 43.5729496], [0.375461, 43.5729117], [0.375518, 43.5728017], [0.3755388, 43.57263], [0.3756219, 43.5725619], [0.3755683, 43.5722578], [0.3756005, 43.572082], [0.3756018, 43.5719294], [0.3755619, 43.5718039], [0.375457, 43.5718293], [0.3752955, 43.5718849], [0.3749742, 43.5720334], [0.3747717, 43.572114], [0.3745287, 43.57223], [0.3744431, 43.5722287], [0.374372, 43.5722063], [0.3742834, 43.5721078], [0.3742392, 43.571978], [0.3742178, 43.5719352], [0.3742225, 43.5718931], [0.3742553, 43.57184], [0.3743157, 43.5717603], [0.3744431, 43.5716612], [0.3744764, 43.5716249], [0.3744726, 43.5715903], [0.3744458, 43.5715466], [0.3743932, 43.5715017], [0.3742915, 43.5714582], [0.3740233, 43.571361], [0.3739875, 43.5713298], [0.3739133, 43.5711871], [0.373908, 43.570951], [0.3739222, 43.5705464], [0.3739513, 43.570367], [0.3740139, 43.5701406], [0.3740676, 43.5698928], [0.3740944, 43.569714], [0.374116, 43.5695044], [0.3741011, 43.5694128], [0.3740676, 43.5693526], [0.37403, 43.5691543], [0.3740354, 43.5690115], [0.3740823, 43.5688499], [0.374258, 43.5683041], [0.3743345, 43.5680845], [0.3743566, 43.568084], [0.3743673, 43.5680845], [0.3743854, 43.5680772], [0.3743995, 43.568051], [0.3744702, 43.5678323], [0.3744946, 43.5675626], [0.374482, 43.5674056], [0.3744162, 43.5672355], [0.3743452, 43.5671294], [0.3742022, 43.5670084], [0.3738475, 43.5666408], [0.3738128, 43.5665531], [0.3737877, 43.5663852], [0.3738061, 43.5662538], [0.3738651, 43.5660633], [0.3740609, 43.5656503], [0.3742487, 43.5654177], [0.3744914, 43.565216], [0.374718, 43.5649322], [0.3748837, 43.5646759], [0.3750171, 43.5643841], [0.3750439, 43.5642928], [0.3750657, 43.5640959], [0.3750452, 43.5640042], [0.37495, 43.5636971], [0.374954, 43.5636203], [0.3749634, 43.5635756], [0.374959, 43.5634172], [0.3749514, 43.5633288], [0.3748893, 43.5631743], [0.3748293, 43.5631043], [0.3745168, 43.5628409], [0.3744511, 43.5628235], [0.3743854, 43.5628011], [0.3743398, 43.5627758], [0.3741252, 43.5625572], [0.3739992, 43.5624299], [0.3738999, 43.5623094], [0.3738134, 43.5621815], [0.3737469, 43.5620839], [0.3736907, 43.5620322], [0.3734922, 43.5620246], [0.3731833, 43.5619908], [0.3722841, 43.5618384], [0.3722261, 43.5618347], [0.3721716, 43.5618574], [0.3721297, 43.56191], [0.3720784, 43.5620004], [0.3720358, 43.5621257], [0.3720197, 43.562255], [0.3720251, 43.5625825], [0.3720304, 43.5626689], [0.3720184, 43.5627224], [0.3718024, 43.5627166], [0.3717924, 43.5627297], [0.3718024, 43.5627506], [0.3720157, 43.5628108], [0.3719942, 43.5628633], [0.3719366, 43.5629459], [0.3719486, 43.5630703], [0.3719339, 43.5631111], [0.3719124, 43.5631636], [0.3718789, 43.5632083], [0.3718494, 43.5633074], [0.3718548, 43.5634512], [0.371883, 43.5636265], [0.3718829, 43.5640751], [0.3718749, 43.5641752], [0.3719781, 43.5644385], [0.371972, 43.5645322], [0.371789, 43.5648117], [0.3716791, 43.5649341], [0.3715906, 43.5651149], [0.3715879, 43.5651946], [0.3716496, 43.5652723], [0.3717005, 43.5654103], [0.3716925, 43.5654919], [0.3716308, 43.5656047], [0.3715557, 43.5656863], [0.371502, 43.5658573], [0.3713787, 43.5660789], [0.3713277, 43.5661372], [0.3713036, 43.566176], [0.3713089, 43.5663335], [0.3713247, 43.5663844], [0.3713304, 43.5664131], [0.3713787, 43.5664501], [0.3714028, 43.5665783], [0.3714028, 43.5667999], [0.3713784, 43.5668604], [0.3712606, 43.5669379], [0.3712016, 43.5670292], [0.3710997, 43.5672896], [0.3710487, 43.567379], [0.3710166, 43.5674111], [0.3710206, 43.56745], [0.3710521, 43.5674728], [0.3710829, 43.567482], [0.3711158, 43.5675044], [0.371144, 43.5675117], [0.3711668, 43.5675335], [0.3711651, 43.5675643], [0.3711641, 43.5675812], [0.3711507, 43.5676084], [0.3710783, 43.5676628], [0.3710085, 43.5677279], [0.3709817, 43.5677638], [0.3709629, 43.5678882], [0.370983, 43.5679737], [0.3709893, 43.5682864], [0.3709468, 43.5685198], [0.3709374, 43.5687239], [0.3709388, 43.5689454], [0.3708811, 43.5691223], [0.3708342, 43.5693302], [0.3707953, 43.5694186], [0.370726, 43.5694797], [0.3706183, 43.5695401], [0.3702535, 43.5696897], [0.3701542, 43.5697636], [0.3700939, 43.5697898], [0.3700362, 43.5698073], [0.3699893, 43.5698112], [0.369937, 43.5698345], [0.3698565, 43.569886], [0.3698297, 43.5699258], [0.3698136, 43.5699676], [0.3698203, 43.5700415], [0.3698686, 43.5701221], [0.3698981, 43.5702154], [0.369941, 43.5702834], [0.3699933, 43.5703194], [0.3700456, 43.5703631], [0.3701033, 43.5704195], [0.3702283, 43.5705101], [0.3702575, 43.5705565], [0.3702562, 43.5705846], [0.3701636, 43.5706974], [0.3701355, 43.5707595], [0.3701422, 43.5707741], [0.3701676, 43.5707926], [0.3702736, 43.5708052], [0.3703192, 43.5708256], [0.3703339, 43.570846], [0.3703299, 43.5708713], [0.3702711, 43.5710166], [0.3702481, 43.5714601], [0.3702575, 43.5716593], [0.370257, 43.5718506], [0.3703192, 43.5720382], [0.3703111, 43.5720703], [0.3703889, 43.5721801], [0.3704359, 43.5722928], [0.3704399, 43.5723608], [0.3705271, 43.5725338], [0.3708583, 43.5728476], [0.3709576, 43.5729613], [0.3710018, 43.5730682], [0.3709924, 43.5731342], [0.3709278, 43.5732149], [0.3707001, 43.5733684], [0.3703988, 43.573536], [0.3702649, 43.5735613], [0.3701429, 43.5735448], [0.370063, 43.5735268], [0.3700194, 43.5735277], [0.3699967, 43.5735583], [0.3699571, 43.5735715], [0.3699283, 43.5735671], [0.3698324, 43.5735404], [0.369726, 43.5735192], [0.3694549, 43.573507], [0.3692825, 43.57352], [0.3691551, 43.5735511], [0.3690223, 43.5736026], [0.3689746, 43.5736487], [0.3689378, 43.5737415], [0.3689177, 43.5738717], [0.3688587, 43.5739387], [0.3686871, 43.5742458], [0.3686165, 43.5743414], [0.3685234, 43.5744255], [0.3683987, 43.5745256], [0.368225, 43.5746485], [0.3681238, 43.5747442], [0.3680071, 43.5749026], [0.3679472, 43.575021], [0.3679481, 43.5750843], [0.3680447, 43.5751902], [0.3680769, 43.5752553], [0.3680768, 43.5753372], [0.3678073, 43.5755895], [0.3676826, 43.5756585], [0.3676073, 43.575713], [0.3674801, 43.5757449], [0.3673728, 43.5757294], [0.3673245, 43.5757313], [0.367244, 43.5757508], [0.3671362, 43.575767], [0.3668685, 43.5757284], [0.3665695, 43.5756623], [0.3663415, 43.5756235], [0.366151, 43.5755836], [0.3660773, 43.5755535], [0.3659767, 43.5755283], [0.3659043, 43.5755477], [0.3657702, 43.575605], [0.3656065, 43.5756555], [0.3654493, 43.5756949], [0.3652927, 43.5757119], [0.3652391, 43.5756896], [0.3650714, 43.5756031], [0.3649279, 43.5755574], [0.3647938, 43.5755244], [0.3647093, 43.5755302], [0.364586, 43.5755768], [0.3644559, 43.5756604], [0.3643392, 43.5757216], [0.3642159, 43.5757752], [0.3640991, 43.5758032], [0.3639396, 43.5758032], [0.3637317, 43.5758372], [0.3636956, 43.5758638], [0.3636794, 43.5759004], [0.3636767, 43.5759597], [0.3637062, 43.5760141], [0.3637533, 43.5760644], [0.3641367, 43.5762735], [0.3645551, 43.5764484], [0.3647992, 43.5765358], [0.3650674, 43.5766155], [0.3653973, 43.5767301], [0.3656468, 43.5768525], [0.3657889, 43.5768992], [0.3658774, 43.576903], [0.3662503, 43.5769594], [0.3663334, 43.5769924], [0.3664407, 43.5770915], [0.366497, 43.5771168], [0.3665748, 43.5771246], [0.3666151, 43.577144]]]}}, {"type": "Feature", "properties": {"name": "Lac de Marciac"}, "geometry": {"type": "Polygon", "coordinates": [[[0.161565, 43.532668], [0.1615255, 43.5325363], [0.1614994, 43.5325173], [0.1614948, 43.532485], [0.1615101, 43.5324661], [0.1609267, 43.5312685], [0.1608938, 43.5312391], [0.1608337, 43.5311854], [0.1605649, 43.5310562], [0.1604974, 43.5310034], [0.1604581, 43.5309543], [0.1604167, 43.5309376], [0.1603468, 43.5308975], [0.1603055, 43.5309288], [0.1602392, 43.5309448], [0.1601786, 43.5309409], [0.1601279, 43.5309175], [0.1600902, 43.5308797], [0.1600825, 43.5308304], [0.1598251, 43.5307134], [0.1596817, 43.5307079], [0.1595894, 43.5307124], [0.1595634, 43.5307137], [0.1595698, 43.5307394], [0.1593656, 43.5307913], [0.1593765, 43.5308126], [0.1593526, 43.530848], [0.1592983, 43.530863], [0.1592494, 43.5308473], [0.1592288, 43.5308102], [0.1592559, 43.5307732], [0.1592288, 43.5307197], [0.1589771, 43.5307787], [0.159009, 43.5308557], [0.1591104, 43.5308449], [0.1591224, 43.530872], [0.158939, 43.5309199], [0.1586395, 43.530998], [0.1586426, 43.5310782], [0.1585243, 43.5312898], [0.1586246, 43.5316529], [0.1586189, 43.5317235], [0.1585765, 43.5317987], [0.158277, 43.5320003], [0.1580696, 43.5321172], [0.1580837, 43.5321572], [0.1580274, 43.5321863], [0.1579659, 43.5322091], [0.157906, 43.5322247], [0.1578446, 43.5322347], [0.1577707, 43.5322363], [0.1577601, 43.5322091], [0.1575092, 43.5321902], [0.1568799, 43.531997], [0.1563154, 43.5317568], [0.1561213, 43.5316742], [0.1560449, 43.531728], [0.1559989, 43.5319095], [0.1559373, 43.5319952], [0.1558244, 43.5320917], [0.1552271, 43.5323686], [0.1547714, 43.5325376], [0.1544267, 43.5326428], [0.1542214, 43.5327366], [0.1541584, 43.5327815], [0.1540879, 43.5328454], [0.1540468, 43.5329462], [0.1540272, 43.5330228], [0.1540233, 43.5331974], [0.1540331, 43.5333691], [0.154113, 43.5337004], [0.1541525, 43.5338302], [0.1541607, 43.5339799], [0.154159, 43.5342257], [0.1541905, 43.534317], [0.1541658, 43.5345016], [0.1540504, 43.5347277], [0.1539065, 43.5349639], [0.1537483, 43.5351525], [0.1535903, 43.5353121], [0.153488, 43.5353674], [0.1533243, 43.5353946], [0.1531717, 43.5353817], [0.1529876, 43.5353193], [0.1528819, 43.5352909], [0.1528036, 43.5352895], [0.152626, 43.535307], [0.1524472, 43.5353438], [0.1523417, 43.5354145], [0.1521215, 43.5356159], [0.1518437, 43.535666], [0.1516374, 43.5356754], [0.1514098, 43.5356736], [0.1512881, 43.5357079], [0.1511535, 43.5357588], [0.1510175, 43.5358451], [0.1509139, 43.5360384], [0.1507833, 43.5363944], [0.150699, 43.536652], [0.150701, 43.5367385], [0.1507364, 43.5368825], [0.1510904, 43.5374526], [0.1511632, 43.5375446], [0.1512483, 43.5376128], [0.1512947, 43.5376305], [0.1513549, 43.5376271], [0.1514327, 43.5375927], [0.1515217, 43.5375215], [0.1520109, 43.5370264], [0.152246, 43.5367936], [0.1525922, 43.5365555], [0.1528095, 43.5364334], [0.1530327, 43.5363341], [0.1580451, 43.5345517], [0.158487, 43.5343911], [0.1584674, 43.5343428], [0.1585125, 43.5343329], [0.1585438, 43.5343754], [0.1595364, 43.53411], [0.1597302, 43.5339993], [0.1599845, 43.5338386], [0.1608525, 43.533563], [0.161172, 43.5334143], [0.1612682, 43.5332746], [0.1613957, 43.5330797], [0.1614787, 43.5330964], [0.1615325, 43.5330078], [0.1615677, 43.5328125], [0.161565, 43.532668]]]}}, {"type": "Feature", "properties": {"name": "Lac de la Castagnère"}, "geometry": {"type": "Polygon", "coordinates": [[[0.4979066, 43.6065004], [0.4979948, 43.606405], [0.4980475, 43.6063726], [0.4981401, 43.606346], [0.4982695, 43.6062952], [0.4983381, 43.6062258], [0.4984355, 43.6060246], [0.4984659, 43.6058986], [0.4984755, 43.6058535], [0.4985026, 43.6058095], [0.4985808, 43.6057818], [0.4987166, 43.6057748], [0.498897, 43.6057633], [0.4989992, 43.6057355], [0.4990375, 43.6057101], [0.4990423, 43.6056789], [0.4990779, 43.6056549], [0.4991445, 43.6056095], [0.4992154, 43.605546], [0.4992631, 43.6054498], [0.4993684, 43.6051659], [0.4994197, 43.6050549], [0.499521, 43.6048332], [0.4995624, 43.6046979], [0.4996707, 43.6045342], [0.4997559, 43.6043812], [0.4998556, 43.6042348], [0.4999404, 43.6041355], [0.5001867, 43.6038475], [0.5003113, 43.6036258], [0.5004419, 43.6033689], [0.5005153, 43.6031222], [0.5004886, 43.6030204], [0.5004486, 43.6029204], [0.5003499, 43.6027994], [0.5001797, 43.602693], [0.5000442, 43.602641], [0.4998755, 43.6026209], [0.4996607, 43.6026376], [0.499652, 43.6026284], [0.4996468, 43.6025926], [0.4996643, 43.6025341], [0.4996657, 43.602527], [0.4996962, 43.6025007], [0.4997078, 43.602472], [0.499765, 43.6024653], [0.4999584, 43.6025014], [0.5001263, 43.6024987], [0.5002921, 43.6024695], [0.5006068, 43.6023971], [0.5008138, 43.6023183], [0.5009715, 43.6022283], [0.5010579, 43.6021607], [0.5012221, 43.601992], [0.5013544, 43.6019312], [0.5014858, 43.6018126], [0.5015223, 43.6017298], [0.5015701, 43.6016928], [0.5015904, 43.6016529], [0.5018214, 43.6014338], [0.5020247, 43.6012318], [0.5023438, 43.6010444], [0.5024852, 43.6009633], [0.5026369, 43.6009726], [0.5028269, 43.6010362], [0.5029067, 43.6010628], [0.5030536, 43.6010339], [0.5032229, 43.6009472], [0.503274, 43.6009437], [0.5033268, 43.6009657], [0.5033219, 43.6010212], [0.5032708, 43.6011287], [0.5032341, 43.6012293], [0.5032325, 43.6012964], [0.5032628, 43.6014351], [0.5033075, 43.6015103], [0.503349, 43.6015913], [0.5033506, 43.6016456], [0.5033315, 43.6017242], [0.5033043, 43.6017578], [0.5032324, 43.6018079], [0.5031268, 43.6019252], [0.5030946, 43.6020498], [0.5030966, 43.60217], [0.5030832, 43.6023622], [0.5030596, 43.6024314], [0.5030088, 43.6025483], [0.5026514, 43.6029576], [0.5025064, 43.6032603], [0.5024571, 43.6034398], [0.5024013, 43.6037271], [0.5024048, 43.6039161], [0.502508, 43.6041797], [0.5025442, 43.6043457], [0.5024939, 43.6044385], [0.5022981, 43.6046749], [0.5020733, 43.6048666], [0.501828, 43.605118], [0.5016099, 43.6054311], [0.5014944, 43.6056914], [0.5014343, 43.6059866], [0.5014357, 43.606274], [0.5015296, 43.6065199], [0.5015731, 43.6065979], [0.5017082, 43.6068365], [0.5017796, 43.6069877], [0.5017673, 43.6070842], [0.5016898, 43.6072295], [0.5015711, 43.6073406], [0.5014345, 43.6074393], [0.5012586, 43.6075956], [0.5010763, 43.6078308], [0.500909, 43.6080265], [0.5007277, 43.608194], [0.5004767, 43.6083647], [0.5002817, 43.608507], [0.5002339, 43.6086647], [0.5002537, 43.6088453], [0.5003256, 43.6089434], [0.5004334, 43.6089803], [0.5007029, 43.6089846], [0.5009924, 43.6089541], [0.5014311, 43.6089107], [0.5014939, 43.6089446], [0.5015162, 43.609037], [0.5014236, 43.6091629], [0.5012165, 43.6093384], [0.5010232, 43.6094261], [0.5007872, 43.6095604], [0.500665, 43.6096896], [0.5005331, 43.6098805], [0.5004428, 43.6101106], [0.5003835, 43.6102218], [0.5003075, 43.6102401], [0.500128, 43.6102519], [0.4969891, 43.6100681], [0.4969255, 43.6100611], [0.4968785, 43.6100326], [0.4967908, 43.609925], [0.4966595, 43.6098225], [0.4962345, 43.6096073], [0.495899, 43.6094863], [0.4957297, 43.6094045], [0.4955999, 43.6093348], [0.4954321, 43.6092781], [0.4952991, 43.6092154], [0.4952654, 43.6091619], [0.4952687, 43.6090867], [0.4954053, 43.6089731], [0.4954701, 43.6089136], [0.4955686, 43.608872], [0.4958577, 43.6088679], [0.495982, 43.6088386], [0.4960859, 43.6087986], [0.4961715, 43.6087437], [0.4964145, 43.6084253], [0.4965574, 43.6082269], [0.496832, 43.607767], [0.4969746, 43.6075483], [0.497093, 43.6074075], [0.4972118, 43.6073092], [0.4973821, 43.6071907], [0.4975142, 43.6071097], [0.4975741, 43.6071008], [0.4976709, 43.6070728], [0.4977237, 43.6070184], [0.4977496, 43.6069518], [0.4978201, 43.6067058], [0.4979066, 43.6065004]]]}}, {"type": "Feature", "properties": {"name": "Lac de Bousquètara"}, "geometry": {"type": "Polygon", "coordinates": [[[0.4294931, 43.9630581], [0.4290086, 43.9634997], [0.4285741, 43.9640074], [0.4282951, 43.964243], [0.4278257, 43.9649303], [0.4273322, 43.9655056], [0.427072, 43.965689], [0.4268387, 43.9657527], [0.4264498, 43.9657662], [0.4252347, 43.9656059], [0.4242799, 43.9653608], [0.4235852, 43.9650944], [0.423046, 43.9649573], [0.4228851, 43.9649283], [0.4227054, 43.9649515], [0.42292, 43.9651581], [0.4234001, 43.9654998], [0.424186, 43.9658839], [0.4244623, 43.9661195], [0.4255244, 43.9667681], [0.4256773, 43.9669901], [0.4256934, 43.9672025], [0.4255512, 43.96766], [0.4255754, 43.9679457], [0.4255164, 43.9681445], [0.4251677, 43.9687468], [0.4250536, 43.9692565], [0.4250822, 43.9697425], [0.4251374, 43.9698299], [0.4252568, 43.9704593], [0.4265337, 43.9705627], [0.4276119, 43.97065], [0.4277459, 43.9701826], [0.4278398, 43.9699798], [0.4278398, 43.9698347], [0.4279896, 43.96952], [0.427976, 43.9693303], [0.4280326, 43.9691279], [0.428166, 43.9688972], [0.4281301, 43.9688217], [0.4279405, 43.9685634], [0.427935, 43.9683189], [0.4278659, 43.9681797], [0.4279819, 43.9677703], [0.4279985, 43.9676411], [0.4280055, 43.9669843], [0.4284292, 43.9664187], [0.4292205, 43.965494], [0.4294994, 43.9652932], [0.4299071, 43.9648221], [0.4299796, 43.9642932], [0.4301217, 43.9640654], [0.4302853, 43.9639785], [0.4304624, 43.9638433], [0.4308754, 43.9636561], [0.4314736, 43.9631252], [0.4315084, 43.9629263], [0.4318625, 43.9625923], [0.4321173, 43.9622216], [0.4321736, 43.962015], [0.4322433, 43.9618336], [0.4325169, 43.9617003], [0.43293, 43.9612312], [0.4331097, 43.9608431], [0.4334262, 43.960401], [0.4336542, 43.9599048], [0.4336783, 43.9596943], [0.4336837, 43.9589722], [0.4333162, 43.9592831], [0.4330695, 43.9594356], [0.4329166, 43.9597021], [0.4326349, 43.9600245], [0.4322723, 43.9606582], [0.4321521, 43.9608682], [0.4320475, 43.9611153], [0.4315433, 43.9614204], [0.4312563, 43.961905], [0.4310068, 43.9619359], [0.4306501, 43.9623819], [0.4302639, 43.9627371], [0.429832, 43.9629688], [0.4294931, 43.9630581]]]}}, {"type": "Feature", "properties": {"name": "Lac de l'Astarac"}, "geometry": {"type": "Polygon", "coordinates": [[[0.6308294, 43.3793006], [0.6305895, 43.3793441], [0.6295238, 43.3793027], [0.6282121, 43.3789582], [0.6271736, 43.3785213], [0.6261461, 43.3782988], [0.6251624, 43.3779624], [0.6243679, 43.3774173], [0.6238071, 43.3767378], [0.6235782, 43.375891], [0.6229352, 43.3751723], [0.6224017, 43.3748333], [0.621588, 43.3745688], [0.621256, 43.3740117], [0.6210551, 43.3732534], [0.620464, 43.3721463], [0.6198079, 43.3715828], [0.6181353, 43.3708916], [0.6177708, 43.3708507], [0.617539, 43.3708683], [0.6164739, 43.3727276], [0.6171627, 43.3730985], [0.6173148, 43.3731391], [0.6176344, 43.3733477], [0.6176162, 43.3735491], [0.6179236, 43.3738098], [0.6178519, 43.3741034], [0.6173831, 43.3742553], [0.617035, 43.3743194], [0.6166869, 43.374375], [0.6165392, 43.3744613], [0.617064, 43.374513], [0.6171895, 43.3744895], [0.6174349, 43.3747638], [0.6176882, 43.3748364], [0.617907, 43.3750055], [0.618061, 43.3752555], [0.6182301, 43.3753861], [0.6184155, 43.3756823], [0.6183271, 43.3758509], [0.6185095, 43.3760119], [0.6188718, 43.3760576], [0.6192161, 43.3762975], [0.619453, 43.3769436], [0.6197568, 43.3772049], [0.6200776, 43.3776453], [0.6200619, 43.3780411], [0.6198681, 43.3782763], [0.6200453, 43.3784594], [0.6208621, 43.3781825], [0.6213736, 43.3784928], [0.6200798, 43.3794021], [0.6201107, 43.3796569], [0.6202733, 43.3796191], [0.6215888, 43.3793128], [0.6227138, 43.3800788], [0.6235042, 43.3806579], [0.6241716, 43.380895], [0.6247574, 43.3810076], [0.6254675, 43.3813231], [0.6255578, 43.3819668], [0.6254275, 43.3822189], [0.625366, 43.382386], [0.6256413, 43.3822035], [0.6259196, 43.3820489], [0.6262993, 43.3819192], [0.6266729, 43.3821795], [0.627196, 43.3823749], [0.6273818, 43.3826092], [0.6272937, 43.382806], [0.627286, 43.3828233], [0.6273585, 43.3829134], [0.6277602, 43.3828479], [0.628053, 43.3827124], [0.6287178, 43.3829534], [0.6295403, 43.3836139], [0.6299388, 43.3851618], [0.6297637, 43.3857818], [0.6295886, 43.3861627], [0.6294268, 43.3863209], [0.6293989, 43.3863482], [0.6299204, 43.3866859], [0.6300007, 43.3867961], [0.6303326, 43.3873621], [0.630853, 43.3882028], [0.6314616, 43.388365], [0.6320874, 43.3888715], [0.6324183, 43.3895811], [0.6323811, 43.3897448], [0.6324457, 43.3899256], [0.6319774, 43.3901589], [0.6325703, 43.3904066], [0.6331716, 43.3903785], [0.6382228, 43.3888308], [0.63827, 43.3888163], [0.6383055, 43.3888054], [0.6383445, 43.3885983], [0.6384354, 43.3881158], [0.6384804, 43.3878071], [0.6384905, 43.3874658], [0.6385511, 43.387348], [0.6386427, 43.3872757], [0.6392988, 43.3868587], [0.6402898, 43.38628], [0.6403129, 43.3862121], [0.6402502, 43.386132], [0.6402027, 43.3860739], [0.6400895, 43.3860417], [0.6394612, 43.3862059], [0.6390288, 43.386319], [0.6389575, 43.38633], [0.6388222, 43.3863093], [0.6386959, 43.3862703], [0.6383925, 43.3858734], [0.6381012, 43.3853621], [0.6380949, 43.3851139], [0.6381252, 43.3849773], [0.6382723, 43.3848315], [0.6383932, 43.3846678], [0.6384022, 43.3845706], [0.6383651, 43.3844682], [0.6381771, 43.3843818], [0.6379201, 43.3842808], [0.6376734, 43.3841493], [0.6375814, 43.3840203], [0.6375739, 43.3838963], [0.6374312, 43.3836999], [0.6373494, 43.3834923], [0.637308, 43.3833873], [0.6371783, 43.3830463], [0.6371184, 43.3827915], [0.6369427, 43.3824399], [0.6369323, 43.3822628], [0.6370163, 43.3821079], [0.6372561, 43.3818444], [0.6375579, 43.3816426], [0.6378166, 43.3815191], [0.6380236, 43.3814202], [0.6383997, 43.3813165], [0.6387593, 43.381278], [0.6387953, 43.3812741], [0.6388193, 43.3812502], [0.6388056, 43.381221], [0.6387197, 43.3811311], [0.6386811, 43.3810109], [0.6385835, 43.380974], [0.6380223, 43.3809459], [0.6377665, 43.3809331], [0.6377188, 43.3809276], [0.6376885, 43.3808891], [0.6377219, 43.3808081], [0.6377652, 43.3807421], [0.6378111, 43.380621], [0.637805, 43.3805543], [0.6377666, 43.3805007], [0.6375413, 43.3804464], [0.6374106, 43.3804454], [0.6371969, 43.3805893], [0.6370554, 43.3806845], [0.6368786, 43.3808199], [0.6366344, 43.3809335], [0.6364842, 43.3810634], [0.6362417, 43.3811215], [0.6361153, 43.3811042], [0.6359456, 43.3810465], [0.6358463, 43.38094], [0.6357517, 43.3807586], [0.6356479, 43.3807555], [0.6355146, 43.380685], [0.6353674, 43.3805688], [0.6352223, 43.3804175], [0.6351503, 43.3801883], [0.6352826, 43.3799353], [0.635328, 43.3797719], [0.6353619, 43.3796607], [0.6353842, 43.379588], [0.6355441, 43.3792848], [0.6357234, 43.3790503], [0.6357387, 43.3790302], [0.6362121, 43.378452], [0.6364283, 43.3782163], [0.636584, 43.3780529], [0.6366856, 43.3779115], [0.6367569, 43.3777324], [0.6368931, 43.377426], [0.6369904, 43.3771337], [0.6370055, 43.3769341], [0.6370077, 43.3767896], [0.6370617, 43.3766733], [0.6371482, 43.3765633], [0.6372606, 43.376502], [0.6373492, 43.3763669], [0.6373557, 43.3762836], [0.6372974, 43.3761626], [0.6372303, 43.3760636], [0.6371958, 43.3759536], [0.6372044, 43.3757478], [0.6372152, 43.3755702], [0.6372844, 43.3754257], [0.6373817, 43.3753204], [0.6375416, 43.3751884], [0.6377232, 43.3750501], [0.6379156, 43.3747123], [0.6380172, 43.3744498], [0.6380237, 43.3742471], [0.6380151, 43.3741073], [0.6380021, 43.3737254], [0.6379308, 43.3734049], [0.6378616, 43.3732823], [0.6378292, 43.3731644], [0.6377859, 43.3730246], [0.63776, 43.3728832], [0.6378011, 43.372616], [0.637747, 43.3725123], [0.6376519, 43.3724274], [0.6374725, 43.3723347], [0.6372433, 43.3722184], [0.6370877, 43.3721493], [0.6369428, 43.3720629], [0.6368477, 43.371967], [0.6367439, 43.3718837], [0.6364824, 43.3717737], [0.6362171, 43.3717476], [0.63613, 43.371659], [0.6358177, 43.3715943], [0.6353524, 43.3714629], [0.6352075, 43.3714499], [0.6350346, 43.3716], [0.6348923, 43.3717349], [0.6348283, 43.3718401], [0.6347551, 43.3720676], [0.6347709, 43.3721802], [0.6348748, 43.3722691], [0.6350032, 43.3723735], [0.6350705, 43.3724447], [0.6350766, 43.3724824], [0.6350552, 43.372518], [0.6349788, 43.3725224], [0.6349451, 43.372558], [0.6350369, 43.372698], [0.6351255, 43.3728691], [0.6351775, 43.373098], [0.6351316, 43.3733358], [0.635046, 43.3734203], [0.635046, 43.3735403], [0.6350674, 43.3736847], [0.6351041, 43.3739114], [0.6350827, 43.3740292], [0.6350002, 43.3743914], [0.6350308, 43.3746025], [0.6350124, 43.3748003], [0.6349482, 43.3749936], [0.6348657, 43.3750581], [0.6347434, 43.375127], [0.6343815, 43.3749813], [0.6340817, 43.3749469], [0.6340072, 43.3752354], [0.6344465, 43.3753625], [0.6344743, 43.3755225], [0.6343001, 43.3756759], [0.6341961, 43.3757425], [0.6341961, 43.3758492], [0.6341533, 43.3759625], [0.6339882, 43.3761492], [0.6337192, 43.3763825], [0.6334746, 43.3765181], [0.6332331, 43.3765447], [0.6329671, 43.376687], [0.632689, 43.3768615], [0.6324426, 43.3769804], [0.6322336, 43.3773265], [0.6321651, 43.3774399], [0.6318586, 43.3773362], [0.6316528, 43.3779056], [0.6314275, 43.3783272], [0.6313987, 43.3786069], [0.6313345, 43.3786936], [0.6311511, 43.3789847], [0.6309707, 43.3791802], [0.6309065, 43.3792646], [0.6308294, 43.3793006]]]}}, {"type": "Feature", "properties": {"name": "Lac de la Baradée"}, "geometry": {"type": "Polygon", "coordinates": [[[0.2747413, 43.5946664], [0.2747011, 43.5947849], [0.274559, 43.5948587], [0.2744383, 43.5948646], [0.2743605, 43.5948315], [0.274343, 43.5947723], [0.2742814, 43.5947577], [0.2742679, 43.5950171], [0.2739099, 43.595627], [0.2736792, 43.5959155], [0.2736229, 43.5960621], [0.2736229, 43.5961874], [0.2737232, 43.596287], [0.2737932, 43.5965303], [0.2738053, 43.5967945], [0.2738133, 43.5973461], [0.2737892, 43.5974102], [0.2737167, 43.5975005], [0.2736902, 43.5975991], [0.2738804, 43.5980376], [0.2743551, 43.5987243], [0.274516, 43.5988787], [0.2747754, 43.5991876], [0.2748393, 43.5992905], [0.2748822, 43.5993857], [0.2748835, 43.5996528], [0.2748505, 43.6000187], [0.2748191, 43.6000966], [0.2747246, 43.6002102], [0.274567, 43.600318], [0.2743618, 43.6004142], [0.2741969, 43.6004686], [0.2740949, 43.6004821], [0.2740815, 43.6005326], [0.2741379, 43.6006065], [0.2741513, 43.6007016], [0.2740949, 43.6007988], [0.2739528, 43.6008842], [0.273883, 43.6009231], [0.2738509, 43.60096], [0.2738039, 43.6010901], [0.2737665, 43.6011604], [0.2732232, 43.6017359], [0.2729724, 43.6021001], [0.2728035, 43.6024177], [0.272412, 43.6030169], [0.272271, 43.6030868], [0.271406, 43.6031412], [0.2709205, 43.6030334], [0.2707958, 43.6029994], [0.2707127, 43.6030091], [0.2706483, 43.603046], [0.2706617, 43.6031276], [0.2708052, 43.6035374], [0.2707167, 43.6036967], [0.2705933, 43.6037812], [0.2705518, 43.6038317], [0.2705437, 43.6038705], [0.2706376, 43.6039453], [0.2707408, 43.6039637], [0.2708961, 43.6039683], [0.2718673, 43.6038443], [0.2719612, 43.6038569], [0.2721423, 43.6039443], [0.272429, 43.6045476], [0.2725855, 43.6051701], [0.2726639, 43.6057358], [0.2726868, 43.6059011], [0.2726861, 43.6060114], [0.272723, 43.606107], [0.2727719, 43.6061837], [0.2729121, 43.6063536], [0.2731617, 43.6066312], [0.2733139, 43.6068809], [0.2735124, 43.6070777], [0.2735544, 43.6071179], [0.2736158, 43.6071559], [0.2775255, 43.6066741], [0.2776426, 43.606567], [0.2776545, 43.6064466], [0.2775429, 43.6059516], [0.2774659, 43.6057048], [0.2774293, 43.6053665], [0.2774753, 43.6050698], [0.2773821, 43.6049283], [0.2770373, 43.6047115], [0.2768255, 43.6046055], [0.2764821, 43.604393], [0.2763682, 43.6042811], [0.2763171, 43.6041696], [0.2762067, 43.6037817], [0.2761857, 43.6035908], [0.2762528, 43.603405], [0.2763164, 43.6033486], [0.2772615, 43.6029298], [0.2776502, 43.6027314], [0.2779544, 43.6024786], [0.2780986, 43.6023296], [0.2781121, 43.6022539], [0.2780991, 43.6021864], [0.2779506, 43.6021001], [0.2778648, 43.602002], [0.277918, 43.6014979], [0.277863, 43.6010067], [0.2778819, 43.6009335], [0.2780083, 43.6007929], [0.2780869, 43.6006537], [0.2780874, 43.6006181], [0.2780096, 43.6005967], [0.277902, 43.6006162], [0.2778527, 43.6005967], [0.2777694, 43.600492], [0.2777668, 43.6003988], [0.2778721, 43.6001506], [0.2782671, 43.5996304], [0.2783665, 43.5993475], [0.2784292, 43.598838], [0.2784763, 43.5987544], [0.2784817, 43.5986718], [0.2784539, 43.5986398], [0.277705, 43.5984342], [0.2774626, 43.5983062], [0.2773044, 43.5981444], [0.2772742, 43.5980456], [0.2773099, 43.5979409], [0.2774214, 43.5978362], [0.2775925, 43.5977647], [0.2777106, 43.5976841], [0.2777749, 43.5976064], [0.2778791, 43.5975244], [0.2779989, 43.5973723], [0.2781035, 43.5971694], [0.2781154, 43.5970822], [0.2780606, 43.5970683], [0.2779473, 43.5970758], [0.2778353, 43.5971412], [0.2774161, 43.5972865], [0.277361, 43.5972569], [0.2772375, 43.5965624], [0.277036, 43.5961321], [0.2769716, 43.5960825], [0.2768718, 43.595883], [0.2767597, 43.5955988], [0.2767437, 43.5955337], [0.276757, 43.5954366], [0.2769752, 43.5950926], [0.2770373, 43.5948383], [0.2770861, 43.5947213], [0.2772143, 43.5940662], [0.2771741, 43.5939496], [0.2771071, 43.593938], [0.2769971, 43.5940293], [0.2769113, 43.5940778], [0.2768281, 43.5940817], [0.2767879, 43.5940467], [0.2768657, 43.5938991], [0.2768952, 43.5937826], [0.2767932, 43.5937923], [0.276525, 43.5939127], [0.27601, 43.5943323], [0.2757794, 43.5945499], [0.2757069, 43.5946353], [0.275597, 43.5946606], [0.2754521, 43.5946761], [0.2752671, 43.59468], [0.2751625, 43.5946528], [0.2750793, 43.5946237], [0.2750498, 43.5945732], [0.2750062, 43.5945402], [0.2749508, 43.5945262], [0.2748647, 43.5945246], [0.2747562, 43.5945578], [0.2747414, 43.5945771], [0.2747413, 43.5946664]]]}}, {"type": "Feature", "properties": {"name": "Lac de Saint-Laurent"}, "geometry": {"type": "Polygon", "coordinates": [[[0.2327547, 43.6036806], [0.2327884, 43.6036396], [0.2327814, 43.6035863], [0.2327634, 43.6034632], [0.232695, 43.6030017], [0.2328425, 43.6027545], [0.2328824, 43.6026252], [0.2329311, 43.6024439], [0.2329713, 43.6022069], [0.2331591, 43.6019331], [0.2331832, 43.6017058], [0.2332288, 43.6013465], [0.2332261, 43.6011775], [0.2331215, 43.6005831], [0.2331001, 43.6003598], [0.2329901, 43.6002578], [0.2328157, 43.6001869], [0.2326917, 43.6001486], [0.2325571, 43.6000392], [0.2324502, 43.5999037], [0.2323316, 43.5996392], [0.2322339, 43.5995068], [0.2321848, 43.5993466], [0.2321801, 43.5992254], [0.2322069, 43.5991283], [0.2322543, 43.5985715], [0.2322243, 43.5984873], [0.2322056, 43.598402], [0.2322605, 43.5983824], [0.2323464, 43.5982445], [0.2325046, 43.5978502], [0.2327755, 43.597452], [0.2327832, 43.5971379], [0.2327473, 43.5969994], [0.2326773, 43.5968847], [0.2325301, 43.5967362], [0.2324107, 43.5966051], [0.2322981, 43.596403], [0.2321532, 43.5959796], [0.2321023, 43.5957251], [0.2319977, 43.5955561], [0.2316248, 43.5952006], [0.2315551, 43.5950083], [0.2315202, 43.5947791], [0.2314827, 43.5944129], [0.2314264, 43.59441], [0.2313419, 43.5943925], [0.2312332, 43.5942468], [0.2310133, 43.5941342], [0.2306056, 43.5941575], [0.2303588, 43.5944333], [0.2302408, 43.5947597], [0.2303803, 43.5951831], [0.2302462, 43.5956105], [0.2303052, 43.5959019], [0.2302194, 43.5962554], [0.2303106, 43.5968654], [0.2302837, 43.5973005], [0.2301818, 43.5977511], [0.2302784, 43.598128], [0.2302328, 43.598229], [0.2301148, 43.5982872], [0.229876, 43.5982387], [0.2295327, 43.598262], [0.2292886, 43.5984349], [0.2291721, 43.5988344], [0.229184, 43.5988933], [0.2292404, 43.5989943], [0.2293691, 43.599138], [0.2295649, 43.5992779], [0.2298921, 43.5997596], [0.2300906, 43.6003734], [0.2300423, 43.6006103], [0.2297205, 43.6010027], [0.2297044, 43.6012086], [0.2298117, 43.6019933], [0.229817, 43.6021526], [0.229758, 43.6024517], [0.229581, 43.6026712], [0.2293101, 43.6027799], [0.2288166, 43.6028906], [0.2284598, 43.6029528], [0.2279422, 43.6030169], [0.2274325, 43.6031315], [0.226872, 43.6032422], [0.2265018, 43.6032869], [0.2260539, 43.6034238], [0.2260458, 43.6034869], [0.2260753, 43.6035355], [0.2262068, 43.6035685], [0.2264589, 43.6035374], [0.2266869, 43.6035005], [0.2270436, 43.6034889], [0.2273628, 43.6033412], [0.2274352, 43.6033743], [0.2277705, 43.603551], [0.2283894, 43.6038016], [0.2285387, 43.6038554], [0.2288152, 43.6040327], [0.2290352, 43.6041929], [0.2292202, 43.6043515], [0.2292963, 43.6045123], [0.2292873, 43.6050057], [0.2291945, 43.6051881], [0.2291894, 43.605198], [0.2291679, 43.6052757], [0.2291787, 43.6053223], [0.2292645, 43.6053709], [0.2292752, 43.6053971], [0.2292859, 43.605448], [0.2291357, 43.6054804], [0.2289348, 43.6054981], [0.2283691, 43.60549], [0.2282995, 43.6055356], [0.2282426, 43.6056447], [0.2282426, 43.6057593], [0.2281943, 43.6058584], [0.228205, 43.605905], [0.2283893, 43.6060335], [0.228737, 43.6061363], [0.229239, 43.6063332], [0.2294938, 43.606443], [0.2296118, 43.6065595], [0.2296776, 43.6066382], [0.2298171, 43.6067887], [0.2330819, 43.6064523], [0.2333414, 43.6064256], [0.2335507, 43.6063245], [0.2336687, 43.6061808], [0.2337036, 43.6060448], [0.2336928, 43.6058584], [0.2337304, 43.605771], [0.2338564, 43.6056078], [0.2338591, 43.6055437], [0.2336982, 43.6053748], [0.2336955, 43.6052602], [0.2337813, 43.6050737], [0.2339208, 43.6048873], [0.2339128, 43.6046387], [0.2338752, 43.6044561], [0.2337491, 43.604324], [0.2334166, 43.6040968], [0.2327547, 43.6036806]]]}}, {"type": "Feature", "properties": {"name": "Lac de Thoux Saint-Cricq"}, "geometry": {"type": "MultiPolygon", "coordinates": [[[[1.0118588, 43.6822375], [1.0119213, 43.6823902], [1.0115589, 43.6830468], [1.0108784, 43.683417], [1.0104465, 43.6836182], [1.0099735, 43.6837239], [1.0094142, 43.6839702], [1.0089154, 43.6842785], [1.0081152, 43.6845069], [1.0078898, 43.6845122], [1.0074889, 43.6844527], [1.0069513, 43.6844557], [1.0066337, 43.6842742], [1.0059169, 43.6841481], [1.0053651, 43.6839761], [1.0049577, 43.6838066], [1.0047992, 43.6837801], [1.0050086, 43.6840863], [1.005299, 43.684301], [1.0057585, 43.6845812], [1.0062838, 43.6849265], [1.0066015, 43.685294], [1.0066639, 43.6855591], [1.0060149, 43.6859417], [1.0052967, 43.6861595], [1.0047847, 43.6863551], [1.0041429, 43.6865311], [1.0038417, 43.6866672], [1.0034256, 43.6868273], [1.0032105, 43.6870674], [1.002939, 43.6871961], [1.0027183, 43.6873905], [1.0026248, 43.6874729], [1.002159, 43.6877042], [1.0019119, 43.6877856], [1.0015769, 43.6877869], [1.0013519, 43.6877972], [1.0008732, 43.6879153], [1.0007241, 43.6879491], [1.0002899, 43.68793], [0.9998215, 43.6879813], [0.9994292, 43.6881197], [0.9991135, 43.6882759], [0.9987156, 43.6885468], [0.9984898, 43.6888372], [0.9985096, 43.6898646], [0.9985417, 43.6905872], [0.9985789, 43.6911963], [0.9986774, 43.6913769], [0.9986333, 43.6914555], [0.9987893, 43.691515], [0.998987, 43.6917124], [0.9992004, 43.6920226], [0.9995155, 43.692381], [0.9997406, 43.6923818], [1.0001611, 43.6928867], [1.000581, 43.6929884], [1.0007923, 43.6930927], [1.000944, 43.6932188], [1.0010675, 43.6933747], [1.0011323, 43.6935999], [1.00112, 43.6939859], [1.0012053, 43.6942587], [1.0013606, 43.6944154], [1.0014958, 43.6944184], [1.0018079, 43.6943488], [1.0023161, 43.6944673], [1.002574, 43.694487], [1.0029968, 43.694457], [1.0034521, 43.6944893], [1.003686, 43.694513], [1.0039412, 43.6944899], [1.0043144, 43.6946054], [1.0045267, 43.6947346], [1.0046431, 43.6949297], [1.0052971, 43.6960497], [1.0054749, 43.6961708], [1.0058982, 43.6962355], [1.0062586, 43.6963653], [1.0063075, 43.6963422], [1.006571, 43.6954419], [1.0062961, 43.6954056], [1.006025, 43.6953052], [1.0058536, 43.6950653], [1.006028, 43.6949304], [1.0059831, 43.6946526], [1.0057817, 43.6942969], [1.0054894, 43.6939765], [1.00527, 43.6937631], [1.0048191, 43.6935347], [1.0044682, 43.6934121], [1.0039018, 43.6933047], [1.003436, 43.6929748], [1.0037518, 43.6926901], [1.0041315, 43.6924681], [1.0040609, 43.6923974], [1.004784, 43.6920435], [1.0052337, 43.6918778], [1.0056393, 43.6917598], [1.0060273, 43.6916291], [1.0063272, 43.6915303], [1.0067283, 43.6914278], [1.0070169, 43.6912712], [1.0072838, 43.6911294], [1.0075211, 43.6909801], [1.0076935, 43.6908735], [1.0077471, 43.6908008], [1.0076452, 43.690811], [1.0073759, 43.6908966], [1.007176, 43.6909362], [1.0068521, 43.6909755], [1.0065551, 43.6910364], [1.0050665, 43.6914267], [1.0044874, 43.6915367], [1.0042607, 43.6915797], [1.0036415, 43.6919177], [1.0028846, 43.6921666], [1.0023822, 43.6921769], [1.001519, 43.6919046], [1.0010283, 43.6916317], [1.0009657, 43.6913819], [1.0011551, 43.6911868], [1.0014006, 43.6911072], [1.0015163, 43.6910085], [1.0015385, 43.6909245], [1.0016329, 43.690893], [1.0017343, 43.6909097], [1.0018082, 43.6908996], [1.0018841, 43.6908189], [1.0020912, 43.6906844], [1.0023987, 43.6905713], [1.0028271, 43.6905154], [1.00327, 43.690496], [1.0034577, 43.6904521], [1.0035784, 43.6903545], [1.0036825, 43.6902059], [1.003865, 43.6898314], [1.0039671, 43.689473], [1.0042215, 43.6892509], [1.0046402, 43.6890928], [1.0051063, 43.6890176], [1.0054577, 43.6889299], [1.0058546, 43.6887506], [1.0063104, 43.6884983], [1.0065738, 43.688414], [1.0068271, 43.6881783], [1.0071847, 43.6879803], [1.0076101, 43.6878537], [1.0078397, 43.6877324], [1.0079783, 43.6873529], [1.0082345, 43.6871353], [1.0085744, 43.6869367], [1.0088055, 43.6867431], [1.0090104, 43.6865463], [1.0093519, 43.6863562], [1.0095206, 43.6862948], [1.009542, 43.6861517], [1.0095638, 43.686077], [1.0096229, 43.685993], [1.0097998, 43.6859907], [1.0099056, 43.6859039], [1.0100757, 43.685856], [1.0101933, 43.6857641], [1.01027, 43.685649], [1.0103533, 43.6855761], [1.0105917, 43.6854651], [1.0109101, 43.6852464], [1.0110458, 43.6851798], [1.011493, 43.6850722], [1.0115672, 43.6850389], [1.0116377, 43.6848365], [1.0117509, 43.6847809], [1.0118771, 43.6847471], [1.01209, 43.684749], [1.0123083, 43.6847087], [1.0125493, 43.6845968], [1.0127536, 43.6844612], [1.0129488, 43.6843852], [1.013217, 43.6842949], [1.0133683, 43.6841625], [1.0134653, 43.6840587], [1.0135106, 43.6838529], [1.0135461, 43.6836166], [1.0136555, 43.6834761], [1.013833, 43.6833666], [1.0139795, 43.6832914], [1.0140497, 43.6832081], [1.014111, 43.6827492], [1.0141377, 43.6825815], [1.0141241, 43.6824487], [1.0141775, 43.6823053], [1.0143272, 43.6820944], [1.0146515, 43.681947], [1.014813, 43.6818376], [1.0150327, 43.6816691], [1.0152189, 43.6815755], [1.0154062, 43.681556], [1.015648, 43.6815524], [1.0158762, 43.6814571], [1.0161529, 43.6812652], [1.0162899, 43.6812018], [1.0166908, 43.6807763], [1.0168604, 43.6807179], [1.0170144, 43.6807036], [1.0172991, 43.6806903], [1.0173557, 43.6806703], [1.0173592, 43.6806361], [1.0172206, 43.6806014], [1.0171396, 43.6805675], [1.0171938, 43.6804827], [1.0172328, 43.6803464], [1.0171509, 43.6803348], [1.0170405, 43.6803529], [1.0165232, 43.6805529], [1.0163513, 43.680557], [1.0161154, 43.6806079], [1.015834, 43.6806827], [1.0156653, 43.6807083], [1.015509, 43.6807109], [1.0153724, 43.6806964], [1.015124, 43.6806443], [1.0150135, 43.680653], [1.0148758, 43.6807417], [1.0147802, 43.6808591], [1.0143022, 43.6810827], [1.0141594, 43.6811032], [1.013975, 43.6810909], [1.0136433, 43.6810318], [1.0133977, 43.6809458], [1.0132292, 43.6809286], [1.0130261, 43.6809961], [1.0128793, 43.6811098], [1.0126056, 43.6814096], [1.0123859, 43.6814463], [1.0121162, 43.6814184], [1.0118791, 43.6813728], [1.011381, 43.6814925], [1.0108182, 43.6814313], [1.0105844, 43.6813935], [1.0100867, 43.681194], [1.0098105, 43.6811773], [1.0097382, 43.6811897], [1.0094706, 43.6813023], [1.0093729, 43.6813342], [1.0092689, 43.6813461], [1.0091522, 43.6814394], [1.0095907, 43.681691], [1.0100053, 43.681786], [1.0105169, 43.6819517], [1.0110803, 43.6820656], [1.0118588, 43.6822375]]], [[[1.0066367, 43.6965021], [1.0066525, 43.6965541], [1.006494, 43.6970025], [1.0065839, 43.6971295], [1.0064547, 43.6972715], [1.0064263, 43.6974127], [1.0065267, 43.6976512], [1.0065736, 43.6979261], [1.0065671, 43.6980773], [1.0067288, 43.6983072], [1.006803, 43.698349], [1.0068416, 43.6982264], [1.0069353, 43.6981433], [1.0071004, 43.6980942], [1.0069756, 43.6978224], [1.0069415, 43.697525], [1.0070133, 43.6972809], [1.0071962, 43.6970204], [1.0073248, 43.6969173], [1.0076141, 43.6967372], [1.0079316, 43.6965298], [1.0086995, 43.6962805], [1.0093803, 43.6961002], [1.0096056, 43.6960852], [1.0098875, 43.6961324], [1.0103588, 43.6961573], [1.010824, 43.6961216], [1.0113498, 43.6960382], [1.0116276, 43.6960256], [1.0119118, 43.6960183], [1.0124036, 43.6959348], [1.0127432, 43.6958859], [1.0137551, 43.6958042], [1.0139726, 43.6957453], [1.0142033, 43.6957151], [1.014439, 43.6956764], [1.0146703, 43.6956379], [1.0147611, 43.6956134], [1.0152092, 43.6956261], [1.0152971, 43.6955893], [1.0154643, 43.6954515], [1.0156305, 43.6953337], [1.0156139, 43.6952633], [1.0150627, 43.6952955], [1.0149238, 43.6953265], [1.0145508, 43.6953488], [1.0144469, 43.695317], [1.0136263, 43.6953227], [1.0125945, 43.6953646], [1.0122044, 43.6953905], [1.011783, 43.6954492], [1.0116003, 43.6954547], [1.011212, 43.6953329], [1.0108252, 43.6953897], [1.0106677, 43.6954362], [1.010342, 43.6954723], [1.01023, 43.6954547], [1.009686, 43.6955148], [1.0095314, 43.6955531], [1.0092919, 43.6955816], [1.0091209, 43.6955237], [1.0088564, 43.6955191], [1.0085488, 43.6955597], [1.0083459, 43.6955736], [1.008089, 43.6955221], [1.0080451, 43.6954688], [1.0077435, 43.6953903], [1.0074792, 43.6953786], [1.0070794, 43.6953864], [1.0069485, 43.6954553], [1.0066245, 43.696209], [1.0065633, 43.6964539], [1.006597, 43.6964877], [1.0066367, 43.6965021]]]]}}, {"type": "Feature", "properties": {"name": "Lac de l'Uby"}, "geometry": {"type": "Polygon", "coordinates": [[[-0.0468642, 43.9420154], [-0.0466635, 43.9416107], [-0.0468432, 43.9413068], [-0.047222, 43.9408548], [-0.0472961, 43.9405277], [-0.0470686, 43.9403093], [-0.0474939, 43.939621], [-0.0474958, 43.9394167], [-0.047462, 43.9392039], [-0.0470482, 43.9391493], [-0.0466376, 43.9391572], [-0.046222, 43.9393215], [-0.0462091, 43.9392135], [-0.0462636, 43.9391203], [-0.0464358, 43.9389343], [-0.0471996, 43.9386419], [-0.0472205, 43.9384569], [-0.0468875, 43.9381738], [-0.0457458, 43.9381058], [-0.0452952, 43.9382294], [-0.0449975, 43.9383111], [-0.0439518, 43.9381878], [-0.0432442, 43.9379597], [-0.0431682, 43.9379352], [-0.043099, 43.9376391], [-0.0426578, 43.9374076], [-0.0423521, 43.9374231], [-0.0421772, 43.937459], [-0.0421268, 43.9374694], [-0.0420061, 43.9379059], [-0.0419015, 43.9380431], [-0.0417727, 43.9381454], [-0.0415501, 43.9381319], [-0.0412389, 43.9379909], [-0.0409864, 43.9377892], [-0.0408865, 43.9377093], [-0.0408232, 43.9375235], [-0.0409412, 43.9372357], [-0.0413194, 43.9369151], [-0.0414535, 43.9368089], [-0.0414482, 43.9367046], [-0.0413275, 43.9366312], [-0.0404504, 43.9363419], [-0.0398102, 43.936324], [-0.0392817, 43.9363584], [-0.0386868, 43.9366003], [-0.0382209, 43.9370314], [-0.0377923, 43.9370754], [-0.0373398, 43.9370461], [-0.0363948, 43.9367479], [-0.0359125, 43.9367021], [-0.0348258, 43.9363454], [-0.0343257, 43.9360751], [-0.0341499, 43.9359223], [-0.0341445, 43.9358161], [-0.0341971, 43.935673], [-0.0343519, 43.9355272], [-0.0344101, 43.9353033], [-0.0343631, 43.9352337], [-0.0342076, 43.93514], [-0.0339849, 43.9350126], [-0.0336057, 43.9349462], [-0.033213, 43.9348003], [-0.0328732, 43.9346098], [-0.0328343, 43.9345635], [-0.0328074, 43.9345142], [-0.0328068, 43.9344258], [-0.0329127, 43.9336783], [-0.0328577, 43.9336204], [-0.0326083, 43.9334958], [-0.0297283, 43.9324712], [-0.0296458, 43.9326092], [-0.0296069, 43.9327203], [-0.029969, 43.9328207], [-0.0302855, 43.9328188], [-0.0305322, 43.9328487], [-0.0307374, 43.9328922], [-0.0309292, 43.9329588], [-0.0309775, 43.9329975], [-0.0307347, 43.933207], [-0.030827, 43.9333874], [-0.0312243, 43.9335094], [-0.0313986, 43.9333413], [-0.0315889, 43.9334647], [-0.0312614, 43.9338311], [-0.0307471, 43.9336546], [-0.0305943, 43.9333248], [-0.0305479, 43.9333448], [-0.0303174, 43.9335085], [-0.0302357, 43.9336003], [-0.0301898, 43.9336519], [-0.0300019, 43.9336837], [-0.0297222, 43.9337006], [-0.029344, 43.9336049], [-0.0290633, 43.9339595], [-0.0288379, 43.9338829], [-0.029113, 43.933508], [-0.0288701, 43.9334269], [-0.0290412, 43.9331847], [-0.0292123, 43.9330776], [-0.0296822, 43.9332677], [-0.0295938, 43.9334352], [-0.0298751, 43.9334527], [-0.0301193, 43.9334237], [-0.0305202, 43.9330729], [-0.0304251, 43.9330404], [-0.0299048, 43.9330022], [-0.0294513, 43.9328932], [-0.0290746, 43.9327605], [-0.0283795, 43.9334855], [-0.0282058, 43.9333869], [-0.0288357, 43.9326894], [-0.0283447, 43.9324965], [-0.0275001, 43.9331687], [-0.0272451, 43.9330728], [-0.0280566, 43.9324276], [-0.027797, 43.9323531], [-0.0275724, 43.9322886], [-0.027386, 43.9322876], [-0.02718, 43.9323422], [-0.0267463, 43.9327201], [-0.0265722, 43.9327431], [-0.0261884, 43.9327937], [-0.0253965, 43.9326289], [-0.0249333, 43.9331636], [-0.0247767, 43.9330759], [-0.0251954, 43.9324715], [-0.0243686, 43.9320294], [-0.0240967, 43.9322867], [-0.0239151, 43.9321865], [-0.0240792, 43.9319198], [-0.0229993, 43.931373], [-0.0229275, 43.9313121], [-0.0229575, 43.9312698], [-0.0229797, 43.9312385], [-0.0231173, 43.9312638], [-0.0233815, 43.931372], [-0.0257351, 43.9325397], [-0.0259564, 43.9326053], [-0.0261978, 43.9326131], [-0.026565, 43.9325926], [-0.0268324, 43.9323999], [-0.0269206, 43.9322905], [-0.0269139, 43.9322239], [-0.0266792, 43.9321872], [-0.0264012, 43.9321622], [-0.0257295, 43.9319797], [-0.0252309, 43.9317535], [-0.0247025, 43.9314512], [-0.0244798, 43.9312909], [-0.0234453, 43.930582], [-0.0234562, 43.9305666], [-0.0234636, 43.9305563], [-0.0243142, 43.9309762], [-0.024854, 43.9304583], [-0.0243243, 43.9300565], [-0.0241888, 43.9299851], [-0.0240775, 43.9299068], [-0.023962, 43.9298535], [-0.0239748, 43.9298355], [-0.023986, 43.9298197], [-0.0240081, 43.9298172], [-0.0240799, 43.9298482], [-0.0241503, 43.9298713], [-0.0242555, 43.9298776], [-0.0243212, 43.9298863], [-0.0244902, 43.9299583], [-0.0250542, 43.9303248], [-0.0252459, 43.9304958], [-0.0257663, 43.9308222], [-0.0264516, 43.9312501], [-0.0267145, 43.9313495], [-0.0270511, 43.9313611], [-0.0273407, 43.931393], [-0.0282527, 43.9314896], [-0.0284803, 43.931568], [-0.0290674, 43.9317702], [-0.0292418, 43.9318397], [-0.0294389, 43.9318851], [-0.0295368, 43.9318928], [-0.029632, 43.9318233], [-0.0298184, 43.9316475], [-0.0298868, 43.9316205], [-0.0300142, 43.9316649], [-0.0302221, 43.9317335], [-0.0303549, 43.9317595], [-0.0305802, 43.9317296], [-0.0312159, 43.9319121], [-0.031346, 43.9319566], [-0.0317094, 43.9319266], [-0.0318046, 43.9319363], [-0.0323115, 43.9320725], [-0.0330632, 43.9324892], [-0.0334948, 43.9326132], [-0.033598, 43.9325348], [-0.0336803, 43.9308678], [-0.0337931, 43.93085], [-0.033883, 43.9308664], [-0.0339125, 43.9308838], [-0.0338709, 43.9315367], [-0.0343269, 43.9315859], [-0.0343121, 43.9318042], [-0.0338428, 43.9317685], [-0.033889, 43.9325986], [-0.034235, 43.9324518], [-0.0341707, 43.9319698], [-0.0344577, 43.9319679], [-0.0345304, 43.9324757], [-0.0342262, 43.9326783], [-0.0341291, 43.9327705], [-0.0340942, 43.9328207], [-0.0342095, 43.9328603], [-0.0342833, 43.932842], [-0.0343046, 43.9327486], [-0.0345257, 43.9325501], [-0.0346977, 43.9324981], [-0.0350907, 43.932361], [-0.0354769, 43.9322828], [-0.0357169, 43.9322683], [-0.0359758, 43.9323349], [-0.0360938, 43.9323523], [-0.0369293, 43.9326102], [-0.0375194, 43.9331626], [-0.0388685, 43.9340793], [-0.0396089, 43.9341911], [-0.0400186, 43.9342554], [-0.0406435, 43.9343249], [-0.0412416, 43.9342882], [-0.0415474, 43.9342805], [-0.0419819, 43.9344215], [-0.042225, 43.9344928], [-0.0432576, 43.9347954], [-0.0437844, 43.9349961], [-0.0439601, 43.934944], [-0.0440311, 43.9349923], [-0.0440606, 43.9350753], [-0.0443798, 43.9352598], [-0.0444402, 43.9352656], [-0.0445206, 43.9351903], [-0.0446279, 43.9351594], [-0.0446051, 43.9353313], [-0.0458764, 43.9357129], [-0.0461233, 43.9356596], [-0.0466991, 43.9357071], [-0.0483898, 43.936281], [-0.048845, 43.9363796], [-0.0492601, 43.9363955], [-0.04959, 43.9364438], [-0.0499575, 43.9364313], [-0.0503638, 43.9363366], [-0.0504591, 43.9363067], [-0.0505328, 43.936296], [-0.0505435, 43.9363994], [-0.0504321, 43.936539], [-0.0505408, 43.9367174], [-0.0505384, 43.937214], [-0.0505822, 43.9375261], [-0.0511164, 43.9378695], [-0.0516761, 43.9381034], [-0.0518898, 43.9384113], [-0.0522424, 43.9385165], [-0.0527921, 43.9385206], [-0.0530192, 43.9384902], [-0.0531922, 43.9384187], [-0.0533303, 43.9385095], [-0.0533075, 43.9386022], [-0.0535613, 43.9389252], [-0.0539699, 43.9393417], [-0.0524715, 43.9405552], [-0.0522003, 43.9407771], [-0.0505196, 43.9421675], [-0.0502472, 43.9421337], [-0.0499816, 43.9420603], [-0.0496577, 43.9417747], [-0.0496891, 43.9416639], [-0.0493233, 43.9415417], [-0.0490715, 43.9415677], [-0.047979, 43.9413772], [-0.0472729, 43.9417058], [-0.0470192, 43.9420608], [-0.0468642, 43.9420154]]]}}, {"type": "Feature", "properties": {"name": "Lac de Maribot"}, "geometry": {"type": "Polygon", "coordinates": [[[0.1057541, 43.6032966], [0.1056656, 43.6031606], [0.1053518, 43.6030149], [0.1052177, 43.6029236], [0.1051533, 43.602776], [0.1049307, 43.6022652], [0.1049173, 43.602104], [0.1048583, 43.6017466], [0.1047724, 43.6016514], [0.1047724, 43.6015019], [0.1048073, 43.6013504], [0.1049307, 43.601092], [0.1049843, 43.6009774], [0.1051506, 43.6007949], [0.1052043, 43.6006667], [0.1052257, 43.6005093], [0.1052821, 43.6004258], [0.1054805, 43.6003287], [0.1057944, 43.6001558], [0.1060492, 43.5999208], [0.1061243, 43.5998315], [0.1063281, 43.5997285], [0.1064274, 43.5996489], [0.1061323, 43.5991652], [0.1058775, 43.5988486], [0.1058695, 43.5987476], [0.1057836, 43.5985223], [0.1057327, 43.5975763], [0.1056924, 43.597147], [0.1057434, 43.5970499], [0.1059097, 43.5968692], [0.1061484, 43.5967333], [0.1062155, 43.5966497], [0.1062074, 43.5965876], [0.106156, 43.5965695], [0.1060787, 43.5965643], [0.1059097, 43.5966517], [0.1056468, 43.5968401], [0.1054805, 43.5969469], [0.1054671, 43.5969722], [0.1053491, 43.5970499], [0.1052794, 43.5971528], [0.1052445, 43.5973821], [0.1051292, 43.5975841], [0.1051104, 43.5977414], [0.1049253, 43.5980269], [0.1047966, 43.5981318], [0.1047778, 43.5981823], [0.104869, 43.5983144], [0.1048744, 43.5985805], [0.1048449, 43.5988078], [0.1048127, 43.5990953], [0.1046517, 43.5994741], [0.1045659, 43.5995401], [0.1041073, 43.5997343], [0.103619, 43.6002453], [0.1032865, 43.6002996], [0.1030585, 43.6003015], [0.102978, 43.6003345], [0.1029646, 43.6004025], [0.1031336, 43.6009134], [0.1033215, 43.6016408], [0.1032559, 43.6017569], [0.1031276, 43.6019837], [0.1029659, 43.6020654], [0.1029439, 43.6024251], [0.1028573, 43.6024847], [0.1028376, 43.6025489], [0.1029056, 43.6026906], [0.1029593, 43.6028848], [0.1030612, 43.6031062], [0.1030692, 43.6033257], [0.1029888, 43.6033704], [0.1027125, 43.6034228], [0.1026106, 43.6034889], [0.1025891, 43.6035821], [0.1026562, 43.6036675], [0.102793, 43.6037161], [0.1030022, 43.6037316], [0.1030679, 43.6037928], [0.10286, 43.603753], [0.1026884, 43.6038268], [0.102573, 43.6039589], [0.1025999, 43.6045998], [0.1027286, 43.6052369], [0.102734, 43.6057632], [0.1026481, 43.6058933], [0.1022102, 43.6060922], [0.1018384, 43.6062315], [0.1010373, 43.6063236], [0.1006338, 43.6063173], [0.1005924, 43.6063725], [0.1007267, 43.6064563], [0.1009929, 43.6065556], [0.1013787, 43.6065855], [0.1020109, 43.6065534], [0.1029532, 43.6064006], [0.1031685, 43.6063731], [0.103316, 43.6063886], [0.1036225, 43.6064016], [0.1036969, 43.6064566], [0.1038154, 43.6065312], [0.1039597, 43.6068469], [0.1039544, 43.6070237], [0.1040509, 43.6072839], [0.1047791, 43.607942], [0.1050071, 43.6081268], [0.1056564, 43.6076692], [0.1073858, 43.6064501], [0.1072582, 43.606302], [0.1065481, 43.6057671], [0.1060359, 43.6054543], [0.1056021, 43.6050452], [0.1054779, 43.604862], [0.1053411, 43.6046018], [0.1053625, 43.6044736], [0.1055127, 43.6041395], [0.1054966, 43.6039841], [0.1054859, 43.6037433], [0.1055717, 43.6036384], [0.1058158, 43.6034966], [0.1058185, 43.6033781], [0.1057541, 43.6032966]]]}}]}