{"type": "FeatureCollection", "features": [{"type": "Feature", "properties": {"name": "Grand Lac des Peupleraies"}, "geometry": {"type": "Polygon", "coordinates": [[[0.7296329, 47.3743752], [0.7301788, 47.3744603], [0.7307686, 47.3745179], [0.7310996, 47.3745488], [0.7312936, 47.374566], [0.7316121, 47.374615], [0.7317559, 47.3746342], [0.7319144, 47.3746438], [0.7320646, 47.3746675], [0.7322016, 47.374719], [0.7323195, 47.3747574], [0.7325795, 47.3748292], [0.7327306, 47.3748721], [0.7328015, 47.3748898], [0.7329541, 47.37492], [0.7331405, 47.3749711], [0.7333423, 47.3750212], [0.7337674, 47.3751182], [0.7341597, 47.37521], [0.7343927, 47.375252], [0.7347652, 47.3753268], [0.7348644, 47.3753444], [0.7350014, 47.3753688], [0.7353047, 47.3754544], [0.7355357, 47.3755129], [0.7356487, 47.3755405], [0.7357335, 47.3755597], [0.7357827, 47.3755715], [0.7358621, 47.375608], [0.7359686, 47.3756384], [0.7360199, 47.375653], [0.7363957, 47.3757339], [0.7366642, 47.3758075], [0.7367914, 47.3758316], [0.7368836, 47.3758274], [0.7369525, 47.3758111], [0.7369932, 47.3757992], [0.7371047, 47.3757548], [0.7371696, 47.3757275], [0.7372358, 47.3756764], [0.7373055, 47.3755892], [0.7373538, 47.3754984], [0.7373618, 47.3753912], [0.7373967, 47.3752296], [0.737453, 47.3750697], [0.7375201, 47.3748445], [0.7375446, 47.3747083], [0.7376367, 47.3743071], [0.7377167, 47.3740785], [0.737759, 47.3739576], [0.737855, 47.3736428], [0.7379481, 47.3733636], [0.7380205, 47.3731384], [0.7381023, 47.3728378], [0.7381842, 47.3725489], [0.7382673, 47.3722038], [0.7382821, 47.3721157], [0.7383062, 47.3719958], [0.7383163, 47.3719391], [0.7383591, 47.3718888], [0.7383886, 47.3718608], [0.738408, 47.3718294], [0.7384224, 47.3717884], [0.7384249, 47.3717395], [0.7384274, 47.3717032], [0.7384473, 47.3716306], [0.7384687, 47.3715466], [0.7384273, 47.3714978], [0.738407, 47.3714739], [0.7382434, 47.3713758], [0.7381361, 47.3713522], [0.7378599, 47.3713813], [0.7374924, 47.3714013], [0.7372429, 47.371434], [0.7368862, 47.3714648], [0.7365858, 47.3715066], [0.7364195, 47.3715611], [0.7362908, 47.3715829], [0.7362465, 47.3716006], [0.7361975, 47.3716247], [0.7361479, 47.3716567], [0.736103, 47.3716792], [0.7360101, 47.3717044], [0.7359126, 47.3717391], [0.7358554, 47.3717633], [0.7358028, 47.3718002], [0.7357285, 47.3718442], [0.7356034, 47.3718929], [0.7354536, 47.3719433], [0.7347739, 47.3721552], [0.7346612, 47.3721867], [0.7344858, 47.3722415], [0.7343663, 47.3722744], [0.7342771, 47.3722898], [0.7341483, 47.3722908], [0.7340633, 47.3722915], [0.7339063, 47.3723041], [0.7337346, 47.3723077], [0.7336639, 47.3723091], [0.7334158, 47.372319], [0.7330802, 47.3723222], [0.7328205, 47.3723142], [0.7327312, 47.3723114], [0.732625, 47.3723274], [0.7322687, 47.3723813], [0.7320493, 47.3724508], [0.7319155, 47.3725083], [0.7317874, 47.3725634], [0.7316777, 47.3726425], [0.7316034, 47.3727168], [0.7315538, 47.3728319], [0.7314689, 47.3730428], [0.7313733, 47.3733424], [0.7313627, 47.3733999], [0.7313662, 47.3735006], [0.7313632, 47.3735777], [0.7313627, 47.3735917], [0.7313275, 47.3737289], [0.7313346, 47.373784], [0.7313735, 47.3738607], [0.731377, 47.3739542], [0.7313487, 47.3740429], [0.731331, 47.3740848], [0.7313098, 47.3741004], [0.7312638, 47.3741064], [0.7312337, 47.3740932], [0.7312107, 47.3740764], [0.7311912, 47.3740453], [0.7311912, 47.3740045], [0.7312142, 47.3738991], [0.7312249, 47.3738559], [0.7312302, 47.3738272], [0.7312125, 47.3737912], [0.7299791, 47.3736318], [0.7298906, 47.3736474], [0.7298269, 47.3736618], [0.7297579, 47.373687], [0.729657, 47.3737673], [0.7295812, 47.3738518], [0.7294429, 47.3741244], [0.7295151, 47.3743105], [0.7296329, 47.3743752]]]}}, {"type": "Feature", "properties": {"name": "Retenue Collinaire de la Joubardière"}, "geometry": {"type": "Polygon", "coordinates": [[[1.3042904, 47.1618597], [1.3047758, 47.161933], [1.3049324, 47.1619566], [1.3051315, 47.1615483], [1.3051422, 47.1611043], [1.3048276, 47.1608923], [1.3044231, 47.1599247], [1.3043775, 47.1592437], [1.3046747, 47.1587275], [1.3052724, 47.1582089], [1.3052782, 47.1578083], [1.3052124, 47.1578159], [1.3051522, 47.1578229], [1.3049322, 47.15808], [1.3048679, 47.1582241], [1.3040203, 47.1585013], [1.3031975, 47.1585848], [1.3019701, 47.1584325], [1.3003261, 47.1585046], [1.2974718, 47.1575568], [1.2955323, 47.155741], [1.2953165, 47.155295], [1.294368, 47.1542658], [1.2941954, 47.1542881], [1.2933949, 47.1548868], [1.2932108, 47.1550245], [1.2929405, 47.1552326], [1.292721, 47.1556809], [1.292705, 47.1557101], [1.2920509, 47.1569022], [1.292173, 47.1569862], [1.2923817, 47.1568642], [1.2926906, 47.1570605], [1.2939432, 47.1573523], [1.2945571, 47.1577515], [1.2946622, 47.1581505], [1.2947203, 47.1584802], [1.2949155, 47.1585575], [1.2959853, 47.1584366], [1.297023, 47.158939], [1.2978632, 47.1592331], [1.2993023, 47.159882], [1.2996321, 47.1603189], [1.301137, 47.1602939], [1.3025404, 47.1604237], [1.303655, 47.1609826], [1.3040732, 47.1613583], [1.3042904, 47.1618597]]]}}, {"type": "Feature", "properties": {"name": "Étang Bouchard"}, "geometry": {"type": "Polygon", "coordinates": [[[0.3566434, 47.4965125], [0.3557518, 47.4956065], [0.3558269, 47.4952585], [0.356771, 47.4945843], [0.3572485, 47.494609], [0.3584286, 47.4945597], [0.3591418, 47.4941096], [0.3590131, 47.4936305], [0.358566, 47.4935176], [0.3581722, 47.4934182], [0.3572281, 47.4937478], [0.3557421, 47.4933296], [0.3551263, 47.4932472], [0.3545684, 47.4932099], [0.3533328, 47.4927962], [0.3524591, 47.4923044], [0.3522905, 47.4918623], [0.3518744, 47.4923632], [0.351524, 47.4928685], [0.3512521, 47.4932606], [0.3509335, 47.4937427], [0.3526548, 47.4945926], [0.3530299, 47.4953455], [0.3532799, 47.4958167], [0.3528228, 47.4968148], [0.3530964, 47.4969692], [0.3534719, 47.4970403], [0.3540298, 47.496867], [0.3550169, 47.4977405], [0.3558237, 47.4982979], [0.3565554, 47.4980348], [0.3565682, 47.4972454], [0.3566434, 47.4965125]]]}}, {"type": "Feature", "properties": {"name": "Étang Neuf"}, "geometry": {"type": "Polygon", "coordinates": [[[0.3744135, 47.4922066], [0.3753394, 47.4917209], [0.3763316, 47.49161], [0.3778092, 47.4913309], [0.378616, 47.4909756], [0.379529, 47.491217], [0.3803527, 47.4916104], [0.3801449, 47.4907494], [0.3804034, 47.4902413], [0.3810718, 47.4897316], [0.3809201, 47.4897154], [0.3795612, 47.4895707], [0.3782426, 47.4901862], [0.3777308, 47.4901616], [0.3762149, 47.4897055], [0.3756112, 47.4886694], [0.3734887, 47.4899324], [0.3722517, 47.4901224], [0.3709696, 47.4899302], [0.3703838, 47.4892205], [0.3694265, 47.4892352], [0.3688171, 47.489601], [0.3687152, 47.4897333], [0.3686696, 47.4898873], [0.3685399, 47.4920332], [0.3685513, 47.492564], [0.3687573, 47.4928634], [0.369092, 47.4927742], [0.3692642, 47.4924867], [0.36974, 47.4924821], [0.370681, 47.4926234], [0.3712099, 47.4925589], [0.3720757, 47.4926546], [0.3730156, 47.492896], [0.3734329, 47.4926633], [0.3739039, 47.4925981], [0.3744135, 47.4922066]]]}}, {"type": "Feature", "properties": {"name": "Lac du Val-Joyeux"}, "geometry": {"type": "Polygon", "coordinates": [[[0.3151029, 47.5442464], [0.315476, 47.5443384], [0.3158623, 47.544395], [0.3162972, 47.5444009], [0.3163451, 47.5444644], [0.3165095, 47.5444577], [0.3165254, 47.5444638], [0.3166521, 47.5444609], [0.3169134, 47.5444579], [0.3169367, 47.5444638], [0.3169539, 47.5444614], [0.3169708, 47.5444587], [0.3169865, 47.5444494], [0.3170483, 47.5444433], [0.3170575, 47.5444363], [0.317121, 47.5444121], [0.3171073, 47.5443696], [0.3171862, 47.544303], [0.3171771, 47.5440633], [0.3170322, 47.5439493], [0.3170242, 47.5438497], [0.3170429, 47.5437049], [0.31711, 47.5435365], [0.3172012, 47.543455], [0.3172441, 47.5434007], [0.3173863, 47.5432794], [0.3174909, 47.5432269], [0.317574, 47.5432124], [0.3176786, 47.5432051], [0.3178905, 47.5432432], [0.3181829, 47.5433011], [0.3185637, 47.543426], [0.318671, 47.5434912], [0.3188186, 47.543665], [0.318891, 47.5437918], [0.3189929, 47.5438841], [0.3191941, 47.543971], [0.3193979, 47.5440724], [0.3196661, 47.544181], [0.3198968, 47.5442643], [0.3200121, 47.5442897], [0.3202535, 47.5442933], [0.3205191, 47.5442752], [0.3206451, 47.5442462], [0.3207739, 47.5441774], [0.320916, 47.5440869], [0.3209858, 47.5440253], [0.3209643, 47.5439946], [0.3209456, 47.5439511], [0.3209697, 47.5439058], [0.3210314, 47.5438859], [0.3211199, 47.5439022], [0.3212084, 47.5438334], [0.3213447, 47.5436978], [0.3214359, 47.5436109], [0.3214815, 47.5434479], [0.3216504, 47.5430822], [0.3216826, 47.5429482], [0.3218387, 47.5424773], [0.3219299, 47.5423053], [0.3221091, 47.5420284], [0.3222781, 47.5418256], [0.3226756, 47.5414163], [0.3228816, 47.5412299], [0.3230484, 47.5411012], [0.3233054, 47.5410163], [0.323654, 47.5409837], [0.3239893, 47.540933], [0.3242254, 47.5408877], [0.3246094, 47.5407735], [0.324912, 47.5407411], [0.3250783, 47.5407393], [0.3252151, 47.540761], [0.3255429, 47.5408151], [0.3258942, 47.5409201], [0.3264489, 47.5411213], [0.3266345, 47.5411972], [0.3268491, 47.5412515], [0.3270658, 47.5412915], [0.3273877, 47.5413169], [0.3276023, 47.5413078], [0.3277798, 47.5412678], [0.3281392, 47.54117], [0.3284101, 47.5410487], [0.3286456, 47.5409258], [0.3288822, 47.5407445], [0.3290861, 47.5405725], [0.3293457, 47.5403735], [0.3294691, 47.5401798], [0.3295844, 47.5400603], [0.3297405, 47.5398754], [0.3299009, 47.5397035], [0.3300913, 47.5395098], [0.3302689, 47.5393394], [0.3304352, 47.5392018], [0.3307249, 47.5390388], [0.3319667, 47.5384594], [0.3322752, 47.538329], [0.3326614, 47.5382638], [0.3330021, 47.538233], [0.3332918, 47.5382946], [0.3335439, 47.5383634], [0.3337611, 47.5384739], [0.3339221, 47.5386205], [0.3342037, 47.5390316], [0.334289, 47.539164], [0.3345765, 47.539296], [0.3350754, 47.5394879], [0.3354075, 47.5395895], [0.3357186, 47.5396402], [0.3361, 47.5395983], [0.3364782, 47.5395259], [0.336843, 47.5393883], [0.3370603, 47.5392887], [0.3371307, 47.539265], [0.3371783, 47.5392489], [0.337307, 47.5392127], [0.3374492, 47.5391131], [0.3376074, 47.5389664], [0.3377067, 47.5388976], [0.3378783, 47.5388378], [0.3379668, 47.5388125], [0.3379749, 47.5387582], [0.3380607, 47.5387364], [0.3381653, 47.5387727], [0.338345, 47.5387582], [0.3385757, 47.5386875], [0.339021, 47.5385626], [0.3391363, 47.5385047], [0.3392516, 47.5384485], [0.339308, 47.5383996], [0.3393455, 47.5383399], [0.3392844, 47.538169], [0.3392704, 47.5381298], [0.3392168, 47.5380556], [0.3391551, 47.5380375], [0.3390478, 47.5380067], [0.3388949, 47.5380176], [0.3387366, 47.5380465], [0.3382056, 47.5381606], [0.3373929, 47.5383996], [0.3369503, 47.5385517], [0.3367357, 47.5386242], [0.3365748, 47.5386857], [0.3363441, 47.5387328], [0.3362073, 47.5387346], [0.3360866, 47.5386984], [0.3358747, 47.5386079], [0.335526, 47.5384196], [0.3353249, 47.5382838], [0.3351774, 47.5381099], [0.3350245, 47.53788], [0.3348743, 47.5376645], [0.3347402, 47.5375232], [0.3345873, 47.5373965], [0.3344746, 47.537324], [0.3342815, 47.5372643], [0.3337457, 47.5370841], [0.3333722, 47.5370144], [0.3330718, 47.5369727], [0.3327044, 47.5369492], [0.3324361, 47.5369474], [0.3322001, 47.5369601], [0.3320097, 47.5369999], [0.3317495, 47.5371158], [0.33161, 47.5372136], [0.3314893, 47.5372788], [0.3313686, 47.5372987], [0.3312721, 47.5373041], [0.3311326, 47.5372715], [0.3310414, 47.5372643], [0.3309073, 47.5373132], [0.3307705, 47.5373747], [0.3303628, 47.5376409], [0.3299958, 47.5379434], [0.329829, 47.538052], [0.3295367, 47.5381805], [0.3292524, 47.5382783], [0.3290485, 47.5383145], [0.3288903, 47.5383308], [0.3287266, 47.538358], [0.3286059, 47.5384069], [0.3285469, 47.5385119], [0.3283994, 47.5388234], [0.3283726, 47.5390171], [0.3283458, 47.5391312], [0.328268, 47.5392453], [0.3281339, 47.5393702], [0.3280024, 47.5395205], [0.3278844, 47.5396237], [0.327753, 47.5396907], [0.3275867, 47.5397378], [0.3274955, 47.5397559], [0.3273855, 47.5397414], [0.3272487, 47.5396979], [0.3269644, 47.5395784], [0.3267901, 47.5395132], [0.3267043, 47.539468], [0.3265943, 47.5393955], [0.3265245, 47.5393774], [0.3263395, 47.5393811], [0.3260632, 47.5393811], [0.3255536, 47.5393974], [0.3252183, 47.5394136], [0.3248026, 47.5394752], [0.3242903, 47.5395187], [0.3241106, 47.5395694], [0.3239255, 47.5396291], [0.3236358, 47.5396961], [0.3234266, 47.539736], [0.3232227, 47.5397921], [0.3230457, 47.5399279], [0.3227963, 47.5400166], [0.3225281, 47.540118], [0.3223698, 47.5401669], [0.3220184, 47.5403389], [0.3217207, 47.5404856], [0.3214498, 47.5406196], [0.3213264, 47.540663], [0.3212272, 47.5407282], [0.3211816, 47.540835], [0.3211414, 47.5410596], [0.3210341, 47.5412714], [0.3209134, 47.5414507], [0.3207122, 47.5416734], [0.3205727, 47.541849], [0.3204654, 47.5422763], [0.3203635, 47.5425026], [0.3202723, 47.5426384], [0.3202106, 47.5426873], [0.3201141, 47.5427163], [0.3199907, 47.5427217], [0.3198405, 47.5427271], [0.319642, 47.5427054], [0.3194972, 47.5426221], [0.3193255, 47.5425081], [0.3190895, 47.542423], [0.3188668, 47.5423686], [0.3187591, 47.542333], [0.3180997, 47.5421152], [0.317743, 47.5420083], [0.3174533, 47.5419413], [0.3171368, 47.5418925], [0.3165789, 47.5417458], [0.3164448, 47.5417512], [0.3162973, 47.5417983], [0.3161766, 47.5418001], [0.3160532, 47.541811], [0.3159781, 47.5418617], [0.315911, 47.541983], [0.3158628, 47.5420916], [0.3158118, 47.5422491], [0.3157903, 47.5424031], [0.3157716, 47.5425081], [0.315785, 47.5425769], [0.3157652, 47.5426091], [0.3156611, 47.5427744], [0.3155903, 47.5428641], [0.3155538, 47.5429102], [0.3153119, 47.5432083], [0.315189, 47.543359], [0.3149374, 47.5436674], [0.3148116, 47.5438217], [0.3148514, 47.5438797], [0.3151029, 47.5442464]]]}}, {"type": "Feature", "properties": {"name": "Grand Étang de Jumeaux"}, "geometry": {"type": "Polygon", "coordinates": [[[1.0825202, 47.3692556], [1.0826382, 47.3691498], [1.0827436, 47.368337], [1.082699, 47.3681682], [1.0825773, 47.368024], [1.0816368, 47.3675429], [1.0813874, 47.3674224], [1.0811505, 47.3673064], [1.0808457, 47.3671419], [1.0806615, 47.3671474], [1.0805724, 47.3671546], [1.0804996, 47.3670629], [1.0803885, 47.3669791], [1.0803068, 47.3669562], [1.0802715, 47.3668824], [1.0800838, 47.3668103], [1.080106, 47.3667202], [1.0801616, 47.3665875], [1.0802904, 47.3665336], [1.0804265, 47.366454], [1.0804988, 47.3663819], [1.0804702, 47.3662953], [1.080534, 47.366111], [1.0806113, 47.3660778], [1.080707, 47.3660622], [1.0807344, 47.3660066], [1.0806422, 47.3659232], [1.0806011, 47.365832], [1.0806928, 47.3657517], [1.0806281, 47.3656127], [1.080683, 47.3654973], [1.0808365, 47.365461], [1.0809373, 47.3654799], [1.081031, 47.3653436], [1.0811142, 47.3653234], [1.0811689, 47.365389], [1.0813211, 47.3653915], [1.0813993, 47.3653325], [1.0815184, 47.3653733], [1.0816461, 47.3653495], [1.0818036, 47.365378], [1.0819095, 47.3654315], [1.0819261, 47.3655007], [1.0819174, 47.3655652], [1.081991, 47.3656354], [1.0820129, 47.3657306], [1.0820802, 47.3658006], [1.0820941, 47.3659431], [1.0821879, 47.3659791], [1.0822759, 47.3660021], [1.0823316, 47.3660418], [1.0824305, 47.3661124], [1.0825607, 47.3661965], [1.0826471, 47.3662626], [1.0827204, 47.3663413], [1.0828753, 47.366443], [1.0830678, 47.3665583], [1.0831381, 47.3665422], [1.0832139, 47.3665521], [1.0831862, 47.3666163], [1.0831027, 47.3666451], [1.0830879, 47.3667051], [1.0832658, 47.3668719], [1.0833185, 47.3669934], [1.0835289, 47.3671391], [1.0839608, 47.3673014], [1.0845647, 47.3674408], [1.0848538, 47.3675145], [1.0849701, 47.3676328], [1.0850624, 47.3677119], [1.0852696, 47.3677714], [1.0855595, 47.3678236], [1.0857834, 47.3677713], [1.0859088, 47.3678122], [1.08602, 47.3678959], [1.0861069, 47.3677723], [1.0865058, 47.3676152], [1.0870646, 47.3674219], [1.0873822, 47.3672333], [1.0876301, 47.3670435], [1.0880613, 47.3668696], [1.0880435, 47.3670115], [1.0879129, 47.3671171], [1.08793, 47.3671691], [1.0880421, 47.367227], [1.0880631, 47.367348], [1.0881729, 47.3674705], [1.088334, 47.3675766], [1.0883449, 47.3676285], [1.0883551, 47.3676976], [1.0884208, 47.3678107], [1.0884702, 47.367846], [1.0885398, 47.3678515], [1.0885884, 47.3679126], [1.0886692, 47.3679571], [1.0887764, 47.3679761], [1.0889072, 47.3680429], [1.0891048, 47.3681927], [1.0892163, 47.3682678], [1.0892978, 47.368295], [1.0894042, 47.3683356], [1.0894216, 47.3683789], [1.0895538, 47.368407], [1.0896924, 47.3684351], [1.0897488, 47.3684533], [1.0898032, 47.3684584], [1.0898254, 47.3684742], [1.0898244, 47.3685007], [1.0899285, 47.3685931], [1.0899476, 47.3686227], [1.0899131, 47.3686205], [1.0897045, 47.3686417], [1.0896628, 47.368645], [1.0896364, 47.3686323], [1.0896231, 47.3686277], [1.089566, 47.3686188], [1.0894612, 47.3686349], [1.0894296, 47.3686356], [1.089362, 47.3686269], [1.0892182, 47.368621], [1.0891597, 47.3686176], [1.0889564, 47.3686377], [1.0888171, 47.3686378], [1.088761, 47.3686353], [1.088737, 47.3686349], [1.0885635, 47.3686877], [1.0885349, 47.3686868], [1.088497, 47.3686826], [1.0884356, 47.3687122], [1.0883349, 47.3687125], [1.0882333, 47.3686893], [1.0881698, 47.3686955], [1.0881347, 47.3686961], [1.0880367, 47.3686853], [1.0879378, 47.3687012], [1.0877826, 47.3686858], [1.0876088, 47.3686613], [1.0874149, 47.3686424], [1.0873127, 47.3686244], [1.0872192, 47.3686013], [1.0871196, 47.3686293], [1.087056, 47.3686347], [1.0870185, 47.3686294], [1.086969, 47.3686228], [1.0868673, 47.3685908], [1.0868187, 47.3685818], [1.0867716, 47.3685816], [1.086751, 47.3685813], [1.0866612, 47.3686235], [1.0866007, 47.3686376], [1.0864694, 47.3686657], [1.0864102, 47.3686665], [1.0863117, 47.3686649], [1.0862763, 47.3686485], [1.0861966, 47.3686239], [1.0861437, 47.368619], [1.0861196, 47.3686197], [1.0860625, 47.3686584], [1.0860253, 47.3686694], [1.0859732, 47.3686884], [1.0859357, 47.3687058], [1.0858838, 47.3687177], [1.0857842, 47.3687464], [1.085704, 47.368784], [1.0856816, 47.3687872], [1.0856213, 47.3687949], [1.0855073, 47.3688413], [1.0853065, 47.3689685], [1.0850256, 47.369103], [1.0849829, 47.3691238], [1.0849096, 47.3691837], [1.0848459, 47.3692147], [1.0848232, 47.3692248], [1.0848179, 47.3692533], [1.0848154, 47.3692759], [1.0847972, 47.3693059], [1.0847634, 47.3693391], [1.0847259, 47.3693338], [1.0846931, 47.3693624], [1.0847073, 47.369397], [1.0847328, 47.3694271], [1.0847108, 47.3694425], [1.0846833, 47.3694455], [1.0846496, 47.3694764], [1.0846667, 47.3695], [1.0846989, 47.3695128], [1.0846984, 47.369525], [1.0846816, 47.3695387], [1.0846273, 47.3695966], [1.0845868, 47.3696477], [1.0845823, 47.3696774], [1.0846141, 47.3697012], [1.0846312, 47.3697265], [1.0845297, 47.3698314], [1.08456, 47.3698936], [1.0845241, 47.369939], [1.0845018, 47.3699614], [1.084489, 47.3700095], [1.0845058, 47.3700412], [1.0845094, 47.3701554], [1.0844932, 47.370225], [1.0844559, 47.3703083], [1.084423, 47.3703898], [1.0843658, 47.3704768], [1.0843002, 47.3706097], [1.0842755, 47.3706995], [1.0842426, 47.3707799], [1.0842362, 47.3707926], [1.0842322, 47.3709038], [1.0842329, 47.3709318], [1.0842575, 47.370963], [1.0842929, 47.3709776], [1.0843816, 47.3709919], [1.0845153, 47.3710389], [1.0845033, 47.3710865], [1.0844719, 47.3711256], [1.0844493, 47.3711596], [1.0843703, 47.3711856], [1.0843986, 47.3712338], [1.08429, 47.3713689], [1.0842291, 47.371441], [1.0838011, 47.3715298], [1.0823869, 47.3718234], [1.0823794, 47.3716749], [1.0824035, 47.371624], [1.0823815, 47.3715689], [1.0824572, 47.3714887], [1.0824568, 47.3714537], [1.082449, 47.3714326], [1.0823682, 47.3713899], [1.0823592, 47.3713304], [1.0824467, 47.3713056], [1.0824513, 47.3712737], [1.0824865, 47.3712475], [1.0825372, 47.3711971], [1.0824632, 47.3710852], [1.0823894, 47.3710624], [1.0823165, 47.3710402], [1.0821126, 47.3710136], [1.0820326, 47.3709977], [1.0819114, 47.3709595], [1.0818728, 47.3709129], [1.081891, 47.3708358], [1.0817766, 47.370775], [1.0816054, 47.3707431], [1.0814859, 47.3707551], [1.0811848, 47.3708083], [1.0810515, 47.37082], [1.0810103, 47.3708223], [1.080909, 47.3708025], [1.0807899, 47.3708005], [1.0804641, 47.3707299], [1.0803911, 47.3706868], [1.0803685, 47.3706724], [1.0802172, 47.3706361], [1.0801622, 47.370616], [1.0800108, 47.3705605], [1.0799274, 47.3705416], [1.0798284, 47.3704835], [1.0797963, 47.3704707], [1.0797318, 47.3704522], [1.0796021, 47.3704593], [1.0794766, 47.3703734], [1.0794682, 47.370322], [1.0795721, 47.3702701], [1.0795687, 47.370245], [1.0794903, 47.3702065], [1.0794703, 47.3701199], [1.0793981, 47.3701013], [1.0794274, 47.3700272], [1.0795373, 47.3699498], [1.0796143, 47.3698842], [1.0796737, 47.3698298], [1.0797593, 47.3698074], [1.0798217, 47.3697898], [1.0799426, 47.3698128], [1.0800656, 47.3697997], [1.0801851, 47.3697207], [1.0803041, 47.3695806], [1.0804417, 47.3694251], [1.0805811, 47.3693313], [1.0806168, 47.3693095], [1.0808754, 47.3692726], [1.0812292, 47.3692448], [1.0815047, 47.3692481], [1.0817153, 47.3692166], [1.0819121, 47.3692112], [1.0821821, 47.3692644], [1.0823158, 47.3692766], [1.0824096, 47.3692731], [1.0825202, 47.3692556]]]}}, {"type": "Feature", "properties": {"name": "Lac des Mousseaux"}, "geometry": {"type": "Polygon", "coordinates": [[[0.2203832, 47.4621365], [0.2218834, 47.462386], [0.2223989, 47.4624718], [0.2223774, 47.4625373], [0.2223184, 47.4626751], [0.2222755, 47.4629036], [0.2223372, 47.4631302], [0.2224123, 47.4632862], [0.22271, 47.4635237], [0.223005, 47.4637051], [0.2234208, 47.4639408], [0.2235656, 47.4640025], [0.2237641, 47.4639771], [0.2239961, 47.4639727], [0.2240257, 47.4640604], [0.2240525, 47.4641638], [0.2242188, 47.4643524], [0.2243985, 47.4646099], [0.2245085, 47.4648819], [0.2245326, 47.464987], [0.2244655, 47.4650813], [0.2227797, 47.465916], [0.2224834, 47.4660713], [0.2222828, 47.4662509], [0.2221025, 47.4664104], [0.221668, 47.4665156], [0.2215795, 47.4664667], [0.221432, 47.4664231], [0.2211932, 47.4665464], [0.2208016, 47.466755], [0.2199782, 47.4671919], [0.2193983, 47.4675782], [0.2192889, 47.4677522], [0.2191601, 47.4681946], [0.2192621, 47.4685573], [0.2188657, 47.4688622], [0.2169741, 47.4697104], [0.2162257, 47.4699208], [0.2154989, 47.469181], [0.2137533, 47.4677566], [0.2134551, 47.4677432], [0.2128516, 47.4677975], [0.2125378, 47.4678429], [0.2121113, 47.4679625], [0.2116875, 47.4680822], [0.2114085, 47.4681511], [0.2109338, 47.4682291], [0.2103974, 47.4683107], [0.2098563, 47.4683989], [0.2094375, 47.4684475], [0.2092283, 47.4684439], [0.2087857, 47.4684729], [0.2086008, 47.4685472], [0.208016, 47.4688083], [0.207611, 47.4693685], [0.2075198, 47.4695544], [0.207426, 47.4696604], [0.2073428, 47.4702288], [0.2073616, 47.4704926], [0.2075224, 47.4709877], [0.2077795, 47.4711772], [0.2081845, 47.4713549], [0.2083589, 47.4714546], [0.2087612, 47.4716831], [0.2093406, 47.4720892], [0.2096866, 47.4722759], [0.2099736, 47.4723738], [0.2101828, 47.4724083], [0.210451, 47.4724028], [0.2109284, 47.4723267], [0.2113844, 47.472265], [0.2120281, 47.4721345], [0.2125565, 47.4720656], [0.213329, 47.4720457], [0.2151958, 47.471092], [0.2153814, 47.4713248], [0.21581, 47.4718099], [0.2168427, 47.4726403], [0.2180926, 47.4731226], [0.2182589, 47.4731589], [0.2186076, 47.4730718], [0.2189563, 47.4729159], [0.2195678, 47.4726403], [0.2197609, 47.4725714], [0.2201311, 47.4724917], [0.2204315, 47.4725134], [0.2207158, 47.472731], [0.2208231, 47.4730138], [0.2204851, 47.4733547], [0.2199219, 47.4736701], [0.2194981, 47.4739892], [0.2189777, 47.4742612], [0.2186451, 47.4744533], [0.2184171, 47.4746618], [0.2180551, 47.4748667], [0.2175025, 47.4750226], [0.2171485, 47.475222], [0.21673, 47.475494], [0.216494, 47.4756027], [0.2163653, 47.4756571], [0.2161775, 47.475726], [0.2159093, 47.4757369], [0.2156947, 47.4757441], [0.2152739, 47.4757775], [0.2151207, 47.4758565], [0.2151744, 47.4759291], [0.2155338, 47.4760813], [0.2158235, 47.476317], [0.2159629, 47.4766868], [0.2159951, 47.4770168], [0.2160541, 47.4773431], [0.2163009, 47.4776187], [0.2166925, 47.4778833], [0.2159951, 47.4784127], [0.2156959, 47.4783324], [0.2146138, 47.4781154], [0.2143, 47.478157], [0.2120902, 47.4789413], [0.21194, 47.4788876], [0.2109583, 47.478467], [0.2116084, 47.4777699], [0.2118162, 47.4777528], [0.2120576, 47.477528], [0.212299, 47.4772778], [0.2124117, 47.4769769], [0.2124331, 47.4768174], [0.2122937, 47.4764512], [0.2120684, 47.4761919], [0.2115105, 47.4758838], [0.2105663, 47.4754867], [0.2100084, 47.4752655], [0.2094559, 47.4751858], [0.2083723, 47.4751386], [0.2074121, 47.4751169], [0.2068649, 47.4750879], [0.2063928, 47.4750915], [0.2061729, 47.4751676], [0.2060173, 47.4752401], [0.205792, 47.4752401], [0.2052985, 47.475135], [0.2052234, 47.4749646], [0.2052931, 47.4748667], [0.2050034, 47.4741125], [0.2057062, 47.4737789], [0.2058296, 47.473623], [0.2058751, 47.4734091], [0.2061031, 47.4732169], [0.2062886, 47.4729893], [0.2062403, 47.4728297], [0.2060606, 47.4726937], [0.2057307, 47.472585], [0.2055161, 47.4725469], [0.2053789, 47.4725352], [0.2052425, 47.4726212], [0.204931, 47.472809], [0.2047598, 47.4728623], [0.2043199, 47.4728623], [0.204116, 47.4728623], [0.203947, 47.4729113], [0.2037539, 47.4729748], [0.2033999, 47.4730038], [0.2028661, 47.4729748], [0.2024504, 47.472904], [0.2022438, 47.4728787], [0.2017986, 47.4727373], [0.2015648, 47.4726403], [0.2014254, 47.4724826], [0.2013073, 47.4721744], [0.2015327, 47.4721236], [0.2016296, 47.472032], [0.2016564, 47.4719558], [0.2016162, 47.4719341], [0.2014763, 47.4719242], [0.2011142, 47.471946], [0.2007521, 47.472013], [0.2004759, 47.4720076], [0.2002076, 47.4719006], [0.1999743, 47.4717665], [0.1998057, 47.4716114], [0.1996501, 47.4714192], [0.1994812, 47.4712596], [0.1988964, 47.4709514], [0.1986416, 47.470819], [0.1982903, 47.4707084], [0.1978531, 47.4705725], [0.1976599, 47.4705036], [0.1974427, 47.4703893], [0.1972201, 47.4702606], [0.1970994, 47.4701555], [0.197035, 47.4701101], [0.1967664, 47.4700839], [0.1964525, 47.4701093], [0.1961629, 47.4702], [0.1960475, 47.4703378], [0.1958812, 47.4706188], [0.1958249, 47.4706859], [0.1957525, 47.4706931], [0.195664, 47.4706134], [0.1954682, 47.4703795], [0.1952885, 47.4703178], [0.1951088, 47.4702997], [0.1948727, 47.4703142], [0.1946367, 47.4703541], [0.1942455, 47.470431], [0.1940711, 47.4704274], [0.1937654, 47.4704564], [0.1936018, 47.4704945], [0.1933174, 47.4705815], [0.1930376, 47.4706814], [0.1926093, 47.47079], [0.1923085, 47.4709016], [0.1919227, 47.4710167], [0.1916679, 47.4710838], [0.1914395, 47.4712189], [0.1912249, 47.4713567], [0.1909969, 47.4715054], [0.190895, 47.4717411], [0.1904739, 47.4718118], [0.1903315, 47.4718245], [0.1901091, 47.4718444], [0.1897578, 47.471955], [0.1893501, 47.4721091], [0.1888512, 47.4722705], [0.188658, 47.4723194], [0.1885159, 47.4723267], [0.1883818, 47.4723339], [0.1881377, 47.4722977], [0.1879795, 47.4722796], [0.1878266, 47.4722777], [0.1876764, 47.4722777], [0.1875154, 47.4722832], [0.1873947, 47.4722614], [0.1871233, 47.4705588], [0.1871077, 47.4704611], [0.1871104, 47.4703432], [0.187266, 47.4702272], [0.1873384, 47.4702308], [0.187494, 47.4702272], [0.1875905, 47.4702779], [0.1877971, 47.4703124], [0.188017, 47.4703124], [0.1881377, 47.4703033], [0.1881431, 47.4702707], [0.1883389, 47.4701456], [0.1885186, 47.4701147], [0.1887117, 47.4700894], [0.1889558, 47.469986], [0.1891382, 47.4699189], [0.1893554, 47.4698917], [0.1896022, 47.4698482], [0.1897041, 47.4698065], [0.1897451, 47.4697954], [0.1899375, 47.4697431], [0.1901225, 47.4696433], [0.1902298, 47.4695454], [0.1905356, 47.4693659], [0.190946, 47.4691556], [0.1912276, 47.4690251], [0.1913912, 47.4689743], [0.1914657, 47.4689357], [0.191587, 47.4688728], [0.1918606, 47.4687622], [0.1923246, 47.4684684], [0.1924936, 47.4684485], [0.1925928, 47.4684013], [0.1927565, 47.4682617], [0.1930193, 47.4680097], [0.193073, 47.4679027], [0.1932473, 47.4678483], [0.1934002, 47.4679027], [0.1937033, 47.467968], [0.1945187, 47.4679354], [0.1949371, 47.4679027], [0.1951919, 47.467881], [0.195554, 47.4678683], [0.195833, 47.467861], [0.1961816, 47.4678139], [0.1965169, 47.4677377], [0.1966752, 47.4676344], [0.1967717, 47.4674675], [0.1967798, 47.4673696], [0.1967851, 47.4672373], [0.1969005, 47.4670741], [0.19693, 47.4669163], [0.1969032, 47.4667205], [0.1969273, 47.4665065], [0.1968924, 47.4662327], [0.1968522, 47.4659934], [0.1967637, 47.4659408], [0.1966537, 47.4658465], [0.1965813, 47.4657105], [0.196525, 47.4655546], [0.196364, 47.4653443], [0.1962407, 47.4653297], [0.1960797, 47.4652917], [0.1959456, 47.46523], [0.1959215, 47.4650958], [0.1960958, 47.4648547], [0.1964499, 47.4648093], [0.1966671, 47.4648111], [0.1970963, 47.4649598], [0.1973001, 47.4651067], [0.1974155, 47.4651339], [0.1977481, 47.4652427], [0.1979358, 47.4652572], [0.1982148, 47.4652717], [0.198373, 47.4653098], [0.1986841, 47.4655383], [0.1989604, 47.4659589], [0.199006, 47.4663307], [0.1991643, 47.4666099], [0.1991643, 47.4669635], [0.1991455, 47.4672101], [0.1992447, 47.4673497], [0.1995585, 47.4675782], [0.2000467, 47.4677214], [0.2004329, 47.467716], [0.2009131, 47.4677051], [0.2011625, 47.4676797], [0.201648, 47.4675582], [0.2024097, 47.4673116], [0.2032064, 47.4669453], [0.2041455, 47.4665563], [0.2044057, 47.4664258], [0.204462, 47.4663043], [0.2044486, 47.4661211], [0.2042555, 47.465831], [0.2041022, 47.4656199], [0.2038984, 47.4655473], [0.203775, 47.4653715], [0.2037079, 47.4648184], [0.2036838, 47.4646389], [0.2035792, 47.4645156], [0.2033217, 47.4642581], [0.2031044, 47.4639625], [0.2030132, 47.4637848], [0.203024, 47.4636923], [0.2031312, 47.4635962], [0.20326, 47.4635436], [0.203429, 47.4635273], [0.2035684, 47.4636216], [0.2037991, 47.4638664], [0.2040781, 47.4641384], [0.2046333, 47.4647404], [0.204923, 47.4649345], [0.2054514, 47.4650723], [0.2059127, 47.4651267], [0.2062399, 47.4651938], [0.2066288, 47.4651738], [0.2068542, 47.465152], [0.207463, 47.4650976], [0.2078117, 47.465065], [0.208493, 47.4649997], [0.2092256, 47.4649897], [0.2100889, 47.4649471], [0.2106982, 47.464899], [0.2108882, 47.4648148], [0.2110786, 47.4646806], [0.2112074, 47.4644721], [0.2114032, 47.4642001], [0.2114166, 47.4641003], [0.2114246, 47.463977], [0.2115668, 47.4638791], [0.2117358, 47.4638719], [0.2118511, 47.4639643], [0.2120255, 47.4640405], [0.2122105, 47.4641511], [0.2124063, 47.4642363], [0.2130286, 47.4641964], [0.2138333, 47.4641511], [0.2142302, 47.4641239], [0.2147559, 47.4639915], [0.2150644, 47.4639535], [0.2153518, 47.4639343], [0.2159338, 47.4637385], [0.2162691, 47.4636261], [0.2164193, 47.4635572], [0.2166875, 47.4634919], [0.2170063, 47.4634838], [0.2174815, 47.4636061], [0.2178889, 47.4636104], [0.218366, 47.4635955], [0.2188638, 47.4634341], [0.2193525, 47.463016], [0.2193559, 47.4629525], [0.2195088, 47.4628292], [0.2199085, 47.4624593], [0.2201472, 47.4622453], [0.2202142, 47.4621256], [0.2203832, 47.4621365]]]}}, {"type": "Feature", "properties": {"name": "Retenue de Pincemaille"}, "geometry": {"type": "Polygon", "coordinates": [[[0.2213998, 47.4621873], [0.2222129, 47.4623186], [0.2224436, 47.4623422], [0.2226233, 47.4623078], [0.2227864, 47.462231], [0.2232348, 47.4618007], [0.2234416, 47.4616703], [0.2238701, 47.4615326], [0.2241482, 47.4614785], [0.2243609, 47.461453], [0.2245889, 47.4613568], [0.2247531, 47.4613293], [0.225002, 47.4612679], [0.2255474, 47.4612889], [0.2257472, 47.4614032], [0.2259166, 47.4614002], [0.2258952, 47.4612751], [0.2257637, 47.4611936], [0.2257555, 47.4609092], [0.2257995, 47.4607288], [0.2258986, 47.4604981], [0.2261848, 47.4602907], [0.226563, 47.4601167], [0.2268608, 47.4600076], [0.2271338, 47.4598915], [0.2273462, 47.4597067], [0.2279953, 47.4594055], [0.2284567, 47.4592372], [0.2286605, 47.4591879], [0.2289231, 47.4591897], [0.2291337, 47.4591725], [0.2293602, 47.4591119], [0.2298054, 47.4589179], [0.2300184, 47.4588459], [0.23021, 47.4587456], [0.2303437, 47.4586062], [0.2309199, 47.4580465], [0.2311681, 47.4578191], [0.2312674, 47.4575396], [0.2313908, 47.4572964], [0.2317101, 47.4568687], [0.2318817, 47.4567541], [0.2320453, 47.4566276], [0.2323807, 47.4563267], [0.2327697, 47.456136], [0.2331103, 47.4560396], [0.2333709, 47.4559618], [0.2334778, 47.4558312], [0.2335153, 47.4555934], [0.2342657, 47.4554216], [0.2347468, 47.4553185], [0.2356775, 47.4551636], [0.2360338, 47.4550856], [0.2364628, 47.4550895], [0.2369914, 47.4551912], [0.2372937, 47.4551026], [0.237261, 47.4550262], [0.2372542, 47.4549624], [0.2369161, 47.4549713], [0.2367384, 47.4548821], [0.2363661, 47.4547199], [0.2362239, 47.4547178], [0.2359481, 47.4547812], [0.2356745, 47.4548577], [0.2350116, 47.4549336], [0.2343758, 47.4549414], [0.2340008, 47.4550003], [0.2333249, 47.4550748], [0.233025, 47.4551339], [0.2326302, 47.4552821], [0.2322118, 47.4555538], [0.2316226, 47.4559217], [0.2315034, 47.4559949], [0.2313516, 47.4560081], [0.2310139, 47.456157], [0.2307847, 47.4563759], [0.2305887, 47.4565631], [0.2301597, 47.4569728], [0.2299901, 47.4573179], [0.2298945, 47.4575124], [0.2297477, 47.4576773], [0.2297115, 47.4576987], [0.2296044, 47.457768], [0.2292126, 47.4579806], [0.2287061, 47.4581347], [0.2285159, 47.4581624], [0.2284382, 47.4581898], [0.2284002, 47.4582583], [0.2282929, 47.4583359], [0.2281509, 47.4583521], [0.2279444, 47.4582902], [0.227816, 47.4581135], [0.2275343, 47.4581476], [0.2272377, 47.458239], [0.2269487, 47.4583664], [0.2267056, 47.4584599], [0.2262707, 47.458514], [0.2257684, 47.4585916], [0.2244863, 47.4584793], [0.2240142, 47.4584052], [0.2239719, 47.4584195], [0.223808, 47.4584751], [0.2237331, 47.4585005], [0.2235588, 47.4587361], [0.2231057, 47.4592079], [0.2223603, 47.4598445], [0.2221338, 47.4600526], [0.2218416, 47.4602865], [0.2217671, 47.4603164], [0.2216598, 47.4603215], [0.2215445, 47.4602764], [0.2210992, 47.4600909], [0.2209194, 47.4600116], [0.218868, 47.4587545], [0.2187111, 47.4588071], [0.2184202, 47.4589953], [0.2183617, 47.4590703], [0.2183926, 47.4590992], [0.2183547, 47.4591202], [0.2183764, 47.4591543], [0.2189905, 47.4596919], [0.2193162, 47.4600598], [0.2196091, 47.4602983], [0.2200509, 47.4606986], [0.2202718, 47.4609047], [0.2204577, 47.4611314], [0.220407, 47.4613832], [0.2201529, 47.4619193], [0.2201639, 47.4619814], [0.2203783, 47.4620155], [0.2213288, 47.4621754], [0.2213998, 47.4621873]]]}}, {"type": "Feature", "properties": {"name": "Lac de Saint-Avertin"}, "geometry": {"type": "MultiPolygon", "coordinates": [[[[0.7324565, 47.3698494], [0.732453, 47.3698421], [0.7324255, 47.369785], [0.7323356, 47.3697788], [0.7323582, 47.3696039], [0.732291, 47.3695121], [0.7321819, 47.369405], [0.732101, 47.369387], [0.7319064, 47.3693934], [0.7315403, 47.3694051], [0.7312358, 47.3694248], [0.7310095, 47.3694439], [0.7308691, 47.3694489], [0.7307286, 47.3694589], [0.7305648, 47.3694589], [0.730439, 47.3694474], [0.7301899, 47.3694649], [0.729977, 47.3694765], [0.729752, 47.369475], [0.7295758, 47.3694739], [0.7293849, 47.3695135], [0.7292459, 47.3695101], [0.7291649, 47.3695281], [0.7290074, 47.3695044], [0.7276293, 47.3691408], [0.7268263, 47.3688517], [0.7266853, 47.3688006], [0.726551, 47.368753], [0.7264245, 47.3687029], [0.7262084, 47.3686474], [0.7262055, 47.3686241], [0.7261532, 47.3685965], [0.7260708, 47.3685803], [0.7260145, 47.3685615], [0.7259736, 47.3685294], [0.7257737, 47.3684837], [0.7255206, 47.3684511], [0.7244771, 47.3681911], [0.7231498, 47.36793], [0.7229368, 47.3679675], [0.7228531, 47.3680006], [0.7228206, 47.3680159], [0.7227854, 47.3680328], [0.7227649, 47.3680133], [0.7226845, 47.3680474], [0.7226019, 47.3680726], [0.7225113, 47.368121], [0.7223893, 47.3682035], [0.7222631, 47.3683112], [0.7222407, 47.3683363], [0.7222198, 47.3683801], [0.722208, 47.3684259], [0.7222016, 47.3684681], [0.7222157, 47.3686295], [0.7223547, 47.3690821], [0.7223548, 47.3691059], [0.7223326, 47.369215], [0.722325, 47.3692674], [0.7223204, 47.369338], [0.7222804, 47.3694119], [0.7222202, 47.3695228], [0.722174, 47.3696709], [0.7220409, 47.3698489], [0.7220143, 47.3698749], [0.7219085, 47.370014], [0.7218631, 47.3700244], [0.7217526, 47.3701661], [0.7215376, 47.3703728], [0.7214559, 47.3704772], [0.7212429, 47.3706799], [0.721077, 47.3708212], [0.7208493, 47.3709664], [0.7206324, 47.3711025], [0.7203961, 47.3712383], [0.7202668, 47.3713091], [0.7201384, 47.371375], [0.719763, 47.3715529], [0.7193823, 47.3716739], [0.7191757, 47.3717417], [0.7191551, 47.3717454], [0.719129, 47.371753], [0.719127, 47.371927], [0.7193476, 47.3719242], [0.7198756, 47.3719112], [0.7201492, 47.3719042], [0.7201237, 47.3719244], [0.7201235, 47.3719308], [0.7324565, 47.3698494]]], [[[0.7201235, 47.3719308], [0.7201239, 47.3719345], [0.7201275, 47.3719722], [0.7201396, 47.3719716], [0.7201583, 47.3719708], [0.7201547, 47.3719333], [0.7201543, 47.3719294], [0.7201235, 47.3719308]]], [[[0.7201543, 47.3719294], [0.7201555, 47.3719235], [0.720186, 47.3719029], [0.7209952, 47.3718609], [0.7212513, 47.3716959], [0.7215117, 47.3715242], [0.7214983, 47.3715146], [0.7220321, 47.3711537], [0.7220454, 47.3711627], [0.7222724, 47.3710212], [0.7223113, 47.3709629], [0.7227991, 47.3701132], [0.7228687, 47.3700367], [0.7230151, 47.3699219], [0.7232121, 47.369806], [0.7233621, 47.3697732], [0.7235312, 47.3697551], [0.7235561, 47.369746], [0.7235825, 47.3697248], [0.7235958, 47.3696548], [0.7235989, 47.3696091], [0.7236092, 47.3695922], [0.7236314, 47.36958], [0.7236553, 47.3695752], [0.7237585, 47.36958], [0.7237838, 47.3695883], [0.7238034, 47.3696044], [0.7238062, 47.3696231], [0.7237743, 47.3697383], [0.723788, 47.3697488], [0.7239228, 47.3697724], [0.7240529, 47.3698314], [0.7240838, 47.3698532], [0.724126, 47.3698862], [0.7241719, 47.3699158], [0.7243685, 47.3700211], [0.7244472, 47.3700485], [0.724643, 47.3700821], [0.7251701, 47.3701403], [0.7261688, 47.3702742], [0.7275524, 47.3704521], [0.7280427, 47.3704981], [0.7282443, 47.3705078], [0.7287458, 47.3705122], [0.7288811, 47.3705145], [0.7291621, 47.3705046], [0.7296028, 47.3704728], [0.7297718, 47.3704488], [0.7308237, 47.3702018], [0.7319102, 47.3699531], [0.7324052, 47.36984], [0.7324138, 47.3698593], [0.7201543, 47.3719294]]], [[[0.7324138, 47.3698593], [0.7324166, 47.3698655], [0.7324332, 47.3699027], [0.732478, 47.3698929], [0.7324623, 47.3698611], [0.7324565, 47.3698494], [0.7324138, 47.3698593]]]]}}, {"type": "Feature", "properties": {"name": "Plan d'eau des Ténières"}, "geometry": {"type": "Polygon", "coordinates": [[[0.1553776, 47.2584665], [0.1562734, 47.2583828], [0.1571693, 47.2581752], [0.158387, 47.2578767], [0.1589342, 47.2577565], [0.1593741, 47.2576947], [0.1596638, 47.2576983], [0.1600446, 47.2577456], [0.1603129, 47.2577493], [0.1603933, 47.2577565], [0.1605006, 47.2578221], [0.160624, 47.2578549], [0.1607742, 47.2579131], [0.1609512, 47.2580078], [0.1611282, 47.2580551], [0.1613965, 47.2581279], [0.1617398, 47.2582262], [0.1618739, 47.2582335], [0.1620456, 47.2581643], [0.1621153, 47.2580551], [0.1621689, 47.2579495], [0.1622333, 47.2578913], [0.1623084, 47.2578184], [0.1624693, 47.2577675], [0.162641, 47.257742], [0.1627751, 47.2577565], [0.1628663, 47.2578039], [0.1632955, 47.2585357], [0.1636656, 47.2592966], [0.1639285, 47.2599738], [0.1639928, 47.2601449], [0.1640143, 47.2602541], [0.1639767, 47.2603597], [0.1639285, 47.2603852], [0.1637514, 47.2603815], [0.1633169, 47.2604689], [0.1631292, 47.2605053], [0.1630219, 47.2605454], [0.1629468, 47.2605672], [0.162861, 47.2605417], [0.1628288, 47.2604907], [0.1627322, 47.2604616], [0.1625713, 47.2603997], [0.1624425, 47.2603378], [0.1623191, 47.2603342], [0.1621904, 47.2604107], [0.162126, 47.2604835], [0.1619973, 47.2605745], [0.1618417, 47.2607274], [0.1617666, 47.2608548], [0.1616164, 47.2609131], [0.1613965, 47.2610478], [0.1613214, 47.2611206], [0.1612194, 47.2612043], [0.1610585, 47.2612589], [0.1609619, 47.261339], [0.1608493, 47.2613936], [0.1608064, 47.2614373], [0.160801, 47.2615101], [0.1608493, 47.2615684], [0.1608708, 47.2616011], [0.1608439, 47.2616557], [0.1607313, 47.2616958], [0.160506, 47.261765], [0.1602753, 47.2618341], [0.1600607, 47.2618305], [0.1598354, 47.2617904], [0.1596852, 47.2617395], [0.1596101, 47.2616958], [0.1595565, 47.2616412], [0.1594277, 47.2610223], [0.1594385, 47.2609058], [0.1594277, 47.2608621], [0.1594063, 47.260822], [0.1593312, 47.2608038], [0.1591166, 47.260822], [0.1583924, 47.2608839], [0.1579954, 47.2608985], [0.1577165, 47.260924], [0.1575234, 47.2610077], [0.1574536, 47.2611097], [0.1574161, 47.261248], [0.1574804, 47.261663], [0.157636, 47.2624639], [0.1576682, 47.2628134], [0.1577165, 47.2629554], [0.1577272, 47.2630391], [0.1577111, 47.2630865], [0.1575019, 47.2631993], [0.1569172, 47.2634141], [0.1565739, 47.2635415], [0.1563861, 47.2635998], [0.1563003, 47.2635961], [0.1562252, 47.2635888], [0.1561715, 47.2635306], [0.1559516, 47.2629809], [0.1557638, 47.262595], [0.1556351, 47.262311], [0.1555653, 47.2621763], [0.1555546, 47.2620853], [0.1555385, 47.2620344], [0.15556, 47.2619688], [0.1555385, 47.2619215], [0.1554688, 47.2618705], [0.1553883, 47.261856], [0.1550933, 47.2618997], [0.1536556, 47.2620671], [0.1531084, 47.2621181], [0.1527544, 47.2621072], [0.1525184, 47.2620708], [0.152234, 47.2620198], [0.152116, 47.2620307], [0.1516922, 47.2620052], [0.1511719, 47.2620052], [0.1506676, 47.2619834], [0.1496859, 47.2619215], [0.1494606, 47.2619215], [0.1489081, 47.2619761], [0.148597, 47.2620344], [0.1483448, 47.2620853], [0.1480176, 47.2621217], [0.1478513, 47.2620999], [0.1477387, 47.2620817], [0.1476206, 47.262038], [0.1474973, 47.2619907], [0.1473685, 47.2619179], [0.1472666, 47.2618086], [0.1472022, 47.2617431], [0.1471432, 47.2616921], [0.1470627, 47.2616885], [0.146993, 47.2617504], [0.1468911, 47.2618815], [0.1467194, 47.2620598], [0.1465907, 47.2621727], [0.1465638, 47.2622928], [0.1465478, 47.2631484], [0.1464834, 47.263334], [0.1464405, 47.2634032], [0.1462903, 47.2634614], [0.1460811, 47.2635197], [0.1453729, 47.2636216], [0.1449009, 47.263709], [0.1443269, 47.2637927], [0.1441874, 47.2637709], [0.144064, 47.2637235], [0.143946, 47.2635779], [0.143651, 47.262777], [0.1435973, 47.2625622], [0.1436402, 47.262453], [0.1437207, 47.2623474], [0.1438924, 47.2622528], [0.14452, 47.2620307], [0.1447882, 47.2619652], [0.1450189, 47.2619361], [0.1452549, 47.261947], [0.1456251, 47.2619834], [0.1457967, 47.2619798], [0.1459845, 47.2619179], [0.1462473, 47.2617868], [0.1464297, 47.2617031], [0.1465263, 47.2616121], [0.1465531, 47.2615429], [0.1465692, 47.2613936], [0.1466175, 47.2611024], [0.1467248, 47.2607856], [0.1468428, 47.2605636], [0.1469984, 47.260316], [0.1471003, 47.260174], [0.1471808, 47.2600502], [0.147288, 47.2599046], [0.147508, 47.2597298], [0.147803, 47.2596388], [0.1485058, 47.2594386], [0.1491012, 47.259242], [0.1496323, 47.2591291], [0.1501151, 47.2590964], [0.1510163, 47.2591073], [0.1513382, 47.2591073], [0.151601, 47.2590563], [0.1520302, 47.2589726], [0.1525344, 47.2588233], [0.1527812, 47.2587396], [0.1531835, 47.2586485], [0.1537039, 47.2585393], [0.1538809, 47.2585175], [0.154412, 47.258492], [0.1549109, 47.258492], [0.1552006, 47.2584847], [0.1553776, 47.2584665]]]}}, {"type": "Feature", "properties": {"name": "Étang du Louroux"}, "geometry": {"type": "Polygon", "coordinates": [[[0.7712701, 47.1523568], [0.7713603, 47.152342], [0.7716397, 47.1525154], [0.7716193, 47.1526361], [0.7718804, 47.1527221], [0.7719681, 47.1530148], [0.7721742, 47.1530439], [0.7725474, 47.153012], [0.7728986, 47.1530248], [0.7736313, 47.1529375], [0.7739737, 47.1528301], [0.7741226, 47.152837], [0.7741103, 47.1529355], [0.7742939, 47.1529549], [0.7744652, 47.1527066], [0.774555, 47.1526733], [0.7749568, 47.152769], [0.7750649, 47.1528453], [0.7750996, 47.152948], [0.7749997, 47.1533643], [0.7747855, 47.1536679], [0.7748814, 47.1538302], [0.7748487, 47.1539939], [0.7746672, 47.1541575], [0.7743959, 47.1542116], [0.7741328, 47.1542019], [0.7736126, 47.1542949], [0.773684, 47.1543448], [0.7738268, 47.1543614], [0.7741756, 47.1543379], [0.7744122, 47.1543739], [0.7747041, 47.1543867], [0.7752485, 47.1543503], [0.7757462, 47.1543254], [0.7761827, 47.1542338], [0.7766151, 47.1541672], [0.7769297, 47.1542422], [0.7775901, 47.1545626], [0.7782531, 47.1549079], [0.7785774, 47.1551687], [0.7787406, 47.1554406], [0.7791465, 47.1557624], [0.7794443, 47.1559122], [0.7800226, 47.15639], [0.780208, 47.1568352], [0.7802114, 47.1570453], [0.7801767, 47.1572741], [0.7800616, 47.1574639], [0.7799789, 47.1575478], [0.7797464, 47.1576469], [0.7795527, 47.157731], [0.7790386, 47.1578428], [0.7789369, 47.1578401], [0.7784764, 47.1577319], [0.7782648, 47.1577153], [0.7781919, 47.1577366], [0.7781017, 47.1578097], [0.7780564, 47.1578854], [0.7782317, 47.1579357], [0.7783805, 47.1580124], [0.7784812, 47.1580369], [0.778546, 47.1580858], [0.778558, 47.1581494], [0.7785028, 47.1582163], [0.7784836, 47.1582751], [0.7785196, 47.1583061], [0.7785724, 47.1582881], [0.778642, 47.1582359], [0.7787116, 47.1581968], [0.7788628, 47.1582033], [0.7790307, 47.1582196], [0.7791195, 47.1582604], [0.7792371, 47.1583142], [0.7793715, 47.1583664], [0.7794866, 47.158404], [0.779585, 47.1584056], [0.7797074, 47.1583746], [0.7798034, 47.1583762], [0.7798946, 47.1584154], [0.7799454, 47.158427], [0.7802046, 47.1583993], [0.7803126, 47.1583944], [0.7804205, 47.158414], [0.7805237, 47.158445], [0.780757, 47.1585001], [0.7813273, 47.1589706], [0.781465, 47.1591862], [0.7818143, 47.1594279], [0.7819742, 47.1596263], [0.7820547, 47.1597467], [0.7820612, 47.1597956], [0.7820083, 47.1598681], [0.782032, 47.1599042], [0.7820778, 47.1598988], [0.7822019, 47.1599665], [0.7823055, 47.1599805], [0.7823632, 47.1600047], [0.7823719, 47.160052], [0.7825981, 47.1601562], [0.7825981, 47.1602058], [0.782612, 47.1602789], [0.7826363, 47.160319], [0.7827196, 47.1603757], [0.7828513, 47.160456], [0.7829505, 47.1604832], [0.7830405, 47.1604864], [0.7831266, 47.1604607], [0.783159, 47.1604283], [0.7834676, 47.1601011], [0.7835058, 47.160048], [0.783563, 47.1600032], [0.7839202, 47.1596486], [0.7845907, 47.1589477], [0.7845256, 47.1588403], [0.7844843, 47.1587557], [0.7843859, 47.158667], [0.7842691, 47.1586008], [0.7841685, 47.1585655], [0.7840582, 47.1585544], [0.7838927, 47.1585897], [0.7837694, 47.1586206], [0.7836331, 47.1586934], [0.7835389, 47.1586868], [0.7834968, 47.1586096], [0.7834968, 47.1585059], [0.7834878, 47.158302], [0.7835454, 47.1581661], [0.7836202, 47.1580557], [0.7836173, 47.1578511], [0.783659, 47.1577543], [0.7837596, 47.157667], [0.7840442, 47.1574971], [0.7840944, 47.1573587], [0.7840736, 47.157258], [0.7840285, 47.1571539], [0.7839459, 47.1570582], [0.7837926, 47.1569833], [0.7832275, 47.1567577], [0.7831478, 47.1567274], [0.7830977, 47.1566882], [0.7830801, 47.1565824], [0.7830098, 47.1565039], [0.7829346, 47.156405], [0.7828367, 47.1563026], [0.7827238, 47.1560433], [0.7825758, 47.1557515], [0.7823092, 47.1552855], [0.7821921, 47.1551271], [0.7821074, 47.1550678], [0.7820932, 47.1549857], [0.7820535, 47.1548463], [0.7819971, 47.1547206], [0.7819432, 47.1545584], [0.7819201, 47.1544677], [0.781933, 47.1543455], [0.7819278, 47.1541571], [0.7818919, 47.1540524], [0.7818114, 47.153967], [0.7817611, 47.1539129], [0.7817226, 47.1538204], [0.7816251, 47.1537646], [0.7814942, 47.1537105], [0.7812967, 47.1536093], [0.7807169, 47.153201], [0.780563, 47.1531382], [0.7803962, 47.1531138], [0.7802624, 47.1530716], [0.7801467, 47.1529137], [0.780131, 47.152821], [0.7801519, 47.1526979], [0.7801756, 47.1524285], [0.7801516, 47.1520833], [0.7800942, 47.1519343], [0.7800129, 47.1518522], [0.7799368, 47.151763], [0.779887, 47.151681], [0.779887, 47.1515775], [0.7799578, 47.1513723], [0.7800942, 47.1511725], [0.7801718, 47.1510041], [0.7801635, 47.1507633], [0.7801179, 47.1506188], [0.7799662, 47.1504046], [0.7799218, 47.1502877], [0.779822, 47.1499616], [0.7798039, 47.1497428], [0.7796854, 47.1495506], [0.7795451, 47.1493623], [0.7794199, 47.1492642], [0.7792009, 47.1491166], [0.7781259, 47.1485767], [0.7780121, 47.1485288], [0.77795, 47.1484707], [0.7778531, 47.1483309], [0.777694, 47.1480961], [0.7774612, 47.1477663], [0.7773197, 47.1475524], [0.7772424, 47.1473237], [0.7772345, 47.1471564], [0.7772464, 47.1470053], [0.7772821, 47.146838], [0.7773337, 47.1467625], [0.7773297, 47.1466681], [0.7772813, 47.1465626], [0.7772385, 47.1464522], [0.777167, 47.1462984], [0.7768854, 47.1458829], [0.776685, 47.1455325], [0.7766403, 47.1454283], [0.7766038, 47.1452849], [0.7764947, 47.1446757], [0.7761102, 47.1437507], [0.7758829, 47.1433228], [0.7753026, 47.1430208], [0.7754285, 47.1434321], [0.7757151, 47.1439315], [0.7763107, 47.1447295], [0.7763963, 47.1448708], [0.776426, 47.1450514], [0.7763744, 47.1451997], [0.7763686, 47.1453987], [0.7763884, 47.1456372], [0.7763795, 47.1458005], [0.776416, 47.1459633], [0.7765377, 47.1462089], [0.7765661, 47.1462972], [0.776575, 47.1464046], [0.7765531, 47.1465218], [0.7765101, 47.1466272], [0.7764412, 47.1467559], [0.7764351, 47.1468306], [0.7764728, 47.1469842], [0.7766076, 47.1472846], [0.7766707, 47.1475011], [0.7767022, 47.1476553], [0.7767912, 47.1478386], [0.7769166, 47.148094], [0.7768973, 47.148182], [0.7768371, 47.1483146], [0.7768199, 47.1484317], [0.7768227, 47.1485624], [0.776855, 47.1487051], [0.776817, 47.1487536], [0.7768055, 47.1488043], [0.7767625, 47.1488862], [0.7766489, 47.1490391], [0.7765789, 47.1491262], [0.7764097, 47.1492569], [0.7762777, 47.1492861], [0.7761773, 47.1493213], [0.7761173, 47.1493661], [0.776116, 47.1494293], [0.7761396, 47.1495592], [0.7762179, 47.1497082], [0.7763315, 47.1498792], [0.7765505, 47.1500999], [0.7768426, 47.1502903], [0.7770049, 47.1504144], [0.7772239, 47.1506737], [0.7773471, 47.1507879], [0.7773172, 47.1508475], [0.7771266, 47.1509855], [0.7768467, 47.1511538], [0.7767331, 47.1511979], [0.7762823, 47.1513434], [0.7761124, 47.1513386], [0.7759542, 47.1512834], [0.7755365, 47.1511239], [0.7745804, 47.1508372], [0.7742588, 47.1506517], [0.7737694, 47.1500693], [0.7736512, 47.1500619], [0.7734652, 47.1500502], [0.7733044, 47.1502119], [0.773245, 47.1504496], [0.7731751, 47.1508657], [0.7729688, 47.1511034], [0.7724363, 47.1516847], [0.7723629, 47.1516859], [0.7723437, 47.1515753], [0.7723909, 47.1513554], [0.7723891, 47.1512211], [0.7723297, 47.1512235], [0.7722283, 47.151611], [0.7720378, 47.1516966], [0.7719277, 47.1517215], [0.7718263, 47.1516657], [0.7717022, 47.1514945], [0.7714507, 47.1514396], [0.7712409, 47.151553], [0.7711248, 47.1517337], [0.7710561, 47.1520437], [0.7710156, 47.1522089], [0.7710141, 47.1522254], [0.7709603, 47.1525031], [0.7711046, 47.1526165], [0.7712316, 47.1526385], [0.7713162, 47.152603], [0.771244, 47.152476], [0.7712701, 47.1523568]]]}}, {"type": "Feature", "properties": {"name": "Étang d'Assay"}, "geometry": {"type": "Polygon", "coordinates": [[[0.304074, 47.0691865], [0.3043047, 47.0692047], [0.304487, 47.0691974], [0.304656, 47.0691371], [0.3048196, 47.0690549], [0.3052676, 47.0687151], [0.3059241, 47.0682799], [0.3063633, 47.0679971], [0.3063297, 47.0679716], [0.3063793, 47.0679387], [0.3064035, 47.0679551], [0.3066221, 47.0678035], [0.3070445, 47.0674021], [0.3073838, 47.0668699], [0.3073803, 47.0666649], [0.3061496, 47.0655858], [0.305568, 47.0650831], [0.3045863, 47.0644181], [0.3022474, 47.0628267], [0.30141, 47.0622734], [0.3005603, 47.0617121], [0.3000318, 47.0621416], [0.2997324, 47.0624555], [0.3001728, 47.0627933], [0.3012618, 47.0636285], [0.3008538, 47.0640582], [0.2985037, 47.0665335], [0.2982276, 47.0668242], [0.2979934, 47.0670709], [0.2987578, 47.0673924], [0.2987757, 47.0673999], [0.299504, 47.067704], [0.301063, 47.0684033], [0.3018048, 47.068695], [0.3026068, 47.0689618], [0.3034946, 47.0691116], [0.304074, 47.0691865]]]}}, {"type": "Feature", "properties": {"name": "Lac des Bretonnières"}, "geometry": {"type": "MultiPolygon", "coordinates": [[[[0.6393804, 47.3573844], [0.6394442, 47.3574306], [0.6405588, 47.3572022], [0.6411335, 47.357109], [0.6417224, 47.3570404], [0.6422163, 47.356995], [0.6423327, 47.3569717], [0.6423976, 47.3569226], [0.642368, 47.3568466], [0.6423334, 47.3567687], [0.6421284, 47.356343], [0.6420917, 47.3561902], [0.6421095, 47.3559336], [0.6421257, 47.3558097], [0.6420984, 47.3556098], [0.6420512, 47.3554348], [0.6420269, 47.3553414], [0.641768, 47.3549489], [0.6415931, 47.3547581], [0.6415235, 47.354678], [0.6413973, 47.3545792], [0.6413309, 47.354439], [0.6412468, 47.3542219], [0.6412576, 47.35391], [0.6412963, 47.3535719], [0.6413772, 47.3534842], [0.6414347, 47.3531631], [0.6414896, 47.3530298], [0.6414873, 47.3529212], [0.6414543, 47.3528598], [0.6414867, 47.3527984], [0.6415132, 47.3524139], [0.6415522, 47.3523521], [0.641549, 47.3523121], [0.6415749, 47.3522836], [0.6415976, 47.3521904], [0.6416348, 47.3520906], [0.6416558, 47.3520467], [0.6416728, 47.3519606], [0.6416712, 47.3518767], [0.6417101, 47.3517424], [0.6417022, 47.351588], [0.6417148, 47.3514492], [0.6417022, 47.3514011], [0.6416999, 47.3513259], [0.6416908, 47.3512794], [0.6417046, 47.3512007], [0.6416976, 47.3511584], [0.6417239, 47.3511228], [0.6417526, 47.3511041], [0.6418258, 47.3509971], [0.641827, 47.3509739], [0.6418544, 47.3509475], [0.6418842, 47.3509444], [0.6419609, 47.35087], [0.642006, 47.3507674], [0.6420662, 47.3505807], [0.6421154, 47.3504613], [0.6421417, 47.3503954], [0.6421405, 47.3503215], [0.6420444, 47.3500434], [0.6419844, 47.349903], [0.6419039, 47.3497704], [0.641846, 47.34971], [0.6418015, 47.3496881], [0.641723, 47.3496765], [0.6416508, 47.3496706], [0.6416076, 47.3496439], [0.6415946, 47.349606], [0.6416596, 47.3495801], [0.6417125, 47.3495402], [0.641727, 47.3495164], [0.6415126, 47.3492311], [0.6414486, 47.3491688], [0.6413737, 47.3491352], [0.6413193, 47.3491038], [0.6412964, 47.3490178], [0.6412554, 47.3489209], [0.6411114, 47.3485469], [0.6409382, 47.3482103], [0.6408119, 47.3478462], [0.6407698, 47.3477964], [0.6406862, 47.3477609], [0.6406236, 47.3478239], [0.6406819, 47.347901], [0.6407099, 47.3479506], [0.6406927, 47.3480266], [0.6406515, 47.3481057], [0.640584, 47.3481863], [0.6405726, 47.3482647], [0.640623, 47.3483754], [0.6406366, 47.3484143], [0.6406196, 47.3484976], [0.6405709, 47.3485555], [0.6405407, 47.3485975], [0.6405146, 47.3486784], [0.6405041, 47.3487509], [0.6405439, 47.3488551], [0.640727, 47.3489662], [0.6408456, 47.3490047], [0.6409956, 47.3489996], [0.6411559, 47.3489933], [0.641208, 47.3490345], [0.6412266, 47.3491093], [0.6410974, 47.3491342], [0.6410438, 47.3492018], [0.6410328, 47.3492498], [0.6410512, 47.3493877], [0.6411012, 47.3497638], [0.641073, 47.3501033], [0.6409894, 47.3501573], [0.6408201, 47.3502895], [0.6407388, 47.3504629], [0.6405739, 47.3509435], [0.6406022, 47.3510425], [0.6407473, 47.3510989], [0.640868, 47.3510648], [0.6409351, 47.3509979], [0.6410668, 47.3510163], [0.6411261, 47.3510419], [0.6411584, 47.3513414], [0.6409702, 47.3515055], [0.6408632, 47.3516714], [0.6408653, 47.3519104], [0.6408383, 47.3520692], [0.6407159, 47.3522425], [0.6404621, 47.3524158], [0.6402278, 47.352505], [0.6393804, 47.3573844]]], [[[0.6402278, 47.352505], [0.6399951, 47.3525273], [0.6397303, 47.3525157], [0.6394313, 47.3525095], [0.6391411, 47.3525598], [0.6389778, 47.352557], [0.6388473, 47.3524905], [0.6387079, 47.3524323], [0.63855, 47.352389], [0.638294, 47.3523342], [0.6380359, 47.3522557], [0.6374701, 47.3522228], [0.6371353, 47.3522122], [0.6369492, 47.352206], [0.6368377, 47.3522292], [0.6367347, 47.3523347], [0.6366867, 47.352451], [0.6367201, 47.3526059], [0.6368645, 47.3527332], [0.6375857, 47.3531421], [0.6384308, 47.3537046], [0.6384856, 47.3542002], [0.6381959, 47.354622], [0.638164, 47.35461], [0.6379266, 47.3549124], [0.6379089, 47.3549605], [0.6379266, 47.3550157], [0.637955, 47.3550541], [0.6379833, 47.3551021], [0.6380949, 47.355326], [0.6381442, 47.3554226], [0.6381726, 47.3555042], [0.6386013, 47.3561138], [0.6386403, 47.3561498], [0.6387322, 47.3563383], [0.6387359, 47.3564139], [0.6387572, 47.3564763], [0.6387926, 47.3565555], [0.6388032, 47.3565891], [0.6389739, 47.3567806], [0.6390867, 47.3568987], [0.6391215, 47.3569869], [0.6391965, 47.3570595], [0.6392426, 47.3570811], [0.639278, 47.3571411], [0.6392993, 47.3571915], [0.6393135, 47.3572275], [0.6393131, 47.3572472], [0.6393237, 47.3572703], [0.6393167, 47.3573074], [0.639297, 47.3573241], [0.6393804, 47.3573844], [0.6402278, 47.352505]]]]}}, {"type": "Feature", "properties": {"name": "Lac de Gevrioux"}, "geometry": {"type": "Polygon", "coordinates": [[[0.6070145, 47.3800335], [0.6072604, 47.3801803], [0.6075925, 47.3803751], [0.6078527, 47.3805611], [0.6080278, 47.3807818], [0.6082278, 47.3809144], [0.6083889, 47.381046], [0.6085015, 47.381119], [0.6086228, 47.3811619], [0.6087979, 47.3812332], [0.6090126, 47.381357], [0.6091276, 47.3814324], [0.6092655, 47.3814855], [0.6093216, 47.3815385], [0.6094619, 47.3816985], [0.6095268, 47.3817547], [0.6096098, 47.3818587], [0.6097172, 47.3819485], [0.6098694, 47.3820983], [0.6100325, 47.3822512], [0.6101516, 47.3823131], [0.6102824, 47.3823703], [0.6105026, 47.382434], [0.6107724, 47.3824789], [0.6112635, 47.3825192], [0.6115737, 47.3825185], [0.6117601, 47.382495], [0.611866, 47.3824554], [0.6119388, 47.3824467], [0.6119846, 47.3824645], [0.6120588, 47.3825034], [0.6121634, 47.3826688], [0.612245, 47.3828057], [0.6123162, 47.3828736], [0.6124083, 47.3829278], [0.6126087, 47.3829819], [0.6129774, 47.3830484], [0.6131149, 47.3830659], [0.6134121, 47.383119], [0.6135412, 47.3831326], [0.6136659, 47.3831258], [0.6138137, 47.3830774], [0.6138525, 47.3830536], [0.6138836, 47.3830275], [0.6139388, 47.3830207], [0.6140337, 47.3830345], [0.6141543, 47.3830909], [0.6142889, 47.3832049], [0.6144356, 47.3832619], [0.6146041, 47.3832976], [0.6147307, 47.3832868], [0.6149739, 47.3832527], [0.6151749, 47.3832428], [0.6154446, 47.3832594], [0.6158758, 47.3832891], [0.6160953, 47.3832795], [0.6162809, 47.3832429], [0.6165086, 47.3831331], [0.6168102, 47.3829266], [0.61697, 47.3827951], [0.6170896, 47.3826552], [0.6171547, 47.38251], [0.6171925, 47.3822941], [0.6171744, 47.381896], [0.6171547, 47.3815752], [0.6161291, 47.3813503], [0.6156902, 47.3812976], [0.6155369, 47.3813166], [0.6154954, 47.3813276], [0.6154579, 47.3813524], [0.615438, 47.3813949], [0.615416, 47.3814236], [0.6153603, 47.3814454], [0.6152537, 47.3814521], [0.6150704, 47.3814308], [0.6149464, 47.3814041], [0.6148691, 47.3813705], [0.614826, 47.3813292], [0.6148255, 47.3812921], [0.6148449, 47.3812509], [0.6148472, 47.3812015], [0.6148069, 47.3811357], [0.6147183, 47.3810844], [0.6146663, 47.3810331], [0.6145318, 47.3809676], [0.6141115, 47.3808453], [0.6131653, 47.3807029], [0.6131141, 47.380704], [0.6130222, 47.380705], [0.6129522, 47.3806934], [0.6128489, 47.3806453], [0.612626, 47.3805694], [0.6124073, 47.3805127], [0.6111883, 47.3801534], [0.6108937, 47.3800539], [0.6106763, 47.3799655], [0.6105301, 47.3799372], [0.6103024, 47.3798784], [0.6100685, 47.379799], [0.6096475, 47.3796484], [0.6093038, 47.3795143], [0.609021, 47.3794215], [0.6088471, 47.3793784], [0.6087077, 47.3793602], [0.6082565, 47.3793456], [0.6076666, 47.3793498], [0.6073928, 47.3793666], [0.6073191, 47.3793681], [0.6072454, 47.3794031], [0.6070981, 47.3795105], [0.6070128, 47.3796001], [0.6069553, 47.3797279], [0.6069285, 47.3798621], [0.6069484, 47.3799321], [0.6070145, 47.3800335]]]}}, {"type": "Feature", "properties": {"name": "Lac de Chemillé"}, "geometry": {"type": "Polygon", "coordinates": [[[1.148068, 47.157491], [1.1480782, 47.1575304], [1.1481499, 47.1576047], [1.1482284, 47.1576372], [1.1484094, 47.1576767], [1.1484811, 47.1577092], [1.1484879, 47.1577509], [1.1484674, 47.1578392], [1.1497988, 47.1585193], [1.1498671, 47.1584891], [1.1499149, 47.1584845], [1.1499934, 47.1584938], [1.1500378, 47.1584891], [1.1500924, 47.158517], [1.1501607, 47.1585333], [1.1502597, 47.1585402], [1.1503143, 47.1585286], [1.1504714, 47.1584706], [1.1505465, 47.158452], [1.1506933, 47.1584334], [1.1507786, 47.1584079], [1.1508298, 47.1583777], [1.1508776, 47.1583684], [1.1510108, 47.1583568], [1.1511132, 47.1583359], [1.1513931, 47.1582918], [1.1518574, 47.1582106], [1.1522432, 47.1581642], [1.152984, 47.1581131], [1.1535746, 47.1580968], [1.1540867, 47.1581108], [1.1543427, 47.1581363], [1.1546227, 47.1581758], [1.1549914, 47.1582617], [1.1553362, 47.1583568], [1.1556161, 47.1584474], [1.1558449, 47.1585356], [1.156118, 47.1586818], [1.1563399, 47.1588466], [1.156654, 47.1591554], [1.156968, 47.1594711], [1.1572855, 47.1597891], [1.1578044, 47.1602092], [1.1581561, 47.1604994], [1.1584189, 47.1607826], [1.158733, 47.1611053], [1.1589242, 47.1612817], [1.1590198, 47.1613954], [1.1592076, 47.1616879], [1.1594192, 47.1621103], [1.1596104, 47.162426], [1.1601327, 47.1632268], [1.1604331, 47.1636261], [1.1606243, 47.1638373], [1.1608872, 47.1640764], [1.1611262, 47.1642435], [1.1614095, 47.1644129], [1.1616997, 47.1645638], [1.1619045, 47.1646497], [1.162123, 47.1647147], [1.1623586, 47.1647541], [1.1625702, 47.1647982], [1.1627887, 47.1648632], [1.1629287, 47.1648864], [1.1633111, 47.1649073], [1.1636866, 47.1648911], [1.1638061, 47.1648679], [1.1641816, 47.1648632], [1.1648439, 47.1648191], [1.1652843, 47.1647402], [1.1656325, 47.1646358], [1.1660217, 47.1644779], [1.1662846, 47.1643665], [1.1664348, 47.1643154], [1.1664655, 47.1642597], [1.1665304, 47.1642412], [1.166554, 47.164282], [1.1667864, 47.1642203], [1.1669093, 47.1641274], [1.1671141, 47.1640183], [1.1673531, 47.163835], [1.1675819, 47.1636121], [1.1678481, 47.1633382], [1.1680939, 47.1630852], [1.1684387, 47.1627347], [1.1685719, 47.162563], [1.168647, 47.1624655], [1.1688006, 47.1623239], [1.1688757, 47.162245], [1.1689679, 47.162108], [1.1690942, 47.1619014], [1.1692205, 47.1617482], [1.1692239, 47.1616972], [1.1692717, 47.1616182], [1.1693707, 47.1615857], [1.1695107, 47.1614349], [1.1693501, 47.1613335], [1.1691782, 47.1614443], [1.1690596, 47.1614967], [1.1688492, 47.1615773], [1.1685262, 47.1616761], [1.1683928, 47.1617144], [1.1682446, 47.1617809], [1.1680816, 47.1619703], [1.1679393, 47.1621597], [1.1677645, 47.1623653], [1.1676236, 47.1625278], [1.1674119, 47.1626834], [1.167091, 47.1628667], [1.1667531, 47.1630339], [1.1664834, 47.163194], [1.1660498, 47.1634772], [1.1658279, 47.1635793], [1.1654524, 47.1637279], [1.16521, 47.1637882], [1.1649573, 47.1638254], [1.1647628, 47.1638254], [1.1645955, 47.1638068], [1.1644384, 47.163772], [1.1642848, 47.1637279], [1.1641107, 47.1636234], [1.1639639, 47.1635143], [1.1638581, 47.1634029], [1.1637966, 47.1633495], [1.1637488, 47.1633333], [1.1637283, 47.1632962], [1.1637488, 47.1632753], [1.1636805, 47.163136], [1.1635167, 47.1629665], [1.163206, 47.1626996], [1.1627895, 47.1623491], [1.162134, 47.1618292], [1.1614615, 47.1612953], [1.1609274, 47.1608816], [1.1607831, 47.1607223], [1.160711, 47.1605915], [1.1606809, 47.1605016], [1.1606269, 47.1604198], [1.1606378, 47.1603742], [1.1602792, 47.1598092], [1.1599237, 47.1593164], [1.1597013, 47.1590794], [1.1595029, 47.1589405], [1.1593407, 47.1588546], [1.1591183, 47.1587729], [1.1588598, 47.1587239], [1.1585491, 47.1586614], [1.1584495, 47.1586368], [1.1584223, 47.1586029], [1.158408, 47.1584667], [1.1584377, 47.1584344], [1.158491, 47.1584163], [1.1585473, 47.1584143], [1.1586659, 47.1584102], [1.1587044, 47.1583982], [1.1587548, 47.1583437], [1.1587815, 47.1582772], [1.1587904, 47.157723], [1.1587607, 47.1576424], [1.1586866, 47.1575538], [1.1586244, 47.1575114], [1.158571, 47.1574308], [1.1584762, 47.1573502], [1.1583903, 47.1572595], [1.1582569, 47.1571809], [1.1578331, 47.1569935], [1.1576523, 47.1569129], [1.1574122, 47.1567839], [1.1571514, 47.1567073], [1.1569558, 47.1566811], [1.1567246, 47.1566811], [1.1565083, 47.156671], [1.1564016, 47.1566549], [1.1561289, 47.1565924], [1.1558948, 47.1565582], [1.155794, 47.15653], [1.1556844, 47.1564715], [1.1556014, 47.1564433], [1.1554235, 47.1564111], [1.1552516, 47.1563607], [1.1551796, 47.1563328], [1.1542363, 47.1561003], [1.1537661, 47.156062], [1.1535658, 47.1561695], [1.153027, 47.156133], [1.1528309, 47.1560172], [1.152196, 47.1560107], [1.1511796, 47.1561353], [1.1504632, 47.1562572], [1.1498782, 47.1564766], [1.1493935, 47.1566244], [1.1489669, 47.1568841], [1.1480947, 47.1574594], [1.148068, 47.157491]]]}}]}