{"type": "FeatureCollection", "features": [{"type": "Feature", "properties": {"name": "Barrage de Lavalette"}, "geometry": {"type": "Polygon", "coordinates": [[[4.2654553, 45.1457989], [4.2664692, 45.1454425], [4.2665014, 45.1452703], [4.2665926, 45.1451398], [4.2677486, 45.144822], [4.2677405, 45.144769], [4.2676172, 45.1447444], [4.2673382, 45.1447501], [4.2674696, 45.1447047], [4.2676949, 45.1446896], [4.2679015, 45.1447142], [4.2687249, 45.1447198], [4.2699921, 45.1448461], [4.2708465, 45.1450184], [4.2715246, 45.1448042], [4.2718074, 45.1446438], [4.2720303, 45.1442466], [4.2716957, 45.1433711], [4.2710263, 45.1422945], [4.2706507, 45.1418953], [4.2702082, 45.1418007], [4.2698783, 45.1418707], [4.2693365, 45.1417326], [4.2688644, 45.141305], [4.267931, 45.1406769], [4.2677379, 45.1406315], [4.2675796, 45.1406504], [4.2675045, 45.140588], [4.2673919, 45.1405918], [4.267298, 45.1405293], [4.2672363, 45.1405672], [4.2671317, 45.1405634], [4.2670163, 45.1404915], [4.2667159, 45.1404309], [4.2664745, 45.1403023], [4.2659865, 45.1395673], [4.2661393, 45.1403023], [4.2663532, 45.1404819], [4.2672136, 45.1408457], [4.2679819, 45.1411555], [4.268505, 45.1415302], [4.2686874, 45.1418045], [4.2688027, 45.1418707], [4.2689851, 45.1418783], [4.2692479, 45.1419539], [4.2694169, 45.1420466], [4.2701438, 45.1421885], [4.2708063, 45.1425234], [4.270927, 45.1427012], [4.2714339, 45.1434864], [4.2715707, 45.1438439], [4.2716351, 45.1442261], [4.2714795, 45.1445231], [4.2709967, 45.1447274], [4.2708142, 45.1447229], [4.2705381, 45.1447161], [4.2703181, 45.1446612], [4.2702833, 45.1445609], [4.2701974, 45.1445155], [4.2700472, 45.1445307], [4.269889, 45.1444966], [4.2675206, 45.144385], [4.2666301, 45.1446347], [4.2655331, 45.1452306], [4.2651603, 45.1452912], [4.264844, 45.1454135], [4.2644799, 45.1453118], [4.2642761, 45.1450167], [4.2644515, 45.1442045], [4.2644146, 45.1437626], [4.2641871, 45.1434029], [4.263711, 45.1431798], [4.2630507, 45.1429783], [4.262415, 45.1428505], [4.2614908, 45.1430391], [4.2609503, 45.1432341], [4.2602624, 45.1430521], [4.2595557, 45.142961], [4.2592489, 45.1428181], [4.2591387, 45.1425783], [4.2591695, 45.1421715], [4.2589349, 45.1414356], [4.258865, 45.1414144], [4.2588168, 45.1414791], [4.258933, 45.1422191], [4.2586706, 45.1429293], [4.2588555, 45.1431993], [4.2590244, 45.1434376], [4.2594513, 45.1435437], [4.259783, 45.1435415], [4.2600533, 45.1434549], [4.2602621, 45.1434419], [4.2603212, 45.1435016], [4.2599096, 45.1439651], [4.2597676, 45.14433], [4.2600202, 45.1449312], [4.2603549, 45.1451413], [4.2606122, 45.1454174], [4.2606982, 45.14566], [4.2606006, 45.1458367], [4.2602437, 45.1459806], [4.2599458, 45.1461951], [4.2598413, 45.1466066], [4.2598905, 45.1468969], [4.2601645, 45.1477233], [4.259753, 45.1478598], [4.2593384, 45.1478836], [4.2591534, 45.147733], [4.2591565, 45.1469272], [4.2587664, 45.1465828], [4.2583495, 45.1464367], [4.2581891, 45.1464528], [4.2582628, 45.1466673], [4.2583095, 45.1470735], [4.2581061, 45.1476615], [4.2582106, 45.1477936], [4.2580171, 45.1479496], [4.2577506, 45.1483948], [4.2575755, 45.1490511], [4.257551, 45.1496944], [4.2576769, 45.1503507], [4.257538, 45.1504838], [4.2570926, 45.1506008], [4.2567149, 45.1505314], [4.2561904, 45.1502251], [4.2556407, 45.1498352], [4.2554349, 45.1495579], [4.2549927, 45.1494778], [4.2545627, 45.1492417], [4.25436, 45.1489341], [4.2540491, 45.1486817], [4.2537481, 45.1484976], [4.2536598, 45.1485724], [4.2537427, 45.1487912], [4.2539078, 45.1490261], [4.2539334, 45.1492449], [4.2538566, 45.1496521], [4.2537307, 45.1497279], [4.2533898, 45.1495893], [4.2528513, 45.1495871], [4.2514051, 45.1497262], [4.250723, 45.1498253], [4.2502746, 45.149925], [4.249947, 45.150107], [4.2497013, 45.1503344], [4.2495477, 45.150525], [4.2493502, 45.1503928], [4.2493481, 45.1502737], [4.2491936, 45.150252], [4.2490195, 45.1505856], [4.2488435, 45.1508845], [4.2487124, 45.151008], [4.248568, 45.1510578], [4.2484227, 45.1509625], [4.2482793, 45.1508997], [4.2482548, 45.15106], [4.248307, 45.1511834], [4.2484933, 45.1513112], [4.2484442, 45.1514216], [4.2481565, 45.1516448], [4.2477102, 45.1521559], [4.2475505, 45.1525609], [4.2474399, 45.1530287], [4.2475945, 45.1533775], [4.2476396, 45.1535832], [4.2474378, 45.1540662], [4.2475269, 45.1544214], [4.2473109, 45.1546942], [4.2470754, 45.154874], [4.2465318, 45.1554848], [4.2463834, 45.1557013], [4.246538, 45.1561691], [4.2465677, 45.1564615], [4.2463998, 45.1565936], [4.2461786, 45.1566673], [4.2457139, 45.1566521], [4.2450291, 45.1564875], [4.2448816, 45.1561431], [4.2445807, 45.1562449], [4.2442868, 45.1561258], [4.2440586, 45.1560976], [4.2434198, 45.1561475], [4.2430666, 45.1561323], [4.2431464, 45.1558832], [4.2432877, 45.1555649], [4.2435313, 45.1552357], [4.2435487, 45.1550841], [4.2434207, 45.1550321], [4.243258, 45.1551967], [4.2429693, 45.155292], [4.2425967, 45.1555475], [4.2423673, 45.1555129], [4.2423756, 45.1557186], [4.2418729, 45.156128], [4.2411143, 45.1566153], [4.240539, 45.1569379], [4.240238, 45.1570137], [4.2397906, 45.1570333], [4.2391969, 45.1569574], [4.2384577, 45.1568427], [4.2382018, 45.1567647], [4.2374811, 45.1567712], [4.2372016, 45.1567431], [4.2372405, 45.1566304], [4.2373787, 45.1565243], [4.237778, 45.1559027], [4.2380216, 45.1557403], [4.2379868, 45.1554436], [4.2380426, 45.155038], [4.2379868, 45.1545621], [4.2379232, 45.1541252], [4.2377427, 45.153805], [4.2374125, 45.1535204], [4.2370532, 45.1533059], [4.2366199, 45.1529933], [4.2365157, 45.1526886], [4.2365649, 45.1524656], [4.2362529, 45.1524282], [4.2359076, 45.1523378], [4.235571, 45.1520469], [4.2356861, 45.1519274], [4.23571, 45.1518064], [4.2356159, 45.1517119], [4.2353843, 45.1516533], [4.2352735, 45.1515323], [4.2351644, 45.1511141], [4.2351389, 45.1505046], [4.2352757, 45.1501677], [4.2355232, 45.1499303], [4.2355975, 45.1496672], [4.2360162, 45.1492763], [4.2361204, 45.1489975], [4.2360766, 45.1488853], [4.2356101, 45.1490619], [4.2354668, 45.1490175], [4.23549, 45.148411], [4.2353395, 45.1482723], [4.2351237, 45.1482792], [4.2347068, 45.148803], [4.234546, 45.1491645], [4.234412, 45.1494008], [4.2341703, 45.1494662], [4.2337885, 45.1494311], [4.2336595, 45.1495481], [4.2336749, 45.1498903], [4.233635, 45.1503149], [4.2333559, 45.1506792], [4.233073, 45.150839], [4.232775, 45.150865], [4.2321547, 45.1507156], [4.2310562, 45.151033], [4.2303335, 45.1510664], [4.2300225, 45.1509472], [4.2297684, 45.1507285], [4.2297254, 45.1503582], [4.2299291, 45.1500559], [4.2302567, 45.1494766], [4.2296686, 45.1496128], [4.22932, 45.1496369], [4.2291572, 45.1495005], [4.2290144, 45.1492944], [4.2287595, 45.1491103], [4.2286904, 45.1491972], [4.2286259, 45.149299], [4.2285614, 45.149494], [4.2283372, 45.1498643], [4.2281191, 45.1499618], [4.2279057, 45.1498706], [4.2277414, 45.149628], [4.2275755, 45.149312], [4.2275203, 45.1490153], [4.2276017, 45.1487789], [4.2279717, 45.1485452], [4.2282451, 45.1482396], [4.2283618, 45.147932], [4.228325, 45.1476808], [4.228391, 45.1474577], [4.2285737, 45.1473041], [4.2286904, 45.1471243], [4.2286275, 45.1468999], [4.2283648, 45.1466716], [4.2281944, 45.146458], [4.2280839, 45.1459815], [4.2279963, 45.1452355], [4.2278028, 45.1446485], [4.2275295, 45.1441589], [4.2275065, 45.1439724], [4.2276523, 45.1436542], [4.2277752, 45.1432954], [4.2278351, 45.1429358], [4.2279318, 45.1427422], [4.2281069, 45.1426685], [4.2282451, 45.1426326], [4.2282344, 45.1425351], [4.2281545, 45.142456], [4.2281161, 45.1422548], [4.2282144, 45.1419101], [4.228414, 45.1416157], [4.2285706, 45.1412366], [4.2286996, 45.1408402], [4.228692, 45.140411], [4.2287334, 45.1403203], [4.2288255, 45.1402488], [4.2290667, 45.1402161], [4.2293446, 45.1402356], [4.2296071, 45.140186], [4.2296379, 45.1400926], [4.2295657, 45.1400192], [4.2293691, 45.139939], [4.2290728, 45.1398792], [4.228758, 45.139824], [4.2285845, 45.1396745], [4.228477, 45.1395272], [4.2285046, 45.1393441], [4.2285952, 45.1390551], [4.2285474, 45.1388986], [4.2284153, 45.1388842], [4.2282048, 45.1392352], [4.2275262, 45.1388814], [4.2273384, 45.138889], [4.2272592, 45.1389934], [4.2271963, 45.1390763], [4.2275203, 45.1392393], [4.2278704, 45.1394711], [4.2280024, 45.1396032], [4.2280086, 45.1398892], [4.2279472, 45.140225], [4.2279349, 45.1406214], [4.2277967, 45.1409572], [4.2275694, 45.1413103], [4.2273575, 45.1414923], [4.2271548, 45.1415399], [4.2271333, 45.1417349], [4.2269674, 45.1420013], [4.2267279, 45.1425104], [4.2265581, 45.1427034], [4.2263291, 45.1428158], [4.2259908, 45.142922], [4.2255209, 45.1430065], [4.2250971, 45.1430216], [4.2247439, 45.1430021], [4.2245596, 45.1431473], [4.2243692, 45.1433552], [4.2239286, 45.1435518], [4.2237427, 45.1436715], [4.2236844, 45.1438838], [4.2236199, 45.1440636], [4.2236721, 45.1442542], [4.2236321, 45.1444492], [4.2235635, 45.1445033], [4.2231805, 45.144805], [4.2226194, 45.1451348], [4.2224037, 45.1453763], [4.2221027, 45.1455301], [4.2216482, 45.1455604], [4.2212766, 45.1454716], [4.2209571, 45.1452658], [4.2209502, 45.1451682], [4.2209418, 45.1450492], [4.2208067, 45.1448434], [4.2206061, 45.1446461], [4.2202675, 45.1444452], [4.2199264, 45.1443199], [4.2197856, 45.1447731], [4.2198658, 45.144892], [4.2197317, 45.1449625], [4.2195466, 45.1449828], [4.219403, 45.1449231], [4.2192838, 45.1449525], [4.2192299, 45.1447798], [4.2189935, 45.144518], [4.2189974, 45.144267], [4.2189124, 45.1440492], [4.2190008, 45.1439401], [4.2191237, 45.1438058], [4.2192189, 45.1435069], [4.2193004, 45.1433483], [4.2191857, 45.1431921], [4.2190129, 45.1432622], [4.2186213, 45.1434211], [4.2185147, 45.1433875], [4.218457, 45.143293], [4.2183624, 45.1432915], [4.2181037, 45.1430241], [4.2179655, 45.1430181], [4.2179259, 45.1433054], [4.2177699, 45.1436496], [4.2175789, 45.1437841], [4.217195, 45.1438275], [4.2167073, 45.1437471], [4.2161262, 45.1437582], [4.2156471, 45.143665], [4.214969, 45.1435283], [4.2145599, 45.1433877], [4.2143787, 45.1431646], [4.2140569, 45.1428243], [4.2140746, 45.1426252], [4.2140599, 45.14256], [4.2138627, 45.1426642], [4.2137098, 45.1428914], [4.2136699, 45.1431969], [4.213614, 45.143522], [4.2135433, 45.1437343], [4.2133382, 45.1439247], [4.2129819, 45.1440699], [4.212582, 45.1442196], [4.2119525, 45.1445618], [4.21113, 45.1445572], [4.210697, 45.1446417], [4.2104298, 45.1447522], [4.2104199, 45.1448846], [4.2106816, 45.144932], [4.2109697, 45.1450687], [4.2111177, 45.1452569], [4.2111976, 45.145467], [4.2111915, 45.1459826], [4.2111232, 45.1462102], [4.2107216, 45.1464699], [4.2103769, 45.1466391], [4.2101472, 45.1469227], [4.2099685, 45.1470572], [4.20949, 45.1470743], [4.2088359, 45.1469421], [4.2085134, 45.1470028], [4.2083015, 45.1471782], [4.2080803, 45.1473082], [4.2077517, 45.1473645], [4.2075429, 45.1472237], [4.2073893, 45.1470396], [4.207272, 45.1468536], [4.2070914, 45.1466649], [4.2068328, 45.1465308], [4.2066501, 45.1463949], [4.2066009, 45.1464669], [4.2067038, 45.1466608], [4.2066977, 45.1472586], [4.2068918, 45.147423], [4.2073832, 45.1477609], [4.2074876, 45.1480447], [4.2077118, 45.1482634], [4.2079845, 45.1483611], [4.2084022, 45.1483936], [4.2088076, 45.1483611], [4.2091675, 45.1483739], [4.2094808, 45.1485104], [4.2096276, 45.1487315], [4.2098057, 45.1491626], [4.2100152, 45.1494309], [4.2101497, 45.1495698], [4.210052, 45.149732], [4.2101005, 45.1499813], [4.2102787, 45.1501459], [4.2105704, 45.1502542], [4.2108069, 45.1504015], [4.2110781, 45.1505679], [4.2112816, 45.1503183], [4.2115066, 45.1500941], [4.211738, 45.1498991], [4.2117741, 45.1498732], [4.2118081, 45.1498494], [4.2119504, 45.1497579], [4.2120917, 45.1496741], [4.2120787, 45.1496629], [4.2120807, 45.1496208], [4.2121243, 45.1495967], [4.2121873, 45.1496019], [4.2121989, 45.1496137], [4.2125099, 45.1494577], [4.2129053, 45.1493038], [4.2131464, 45.1492309], [4.2133721, 45.1491661], [4.2136011, 45.1491196], [4.2138027, 45.1491037], [4.2139817, 45.1491087], [4.2142647, 45.1491566], [4.2144236, 45.1492065], [4.2158059, 45.1497226], [4.2161144, 45.1495998], [4.2170976, 45.1490297], [4.2174475, 45.148908], [4.2178364, 45.1488874], [4.2180204, 45.1489573], [4.2181456, 45.1491457], [4.2180519, 45.1497414], [4.2182353, 45.1502609], [4.2180234, 45.1508089], [4.2178721, 45.1509967], [4.2178638, 45.1511624], [4.2179032, 45.15127], [4.2180396, 45.1514227], [4.2182226, 45.1515232], [4.2183774, 45.1515754], [4.2185117, 45.1515897], [4.2186427, 45.1515602], [4.2188282, 45.1514491], [4.2189724, 45.1513114], [4.2190289, 45.1512227], [4.2191553, 45.1510412], [4.2195682, 45.1507569], [4.2200152, 45.1506253], [4.2205895, 45.1505084], [4.2210178, 45.1502956], [4.2213174, 45.1499625], [4.2215447, 45.1497828], [4.2217873, 45.1497849], [4.2220268, 45.1497481], [4.2222971, 45.1496052], [4.2226425, 45.1495657], [4.223154, 45.1497351], [4.2235884, 45.149962], [4.2238986, 45.150118], [4.2241596, 45.1503584], [4.2241552, 45.1507488], [4.224235, 45.1510239], [4.2245478, 45.1510659], [4.2247889, 45.150983], [4.2248124, 45.1512101], [4.2251055, 45.1514457], [4.2254188, 45.1515821], [4.226033, 45.1515562], [4.2263866, 45.1514743], [4.2263756, 45.1517105], [4.2264999, 45.1519049], [4.226996, 45.151953], [4.2272325, 45.152122], [4.2274581, 45.1521778], [4.2277621, 45.1521063], [4.2280262, 45.152089], [4.2282996, 45.1521799], [4.2284931, 45.152429], [4.2287449, 45.1525525], [4.2291489, 45.1526201], [4.2293424, 45.1527479], [4.2294267, 45.1528968], [4.2298044, 45.1530289], [4.2302085, 45.1530576], [4.230621, 45.1529219], [4.2311527, 45.1528773], [4.2317655, 45.152841], [4.23216, 45.1528448], [4.2324443, 45.1528995], [4.2326101, 45.1530836], [4.2326576, 45.1533387], [4.2324781, 45.1536121], [4.2323859, 45.1539889], [4.2321907, 45.1542553], [4.2321341, 45.154656], [4.2320604, 45.1548856], [4.2317608, 45.1551038], [4.231813, 45.1553334], [4.2322032, 45.1553521], [4.2324272, 45.1552749], [4.2328697, 45.1550229], [4.2333271, 45.1546793], [4.2338931, 45.1545498], [4.2344675, 45.1543393], [4.2349149, 45.154283], [4.2353183, 45.1542981], [4.2358025, 45.154467], [4.2359834, 45.154664], [4.2360881, 45.1552684], [4.2360362, 45.1555391], [4.2357779, 45.1558293], [4.2353275, 45.156128], [4.2351299, 45.1563469], [4.2350101, 45.1566415], [4.2349192, 45.1570591], [4.2350715, 45.1574189], [4.2355076, 45.1578001], [4.2359714, 45.1579539], [4.2360789, 45.1580637], [4.2359486, 45.1582781], [4.2363092, 45.1585841], [4.236396, 45.1587222], [4.2363786, 45.1588783], [4.2362179, 45.1590345], [4.235956, 45.1590908], [4.2357441, 45.1590843], [4.2355707, 45.1591203], [4.2355752, 45.1591991], [4.2357184, 45.1591907], [4.2359312, 45.1592459], [4.2361354, 45.1592551], [4.2363482, 45.1592306], [4.2365132, 45.1592734], [4.2365795, 45.159132], [4.2367565, 45.1590223], [4.2369345, 45.1588569], [4.2369563, 45.1586088], [4.2370156, 45.158335], [4.2371432, 45.1581749], [4.2374517, 45.1580058], [4.2378694, 45.1578932], [4.2383884, 45.1578434], [4.2386187, 45.1578954], [4.2390541, 45.1578615], [4.2394406, 45.1579105], [4.2398098, 45.1580698], [4.2403109, 45.1580383], [4.2407784, 45.1580484], [4.2411128, 45.1581464], [4.241369, 45.1581617], [4.2417544, 45.1580123], [4.2420247, 45.1578651], [4.2425068, 45.1578391], [4.2427372, 45.157883], [4.2428353, 45.1580225], [4.2425376, 45.1584216], [4.2425548, 45.1586885], [4.2426266, 45.1589804], [4.2427986, 45.1591255], [4.2429307, 45.1593377], [4.243089, 45.1596471], [4.2431411, 45.1598798], [4.2432286, 45.1597167], [4.2431579, 45.1592836], [4.2430847, 45.1590407], [4.2429066, 45.1586517], [4.2430627, 45.1585083], [4.2434625, 45.1582566], [4.2436379, 45.158029], [4.2439647, 45.1579371], [4.2445293, 45.1579004], [4.2448247, 45.1579601], [4.2453669, 45.1579233], [4.2455949, 45.1578522], [4.2456063, 45.1578018], [4.2457692, 45.1577586], [4.2459949, 45.1578124], [4.2464264, 45.1579341], [4.246752, 45.1579775], [4.2472311, 45.1581789], [4.2472917, 45.1581521], [4.2473739, 45.1581157], [4.2472783, 45.1579196], [4.2472718, 45.1577788], [4.2479255, 45.1573944], [4.2485053, 45.1571157], [4.2488267, 45.156788], [4.2490677, 45.1563424], [4.2493502, 45.1559634], [4.2497157, 45.1554696], [4.2498821, 45.1551861], [4.2498201, 45.1548263], [4.2498477, 45.1541528], [4.249754, 45.1536884], [4.2498626, 45.153379], [4.2504128, 45.1529226], [4.2504455, 45.1524288], [4.2505686, 45.1521295], [4.2508581, 45.1519176], [4.2509564, 45.1516794], [4.2514017, 45.1512029], [4.2517866, 45.1509684], [4.2524251, 45.1507892], [4.2530614, 45.1506927], [4.2535327, 45.1506544], [4.2538925, 45.150735], [4.254218, 45.1510296], [4.2544975, 45.15127], [4.2545968, 45.1514401], [4.2545598, 45.1515565], [4.2546449, 45.1516815], [4.2550657, 45.1516686], [4.255554, 45.1516144], [4.2559019, 45.1516699], [4.2563924, 45.1515841], [4.2568531, 45.1514455], [4.257452, 45.1514758], [4.2576946, 45.1516707], [4.257756, 45.1521472], [4.2578912, 45.1523958], [4.2581583, 45.1525761], [4.258345, 45.1526592], [4.2584366, 45.1528257], [4.2585188, 45.1528782], [4.2586187, 45.1528139], [4.2587424, 45.1526868], [4.259129, 45.1526102], [4.2595649, 45.1525522], [4.2604081, 45.1523636], [4.2610878, 45.1525336], [4.2613962, 45.1524892], [4.2616626, 45.1523486], [4.261976, 45.1520696], [4.2621802, 45.151823], [4.2623351, 45.1516144], [4.2623812, 45.1512484], [4.2624929, 45.1508689], [4.2626323, 45.1506201], [4.2626122, 45.150465], [4.262709, 45.1503479], [4.2625545, 45.1504451], [4.2623869, 45.1505444], [4.2621601, 45.1508325], [4.262025, 45.1510383], [4.2617741, 45.1516668], [4.2615029, 45.1519891], [4.2611835, 45.1521667], [4.2606036, 45.1521048], [4.2599284, 45.1519589], [4.2592918, 45.1517246], [4.2591014, 45.1515859], [4.2590123, 45.1511354], [4.2590001, 45.1506589], [4.2593225, 45.1499312], [4.2597064, 45.1494135], [4.2604527, 45.1488482], [4.2611865, 45.1485041], [4.2618376, 45.1482658], [4.2624521, 45.1479298], [4.2628912, 45.1475182], [4.2631247, 45.1471023], [4.2631984, 45.1466713], [4.2630724, 45.1462034], [4.2627838, 45.145794], [4.2622338, 45.1455777], [4.2618279, 45.1453294], [4.261285, 45.1450532], [4.2610115, 45.1447893], [4.2609257, 45.144438], [4.2609654, 45.1442022], [4.2610639, 45.143994], [4.2620528, 45.143604], [4.2626545, 45.1434917], [4.263192, 45.1435935], [4.2635636, 45.143769], [4.2638124, 45.1440939], [4.2635224, 45.1450411], [4.2639017, 45.1456512], [4.2641325, 45.1458243], [4.2645617, 45.1459048], [4.2651387, 45.1458956], [4.2654553, 45.1457989]]]}}, {"type": "Feature", "properties": {"name": "Lac de Malaguet"}, "geometry": {"type": "Polygon", "coordinates": [[[3.7132342, 45.2531372], [3.7132964, 45.2528248], [3.7148356, 45.25127], [3.7159094, 45.2494626], [3.7159641, 45.2492234], [3.7159255, 45.2489862], [3.7158316, 45.2486717], [3.7156899, 45.2483775], [3.7157157, 45.2480854], [3.7156461, 45.2478508], [3.7155789, 45.2476707], [3.7153374, 45.2477156], [3.7151459, 45.2477524], [3.7150778, 45.2477655], [3.7146379, 45.2478666], [3.7146252, 45.2479517], [3.7146304, 45.2480671], [3.7143794, 45.2481263], [3.7140273, 45.2482611], [3.7137073, 45.24832], [3.7133071, 45.2483425], [3.7131106, 45.2483033], [3.7130127, 45.2482732], [3.7128746, 45.2482226], [3.7127598, 45.2481902], [3.7126296, 45.2481701], [3.7125104, 45.2482152], [3.7123304, 45.2483164], [3.7121708, 45.2483717], [3.7118899, 45.2485099], [3.7114302, 45.2488109], [3.7113581, 45.2489209], [3.7110841, 45.2492043], [3.7106675, 45.2495886], [3.7105108, 45.2497918], [3.7101656, 45.2500473], [3.7098862, 45.2501857], [3.7096731, 45.2502786], [3.7094641, 45.2504078], [3.7093248, 45.2504923], [3.7090314, 45.2506884], [3.7088674, 45.2507876], [3.7088728, 45.250982], [3.7089195, 45.2514889], [3.7089359, 45.2518434], [3.7092928, 45.2521073], [3.7092632, 45.2521813], [3.7094172, 45.2523691], [3.7094843, 45.2524775], [3.7096158, 45.252538], [3.7098438, 45.2526022], [3.7101603, 45.2527022], [3.7105599, 45.2527948], [3.7110051, 45.2528722], [3.7114102, 45.2530025], [3.7117293, 45.2530289], [3.7122117, 45.2530786], [3.71256, 45.2531217], [3.7129412, 45.2532165], [3.7130294, 45.2531911], [3.7132342, 45.2531372]]]}}, {"type": "Feature", "properties": {"name": "Lac de Saint-Front"}, "geometry": {"type": "Polygon", "coordinates": [[[4.1736317, 44.9811825], [4.1735119, 44.9809227], [4.1733136, 44.980498], [4.1727447, 44.9798168], [4.172432, 44.979644], [4.1723544, 44.979589], [4.1720188, 44.979419], [4.171963, 44.979389], [4.171945, 44.979385], [4.171893, 44.979385], [4.171867, 44.979383], [4.171853, 44.979379], [4.171776, 44.979336], [4.171754, 44.97933], [4.171721, 44.979305], [4.171669, 44.979348], [4.171466, 44.979296], [4.171318, 44.979268], [4.171165, 44.979265], [4.171013, 44.979258], [4.1708654, 44.9792561], [4.170858, 44.9792556], [4.170857, 44.979232], [4.170668, 44.979219], [4.1704717, 44.9792104], [4.170271, 44.97918], [4.170194, 44.979171], [4.169899, 44.97915], [4.169749, 44.979149], [4.169438, 44.979152], [4.169198, 44.979159], [4.169055, 44.979153], [4.168814, 44.979108], [4.168731, 44.979095], [4.1686201, 44.9790711], [4.168501, 44.979035], [4.168343, 44.979029], [4.168232, 44.979022], [4.168158, 44.979019], [4.168007, 44.979027], [4.167915, 44.979035], [4.167861, 44.979045], [4.167746, 44.979062], [4.16762, 44.979091], [4.167542, 44.979133], [4.167086, 44.979394], [4.166995, 44.97947], [4.166946, 44.97947], [4.166926, 44.979506], [4.166671, 44.979583], [4.166589, 44.97962], [4.16655, 44.979632], [4.166524, 44.979639], [4.166478, 44.979647], [4.166457, 44.97966], [4.166447, 44.979689], [4.166349, 44.97973], [4.166224, 44.979793], [4.165905, 44.979937], [4.1658, 44.979993], [4.165719, 44.980042], [4.165626, 44.98007], [4.16545, 44.980161], [4.165186, 44.980249], [4.1651334, 44.9802859], [4.1651049, 44.980324], [4.1650516, 44.9803981], [4.1650574, 44.9804233], [4.1649811, 44.9804648], [4.1649651, 44.9805128], [4.1649504, 44.9805422], [4.164928, 44.9805707], [4.1649254, 44.9806075], [4.1649314, 44.9806654], [4.1649899, 44.9807375], [4.1650015, 44.9807768], [4.1650562, 44.9808518], [4.165092, 44.980912], [4.1651201, 44.9809357], [4.165223, 44.9810925], [4.165234, 44.981143], [4.165247, 44.981206], [4.165267, 44.981312], [4.165276, 44.981339], [4.1652821, 44.9813551], [4.165319, 44.9815322], [4.165375, 44.981873], [4.16544, 44.981974], [4.16546, 44.981999], [4.165487, 44.98204], [4.165532, 44.982121], [4.1656317, 44.9822581], [4.1656456, 44.9822818], [4.165658, 44.982336], [4.1656993, 44.9823738], [4.1657498, 44.9824604], [4.165761, 44.982491], [4.165778, 44.982525], [4.165862, 44.982625], [4.1659981, 44.9827407], [4.1663113, 44.9830427], [4.1663302, 44.9830532], [4.166422, 44.983117], [4.166461, 44.98314], [4.166567, 44.983197], [4.1667062, 44.9832627], [4.1674683, 44.9836872], [4.1679294, 44.9838153], [4.168113, 44.983897], [4.168229, 44.983942], [4.168757, 44.9840451], [4.1688588, 44.9840733], [4.169046, 44.984128], [4.1690624, 44.9841299], [4.1691262, 44.9841476], [4.1692221, 44.9841453], [4.169463, 44.984154], [4.169575, 44.984143], [4.1696558, 44.9841351], [4.1699677, 44.9841277], [4.1701427, 44.984091], [4.170237, 44.984087], [4.170437, 44.98405], [4.170686, 44.984018], [4.170815, 44.983995], [4.170898, 44.983975], [4.171109, 44.98392], [4.171332, 44.983859], [4.1714211, 44.9838226], [4.1716357, 44.9837775], [4.1717688, 44.983709], [4.171769, 44.983709], [4.172024, 44.983631], [4.172079, 44.983601], [4.172225, 44.98351], [4.172252, 44.983495], [4.172395, 44.983439], [4.172591, 44.98329], [4.1726022, 44.9832806], [4.1732447, 44.9829503], [4.173298, 44.9829044], [4.173366, 44.98286], [4.173489, 44.982776], [4.1737232, 44.9823404], [4.1736379, 44.9816894], [4.1737077, 44.9816723], [4.173713, 44.9814997], [4.1736701, 44.9814655], [4.1736317, 44.9811825]]]}}, {"type": "Feature", "properties": {"name": "Lac du Bouchet"}, "geometry": {"type": "MultiPolygon", "coordinates": [[[[3.7860319, 44.9069769], [3.7861556, 44.9068458], [3.7868936, 44.9064732], [3.7876147, 44.9061847], [3.7890288, 44.9059013], [3.7902293, 44.9058312], [3.791353, 44.905929], [3.7921535, 44.9061161], [3.7922063, 44.9061776], [3.7928517, 44.9063702], [3.7934346, 44.9065786], [3.794148, 44.9068787], [3.7947708, 44.9077576], [3.7949669, 44.9085042], [3.7951899, 44.9091115], [3.7952321, 44.9093262], [3.7951841, 44.9096116], [3.7947411, 44.9107663], [3.7944933, 44.9111855], [3.7940347, 44.9115783], [3.7938286, 44.9116467], [3.7938266, 44.9117219], [3.7935645, 44.9118211], [3.7935184, 44.9118069], [3.7933281, 44.9118798], [3.7929561, 44.9119444], [3.7927059, 44.9119146], [3.7927099, 44.9118409], [3.7925218, 44.9118473], [3.7916402, 44.9120059], [3.7913385, 44.9120865], [3.7908882, 44.9121355], [3.7903052, 44.9121376], [3.7894587, 44.9120969], [3.7886138, 44.9119434], [3.7875868, 44.9116192], [3.7871902, 44.9113849], [3.7867089, 44.9109459], [3.7864681, 44.9105935], [3.7857817, 44.9093599], [3.7857127, 44.9091966], [3.7860319, 44.9069769]]], [[[3.7857127, 44.9091966], [3.7856179, 44.9088466], [3.7854529, 44.9082056], [3.7855024, 44.907663], [3.7856593, 44.9073817], [3.7858226, 44.9071493], [3.7858195, 44.9070663], [3.7859177, 44.9070005], [3.7859575, 44.9069932], [3.7860319, 44.9069769], [3.7857127, 44.9091966]]]]}}]}