{"type": "FeatureCollection", "features": [{"type": "Feature", "properties": {"name": "Étang du Puits"}, "geometry": {"type": "Polygon", "coordinates": [[[2.3900157, 47.5959763], [2.3891031, 47.5962042], [2.3882243, 47.5961587], [2.3872441, 47.5957712], [2.3860273, 47.5954521], [2.382498, 47.5939793], [2.381361, 47.5935568], [2.380622, 47.5935697], [2.3803856, 47.5935738], [2.3787177, 47.593286], [2.3779533, 47.5929971], [2.3774267, 47.5928361], [2.3768229, 47.5924292], [2.3762694, 47.5922043], [2.3754969, 47.59163], [2.3751251, 47.59163], [2.3748547, 47.5918579], [2.3748209, 47.5921771], [2.3749899, 47.5924506], [2.3749639, 47.5928609], [2.3745583, 47.593294], [2.3739161, 47.5934991], [2.3733077, 47.5937043], [2.3725979, 47.5937043], [2.3718543, 47.5935447], [2.3716653, 47.5934771], [2.3715546, 47.5932538], [2.3716177, 47.5930433], [2.3719557, 47.5929293], [2.3721693, 47.5930131], [2.3720341, 47.5927624], [2.3718046, 47.5927306], [2.3717492, 47.5925812], [2.3718267, 47.592499], [2.3719486, 47.5924766], [2.3721036, 47.5924393], [2.3720925, 47.5922227], [2.3720482, 47.5920285], [2.3714945, 47.5917596], [2.3713193, 47.5913203], [2.3709871, 47.5912978], [2.3703447, 47.5911709], [2.3699893, 47.5911672], [2.3696017, 47.5911747], [2.369358, 47.5911373], [2.3692916, 47.5910103], [2.3693137, 47.5908609], [2.3692647, 47.5907488], [2.3693124, 47.5906637], [2.369545, 47.5906264], [2.3699215, 47.5905815], [2.3700877, 47.5905367], [2.3700545, 47.5903575], [2.3701652, 47.590223], [2.3706304, 47.5900363], [2.3708519, 47.5900213], [2.3709516, 47.5899018], [2.3714832, 47.5898122], [2.371698, 47.5896731], [2.3718378, 47.589556], [2.3717049, 47.5893842], [2.3714059, 47.5892572], [2.3710071, 47.5890481], [2.3706638, 47.5889883], [2.3704644, 47.5888539], [2.3702722, 47.5886665], [2.3698648, 47.5887444], [2.3693394, 47.5889438], [2.36887, 47.5891362], [2.3684251, 47.589425], [2.3682875, 47.5894376], [2.3679383, 47.5893007], [2.3683077, 47.5890948], [2.3691823, 47.5886037], [2.3695035, 47.5882796], [2.3700078, 47.587823], [2.3712147, 47.5871056], [2.3730858, 47.5857972], [2.37373, 47.585417], [2.3740434, 47.5851911], [2.3744406, 47.5852906], [2.3747396, 47.5853504], [2.3749279, 47.5855596], [2.3751272, 47.5857015], [2.3753377, 47.5857463], [2.3758361, 47.5857463], [2.376855, 47.5857314], [2.3778961, 47.5858061], [2.3781619, 47.585567], [2.3784499, 47.5853355], [2.3787711, 47.5853205], [2.3790148, 47.5854251], [2.3790701, 47.585582], [2.3790871, 47.5855934], [2.3792695, 47.5857164], [2.3795685, 47.5857164], [2.3796985, 47.5857361], [2.3797101, 47.585772], [2.3797522, 47.5859023], [2.3799169, 47.58597], [2.3801319, 47.5858599], [2.38038, 47.585809], [2.3805616, 47.5857514], [2.3807891, 47.5856777], [2.3809004, 47.5856528], [2.3810113, 47.5857326], [2.3810829, 47.58589], [2.3813042, 47.5859047], [2.3815043, 47.5858354], [2.3816749, 47.5857208], [2.3818759, 47.5856743], [2.3820938, 47.5857613], [2.382415, 47.5857762], [2.382561, 47.5857676], [2.3828499, 47.5856651], [2.3830131, 47.5855768], [2.3836274, 47.5856032], [2.3843191, 47.5855849], [2.3847679, 47.585456], [2.3851655, 47.585262], [2.3857735, 47.5848261], [2.3861619, 47.5848426], [2.3865018, 47.5849096], [2.3867765, 47.5848267], [2.386263, 47.5851794], [2.3857436, 47.5854994], [2.3854109, 47.5858054], [2.3846965, 47.5859826], [2.3840724, 47.5860512], [2.3835956, 47.5860739], [2.3833136, 47.5863249], [2.3838216, 47.5867174], [2.3840547, 47.5866738], [2.3842535, 47.5868743], [2.3845968, 47.5869341], [2.3847297, 47.5870312], [2.3846633, 47.5871955], [2.3844639, 47.5872105], [2.3839323, 47.5872105], [2.3834561, 47.5872105], [2.3829355, 47.5871582], [2.3823264, 47.5870536], [2.3822045, 47.5869117], [2.3817831, 47.586658], [2.3815395, 47.5866655], [2.3814287, 47.586785], [2.3812731, 47.5868064], [2.3810189, 47.5869285], [2.380834, 47.5870561], [2.3801299, 47.5870271], [2.3799638, 47.5868926], [2.3797094, 47.5869745], [2.3793107, 47.5868848], [2.3790117, 47.5869072], [2.3786794, 47.5870641], [2.3785022, 47.5872733], [2.3785022, 47.5875347], [2.3786905, 47.5877065], [2.3790006, 47.5878933], [2.3794215, 47.5880053], [2.3798534, 47.5879755], [2.3800639, 47.5878335], [2.3801525, 47.5876692], [2.3804003, 47.5876744], [2.3805476, 47.5876819], [2.3805919, 47.5878313], [2.3807248, 47.5878985], [2.3809574, 47.5879359], [2.3809685, 47.5881152], [2.3809131, 47.5883243], [2.3809021, 47.5886007], [2.3814071, 47.5888091], [2.3817726, 47.589078], [2.3829466, 47.5899445], [2.3837329, 47.5904375], [2.3840874, 47.590542], [2.3843421, 47.590542], [2.3845636, 47.5904225], [2.3846744, 47.5902507], [2.384763, 47.589937], [2.3848627, 47.58981], [2.3852503, 47.5897502], [2.3860256, 47.5897353], [2.3866126, 47.5897727], [2.3868341, 47.5898922], [2.3872107, 47.5901984], [2.3877866, 47.5906989], [2.3881742, 47.5912591], [2.3886616, 47.5917521], [2.3893815, 47.5920957], [2.3900571, 47.5922003], [2.3906219, 47.5925663], [2.3909321, 47.5926111], [2.3911757, 47.5924468], [2.3914305, 47.5923496], [2.3917406, 47.5924542], [2.3919399, 47.592641], [2.3920839, 47.5928202], [2.3922943, 47.5929995], [2.3924716, 47.5932609], [2.3925712, 47.59347], [2.3927817, 47.5934775], [2.3930143, 47.5932758], [2.3931472, 47.5930219], [2.3933354, 47.5929024], [2.3936013, 47.5928874], [2.3937785, 47.5930518], [2.3940664, 47.5933729], [2.3942879, 47.5934551], [2.3945316, 47.5933804], [2.3948196, 47.5934103], [2.3949635, 47.5934924], [2.3951186, 47.5934028], [2.3951297, 47.5932534], [2.3954066, 47.593231], [2.3954287, 47.5934551], [2.3952294, 47.5935746], [2.3950965, 47.5937688], [2.3948417, 47.5938883], [2.394587, 47.5939331], [2.3941883, 47.5939406], [2.3941218, 47.593836], [2.3939335, 47.5937464], [2.3936788, 47.5937539], [2.393557, 47.593851], [2.3934573, 47.5941721], [2.3934351, 47.5943141], [2.3931361, 47.5943738], [2.3927595, 47.5944037], [2.3925491, 47.5945381], [2.3921836, 47.5946726], [2.3918513, 47.5947846], [2.3915191, 47.5948444], [2.39122, 47.5949863], [2.39122, 47.5951655], [2.3909653, 47.5953896], [2.3908767, 47.5955688], [2.390633, 47.5956659], [2.3903229, 47.5958303], [2.3900157, 47.5959763]]]}}, {"type": "Feature", "properties": {"name": "Étang de l'Île Charlemagne"}, "geometry": {"type": "Polygon", "coordinates": [[[1.944313, 47.8981787], [1.9448361, 47.8973662], [1.9448762, 47.8973142], [1.9449566, 47.8972751], [1.9450034, 47.8972462], [1.9450034, 47.8972029], [1.9450366, 47.8971559], [1.9451274, 47.897111], [1.9452224, 47.8970801], [1.9453042, 47.8970452], [1.9453155, 47.8969919], [1.9453205, 47.8969481], [1.9452811, 47.8969168], [1.9441833, 47.8963926], [1.9440579, 47.8964331], [1.9439678, 47.8964388], [1.9438884, 47.8963885], [1.9438244, 47.896327], [1.943841, 47.8962738], [1.9430336, 47.895934], [1.9427094, 47.8959338], [1.9420872, 47.8959712], [1.9417888, 47.896049], [1.9413964, 47.8960648], [1.9410519, 47.8960409], [1.9404468, 47.8959162], [1.9396244, 47.8958624], [1.9392772, 47.8959414], [1.9392002, 47.8959339], [1.939035, 47.8959138], [1.9377133, 47.896164], [1.9371218, 47.8962186], [1.9370025, 47.8962555], [1.9369254, 47.8962954], [1.9368297, 47.8963449], [1.9364898, 47.8965209], [1.9363353, 47.8966285], [1.9361311, 47.8968964], [1.9359758, 47.8971002], [1.9358651, 47.8974352], [1.9358517, 47.8975677], [1.9358837, 47.897672], [1.9358897, 47.8976917], [1.93591, 47.897742], [1.9359464, 47.8978319], [1.9360106, 47.8979174], [1.9361045, 47.8979949], [1.9362965, 47.8981108], [1.9363675, 47.898127], [1.9366639, 47.8981894], [1.937256, 47.8982873], [1.9377634, 47.8983684], [1.9381132, 47.898447], [1.9385826, 47.8986123], [1.9389031, 47.8987541], [1.9391807, 47.8988449], [1.940922, 47.8993125], [1.9414874, 47.8994644], [1.9416957, 47.8994786], [1.9424845, 47.8996802], [1.9427179, 47.8997399], [1.9428288, 47.8997744], [1.9429593, 47.8998327], [1.9436531, 47.9001642], [1.9436674, 47.9001673], [1.9445368, 47.9003571], [1.9465497, 47.9007162], [1.9467274, 47.9007144], [1.9471234, 47.9007408], [1.9476907, 47.9008647], [1.9479148, 47.9008708], [1.9484696, 47.900969], [1.9496621, 47.9009949], [1.9500819, 47.9010154], [1.9502053, 47.9010214], [1.9505119, 47.9010364], [1.9505809, 47.9010537], [1.9506413, 47.9010371], [1.9507288, 47.9010408], [1.9508719, 47.9010328], [1.9509748, 47.901036], [1.9510391, 47.901065], [1.9511081, 47.9010931], [1.9511723, 47.9011014], [1.9511842, 47.901101], [1.9512294, 47.9010994], [1.9512383, 47.9010913], [1.9512814, 47.901052], [1.951293, 47.9010279], [1.9513504, 47.9010425], [1.9514786, 47.9010448], [1.9515569, 47.9010281], [1.9516079, 47.9008932], [1.9515752, 47.9007647], [1.951447, 47.9006523], [1.9511475, 47.9005344], [1.9510574, 47.9004947], [1.9504082, 47.9002088], [1.9501, 47.9001064], [1.9500694, 47.9000962], [1.9498802, 47.9000522], [1.9497151, 47.9000171], [1.9496597, 47.900063], [1.94958, 47.9000885], [1.9495087, 47.9000985], [1.9494169, 47.9000802], [1.9490962, 47.8998903], [1.9487774, 47.8997014], [1.9478688, 47.8993944], [1.9473358, 47.8993005], [1.9470935, 47.8993336], [1.9468139, 47.8994534], [1.9467296, 47.8994581], [1.9466168, 47.8994457], [1.9460902, 47.8993388], [1.9459208, 47.8993441], [1.9458239, 47.8993898], [1.9457544, 47.8993945], [1.9456982, 47.8993731], [1.9453382, 47.8991598], [1.9449934, 47.8989511], [1.9445183, 47.8984953], [1.9444245, 47.8984414], [1.9443048, 47.8983187], [1.9442904, 47.8982357], [1.944313, 47.8981787]]]}}, {"type": "Feature", "properties": {"name": "Grand Étang de la Motte"}, "geometry": {"type": "Polygon", "coordinates": [[[1.9881692, 47.7307154], [1.9893762, 47.7314767], [1.9905617, 47.7321659], [1.9917977, 47.7326272], [1.9929757, 47.7327287], [1.9938555, 47.7326241], [1.9937932, 47.7324504], [1.9941097, 47.7323747], [1.9946998, 47.7323783], [1.9955131, 47.7327179], [1.9959015, 47.7329375], [1.9964787, 47.7329488], [1.996792, 47.7327427], [1.996645, 47.7323427], [1.9965827, 47.7318262], [1.9958564, 47.7313324], [1.9951483, 47.7308128], [1.9945475, 47.7303943], [1.9945314, 47.7299617], [1.9945583, 47.729479], [1.9937347, 47.7287946], [1.9931819, 47.7288286], [1.992774, 47.7295531], [1.9923574, 47.729768], [1.9922483, 47.7300005], [1.9918868, 47.7300335], [1.9913329, 47.7294695], [1.9899201, 47.7291634], [1.9892465, 47.7287698], [1.98893, 47.7290656], [1.9881692, 47.7307154]]]}}, {"type": "Feature", "properties": {"name": "Étang de la noue Mazone"}, "geometry": {"type": "Polygon", "coordinates": [[[2.4365966, 47.914329], [2.4369479, 47.9140151], [2.437087, 47.9138908], [2.43817, 47.9129678], [2.4385757, 47.912608], [2.4389547, 47.9122024], [2.439312, 47.9121731], [2.4401503, 47.91211], [2.439909, 47.911783], [2.4396568, 47.9116535], [2.4393125, 47.9116488], [2.4391027, 47.91186], [2.438879, 47.9117902], [2.4386232, 47.9117587], [2.4385035, 47.9115457], [2.4383962, 47.9114917], [2.4380636, 47.9116499], [2.4378753, 47.9114408], [2.4374413, 47.9114881], [2.437275, 47.9114378], [2.4370068, 47.9114953], [2.4368572, 47.9114394], [2.4362504, 47.9115493], [2.4358749, 47.9114989], [2.4350097, 47.9115005], [2.4345451, 47.911525], [2.4336863, 47.9115708], [2.4326054, 47.911553], [2.4320877, 47.9115241], [2.4317872, 47.9114018], [2.4309933, 47.9112293], [2.4301243, 47.9108949], [2.4293202, 47.9106799], [2.4258902, 47.9096933], [2.4254465, 47.9096328], [2.4251488, 47.9094206], [2.4248055, 47.9094691], [2.424666, 47.9095608], [2.4246258, 47.909622], [2.424784, 47.9096993], [2.4253902, 47.9098341], [2.4256879, 47.9098755], [2.4259373, 47.9099617], [2.4262823, 47.9101467], [2.4270183, 47.9106755], [2.4276402, 47.9109998], [2.4280188, 47.9112734], [2.4281502, 47.9114378], [2.4282533, 47.9115573], [2.428207, 47.9117562], [2.4281621, 47.9118954], [2.4281854, 47.9120166], [2.4278821, 47.9121225], [2.4273831, 47.9122468], [2.4274108, 47.9123729], [2.4270612, 47.9123691], [2.4266269, 47.9123715], [2.4264497, 47.912405], [2.426054, 47.9123791], [2.42647, 47.9126094], [2.4265274, 47.9128994], [2.426734, 47.9130163], [2.4269164, 47.9129695], [2.4270424, 47.9128814], [2.4272516, 47.9127826], [2.4275284, 47.9127438], [2.4281721, 47.9128007], [2.4286802, 47.912786], [2.4290299, 47.9127502], [2.4293352, 47.9128093], [2.4297718, 47.9130955], [2.4300867, 47.9134513], [2.4298185, 47.9136275], [2.429877, 47.9137801], [2.4300293, 47.9138391], [2.4304515, 47.9137785], [2.4309665, 47.9135484], [2.4312937, 47.913552], [2.4315458, 47.9137354], [2.4318944, 47.913802], [2.4318999, 47.9139978], [2.4317443, 47.9140518], [2.4316692, 47.9143826], [2.4320018, 47.9145731], [2.4322304, 47.914619], [2.4325329, 47.9145012], [2.4329126, 47.914567], [2.4332443, 47.9145226], [2.4336948, 47.9146612], [2.4340481, 47.9147455], [2.4340868, 47.9148845], [2.4345628, 47.9151294], [2.434758, 47.9152726], [2.4349282, 47.9154345], [2.4351273, 47.9154192], [2.4354855, 47.9152441], [2.4357297, 47.9150373], [2.4360016, 47.9148071], [2.4365966, 47.914329]]]}}, {"type": "Feature", "properties": {"name": "Étang du Gué l'Évêque"}, "geometry": {"type": "Polygon", "coordinates": [[[2.5328067, 47.8446661], [2.5327093, 47.8445594], [2.5323521, 47.8442875], [2.5324829, 47.8442127], [2.5327548, 47.844135], [2.5330176, 47.8441577], [2.5331503, 47.8441306], [2.5332141, 47.8440756], [2.5332609, 47.8439944], [2.5333182, 47.8439638], [2.5334275, 47.8439429], [2.5335602, 47.8439883], [2.5337436, 47.8439647], [2.5338204, 47.8440695], [2.533888, 47.844107], [2.5339739, 47.8441036], [2.5341105, 47.8440852], [2.534143, 47.8440625], [2.5341157, 47.8440223], [2.534065, 47.8440058], [2.533983, 47.8439874], [2.5339245, 47.8439699], [2.5339544, 47.8439333], [2.5342614, 47.8439368], [2.5344369, 47.8438772], [2.5346623, 47.8436861], [2.534611, 47.8434981], [2.5337645, 47.8428158], [2.5330242, 47.8422109], [2.5329491, 47.8412316], [2.5321873, 47.8403242], [2.5315758, 47.8394241], [2.5313612, 47.8396977], [2.531372, 47.8402666], [2.5314384, 47.8411767], [2.5313153, 47.8426698], [2.5305375, 47.8438942], [2.5300523, 47.8446026], [2.5295481, 47.8447535], [2.5291082, 47.8442494], [2.5286345, 47.8440576], [2.5276949, 47.8440952], [2.5258285, 47.843856], [2.5242519, 47.8433248], [2.5232554, 47.8428697], [2.5229359, 47.8426927], [2.5223033, 47.8427742], [2.520747, 47.8422079], [2.5203882, 47.8420773], [2.5200708, 47.8418239], [2.519664, 47.8414618], [2.5191778, 47.8411798], [2.5184967, 47.8407387], [2.5183994, 47.8408061], [2.5183501, 47.8408402], [2.5187731, 47.841245], [2.5191482, 47.8415352], [2.5194504, 47.841822], [2.5194504, 47.8419933], [2.5194057, 47.8421572], [2.5190909, 47.842308], [2.518514, 47.8424007], [2.5184933, 47.8425499], [2.5185624, 47.8426477], [2.5191003, 47.8426496], [2.5194728, 47.8426583], [2.5200966, 47.8427511], [2.520718, 47.8429101], [2.5215599, 47.8432054], [2.5228937, 47.8437494], [2.523768, 47.8442078], [2.5246651, 47.8446688], [2.5250298, 47.8448271], [2.5255784, 47.8452282], [2.5258698, 47.845596], [2.5259177, 47.846051], [2.5257573, 47.8463412], [2.5255358, 47.8464805], [2.5255879, 47.8467445], [2.5259213, 47.8468214], [2.5262313, 47.8469858], [2.5258223, 47.8470242], [2.5256941, 47.8474162], [2.5267189, 47.8469723], [2.5289043, 47.8459081], [2.5291687, 47.8457715], [2.5295353, 47.845582], [2.5297931, 47.845438], [2.5300158, 47.8453357], [2.5301698, 47.8453063], [2.5309387, 47.8452689], [2.5317289, 47.8452246], [2.5322454, 47.8451922], [2.5326467, 47.8449802], [2.5328016, 47.8447672], [2.5328067, 47.8446661]]]}}, {"type": "Feature", "properties": {"name": "Étang du Ravoir"}, "geometry": {"type": "Polygon", "coordinates": [[[2.4789562, 47.8008204], [2.4802308, 47.8005595], [2.480999, 47.800646], [2.4832521, 47.8006309], [2.4833282, 47.8005012], [2.483163, 47.8004017], [2.4803027, 47.8003714], [2.4767268, 47.8007318], [2.4753943, 47.8014834], [2.4741765, 47.8015533], [2.4730371, 47.8015396], [2.4714299, 47.8011786], [2.4698635, 47.8006309], [2.4680611, 47.7996219], [2.4667522, 47.7981085], [2.4652716, 47.7967824], [2.46488, 47.7964688], [2.4639198, 47.7970851], [2.4640271, 47.7975175], [2.4645088, 47.7975398], [2.4650527, 47.798009], [2.4653778, 47.7990454], [2.4657211, 47.7996515], [2.4665376, 47.8003714], [2.4676534, 47.8013515], [2.4682328, 47.8027856], [2.4685965, 47.804033], [2.4683787, 47.8049122], [2.4688325, 47.8054743], [2.4683186, 47.8060933], [2.4692831, 47.8065696], [2.4694677, 47.8071202], [2.4700105, 47.8072757], [2.4708721, 47.8081109], [2.471342, 47.8088905], [2.4714289, 47.8095959], [2.4719449, 47.8102005], [2.4717638, 47.8096059], [2.4723699, 47.8088347], [2.4724381, 47.8084164], [2.4721606, 47.8079063], [2.4714278, 47.8075359], [2.4707208, 47.8065984], [2.4701854, 47.80605], [2.4700137, 47.8049979], [2.4703131, 47.8040763], [2.4704, 47.8032829], [2.4706553, 47.8028137], [2.4717332, 47.8026074], [2.4730438, 47.8025609], [2.4746988, 47.8024645], [2.475802, 47.8022316], [2.4764219, 47.801952], [2.47698, 47.8013825], [2.4789562, 47.8008204]]]}}, {"type": "Feature", "properties": {"name": "Étang de Courcambon"}, "geometry": {"type": "Polygon", "coordinates": [[[2.5634591, 47.7919809], [2.562342, 47.791576], [2.5614667, 47.7912649], [2.560662, 47.7908612], [2.5600505, 47.7909225], [2.5597761, 47.7908672], [2.5591814, 47.7905621], [2.5574045, 47.7899428], [2.5566602, 47.7898485], [2.5549924, 47.7893143], [2.5545305, 47.7890339], [2.5542247, 47.7889006], [2.5538224, 47.7888501], [2.5532001, 47.7888645], [2.5506476, 47.7882093], [2.5490606, 47.7877675], [2.5477473, 47.787433], [2.5470042, 47.787358], [2.5455129, 47.7868966], [2.5441445, 47.7866362], [2.5427341, 47.7867092], [2.5422154, 47.7866322], [2.5417632, 47.7866515], [2.5415915, 47.7864353], [2.5415153, 47.7858595], [2.5412476, 47.7857111], [2.5408073, 47.7856728], [2.5396003, 47.7859604], [2.5391943, 47.7859897], [2.537703, 47.7855689], [2.5363147, 47.7850491], [2.5351571, 47.7847067], [2.5342462, 47.7844738], [2.533742, 47.7838084], [2.5326862, 47.7830457], [2.5322148, 47.7823316], [2.531398, 47.7822021], [2.5307489, 47.7828906], [2.5305301, 47.7832129], [2.5305611, 47.7834564], [2.5311702, 47.7836257], [2.5316616, 47.7840294], [2.531699, 47.78513], [2.5320243, 47.7861786], [2.5320107, 47.7865578], [2.5324181, 47.7869117], [2.533105, 47.7873652], [2.5337648, 47.787686], [2.5341024, 47.7874459], [2.5336629, 47.7871633], [2.5332928, 47.7868173], [2.5330897, 47.7863877], [2.532756, 47.7854946], [2.532708, 47.7852675], [2.5330725, 47.7850225], [2.5333357, 47.7850188], [2.5343239, 47.7852861], [2.5350043, 47.7854001], [2.535381, 47.7855023], [2.5367813, 47.7863318], [2.5373432, 47.7867108], [2.5384675, 47.7873609], [2.539336, 47.7876337], [2.5400046, 47.7879878], [2.5403072, 47.7881492], [2.5413285, 47.7884554], [2.5425021, 47.7886939], [2.5432663, 47.7885217], [2.5439798, 47.7883832], [2.5448474, 47.7884154], [2.5455107, 47.7884817], [2.5462256, 47.788721], [2.5465064, 47.7890541], [2.5473172, 47.7893212], [2.5481773, 47.7895132], [2.5495342, 47.7899196], [2.5512061, 47.790566], [2.5531346, 47.7913062], [2.5543197, 47.791115], [2.5548546, 47.7910097], [2.5565395, 47.7913843], [2.557615, 47.7917838], [2.557607, 47.7918721], [2.5576311, 47.7920037], [2.558291, 47.7921911], [2.5587147, 47.7920469], [2.5589951, 47.792056], [2.5608926, 47.7925159], [2.5625634, 47.7928881], [2.5646681, 47.7935153], [2.5656134, 47.7937624], [2.5663108, 47.7938272], [2.5667775, 47.7931605], [2.5655007, 47.7926596], [2.5642959, 47.7922979], [2.5634591, 47.7919809]]]}}, {"type": "Feature", "properties": {"name": "Grand Étang de Pont Chevron"}, "geometry": {"type": "Polygon", "coordinates": [[[2.772541, 47.6957272], [2.7727308, 47.6955384], [2.7726606, 47.6949377], [2.7725421, 47.6942903], [2.7723741, 47.6936217], [2.7723251, 47.6931256], [2.7725848, 47.6927803], [2.7729267, 47.6926237], [2.7734801, 47.6927063], [2.7736262, 47.6926109], [2.7729333, 47.6922766], [2.7721157, 47.6917836], [2.7718622, 47.6918835], [2.7720564, 47.6918792], [2.7718472, 47.6921107], [2.7716411, 47.6921712], [2.771452, 47.6919967], [2.7716965, 47.6918501], [2.7719307, 47.6917738], [2.7719369, 47.6916759], [2.7712736, 47.6912764], [2.7710545, 47.6912318], [2.7705288, 47.6912137], [2.7704483, 47.6912949], [2.7697697, 47.6913274], [2.7696678, 47.6912552], [2.7694595, 47.6912889], [2.769225, 47.6916166], [2.7695526, 47.6922091], [2.7693142, 47.692803], [2.7694021, 47.6932502], [2.7697553, 47.6936616], [2.7698795, 47.6944761], [2.7693379, 47.6949238], [2.7696653, 47.6956982], [2.769236, 47.6961478], [2.7692031, 47.6970963], [2.7697872, 47.697882], [2.7703721, 47.6986327], [2.7706794, 47.6992367], [2.7707863, 47.6995308], [2.7705414, 47.6998701], [2.7704118, 47.6999861], [2.7702063, 47.7001241], [2.7694219, 47.7003581], [2.7695061, 47.7004498], [2.770866, 47.7007911], [2.7715689, 47.7012067], [2.7718753, 47.7012062], [2.7717122, 47.7004374], [2.7718998, 47.7002361], [2.7719266, 47.6999714], [2.7717169, 47.6997623], [2.7717873, 47.6990611], [2.7715863, 47.6979444], [2.7713051, 47.697055], [2.7712738, 47.6965578], [2.7715947, 47.6961877], [2.7719688, 47.6959782], [2.772541, 47.6957272]]]}}, {"type": "Feature", "properties": {"name": "Étang de la Tuilerie"}, "geometry": {"type": "Polygon", "coordinates": [[[2.9074695, 47.6651469], [2.9075594, 47.6643187], [2.9082621, 47.6623163], [2.908052, 47.6615008], [2.9073122, 47.661135], [2.9070309, 47.6599498], [2.9060094, 47.6587127], [2.9048683, 47.6585036], [2.9043014, 47.6581402], [2.9048167, 47.6568242], [2.9033268, 47.6564377], [2.9025099, 47.6554334], [2.9019731, 47.6545698], [2.9016781, 47.6540241], [2.901206, 47.6537278], [2.9010934, 47.6537531], [2.9013616, 47.6541289], [2.901544, 47.6545951], [2.9016681, 47.6554846], [2.9012646, 47.6564699], [2.9017548, 47.657402], [2.9021941, 47.659299], [2.9029803, 47.6609548], [2.9031999, 47.6628017], [2.903102, 47.6640264], [2.9033146, 47.6651007], [2.9026866, 47.666728], [2.9030528, 47.6692928], [2.9086848, 47.6681985], [2.9080355, 47.6664577], [2.9074695, 47.6651469]]]}}, {"type": "Feature", "properties": {"name": "Étang d'Orléans"}, "geometry": {"type": "Polygon", "coordinates": [[[2.4390934, 47.8602609], [2.4391417, 47.8601061], [2.4391793, 47.8600413], [2.4392168, 47.8599478], [2.4392168, 47.8598542], [2.4392597, 47.8597282], [2.4393402, 47.8595266], [2.4394099, 47.8593827], [2.439528, 47.8593395], [2.4397801, 47.8592999], [2.4400698, 47.8591955], [2.4402843, 47.8591091], [2.4403863, 47.8590371], [2.4406062, 47.8589939], [2.4407618, 47.8588176], [2.4408637, 47.8586484], [2.4409442, 47.8586088], [2.4410346, 47.8586076], [2.4412446, 47.8584109], [2.4414216, 47.8582741], [2.4414913, 47.8581769], [2.4415289, 47.8580977], [2.4414431, 47.8580797], [2.441207, 47.8581589], [2.4410622, 47.8582417], [2.4408154, 47.8583353], [2.4405579, 47.8584073], [2.4402951, 47.8584684], [2.4401395, 47.8584828], [2.4399303, 47.8584433], [2.4398391, 47.8583677], [2.439764, 47.8584397], [2.439528, 47.8584684], [2.439308, 47.8584864], [2.4391793, 47.8584576], [2.4390183, 47.8583173], [2.438803, 47.8580965], [2.4386804, 47.8580617], [2.4383357, 47.8574573], [2.4382612, 47.857211], [2.4382236, 47.857085], [2.4381539, 47.8570202], [2.4381646, 47.8569302], [2.4380573, 47.8568151], [2.4378374, 47.8566855], [2.4376764, 47.8565955], [2.437494, 47.8565199], [2.4373653, 47.8564155], [2.4372687, 47.8563219], [2.4370434, 47.8562104], [2.4368771, 47.8561672], [2.4367055, 47.8562356], [2.436566, 47.8562895], [2.4363632, 47.8562908], [2.4361647, 47.8562476], [2.4359931, 47.8561468], [2.435918, 47.856028], [2.4357356, 47.8559381], [2.4356283, 47.8558841], [2.4353923, 47.8559129], [2.4351498, 47.8559404], [2.434903, 47.85607], [2.4347045, 47.8561636], [2.4345007, 47.856196], [2.4342325, 47.8561852], [2.4340394, 47.8561708], [2.4339052, 47.8561888], [2.4337658, 47.8563507], [2.4337068, 47.8564803], [2.433798, 47.8565883], [2.4339482, 47.8566963], [2.4339589, 47.8567827], [2.4338999, 47.8568367], [2.4339267, 47.8569482], [2.4340447, 47.8570922], [2.434196, 47.8571763], [2.4342228, 47.8572447], [2.4339117, 47.8575038], [2.433563, 47.857583], [2.4333216, 47.8575038], [2.4329772, 47.8574378], [2.4327626, 47.857319], [2.432591, 47.8572794], [2.4324193, 47.8572866], [2.4322798, 47.857319], [2.4322852, 47.8573694], [2.432371, 47.857373], [2.4325212, 47.8574054], [2.4328388, 47.8575254], [2.4330147, 47.8576141], [2.433284, 47.8578926], [2.4333216, 47.8581517], [2.433401, 47.8586723], [2.4332304, 47.8586268], [2.4331499, 47.8585116], [2.4330587, 47.8585908], [2.4331971, 47.8587119], [2.4331875, 47.858796], [2.4331446, 47.8588572], [2.4332411, 47.8589328], [2.4333581, 47.8589747], [2.4334074, 47.8593467], [2.4334171, 47.859439], [2.4338098, 47.8595842], [2.4339224, 47.859559], [2.4341155, 47.8596202], [2.4341788, 47.8596981], [2.4343462, 47.8597138], [2.4344363, 47.8597989], [2.4346294, 47.8598133], [2.4346788, 47.8598614], [2.4348558, 47.859937], [2.434947, 47.8599693], [2.4351015, 47.8599825], [2.4351938, 47.8599693], [2.4353172, 47.8599334], [2.4353923, 47.8599837], [2.4354717, 47.8601373], [2.4356433, 47.8602524], [2.435654, 47.86031], [2.4357088, 47.8603581], [2.4357034, 47.8604156], [2.4358418, 47.8605152], [2.435859, 47.8605956], [2.435933, 47.8606735], [2.4360574, 47.8606784], [2.4360725, 47.8607527], [2.4360735, 47.860808], [2.4361422, 47.8608751], [2.4362023, 47.8609483], [2.4361969, 47.8610311], [2.4361647, 47.8611139], [2.4361325, 47.8612003], [2.4360414, 47.8612363], [2.4359877, 47.8612543], [2.4358751, 47.8613838], [2.4358311, 47.8614725], [2.4357195, 47.8614594], [2.4357088, 47.8615026], [2.436389, 47.8619116], [2.4367377, 47.8621096], [2.4370434, 47.8622715], [2.4372634, 47.8623975], [2.4373975, 47.8624299], [2.4376657, 47.8624371], [2.4378811, 47.8623988], [2.4381654, 47.8623592], [2.4384068, 47.8623124], [2.4387716, 47.8622188], [2.4389432, 47.862154], [2.4392115, 47.8620461], [2.4393992, 47.8619741], [2.4395172, 47.8618877], [2.4395548, 47.8618157], [2.4394797, 47.8617077], [2.4394046, 47.861625], [2.4392866, 47.8615242], [2.4392276, 47.8613694], [2.4391417, 47.8612183], [2.4390237, 47.8612147], [2.4389701, 47.8609375], [2.4389271, 47.8606892], [2.4389271, 47.8604624], [2.4389701, 47.8603653], [2.4390934, 47.8602609]]]}}, {"type": "Feature", "properties": {"name": "L'Étang Neuf"}, "geometry": {"type": "Polygon", "coordinates": [[[2.4004297, 47.5991409], [2.40062, 47.5992762], [2.4009589, 47.5993065], [2.4024995, 47.5992275], [2.4032043, 47.5992181], [2.4048636, 47.5994614], [2.4063744, 47.5991528], [2.4071163, 47.599486], [2.4075776, 47.5989651], [2.4082403, 47.5987184], [2.4090243, 47.5983939], [2.4099822, 47.5975838], [2.4101452, 47.5970671], [2.4110317, 47.596297], [2.4118958, 47.5956035], [2.4112732, 47.5955828], [2.4101924, 47.5955469], [2.4095432, 47.5960482], [2.4087386, 47.5967715], [2.4076403, 47.597237], [2.406479, 47.5975353], [2.4057258, 47.5975183], [2.4049573, 47.5972012], [2.4033594, 47.5975042], [2.4024296, 47.5973706], [2.4007736, 47.5968447], [2.4002713, 47.5968815], [2.3999773, 47.5973221], [2.399472, 47.5975218], [2.3994336, 47.5978891], [2.3997808, 47.5985264], [2.3998228, 47.5985662], [2.4004297, 47.5991409]]]}}, {"type": "Feature", "properties": {"name": "Étang de la Vallée"}, "geometry": {"type": "Polygon", "coordinates": [[[2.2767439, 47.9627509], [2.2769407, 47.9625061], [2.2769053, 47.9623475], [2.2768013, 47.9621536], [2.276713, 47.9621578], [2.2765097, 47.9621639], [2.2763755, 47.9621578], [2.2763221, 47.9619808], [2.2762445, 47.9618429], [2.2761056, 47.9618], [2.2761377, 47.9615642], [2.2762743, 47.9615176], [2.2765105, 47.9615854], [2.2766792, 47.9617285], [2.2769717, 47.9617661], [2.2770595, 47.9617982], [2.2771666, 47.9617564], [2.277295, 47.9617129], [2.2773575, 47.961636], [2.2775654, 47.961495], [2.2776561, 47.9613835], [2.2777923, 47.9613337], [2.277939, 47.9613293], [2.2785689, 47.9609527], [2.2783776, 47.9606213], [2.277624, 47.9601694], [2.2772237, 47.9599935], [2.2771629, 47.9598229], [2.2776128, 47.9598003], [2.2781639, 47.9599886], [2.2787263, 47.960192], [2.2792662, 47.96032], [2.2795881, 47.9603134], [2.2798962, 47.9602324], [2.2804288, 47.9601159], [2.2806116, 47.9601117], [2.2808389, 47.9601066], [2.2814033, 47.9601694], [2.2819882, 47.9602673], [2.2822132, 47.9602748], [2.2823707, 47.9602221], [2.2828993, 47.9599434], [2.2830914, 47.9598901], [2.2836867, 47.959725], [2.2843953, 47.9596044], [2.2846559, 47.9597002], [2.2848212, 47.9596793], [2.2849419, 47.9596072], [2.2850797, 47.9594609], [2.2851229, 47.9593809], [2.2851443, 47.9593413], [2.2851641, 47.9593046], [2.2852681, 47.9592443], [2.2854172, 47.9591916], [2.2854256, 47.9590447], [2.2859318, 47.9583197], [2.2868091, 47.9582011], [2.2893343, 47.9579582], [2.2895902, 47.957994], [2.289967, 47.9582218], [2.2900011, 47.9582436], [2.2899912, 47.9583991], [2.2901272, 47.9584403], [2.2904759, 47.9591784], [2.2909427, 47.9594872], [2.2910777, 47.9597603], [2.2915445, 47.9600352], [2.2917329, 47.9604193], [2.2917779, 47.9606434], [2.2917413, 47.9607395], [2.291536, 47.9607809], [2.2912155, 47.9607941], [2.2911367, 47.9608807], [2.2910974, 47.9610163], [2.2911255, 47.961519], [2.2912408, 47.9616282], [2.2912267, 47.961745], [2.291162, 47.9618015], [2.2910749, 47.9618674], [2.2910608, 47.9619747], [2.2911677, 47.9619615], [2.2912745, 47.9618956], [2.2914067, 47.9618542], [2.2914432, 47.9619088], [2.2914657, 47.9620255], [2.2914179, 47.9620764], [2.2912436, 47.9620839], [2.2911508, 47.9621122], [2.2910439, 47.9621818], [2.2909371, 47.9622496], [2.2909877, 47.9623268], [2.2911649, 47.962404], [2.2912239, 47.9625076], [2.291103, 47.9626149], [2.2911733, 47.9630517], [2.2915557, 47.963193], [2.2913758, 47.9632683], [2.2912295, 47.9633869], [2.2912745, 47.96353], [2.2910074, 47.9635865], [2.290819, 47.9636976], [2.2907684, 47.9638237], [2.2907487, 47.9638859], [2.2906081, 47.9639668], [2.2905743, 47.9640591], [2.2906924, 47.9640836], [2.2907431, 47.9641947], [2.2908021, 47.9648122], [2.2909455, 47.9649158], [2.2909441, 47.9649486], [2.2909174, 47.9655899], [2.2906334, 47.9659118], [2.29058, 47.9660135], [2.2905721, 47.9660469], [2.2905237, 47.9662507], [2.2904056, 47.9664447], [2.2902903, 47.9665068], [2.2901188, 47.966567], [2.2899163, 47.966712], [2.2899276, 47.966825], [2.2900288, 47.9670867], [2.2902144, 47.9672467], [2.2909427, 47.9679415], [2.2912745, 47.9682145], [2.291612, 47.9684253], [2.2922362, 47.9687981], [2.2924668, 47.968896], [2.2926158, 47.9689657], [2.2927564, 47.969073], [2.2928267, 47.9692029], [2.2927874, 47.9693234], [2.2928846, 47.9695014], [2.293146, 47.9696574], [2.2931373, 47.9697569], [2.2929212, 47.9697058], [2.2927124, 47.9695606], [2.2925937, 47.9694301], [2.292509, 47.96933], [2.2921209, 47.968992], [2.2916176, 47.968736], [2.2909624, 47.9683237], [2.2906193, 47.9681674], [2.2900794, 47.9678398], [2.2895114, 47.9676045], [2.28889, 47.9673427], [2.2885357, 47.9672166], [2.2883585, 47.9672241], [2.288187, 47.967258], [2.2879086, 47.9673352], [2.2874362, 47.9675254], [2.2871072, 47.9676421], [2.2868485, 47.9678605], [2.2867051, 47.9680507], [2.2864689, 47.9684385], [2.2864126, 47.9686927], [2.286556, 47.9690391], [2.2866348, 47.9691464], [2.2868007, 47.9694778], [2.2868485, 47.9698204], [2.2867416, 47.9698618], [2.2866348, 47.9697075], [2.2864548, 47.9693686], [2.2862327, 47.9690786], [2.2860189, 47.9688263], [2.2859458, 47.9686211], [2.2861061, 47.9681994], [2.2864014, 47.9676045], [2.286795, 47.9672091], [2.2870088, 47.9670923], [2.2871972, 47.9668495], [2.2877286, 47.9667384], [2.2883416, 47.9667101], [2.2886931, 47.9666216], [2.2889771, 47.9665143], [2.2890671, 47.9663034], [2.2889996, 47.9661321], [2.2888984, 47.9659627], [2.2888731, 47.9657499], [2.2892162, 47.9654562], [2.289593, 47.9652171], [2.2895423, 47.9645373], [2.289472, 47.9641815], [2.2893624, 47.9635206], [2.2893416, 47.9632602], [2.2892743, 47.9632148], [2.2891997, 47.9632046], [2.2891114, 47.9633755], [2.2890683, 47.9632948], [2.288935, 47.9630517], [2.2887522, 47.9628973], [2.2882179, 47.9625471], [2.2880661, 47.9624285], [2.2874699, 47.9622421], [2.2874137, 47.9621479], [2.2873631, 47.9620463], [2.2872084, 47.9620463], [2.2871325, 47.9621536], [2.2872028, 47.9622232], [2.28711, 47.9623438], [2.2868513, 47.9624831], [2.2867922, 47.9625471], [2.2867135, 47.9628164], [2.2865026, 47.9628766], [2.2861933, 47.9628126], [2.2858502, 47.9624812], [2.2855971, 47.9622684], [2.2854228, 47.9619954], [2.2855409, 47.9618354], [2.2856731, 47.9617374], [2.2856421, 47.9616], [2.2857377, 47.9614983], [2.2858699, 47.9615266], [2.2860161, 47.9614531], [2.2861736, 47.9614023], [2.2861455, 47.9614908], [2.2860752, 47.9615604], [2.2861652, 47.9616151], [2.2861961, 47.9616941], [2.2862327, 47.9618429], [2.2863508, 47.9618071], [2.286452, 47.9617544], [2.2867079, 47.9616885], [2.2868204, 47.9614512], [2.2864154, 47.9613458], [2.2861849, 47.9613025], [2.2856703, 47.9612968], [2.2852569, 47.9611989], [2.2848632, 47.9611048], [2.2846101, 47.9610972], [2.2840478, 47.9612968], [2.2836738, 47.961391], [2.2830945, 47.9615021], [2.2826024, 47.9614832], [2.28213, 47.9615378], [2.2819641, 47.9616546], [2.28186, 47.9617582], [2.2817279, 47.9616527], [2.2813679, 47.9613853], [2.2808899, 47.9613194], [2.2804934, 47.9613891], [2.2797398, 47.9614814], [2.2794755, 47.9614889], [2.2789075, 47.9618184], [2.2786881, 47.9618937], [2.2783141, 47.9620387], [2.278182, 47.962146], [2.2779655, 47.9622082], [2.2776646, 47.9623174], [2.2775071, 47.9624247], [2.2771387, 47.9626601], [2.2770263, 47.9627505], [2.2769053, 47.9628201], [2.2768182, 47.9628201], [2.2767439, 47.9627509]]]}}, {"type": "Feature", "properties": {"name": "Etangs de Cepoy"}, "geometry": {"type": "Polygon", "coordinates": [[[2.749537, 48.049758], [2.750017, 48.0499399], [2.7503337, 48.0500856], [2.7510784, 48.0504441], [2.7528133, 48.0513605], [2.7531276, 48.0515806], [2.7532835, 48.0519759], [2.7533982, 48.0521144], [2.7535609, 48.0522366], [2.7536502, 48.0525482], [2.7538223, 48.0529486], [2.7542286, 48.0538996], [2.7546525, 48.05389], [2.7548251, 48.0538481], [2.7549084, 48.0537714], [2.7548774, 48.0533273], [2.7549659, 48.0531807], [2.7549657, 48.0528505], [2.7552822, 48.0526016], [2.7555852, 48.0515795], [2.7560356, 48.0515194], [2.7565704, 48.0515482], [2.7569007, 48.0514924], [2.7563616, 48.0504737], [2.755946, 48.0497581], [2.7555407, 48.0496187], [2.7549746, 48.0488186], [2.754432, 48.0483195], [2.7538857, 48.0482025], [2.7534681, 48.0479394], [2.7535358, 48.0476294], [2.75341, 48.0474372], [2.7532076, 48.0473019], [2.7531859, 48.0470748], [2.7532396, 48.046918], [2.7528927, 48.0467102], [2.7526221, 48.0465872], [2.7522895, 48.0465403], [2.7507722, 48.0459634], [2.7506442, 48.0461097], [2.750558, 48.0461516], [2.7503948, 48.046066], [2.7504095, 48.0460059], [2.7505825, 48.0458033], [2.7505517, 48.0457504], [2.750596, 48.0456572], [2.7504902, 48.0456024], [2.7490282, 48.0452376], [2.747453, 48.0446281], [2.7473105, 48.0446815], [2.7464822, 48.0453049], [2.7464238, 48.0453443], [2.7461931, 48.0452627], [2.7460815, 48.0452871], [2.7451372, 48.0459948], [2.7451564, 48.0461575], [2.745265, 48.0463547], [2.7455916, 48.0469169], [2.7462804, 48.0477927], [2.7466425, 48.0481193], [2.7469897, 48.048294], [2.747439, 48.0487494], [2.7475848, 48.04878], [2.7477622, 48.0487593], [2.7477944, 48.0487485], [2.7478212, 48.0487718], [2.7478668, 48.048909], [2.7482665, 48.0491645], [2.7485387, 48.0492721], [2.7487868, 48.0493366], [2.7489931, 48.0495117], [2.7492998, 48.0496199], [2.7494393, 48.0496186], [2.7495606, 48.0496697], [2.749537, 48.049758]]]}}, {"type": "Feature", "properties": {"name": "Lac de Chalette"}, "geometry": {"type": "Polygon", "coordinates": [[[2.730103, 48.026965], [2.730116, 48.026968], [2.729941, 48.027256], [2.729836, 48.027311], [2.729709, 48.027357], [2.729601, 48.02738], [2.72948, 48.027385], [2.729354, 48.027362], [2.729306, 48.027342], [2.729142, 48.027218], [2.729075, 48.027189], [2.729027, 48.027182], [2.728946, 48.027184], [2.728729, 48.027202], [2.72864, 48.027203], [2.728512, 48.027195], [2.7284, 48.02717], [2.728234, 48.027091], [2.728127, 48.027003], [2.728043, 48.026893], [2.727968, 48.02683], [2.727894, 48.02679], [2.727828, 48.026772], [2.727764, 48.026762], [2.727676, 48.026778], [2.727562, 48.02681], [2.727515, 48.026844], [2.727465, 48.026927], [2.72745, 48.026985], [2.727443, 48.027039], [2.727461, 48.027115], [2.727485, 48.027166], [2.727539, 48.02724], [2.727573, 48.027265], [2.727599, 48.027266], [2.727662, 48.027255], [2.728027, 48.027368], [2.72832, 48.027467], [2.728512, 48.027498], [2.728739, 48.027519], [2.728888, 48.027554], [2.729156, 48.027632], [2.729328, 48.02769], [2.729485, 48.027748], [2.729586, 48.027818], [2.729619, 48.027883], [2.72965, 48.02802], [2.729645, 48.028087], [2.729556, 48.028238], [2.729482, 48.028331], [2.729358, 48.028475], [2.7292401, 48.0285948], [2.729109, 48.028728], [2.728998, 48.028822], [2.728855, 48.02893], [2.728631, 48.029064], [2.728589, 48.029087], [2.72848, 48.029184], [2.72838, 48.029314], [2.7282683, 48.029471], [2.728136, 48.029657], [2.727917, 48.03], [2.727869, 48.030052], [2.727816, 48.030077], [2.727813, 48.030078], [2.72775, 48.03009], [2.727604, 48.030088], [2.727495, 48.030076], [2.727435, 48.030059], [2.727281, 48.029994], [2.72709, 48.029887], [2.727013, 48.029837], [2.726961, 48.029796], [2.726957, 48.029707], [2.726928, 48.029644], [2.726899, 48.029607], [2.726869, 48.029581], [2.726809, 48.029565], [2.726747, 48.029554], [2.726701, 48.029552], [2.726642, 48.029572], [2.726519, 48.029666], [2.726434, 48.029741], [2.726392, 48.029791], [2.726382, 48.029821], [2.726849, 48.030011], [2.726964, 48.030054], [2.727097, 48.030099], [2.72717, 48.030134], [2.727223, 48.030204], [2.7273205, 48.03038], [2.727404, 48.0305307], [2.727466, 48.030593], [2.727479, 48.030648], [2.727502, 48.030684], [2.727572, 48.030731], [2.727564, 48.030743], [2.727559, 48.030749], [2.727556, 48.030754], [2.727499, 48.030755], [2.727461, 48.030762], [2.72744, 48.030775], [2.727345, 48.030859], [2.727312, 48.030862], [2.727106, 48.030839], [2.7269792, 48.030819], [2.726707, 48.030776], [2.726363, 48.030727], [2.726112, 48.030696], [2.725985, 48.030659], [2.725869, 48.030597], [2.725813, 48.030564], [2.725736, 48.0305], [2.725526, 48.030258], [2.725494, 48.030208], [2.725479, 48.030156], [2.725478, 48.030114], [2.725503, 48.030067], [2.72557, 48.030003], [2.725785, 48.029836], [2.725915, 48.029702], [2.725968, 48.029628], [2.726028, 48.029499], [2.726038, 48.029458], [2.726043, 48.029387], [2.726031, 48.029336], [2.725997, 48.029301], [2.725753, 48.029168], [2.72544, 48.028973], [2.725229, 48.028823], [2.725169, 48.028766], [2.724955, 48.028522], [2.724869, 48.028406], [2.724838, 48.028341], [2.724827, 48.028308], [2.724809, 48.028223], [2.724808, 48.028108], [2.72482, 48.028084], [2.724842, 48.028047], [2.724884, 48.027999], [2.724932, 48.027961], [2.725007, 48.027905], [2.72511, 48.027826], [2.725178, 48.027768], [2.725204, 48.027738], [2.725285, 48.027641], [2.725486, 48.027475], [2.725795, 48.02722], [2.725836, 48.027166], [2.725846, 48.027116], [2.725844, 48.027073], [2.725829, 48.027039], [2.725803, 48.027013], [2.72577, 48.026994], [2.725716, 48.026968], [2.725375, 48.026823], [2.72533, 48.026797], [2.725298, 48.026723], [2.725291, 48.026662], [2.725305, 48.026602], [2.725331, 48.026564], [2.725376, 48.026528], [2.72564, 48.026492], [2.725704, 48.026493], [2.725953, 48.026497], [2.726046, 48.026492], [2.726144, 48.026473], [2.726182, 48.026451], [2.726241, 48.026394], [2.726302, 48.026297], [2.726286, 48.0263], [2.726325, 48.026238], [2.726361, 48.026144], [2.72637, 48.026074], [2.726363, 48.025979], [2.726355, 48.025913], [2.726336, 48.025827], [2.726328, 48.025747], [2.7263084, 48.0256467], [2.7262683, 48.0255218], [2.7262746, 48.025372], [2.726228, 48.025337], [2.72615, 48.025245], [2.726192, 48.025215], [2.7261517, 48.0251742], [2.7261083, 48.0250926], [2.7260108, 48.0250773], [2.7259042, 48.0249901], [2.7257816, 48.0248878], [2.7257088, 48.02476], [2.72573, 48.0246567], [2.725733, 48.024587], [2.725786, 48.024487], [2.725861, 48.024361], [2.725896, 48.024329], [2.725925, 48.024315], [2.725955, 48.024304], [2.7260539, 48.0242438], [2.726197, 48.0242253], [2.726419, 48.024213], [2.726524, 48.024221], [2.726783, 48.024242], [2.727024, 48.024239], [2.727254, 48.0242191], [2.7273159, 48.0241648], [2.7274286, 48.0241684], [2.7274286, 48.0241128], [2.7275949, 48.024102], [2.7276038, 48.0241341], [2.7276857, 48.0241541], [2.7277147, 48.0242203], [2.7278076, 48.0242217], [2.7279756, 48.0240849], [2.7281146, 48.0240468], [2.7281923, 48.0240238], [2.728292, 48.0239527], [2.7286095, 48.0238316], [2.7290183, 48.0238583], [2.729143, 48.0237948], [2.7292893, 48.0237581], [2.7294813, 48.0237519], [2.7296962, 48.0238529], [2.7299797, 48.0239538], [2.7301169, 48.0239874], [2.7302541, 48.024073], [2.7302586, 48.0242046], [2.7301652, 48.0243056], [2.7300666, 48.0243761], [2.7300534, 48.0245963], [2.730007, 48.024716], [2.730016, 48.024744], [2.73005, 48.024783], [2.730044, 48.024808], [2.730006, 48.024887], [2.729965, 48.024978], [2.729961, 48.02501], [2.729956, 48.02511], [2.729958, 48.025178], [2.729973, 48.025257], [2.729996, 48.025332], [2.730029, 48.025391], [2.7300897, 48.0254805], [2.730191, 48.02563], [2.730281, 48.025778], [2.730304, 48.025827], [2.730318, 48.025877], [2.730322, 48.02593], [2.730324, 48.026005], [2.730351, 48.026265], [2.730351, 48.026355], [2.730349, 48.026431], [2.730251, 48.026581], [2.730209, 48.026676], [2.730188, 48.026734], [2.730103, 48.026965]]]}}]}