{"type": "FeatureCollection", "features": [{"type": "Feature", "properties": {"name": "Lac de l'Escourrou"}, "geometry": {"type": "Polygon", "coordinates": [[[0.3505943, 44.6643586], [0.3500899, 44.6641321], [0.3494966, 44.6642358], [0.3489779, 44.6643688], [0.3458897, 44.6649166], [0.3447353, 44.6654508], [0.3448104, 44.6663386], [0.3446108, 44.666485], [0.3443574, 44.6666646], [0.3443297, 44.667092], [0.3443662, 44.66756], [0.3444234, 44.6680322], [0.3446017, 44.6684841], [0.3448202, 44.6687604], [0.3453651, 44.6691026], [0.3458481, 44.669613], [0.3459734, 44.6697224], [0.3462571, 44.6699702], [0.346363, 44.6700597], [0.3466422, 44.6702959], [0.3469447, 44.6705676], [0.3471284, 44.6709806], [0.3473169, 44.6713041], [0.3473406, 44.6713447], [0.347369, 44.6717781], [0.3471227, 44.6722823], [0.3466883, 44.6726565], [0.3461134, 44.6728754], [0.345613, 44.6731576], [0.3454899, 44.6733368], [0.3442207, 44.6739372], [0.3446023, 44.6738308], [0.3460804, 44.6735086], [0.3470487, 44.6735083], [0.3476787, 44.6734949], [0.3477802, 44.6735458], [0.3482342, 44.6737733], [0.3485421, 44.6741385], [0.3488321, 44.6744865], [0.3491935, 44.6748156], [0.3495027, 44.6751958], [0.3496401, 44.6755834], [0.3495571, 44.6759945], [0.3496094, 44.6764671], [0.3496538, 44.676834], [0.3497977, 44.6772722], [0.3499967, 44.6777243], [0.3501552, 44.6783637], [0.350345, 44.6790295], [0.3505653, 44.6797906], [0.351312, 44.6801214], [0.3514421, 44.680632], [0.3517434, 44.6808485], [0.3520044, 44.6809783], [0.3520885, 44.6812213], [0.3527752, 44.6816665], [0.3531227, 44.6820506], [0.3540098, 44.681712], [0.3541458, 44.6819771], [0.3537727, 44.6820816], [0.3534861, 44.6822344], [0.3532617, 44.6824275], [0.3532935, 44.682634], [0.3535024, 44.6828588], [0.3537723, 44.6831631], [0.3541535, 44.6834402], [0.3542459, 44.6835332], [0.3543552, 44.6835221], [0.3544801, 44.6835998], [0.3545173, 44.6836688], [0.3546678, 44.6836564], [0.3547567, 44.6837206], [0.3547307, 44.6837724], [0.3551855, 44.6839665], [0.3555894, 44.6841054], [0.3559528, 44.6842965], [0.3561476, 44.6844877], [0.3565291, 44.6847735], [0.35667, 44.6852315], [0.3566292, 44.6853529], [0.3567322, 44.6854706], [0.3563787, 44.6857458], [0.3563027, 44.6858917], [0.3565274, 44.6861433], [0.3565677, 44.6862947], [0.3566781, 44.6864359], [0.3569586, 44.686505], [0.3571197, 44.6867342], [0.3572377, 44.6868373], [0.357346, 44.6868566], [0.357427, 44.686956], [0.3575889, 44.686922], [0.3577656, 44.686954], [0.3579054, 44.6870476], [0.3579753, 44.6871706], [0.3579664, 44.6873182], [0.3580664, 44.6873776], [0.3581523, 44.6874386], [0.3582179, 44.6874342], [0.3582798, 44.6874053], [0.358363, 44.6873887], [0.3583823, 44.687296], [0.358506, 44.6873144], [0.3586444, 44.6874165], [0.358579, 44.6872269], [0.3584355, 44.6870912], [0.3582689, 44.6869591], [0.3580573, 44.686894], [0.3580045, 44.6868572], [0.3580581, 44.6868132], [0.3580134, 44.6867453], [0.3580655, 44.6866772], [0.3581869, 44.6866589], [0.3583073, 44.6866994], [0.3584555, 44.6867923], [0.3587303, 44.6868452], [0.3588907, 44.6868102], [0.3588957, 44.6867275], [0.3587458, 44.6866488], [0.3585309, 44.6865444], [0.3581428, 44.6862731], [0.3580638, 44.6861071], [0.3580575, 44.685929], [0.3581456, 44.6857582], [0.3582625, 44.6855312], [0.3584024, 44.6851779], [0.3585449, 44.6848845], [0.3585133, 44.6846269], [0.3583281, 44.6842254], [0.3582511, 44.684028], [0.3581686, 44.6837613], [0.3581674, 44.6835193], [0.3579286, 44.6833161], [0.3578547, 44.6831197], [0.3575196, 44.682978], [0.3571275, 44.6827753], [0.3568226, 44.6826539], [0.3564312, 44.6826323], [0.3559445, 44.6823272], [0.3558703, 44.681965], [0.3559483, 44.6817585], [0.3561721, 44.6816356], [0.3561044, 44.6815438], [0.355521, 44.681646], [0.3552308, 44.6816873], [0.354296, 44.6819096], [0.3541627, 44.6816653], [0.3551277, 44.6814483], [0.3559279, 44.681291], [0.3554804, 44.680974], [0.3551852, 44.6805442], [0.354846, 44.6800976], [0.3543669, 44.6796252], [0.3540822, 44.6794341], [0.3534262, 44.6787781], [0.353292, 44.6785097], [0.353247, 44.6783586], [0.3538793, 44.6780707], [0.3542623, 44.6775653], [0.3542684, 44.6768439], [0.3544091, 44.6762285], [0.3544242, 44.6759642], [0.3546339, 44.6755129], [0.3542462, 44.6750358], [0.3536384, 44.6748784], [0.3536052, 44.6747034], [0.3534892, 44.6745688], [0.3535451, 44.6744225], [0.3536494, 44.6741695], [0.3535455, 44.6739027], [0.3534765, 44.6736944], [0.3534364, 44.6733394], [0.3532497, 44.6728488], [0.3530777, 44.6721989], [0.3531195, 44.6719399], [0.3533234, 44.6717427], [0.3537304, 44.6716468], [0.3539438, 44.6716258], [0.3541188, 44.6714443], [0.3539617, 44.6711494], [0.3536564, 44.6707683], [0.3537077, 44.6698569], [0.3540511, 44.6687739], [0.353334, 44.6682806], [0.3530458, 44.6680463], [0.3526876, 44.6676756], [0.352512, 44.6674358], [0.3524301, 44.6672454], [0.3524031, 44.6670734], [0.3524315, 44.6667834], [0.3524286, 44.6664345], [0.3523919, 44.6662999], [0.3522352, 44.666196], [0.3521999, 44.6660239], [0.3520963, 44.6658525], [0.3519572, 44.6656848], [0.3516163, 44.6652999], [0.3513091, 44.6648816], [0.3509851, 44.6645615], [0.3505943, 44.6643586]]]}}, {"type": "Feature", "properties": {"name": "Lac de Lambronne"}, "geometry": {"type": "Polygon", "coordinates": [[[0.5116449, 44.0737905], [0.5115524, 44.073763], [0.5114409, 44.0736331], [0.5112998, 44.0736262], [0.5112393, 44.0736206], [0.5111394, 44.0735998], [0.5109947, 44.0735072], [0.5108711, 44.0734883], [0.5106134, 44.0734845], [0.5101585, 44.0733901], [0.5097719, 44.0732522], [0.5096799, 44.0731634], [0.5096115, 44.073118], [0.5094669, 44.073101], [0.5092749, 44.0731048], [0.5086648, 44.0732408], [0.5084912, 44.0732503], [0.5082466, 44.0732295], [0.5078785, 44.0731331], [0.5077864, 44.0731312], [0.5074893, 44.0731709], [0.5072657, 44.0732238], [0.5069712, 44.073443], [0.5069134, 44.0734581], [0.5067608, 44.073477], [0.5065899, 44.0734732], [0.506419, 44.0734279], [0.5062323, 44.0734184], [0.505943, 44.0734279], [0.5058483, 44.0734071], [0.5056037, 44.0732522], [0.5054144, 44.0730519], [0.5052592, 44.0727137], [0.5051988, 44.0726041], [0.5051251, 44.0725739], [0.5048543, 44.0725002], [0.5046044, 44.0724832], [0.5043231, 44.0725002], [0.5038418, 44.0725342], [0.5032659, 44.0726797], [0.502832, 44.0728025], [0.5022982, 44.0729839], [0.5021903, 44.0730141], [0.5020694, 44.0730235], [0.5019274, 44.0729801], [0.501859, 44.0728932], [0.5017748, 44.072691], [0.5016986, 44.0726287], [0.5014961, 44.0725361], [0.5013961, 44.0725191], [0.5009386, 44.0724756], [0.5007887, 44.0724492], [0.5005494, 44.0723453], [0.5003366, 44.0722456], [0.5001848, 44.0721747], [0.4995078, 44.0720202], [0.4986626, 44.0719152], [0.4979414, 44.0718621], [0.4971618, 44.071762], [0.4969007, 44.0717581], [0.49678, 44.0718043], [0.4964045, 44.0730376], [0.4960209, 44.0741798], [0.4962865, 44.0742894], [0.4964838, 44.0743669], [0.4966363, 44.0744575], [0.49737, 44.0748354], [0.4975515, 44.074894], [0.4978591, 44.0749299], [0.4980958, 44.0749771], [0.4983903, 44.075081], [0.4985192, 44.0751075], [0.4986481, 44.075098], [0.498798, 44.0750583], [0.4989189, 44.0750177], [0.4991661, 44.0750064], [0.4993712, 44.0749299], [0.4995606, 44.0748817], [0.4999629, 44.0749044], [0.5000831, 44.0749203], [0.5008413, 44.0749818], [0.5010609, 44.0750007], [0.5013436, 44.0749998], [0.5016499, 44.0750338], [0.5018419, 44.0750933], [0.5021206, 44.0753058], [0.5022811, 44.075473], [0.5024033, 44.0756119], [0.5026979, 44.0757574], [0.5030134, 44.0758934], [0.5031513, 44.0760858], [0.5031993, 44.0760996], [0.5033251, 44.0760852], [0.5033908, 44.0760568], [0.5034644, 44.0760209], [0.5035078, 44.075934], [0.5034909, 44.075853], [0.5034584, 44.075702], [0.5034487, 44.0755618], [0.5034345, 44.0753635], [0.5034909, 44.07522], [0.5037393, 44.0750376], [0.5037656, 44.0750035], [0.5038431, 44.0748807], [0.5039312, 44.0748165], [0.5040154, 44.0747929], [0.5041166, 44.0748118], [0.5042192, 44.0748807], [0.5042626, 44.0749318], [0.5042915, 44.0749762], [0.5044453, 44.0750725], [0.5047793, 44.075217], [0.5051909, 44.07532], [0.5054999, 44.0753512], [0.5058202, 44.0753364], [0.5058792, 44.0753308], [0.5059379, 44.0753253], [0.5062546, 44.0753049], [0.5067372, 44.0752397], [0.5069791, 44.0751925], [0.5072552, 44.0751065], [0.5075314, 44.0750574], [0.507797, 44.0749847], [0.508035, 44.0749516], [0.508486, 44.074944], [0.5086411, 44.0749327], [0.5088528, 44.0749251], [0.5089803, 44.0749251], [0.5094327, 44.074961], [0.5095181, 44.0749582], [0.5098455, 44.0749346], [0.5102979, 44.0748911], [0.51062, 44.0748704], [0.5112143, 44.0748637], [0.5117535, 44.0748685], [0.5117163, 44.0743019], [0.511689, 44.0738463], [0.5116449, 44.0737905]]]}}, {"type": "Feature", "properties": {"name": "Lac du Brayssou"}, "geometry": {"type": "Polygon", "coordinates": [[[0.8095779, 44.6745933], [0.8096526, 44.6738136], [0.8100707, 44.6732247], [0.8097522, 44.6721305], [0.8098706, 44.6716815], [0.8110295, 44.6710335], [0.8124996, 44.6708052], [0.8146216, 44.6710352], [0.8153647, 44.670919], [0.8177527, 44.6710362], [0.8185458, 44.6710487], [0.8193752, 44.6707619], [0.8189642, 44.6707168], [0.8184332, 44.6703811], [0.8178438, 44.6703272], [0.8150715, 44.6700818], [0.8144689, 44.6694922], [0.8139076, 44.6693338], [0.8122088, 44.6690379], [0.8103769, 44.6691012], [0.8095074, 44.6691951], [0.8087559, 44.6689609], [0.8082399, 44.6690877], [0.8078974, 44.6692557], [0.8071728, 44.6699615], [0.8065026, 44.6701028], [0.8055171, 44.6698939], [0.8044189, 44.6697917], [0.8034992, 44.6699614], [0.8026546, 44.6701578], [0.801767, 44.6702091], [0.8014494, 44.6700263], [0.8007623, 44.6690421], [0.7998112, 44.6697522], [0.7995826, 44.6696982], [0.7994465, 44.6695197], [0.799629, 44.669066], [0.7995648, 44.6689597], [0.7993987, 44.6689762], [0.7982399, 44.6700519], [0.7978354, 44.670485], [0.7964395, 44.6719793], [0.7969376, 44.6724385], [0.7982511, 44.6728061], [0.79855, 44.6732857], [0.7984668, 44.6735932], [0.7986434, 44.6737528], [0.7990353, 44.6737112], [0.7994351, 44.6733547], [0.7999167, 44.6733348], [0.8003016, 44.6734979], [0.800934, 44.6737809], [0.8014808, 44.6745366], [0.802253, 44.674701], [0.8024502, 44.6746654], [0.8024311, 44.6743752], [0.8027691, 44.6742989], [0.8028012, 44.6740052], [0.8030148, 44.6737729], [0.8034664, 44.6736542], [0.8039439, 44.6736695], [0.8048129, 44.6734139], [0.805285, 44.6734711], [0.8056551, 44.6733567], [0.806492, 44.6734177], [0.8069158, 44.6731888], [0.8073689, 44.6730693], [0.8080321, 44.6731135], [0.8082783, 44.6731812], [0.8083789, 44.6733293], [0.8086592, 44.6742417], [0.8089597, 44.6746574], [0.8094431, 44.6748905], [0.8095779, 44.6745933]]]}}, {"type": "Feature", "properties": {"name": "Lac des Graoussettes"}, "geometry": {"type": "Polygon", "coordinates": [[[0.5164178, 44.605474], [0.5159455, 44.6047624], [0.5151722, 44.6049767], [0.5148822, 44.6049593], [0.5147481, 44.6050243], [0.5143779, 44.6051446], [0.5142917, 44.6053569], [0.5128208, 44.6061059], [0.512604, 44.6063484], [0.5119551, 44.6065189], [0.5113193, 44.6066401], [0.5108659, 44.6067542], [0.5102479, 44.6066125], [0.510242, 44.6065558], [0.5105805, 44.6063999], [0.5105391, 44.6062409], [0.5098759, 44.6062548], [0.5095228, 44.6063347], [0.5093811, 44.6063556], [0.5091804, 44.6063608], [0.5087741, 44.6062747], [0.5077513, 44.606056], [0.5076266, 44.6059405], [0.5075647, 44.605868], [0.5074965, 44.6057484], [0.5077432, 44.6053994], [0.5079437, 44.6052571], [0.5080477, 44.6051146], [0.5081824, 44.6047928], [0.5081166, 44.6045127], [0.5080906, 44.6043614], [0.5081914, 44.604307], [0.5084439, 44.604261], [0.5086517, 44.6041814], [0.5089562, 44.6041242], [0.5092568, 44.6038806], [0.5091329, 44.6036394], [0.5090621, 44.6034705], [0.5090664, 44.6032288], [0.5090186, 44.6028319], [0.5087292, 44.6023832], [0.5086809, 44.6019344], [0.5089948, 44.601329], [0.5088499, 44.6013233], [0.5088446, 44.6014474], [0.5086112, 44.601499], [0.5083805, 44.6017835], [0.5081901, 44.6019592], [0.5082598, 44.6022533], [0.508176, 44.6025642], [0.5078736, 44.602809], [0.5078353, 44.602942], [0.5076079, 44.6035272], [0.5056871, 44.605355], [0.5045716, 44.6058913], [0.5042961, 44.6058393], [0.5040426, 44.6055492], [0.504152, 44.6052656], [0.5038345, 44.605094], [0.5034821, 44.605001], [0.5033061, 44.6050161], [0.5026703, 44.6058848], [0.5024838, 44.6062584], [0.5025125, 44.606546], [0.5025819, 44.6068192], [0.5028587, 44.6069868], [0.502811, 44.607141], [0.502748, 44.6072138], [0.5026184, 44.607573], [0.5026243, 44.6082721], [0.5026906, 44.6085308], [0.5026611, 44.6087353], [0.5026077, 44.609025], [0.5024835, 44.6091008], [0.5024951, 44.6092403], [0.5025997, 44.6093033], [0.5026889, 44.6094907], [0.5028203, 44.6095626], [0.5028166, 44.6098054], [0.5026583, 44.6098782], [0.5028552, 44.6102429], [0.503051, 44.6103825], [0.5031422, 44.610793], [0.5028384, 44.6112573], [0.5031235, 44.6114747], [0.5032305, 44.6115944], [0.5033246, 44.6119883], [0.5037409, 44.6119578], [0.5040246, 44.6117611], [0.5042821, 44.6115778], [0.5044055, 44.6112952], [0.504553, 44.6109228], [0.5045123, 44.6107561], [0.5042218, 44.6106009], [0.5042191, 44.6102694], [0.5042792, 44.6096922], [0.5043959, 44.6091375], [0.5044621, 44.6089572], [0.5047231, 44.608784], [0.5051762, 44.6085828], [0.505296, 44.6084711], [0.5053505, 44.608333], [0.5052349, 44.6080297], [0.505048, 44.6077317], [0.5050281, 44.6075961], [0.5051357, 44.6074634], [0.5052347, 44.6073204], [0.505296, 44.6071641], [0.505462, 44.6069753], [0.5056492, 44.6069192], [0.5060768, 44.6069289], [0.5062992, 44.6070051], [0.5064649, 44.6070734], [0.5066825, 44.6073322], [0.5068885, 44.6074122], [0.507146, 44.6073519], [0.5073823, 44.60723], [0.5075378, 44.6071624], [0.5078787, 44.6072407], [0.5082674, 44.6074838], [0.5093273, 44.6076404], [0.5098462, 44.6076492], [0.5105177, 44.6077703], [0.5108579, 44.6078642], [0.5110357, 44.6079856], [0.5111961, 44.6081184], [0.5114347, 44.6081417], [0.5116574, 44.6080643], [0.512269, 44.6076744], [0.5122767, 44.6075657], [0.512803, 44.6073062], [0.5130803, 44.6072369], [0.513378, 44.6072782], [0.51341, 44.6073232], [0.5135447, 44.6074187], [0.5137391, 44.6074915], [0.5140157, 44.6074796], [0.5142767, 44.6073808], [0.5142412, 44.6072435], [0.5146294, 44.607005], [0.5149328, 44.6068765], [0.5151735, 44.6067177], [0.5153143, 44.6064597], [0.5153645, 44.6062812], [0.5154205, 44.6060255], [0.5154707, 44.6057962], [0.5157207, 44.6056832], [0.5159149, 44.605685], [0.5161676, 44.605584], [0.5164178, 44.605474]]]}}, {"type": "Feature", "properties": {"name": "Lac de Tombebeuf"}, "geometry": {"type": "Polygon", "coordinates": [[[0.4711783, 44.5113047], [0.472157, 44.5098368], [0.4721172, 44.5097778], [0.472027, 44.5097277], [0.4717938, 44.5097583], [0.4716306, 44.509789], [0.4715997, 44.5096882], [0.4715875, 44.5095008], [0.4715095, 44.5091608], [0.4714643, 44.5090404], [0.4712835, 44.5088836], [0.471108, 44.5088052], [0.4708702, 44.5087594], [0.4705868, 44.508771], [0.4702207, 44.5087512], [0.469986, 44.5087659], [0.4698832, 44.5088064], [0.4697701, 44.5087979], [0.4695419, 44.5089152], [0.4693513, 44.5090362], [0.4693334, 44.5091268], [0.4688112, 44.5095622], [0.4685441, 44.5096479], [0.4683729, 44.5096678], [0.4681354, 44.5097423], [0.4675466, 44.5099009], [0.4673184, 44.5100498], [0.4668057, 44.5102157], [0.466284, 44.5105252], [0.4658364, 44.5106509], [0.4657842, 44.5106246], [0.465783, 44.5105715], [0.4657782, 44.5105147], [0.4659635, 44.5103677], [0.4661113, 44.5102705], [0.4662808, 44.5102789], [0.4665219, 44.5101734], [0.4666293, 44.5101589], [0.4667448, 44.5101157], [0.4668907, 44.5099905], [0.4669669, 44.5098558], [0.4671702, 44.5095979], [0.467299, 44.5093513], [0.4673613, 44.5092756], [0.4675267, 44.5091947], [0.4676115, 44.5091922], [0.4677888, 44.5090505], [0.4678984, 44.5088782], [0.4676788, 44.5086499], [0.4677158, 44.5084437], [0.4678614, 44.5083081], [0.4679867, 44.5079567], [0.4682064, 44.5078334], [0.4684255, 44.5077985], [0.4684585, 44.5077247], [0.4681565, 44.5073752], [0.4674285, 44.5065202], [0.4672781, 44.5063274], [0.4671651, 44.5061868], [0.4668599, 44.505809], [0.4655038, 44.5069525], [0.4649228, 44.5070516], [0.4642268, 44.5070657], [0.4638555, 44.5070657], [0.4630014, 44.5072513], [0.4630485, 44.5073938], [0.463176, 44.5075382], [0.4632649, 44.5075401], [0.4636597, 44.507454], [0.4638465, 44.5075158], [0.4642946, 44.5077243], [0.4647482, 44.5079021], [0.464815, 44.5080155], [0.4648379, 44.5081048], [0.4647294, 44.5083184], [0.464598, 44.5084232], [0.4643551, 44.5085781], [0.4642677, 44.5086717], [0.4642899, 44.5087427], [0.4643953, 44.5088463], [0.464367, 44.5092048], [0.4643872, 44.5093438], [0.4643125, 44.5094862], [0.4640994, 44.5097104], [0.4640232, 44.5098141], [0.4640295, 44.5101017], [0.4639602, 44.5104253], [0.4639817, 44.5104861], [0.4639295, 44.5106618], [0.4638584, 44.5107764], [0.4636694, 44.5108155], [0.4633732, 44.5107954], [0.4629522, 44.5108856], [0.4623981, 44.5110931], [0.462385, 44.5112025], [0.4620807, 44.5111693], [0.4619668, 44.5111819], [0.4618168, 44.5112377], [0.46175, 44.5113204], [0.4616122, 44.5113438], [0.4615559, 44.5114407], [0.4609083, 44.5116049], [0.4604363, 44.5117333], [0.4603053, 44.511835], [0.4600616, 44.5118823], [0.4599955, 44.5118661], [0.4597626, 44.5118962], [0.4595307, 44.5120817], [0.4595367, 44.5122802], [0.4595951, 44.5123295], [0.4597334, 44.5123918], [0.4598704, 44.5123806], [0.4603523, 44.5123279], [0.4610436, 44.5123739], [0.4614698, 44.5122709], [0.4615554, 44.5122229], [0.4617621, 44.5121749], [0.4621866, 44.5121749], [0.4627331, 44.5120849], [0.4633465, 44.5120634], [0.4637677, 44.5120773], [0.4643109, 44.5119712], [0.4644385, 44.5119702], [0.4645642, 44.5120084], [0.4646418, 44.5120605], [0.4647377, 44.5121735], [0.4648482, 44.5123226], [0.4649328, 44.5123431], [0.4649948, 44.5124193], [0.4650655, 44.5124691], [0.4651463, 44.5124898], [0.4653042, 44.5124669], [0.465464, 44.5124701], [0.4655334, 44.5125017], [0.4655061, 44.5126294], [0.4653899, 44.5127496], [0.4652708, 44.5128478], [0.4651887, 44.5128287], [0.4652729, 44.5125382], [0.4652368, 44.5125291], [0.4651468, 44.5128202], [0.4650427, 44.5131615], [0.4650676, 44.5131804], [0.4650222, 44.5132748], [0.4650222, 44.5133912], [0.4650088, 44.5135075], [0.4650049, 44.5136516], [0.4650277, 44.51379], [0.465089, 44.5139371], [0.4651235, 44.5141073], [0.4651432, 44.5142304], [0.4650844, 44.5143361], [0.4649468, 44.5144696], [0.4648836, 44.5145807], [0.4649207, 44.5146787], [0.4647803, 44.5150498], [0.4646275, 44.5154475], [0.4644156, 44.5158295], [0.4645058, 44.5158873], [0.4645323, 44.516066], [0.4645316, 44.5163374], [0.4647294, 44.5164214], [0.4647592, 44.5164852], [0.4646564, 44.5166989], [0.4647227, 44.5167578], [0.4648031, 44.5167233], [0.4648506, 44.5165147], [0.4649203, 44.5164767], [0.4650681, 44.5165227], [0.4654161, 44.5164851], [0.4655459, 44.5165158], [0.4657573, 44.5165312], [0.4658195, 44.5164087], [0.4658086, 44.516237], [0.4657419, 44.5159167], [0.4657671, 44.5158559], [0.4658678, 44.5157631], [0.4660448, 44.5157524], [0.4662179, 44.5157312], [0.4663885, 44.5156573], [0.4665428, 44.51554], [0.4667266, 44.5154191], [0.4667961, 44.5153746], [0.4668749, 44.5153454], [0.4669896, 44.5153005], [0.4670672, 44.515247], [0.4671832, 44.5152105], [0.467327, 44.5152245], [0.4674696, 44.5152612], [0.4677656, 44.5154058], [0.4678986, 44.5154733], [0.4680641, 44.5155001], [0.4681684, 44.5154834], [0.4683851, 44.5154083], [0.4685106, 44.5153548], [0.4692632, 44.5142381], [0.4703114, 44.5126432], [0.4711783, 44.5113047]]]}}, {"type": "Feature", "properties": {"name": "Lac de Bajamont"}, "geometry": {"type": "Polygon", "coordinates": [[[0.7213942, 44.267508], [0.7217016, 44.2675892], [0.7219607, 44.2676089], [0.7220834, 44.2676046], [0.7223955, 44.267551], [0.7226069, 44.2674725], [0.7229186, 44.2673094], [0.7230275, 44.2673188], [0.7229756, 44.2672236], [0.7227062, 44.2670068], [0.7224787, 44.2668794], [0.7223433, 44.2667732], [0.7223224, 44.2666835], [0.7218155, 44.2664442], [0.721581, 44.2662137], [0.7215422, 44.2659934], [0.721585, 44.2659057], [0.7219325, 44.2655412], [0.7220396, 44.2654859], [0.7221933, 44.2653979], [0.7221995, 44.2652266], [0.7218758, 44.2649848], [0.7215884, 44.264789], [0.721291, 44.2644068], [0.7210979, 44.264168], [0.7209898, 44.2639616], [0.7209377, 44.2637344], [0.7208502, 44.2635061], [0.7206105, 44.2633156], [0.7203328, 44.2631996], [0.7200788, 44.2630852], [0.7198845, 44.2630285], [0.7197004, 44.2629986], [0.7193704, 44.2628925], [0.7184277, 44.2624203], [0.7180809, 44.2622456], [0.7177663, 44.2622], [0.7174464, 44.2622602], [0.7170225, 44.2623286], [0.7169079, 44.2623118], [0.7163646, 44.2622773], [0.7159835, 44.2622493], [0.7157455, 44.2622323], [0.7148481, 44.2620708], [0.7140811, 44.261897], [0.7138158, 44.2618541], [0.7133601, 44.2618255], [0.7127935, 44.2618674], [0.7127105, 44.2618504], [0.7124167, 44.2617591], [0.7121077, 44.261643], [0.7118536, 44.2616422], [0.7116196, 44.2616641], [0.7108651, 44.2634551], [0.7109054, 44.2635508], [0.7110843, 44.2635812], [0.7116581, 44.2636078], [0.712002, 44.2635756], [0.7126145, 44.2636176], [0.7127382, 44.2636346], [0.713114, 44.2636572], [0.713881, 44.2636315], [0.7144255, 44.2637445], [0.7150482, 44.2639205], [0.7153585, 44.2640194], [0.7158664, 44.2640946], [0.7166784, 44.2641407], [0.7172603, 44.2641698], [0.7177821, 44.2642721], [0.7184814, 44.2645312], [0.7190349, 44.2648764], [0.7192062, 44.2649966], [0.7194593, 44.2655966], [0.719549, 44.2656928], [0.720125, 44.2665971], [0.7207269, 44.2670863], [0.7211792, 44.2673775], [0.7212416, 44.2674154], [0.7213942, 44.267508]]]}}, {"type": "Feature", "properties": {"name": "Lac de Beaupuy"}, "geometry": {"type": "Polygon", "coordinates": [[[0.136987, 44.5225181], [0.1362145, 44.5214777], [0.1363704, 44.5213176], [0.1382389, 44.5205478], [0.1385602, 44.5203822], [0.1387354, 44.5202823], [0.1387753, 44.5200476], [0.1387355, 44.5199458], [0.1378754, 44.5191675], [0.1373292, 44.5192895], [0.1371374, 44.5192485], [0.1359013, 44.5179436], [0.1360699, 44.5177079], [0.1375082, 44.5170243], [0.1380707, 44.5165411], [0.1384478, 44.5164956], [0.1387291, 44.5162996], [0.1388761, 44.5162358], [0.139077, 44.5162911], [0.1391318, 44.5164591], [0.1394258, 44.5164682], [0.1407636, 44.5180507], [0.140602, 44.5184964], [0.141043, 44.5187517], [0.1411069, 44.5188702], [0.141444, 44.5189751], [0.1414632, 44.5190145], [0.1413935, 44.5193986], [0.1420274, 44.5201463], [0.1420466, 44.5203013], [0.1419223, 44.5204306], [0.1418176, 44.5205138], [0.1415736, 44.5204881], [0.1408001, 44.5208345], [0.1408065, 44.5209257], [0.1404102, 44.5210624], [0.1401737, 44.5210988], [0.1401289, 44.5214862], [0.1397199, 44.5218372], [0.1391765, 44.5218827], [0.1389784, 44.522138], [0.1387674, 44.52222], [0.1383141, 44.5222689], [0.1376552, 44.5223977], [0.137521, 44.5224798], [0.1372333, 44.5225345], [0.136987, 44.5225181]]]}}, {"type": "Feature", "properties": {"name": "Lac de Clarens"}, "geometry": {"type": "Polygon", "coordinates": [[[0.0727364, 44.2950052], [0.0726898, 44.2950168], [0.0725459, 44.2949745], [0.0725033, 44.2949386], [0.0723969, 44.2949231], [0.0722143, 44.2948872], [0.0719587, 44.2948093], [0.0714466, 44.2946469], [0.0710459, 44.2944684], [0.0707415, 44.294292], [0.0704732, 44.2940964], [0.0702045, 44.2939829], [0.0699804, 44.293861], [0.0699384, 44.2937952], [0.0699202, 44.2937668], [0.069779, 44.293612], [0.0696317, 44.2935369], [0.0694212, 44.2934296], [0.0692147, 44.2932402], [0.069145, 44.2931526], [0.0691426, 44.2930568], [0.0692063, 44.2929486], [0.0692132, 44.2928845], [0.0692526, 44.2928344], [0.06927, 44.2927705], [0.0692862, 44.2927054], [0.0692855, 44.2926364], [0.0692628, 44.2925935], [0.0690943, 44.2925089], [0.0689401, 44.2924167], [0.06875, 44.292349], [0.0686219, 44.2922826], [0.0684904, 44.2922464], [0.0684434, 44.2922142], [0.0683657, 44.2921946], [0.0683299, 44.2922044], [0.0682289, 44.2921629], [0.0682155, 44.2921418], [0.068186, 44.292137], [0.0681335, 44.2921224], [0.0680613, 44.2920755], [0.0679725, 44.291963], [0.0678911, 44.2918762], [0.0678036, 44.291735], [0.0676587, 44.2915569], [0.0676133, 44.2914268], [0.0675683, 44.2912802], [0.0676031, 44.2911472], [0.0676011, 44.2909436], [0.0676147, 44.290715], [0.0676154, 44.2904701], [0.0676134, 44.2902779], [0.0676657, 44.2900972], [0.0677281, 44.2899573], [0.0677568, 44.2898666], [0.0677192, 44.2897986], [0.0676568, 44.289715], [0.0675464, 44.2895783], [0.0674364, 44.2895183], [0.0673124, 44.2894733], [0.0671932, 44.2894406], [0.0670713, 44.2893854], [0.0668057, 44.2893808], [0.0666168, 44.2894227], [0.0663267, 44.289458], [0.0660692, 44.2894477], [0.065948, 44.2893757], [0.065864, 44.2893707], [0.0655908, 44.289507], [0.0655094, 44.2895318], [0.0654814, 44.2894998], [0.0656228, 44.289402], [0.0657108, 44.289347], [0.0659398, 44.2892438], [0.0660587, 44.2892316], [0.0661597, 44.2891506], [0.0661617, 44.2891096], [0.0661257, 44.2890736], [0.0660617, 44.2890426], [0.065979, 44.288997], [0.065837, 44.288945], [0.065647, 44.288896], [0.0652309, 44.288835], [0.065235, 44.2888136], [0.0652298, 44.2887923], [0.065395, 44.2887946], [0.065609, 44.288771], [0.0660316, 44.2887674], [0.066177, 44.2887502], [0.066346, 44.288755], [0.0665525, 44.2887089], [0.0668694, 44.2887088], [0.067374, 44.288731], [0.067824, 44.2886844], [0.0681766, 44.288683], [0.0684187, 44.2886077], [0.0687117, 44.2885927], [0.068991, 44.288605], [0.0696947, 44.2885764], [0.0702711, 44.2885101], [0.0704972, 44.2886052], [0.0706241, 44.2886571], [0.0706684, 44.2887166], [0.0706765, 44.2887944], [0.0706375, 44.2888721], [0.0705963, 44.2889232], [0.0705021, 44.2890075], [0.0703838, 44.2890662], [0.0703076, 44.2891428], [0.0702785, 44.28924], [0.0703097, 44.2896591], [0.0702451, 44.2897324], [0.0699908, 44.2898587], [0.0699246, 44.2899602], [0.0699112, 44.2900877], [0.0698556, 44.2902088], [0.0697819, 44.2902727], [0.0695016, 44.290363], [0.0693483, 44.2904259], [0.0691559, 44.2906166], [0.0691833, 44.2906836], [0.0692706, 44.2907201], [0.0695523, 44.2907176], [0.0696425, 44.2907169], [0.0697665, 44.2907161], [0.0699313, 44.2907919], [0.0700403, 44.2908541], [0.0701212, 44.2909476], [0.0701361, 44.2910437], [0.0700331, 44.2912284], [0.0700354, 44.2912788], [0.0701292, 44.2914072], [0.0702339, 44.2914477], [0.070316, 44.2915139], [0.0704894, 44.2914962], [0.0705571, 44.2914391], [0.0707233, 44.2914389], [0.0709427, 44.2915166], [0.0711538, 44.2916656], [0.0715551, 44.2917248], [0.0716715, 44.2917328], [0.07182, 44.2917882], [0.0718941, 44.2918838], [0.0718357, 44.2920702], [0.071936, 44.2922436], [0.0720612, 44.292298], [0.0723642, 44.2922963], [0.0725284, 44.2922653], [0.072566, 44.2922195], [0.0726063, 44.2921869], [0.0726948, 44.292207], [0.0727558, 44.2922017], [0.0728195, 44.2922406], [0.0728482, 44.2923206], [0.0728167, 44.2923904], [0.0728388, 44.2925008], [0.0729689, 44.2926251], [0.0729859, 44.2926586], [0.0730181, 44.292767], [0.0729805, 44.2929456], [0.0729232, 44.2931601], [0.0729108, 44.293319], [0.072943, 44.2934687], [0.073016, 44.293622], [0.0731467, 44.2937504], [0.0733587, 44.2939295], [0.0735371, 44.2940675], [0.0736765, 44.2941925], [0.0739139, 44.2943509], [0.0739917, 44.2944373], [0.0740467, 44.2944968], [0.0740963, 44.294587], [0.0740641, 44.2946677], [0.0739957, 44.2947214], [0.0738415, 44.2948472], [0.0736544, 44.294971], [0.0735217, 44.295051], [0.0733574, 44.2951495], [0.0732261, 44.2951763], [0.0730827, 44.2949707], [0.0728856, 44.2950407], [0.0728737, 44.2950235], [0.0728079, 44.2950472], [0.0727364, 44.2950052]]]}}, {"type": "Feature", "properties": {"name": "Lac de la Gane"}, "geometry": {"type": "Polygon", "coordinates": [[[0.7830119, 44.6798796], [0.7830977, 44.6795783], [0.7830929, 44.6793498], [0.7829851, 44.6791549], [0.7827759, 44.6790404], [0.7821429, 44.6788192], [0.7818508, 44.6784626], [0.7819068, 44.6781059], [0.7821321, 44.6779152], [0.7821482, 44.6776901], [0.7820224, 44.6774031], [0.782159, 44.677034], [0.7823521, 44.6760804], [0.7824594, 44.6756684], [0.7826219, 44.6752619], [0.7828349, 44.6749779], [0.7830387, 44.6746804], [0.7833016, 44.6744897], [0.7837796, 44.6746175], [0.784412, 44.6748292], [0.7861383, 44.6754907], [0.7863331, 44.67566], [0.7864022, 44.6761834], [0.7863951, 44.6765817], [0.7863205, 44.6768276], [0.7863539, 44.6770798], [0.786422, 44.6773511], [0.7864215, 44.6775688], [0.7863647, 44.6778198], [0.7863057, 44.6780411], [0.7862359, 44.6783386], [0.7862895, 44.6787184], [0.7863891, 44.6789742], [0.7864344, 44.6791979], [0.7865074, 44.6794232], [0.7866995, 44.6797182], [0.7869328, 44.6800726], [0.7871172, 44.6804192], [0.7871638, 44.6806405], [0.787212, 44.6811066], [0.7873678, 44.6814129], [0.7875664, 44.6818244], [0.7874335, 44.6822086], [0.7881687, 44.6829707], [0.7885741, 44.6839325], [0.7891419, 44.6843902], [0.7894385, 44.6846473], [0.7893687, 44.6850059], [0.7885394, 44.6851659], [0.7878345, 44.685433], [0.787606, 44.6856734], [0.7876038, 44.6860127], [0.7873034, 44.6866039], [0.7870138, 44.6866115], [0.7865953, 44.6860166], [0.7863486, 44.6854368], [0.7863164, 44.6848721], [0.7862986, 44.6843784], [0.7862735, 44.6839036], [0.7860481, 44.6835522], [0.7849755, 44.682333], [0.7844603, 44.6817257], [0.7838434, 44.681001], [0.7831597, 44.6802401], [0.7830119, 44.6798796]]]}}, {"type": "Feature", "properties": {"name": "Lac de Caussade"}, "geometry": {"type": "Polygon", "coordinates": [[[0.5521645, 44.4707793], [0.5534329, 44.4678838], [0.553486, 44.4678471], [0.553539, 44.467845], [0.5536278, 44.4678418], [0.5536919, 44.4678379], [0.5537053, 44.4678295], [0.5537039, 44.4678183], [0.5535285, 44.4677693], [0.5535478, 44.4677243], [0.5535665, 44.4676785], [0.5538147, 44.4677363], [0.5539814, 44.4677718], [0.5540867, 44.4677766], [0.5542057, 44.4677423], [0.5542865, 44.4677006], [0.5543653, 44.4675776], [0.5543914, 44.4675645], [0.5544397, 44.4675634], [0.5545545, 44.4675754], [0.5546401, 44.4675421], [0.5547024, 44.4675058], [0.5547448, 44.4674682], [0.5548239, 44.4674553], [0.5548772, 44.4674688], [0.5549215, 44.4674665], [0.5549479, 44.4674466], [0.5549708, 44.4674318], [0.555013, 44.4674311], [0.5550657, 44.4674168], [0.5550961, 44.4674173], [0.5551449, 44.4674285], [0.5552069, 44.4674599], [0.5552623, 44.4675233], [0.5552906, 44.4676066], [0.5553023, 44.4676955], [0.5553067, 44.4677974], [0.555335, 44.467827], [0.5553701, 44.4678707], [0.5553932, 44.4679116], [0.5553998, 44.4679815], [0.5555202, 44.4683366], [0.5556258, 44.4684204], [0.5557033, 44.4684429], [0.5558379, 44.468476], [0.5559898, 44.4685362], [0.5560952, 44.4685396], [0.5561926, 44.4685803], [0.5562428, 44.4686357], [0.5562647, 44.4686852], [0.5564685, 44.4687605], [0.5566795, 44.468834], [0.5567389, 44.4688773], [0.5568381, 44.4689805], [0.5569626, 44.46909], [0.5570072, 44.4692257], [0.557247, 44.4696071], [0.5574556, 44.4698076], [0.5576519, 44.4699035], [0.5579507, 44.4700077], [0.5583955, 44.47014], [0.5587069, 44.4701798], [0.5589025, 44.4701937], [0.5591699, 44.470126], [0.5594055, 44.4700452], [0.5596642, 44.4699528], [0.559979, 44.4698677], [0.5601989, 44.4698388], [0.5602915, 44.4698125], [0.5604825, 44.4697656], [0.5607121, 44.4696466], [0.5608878, 44.4695244], [0.5610947, 44.469391], [0.5614481, 44.4692672], [0.5618177, 44.4691423], [0.5621519, 44.4690064], [0.5623735, 44.4688796], [0.5625528, 44.4687934], [0.5626888, 44.4687957], [0.5627173, 44.4688622], [0.5626631, 44.4689679], [0.5626809, 44.46911], [0.5625852, 44.4691828], [0.5625206, 44.4692455], [0.5623784, 44.4693279], [0.5622859, 44.4693759], [0.5621205, 44.4694616], [0.5618034, 44.4696964], [0.5614295, 44.4698556], [0.5612595, 44.4700471], [0.5611437, 44.4701731], [0.5609229, 44.4703639], [0.5608157, 44.4704692], [0.560688, 44.470497], [0.5604213, 44.4706448], [0.5602025, 44.4708397], [0.5601363, 44.4709269], [0.5601472, 44.4711269], [0.5603674, 44.4713524], [0.5607109, 44.4715993], [0.5608671, 44.4717609], [0.560976, 44.4719297], [0.5610195, 44.4721351], [0.5610846, 44.4722744], [0.5615911, 44.4729298], [0.5619651, 44.4732213], [0.5619974, 44.4732406], [0.5622201, 44.4733737], [0.5623329, 44.4735234], [0.5623372, 44.4735708], [0.5623533, 44.4736583], [0.5624343, 44.4737675], [0.5625235, 44.4738424], [0.5627648, 44.4739673], [0.5628488, 44.4739992], [0.5629316, 44.4740552], [0.5629212, 44.4740869], [0.5628719, 44.4741573], [0.5628116, 44.4741887], [0.5627533, 44.474205], [0.5626822, 44.4741663], [0.562507, 44.474071], [0.5622906, 44.4740024], [0.5620835, 44.4739198], [0.5619235, 44.4738623], [0.5615569, 44.4737537], [0.561228, 44.4735337], [0.5608888, 44.4732479], [0.5602978, 44.472576], [0.5597841, 44.4723124], [0.5590077, 44.47187], [0.5585295, 44.4717565], [0.5583354, 44.4716974], [0.5581734, 44.471557], [0.5569974, 44.4711796], [0.5564689, 44.4714394], [0.5560762, 44.4713647], [0.5555752, 44.471182], [0.5552764, 44.4711298], [0.5547946, 44.4709313], [0.5544286, 44.4709713], [0.5537612, 44.4710441], [0.5532086, 44.4709583], [0.5527943, 44.4709178], [0.5524766, 44.4708577], [0.5521645, 44.4707793]]]}}, {"type": "Feature", "properties": {"name": "Lac d'Arasse"}, "geometry": {"type": "Polygon", "coordinates": [[[0.6542705, 44.2942553], [0.6523744, 44.2938831], [0.6515068, 44.2936418], [0.6506968, 44.2929992], [0.6503565, 44.2925159], [0.6498236, 44.2918957], [0.6492636, 44.2912673], [0.6489362, 44.2910925], [0.6482171, 44.2908761], [0.6476168, 44.290791], [0.6470785, 44.2908051], [0.6468568, 44.2907667], [0.6465114, 44.2906492], [0.6458561, 44.2903054], [0.6449275, 44.28944], [0.6447657, 44.2890811], [0.6447252, 44.2890969], [0.6443055, 44.2892028], [0.6434923, 44.2893874], [0.6435135, 44.2900321], [0.6434835, 44.2902973], [0.6428851, 44.2906773], [0.6426952, 44.2908776], [0.6427033, 44.2909401], [0.6427264, 44.2909915], [0.6428682, 44.2910213], [0.6433162, 44.2909825], [0.6439972, 44.2911063], [0.6450072, 44.292064], [0.6451004, 44.2922572], [0.6453526, 44.2925152], [0.6462926, 44.2928225], [0.647199, 44.2931469], [0.6480924, 44.293288], [0.6482809, 44.2934295], [0.648385, 44.2935179], [0.6486013, 44.2934217], [0.6491078, 44.2935522], [0.6492725, 44.2935826], [0.6497665, 44.2938919], [0.6500773, 44.2940613], [0.6514775, 44.2947112], [0.652351, 44.2953132], [0.6527514, 44.2953041], [0.6530934, 44.2952099], [0.6534718, 44.2950005], [0.6544584, 44.2957406], [0.654573, 44.2957358], [0.6553629, 44.2957818], [0.6558816, 44.2947978], [0.6558304, 44.294746], [0.6552785, 44.2944464], [0.6550487, 44.2944022], [0.6542705, 44.2942553]]]}}, {"type": "Feature", "properties": {"name": "Lac de Salabert"}, "geometry": {"type": "Polygon", "coordinates": [[[0.4764766, 44.3099751], [0.4763523, 44.3097341], [0.47633, 44.3096921], [0.4760708, 44.3096529], [0.4757759, 44.3094555], [0.4754325, 44.3094273], [0.4750466, 44.3093941], [0.4745968, 44.3093553], [0.474463, 44.3095223], [0.4738181, 44.309633], [0.4720735, 44.3097629], [0.4714095, 44.3099749], [0.4704362, 44.310358], [0.46993, 44.3104088], [0.4696065, 44.3104952], [0.4692954, 44.3106064], [0.4691001, 44.3108093], [0.4684936, 44.310843], [0.4670851, 44.3109854], [0.4660779, 44.3111606], [0.4654917, 44.3112959], [0.4650854, 44.3113896], [0.4647677, 44.3115932], [0.4642181, 44.3137972], [0.4641949, 44.3138543], [0.46418, 44.3138908], [0.4641714, 44.3139349], [0.4640259, 44.3146832], [0.4641343, 44.3147269], [0.4644983, 44.314709], [0.4651322, 44.3143201], [0.4655428, 44.314298], [0.4659425, 44.3142518], [0.4672016, 44.3138131], [0.4678049, 44.3136151], [0.4684749, 44.313478], [0.4689049, 44.3132758], [0.4691803, 44.3131631], [0.4695826, 44.3130989], [0.469969, 44.3130681], [0.470207, 44.3130122], [0.4703466, 44.3129426], [0.4704781, 44.3129471], [0.4705511, 44.3130336], [0.4708861, 44.3130011], [0.4710481, 44.3128395], [0.4709787, 44.3126657], [0.4710717, 44.3125995], [0.471321, 44.3125612], [0.4714384, 44.3124618], [0.4717791, 44.3123047], [0.472358, 44.3116836], [0.4728011, 44.3114188], [0.4728977, 44.3114017], [0.4730731, 44.3117039], [0.4731019, 44.3117009], [0.4731616, 44.3116946], [0.473051, 44.3114352], [0.4731391, 44.3112168], [0.473304, 44.3112222], [0.4736159, 44.3111302], [0.4743077, 44.311023], [0.4750074, 44.3107859], [0.4751559, 44.3104352], [0.4763335, 44.3101154], [0.4764766, 44.3099751]]]}}]}