{"type": "FeatureCollection", "features": [{"type": "Feature", "properties": {"name": "Lac de Villefort"}, "geometry": {"type": "Polygon", "coordinates": [[[3.9235843, 44.450592], [3.9235308, 44.4503747], [3.9233911, 44.4502608], [3.923389, 44.4499044], [3.9235239, 44.4498526], [3.9236398, 44.4497254], [3.923676, 44.4495863], [3.9235515, 44.4494826], [3.9236656, 44.4493789], [3.9237832, 44.4491956], [3.9234597, 44.4493217], [3.9230191, 44.4495379], [3.9229532, 44.449376], [3.9228255, 44.4492683], [3.92286, 44.4491023], [3.9226733, 44.4489294], [3.9227356, 44.4488914], [3.9226571, 44.4487397], [3.9224486, 44.4487081], [3.9224468, 44.4485481], [3.9222238, 44.4485595], [3.9221893, 44.4484557], [3.9221651, 44.4482759], [3.9220855, 44.4482932], [3.9219059, 44.4481226], [3.9216637, 44.4480547], [3.9216914, 44.4478991], [3.9215185, 44.447944], [3.9214667, 44.4478334], [3.9216153, 44.4477193], [3.9217459, 44.4475524], [3.9212303, 44.4473407], [3.9208056, 44.4472016], [3.9204107, 44.447191], [3.9203503, 44.4470839], [3.9198916, 44.4470079], [3.9191265, 44.4466068], [3.9185333, 44.4462333], [3.9183846, 44.4460535], [3.9182048, 44.4461468], [3.9177704, 44.446182], [3.9170707, 44.4463965], [3.9165193, 44.4465893], [3.9164037, 44.4466157], [3.9162851, 44.4466046], [3.9161188, 44.4465587], [3.9157654, 44.446478], [3.9155253, 44.4462125], [3.9153777, 44.4460838], [3.9154274, 44.4459894], [3.914941, 44.4457475], [3.9147378, 44.4458685], [3.9144527, 44.4457131], [3.9142678, 44.4456281], [3.914055, 44.4456265], [3.9134813, 44.4456819], [3.9125985, 44.4458209], [3.9122479, 44.4460047], [3.9100342, 44.4462664], [3.9097591, 44.4461933], [3.9095392, 44.4464706], [3.9095849, 44.4464986], [3.909508, 44.4465631], [3.9095199, 44.446641], [3.9095774, 44.4466883], [3.909594, 44.4467818], [3.9095423, 44.4468102], [3.9095303, 44.4468721], [3.9093481, 44.4470343], [3.9092509, 44.4469892], [3.9090608, 44.4471192], [3.9089724, 44.4473339], [3.9087987, 44.4474026], [3.9086387, 44.4474019], [3.9085723, 44.447428], [3.9085963, 44.4474855], [3.9087763, 44.4475736], [3.9089625, 44.4476933], [3.9089638, 44.4479905], [3.9090114, 44.4482893], [3.9094673, 44.4485486], [3.9098673, 44.4486289], [3.9101826, 44.4487641], [3.9103468, 44.4487123], [3.9103641, 44.4488203], [3.9101702, 44.4489094], [3.9099103, 44.4490451], [3.9095268, 44.4490768], [3.9091349, 44.4489317], [3.9088198, 44.448723], [3.9081383, 44.4486086], [3.9076991, 44.4483588], [3.9068737, 44.4481184], [3.9059774, 44.4479819], [3.9058494, 44.4478574], [3.9058088, 44.447956], [3.9056526, 44.4480331], [3.9055117, 44.4479708], [3.9053445, 44.4480212], [3.905062, 44.4480636], [3.9046722, 44.4481937], [3.9044172, 44.4481807], [3.9043387, 44.4479303], [3.9043217, 44.4477333], [3.9041522, 44.4475598], [3.9040183, 44.4476611], [3.9040005, 44.4476856], [3.9040455, 44.4479473], [3.903909, 44.4482434], [3.9040152, 44.448574], [3.9039363, 44.4487175], [3.9037547, 44.4488869], [3.9037755, 44.4489577], [3.903754, 44.4489845], [3.9038157, 44.4490754], [3.903748, 44.4491602], [3.903807, 44.4492586], [3.9038347, 44.4493495], [3.9038007, 44.4494625], [3.9038949, 44.4495738], [3.9040142, 44.4497289], [3.9041354, 44.4498967], [3.9041255, 44.4499568], [3.9042073, 44.450085], [3.9042918, 44.4502152], [3.9043629, 44.4502602], [3.9043418, 44.4503146], [3.9042579, 44.4505146], [3.9041319, 44.450575], [3.9039322, 44.4504684], [3.9038744, 44.4502241], [3.9036997, 44.4499527], [3.9037148, 44.4497827], [3.9035905, 44.4496365], [3.9033456, 44.4495728], [3.9029553, 44.449531], [3.9023773, 44.4497372], [3.9017652, 44.450019], [3.9013938, 44.4503608], [3.901032, 44.4504395], [3.9008458, 44.4504094], [3.900639, 44.4501946], [3.9007123, 44.4500206], [3.9007648, 44.4495422], [3.9004042, 44.449238], [3.9001274, 44.4492551], [3.8997522, 44.4491573], [3.8993391, 44.4490271], [3.8989286, 44.4489953], [3.8984643, 44.4490783], [3.8978393, 44.4493822], [3.8975217, 44.449674], [3.8973127, 44.4497892], [3.8967709, 44.449906], [3.8966685, 44.4498183], [3.8965698, 44.4498859], [3.8962791, 44.4499613], [3.8961369, 44.4498943], [3.8952591, 44.4500737], [3.8944254, 44.4503736], [3.8937667, 44.4507482], [3.8934249, 44.4509017], [3.8932762, 44.4510558], [3.8929921, 44.4514999], [3.8929149, 44.4519143], [3.8930595, 44.4522506], [3.8931566, 44.4525445], [3.8931647, 44.4528068], [3.893379, 44.4529839], [3.8934758, 44.4529331], [3.8933954, 44.4526804], [3.8934383, 44.4525291], [3.8933578, 44.4522304], [3.8932532, 44.4521768], [3.8932247, 44.4520192], [3.8933032, 44.4517109], [3.8936923, 44.4512549], [3.8939323, 44.4511197], [3.8939668, 44.4510754], [3.8940257, 44.4510596], [3.8941893, 44.4509361], [3.8943383, 44.4508421], [3.8944401, 44.4508385], [3.894778, 44.4506891], [3.8952144, 44.4505607], [3.89549, 44.4504113], [3.8959153, 44.4503186], [3.8961809, 44.450403], [3.8966293, 44.4503636], [3.8966824, 44.4504306], [3.8968921, 44.4504845], [3.8972805, 44.4504077], [3.897467, 44.4503847], [3.8982678, 44.4501685], [3.8982675, 44.4501081], [3.8982912, 44.4500908], [3.8982222, 44.4499642], [3.8985178, 44.4498315], [3.898789, 44.4501868], [3.8988862, 44.4503286], [3.8990902, 44.4506963], [3.8992285, 44.4507784], [3.8992514, 44.4509545], [3.8994879, 44.4512798], [3.899799, 44.4513748], [3.8999791, 44.4515972], [3.9004607, 44.4519217], [3.9012064, 44.4518661], [3.9016899, 44.4517408], [3.9023318, 44.4512363], [3.9026122, 44.4510946], [3.9027343, 44.4510378], [3.9030534, 44.4511717], [3.9033386, 44.4514522], [3.9034496, 44.4515804], [3.9036604, 44.451743], [3.903974, 44.4519297], [3.904296, 44.4520616], [3.9046124, 44.4519811], [3.9052027, 44.4517216], [3.9056415, 44.4514002], [3.9058968, 44.4509721], [3.9058719, 44.4503552], [3.9056891, 44.4497142], [3.9054155, 44.44943], [3.9054496, 44.4492602], [3.9061187, 44.4490013], [3.9067613, 44.4491881], [3.9072359, 44.4494659], [3.9081286, 44.4497452], [3.9087548, 44.450089], [3.9094714, 44.4502598], [3.9099034, 44.4500947], [3.9099684, 44.4502166], [3.9101197, 44.4502857], [3.9104281, 44.4504241], [3.9106501, 44.450656], [3.9111437, 44.4510968], [3.9113644, 44.4512754], [3.9113471, 44.4514526], [3.9114465, 44.4517768], [3.9114595, 44.4523257], [3.9116473, 44.451757], [3.9117599, 44.4512381], [3.9118539, 44.4510104], [3.9117585, 44.4505024], [3.9115908, 44.4501153], [3.9115944, 44.4498883], [3.9118514, 44.4495445], [3.9123612, 44.4491242], [3.9127205, 44.4485367], [3.9126963, 44.4481812], [3.9125702, 44.4480743], [3.9125388, 44.4478548], [3.9124006, 44.4475413], [3.9128976, 44.4474603], [3.9133334, 44.4474309], [3.9135458, 44.4474171], [3.9138847, 44.4473148], [3.9143562, 44.4474819], [3.9147235, 44.4477074], [3.9153396, 44.4480282], [3.9158991, 44.4481179], [3.9167363, 44.4481229], [3.9175047, 44.4479235], [3.9179916, 44.4478426], [3.9185102, 44.4479809], [3.919219, 44.4481053], [3.919725, 44.448374], [3.9201381, 44.4486848], [3.9203142, 44.4491366], [3.9205853, 44.4495005], [3.9209016, 44.4498344], [3.9209432, 44.4503505], [3.9210391, 44.4505423], [3.921055, 44.4508174], [3.9211561, 44.4509372], [3.9211532, 44.4512472], [3.9212323, 44.451415], [3.9216128, 44.4516703], [3.9215523, 44.4518492], [3.9218464, 44.4521035], [3.9221023, 44.4520367], [3.9221336, 44.4520166], [3.9224008, 44.4518456], [3.9227921, 44.4522148], [3.9230434, 44.4522034], [3.923427, 44.4524767], [3.9235982, 44.4527439], [3.9242245, 44.4530141], [3.9245574, 44.4529747], [3.9250215, 44.4533043], [3.9252985, 44.4537392], [3.9255973, 44.4539174], [3.9256715, 44.454514], [3.9255341, 44.4547742], [3.9253973, 44.45538], [3.9252183, 44.455682], [3.9243503, 44.4573774], [3.9246716, 44.4565117], [3.9244089, 44.4569397], [3.9239307, 44.4572782], [3.9230396, 44.4575177], [3.9234319, 44.4579166], [3.923889, 44.458128], [3.9235826, 44.4583842], [3.9233117, 44.4585098], [3.9227863, 44.4586251], [3.9222881, 44.4589429], [3.9220122, 44.4588984], [3.9218339, 44.4587504], [3.9213359, 44.4589594], [3.9216773, 44.4590725], [3.9217257, 44.4592627], [3.9219193, 44.4594287], [3.9222627, 44.4595025], [3.9224033, 44.4596223], [3.9225624, 44.45956], [3.9227249, 44.4596188], [3.923285, 44.4595739], [3.9235711, 44.4597132], [3.9240111, 44.4596465], [3.9239627, 44.4600441], [3.9237801, 44.4601967], [3.9235071, 44.4604214], [3.9227158, 44.4609399], [3.9224137, 44.4610053], [3.9222235, 44.4611574], [3.9223895, 44.4612197], [3.9223653, 44.461396], [3.9222477, 44.4615135], [3.9219777, 44.461657], [3.921781, 44.4618282], [3.9216751, 44.4620647], [3.9216531, 44.4625404], [3.921577, 44.4627029], [3.9214735, 44.4626139], [3.9211937, 44.4626726], [3.9210266, 44.4627321], [3.9208433, 44.4627252], [3.9206497, 44.4628635], [3.9206705, 44.4630122], [3.9205684, 44.4631269], [3.920546, 44.4632611], [3.920183, 44.4635778], [3.920508, 44.4634824], [3.9206878, 44.4632715], [3.9209056, 44.4630467], [3.9210508, 44.4629534], [3.921446, 44.4629465], [3.9217783, 44.4629783], [3.9221266, 44.4629971], [3.9223425, 44.4628842], [3.9223508, 44.4627293], [3.9223819, 44.4624973], [3.9224006, 44.4623144], [3.9225085, 44.4622314], [3.9226302, 44.4623642], [3.9228293, 44.462414], [3.9232332, 44.4623006], [3.923645, 44.4620009], [3.9243288, 44.461539], [3.9243354, 44.4624778], [3.9241259, 44.4628983], [3.9240021, 44.4632825], [3.9240574, 44.4636172], [3.9241054, 44.4639971], [3.9240574, 44.4643281], [3.924204, 44.4645687], [3.9242289, 44.4648757], [3.9244468, 44.4649167], [3.924583, 44.4650611], [3.924796, 44.4654621], [3.924594, 44.4655921], [3.9244972, 44.4658687], [3.9243125, 44.4660941], [3.9241294, 44.4661868], [3.9241515, 44.4666377], [3.9241805, 44.4670798], [3.9239551, 44.4672158], [3.9241704, 44.4673193], [3.9241626, 44.4677966], [3.9242455, 44.4678824], [3.9242317, 44.4683858], [3.9243479, 44.4687592], [3.9244945, 44.4688616], [3.9242393, 44.4691578], [3.9241681, 44.4694092], [3.9241432, 44.469708], [3.924148, 44.4700496], [3.9243132, 44.4701878], [3.9243368, 44.4699237], [3.9245328, 44.4694676], [3.9244751, 44.4693954], [3.9245636, 44.4691216], [3.9247379, 44.4688782], [3.9248221, 44.468774], [3.9249827, 44.4684639], [3.9249811, 44.4682903], [3.925263, 44.467638], [3.9254521, 44.4675231], [3.9253771, 44.4674132], [3.9253462, 44.4670005], [3.9254361, 44.4666929], [3.9257401, 44.4664901], [3.925998, 44.4664395], [3.9259636, 44.4663543], [3.9258127, 44.4662792], [3.9258531, 44.4660767], [3.9260582, 44.4660164], [3.9260313, 44.4658701], [3.9262321, 44.4650997], [3.9263106, 44.4647994], [3.9265941, 44.4646887], [3.9262693, 44.464569], [3.9261032, 44.4643879], [3.9259413, 44.4642806], [3.9259714, 44.4640117], [3.9261022, 44.4634996], [3.926238, 44.4631743], [3.9266854, 44.4630742], [3.9267082, 44.4627767], [3.9265554, 44.462493], [3.9265768, 44.4622961], [3.9268085, 44.4622235], [3.927035, 44.4620129], [3.9270787, 44.4619723], [3.9267843, 44.4616288], [3.9266049, 44.4614899], [3.9265492, 44.4611966], [3.9267643, 44.4609293], [3.9271988, 44.4608165], [3.9274843, 44.4607296], [3.92771, 44.4605281], [3.9277153, 44.4600261], [3.9277297, 44.4599379], [3.9277687, 44.4598667], [3.9278795, 44.4597963], [3.9278612, 44.4596238], [3.9278404, 44.4595915], [3.9273002, 44.4595083], [3.9271235, 44.4594169], [3.9270877, 44.4593368], [3.9270418, 44.4592511], [3.9270807, 44.4591143], [3.9271955, 44.458965], [3.9273023, 44.4588568], [3.9274716, 44.4587971], [3.9277702, 44.4587867], [3.9279358, 44.4587496], [3.9280596, 44.4587023], [3.9280343, 44.4586029], [3.9280909, 44.4585356], [3.9281578, 44.4584803], [3.9282015, 44.4583938], [3.9281155, 44.4583056], [3.9278854, 44.4581663], [3.9278742, 44.4581247], [3.9278953, 44.458039], [3.9278396, 44.4580045], [3.9278321, 44.4579585], [3.9278767, 44.4579347], [3.9279201, 44.4579161], [3.9279571, 44.457886], [3.9281672, 44.4577114], [3.928433, 44.4576109], [3.9285764, 44.4574708], [3.9285825, 44.4573815], [3.9285045, 44.457372], [3.9284765, 44.4573091], [3.9285025, 44.4572776], [3.9285606, 44.4572504], [3.9288091, 44.4572805], [3.9288989, 44.4572927], [3.9291043, 44.4572916], [3.9291694, 44.4570394], [3.9291527, 44.4564979], [3.9291555, 44.4563627], [3.9292445, 44.4562309], [3.9292909, 44.4561626], [3.9293733, 44.456101], [3.9295941, 44.4559811], [3.9300664, 44.4557108], [3.9308447, 44.4552679], [3.9312688, 44.4550562], [3.931968, 44.4549049], [3.9324047, 44.4548104], [3.93217, 44.4547123], [3.9321452, 44.4547309], [3.9319726, 44.4546242], [3.9318274, 44.4544954], [3.9317107, 44.4543413], [3.9316437, 44.454213], [3.9316205, 44.4541209], [3.9315883, 44.454124], [3.9315726, 44.4540438], [3.9315669, 44.4539811], [3.9315981, 44.4539778], [3.9316081, 44.453856], [3.9316287, 44.4537371], [3.9316477, 44.4536324], [3.9316497, 44.4535401], [3.931641, 44.4534673], [3.9316155, 44.4533898], [3.9315049, 44.453395], [3.9314257, 44.4533294], [3.9313681, 44.4532615], [3.9313674, 44.4531112], [3.931413, 44.4528652], [3.9314787, 44.4526852], [3.9315552, 44.4525827], [3.9315565, 44.4525014], [3.9318665, 44.4520533], [3.9317849, 44.451299], [3.9309186, 44.4500322], [3.9306947, 44.4498111], [3.9304216, 44.4493236], [3.9301393, 44.4491755], [3.9296827, 44.449135], [3.9292062, 44.4490701], [3.9285891, 44.4493305], [3.9280476, 44.4493323], [3.9278769, 44.4495518], [3.9256104, 44.4504759], [3.9246372, 44.4506962], [3.9244233, 44.450536], [3.9240935, 44.4505614], [3.9237901, 44.4506271], [3.9235843, 44.450592]]]}}, {"type": "Feature", "properties": {"name": "Lac du Rachas"}, "geometry": {"type": "Polygon", "coordinates": [[[3.9108008, 44.5085808], [3.9116811, 44.5083114], [3.9118834, 44.508117], [3.9127144, 44.5077407], [3.9134225, 44.5073475], [3.9136207, 44.5071766], [3.9147191, 44.5065544], [3.9148337, 44.5063672], [3.9148469, 44.506154], [3.9149524, 44.505947], [3.9149094, 44.5058609], [3.9149552, 44.5057443], [3.9148777, 44.5055174], [3.9146534, 44.5054014], [3.9145259, 44.5054202], [3.9142865, 44.505233], [3.9142128, 44.505243], [3.9140906, 44.5051568], [3.9136158, 44.5048181], [3.9134575, 44.504503], [3.9136387, 44.5042643], [3.9136746, 44.5041231], [3.9134072, 44.5040275], [3.9134401, 44.503913], [3.9135965, 44.5037848], [3.9137914, 44.5038546], [3.9137968, 44.5040613], [3.9142502, 44.5038938], [3.9145953, 44.5038484], [3.9148362, 44.503707], [3.9149717, 44.5036948], [3.915178, 44.5035013], [3.9154529, 44.5033945], [3.9158073, 44.5032615], [3.9159676, 44.5032915], [3.9164548, 44.5032061], [3.9166044, 44.5033286], [3.9166932, 44.5034687], [3.9169186, 44.5036276], [3.9168999, 44.5037134], [3.9170979, 44.5043779], [3.9171257, 44.5048186], [3.9172709, 44.5050016], [3.9173896, 44.5050517], [3.9175699, 44.5050894], [3.9176886, 44.5051897], [3.9179568, 44.5051301], [3.917948, 44.5050486], [3.9180756, 44.5049859], [3.9183749, 44.5049904], [3.9185606, 44.5054055], [3.91859, 44.5056413], [3.9185256, 44.505828], [3.9183394, 44.506005], [3.9181855, 44.5060866], [3.9183833, 44.5061587], [3.9184537, 44.5062935], [3.9189819, 44.5064616], [3.9190509, 44.5065096], [3.9190701, 44.5066712], [3.9189756, 44.5067665], [3.9186496, 44.5067604], [3.9184769, 44.5068375], [3.9185574, 44.5070929], [3.9186285, 44.5071277], [3.9186468, 44.507231], [3.918753, 44.5072429], [3.9189021, 44.5076574], [3.9189779, 44.5077719], [3.9190622, 44.5078109], [3.9192047, 44.5080724], [3.919316, 44.5081808], [3.9193909, 44.5082835], [3.9195568, 44.5083487], [3.9198329, 44.5083779], [3.9203084, 44.5085285], [3.9204745, 44.5084922], [3.9205024, 44.5085144], [3.9205138, 44.5085727], [3.9206523, 44.5085835], [3.920652, 44.5085182], [3.9207374, 44.5084798], [3.9209711, 44.5084555], [3.9208847, 44.5086407], [3.9209182, 44.5088336], [3.9208893, 44.5090843], [3.9209108, 44.5092079], [3.9207841, 44.5093199], [3.9206391, 44.509635], [3.9207149, 44.5097964], [3.920808, 44.5098308], [3.9208278, 44.5099104], [3.9208639, 44.5099792], [3.920847, 44.510106], [3.9208193, 44.5103712], [3.9208754, 44.5105518], [3.920959, 44.5106634], [3.9210019, 44.5104028], [3.9210005, 44.5102708], [3.9210711, 44.5100207], [3.9210641, 44.5098602], [3.9209838, 44.5097764], [3.9209377, 44.5096397], [3.9210241, 44.5095525], [3.9211533, 44.5094892], [3.9211761, 44.5094072], [3.9212421, 44.5091692], [3.9212111, 44.5090667], [3.9213573, 44.5089353], [3.9213252, 44.5088673], [3.9212931, 44.5087995], [3.9214782, 44.5085515], [3.921675, 44.5084433], [3.9220782, 44.5083325], [3.9224364, 44.5083088], [3.9228777, 44.5081595], [3.9231116, 44.5078646], [3.9233235, 44.5075351], [3.9234066, 44.5071905], [3.923369, 44.5071442], [3.9233027, 44.507093], [3.9232839, 44.5071222], [3.9232577, 44.5071336], [3.923239, 44.5071274], [3.9232316, 44.5071097], [3.9232463, 44.5070782], [3.9231028, 44.5070428], [3.9230874, 44.5070696], [3.9230613, 44.5070849], [3.9230365, 44.5070786], [3.9230291, 44.5070586], [3.9230452, 44.5070275], [3.922954, 44.507005], [3.9229044, 44.5069906], [3.9228896, 44.5070174], [3.9228567, 44.5070327], [3.9228393, 44.507027], [3.9228386, 44.507004], [3.922848, 44.5069758], [3.9226978, 44.5069385], [3.9226804, 44.5069658], [3.9226522, 44.5069801], [3.9226395, 44.5069777], [3.9226335, 44.5069495], [3.922669, 44.5068874], [3.9225543, 44.5068587], [3.9222276, 44.5072978], [3.9213514, 44.5077412], [3.9206575, 44.507863], [3.9202837, 44.5075777], [3.9199719, 44.5070263], [3.919822, 44.5066213], [3.9198147, 44.5065783], [3.9196757, 44.505757], [3.9192628, 44.504444], [3.9194358, 44.5040275], [3.9192749, 44.5037138], [3.9190962, 44.5035259], [3.9189873, 44.503335], [3.9188716, 44.5031627], [3.9188949, 44.5027036], [3.919063, 44.5026452], [3.9190608, 44.5024367], [3.9189656, 44.5023884], [3.9188081, 44.5022488], [3.9186674, 44.5021453], [3.9184036, 44.5021077], [3.9176329, 44.5020018], [3.9174705, 44.5021851], [3.9171035, 44.5023837], [3.9166814, 44.5024964], [3.9162007, 44.5025468], [3.9153328, 44.5028169], [3.9151537, 44.5029536], [3.9145186, 44.5031348], [3.914022, 44.5033929], [3.9138615, 44.503338], [3.9136803, 44.5033993], [3.913585, 44.5033236], [3.9132918, 44.5033432], [3.9130385, 44.5036755], [3.9128908, 44.5036157], [3.912838, 44.5035943], [3.912829, 44.5034359], [3.9126184, 44.5031505], [3.9129501, 44.5027674], [3.9128922, 44.5023693], [3.9126711, 44.5020877], [3.9126658, 44.502467], [3.9124504, 44.5028387], [3.9121934, 44.5031042], [3.9124177, 44.5033751], [3.9126676, 44.5036597], [3.9129459, 44.5037457], [3.9129919, 44.5038064], [3.913046, 44.5038676], [3.9131504, 44.5038516], [3.9131595, 44.5040064], [3.9129756, 44.5040578], [3.9128935, 44.5042459], [3.9128147, 44.5042861], [3.912727, 44.5044216], [3.9127324, 44.5046852], [3.9128822, 44.5048079], [3.9129132, 44.5049684], [3.9130426, 44.505143], [3.9131742, 44.5051999], [3.9132058, 44.5053237], [3.9133944, 44.5055324], [3.9134855, 44.5056427], [3.9138348, 44.505827], [3.9140782, 44.5058816], [3.9141872, 44.5059904], [3.9141823, 44.5061018], [3.9140604, 44.506449], [3.9138268, 44.5066275], [3.9129738, 44.5070257], [3.9129298, 44.5071386], [3.9122351, 44.5073895], [3.9119036, 44.5076343], [3.9115624, 44.5079759], [3.9108008, 44.5085808]]]}}, {"type": "Feature", "properties": {"name": "Lac de Roujanel"}, "geometry": {"type": "Polygon", "coordinates": [[[3.9619793, 44.538036], [3.9620054, 44.5381139], [3.9620188, 44.5381538], [3.9621182, 44.5382414], [3.9622573, 44.5382435], [3.9623582, 44.5381838], [3.9624311, 44.5381565], [3.9625917, 44.5381766], [3.9627111, 44.538203], [3.9627993, 44.5381756], [3.962982, 44.5382345], [3.9629298, 44.5383192], [3.9629797, 44.5383931], [3.9631031, 44.538483], [3.9633745, 44.5384875], [3.9635599, 44.5383895], [3.9635218, 44.5385059], [3.96386, 44.5385231], [3.9639891, 44.5387092], [3.9641445, 44.5387087], [3.9642733, 44.5386169], [3.9644156, 44.5387068], [3.9649081, 44.5383845], [3.9649201, 44.5384849], [3.9646393, 44.5387881], [3.9648718, 44.5389555], [3.9650167, 44.5391353], [3.9652046, 44.5395466], [3.9653057, 44.53984], [3.9644623, 44.5407016], [3.9639947, 44.5412305], [3.9639834, 44.5415494], [3.9639248, 44.5418439], [3.9637875, 44.5419779], [3.9636063, 44.5425133], [3.9628136, 44.5431531], [3.9623704, 44.5434681], [3.9620461, 44.543887], [3.9619356, 44.5440572], [3.9620269, 44.5441739], [3.9619169, 44.5444149], [3.9618873, 44.5445756], [3.9619533, 44.5446728], [3.9618686, 44.5448147], [3.9620457, 44.5450959], [3.9621426, 44.545277], [3.962145, 44.5456104], [3.9619169, 44.5460924], [3.9616887, 44.5463736], [3.9615841, 44.5467313], [3.9613134, 44.5470495], [3.9612056, 44.5472382], [3.9610285, 44.5473931], [3.9609235, 44.5477095], [3.9609319, 44.5483131], [3.9611018, 44.5485915], [3.9612271, 44.5488869], [3.96117, 44.5491442], [3.9610312, 44.5494225], [3.9607843, 44.5496979], [3.9601831, 44.5500766], [3.9598236, 44.5502753], [3.9596946, 44.5503922], [3.9593645, 44.5504419], [3.9587954, 44.5504629], [3.9584238, 44.550374], [3.9585835, 44.5506446], [3.9587606, 44.5506427], [3.9591471, 44.5508627], [3.9590978, 44.5510117], [3.9589243, 44.5513638], [3.9587526, 44.5515665], [3.9587938, 44.5517942], [3.9590523, 44.5520348], [3.9590969, 44.5522174], [3.9592807, 44.5523444], [3.9593225, 44.5524774], [3.9593894, 44.5525548], [3.959381, 44.552797], [3.9597933, 44.5531484], [3.9601439, 44.5536114], [3.9603086, 44.5540555], [3.9600969, 44.5544306], [3.96, 44.554822], [3.9595927, 44.5552862], [3.9593197, 44.5555124], [3.959047, 44.5556413], [3.9586205, 44.5559729], [3.958023, 44.5563026], [3.9578796, 44.5565763], [3.9578517, 44.5568145], [3.9577187, 44.5569811], [3.9578545, 44.5571103], [3.9578267, 44.5575449], [3.9580633, 44.5579374], [3.9584534, 44.5582912], [3.9585688, 44.5584671], [3.9586512, 44.5587914], [3.9586022, 44.5590152], [3.9581888, 44.5592658], [3.9575576, 44.5595079], [3.9571759, 44.5600267], [3.9570606, 44.5605301], [3.956656, 44.5613241], [3.956484, 44.5616594], [3.9564005, 44.5621853], [3.9564068, 44.5629803], [3.9562807, 44.5631479], [3.956276, 44.5631694], [3.9561832, 44.5635964], [3.9560484, 44.5638072], [3.9554553, 44.5642555], [3.9545441, 44.5645311], [3.9541621, 44.5648638], [3.9542305, 44.5652377], [3.9544371, 44.5655604], [3.9547278, 44.5659306], [3.9549478, 44.5661481], [3.9550111, 44.5663759], [3.9548503, 44.5666666], [3.9545441, 44.56689], [3.9538894, 44.567182], [3.9536139, 44.5674167], [3.9534025, 44.5676854], [3.9531962, 44.5678305], [3.9525683, 44.5681212], [3.9524667, 44.5682331], [3.9523779, 44.56833], [3.9523497, 44.5684559], [3.9522487, 44.5686524], [3.9523823, 44.5685734], [3.95253, 44.5683698], [3.9527649, 44.5682785], [3.9531941, 44.5680692], [3.9536003, 44.567825], [3.953765, 44.5676274], [3.9538417, 44.5675543], [3.9538033, 44.5674996], [3.9538426, 44.5674532], [3.9539376, 44.5674265], [3.953974, 44.5674026], [3.953984, 44.5673782], [3.9540536, 44.5673589], [3.9540987, 44.5673603], [3.954139, 44.5673131], [3.9543057, 44.5672244], [3.9542953, 44.5672598], [3.954372, 44.5672612], [3.954418, 44.5672482], [3.9544621, 44.5672482], [3.9544813, 44.5672407], [3.9544813, 44.5672025], [3.954558, 44.5671642], [3.9545753, 44.5671888], [3.9546319, 44.56721], [3.9547325, 44.5672078], [3.954848, 44.5671481], [3.9549109, 44.5670624], [3.9549071, 44.5670337], [3.9548582, 44.5670235], [3.9548764, 44.5669975], [3.9549138, 44.5669838], [3.9549723, 44.5669797], [3.9550234, 44.5669178], [3.9552195, 44.5667423], [3.9553678, 44.5665498], [3.9555191, 44.5663104], [3.9553389, 44.5662147], [3.9552677, 44.5660819], [3.9546966, 44.5652721], [3.9546236, 44.5650282], [3.9546444, 44.5649135], [3.9546858, 44.5648378], [3.9551295, 44.5647539], [3.9556841, 44.5644736], [3.9557167, 44.5644214], [3.9558197, 44.5643615], [3.9559796, 44.5643372], [3.9562983, 44.5640746], [3.9563676, 44.5639345], [3.9564897, 44.5638842], [3.9566063, 44.5637393], [3.9565982, 44.5637045], [3.9566742, 44.5635891], [3.9566768, 44.5635074], [3.9568043, 44.5633663], [3.9567963, 44.5632837], [3.9568585, 44.5631228], [3.9568395, 44.5629605], [3.9568544, 44.5628072], [3.9568975, 44.5621279], [3.9570546, 44.5617895], [3.9574509, 44.5611352], [3.9579168, 44.5605889], [3.9581086, 44.5602774], [3.9581285, 44.5602452], [3.9583162, 44.5600773], [3.9584273, 44.5600529], [3.9584342, 44.5599718], [3.9589736, 44.5594892], [3.9593629, 44.5590953], [3.9594936, 44.5589738], [3.9593659, 44.5588205], [3.9593349, 44.5585402], [3.9593846, 44.5583873], [3.9593868, 44.5583342], [3.959464, 44.5582357], [3.9592985, 44.5581709], [3.959042, 44.5579218], [3.9589095, 44.557793], [3.9586939, 44.5575825], [3.9585036, 44.5572938], [3.9585085, 44.5571825], [3.9585782, 44.557068], [3.9585619, 44.5567926], [3.9587607, 44.5566336], [3.9588882, 44.5565891], [3.9590211, 44.5564848], [3.9593113, 44.5563089], [3.9594388, 44.5561833], [3.9597076, 44.5561014], [3.9597046, 44.556048], [3.9598077, 44.5559977], [3.9598782, 44.55599], [3.9599677, 44.5558972], [3.9601111, 44.5558581], [3.9601793, 44.5557156], [3.9602986, 44.5556904], [3.9604342, 44.5555552], [3.960515, 44.5555157], [3.9606431, 44.5553542], [3.9608639, 44.5551239], [3.9608736, 44.5550256], [3.9609984, 44.5549753], [3.9610391, 44.5549096], [3.9610825, 44.5547838], [3.961286, 44.5545335], [3.9612479, 44.5544438], [3.9613402, 44.5542727], [3.9614216, 44.5541122], [3.9621202, 44.5541337], [3.9624613, 44.5543206], [3.9627295, 44.5542553], [3.9633154, 44.554372], [3.9631504, 44.5541844], [3.9624893, 44.5540047], [3.9622769, 44.5538136], [3.9622005, 44.5535893], [3.9614879, 44.5535079], [3.9608514, 44.5528856], [3.9603331, 44.5523579], [3.9602295, 44.5521611], [3.9602184, 44.5516936], [3.9602852, 44.551583], [3.960274, 44.5512602], [3.9605555, 44.5509061], [3.9611104, 44.5505011], [3.9617973, 44.5501748], [3.9622874, 44.5497237], [3.9624161, 44.5493944], [3.9625727, 44.5492009], [3.962545, 44.5489602], [3.9623951, 44.5485291], [3.9622109, 44.5479738], [3.962211, 44.5476892], [3.9627639, 44.5472604], [3.9630421, 44.5469506], [3.9631324, 44.546703], [3.9633075, 44.5466127], [3.9632901, 44.5462802], [3.9634524, 44.5456645], [3.9633203, 44.5448514], [3.9633412, 44.5442466], [3.9633702, 44.5441113], [3.9635826, 44.5439798], [3.9636819, 44.5436618], [3.9638159, 44.5435058], [3.9642093, 44.5433519], [3.9642904, 44.5431241], [3.9647322, 44.5426085], [3.9649823, 44.542394], [3.9651807, 44.5418576], [3.9655503, 44.5414531], [3.9658642, 44.5414156], [3.9659379, 44.5412031], [3.9664294, 44.5408013], [3.9668542, 44.5407149], [3.9667406, 44.5404909], [3.966902, 44.5399863], [3.9668716, 44.5397028], [3.9669643, 44.5394855], [3.9669214, 44.5392839], [3.9665194, 44.5391774], [3.966331, 44.5390431], [3.9662965, 44.5387026], [3.9663108, 44.538177], [3.9665116, 44.5378479], [3.9666562, 44.5377848], [3.9667157, 44.5377026], [3.9667713, 44.5376534], [3.9667771, 44.5375946], [3.9667565, 44.5375613], [3.9667905, 44.5374839], [3.9668768, 44.5374169], [3.9668683, 44.5373684], [3.9668517, 44.5372197], [3.9669899, 44.5369671], [3.9669268, 44.536944], [3.9667739, 44.5370998], [3.9666599, 44.5371806], [3.9665506, 44.5372461], [3.9664668, 44.5372886], [3.9664835, 44.5373159], [3.9664835, 44.5373369], [3.9664654, 44.537347], [3.9664366, 44.5373374], [3.9664152, 44.5373087], [3.9663139, 44.5373393], [3.9663287, 44.5373623], [3.9663253, 44.5373838], [3.9663045, 44.5373914], [3.9662837, 44.5373795], [3.9662649, 44.5373503], [3.9661496, 44.5373713], [3.966159, 44.5373957], [3.9661483, 44.5374172], [3.9661221, 44.5374187], [3.9661114, 44.5374091], [3.9661007, 44.5373775], [3.966039, 44.5373828], [3.9659813, 44.5373852], [3.9659826, 44.5374196], [3.9659712, 44.537432], [3.9659484, 44.5374306], [3.9659397, 44.5374206], [3.9659357, 44.5373876], [3.965815, 44.5373876], [3.9658143, 44.5374187], [3.9657996, 44.5374354], [3.9657795, 44.5374359], [3.9657661, 44.5374187], [3.9657687, 44.5373847], [3.965579, 44.5373599], [3.9653939, 44.5373159], [3.9652249, 44.5372499], [3.9650439, 44.5371591], [3.9650586, 44.5372394], [3.965119, 44.5372547], [3.9651069, 44.5373092], [3.9650653, 44.5373455], [3.9649943, 44.5373407], [3.9649527, 44.5373943], [3.9649554, 44.537423], [3.9649031, 44.5374507], [3.9648655, 44.5374975], [3.9648306, 44.5375119], [3.9648293, 44.537553], [3.9647689, 44.5375558], [3.9647368, 44.5375195], [3.9646576, 44.5375386], [3.9646576, 44.5375807], [3.9645262, 44.5376543], [3.9644256, 44.5377269], [3.9643049, 44.5377451], [3.9640696, 44.5378977], [3.9638768, 44.5379241], [3.963536, 44.5379642], [3.9633459, 44.537894], [3.9632673, 44.5379596], [3.9631511, 44.5378326], [3.9631158, 44.5377245], [3.9631446, 44.537622], [3.9629509, 44.5376247], [3.9625525, 44.5377189], [3.9622221, 44.5378899], [3.9619793, 44.538036]]]}}, {"type": "Feature", "properties": {"name": "Lac de Charpal"}, "geometry": {"type": "Polygon", "coordinates": [[[3.573639, 44.6300608], [3.5737351, 44.6298175], [3.5739014, 44.6296228], [3.5745503, 44.6292419], [3.5750029, 44.629106], [3.5759879, 44.628994], [3.5765406, 44.6288364], [3.5769589, 44.6286097], [3.577604, 44.6280468], [3.5785724, 44.627706], [3.5792104, 44.6276596], [3.5795273, 44.628103], [3.5793918, 44.62851], [3.5792354, 44.6288649], [3.5791129, 44.6290674], [3.5789278, 44.6293021], [3.5789037, 44.6296209], [3.5788695, 44.6299647], [3.5787446, 44.6303275], [3.5789093, 44.6305978], [3.5792677, 44.6305934], [3.5795235, 44.6305475], [3.5800014, 44.6304903], [3.5805337, 44.6304752], [3.5810139, 44.6300961], [3.5811648, 44.6297679], [3.5812291, 44.6295388], [3.5812628, 44.6293633], [3.5814689, 44.6290765], [3.5815564, 44.6289318], [3.5817201, 44.628802], [3.5819293, 44.6286579], [3.5821143, 44.628594], [3.5826695, 44.6285806], [3.5831143, 44.6283828], [3.5833159, 44.6281664], [3.5833722, 44.6279507], [3.5832628, 44.6277325], [3.5833427, 44.6275422], [3.5834433, 44.6273701], [3.5837404, 44.627259], [3.5841152, 44.6273265], [3.5845198, 44.6275135], [3.5848528, 44.6276166], [3.5851604, 44.627826], [3.5854, 44.6280289], [3.5855737, 44.6282897], [3.5856816, 44.6284928], [3.5857915, 44.6287047], [3.5858801, 44.6289395], [3.5865915, 44.6290069], [3.5869664, 44.6282943], [3.587189, 44.6279144], [3.5873141, 44.6274839], [3.5873419, 44.6269008], [3.5872668, 44.6265572], [3.5870733, 44.6261779], [3.5869449, 44.6258394], [3.5870254, 44.6255321], [3.5871424, 44.6253341], [3.5873687, 44.6250376], [3.5876209, 44.6247055], [3.5877094, 44.6245547], [3.5881117, 44.6244268], [3.5885529, 44.6243249], [3.589316, 44.6242015], [3.5899039, 44.6241787], [3.5903031, 44.6240144], [3.5906383, 44.6239667], [3.5909173, 44.6238693], [3.5911801, 44.6237891], [3.5915617, 44.6237395], [3.5919312, 44.6236861], [3.5923201, 44.6236154], [3.5929075, 44.6236708], [3.5933313, 44.6237281], [3.5936493, 44.623791], [3.5949921, 44.6246053], [3.5958499, 44.6246902], [3.5963286, 44.6247593], [3.596853, 44.6249403], [3.5976974, 44.6252728], [3.5978174, 44.6247582], [3.5975643, 44.6246156], [3.5975021, 44.6245022], [3.5974511, 44.6244058], [3.597372, 44.6243447], [3.5972202, 44.6242781], [3.5970327, 44.6242149], [3.5969871, 44.6241834], [3.5969147, 44.6241815], [3.5967791, 44.6242147], [3.5966854, 44.6241433], [3.5965821, 44.6240526], [3.5965928, 44.6240077], [3.5965674, 44.6239896], [3.5964306, 44.6239734], [3.5963742, 44.6237739], [3.5963018, 44.6235925], [3.5961503, 44.6233978], [3.5960363, 44.6232957], [3.5959776, 44.6232893], [3.5958485, 44.6232575], [3.5957815, 44.6231763], [3.5956889, 44.6231344], [3.5956433, 44.6231821], [3.5955306, 44.6232545], [3.5953724, 44.6233043], [3.5953014, 44.6233883], [3.5951498, 44.6234866], [3.5949889, 44.6234675], [3.5948165, 44.6234709], [3.5944833, 44.6234016], [3.5943076, 44.6232852], [3.5940957, 44.6231706], [3.5929435, 44.622794], [3.5924971, 44.6226456], [3.5921136, 44.6225425], [3.5919875, 44.622491], [3.5918507, 44.6224442], [3.5916267, 44.6224576], [3.5915288, 44.6224795], [3.5914443, 44.6224251], [3.5913679, 44.6224156], [3.5912888, 44.622429], [3.5911962, 44.6223516], [3.5910782, 44.622302], [3.5908684, 44.6222452], [3.589344, 44.6221677], [3.588571, 44.6219186], [3.587377, 44.6218638], [3.5867726, 44.6215595], [3.586032, 44.62149], [3.5851695, 44.6212583], [3.5834088, 44.6206906], [3.5827119, 44.6202331], [3.5823208, 44.6196274], [3.5821559, 44.6195328], [3.581948, 44.6194994], [3.5816985, 44.6194641], [3.5815966, 44.6193772], [3.5814813, 44.6193944], [3.581484, 44.6194679], [3.5813673, 44.6195281], [3.5812104, 44.6194584], [3.5811058, 44.6195242], [3.5811768, 44.6196035], [3.5812035, 44.6197578], [3.5811827, 44.6199359], [3.5810252, 44.6203198], [3.5808966, 44.6203996], [3.5807785, 44.6204349], [3.5806887, 44.6204387], [3.5805117, 44.6204836], [3.5803266, 44.6205571], [3.5802873, 44.6206091], [3.58023, 44.6206125], [3.5801885, 44.6205934], [3.5801469, 44.6205981], [3.5800852, 44.6206201], [3.5800302, 44.6206239], [3.5799792, 44.6206058], [3.5799108, 44.6206277], [3.579787, 44.6206978], [3.5796641, 44.6207127], [3.579483, 44.6207175], [3.5792135, 44.6207022], [3.5791115, 44.6207127], [3.5789962, 44.6207089], [3.5788929, 44.6207012], [3.5788326, 44.6206936], [3.5787843, 44.6206993], [3.5787106, 44.6206726], [3.5786338, 44.6206825], [3.5784692, 44.620642], [3.5783659, 44.6206583], [3.5782716, 44.6206999], [3.5780346, 44.6206936], [3.5777771, 44.6207241], [3.5772853, 44.6207805], [3.5764499, 44.6207636], [3.5762577, 44.6207365], [3.5761182, 44.6207633], [3.5757964, 44.6207886], [3.5754114, 44.620852], [3.5750517, 44.620929], [3.574824, 44.620894], [3.5746403, 44.6208301], [3.5744372, 44.6208374], [3.5742541, 44.6208377], [3.5739215, 44.620938], [3.5738008, 44.6209809], [3.5736787, 44.6210554], [3.5735578, 44.621068], [3.5733461, 44.621127], [3.5730531, 44.6212278], [3.5725495, 44.6211585], [3.5723927, 44.6211727], [3.5722196, 44.6212367], [3.5721378, 44.6212491], [3.5720198, 44.6212491], [3.5718256, 44.6213229], [3.5714741, 44.6214888], [3.5707417, 44.621757], [3.5704614, 44.621819], [3.5701838, 44.6218973], [3.5699473, 44.621999], [3.5698204, 44.6220261], [3.5697386, 44.6220615], [3.569541, 44.6222056], [3.5693604, 44.6223488], [3.5690935, 44.622491], [3.5688521, 44.6225903], [3.5685616, 44.6226821], [3.5683505, 44.6227535], [3.568022, 44.6228213], [3.5678371, 44.62277], [3.5673373, 44.6227454], [3.5670617, 44.6227793], [3.5666825, 44.622838], [3.5664274, 44.6228509], [3.5661449, 44.6227792], [3.5656625, 44.6228029], [3.5654336, 44.6227783], [3.5650554, 44.6228194], [3.5648167, 44.6227363], [3.5646571, 44.622742], [3.5644922, 44.622616], [3.5643259, 44.6225387], [3.5641165, 44.6225727], [3.563981, 44.6224845], [3.5638891, 44.6224717], [3.5637639, 44.622512], [3.5636071, 44.6225986], [3.5634381, 44.6225941], [3.5633186, 44.6225075], [3.5632476, 44.6223879], [3.5631562, 44.6223919], [3.5630639, 44.6224127], [3.5630128, 44.6225854], [3.5629311, 44.622659], [3.5628185, 44.6227134], [3.562734, 44.6228585], [3.5625966, 44.6229341], [3.5624698, 44.623225], [3.5623638, 44.6233978], [3.5620593, 44.6235771], [3.5618234, 44.6236498], [3.5615753, 44.6237596], [3.5613107, 44.6238229], [3.5610387, 44.6238195], [3.5608666, 44.6237469], [3.5609693, 44.6240149], [3.5610467, 44.6242617], [3.5611329, 44.6245586], [3.5611906, 44.624812], [3.5612582, 44.6250959], [3.5613012, 44.6257131], [3.5615225, 44.6253576], [3.5619892, 44.6253932], [3.5622292, 44.6255403], [3.5625425, 44.6258226], [3.5626991, 44.6261499], [3.5628177, 44.6265522], [3.5628691, 44.6269968], [3.5627891, 44.6273384], [3.5628281, 44.627567], [3.5626758, 44.6278128], [3.5625878, 44.6283213], [3.5626491, 44.628598], [3.5626391, 44.6290131], [3.5624058, 44.6294591], [3.5624391, 44.6299359], [3.5627256, 44.6302446], [3.5631058, 44.6305929], [3.563675, 44.6307473], [3.5646046, 44.6309984], [3.56499, 44.6317953], [3.5651619, 44.6319213], [3.5655213, 44.6320213], [3.5657452, 44.6317508], [3.5658953, 44.6317161], [3.5662868, 44.6320955], [3.5661606, 44.6312231], [3.5655683, 44.6306037], [3.5652829, 44.6301861], [3.5653076, 44.6296782], [3.5654707, 44.6294248], [3.5659384, 44.6291022], [3.5666079, 44.6288615], [3.5668032, 44.6286739], [3.5670647, 44.6285346], [3.5675, 44.6284674], [3.5680408, 44.6285388], [3.5683787, 44.628802], [3.5687216, 44.6290393], [3.569001, 44.6291063], [3.5697713, 44.6292941], [3.5700833, 44.629503], [3.5702328, 44.6298533], [3.5703839, 44.6300788], [3.5708088, 44.6302909], [3.5718687, 44.6303883], [3.5725817, 44.6305066], [3.572866, 44.6305352], [3.573212, 44.6305009], [3.5734391, 44.6302948], [3.573639, 44.6300608]]]}}, {"type": "Feature", "properties": {"name": "Lac de Naussac"}, "geometry": {"type": "Polygon", "coordinates": [[[3.8104885, 44.7253352], [3.8101852, 44.7260472], [3.8101918, 44.7269572], [3.8092209, 44.7283787], [3.8087141, 44.7292893], [3.8083918, 44.7300706], [3.808271, 44.7302215], [3.8081028, 44.730319], [3.8079448, 44.7303155], [3.807651, 44.7301549], [3.8074543, 44.7299104], [3.8072018, 44.729088], [3.8071366, 44.7291046], [3.8069075, 44.7289924], [3.806714, 44.7289836], [3.8065924, 44.7290667], [3.8065682, 44.7291467], [3.806524, 44.7292887], [3.8065132, 44.7294668], [3.8064606, 44.7295839], [3.8063622, 44.7296487], [3.8062292, 44.7296673], [3.8060716, 44.7296485], [3.8058986, 44.7295963], [3.8056555, 44.7294603], [3.8054579, 44.729271], [3.8052888, 44.7291829], [3.8050486, 44.7291086], [3.8047591, 44.7290076], [3.8044444, 44.728881], [3.8042119, 44.7288637], [3.803937, 44.7288637], [3.8038002, 44.728903], [3.803945, 44.7290238], [3.8038559, 44.7290642], [3.8038243, 44.7292048], [3.8039638, 44.7293725], [3.80411, 44.7295612], [3.804464, 44.7296888], [3.8045659, 44.729781], [3.8048447, 44.7299221], [3.8051384, 44.7300866], [3.8054034, 44.7303591], [3.80549, 44.7305158], [3.8055369, 44.7306254], [3.8055839, 44.7306516], [3.8056831, 44.7306178], [3.8057976, 44.7306065], [3.8059213, 44.7306468], [3.806017, 44.7307131], [3.8060613, 44.7308236], [3.8060962, 44.7308798], [3.8061404, 44.7309179], [3.806217, 44.7310955], [3.8062839, 44.7311761], [3.8063257, 44.7313139], [3.8064194, 44.7313981], [3.8066166, 44.7315514], [3.8067654, 44.7317773], [3.8068617, 44.7318809], [3.8070336, 44.7318516], [3.8072053, 44.7318764], [3.8073796, 44.7319678], [3.8074732, 44.7321384], [3.8076317, 44.732185], [3.8078917, 44.7322481], [3.8078999, 44.7323965], [3.8077873, 44.7325528], [3.807574, 44.7326885], [3.8071431, 44.7328223], [3.8068619, 44.7329567], [3.8066623, 44.7329736], [3.8063201, 44.7329625], [3.8063456, 44.73312], [3.8065025, 44.7331968], [3.8066769, 44.7332749], [3.8069095, 44.7334481], [3.8071897, 44.7335265], [3.8075749, 44.7337719], [3.8077471, 44.7338816], [3.8081425, 44.7338085], [3.8087127, 44.7339514], [3.80906, 44.7340499], [3.8092115, 44.7342029], [3.8091876, 44.7344313], [3.8092115, 44.7348031], [3.8091034, 44.7351527], [3.808879, 44.7354585], [3.8085084, 44.7357738], [3.8083211, 44.7359177], [3.8082299, 44.7360873], [3.8081149, 44.7362323], [3.8081065, 44.7363902], [3.8080055, 44.7366395], [3.8079348, 44.7368889], [3.8078465, 44.7370027], [3.8077493, 44.7372092], [3.8076743, 44.7373154], [3.8075788, 44.7373936], [3.807411, 44.7375375], [3.807028, 44.7376906], [3.8068823, 44.7376993], [3.8067315, 44.7376599], [3.8065805, 44.7375524], [3.806475, 44.7373977], [3.8064046, 44.7370774], [3.8064, 44.7368996], [3.8064411, 44.7366738], [3.8064942, 44.7363949], [3.8061394, 44.7363618], [3.8057027, 44.7365901], [3.8052533, 44.7368023], [3.8051013, 44.7368565], [3.804883, 44.7368714], [3.804682, 44.7366984], [3.8043605, 44.7365683], [3.8038884, 44.7366122], [3.8036788, 44.7367362], [3.8037856, 44.7371511], [3.8040056, 44.7372631], [3.8040644, 44.737527], [3.8039701, 44.7376927], [3.8035054, 44.7379574], [3.8032422, 44.7383436], [3.8026467, 44.7388751], [3.8024882, 44.7390796], [3.8021979, 44.7392371], [3.8020737, 44.7392595], [3.8020498, 44.7394141], [3.8020796, 44.7394882], [3.8019374, 44.7396234], [3.8018504, 44.7396467], [3.8017845, 44.7395701], [3.8016531, 44.7395244], [3.8015592, 44.7393986], [3.8015619, 44.7392843], [3.8014948, 44.73925], [3.8014619, 44.7392136], [3.8015404, 44.7391376], [3.8015914, 44.7389757], [3.8015673, 44.7388156], [3.8016401, 44.7386648], [3.8016343, 44.7385565], [3.8015404, 44.7384727], [3.8014876, 44.7382684], [3.801316, 44.7382034], [3.8012277, 44.7382201], [3.8009691, 44.738507], [3.8008703, 44.7387317], [3.800768, 44.738829], [3.8006435, 44.7388861], [3.80054, 44.738989], [3.8004622, 44.7391205], [3.8003576, 44.7392443], [3.8002235, 44.7393415], [3.8002208, 44.7394253], [3.8002771, 44.7394558], [3.8002396, 44.7395187], [3.8002315, 44.7395644], [3.8001671, 44.7396825], [3.7999901, 44.7397759], [3.7999874, 44.7396958], [3.7999284, 44.7396177], [3.8000062, 44.7395187], [3.800033, 44.7393758], [3.7999853, 44.7391984], [3.7999357, 44.7389941], [3.7998336, 44.7388799], [3.7996522, 44.7388918], [3.7994885, 44.7389814], [3.7993159, 44.7391773], [3.7992123, 44.73933], [3.7990275, 44.7395088], [3.7989011, 44.7395377], [3.7986758, 44.7395625], [3.7986349, 44.7394805], [3.7984359, 44.7393182], [3.7982429, 44.7391611], [3.7979597, 44.7390874], [3.7975937, 44.7389335], [3.7973438, 44.7388872], [3.7970841, 44.7389129], [3.796817, 44.7390908], [3.7967715, 44.7392062], [3.7968197, 44.7393114], [3.7968098, 44.7394483], [3.7969056, 44.739553], [3.7970316, 44.7396425], [3.7972409, 44.7397816], [3.7975144, 44.7399092], [3.7977934, 44.7400026], [3.7979329, 44.7401283], [3.7981222, 44.7403635], [3.7982976, 44.7404789], [3.7982575, 44.7405261], [3.7982689, 44.7406282], [3.7983564, 44.7407425], [3.7985498, 44.7408332], [3.7986667, 44.7408498], [3.7988343, 44.7408383], [3.798936, 44.7410066], [3.7990889, 44.7410085], [3.7991774, 44.7410371], [3.7992839, 44.7411563], [3.7994362, 44.7412975], [3.7995502, 44.7414296], [3.7994671, 44.741521], [3.7993732, 44.7415191], [3.7992874, 44.7415839], [3.799164, 44.7415752], [3.7988502, 44.7415991], [3.7985812, 44.7416759], [3.7984237, 44.7417877], [3.7982815, 44.7418963], [3.7981448, 44.7419801], [3.7979677, 44.7420106], [3.7978926, 44.7419611], [3.7977853, 44.7418449], [3.7976432, 44.7417744], [3.7974124, 44.7417131], [3.7971468, 44.741715], [3.7968358, 44.7418144], [3.7966615, 44.7419077], [3.7966029, 44.7420135], [3.7963611, 44.7421059], [3.7959293, 44.7420773], [3.795865, 44.7419812], [3.7956336, 44.7417205], [3.795477, 44.7416626], [3.7952473, 44.7417788], [3.795186, 44.7420708], [3.7952507, 44.742243], [3.7953177, 44.7424393], [3.7953526, 44.7425955], [3.7953989, 44.7428465], [3.7953697, 44.7430023], [3.795269, 44.7432251], [3.7950653, 44.7433476], [3.7947255, 44.7434884], [3.7943213, 44.7436031], [3.7941416, 44.7436949], [3.7939145, 44.7438215], [3.7937078, 44.7438433], [3.7934224, 44.7438937], [3.793188, 44.7439233], [3.7930566, 44.7440357], [3.7929654, 44.744251], [3.7927374, 44.7444358], [3.7924972, 44.7445786], [3.7921742, 44.7446492], [3.7919292, 44.7446538], [3.7917128, 44.7446073], [3.7915277, 44.7444625], [3.7914806, 44.7442705], [3.7914446, 44.7436286], [3.7911402, 44.7429788], [3.7909207, 44.7429556], [3.7904648, 44.7430494], [3.7903173, 44.7433386], [3.7901659, 44.7434474], [3.7899512, 44.7436016], [3.7898474, 44.743446], [3.7897801, 44.7433451], [3.7894979, 44.7433203], [3.7890712, 44.7433806], [3.7887342, 44.7435162], [3.7883774, 44.7437744], [3.7880567, 44.7439036], [3.7879168, 44.7439469], [3.7878093, 44.743918], [3.7877325, 44.7438636], [3.7876654, 44.7439291], [3.7875013, 44.7440152], [3.7873869, 44.7442545], [3.7877056, 44.7443767], [3.7879372, 44.7444376], [3.7879801, 44.7445607], [3.7879067, 44.7448953], [3.7880016, 44.7450978], [3.7880189, 44.7453333], [3.7879898, 44.7456053], [3.7878693, 44.7458113], [3.7877528, 44.745855], [3.7873187, 44.7459576], [3.7871894, 44.746009], [3.7868266, 44.7461555], [3.7865897, 44.7462946], [3.7859922, 44.7463626], [3.7855263, 44.7462887], [3.7853186, 44.746272], [3.7851807, 44.7463132], [3.7850478, 44.746337], [3.7849242, 44.7464446], [3.784833, 44.7464929], [3.7847244, 44.7464946], [3.7838944, 44.7464502], [3.7836885, 44.7464313], [3.7834589, 44.7465029], [3.7832567, 44.7466936], [3.7831763, 44.7468043], [3.7830685, 44.7468887], [3.7827243, 44.7470196], [3.7823866, 44.747184], [3.782205, 44.7473034], [3.7820257, 44.7473519], [3.7815528, 44.7474219], [3.7814214, 44.7474843], [3.7812765, 44.7475254], [3.7811689, 44.74741], [3.7809826, 44.7473414], [3.7807195, 44.7473986], [3.780524, 44.7475464], [3.7801767, 44.7476694], [3.7797821, 44.7478047], [3.7794198, 44.7478515], [3.7789557, 44.7479235], [3.7785977, 44.7480364], [3.7785347, 44.7481799], [3.7784415, 44.7481961], [3.7782614, 44.7481754], [3.7781377, 44.7480658], [3.7780342, 44.7479348], [3.7779237, 44.7478227], [3.7777218, 44.7477726], [3.777345, 44.7477924], [3.777203, 44.7477364], [3.7771697, 44.7475193], [3.7772593, 44.747452], [3.777129, 44.747265], [3.7768481, 44.7471989], [3.7766738, 44.747308], [3.7764433, 44.7472991], [3.7759782, 44.7474089], [3.7757395, 44.7471065], [3.775443, 44.7469698], [3.7749472, 44.7467412], [3.7746481, 44.7465583], [3.7742941, 44.746478], [3.7742374, 44.7465319], [3.7741874, 44.7465794], [3.7743225, 44.746969], [3.7746765, 44.7473723], [3.7750624, 44.747781], [3.7751962, 44.7479201], [3.775493, 44.7481073], [3.7758204, 44.7482536], [3.7759882, 44.7483639], [3.7761978, 44.7485637], [3.776246, 44.7486335], [3.7762936, 44.7487272], [3.7763441, 44.7488127], [3.7764564, 44.7489343], [3.7765612, 44.7490677], [3.7767023, 44.7491378], [3.7767952, 44.7492338], [3.776944, 44.7493012], [3.7770947, 44.7494981], [3.7771425, 44.7495727], [3.7771108, 44.7497112], [3.7768586, 44.7501864], [3.7767058, 44.7503155], [3.7765162, 44.7504442], [3.7764757, 44.7506233], [3.7766029, 44.7507483], [3.776887, 44.7508198], [3.7775272, 44.750565], [3.777742, 44.7504985], [3.7781416, 44.7502128], [3.7789343, 44.7499756], [3.7796103, 44.7499057], [3.7802212, 44.7499017], [3.7810728, 44.749801], [3.7813405, 44.7498456], [3.7815903, 44.7499542], [3.7819826, 44.7500052], [3.7827052, 44.7500868], [3.783159, 44.7502901], [3.7836877, 44.7506495], [3.7838496, 44.7508319], [3.7839406, 44.7509344], [3.7845794, 44.7513728], [3.7849024, 44.7516191], [3.7854369, 44.7516067], [3.7861787, 44.7512576], [3.7865899, 44.7510641], [3.7870983, 44.7510573], [3.7875012, 44.7511378], [3.787696, 44.7513169], [3.7878643, 44.7514129], [3.7879944, 44.7516725], [3.7881726, 44.7522284], [3.7883343, 44.7525051], [3.7885386, 44.7526581], [3.7884799, 44.7531022], [3.7884174, 44.753559], [3.7878799, 44.7537803], [3.7875836, 44.7541521], [3.7874786, 44.754274], [3.7873043, 44.754154], [3.7871613, 44.7539286], [3.7867707, 44.7535333], [3.786467, 44.7533929], [3.7861305, 44.7532011], [3.7861075, 44.7530462], [3.7864834, 44.7530672], [3.7866548, 44.7530093], [3.7867282, 44.752873], [3.7866638, 44.7527398], [3.7865076, 44.7525929], [3.7862569, 44.7524296], [3.7856414, 44.7522755], [3.7851374, 44.752258], [3.784513, 44.7522695], [3.7842718, 44.7522829], [3.7835753, 44.7523215], [3.7824281, 44.7521955], [3.7818674, 44.7522818], [3.7814257, 44.7525522], [3.7808227, 44.7528442], [3.7803293, 44.7533893], [3.7794521, 44.7536229], [3.7787848, 44.7538852], [3.777648, 44.7544234], [3.777307, 44.7547732], [3.7768523, 44.7550692], [3.7763976, 44.7553114], [3.7754981, 44.755585], [3.774682, 44.7554284], [3.7736833, 44.755182], [3.7735191, 44.7549982], [3.7735873, 44.7547249], [3.7737804, 44.7545086], [3.7734992, 44.7544429], [3.77317, 44.7543928], [3.7729683, 44.7543856], [3.7727466, 44.754466], [3.7725605, 44.754472], [3.7724327, 44.7543436], [3.7722767, 44.7542445], [3.7718222, 44.754108], [3.7716862, 44.7541516], [3.7716601, 44.7543352], [3.7716835, 44.7544554], [3.7716582, 44.7546451], [3.771727, 44.7548312], [3.7718715, 44.754988], [3.7718885, 44.7550868], [3.7716872, 44.7552398], [3.7713542, 44.7553948], [3.7711985, 44.7555584], [3.7713008, 44.7557248], [3.7715141, 44.7557644], [3.7717954, 44.7557478], [3.7721162, 44.755647], [3.7723489, 44.755589], [3.7724853, 44.7556041], [3.7725975, 44.7557113], [3.7728237, 44.7559069], [3.773504, 44.7561826], [3.774018, 44.7564796], [3.7745357, 44.7567417], [3.774618, 44.756885], [3.7745315, 44.7572082], [3.7744384, 44.7576593], [3.7741199, 44.758118], [3.7738433, 44.7583827], [3.7734505, 44.7586339], [3.7731748, 44.7588753], [3.7728661, 44.7592385], [3.7726754, 44.7594607], [3.7724573, 44.7597936], [3.7722231, 44.760016], [3.7718592, 44.7602403], [3.7717978, 44.7603641], [3.771833, 44.760601], [3.7718849, 44.7608654], [3.7716876, 44.7611004], [3.7714076, 44.761302], [3.7709525, 44.7614521], [3.7704926, 44.7614329], [3.7700147, 44.7613457], [3.7694121, 44.7612181], [3.7688169, 44.761092], [3.7682941, 44.7609812], [3.7679728, 44.7610047], [3.7676826, 44.7612431], [3.7677298, 44.7614288], [3.768157, 44.7615816], [3.7686535, 44.7619219], [3.7689804, 44.7621053], [3.7689474, 44.7622694], [3.7684866, 44.7625478], [3.7684663, 44.7627195], [3.7683396, 44.7628471], [3.7684013, 44.7629585], [3.7685057, 44.7630206], [3.7686997, 44.7629608], [3.7688884, 44.7629588], [3.7689154, 44.7630612], [3.7689312, 44.763132], [3.7691475, 44.7631995], [3.769316, 44.7631561], [3.7697791, 44.7630866], [3.7700123, 44.7631567], [3.7701639, 44.7632065], [3.7702054, 44.7633196], [3.7701318, 44.7634412], [3.7700708, 44.7635421], [3.7700305, 44.7636781], [3.7700172, 44.7638459], [3.7699175, 44.7640293], [3.7697019, 44.7641621], [3.7694699, 44.7641701], [3.7692286, 44.7641375], [3.7690338, 44.7640575], [3.7688102, 44.7639025], [3.7686226, 44.7638294], [3.7684401, 44.7637651], [3.7679349, 44.7638072], [3.7676724, 44.764309], [3.767509, 44.7646212], [3.7674208, 44.764795], [3.7672635, 44.7649034], [3.7671136, 44.7649025], [3.7669159, 44.7649092], [3.7667478, 44.7649695], [3.7665753, 44.7651084], [3.7663326, 44.765233], [3.7660862, 44.765358], [3.7660452, 44.7653775], [3.765873, 44.7654594], [3.7654551, 44.7657225], [3.765278, 44.765772], [3.7650958, 44.7658038], [3.7648441, 44.765798], [3.764481, 44.7660187], [3.7644464, 44.7661023], [3.7642748, 44.7662247], [3.7646164, 44.7666177], [3.7648209, 44.7667754], [3.7648217, 44.7669131], [3.764564, 44.7670255], [3.7641607, 44.7673621], [3.7638127, 44.7676284], [3.7632392, 44.7680783], [3.7625381, 44.7684862], [3.7620161, 44.768722], [3.7616486, 44.7688355], [3.7616637, 44.7688865], [3.7618363, 44.7689449], [3.7618568, 44.7690323], [3.7616328, 44.7690968], [3.7616614, 44.7691534], [3.7617098, 44.7693228], [3.7618219, 44.7693904], [3.7620781, 44.7693774], [3.7624422, 44.7693049], [3.7635585, 44.7690589], [3.7648873, 44.7687894], [3.766245, 44.7682927], [3.7671734, 44.7680126], [3.7677149, 44.7679402], [3.7689395, 44.767581], [3.7702519, 44.767196], [3.7707171, 44.7669865], [3.7740466, 44.766068], [3.7750812, 44.7657152], [3.7759679, 44.7655513], [3.7768746, 44.7652624], [3.7772911, 44.7649165], [3.77768, 44.7646409], [3.7779568, 44.7645226], [3.7781371, 44.7644729], [3.7787483, 44.7641844], [3.7791065, 44.7641038], [3.7793629, 44.7641301], [3.7796455, 44.7640498], [3.7800928, 44.7639456], [3.7803273, 44.7637398], [3.7805903, 44.7636653], [3.7809987, 44.7636493], [3.7812661, 44.7636662], [3.7814823, 44.7636143], [3.7816823, 44.7634792], [3.7818873, 44.7633903], [3.7821618, 44.7633481], [3.7824368, 44.7633899], [3.7827239, 44.7633501], [3.7830175, 44.7633497], [3.7838847, 44.7629788], [3.7852774, 44.7623159], [3.7854504, 44.7620888], [3.78623, 44.761953], [3.7867068, 44.7618286], [3.7884333, 44.7617158], [3.7885967, 44.7616196], [3.7888033, 44.7615672], [3.7891127, 44.761276], [3.7894495, 44.7609125], [3.7902321, 44.7603027], [3.7905776, 44.7600727], [3.7907973, 44.7599469], [3.7916819, 44.7596547], [3.7920999, 44.759581], [3.7923492, 44.7595726], [3.7925561, 44.7595671], [3.79289, 44.7597172], [3.7930666, 44.7596733], [3.7935001, 44.7595766], [3.7936736, 44.7594445], [3.7939538, 44.7591863], [3.7940969, 44.7589111], [3.7946231, 44.7584852], [3.7948609, 44.7584692], [3.7958044, 44.7580074], [3.796678, 44.758002], [3.7968362, 44.7580875], [3.7970842, 44.7580749], [3.7973793, 44.758174], [3.7975761, 44.7581185], [3.7979495, 44.7580112], [3.7982999, 44.7580774], [3.7987268, 44.7578146], [3.7986633, 44.7576394], [3.7989432, 44.7573331], [3.7996303, 44.7570615], [3.8004571, 44.7569257], [3.8006099, 44.756986], [3.8008354, 44.7569296], [3.8010172, 44.7567666], [3.8014806, 44.7565794], [3.8018551, 44.7564561], [3.802088, 44.756301], [3.8020928, 44.7561828], [3.8019968, 44.7561752], [3.8016659, 44.7560548], [3.8014021, 44.7556488], [3.8014891, 44.7553839], [3.8023, 44.7548433], [3.8029142, 44.7545614], [3.803485, 44.7542206], [3.80394, 44.7541475], [3.8044125, 44.754147], [3.8046238, 44.7543447], [3.8045937, 44.7544487], [3.8048741, 44.7545113], [3.8050471, 44.7544904], [3.8051839, 44.7544222], [3.8052319, 44.754189], [3.8054766, 44.7539432], [3.8058141, 44.75372], [3.8062794, 44.7537355], [3.8067685, 44.7536953], [3.8071127, 44.7535669], [3.8072989, 44.7535145], [3.8075102, 44.7535311], [3.8076865, 44.7534839], [3.8078081, 44.753402], [3.8079955, 44.7533001], [3.8081741, 44.7531994], [3.8083607, 44.7526212], [3.808484, 44.7523782], [3.8092004, 44.752164], [3.8098268, 44.7518768], [3.8104243, 44.7517137], [3.8109096, 44.7513815], [3.8111143, 44.7512083], [3.8113262, 44.7510835], [3.8123975, 44.7507991], [3.8151175, 44.7502243], [3.8171392, 44.7496776], [3.8178255, 44.7492673], [3.8183401, 44.7492308], [3.8200392, 44.7486709], [3.8209616, 44.7482547], [3.8213096, 44.7481171], [3.8226163, 44.7478689], [3.8231573, 44.7477315], [3.8234935, 44.7476988], [3.8235865, 44.7477325], [3.8236897, 44.7477698], [3.8237796, 44.7478492], [3.8238119, 44.7479466], [3.8238879, 44.7480013], [3.825253, 44.747821], [3.8264978, 44.7476565], [3.8265665, 44.7475546], [3.8265542, 44.7474907], [3.8264533, 44.747449], [3.8264682, 44.7473076], [3.8265881, 44.7469583], [3.8267152, 44.7468212], [3.8268777, 44.7467077], [3.8270607, 44.746642], [3.8272069, 44.7466104], [3.8277789, 44.7464472], [3.8280446, 44.7463363], [3.8282177, 44.746276], [3.8284258, 44.746265], [3.8285342, 44.7462818], [3.8286415, 44.7462284], [3.828763, 44.7460668], [3.828665, 44.7458822], [3.8284618, 44.7456824], [3.8285013, 44.7455209], [3.8285105, 44.7454833], [3.8285335, 44.7453896], [3.8285726, 44.7453211], [3.8286589, 44.7451705], [3.8287301, 44.744958], [3.828944, 44.7445924], [3.8292747, 44.7441746], [3.8296473, 44.7436471], [3.8299765, 44.743173], [3.8304291, 44.7426133], [3.8306682, 44.7423708], [3.8307365, 44.7421167], [3.8309617, 44.7418228], [3.8311116, 44.7417625], [3.8313289, 44.7417897], [3.8321145, 44.7413883], [3.8323177, 44.7410156], [3.8324356, 44.7405563], [3.8325351, 44.740102], [3.8325202, 44.739825], [3.8327399, 44.7391216], [3.8330733, 44.7383443], [3.8333042, 44.7376311], [3.8335502, 44.7368946], [3.8337309, 44.7363566], [3.8338919, 44.7361077], [3.8339573, 44.7357435], [3.8339376, 44.7355059], [3.833977, 44.7353962], [3.8341242, 44.7352141], [3.8343062, 44.7350964], [3.8346291, 44.734981], [3.83476, 44.7348624], [3.8347836, 44.7346891], [3.8345036, 44.7342116], [3.8343649, 44.7338076], [3.8343145, 44.7335323], [3.8344627, 44.7334412], [3.834788, 44.7330623], [3.8349898, 44.7328582], [3.8352351, 44.7326497], [3.8354167, 44.7323467], [3.835342, 44.7319706], [3.8354577, 44.7316302], [3.8352508, 44.731396], [3.835222, 44.7312023], [3.8351541, 44.7308428], [3.8352194, 44.7307147], [3.8354673, 44.7303581], [3.8355419, 44.730177], [3.8355288, 44.7297613], [3.8354568, 44.7295139], [3.8354495, 44.7293965], [3.8354846, 44.7292836], [3.8355658, 44.7287648], [3.8324564, 44.7282669], [3.8323188, 44.7284216], [3.8321914, 44.7284026], [3.8320747, 44.7284169], [3.83195, 44.728515], [3.8318306, 44.7286351], [3.8317287, 44.728696], [3.8315946, 44.7288142], [3.8314685, 44.7289047], [3.8312995, 44.7290095], [3.8311091, 44.7290743], [3.8308744, 44.7291038], [3.8306947, 44.7291172], [3.8304439, 44.7290991], [3.8302414, 44.7290791], [3.8300925, 44.7290429], [3.829996, 44.7289981], [3.8299444, 44.7289909], [3.8298518, 44.728987], [3.8297851, 44.729007], [3.8297744, 44.7290422], [3.8297805, 44.7291034], [3.8298417, 44.7292027], [3.8299262, 44.7293554], [3.8299799, 44.7295783], [3.8299718, 44.7298032], [3.8299316, 44.7300547], [3.8298324, 44.730291], [3.8296875, 44.7305101], [3.8295078, 44.7306664], [3.8292718, 44.7308093], [3.829076, 44.7309446], [3.8287139, 44.7309808], [3.8282338, 44.730935], [3.8278502, 44.7307883], [3.8275123, 44.7306187], [3.8272119, 44.730453], [3.8270804, 44.7303596], [3.8268122, 44.7300738], [3.8267532, 44.7298984], [3.8267639, 44.7295993], [3.8268363, 44.7292315], [3.8268229, 44.7290562], [3.8268846, 44.7290105], [3.8269436, 44.72898], [3.8269222, 44.7288428], [3.8268873, 44.7286656], [3.8268846, 44.7285836], [3.8269463, 44.7282825], [3.8270375, 44.7280786], [3.8270452, 44.728019], [3.8270679, 44.7279205], [3.8270715, 44.7278341], [3.8271033, 44.7276502], [3.8271381, 44.7275394], [3.8271354, 44.7274269], [3.8271448, 44.7272821], [3.8271931, 44.7271058], [3.8272622, 44.7270572], [3.8273108, 44.7269707], [3.8273446, 44.7268775], [3.8274022, 44.7266717], [3.8274104, 44.7264674], [3.8273489, 44.7262836], [3.8272344, 44.7262144], [3.8269473, 44.7261902], [3.8264981, 44.7262917], [3.8262775, 44.7264351], [3.8258664, 44.7266997], [3.8255677, 44.7271349], [3.8252864, 44.7274714], [3.8250218, 44.7278611], [3.824647, 44.7280048], [3.8245394, 44.728046], [3.8241212, 44.7280822], [3.8237767, 44.7279364], [3.8234782, 44.7277019], [3.8233474, 44.727598], [3.8233058, 44.7275367], [3.8233173, 44.7274302], [3.8232999, 44.7273464], [3.8232411, 44.7270737], [3.8231536, 44.7268919], [3.8231164, 44.7267861], [3.8230609, 44.7265453], [3.8229676, 44.7264066], [3.8228093, 44.7263712], [3.8226392, 44.7264082], [3.8224324, 44.7264586], [3.8223097, 44.7264901], [3.8218964, 44.7265599], [3.8217192, 44.7266125], [3.8216277, 44.7266644], [3.8215698, 44.7267362], [3.8213034, 44.7269211], [3.8210812, 44.7270425], [3.8207424, 44.7272063], [3.8202976, 44.7272853], [3.8200294, 44.7272532], [3.8199385, 44.7271808], [3.8198294, 44.7270932], [3.8197285, 44.7269143], [3.81964, 44.7267447], [3.8195407, 44.7265789], [3.8194384, 44.7261758], [3.8193014, 44.7261101], [3.8190936, 44.726127], [3.8188943, 44.7262931], [3.8187245, 44.7264548], [3.8185068, 44.7265339], [3.8182935, 44.7264836], [3.8181192, 44.7264608], [3.8179525, 44.7266016], [3.8179636, 44.7268806], [3.8179545, 44.7270648], [3.8179534, 44.7272357], [3.8177402, 44.7275228], [3.8171455, 44.7281072], [3.8169551, 44.7282597], [3.8167378, 44.7284407], [3.8163757, 44.728717], [3.8160726, 44.7289038], [3.815673, 44.7288828], [3.8152385, 44.7287018], [3.81504, 44.7286617], [3.8149354, 44.7287113], [3.8149032, 44.7286827], [3.8149354, 44.7286332], [3.8149461, 44.7285912], [3.8149944, 44.7284216], [3.8150829, 44.7282254], [3.8150775, 44.7280767], [3.8150319, 44.7279319], [3.8147718, 44.7277966], [3.8146377, 44.727688], [3.8143399, 44.727627], [3.8140985, 44.7276785], [3.8139161, 44.7278404], [3.8137552, 44.7279605], [3.8135272, 44.7282063], [3.8131785, 44.7285341], [3.8129854, 44.728738], [3.8127708, 44.7289247], [3.8126153, 44.7290924], [3.8124651, 44.7293249], [3.8121861, 44.7294659], [3.8120761, 44.7293687], [3.8119662, 44.7292086], [3.8119152, 44.7290524], [3.8119152, 44.7288256], [3.8119474, 44.7286522], [3.8120064, 44.728576], [3.8121492, 44.7277564], [3.8121167, 44.72752], [3.8120346, 44.7272878], [3.8119816, 44.7270563], [3.8118684, 44.7268425], [3.8115914, 44.7266711], [3.8113202, 44.7264469], [3.8115628, 44.7258854], [3.8110191, 44.7251896], [3.8109716, 44.7252089], [3.8109374, 44.7252598], [3.8109044, 44.7252873], [3.8109002, 44.7253317], [3.8109024, 44.7253773], [3.8108398, 44.7254086], [3.8108068, 44.7254152], [3.810774, 44.7253838], [3.8107067, 44.7253522], [3.8106686, 44.7253549], [3.8106241, 44.7253343], [3.8105812, 44.7253467], [3.8104885, 44.7253352]]]}}]}