{"type": "FeatureCollection", "features": [{"type": "Feature", "properties": {"name": "Étang de Gattemare"}, "geometry": {"type": "Polygon", "coordinates": [[[-1.299997, 49.692825], [-1.3005065, 49.6921751], [-1.3002545, 49.6918561], [-1.2996322, 49.691686], [-1.2990877, 49.6914553], [-1.2984091, 49.6915455], [-1.2978266, 49.6915904], [-1.2974837, 49.6920921], [-1.2971612, 49.6922997], [-1.2969071, 49.6921771], [-1.296089, 49.69204], [-1.2950134, 49.6920261], [-1.2946352, 49.6920088], [-1.2943241, 49.69187], [-1.2940962, 49.6919296], [-1.2939648, 49.6918383], [-1.293844, 49.6918075], [-1.2936857, 49.6917815], [-1.2934841, 49.6918152], [-1.2933666, 49.6917589], [-1.2930527, 49.6917502], [-1.2926073, 49.6916909], [-1.292393, 49.6916781], [-1.2922394, 49.6916349], [-1.2921765, 49.6915251], [-1.2917624, 49.6913624], [-1.2914541, 49.6912993], [-1.2913343, 49.6912339], [-1.291316, 49.6912078], [-1.291309, 49.691114], [-1.2912456, 49.6909226], [-1.2913045, 49.6908693], [-1.2913256, 49.6906007], [-1.2914627, 49.690458], [-1.291487, 49.6903437], [-1.291695, 49.6901242], [-1.291829, 49.690068], [-1.2919693, 49.6899245], [-1.2920481, 49.689807], [-1.2920923, 49.6897247], [-1.2922544, 49.6897268], [-1.2928117, 49.689424], [-1.2929234, 49.6893368], [-1.2931992, 49.6891621], [-1.2934554, 49.6893116], [-1.2938067, 49.6893574], [-1.2938783, 49.6894375], [-1.2939508, 49.6895885], [-1.294036, 49.6896753], [-1.2945784, 49.6898485], [-1.2950176, 49.6899285], [-1.2951235, 49.6899706], [-1.2951863, 49.6899913], [-1.2952393, 49.6899968], [-1.2952883, 49.6900094], [-1.295397, 49.6900287], [-1.2955967, 49.6900367], [-1.2956858, 49.6900282], [-1.2958256, 49.6900551], [-1.2958769, 49.6900393], [-1.2961145, 49.6900729], [-1.296192, 49.6901261], [-1.2963214, 49.6901243], [-1.2965173, 49.6901931], [-1.29662, 49.6901615], [-1.2966765, 49.6901688], [-1.296774, 49.6902316], [-1.2971833, 49.6902279], [-1.2974233, 49.690301], [-1.2975681, 49.6902715], [-1.297606, 49.6901215], [-1.2976328, 49.6901059], [-1.297659, 49.690104], [-1.2976571, 49.6900791], [-1.2976951, 49.6900256], [-1.2978066, 49.6899949], [-1.2978482, 49.689989], [-1.2980276, 49.6900004], [-1.2983326, 49.6899353], [-1.2987095, 49.6898105], [-1.2991195, 49.689676], [-1.2992572, 49.6895881], [-1.2992713, 49.6895695], [-1.2992775, 49.6895402], [-1.2992986, 49.6895232], [-1.2995713, 49.6894619], [-1.2996848, 49.689482], [-1.2998092, 49.6895344], [-1.2998148, 49.6895533], [-1.2998519, 49.6895812], [-1.3000393, 49.689614], [-1.3001945, 49.689611], [-1.3004228, 49.6896641], [-1.3006184, 49.6896643], [-1.3007649, 49.6896448], [-1.3008113, 49.6896601], [-1.3008163, 49.6896699], [-1.3009695, 49.689729], [-1.3010065, 49.6896966], [-1.3010574, 49.6896751], [-1.3011074, 49.6896707], [-1.3012387, 49.6897007], [-1.3012466, 49.6897189], [-1.3013474, 49.6897606], [-1.3013837, 49.689793], [-1.3014212, 49.6898502], [-1.3014722, 49.6898849], [-1.30144, 49.6899127], [-1.3014588, 49.6900099], [-1.3014668, 49.6900706], [-1.3014802, 49.6901244], [-1.3015205, 49.690199], [-1.3015741, 49.6902771], [-1.3016278, 49.6902875], [-1.3016734, 49.6903517], [-1.3017002, 49.6904437], [-1.3016488, 49.6904972], [-1.3015852, 49.6906417], [-1.301581, 49.6908032], [-1.3016707, 49.690992], [-1.3015768, 49.6911395], [-1.3015714, 49.6912679], [-1.3015339, 49.6913807], [-1.3017216, 49.6914431], [-1.3017324, 49.6915247], [-1.3017458, 49.6916028], [-1.3017082, 49.691634], [-1.3017297, 49.6917173], [-1.3017377, 49.6918058], [-1.3017555, 49.6919297], [-1.301937, 49.6920275], [-1.3020328, 49.6921094], [-1.3023466, 49.6921632], [-1.302816, 49.6924738], [-1.3030093, 49.6927363], [-1.3030881, 49.6931828], [-1.3031485, 49.6932078], [-1.3031871, 49.6932162], [-1.3031705, 49.6932257], [-1.3031485, 49.6932381], [-1.3031027, 49.6932112], [-1.3030087, 49.6931829], [-1.3026313, 49.6931096], [-1.3023488, 49.6930772], [-1.3010852, 49.6929763], [-1.3005718, 49.6929459], [-1.299997, 49.692825]]]}}, {"type": "Feature", "properties": {"name": "Mare de Bouillon"}, "geometry": {"type": "Polygon", "coordinates": [[[-1.5524486, 48.7796114], [-1.5515039, 48.7793212], [-1.5513419, 48.7790943], [-1.5511692, 48.7787634], [-1.5511016, 48.7784739], [-1.5511577, 48.778124], [-1.5512208, 48.7778475], [-1.5514571, 48.7775945], [-1.5520283, 48.7768581], [-1.5522898, 48.7766508], [-1.5527281, 48.7765101], [-1.5534002, 48.7761898], [-1.5538825, 48.7758148], [-1.5547515, 48.7755889], [-1.5554698, 48.7755708], [-1.5560932, 48.7758454], [-1.5565146, 48.7764885], [-1.5570584, 48.7770556], [-1.5573614, 48.7774416], [-1.5574885, 48.7779212], [-1.5574377, 48.7781118], [-1.5575352, 48.7785833], [-1.5576806, 48.779087], [-1.558156, 48.7796834], [-1.5583322, 48.7799202], [-1.5584954, 48.7804107], [-1.5584208, 48.7805733], [-1.5582374, 48.7806495], [-1.5574718, 48.7806114], [-1.5533793, 48.7798274], [-1.5524486, 48.7796114]]]}}, {"type": "Feature", "properties": {"name": "Tourbière de Sèves"}, "geometry": {"type": "Polygon", "coordinates": [[[-1.3782769, 49.2919191], [-1.3774635, 49.2919399], [-1.3769531, 49.291711], [-1.3759483, 49.2919191], [-1.3755017, 49.2915238], [-1.376363, 49.2912013], [-1.3762354, 49.2910973], [-1.3738271, 49.2921375], [-1.3735081, 49.2922311], [-1.3728701, 49.2919503], [-1.3719769, 49.2912845], [-1.3714347, 49.2911181], [-1.3706532, 49.2901715], [-1.3719929, 49.2894225], [-1.3706053, 49.2899842], [-1.3692656, 49.2889648], [-1.3676068, 49.2872274], [-1.3664425, 49.2860103], [-1.3648636, 49.2842832], [-1.3629496, 49.2820568], [-1.3612112, 49.2800279], [-1.3611952, 49.2796533], [-1.3623276, 49.2790394], [-1.3660757, 49.2772498], [-1.3615939, 49.2792892], [-1.3621841, 49.2788313], [-1.3622798, 49.2785816], [-1.3621362, 49.2783839], [-1.3624552, 49.278103], [-1.3624712, 49.277822], [-1.3624552, 49.2775723], [-1.3674952, 49.275023], [-1.3677663, 49.2749501], [-1.3681172, 49.2753351], [-1.3685797, 49.2753455], [-1.3713868, 49.274024], [-1.3723278, 49.2734829], [-1.3726149, 49.2735245], [-1.3729339, 49.2736286], [-1.3732688, 49.2737639], [-1.372918, 49.2740656], [-1.3739706, 49.2736286], [-1.3744491, 49.273691], [-1.376044, 49.2729314], [-1.3783567, 49.2721093], [-1.3777825, 49.2727232], [-1.3782131, 49.2732748], [-1.3782291, 49.273743], [-1.3792179, 49.2738471], [-1.3803025, 49.2737118], [-1.3824716, 49.2728169], [-1.384242, 49.2723694], [-1.3847523, 49.272078], [-1.3848321, 49.2718075], [-1.3852946, 49.2720052], [-1.3865706, 49.2725463], [-1.3836199, 49.2740136], [-1.3874478, 49.2723694], [-1.3885642, 49.2721301], [-1.3890427, 49.2724631], [-1.3892341, 49.2731499], [-1.3889311, 49.2733372], [-1.387049, 49.2743362], [-1.387065, 49.2744923], [-1.3893936, 49.2734205], [-1.389569, 49.2736806], [-1.3895371, 49.2739303], [-1.3898402, 49.2742425], [-1.3880219, 49.2751374], [-1.3899518, 49.274742], [-1.3901432, 49.2750022], [-1.3885323, 49.2762612], [-1.3905738, 49.2755537], [-1.3908928, 49.2756993], [-1.3880219, 49.277333], [-1.3908928, 49.2766358], [-1.3913235, 49.2766254], [-1.3865546, 49.2789146], [-1.3894733, 49.2779261], [-1.3891703, 49.2790186], [-1.3926632, 49.2776139], [-1.3929343, 49.2778533], [-1.3920412, 49.2784047], [-1.3921528, 49.2786649], [-1.3919455, 49.278977], [-1.3909088, 49.2795597], [-1.388963, 49.2804337], [-1.3873361, 49.281214], [-1.3872883, 49.2818383], [-1.3899518, 49.280673], [-1.3913075, 49.2801007], [-1.3913394, 49.2803608], [-1.3905898, 49.2809123], [-1.3908928, 49.2809539], [-1.3907174, 49.2814221], [-1.3911959, 49.2816406], [-1.3914829, 49.2818903], [-1.3912916, 49.2821088], [-1.3877189, 49.284044], [-1.3873202, 49.2844393], [-1.3896328, 49.2832741], [-1.3900794, 49.2834093], [-1.3897764, 49.2838567], [-1.3904622, 49.2841272], [-1.3907333, 49.2841792], [-1.3861878, 49.2865408], [-1.3877349, 49.2859686], [-1.3912756, 49.2842728], [-1.3923123, 49.2838879], [-1.3924559, 49.2839607], [-1.392424, 49.2845537], [-1.3926153, 49.2851468], [-1.392424, 49.2854797], [-1.3852308, 49.2889231], [-1.3834604, 49.2896929], [-1.3835561, 49.2898074], [-1.3875913, 49.2880181], [-1.3879741, 49.2880389], [-1.3890746, 49.2875916], [-1.3888513, 49.2879349], [-1.3834285, 49.2906084], [-1.381068, 49.2916902], [-1.3806055, 49.291555], [-1.3808129, 49.2912221], [-1.3833966, 49.2898906], [-1.3833807, 49.2897658], [-1.3826311, 49.2900882], [-1.379505, 49.2915446], [-1.3788192, 49.2917838], [-1.3782769, 49.2919191]]]}}]}