{"type": "FeatureCollection", "features": [{"type": "Feature", "properties": {"name": "Grand Étang du Roi"}, "geometry": {"type": "Polygon", "coordinates": [[[3.7501692, 49.0122745], [3.751888, 49.013532], [3.75222, 49.0137548], [3.7523418, 49.0142279], [3.7522425, 49.0146055], [3.752456, 49.0148307], [3.7538696, 49.0151483], [3.755333, 49.0151033], [3.756849, 49.0146079], [3.7585924, 49.0144883], [3.7590366, 49.0145906], [3.7601438, 49.0135834], [3.7603047, 49.0132801], [3.7594732, 49.0124251], [3.7586922, 49.0122337], [3.7581869, 49.0111521], [3.7581246, 49.0102527], [3.7576236, 49.0106461], [3.7570134, 49.0115847], [3.756423, 49.0120887], [3.7552364, 49.0118248], [3.7534469, 49.0108509], [3.7529222, 49.010316], [3.7521186, 49.0105574], [3.7525574, 49.0108635], [3.7537462, 49.0111795], [3.7545755, 49.0117179], [3.7550476, 49.0126418], [3.7546034, 49.0130626], [3.7533664, 49.012993], [3.7501692, 49.0122745]]]}}, {"type": "Feature", "properties": {"name": "Étang de la Martinique"}, "geometry": {"type": "Polygon", "coordinates": [[[4.9627831, 48.9671104], [4.960888, 48.9669442], [4.9591347, 48.9671862], [4.9557463, 48.9670329], [4.9554053, 48.9669542], [4.9553248, 48.9672254], [4.955118, 48.9678633], [4.954972, 48.9687521], [4.9586688, 48.9698756], [4.9603221, 48.9706682], [4.9614116, 48.9715092], [4.962564, 48.9706283], [4.9637192, 48.9697876], [4.964151, 48.9685966], [4.9645314, 48.9676522], [4.9627831, 48.9671104]]]}}, {"type": "Feature", "properties": {"name": "Étang de Roye"}, "geometry": {"type": "Polygon", "coordinates": [[[4.8286884, 49.0801892], [4.8289204, 49.0804492], [4.8296258, 49.0811555], [4.8303071, 49.0821164], [4.8305619, 49.0826856], [4.8307791, 49.0833233], [4.8309185, 49.0834399], [4.8316042, 49.0831258], [4.833538, 49.082745], [4.8364241, 49.0824509], [4.8368634, 49.0822745], [4.838056, 49.0814319], [4.8394727, 49.0804197], [4.8395467, 49.0801284], [4.8393331, 49.0799433], [4.8387936, 49.079758], [4.8380254, 49.0794854], [4.8354285, 49.0784245], [4.8342842, 49.077921], [4.8338073, 49.0778581], [4.8333127, 49.0779959], [4.832551, 49.078311], [4.8313826, 49.0786502], [4.8305747, 49.0788982], [4.8295212, 49.0795515], [4.8286884, 49.0801892]]]}}, {"type": "Feature", "properties": {"name": "Étang d'Argers"}, "geometry": {"type": "Polygon", "coordinates": [[[4.8543223, 49.0595538], [4.8550343, 49.0595261], [4.8555062, 49.0596783], [4.8566649, 49.0615223], [4.8573945, 49.0621332], [4.8582099, 49.0626991], [4.8579524, 49.0630549], [4.857417, 49.0637002], [4.8575878, 49.0647423], [4.8575556, 49.0654839], [4.8577273, 49.0656878], [4.8579095, 49.0657915], [4.8585105, 49.0659514], [4.8592055, 49.0660474], [4.859788, 49.066836], [4.859519, 49.0673959], [4.8597658, 49.0681445], [4.8594949, 49.068206], [4.85946, 49.0683642], [4.8595386, 49.0684806], [4.8591974, 49.0685912], [4.858049, 49.068611], [4.8571399, 49.0681129], [4.8560641, 49.0675671], [4.8556405, 49.067424], [4.8554313, 49.0673415], [4.8545864, 49.0671025], [4.8536045, 49.066958], [4.8527625, 49.0667071], [4.8523521, 49.0664294], [4.85221, 49.0661922], [4.8523691, 49.0659278], [4.8530924, 49.0662361], [4.853484, 49.0663257], [4.8543984, 49.0663194], [4.8547928, 49.0662674], [4.8552033, 49.0661342], [4.8554715, 49.0658934], [4.8555733, 49.0655852], [4.8554474, 49.0648548], [4.8551655, 49.0643047], [4.8551497, 49.0640956], [4.8559729, 49.0638359], [4.8564503, 49.062335], [4.8559675, 49.06189], [4.8554635, 49.0616035], [4.8549753, 49.0614383], [4.8547232, 49.0612169], [4.8547822, 49.061013], [4.8548949, 49.0608197], [4.8547769, 49.060556], [4.8540471, 49.0598351], [4.8543223, 49.0595538]]]}}, {"type": "Feature", "properties": {"name": "Étang des Fosses"}, "geometry": {"type": "Polygon", "coordinates": [[[4.8654574, 48.9624322], [4.8661723, 48.9621822], [4.8677583, 48.9622063], [4.8692061, 48.9621538], [4.8700628, 48.9620676], [4.8707977, 48.9621416], [4.8710793, 48.9620403], [4.8710713, 48.9618942], [4.8707575, 48.9615182], [4.8703972, 48.9611966], [4.8697731, 48.9613447], [4.8690382, 48.9612391], [4.8678121, 48.9609017], [4.8668553, 48.9609297], [4.863736, 48.9621173], [4.8627273, 48.9621702], [4.8610103, 48.9614595], [4.8598266, 48.9615617], [4.8590028, 48.9624555], [4.8578526, 48.9632853], [4.8571111, 48.9632091], [4.8566499, 48.9628452], [4.8559041, 48.9619939], [4.8551927, 48.9619222], [4.8548133, 48.9621745], [4.8540996, 48.9622073], [4.853178, 48.9618045], [4.8528119, 48.9616503], [4.8517589, 48.9619255], [4.8510467, 48.9620282], [4.8506425, 48.9626028], [4.8504398, 48.9628563], [4.8506597, 48.9632555], [4.8527813, 48.9638374], [4.8539642, 48.9644731], [4.8560817, 48.9645139], [4.8573188, 48.9646877], [4.8594453, 48.9651117], [4.8613445, 48.9646614], [4.8633423, 48.9650909], [4.8638508, 48.9650798], [4.8642612, 48.9648473], [4.8644235, 48.9642462], [4.8643255, 48.9638999], [4.8650233, 48.9626781], [4.8654574, 48.9624322]]]}}, {"type": "Feature", "properties": {"name": "Étang du Bas"}, "geometry": {"type": "Polygon", "coordinates": [[[4.9896465, 48.955511], [4.9916635, 48.9548466], [4.9939347, 48.9547449], [4.9946863, 48.9546778], [4.9948445, 48.9545404], [4.9949438, 48.9544383], [4.9949754, 48.953951], [4.9946487, 48.9532018], [4.9935902, 48.952408], [4.9920335, 48.9511551], [4.9919048, 48.951185], [4.9916714, 48.9510424], [4.991643, 48.950873], [4.9919909, 48.9504166], [4.9919397, 48.9500683], [4.9920979, 48.9499309], [4.9917787, 48.9496456], [4.9916427, 48.9496403], [4.9907749, 48.9491312], [4.9908715, 48.9490555], [4.9909566, 48.9489643], [4.990844, 48.9489427], [4.9906264, 48.9489433], [4.9898905, 48.9478377], [4.9899039, 48.9476515], [4.9904671, 48.9470667], [4.9904886, 48.9471336], [4.9905744, 48.9471372], [4.9906522, 48.9470755], [4.9904514, 48.9469937], [4.9897402, 48.9476357], [4.9892277, 48.9477494], [4.9887156, 48.9477907], [4.9883214, 48.9475723], [4.9880161, 48.9475179], [4.9872762, 48.9479475], [4.9866503, 48.9479422], [4.9857634, 48.9483957], [4.9847674, 48.9483579], [4.9845389, 48.9486161], [4.9835591, 48.949697], [4.9835604, 48.9502215], [4.9847666, 48.9507712], [4.9841321, 48.9510885], [4.9828792, 48.950373], [4.9814146, 48.9495593], [4.9812859, 48.9496297], [4.9810148, 48.9498711], [4.978998, 48.9518438], [4.9803438, 48.9524418], [4.9822301, 48.953129], [4.9821977, 48.9540138], [4.9834306, 48.9542437], [4.9845252, 48.9544823], [4.9848206, 48.9546557], [4.9857275, 48.9550736], [4.9864814, 48.9552342], [4.989051, 48.9556095], [4.9896465, 48.955511]]]}}, {"type": "Feature", "properties": {"name": "Étang d'Oie"}, "geometry": {"type": "Polygon", "coordinates": [[[4.86289, 48.9548427], [4.8647588, 48.9551146], [4.8652089, 48.9558895], [4.8650802, 48.9565002], [4.8643267, 48.9573646], [4.8634882, 48.9576614], [4.8621965, 48.95803], [4.8610704, 48.9578371], [4.8590983, 48.9573966], [4.8576159, 48.9566281], [4.8570738, 48.9554939], [4.8562502, 48.9553536], [4.8556466, 48.9552137], [4.8556092, 48.9549732], [4.8556984, 48.9546588], [4.8563899, 48.954391], [4.8572683, 48.9547296], [4.8590797, 48.9548078], [4.8607468, 48.9546345], [4.86289, 48.9548427]]]}}, {"type": "Feature", "properties": {"name": "Étang de Noir Lieu"}, "geometry": {"type": "Polygon", "coordinates": [[[4.8093376, 48.9440693], [4.8088427, 48.9435267], [4.8081166, 48.9426455], [4.8074344, 48.9418467], [4.8071811, 48.9416919], [4.8069826, 48.9416769], [4.8068981, 48.9416866], [4.8066071, 48.9418452], [4.8063549, 48.941935], [4.8060841, 48.9419707], [4.8057005, 48.9418725], [4.8049964, 48.9417906], [4.8044519, 48.9416725], [4.8043969, 48.9417447], [4.8043446, 48.9419024], [4.8042145, 48.9419482], [4.8039275, 48.9419852], [4.803772, 48.9420557], [4.803316, 48.9421341], [4.8032637, 48.9425243], [4.8031001, 48.9425402], [4.8030585, 48.9425666], [4.8029432, 48.9425622], [4.8028238, 48.942497], [4.8026361, 48.94249], [4.8025824, 48.9424468], [4.802742, 48.9424098], [4.8029324, 48.9423975], [4.802911, 48.9423702], [4.8027219, 48.9423596], [4.8026696, 48.9421755], [4.8028056, 48.9420152], [4.8025328, 48.9419597], [4.8022, 48.9417988], [4.8021077, 48.9416329], [4.8018502, 48.9414787], [4.8016262, 48.9414338], [4.8014143, 48.9414408], [4.8010884, 48.941558], [4.80102, 48.9416338], [4.8006606, 48.9417941], [4.8004299, 48.9418381], [4.8002797, 48.941817], [4.7999231, 48.9417812], [4.7997567, 48.9417113], [4.7990727, 48.9415052], [4.798754, 48.9413789], [4.798227, 48.9408735], [4.7980884, 48.9408374], [4.7977987, 48.9409044], [4.7974213, 48.9413786], [4.7970316, 48.9419068], [4.7963557, 48.9424864], [4.796243, 48.9427454], [4.7959493, 48.943111], [4.7955859, 48.9434096], [4.7954947, 48.9436245], [4.795382, 48.9436721], [4.7954169, 48.9438606], [4.7952828, 48.9439169], [4.7954598, 48.9441812], [4.7955215, 48.9441618], [4.7959051, 48.9441741], [4.7962739, 48.944123], [4.7965259, 48.9440663], [4.7972998, 48.9441072], [4.7975036, 48.9441847], [4.7980074, 48.9442509], [4.7984719, 48.9442208], [4.7990731, 48.9442303], [4.7991921, 48.9441785], [4.7993933, 48.9441283], [4.7995793, 48.9441375], [4.7999217, 48.9442296], [4.8003162, 48.944429], [4.8008993, 48.9446683], [4.8011796, 48.9447361], [4.8013768, 48.9447405], [4.8016195, 48.9446524], [4.8017724, 48.9445529], [4.8021908, 48.9445], [4.8023595, 48.9444937], [4.8024698, 48.9443653], [4.8031068, 48.9443001], [4.8038095, 48.9442983], [4.8038699, 48.9443477], [4.8039477, 48.9443133], [4.8040161, 48.9441777], [4.8040964, 48.9441418], [4.8042253, 48.9441821], [4.8042427, 48.9442543], [4.8041931, 48.944345], [4.8042628, 48.9444234], [4.8049227, 48.9445397], [4.8059549, 48.9448673], [4.8062101, 48.9450708], [4.8063697, 48.9453081], [4.8062932, 48.9454522], [4.8061122, 48.9455641], [4.8059687, 48.9455394], [4.8058775, 48.9457173], [4.8059888, 48.9457323], [4.806198, 48.9458556], [4.8065025, 48.9459093], [4.8065923, 48.9458521], [4.806713, 48.945853], [4.8068029, 48.9458908], [4.8068444, 48.9459798], [4.8068619, 48.9461295], [4.8069678, 48.9462203], [4.8072159, 48.9464325], [4.8071931, 48.9465567], [4.8071042, 48.9466391], [4.8069021, 48.9467672], [4.8063866, 48.9473433], [4.8062007, 48.9475317], [4.8061377, 48.9477141], [4.8061672, 48.9479563], [4.8060693, 48.9480126], [4.8060103, 48.9480276], [4.8060317, 48.9480708], [4.806139, 48.9480893], [4.8062101, 48.948158], [4.8062249, 48.9482751], [4.8061685, 48.9486248], [4.8060492, 48.9487648], [4.806026, 48.9489318], [4.8061122, 48.9489647], [4.8062678, 48.9489779], [4.8064005, 48.9490343], [4.8065018, 48.9490165], [4.8068672, 48.9486327], [4.806996, 48.948601], [4.8073608, 48.9481641], [4.8073393, 48.9480294], [4.8074855, 48.9478726], [4.807739, 48.9477995], [4.8079307, 48.9475819], [4.8080286, 48.9475194], [4.8081051, 48.9474965], [4.8081252, 48.947412], [4.8081949, 48.9473652], [4.8083961, 48.9472957], [4.8088995, 48.9467776], [4.8092303, 48.9463621], [4.8091713, 48.9460301], [4.8095549, 48.9454028], [4.8100118, 48.9449183], [4.8093376, 48.9440693]]]}}, {"type": "Feature", "properties": {"name": "Étang l'Harouchêne"}, "geometry": {"type": "Polygon", "coordinates": [[[4.8110688, 48.8785447], [4.8118615, 48.8781335], [4.8130991, 48.8778772], [4.8144666, 48.8774329], [4.8163033, 48.8768266], [4.8173774, 48.8764351], [4.8187744, 48.8750282], [4.8180381, 48.8747691], [4.817376, 48.8745556], [4.8153758, 48.8753324], [4.8142817, 48.8760285], [4.8137766, 48.8761542], [4.8131812, 48.8761683], [4.812495, 48.8758082], [4.8110084, 48.8747868], [4.8102254, 48.8750287], [4.8095349, 48.8753369], [4.8090125, 48.8762136], [4.8099198, 48.8775504], [4.8090559, 48.8782217], [4.8096976, 48.878803], [4.8110688, 48.8785447]]]}}, {"type": "Feature", "properties": {"name": "Étang des Landres"}, "geometry": {"type": "Polygon", "coordinates": [[[4.6901506, 48.5788284], [4.6898207, 48.5786888], [4.6895084, 48.5782071], [4.689197, 48.5780267], [4.6889185, 48.5776163], [4.6885368, 48.577136], [4.6884295, 48.5764276], [4.6887351, 48.5756908], [4.6886952, 48.574844], [4.6887631, 48.5746605], [4.6890718, 48.5744048], [4.6896915, 48.5742868], [4.6903109, 48.5742161], [4.691378, 48.5741184], [4.6919978, 48.5742073], [4.6923068, 48.5739988], [4.6928218, 48.5736985], [4.6931624, 48.5731004], [4.6934359, 48.5728004], [4.6934682, 48.5722962], [4.6932245, 48.5719075], [4.6933593, 48.5715518], [4.6931399, 48.571161], [4.6930436, 48.5703446], [4.6926847, 48.5698191], [4.6918342, 48.5697611], [4.6911814, 48.5698775], [4.6908715, 48.5699736], [4.6904595, 48.5702268], [4.6902542, 48.5703883], [4.689498, 48.5705989], [4.6888102, 48.5707857], [4.6878813, 48.5708829], [4.6870204, 48.5709314], [4.6863314, 48.5708664], [4.6855743, 48.57085], [4.6850579, 48.5708737], [4.6846129, 48.5714491], [4.6857857, 48.5717429], [4.6865772, 48.5718283], [4.6871632, 48.5718257], [4.6879902, 48.5718902], [4.688575, 48.5718426], [4.6892284, 48.5718139], [4.6895384, 48.5718122], [4.6899863, 48.5718101], [4.6903324, 48.5720842], [4.6903004, 48.5724064], [4.6900265, 48.5726816], [4.6894763, 48.5728207], [4.6888219, 48.5729416], [4.688205, 48.5733091], [4.6875172, 48.5736106], [4.6870364, 48.5738427], [4.686523, 48.5742351], [4.6860423, 48.5745819], [4.6855274, 48.5749968], [4.6851855, 48.5753431], [4.685049, 48.5756403], [4.6849816, 48.5758935], [4.6851924, 48.5765121], [4.6854347, 48.5768311], [4.6860223, 48.577033], [4.6862283, 48.5770559], [4.6867465, 48.5773514], [4.6869892, 48.5775107], [4.6872675, 48.5779908], [4.6874434, 48.5785854], [4.6874818, 48.5792501], [4.6874517, 48.5799162], [4.687248, 48.5803969], [4.6865242, 48.5804247], [4.6858014, 48.5804975], [4.6847342, 48.5805952], [4.6843215, 48.5807787], [4.6842206, 48.5811719], [4.6844643, 48.5814661], [4.6849124, 48.5815786], [4.6853595, 48.5814619], [4.6857376, 48.5812992], [4.686289, 48.5812973], [4.6865313, 48.581524], [4.6867059, 48.5818443], [4.6870171, 48.5820023], [4.687568, 48.5820453], [4.6878768, 48.5817919], [4.6880474, 48.5814242], [4.68829, 48.5816735], [4.6886687, 48.5815805], [4.6888036, 48.5811911], [4.6888353, 48.580824], [4.6891443, 48.5805931], [4.6895554, 48.5803376], [4.6898994, 48.5800384], [4.6900676, 48.5795787], [4.6901506, 48.5788284]]]}}, {"type": "Feature", "properties": {"name": "Étang de la Forêt"}, "geometry": {"type": "Polygon", "coordinates": [[[4.6877507, 48.5598708], [4.6885778, 48.5596228], [4.6894716, 48.5593892], [4.6909143, 48.5589715], [4.6917384, 48.5585999], [4.6921835, 48.558274], [4.6923878, 48.5577933], [4.6925919, 48.55738], [4.6927623, 48.5571046], [4.6935534, 48.5569404], [4.6934823, 48.5566406], [4.6931352, 48.5562315], [4.6925136, 48.5555919], [4.6917876, 48.5551139], [4.6912694, 48.5546813], [4.690582, 48.5548906], [4.6896887, 48.5549668], [4.6887583, 48.5547425], [4.6885157, 48.5542819], [4.6888902, 48.5535932], [4.6893017, 48.553295], [4.689678, 48.5530402], [4.6899511, 48.5525806], [4.6900506, 48.5519153], [4.6900822, 48.5514336], [4.6897358, 48.5508851], [4.6889792, 48.5511182], [4.688673, 48.5514158], [4.6873641, 48.5513164], [4.6865701, 48.5514442], [4.6856904, 48.5515294], [4.6852139, 48.5517834], [4.684852, 48.5521362], [4.6846527, 48.5526497], [4.6842357, 48.5536161], [4.6840095, 48.5546135], [4.6836381, 48.5556603], [4.6841912, 48.5563238], [4.6847436, 48.5567086], [4.6856048, 48.5568421], [4.6862594, 48.5569551], [4.6862596, 48.557072], [4.6870487, 48.55709], [4.6874386, 48.557795], [4.6870233, 48.5585182], [4.6872482, 48.5595255], [4.6877507, 48.5598708]]]}}, {"type": "Feature", "properties": {"name": "Étang de la Grande Malneaue"}, "geometry": {"type": "Polygon", "coordinates": [[[3.7936199, 49.0016046], [3.7934509, 49.0020005], [3.7931156, 49.0026586], [3.7931295, 49.0031531], [3.7928886, 49.003187], [3.7926848, 49.0031293], [3.7928268, 49.0024102], [3.7927589, 49.0017243], [3.7925086, 49.0012545], [3.7915699, 49.000631], [3.7909645, 49.0003447], [3.7902594, 49.0003518], [3.7894249, 49.0008233], [3.7891513, 49.0009359], [3.7885945, 49.0009605], [3.7854878, 49.0006213], [3.7846314, 49.0009747], [3.7844299, 49.0011769], [3.7839669, 49.0013011], [3.7833363, 49.0014111], [3.7828079, 49.0017102], [3.7828715, 49.0019777], [3.782447, 49.002237], [3.7815053, 49.0020121], [3.781794, 49.0008093], [3.7830047, 49.0000545], [3.7824422, 48.9997123], [3.7815285, 48.9995018], [3.7810135, 48.9994666], [3.7807962, 48.9995986], [3.7804544, 48.9994955], [3.7806853, 48.9985342], [3.781558, 48.9987363], [3.7825745, 48.9987574], [3.7835478, 48.9989892], [3.7852054, 48.9991273], [3.7868956, 48.9994895], [3.7883118, 48.9995634], [3.7888764, 48.9994153], [3.789323, 48.9984917], [3.7895272, 48.99837], [3.790133, 48.998673], [3.7903073, 48.9988595], [3.7921017, 48.999947], [3.7924934, 49.000283], [3.7932363, 49.0005576], [3.7939985, 49.0006824], [3.7950897, 49.0007582], [3.7957182, 49.0011386], [3.7955845, 49.0016603], [3.7946478, 49.0011904], [3.7943467, 49.0012192], [3.7939739, 49.0011929], [3.793714, 49.0013394], [3.7936199, 49.0016046]]]}}, {"type": "Feature", "properties": {"name": "Étang Neuf"}, "geometry": {"type": "Polygon", "coordinates": [[[4.7927948, 48.8420815], [4.7922334, 48.8413988], [4.7918557, 48.8407685], [4.7915119, 48.8403149], [4.7911653, 48.8405564], [4.7908107, 48.8405652], [4.7905158, 48.8401287], [4.7900325, 48.8400787], [4.7894471, 48.8401341], [4.7887642, 48.840329], [4.788592, 48.8406051], [4.7876055, 48.8412053], [4.7868545, 48.8413963], [4.7862108, 48.8411989], [4.7858371, 48.8400482], [4.7854918, 48.8395158], [4.7848868, 48.8395035], [4.7846771, 48.8398986], [4.7845462, 48.8405073], [4.7843718, 48.8409617], [4.7841272, 48.8411004], [4.7837737, 48.8410439], [4.782291, 48.8405235], [4.7817203, 48.840561], [4.7814838, 48.8405423], [4.7812251, 48.8405218], [4.7804429, 48.8410528], [4.7803292, 48.8411431], [4.7790954, 48.842047], [4.780061, 48.8425977], [4.7803185, 48.8427813], [4.7804944, 48.842878], [4.7807476, 48.8428802], [4.7810266, 48.842866], [4.7818999, 48.8427015], [4.782357, 48.8427036], [4.7824964, 48.8427531], [4.7836659, 48.8428943], [4.7842007, 48.8429603], [4.78498, 48.8429747], [4.7860582, 48.8432335], [4.7870894, 48.843237], [4.7880646, 48.8435677], [4.7880821, 48.8446935], [4.788526, 48.8450598], [4.7896572, 48.8441688], [4.7906962, 48.8443362], [4.7908256, 48.8455767], [4.7928502, 48.8455349], [4.7930408, 48.8443103], [4.7932534, 48.8435326], [4.7929985, 48.8429136], [4.7929429, 48.8424675], [4.7927948, 48.8420815]]]}}, {"type": "Feature", "properties": {"name": "Étang de la Grande Rouillie"}, "geometry": {"type": "Polygon", "coordinates": [[[4.9274626, 48.9425605], [4.9290409, 48.9424296], [4.9301715, 48.94298], [4.9311715, 48.943034], [4.9322391, 48.9428405], [4.9326946, 48.9425275], [4.9330104, 48.9419242], [4.933317, 48.9410477], [4.9339985, 48.940434], [4.9349852, 48.94051], [4.935699, 48.9405327], [4.9362474, 48.9404598], [4.9365678, 48.9398689], [4.9360872, 48.9393427], [4.9358222, 48.9394196], [4.9356805, 48.9401684], [4.9346145, 48.9402129], [4.9345898, 48.9400065], [4.9352615, 48.939626], [4.9351071, 48.9383474], [4.9350717, 48.9380126], [4.9352132, 48.9377244], [4.935369, 48.9377011], [4.9342785, 48.9370456], [4.9330941, 48.9374588], [4.9315926, 48.9380692], [4.9300743, 48.9386868], [4.9289913, 48.9386496], [4.9286657, 48.9384776], [4.9283472, 48.938552], [4.9282198, 48.9387705], [4.9275473, 48.939361], [4.9271368, 48.939375], [4.9266838, 48.9393424], [4.9263582, 48.9390635], [4.92616, 48.938366], [4.925622, 48.9376779], [4.9255229, 48.9380405], [4.9255371, 48.9383986], [4.9254097, 48.9387194], [4.9241072, 48.9391192], [4.9235976, 48.9397237], [4.9231658, 48.940184], [4.9225146, 48.9401793], [4.9210688, 48.9398585], [4.9208414, 48.9402508], [4.9215102, 48.9407617], [4.9218535, 48.9405503], [4.9229251, 48.9412347], [4.9230172, 48.9417043], [4.9229747, 48.9418949], [4.9229538, 48.9420948], [4.9231798, 48.9425747], [4.9237987, 48.9429622], [4.9255442, 48.9428062], [4.9274626, 48.9425605]]]}}, {"type": "Feature", "properties": {"name": "Étang de Roussi Pré"}, "geometry": {"type": "Polygon", "coordinates": [[[4.8466229, 48.967086], [4.8481862, 48.9674303], [4.8494044, 48.9679588], [4.8503859, 48.9683636], [4.8520788, 48.9692805], [4.8530251, 48.9695449], [4.8540141, 48.9695368], [4.8541818, 48.9681536], [4.8537088, 48.9672026], [4.8541671, 48.9655677], [4.8543933, 48.9653131], [4.8523337, 48.9645017], [4.8518908, 48.9644538], [4.8509459, 48.9644481], [4.8502673, 48.9658281], [4.8488737, 48.9657872], [4.847276, 48.9654689], [4.846268, 48.9654175], [4.8458446, 48.9667036], [4.8466229, 48.967086]]]}}, {"type": "Feature", "properties": {"name": "Étang du Haut"}, "geometry": {"type": "Polygon", "coordinates": [[[4.981581, 48.9490396], [4.9811593, 48.9474129], [4.9805573, 48.9467498], [4.9783318, 48.9470778], [4.9782037, 48.9464737], [4.9774719, 48.9454739], [4.9775022, 48.944882], [4.9766898, 48.9448123], [4.975692, 48.9462749], [4.9741851, 48.9465219], [4.9748887, 48.9479903], [4.9744345, 48.9492075], [4.9737352, 48.9493151], [4.9733487, 48.9500363], [4.9732071, 48.9505492], [4.9738994, 48.9502691], [4.9747368, 48.9512422], [4.9747038, 48.9513947], [4.9750954, 48.9514862], [4.9753, 48.9509373], [4.976244, 48.9514759], [4.9772885, 48.9520223], [4.9777079, 48.9522859], [4.9779466, 48.9523308], [4.9782507, 48.9522796], [4.981581, 48.9490396]]]}}, {"type": "Feature", "properties": {"name": "Étang d'Élise"}, "geometry": {"type": "Polygon", "coordinates": [[[4.8540232, 49.0512032], [4.8532534, 49.0509923], [4.8530844, 49.0509853], [4.8523709, 49.0511241], [4.851813, 49.0511804], [4.8511371, 49.0511716], [4.8505363, 49.0511259], [4.8500991, 49.0511136], [4.8498738, 49.0511593], [4.8497263, 49.0512507], [4.8494607, 49.0515601], [4.8494258, 49.0516849], [4.8494983, 49.0518115], [4.8496512, 49.0519468], [4.8497209, 49.0520312], [4.8499703, 49.0520523], [4.849965, 49.052105], [4.8498335, 49.0520962], [4.8496914, 49.0521349], [4.8497316, 49.0523986], [4.8498362, 49.0526042], [4.8503271, 49.0531263], [4.8509333, 49.0536537], [4.8515341, 49.0542091], [4.8518345, 49.0544411], [4.8520893, 49.0547171], [4.8522529, 49.0548226], [4.8524997, 49.0548771], [4.8527491, 49.0549017], [4.8529717, 49.0548753], [4.8532239, 49.054798], [4.853712, 49.0545079], [4.854624, 49.053898], [4.8549217, 49.0538013], [4.8552623, 49.0537609], [4.8560134, 49.0537767], [4.8562252, 49.0537521], [4.8565257, 49.0537644], [4.8566464, 49.0538013], [4.857392, 49.0538206], [4.8574483, 49.0537169], [4.8577434, 49.0537222], [4.8579231, 49.0536554], [4.8580545, 49.0536273], [4.8581564, 49.0535324], [4.858312, 49.0534972], [4.8581377, 49.0534445], [4.8577219, 49.0534269], [4.8576629, 49.0534023], [4.8576951, 49.0533724], [4.8582074, 49.0533812], [4.8583361, 49.0533601], [4.8586124, 49.053172], [4.8581457, 49.0531544], [4.8581269, 49.0531333], [4.8581672, 49.0531087], [4.858261, 49.0530947], [4.8582986, 49.0530542], [4.8584273, 49.0530806], [4.8586312, 49.0530824], [4.8587465, 49.0529716], [4.8587251, 49.0529171], [4.8584703, 49.0529154], [4.8584273, 49.0528837], [4.8585105, 49.0527994], [4.8587385, 49.0528046], [4.8588377, 49.0527994], [4.8588565, 49.0527554], [4.8587894, 49.052664], [4.858709, 49.0525005], [4.8586097, 49.0523441], [4.858489, 49.052265], [4.8584998, 49.0521894], [4.8585454, 49.0520997], [4.858253, 49.0518818], [4.8581296, 49.0518519], [4.8578829, 49.0518361], [4.8571801, 49.0518027], [4.856354, 49.0517605], [4.8559978, 49.0517216], [4.8559624, 49.051764], [4.8559302, 49.0518572], [4.8559168, 49.0521191], [4.8559289, 49.0523942], [4.8559114, 49.0524311], [4.8558457, 49.0524663], [4.8558363, 49.0525058], [4.8558618, 49.0526526], [4.855835, 49.0526904], [4.8557907, 49.0526833], [4.8557626, 49.0526526], [4.8557237, 49.0525093], [4.8556875, 49.0524768], [4.8556419, 49.0524487], [4.8556392, 49.0524047], [4.8557988, 49.0522017], [4.8558189, 49.0521323], [4.8558229, 49.0518765], [4.8558501, 49.0517054], [4.8554689, 49.0516638], [4.8552382, 49.0516163], [4.8543128, 49.0512999], [4.8540232, 49.0512032]]]}}, {"type": "Feature", "properties": {"name": "Étang d'Élise"}, "geometry": {"type": "Polygon", "coordinates": [[[4.8555198, 49.0456181], [4.8553428, 49.0456656], [4.8552516, 49.0457606], [4.855375, 49.0459346], [4.8555547, 49.0462809], [4.8554715, 49.0462915], [4.8551309, 49.0461174], [4.8548788, 49.046142], [4.8548815, 49.0461983], [4.8545489, 49.0461649], [4.8546052, 49.0462212], [4.8547688, 49.0464585], [4.8549002, 49.0466308], [4.8548922, 49.0468699], [4.8547259, 49.0471564], [4.8545757, 49.0473041], [4.8551255, 49.0474869], [4.8559865, 49.0476961], [4.8561126, 49.0477348], [4.8561971, 49.0477445], [4.8562655, 49.0477419], [4.856346, 49.0477199], [4.8563701, 49.0477419], [4.856291, 49.0477682], [4.8561823, 49.04777], [4.8560858, 49.0477577], [4.8559651, 49.0477278], [4.8549002, 49.0474764], [4.8544148, 49.0473498], [4.8541331, 49.0474184], [4.8537335, 49.047552], [4.8533097, 49.0475907], [4.852843, 49.0475889], [4.8526606, 49.0476047], [4.8525801, 49.0476627], [4.8525104, 49.0478825], [4.8524219, 49.0479968], [4.8523656, 49.0481638], [4.8524648, 49.0484978], [4.8528296, 49.0489707], [4.8531944, 49.0494629], [4.8535028, 49.0498707], [4.853535, 49.0501485], [4.8534921, 49.0503401], [4.8534813, 49.0505089], [4.8533741, 49.0506548], [4.8532829, 49.0507919], [4.8532963, 49.0508745], [4.8534438, 49.0509431], [4.8549673, 49.0514406], [4.8554018, 49.0515741], [4.8558792, 49.0516286], [4.85659, 49.0517025], [4.8569548, 49.0517042], [4.8573652, 49.0517341], [4.8580518, 49.0517535], [4.8581967, 49.0517183], [4.8582745, 49.0515847], [4.8582691, 49.051256], [4.8583469, 49.0509026], [4.8584864, 49.0506688], [4.8585829, 49.0505036], [4.8586875, 49.0502329], [4.8587599, 49.0500114], [4.8587653, 49.0496457], [4.8587626, 49.0492783], [4.8587009, 49.0490322], [4.8587573, 49.0486789], [4.8588136, 49.0481884], [4.8588082, 49.048039], [4.858599, 49.0477858], [4.8582637, 49.047501], [4.8579526, 49.0472391], [4.8565257, 49.0477014], [4.8565015, 49.0476751], [4.8578346, 49.0471723], [4.8578024, 49.0470861], [4.8575047, 49.0467486], [4.8572472, 49.0465112], [4.8569199, 49.046346], [4.8565766, 49.0461965], [4.8563486, 49.0460436], [4.8560804, 49.0459241], [4.8558444, 49.045801], [4.8558819, 49.0458836], [4.8557559, 49.0460014], [4.8558068, 49.0461895], [4.8557371, 49.0462124], [4.8556218, 49.0458783], [4.8555198, 49.0456181]]]}}, {"type": "Feature", "properties": {"name": "Vieil Étang"}, "geometry": {"type": "Polygon", "coordinates": [[[4.8162174, 48.8256802], [4.8154932, 48.82532], [4.8153752, 48.8251999], [4.8153269, 48.8250021], [4.8153269, 48.824128], [4.8154128, 48.8238066], [4.8156032, 48.8235188], [4.8160028, 48.8231109], [4.8162094, 48.8227453], [4.8165822, 48.8223886], [4.8167887, 48.8223533], [4.8174056, 48.8225723], [4.8188728, 48.8227912], [4.8191732, 48.8228689], [4.8199081, 48.8229855], [4.8203319, 48.8230173], [4.8206431, 48.8229996], [4.8214263, 48.8227736], [4.8216408, 48.8227489], [4.8223811, 48.8228442], [4.8230141, 48.8229572], [4.8232073, 48.8230173], [4.823218, 48.8230879], [4.8229766, 48.8236177], [4.8229176, 48.8239108], [4.8227459, 48.824264], [4.8227674, 48.8246243], [4.8227137, 48.8250693], [4.8226118, 48.825426], [4.8226064, 48.8257191], [4.8225313, 48.8261464], [4.8224831, 48.82621], [4.8223865, 48.8262488], [4.8219734, 48.8261252], [4.8213136, 48.8260016], [4.8207718, 48.825938], [4.8197901, 48.8258815], [4.8195809, 48.8258321], [4.8194307, 48.8257297], [4.8192644, 48.8253059], [4.8190713, 48.8251364], [4.8190069, 48.8253483], [4.8192805, 48.8258215], [4.8192751, 48.8258921], [4.8190874, 48.8259698], [4.8182452, 48.8261005], [4.8177892, 48.8260899], [4.8170757, 48.8258851], [4.8162174, 48.8256802]]]}}, {"type": "Feature", "properties": {"name": "Lac du Der-Chantecoq"}, "geometry": {"type": "MultiPolygon", "coordinates": [[[[4.7882484, 48.5399327], [4.7883919, 48.5400963], [4.7882846, 48.5402432], [4.7877399, 48.5404362], [4.787398, 48.5403444], [4.787045, 48.5400102], [4.7865998, 48.5398976], [4.7863905, 48.5398113], [4.7865107, 48.5396788], [4.7870026, 48.5394632], [4.7873647, 48.5393808], [4.7876791, 48.5392427], [4.7879838, 48.5386378], [4.7881179, 48.5383405], [4.7882836, 48.538111], [4.7884934, 48.5381064], [4.7885368, 48.5383551], [4.7885025, 48.5387674], [4.7883759, 48.5391006], [4.7882134, 48.5397268], [4.7882484, 48.5399327]]], [[[4.788187, 48.5560321], [4.787931, 48.5570459], [4.7874624, 48.5576447], [4.7875127, 48.557966], [4.7877336, 48.5582455], [4.7882884, 48.5587794], [4.7880883, 48.5591193], [4.7881091, 48.5595769], [4.7880935, 48.5599071], [4.7879796, 48.5602111], [4.7882329, 48.560337], [4.7886747, 48.5601306], [4.789603, 48.5601007], [4.7914258, 48.5608396], [4.7919767, 48.560652], [4.7936025, 48.559491], [4.7933786, 48.5590126], [4.7929426, 48.5589283], [4.7924999, 48.5588427], [4.792417, 48.5583504], [4.7926651, 48.5570592], [4.7937648, 48.5554973], [4.7951006, 48.5551408], [4.7958277, 48.5540139], [4.7956486, 48.5538056], [4.7956656, 48.5535855], [4.7964135, 48.5533804], [4.7967254, 48.5529507], [4.7971178, 48.5518216], [4.7982115, 48.5518026], [4.7985894, 48.5529361], [4.7992248, 48.5532626], [4.7996662, 48.5532652], [4.802324, 48.5527915], [4.8026718, 48.5523502], [4.8029165, 48.5509664], [4.8033453, 48.5509621], [4.803724, 48.5518429], [4.8064748, 48.5525129], [4.8054837, 48.5533411], [4.8059818, 48.554401], [4.8042481, 48.5556266], [4.8014589, 48.5572923], [4.8003593, 48.5586823], [4.8010087, 48.5591454], [4.8023718, 48.559533], [4.8034452, 48.5599515], [4.8035746, 48.560417], [4.8034555, 48.5614356], [4.8032355, 48.5617764], [4.8026884, 48.5620817], [4.8018622, 48.5621918], [4.801771, 48.5623658], [4.8021734, 48.5625717], [4.8024952, 48.5626214], [4.803772, 48.5631397], [4.8047483, 48.5637894], [4.8050219, 48.5642899], [4.8050433, 48.5650319], [4.8051077, 48.5651206], [4.8051345, 48.5654437], [4.8053008, 48.565433], [4.8053813, 48.5646094], [4.805038, 48.5628983], [4.8048878, 48.562522], [4.8053437, 48.56238], [4.8048234, 48.5615279], [4.80492, 48.5610806], [4.8047376, 48.5609208], [4.8047376, 48.5607291], [4.8049682, 48.5607078], [4.8053384, 48.5601362], [4.8053867, 48.5599303], [4.8055554, 48.5598774], [4.8062852, 48.5601822], [4.8072386, 48.5600184], [4.8084301, 48.5594831], [4.8087431, 48.5585839], [4.8106501, 48.5578336], [4.8117634, 48.5577204], [4.8126365, 48.5572412], [4.8132678, 48.5562881], [4.8137836, 48.5555703], [4.8138101, 48.5553614], [4.8137096, 48.5550394], [4.8135915, 48.5549151], [4.8135969, 48.5546914], [4.8137391, 48.5544837], [4.8138303, 48.5547571], [4.8138571, 48.5551512], [4.8139143, 48.5554039], [4.8140597, 48.5555948], [4.8142221, 48.5560186], [4.8147, 48.5564897], [4.8156565, 48.5566968], [4.8165343, 48.5570629], [4.8175679, 48.557057], [4.8179657, 48.5571071], [4.8185244, 48.5572618], [4.818526, 48.5575271], [4.8179712, 48.5580041], [4.8178158, 48.5586909], [4.8171019, 48.559223], [4.8163092, 48.5597568], [4.8162351, 48.5606015], [4.8158387, 48.5608684], [4.8147268, 48.5614561], [4.8142525, 48.5618819], [4.8125841, 48.5625239], [4.8113138, 48.5630586], [4.8113169, 48.5636949], [4.8120369, 48.5643769], [4.8136333, 48.5652136], [4.8148287, 48.565418], [4.8151461, 48.5654158], [4.8156246, 48.5655205], [4.8167403, 48.5657782], [4.8171406, 48.5662509], [4.817466, 48.5671997], [4.8199341, 48.5675032], [4.8215243, 48.567335], [4.8227955, 48.5668001], [4.8224715, 48.5659031], [4.8220816, 48.5652389], [4.8224914, 48.5652528], [4.8226248, 48.5651916], [4.823745, 48.5657909], [4.8250232, 48.5665757], [4.8254261, 48.5673677], [4.8251179, 48.5692696], [4.8252811, 48.5697968], [4.8259991, 48.570164], [4.8269526, 48.5698404], [4.8282993, 48.5689352], [4.8290052, 48.567135], [4.8289971, 48.5657614], [4.8285928, 48.5647086], [4.8284296, 48.5641814], [4.8288243, 48.5636514], [4.8293003, 48.5632794], [4.8304079, 48.5623747], [4.8314409, 48.5621573], [4.8316025, 48.5625271], [4.8312119, 48.5636371], [4.8306596, 48.5645909], [4.8307199, 48.5649674], [4.8300302, 48.5657036], [4.8302603, 48.5658045], [4.8307531, 48.5659627], [4.830753, 48.5667564], [4.8310345, 48.567578], [4.8312386, 48.5680211], [4.8315562, 48.5679672], [4.831955, 48.5680712], [4.8336232, 48.5675863], [4.8358501, 48.5675214], [4.8361701, 48.5675708], [4.8373699, 48.5685708], [4.8382462, 48.5688806], [4.8392014, 48.5688244], [4.8409482, 48.5682321], [4.8409449, 48.5677577], [4.8411812, 48.5673862], [4.8418205, 48.5679641], [4.8426163, 48.5680641], [4.8434106, 48.5678495], [4.8438117, 48.5676631], [4.844155, 48.5680748], [4.8444554, 48.5683237], [4.8449288, 48.5686335], [4.845207, 48.5687352], [4.8450196, 48.5692872], [4.8452409, 48.569323], [4.8454258, 48.5687933], [4.8460448, 48.5689966], [4.8469975, 48.5687808], [4.8471143, 48.5686569], [4.8481979, 48.5683286], [4.8482867, 48.5674129], [4.8484774, 48.5671964], [4.8484149, 48.5664143], [4.8487633, 48.5672896], [4.8492321, 48.5676666], [4.8506211, 48.567253], [4.8509735, 48.5665655], [4.8507214, 48.5654806], [4.8504746, 48.565323], [4.8497772, 48.5648224], [4.8491228, 48.5647017], [4.8488312, 48.5644422], [4.8498465, 48.563948], [4.8508133, 48.5644614], [4.8518503, 48.5652221], [4.8523688, 48.5658817], [4.8529456, 48.5662127], [4.853678, 48.5664331], [4.8539454, 48.5666294], [4.8532668, 48.5668357], [4.8530012, 48.5672151], [4.8523187, 48.5677298], [4.8518464, 48.5681962], [4.849906, 48.569061], [4.8492257, 48.5697138], [4.8484854, 48.570111], [4.8480231, 48.5704915], [4.8468509, 48.5707055], [4.8468029, 48.5705643], [4.8458773, 48.5704915], [4.8449546, 48.5702998], [4.8451038, 48.5697889], [4.8452319, 48.5693467], [4.8450101, 48.5693114], [4.8448727, 48.5697282], [4.8443645, 48.5698881], [4.843871, 48.5702146], [4.8433453, 48.5705341], [4.8429016, 48.5703366], [4.840529, 48.5710239], [4.8387676, 48.5712453], [4.8387265, 48.5716309], [4.8397056, 48.5722308], [4.8410995, 48.5723913], [4.8430934, 48.5716143], [4.8453889, 48.5721471], [4.8477524, 48.5731863], [4.8492461, 48.5740126], [4.8492622, 48.5747225], [4.8495251, 48.5750455], [4.8499328, 48.5752034], [4.8506087, 48.5752637], [4.8511156, 48.5752052], [4.8511356, 48.5752914], [4.8511559, 48.5753791], [4.8498362, 48.5753454], [4.8494285, 48.5752194], [4.8492998, 48.5754785], [4.8497558, 48.5761741], [4.8501635, 48.5770969], [4.8497413, 48.5771787], [4.8495519, 48.577285], [4.8491764, 48.5770046], [4.8490423, 48.5764794], [4.8486775, 48.5756808], [4.8478372, 48.5740431], [4.8450155, 48.5729343], [4.8433408, 48.5731218], [4.8427464, 48.5745216], [4.8386994, 48.5754487], [4.8374977, 48.5740431], [4.836161, 48.5748929], [4.8339444, 48.5745074], [4.8355615, 48.5729171], [4.8366497, 48.5720622], [4.8371075, 48.5711351], [4.8352888, 48.5698402], [4.8353287, 48.5706735], [4.8351452, 48.5720939], [4.8339437, 48.5732008], [4.8316126, 48.5743337], [4.8311713, 48.5755908], [4.8296866, 48.5760381], [4.8279147, 48.5757426], [4.8276241, 48.5758476], [4.8272268, 48.57544], [4.8261155, 48.5758142], [4.8240505, 48.5766175], [4.8215064, 48.5770015], [4.819357, 48.5771207], [4.8187217, 48.5772285], [4.8181636, 48.5772852], [4.8184914, 48.5787623], [4.8189708, 48.5789186], [4.8197715, 48.5796528], [4.8202523, 48.5800722], [4.8208915, 48.5805961], [4.821847, 48.5803805], [4.8220826, 48.580063], [4.8222387, 48.5794279], [4.8224743, 48.5790565], [4.8231105, 48.578843], [4.8248538, 48.5777766], [4.8266833, 48.5772907], [4.8271017, 48.5772886], [4.8267847, 48.5783498], [4.8263384, 48.5795239], [4.8250186, 48.5808018], [4.8248514, 48.5825546], [4.8251288, 48.584017], [4.8177868, 48.5848288], [4.8161719, 48.5846461], [4.8161381, 48.5840046], [4.8158844, 48.5831823], [4.8151248, 48.5828091], [4.8160109, 48.5822176], [4.8162054, 48.5822615], [4.8170008, 48.5820987], [4.8174761, 48.5817785], [4.8170773, 48.5815687], [4.8163607, 48.5815725], [4.8161999, 48.5814162], [4.8166745, 48.5808846], [4.8165097, 48.5801461], [4.8158721, 48.5799908], [4.8144885, 48.5791841], [4.8119588, 48.5780581], [4.8113172, 48.5774801], [4.8104469, 48.5765265], [4.8085441, 48.5768555], [4.8075681, 48.5762341], [4.8078715, 48.5757252], [4.807802, 48.5755654], [4.807755, 48.5753435], [4.8080271, 48.5753117], [4.8085317, 48.5751939], [4.8085512, 48.5747431], [4.8080083, 48.5746375], [4.807812, 48.5742841], [4.8083465, 48.5742122], [4.8092455, 48.5742542], [4.8103173, 48.5741711], [4.8114033, 48.5743867], [4.8115318, 48.5742739], [4.8124555, 48.5738903], [4.8130535, 48.573282], [4.8133783, 48.5725602], [4.8138091, 48.5721959], [4.8140688, 48.5720106], [4.8148752, 48.5719937], [4.8165741, 48.5718997], [4.8177271, 48.5716372], [4.8176036, 48.570927], [4.8156772, 48.570014], [4.8149696, 48.5702495], [4.814273, 48.5706393], [4.812991, 48.5710412], [4.8123296, 48.5711166], [4.8106373, 48.571026], [4.8092671, 48.5708507], [4.8072542, 48.5709539], [4.8061157, 48.5706524], [4.8041335, 48.569835], [4.8037189, 48.569252], [4.8035064, 48.569455], [4.8034018, 48.5697017], [4.8031551, 48.5697372], [4.8032999, 48.5694231], [4.8041314, 48.567744], [4.8041207, 48.5676624], [4.804008, 48.5676393], [4.8039088, 48.5676943], [4.803426, 48.5686208], [4.8031202, 48.5693387], [4.8027568, 48.5692819], [4.8026428, 48.5694949], [4.8027487, 48.5695615], [4.8026361, 48.5699324], [4.8025422, 48.5700096], [4.8024818, 48.5701348], [4.8023933, 48.5702457], [4.8020433, 48.5704995], [4.8017925, 48.5708127], [4.8015882, 48.5709119], [4.8014903, 48.570917], [4.801268, 48.5715815], [4.8012993, 48.5716015], [4.8010777, 48.5717782], [4.801016, 48.5718696], [4.8010348, 48.5719193], [4.8011126, 48.5719406], [4.8011836, 48.5719122], [4.8013741, 48.5717507], [4.8014509, 48.5716985], [4.8022838, 48.572601], [4.8026926, 48.5732509], [4.8041285, 48.5737179], [4.8043969, 48.57386], [4.8047403, 48.5740445], [4.8050246, 48.5743604], [4.8060438, 48.5758973], [4.8057702, 48.5766284], [4.8057863, 48.5767988], [4.8061565, 48.5773808], [4.8065159, 48.5778316], [4.8068002, 48.5781723], [4.8071542, 48.5787153], [4.8075512, 48.5789318], [4.8082057, 48.5794429], [4.8083398, 48.579638], [4.8083773, 48.5801385], [4.8081896, 48.5804579], [4.8078453, 48.5821198], [4.8075531, 48.5824565], [4.8072608, 48.5825625], [4.8065632, 48.5825501], [4.8057997, 48.5826187], [4.8052152, 48.5827122], [4.8047816, 48.5828307], [4.8042443, 48.5829928], [4.8039062, 48.5832746], [4.8040369, 48.583342], [4.8044328, 48.5831175], [4.8048099, 48.5830053], [4.8051775, 48.5829118], [4.8057148, 48.5828057], [4.8063464, 48.5827371], [4.80711, 48.5827371], [4.808007, 48.5842866], [4.8082593, 48.5843225], [4.8083787, 48.5841885], [4.8085664, 48.5842879], [4.8083894, 48.5845674], [4.8083773, 48.584633], [4.8084068, 48.5847483], [4.808526, 48.5849238], [4.8088676, 48.5849273], [4.8089295, 48.5850938], [4.8080621, 48.5852939], [4.8078359, 48.5854934], [4.8077133, 48.5857865], [4.8077322, 48.5860297], [4.8079678, 48.5862168], [4.8084486, 48.5863041], [4.8090908, 48.5863224], [4.8090413, 48.5864108], [4.8085919, 48.5865084], [4.8085329, 48.5866246], [4.8085771, 48.5867408], [4.808667, 48.5868029], [4.8086831, 48.5868633], [4.8088092, 48.5870176], [4.8090854, 48.5873121], [4.8092718, 48.5875117], [4.8093671, 48.5876963], [4.8093644, 48.5877885], [4.8091967, 48.5879278], [4.8091283, 48.5880422], [4.8090117, 48.588052], [4.8089781, 48.5881274], [4.8090653, 48.5881957], [4.8090734, 48.5882543], [4.8090385, 48.5883093], [4.8089822, 48.588303], [4.8089057, 48.5883199], [4.8089138, 48.5883634], [4.8088655, 48.5883891], [4.808962, 48.5885355], [4.8090465, 48.5886029], [4.8090747, 48.5887191], [4.8091646, 48.588743], [4.8092128, 48.5887936], [4.8091806, 48.5889045], [4.8092102, 48.5889684], [4.8091941, 48.5890163], [4.8091163, 48.5889684], [4.809064, 48.5889666], [4.8090573, 48.5890207], [4.8091619, 48.5890863], [4.8090117, 48.589105], [4.8088373, 48.58916], [4.8088413, 48.5892575], [4.8089232, 48.5893871], [4.8088963, 48.5894749], [4.8087756, 48.5896372], [4.808836, 48.589733], [4.8090492, 48.5897073], [4.8092397, 48.5896266], [4.8092987, 48.5896452], [4.8087957, 48.5899344], [4.8075968, 48.5906316], [4.8063093, 48.5913927], [4.8048368, 48.5922895], [4.8047832, 48.59227], [4.8049387, 48.5921405], [4.8048985, 48.592113], [4.8048328, 48.5921591], [4.8047523, 48.5921937], [4.8046001, 48.5922004], [4.8045376, 48.5922032], [4.8041582, 48.5921822], [4.8039919, 48.5919267], [4.8035896, 48.5914761], [4.8034716, 48.5911638], [4.8031604, 48.5909687], [4.8032999, 48.5908268], [4.8030987, 48.5905766], [4.8026964, 48.5905802], [4.8024818, 48.5904808], [4.802286, 48.5905003], [4.8021948, 48.5903939], [4.8019212, 48.5904098], [4.8013982, 48.5904684], [4.8011193, 48.5903957], [4.8008859, 48.5905198], [4.8001242, 48.5905873], [4.8000866, 48.59055], [4.7999525, 48.5905873], [4.7997943, 48.590676], [4.7996159, 48.5907993], [4.799355, 48.5908764], [4.7990318, 48.5909514], [4.7989628, 48.5909425], [4.7990231, 48.5908866], [4.7991586, 48.5908303], [4.7989762, 48.5907576], [4.7991827, 48.5906582], [4.7993919, 48.5902378], [4.7992283, 48.5900586], [4.7993007, 48.5898865], [4.7994992, 48.5898528], [4.7997138, 48.589835], [4.799695, 48.5897925], [4.7995475, 48.5897729], [4.7995019, 48.5897055], [4.799062, 48.5896328], [4.7989601, 48.5896612], [4.7988903, 48.58978], [4.7985765, 48.589757], [4.798606, 48.589631], [4.7985363, 48.5896346], [4.7985202, 48.5896807], [4.7983968, 48.589741], [4.7983083, 48.5897357], [4.7981796, 48.5898333], [4.7981465, 48.5898862], [4.7966695, 48.5905677], [4.7965568, 48.5907806], [4.7961813, 48.5909793], [4.7957361, 48.5910893], [4.7952533, 48.5911284], [4.794587, 48.5910662], [4.7945827, 48.5908897], [4.7945532, 48.5907247], [4.794458, 48.5905979], [4.7944203, 48.5905807], [4.7942904, 48.5905216], [4.7941992, 48.5904586], [4.7940396, 48.590495], [4.7940347, 48.5905304], [4.7940235, 48.5906112], [4.7939591, 48.5906804], [4.7937781, 48.5906884], [4.7933972, 48.590479], [4.7929949, 48.5904045], [4.7924691, 48.5903123], [4.7920561, 48.5903407], [4.7917288, 48.5902449], [4.7922063, 48.5900107], [4.792335, 48.5897587], [4.7921205, 48.5895884], [4.7921097, 48.5894926], [4.7929627, 48.5894997], [4.7931343, 48.5890562], [4.7928983, 48.5886339], [4.7922867, 48.5884601], [4.792276, 48.5883146], [4.7915626, 48.5881549], [4.791643, 48.5881088], [4.7922336, 48.5881385], [4.7926677, 48.5880833], [4.7930592, 48.5877241], [4.793857, 48.5878244], [4.7945737, 48.5877151], [4.7954467, 48.5871821], [4.7960055, 48.5873369], [4.7984732, 48.5870585], [4.7988692, 48.5866883], [4.7988677, 48.586423], [4.7988907, 48.5863191], [4.7991765, 48.5850518], [4.7980035, 48.5848986], [4.7977043, 48.5842505], [4.7978557, 48.5836515], [4.7958088, 48.5820887], [4.795963, 48.5815504], [4.794961, 48.5812137], [4.7935862, 48.5805879], [4.7922712, 48.5793066], [4.7942358, 48.5791467], [4.7959939, 48.5783974], [4.7959237, 48.5769104], [4.7929004, 48.5774498], [4.7913948, 48.5778386], [4.7908152, 48.5788601], [4.7894075, 48.5794244], [4.7874848, 48.580476], [4.7864603, 48.5815697], [4.7849178, 48.5830878], [4.7840801, 48.5843552], [4.7834362, 48.584011], [4.7830475, 48.5833648], [4.7821951, 48.5826224], [4.7821895, 48.5817097], [4.7815491, 48.5811316], [4.7799526, 48.5804001], [4.7797497, 48.5800468], [4.7798227, 48.5799418], [4.7803473, 48.5797646], [4.7809054, 48.5797621], [4.7816199, 48.5792819], [4.7812986, 48.5788614], [4.7800208, 48.57813], [4.7792205, 48.5774473], [4.7790592, 48.5770257], [4.7793756, 48.5766009], [4.7798534, 48.5764921], [4.7804903, 48.5764363], [4.7807299, 48.5765415], [4.781764, 48.5763223], [4.7821622, 48.5762691], [4.7837544, 48.576207], [4.7837529, 48.5759417], [4.7836728, 48.575732], [4.7836699, 48.5752554], [4.7843055, 48.5748825], [4.7854201, 48.5747718], [4.785578, 48.5744537], [4.7852588, 48.5743502], [4.7847803, 48.5743511], [4.7840612, 48.5738286], [4.7837076, 48.5728331], [4.7832337, 48.5734626], [4.7829591, 48.5739349], [4.7826176, 48.5740606], [4.7820447, 48.574446], [4.781824, 48.5743938], [4.78168, 48.5743295], [4.7814102, 48.5743234], [4.780819, 48.5743834], [4.7805155, 48.5744199], [4.7802081, 48.574472], [4.7800426, 48.5745216], [4.7799677, 48.5746363], [4.7798928, 48.5746807], [4.7798061, 48.5747122], [4.7795263, 48.5746781], [4.7792622, 48.5746885], [4.7789784, 48.5747667], [4.7784661, 48.5749884], [4.7781547, 48.5751605], [4.7780404, 48.5752439], [4.7778788, 48.5753326], [4.777465, 48.5754369], [4.7773389, 48.5755255], [4.7772616, 48.5756581], [4.7770709, 48.575815], [4.7769208, 48.5760337], [4.7768265, 48.5763131], [4.7767326, 48.5766109], [4.7765703, 48.5769467], [4.7762472, 48.5774682], [4.7761053, 48.5776168], [4.7760304, 48.5776899], [4.77592, 48.5778541], [4.7758865, 48.5779279], [4.7759628, 48.5791018], [4.7760437, 48.5794194], [4.7767636, 48.5800476], [4.7768459, 48.5805765], [4.7763696, 48.5808966], [4.7755746, 48.5812705], [4.7754969, 48.5816926], [4.7759776, 48.5820604], [4.7769344, 48.5822678], [4.7774148, 48.582793], [4.777489, 48.5830858], [4.77754, 48.5833892], [4.7774461, 48.5835098], [4.777481, 48.5836305], [4.7775534, 48.5838062], [4.7774756, 48.5839659], [4.7774729, 48.5841149], [4.7775963, 48.5842036], [4.7775909, 48.5843473], [4.7777304, 48.5844219], [4.7780228, 48.5848672], [4.7781193, 48.5851085], [4.7780871, 48.5855787], [4.7779852, 48.585946], [4.7776097, 48.5865368], [4.7773308, 48.5868473], [4.7770277, 48.5869573], [4.7769311, 48.5868899], [4.7767433, 48.5869715], [4.7767112, 48.5871152], [4.7768936, 48.587117], [4.7770572, 48.5872305], [4.7770706, 48.5874009], [4.7769016, 48.5876138], [4.7766012, 48.5876794], [4.7765663, 48.5878072], [4.7761184, 48.5878213], [4.7760513, 48.5882205], [4.7761318, 48.5884015], [4.7760057, 48.5885984], [4.7762445, 48.5888131], [4.776341, 48.589003], [4.7762096, 48.5893117], [4.7764617, 48.5895334], [4.7764698, 48.5896966], [4.7760755, 48.5899024], [4.7759923, 48.5900142], [4.7761694, 48.5901703], [4.7765261, 48.5902768], [4.7764805, 48.5903619], [4.7762793, 48.590621], [4.7756517, 48.5907274], [4.7755417, 48.5908587], [4.7753513, 48.5908356], [4.7752413, 48.5906405], [4.7749972, 48.5907345], [4.7747317, 48.5907327], [4.7746754, 48.5905855], [4.7742408, 48.5905802], [4.7739083, 48.590644], [4.7736669, 48.5908037], [4.77375, 48.5911159], [4.7735757, 48.5911727], [4.7735918, 48.5912969], [4.7738573, 48.5913625], [4.7742623, 48.5913537], [4.7743937, 48.5914708], [4.774662, 48.5914619], [4.7756007, 48.5913625], [4.7760835, 48.5910911], [4.776561, 48.591068], [4.7770116, 48.5909545], [4.7774354, 48.5907203], [4.7777814, 48.5903069], [4.7782105, 48.5898102], [4.7785136, 48.5896825], [4.7792619, 48.5895529], [4.7794551, 48.5893383], [4.7796884, 48.5893933], [4.7801766, 48.589301], [4.7806111, 48.5891307], [4.7807533, 48.5888823], [4.7813246, 48.5887936], [4.7821319, 48.588618], [4.7824591, 48.5884973], [4.7825852, 48.5882649], [4.7829339, 48.5881176], [4.783245, 48.5881265], [4.7835857, 48.5882418], [4.7839692, 48.5882294], [4.7842804, 48.5884743], [4.78457, 48.5885115], [4.784621, 48.5887563], [4.7849348, 48.5891041], [4.785182, 48.5896162], [4.7857458, 48.590722], [4.7863083, 48.5914591], [4.7871132, 48.5928274], [4.7876743, 48.5933532], [4.7879964, 48.5938794], [4.7865679, 48.5948915], [4.785615, 48.5954238], [4.78498, 48.5958507], [4.7849031, 48.5964323], [4.7857032, 48.5968497], [4.7868183, 48.596685], [4.7872165, 48.5966296], [4.787695, 48.5967321], [4.7884915, 48.5966751], [4.7899222, 48.5960339], [4.7910022, 48.5955012], [4.791136, 48.5953568], [4.7915321, 48.5955969], [4.7908627, 48.5961605], [4.7914034, 48.5972938], [4.7916952, 48.5983872], [4.7916221, 48.5991009], [4.7912901, 48.5995755], [4.7892586, 48.5998447], [4.7875588, 48.6002812], [4.7869652, 48.6010303], [4.7835749, 48.6013709], [4.7825999, 48.6018926], [4.78007, 48.6020607], [4.7787599, 48.6027951], [4.7760857, 48.6037063], [4.7736065, 48.6045783], [4.7728591, 48.6046613], [4.7723358, 48.6046597], [4.7702567, 48.6041741], [4.768061, 48.6035806], [4.7675183, 48.6035446], [4.7669044, 48.603576], [4.7666306, 48.6036256], [4.7662478, 48.6037052], [4.7658252, 48.6038437], [4.7653675, 48.6040489], [4.7650909, 48.6042442], [4.764158, 48.6051849], [4.7634984, 48.6058238], [4.7628781, 48.6063394], [4.762342, 48.6066425], [4.7617666, 48.6069024], [4.7608996, 48.6071521], [4.7599149, 48.607388], [4.7582608, 48.6077848], [4.7573142, 48.6079936], [4.7564128, 48.6082266], [4.7562665, 48.6081875], [4.7559344, 48.607584], [4.7556443, 48.6072855], [4.7554106, 48.6070928], [4.7550277, 48.606882], [4.7522683, 48.6057987], [4.752209, 48.6058149], [4.7517151, 48.6056073], [4.7513274, 48.6053633], [4.751081, 48.6051342], [4.7513233, 48.6049879], [4.7512386, 48.604682], [4.751313, 48.6040348], [4.7515833, 48.603404], [4.7516846, 48.6026854], [4.7519136, 48.6026332], [4.7518549, 48.6025452], [4.7516443, 48.6023569], [4.7515687, 48.6023397], [4.7515003, 48.6023085], [4.7514814, 48.6022726], [4.7513257, 48.6022383], [4.7513044, 48.6022164], [4.751262, 48.6022118], [4.7512077, 48.60214], [4.7511959, 48.6021119], [4.7511558, 48.6020619], [4.7511038, 48.6020276], [4.7510543, 48.6020229], [4.7508796, 48.6018981], [4.7507074, 48.6018856], [4.7506295, 48.6018263], [4.7504596, 48.6018045], [4.7504265, 48.6017842], [4.7504737, 48.6017249], [4.7504714, 48.6016827], [4.7504289, 48.6016593], [4.7503369, 48.6016531], [4.7502047, 48.6016562], [4.7501504, 48.6016749], [4.7500938, 48.6017467], [4.7499593, 48.6016843], [4.7498507, 48.601639], [4.7497351, 48.6016172], [4.7495864, 48.6016016], [4.7494802, 48.6016047], [4.7494212, 48.6016063], [4.7492678, 48.6015782], [4.7491663, 48.601561], [4.7491238, 48.6015376], [4.7490365, 48.6015001], [4.7489185, 48.601458], [4.7488501, 48.6014081], [4.7487864, 48.6013113], [4.7487368, 48.601238], [4.7487156, 48.6011911], [4.7488082, 48.6010608], [4.7490424, 48.600856], [4.7490804, 48.6007883], [4.7490126, 48.600207], [4.7490598, 48.6001485], [4.7492544, 48.6001212], [4.7501807, 48.6001095], [4.7502456, 48.6000509], [4.7502309, 48.6000041], [4.7501866, 48.599969], [4.7475641, 48.5995242], [4.7474432, 48.5995184], [4.7473871, 48.5995301], [4.7473576, 48.5995632], [4.7473458, 48.5995984], [4.7476231, 48.5997369], [4.7483164, 48.6000373], [4.7484108, 48.6001329], [4.7484668, 48.6002499], [4.7484845, 48.6003865], [4.7484373, 48.6006186], [4.7482161, 48.6011044], [4.7482102, 48.6011688], [4.748163, 48.6012039], [4.7481305, 48.6012039], [4.748045, 48.6012663], [4.7479978, 48.6013443], [4.7478296, 48.6014243], [4.7476526, 48.6014887], [4.7475086, 48.6015321], [4.7474387, 48.6013683], [4.7474158, 48.6013147], [4.7474028, 48.6013159], [4.7468513, 48.6001512], [4.7468085, 48.6001629], [4.7473892, 48.6013747], [4.7470965, 48.6014458], [4.7468624, 48.6014845], [4.7466491, 48.6014882], [4.7463357, 48.6014745], [4.7455975, 48.6014146], [4.7455409, 48.6013984], [4.7455031, 48.6014108], [4.7451746, 48.6011686], [4.7447331, 48.6007959], [4.7446233, 48.6006639], [4.7444213, 48.6002556], [4.7442034, 48.5997817], [4.7441869, 48.5996741], [4.7442412, 48.599582], [4.7443521, 48.5995211], [4.7449917, 48.5993869], [4.745138, 48.5993697], [4.7452512, 48.5993822], [4.7454566, 48.5994478], [4.7455722, 48.5994493], [4.7459687, 48.5994103], [4.74603, 48.5993744], [4.7460418, 48.5993401], [4.745997, 48.5993089], [4.7452984, 48.5991762], [4.7444347, 48.5993728], [4.7442223, 48.5994165], [4.7440949, 48.5995086], [4.7440178, 48.5995955], [4.7439942, 48.5997314], [4.7440818, 48.5999291], [4.7444227, 48.6007048], [4.7445549, 48.6008758], [4.7447361, 48.6010281], [4.7454083, 48.60153], [4.7453269, 48.6015821], [4.7452818, 48.6017578], [4.745212, 48.6017933], [4.7405343, 48.6016656], [4.7328846, 48.6013818], [4.7327042, 48.6012113], [4.7323501, 48.6011297], [4.7316991, 48.6011263], [4.7309339, 48.6011048], [4.7301327, 48.6010554], [4.7294568, 48.6009915], [4.7291724, 48.6009144], [4.7288024, 48.6006579], [4.7282714, 48.6003186], [4.7277881, 48.5999635], [4.7273407, 48.5996833], [4.7264696, 48.5994032], [4.7252632, 48.5988892], [4.7242948, 48.5988011], [4.7235111, 48.5996075], [4.7230688, 48.5993186], [4.7225989, 48.5994123], [4.7224423, 48.5996688], [4.7221608, 48.5998011], [4.7219426, 48.5997871], [4.7218457, 48.5996145], [4.7215473, 48.599728], [4.7212565, 48.599728], [4.721167, 48.5996293], [4.7208836, 48.5997082], [4.7208164, 48.5999598], [4.720451, 48.6000387], [4.7199513, 48.6001225], [4.7196604, 48.6002705], [4.7191277, 48.6003458], [4.7185584, 48.6004586], [4.7182956, 48.6007513], [4.7180123, 48.6005999], [4.7178345, 48.600769], [4.7176521, 48.6007614], [4.7175818, 48.6008831], [4.7174718, 48.6009145], [4.7171993, 48.6007686], [4.7168637, 48.600744], [4.7165728, 48.600818], [4.7165579, 48.6009511], [4.7161179, 48.6011583], [4.7157226, 48.6012618], [4.7153497, 48.6014443], [4.7150887, 48.6015873], [4.7152527, 48.6018389], [4.7150904, 48.60212], [4.7152229, 48.6023567], [4.7153422, 48.6028104], [4.7152229, 48.6029781], [4.7147456, 48.6028894], [4.713873, 48.6027167], [4.7132838, 48.6028499], [4.7127021, 48.602771], [4.7125082, 48.602697], [4.7121576, 48.6028351], [4.7120756, 48.6030127], [4.7117922, 48.6030274], [4.7116952, 48.603131], [4.7094056, 48.6020953], [4.7091568, 48.6019792], [4.7090438, 48.6018896], [4.7087178, 48.6014534], [4.7085064, 48.6008938], [4.7090113, 48.600293], [4.7088447, 48.5999477], [4.7085831, 48.5997594], [4.7081323, 48.599937], [4.7073974, 48.5993979], [4.7070906, 48.5994607], [4.7069775, 48.5990928], [4.7086627, 48.5981877], [4.7115031, 48.5963431], [4.711196, 48.5958015], [4.7071529, 48.5957846], [4.7050801, 48.5965292], [4.7048242, 48.5970031], [4.7029571, 48.5976208], [4.702486, 48.5965062], [4.7020136, 48.5965763], [4.7017708, 48.5964239], [4.7013813, 48.5961048], [4.7007327, 48.5954415], [4.7011361, 48.5952071], [4.7004193, 48.595078], [4.7001991, 48.594913], [4.7006579, 48.5945647], [4.7005392, 48.5942405], [4.6997707, 48.5934865], [4.6999641, 48.5931324], [4.6997395, 48.5924161], [4.6997632, 48.5916662], [4.6988571, 48.5918859], [4.6989525, 48.5926103], [4.6991059, 48.5931809], [4.6992498, 48.5937761], [4.699324, 48.594348], [4.6993943, 48.5945534], [4.6989535, 48.5944938], [4.6982691, 48.5942758], [4.6987736, 48.5939313], [4.6985782, 48.5935429], [4.6982744, 48.5931721], [4.6980842, 48.5925108], [4.6980874, 48.5918298], [4.6975072, 48.5912697], [4.6979506, 48.591192], [4.6982537, 48.591194], [4.6985288, 48.5912374], [4.6987566, 48.5912533], [4.699032, 48.5912312], [4.6994039, 48.5911341], [4.6997289, 48.5910121], [4.6998071, 48.5909294], [4.6999385, 48.590673], [4.7000602, 48.5905263], [4.7003139, 48.5903465], [4.7005884, 48.5901935], [4.7009854, 48.5900508], [4.7014502, 48.5898625], [4.7018823, 48.5896663], [4.7022887, 48.589534], [4.7024821, 48.5894767], [4.7025606, 48.5894182], [4.7025699, 48.5892901], [4.7025949, 48.5891392], [4.702645, 48.58898], [4.7026168, 48.5889035], [4.7024849, 48.5886577], [4.7024262, 48.5884983], [4.7024479, 48.5883457], [4.7025293, 48.5881964], [4.7027512, 48.5880166], [4.7030623, 48.5878204], [4.7033363, 48.5877605], [4.7035087, 48.5877371], [4.7036501, 48.5877547], [4.7038334, 48.5878198], [4.7040249, 48.5878342], [4.7045137, 48.5878015], [4.7046422, 48.5876631], [4.704735, 48.587231], [4.7048267, 48.5869995], [4.7049941, 48.5867715], [4.7052799, 48.5863566], [4.7054331, 48.586156], [4.7056236, 48.5859902], [4.7057206, 48.585786], [4.7057568, 48.5855203], [4.7058556, 48.5851684], [4.7058214, 48.5848233], [4.7058267, 48.5845472], [4.7059711, 48.5843482], [4.7062802, 48.5841663], [4.7093336, 48.5828815], [4.7095348, 48.5829473], [4.7097513, 48.5832215], [4.7099386, 48.5836599], [4.7099594, 48.5839233], [4.7100478, 48.5840482], [4.710238, 48.584181], [4.7103214, 48.5843588], [4.7102913, 48.5844575], [4.7101759, 48.584613], [4.7101289, 48.5847799], [4.7101545, 48.5848732], [4.71025, 48.5849111], [4.7104709, 48.5849213], [4.7109241, 48.5849468], [4.7111764, 48.5849468], [4.711279, 48.5849185], [4.711326, 48.5848647], [4.7112511, 48.5847409], [4.7111254, 48.5844682], [4.7110096, 48.5841859], [4.7109626, 48.584036], [4.7109983, 48.5839019], [4.7110155, 48.5837773], [4.7109531, 48.5836509], [4.7108926, 48.5835969], [4.7107868, 48.5834689], [4.7106785, 48.5833193], [4.7105419, 48.5829989], [4.710427, 48.5827389], [4.7103515, 48.5825229], [4.7103303, 48.5823309], [4.7102073, 48.5819357], [4.7113281, 48.5817918], [4.7114096, 48.5817949], [4.7114882, 48.5818269], [4.7115577, 48.5819069], [4.7117996, 48.5822889], [4.7121715, 48.5830809], [4.7126068, 48.5839089], [4.7127538, 48.5841765], [4.7128457, 48.5843729], [4.712888, 48.5844549], [4.7129243, 48.5844849], [4.7130301, 48.5844849], [4.7135479, 48.5843771], [4.7139038, 48.5843309], [4.7143306, 48.5843114], [4.714705, 48.5842769], [4.7149196, 48.5842649], [4.7151244, 48.5842872], [4.7154457, 48.5844089], [4.7157251, 48.5845118], [4.7170367, 48.5851555], [4.717306, 48.5852801], [4.717441, 48.5852889], [4.7177524, 48.5852349], [4.7179278, 48.5851527], [4.7181876, 48.5849724], [4.7184656, 48.5847969], [4.7185294, 48.5847069], [4.7185808, 48.5845869], [4.7186413, 48.5845289], [4.7187999, 48.5844757], [4.7190424, 48.584405], [4.7192782, 48.584409], [4.7195007, 48.584465], [4.7197136, 48.584563], [4.7200159, 48.584767], [4.720287, 48.5850947], [4.720421, 48.585203], [4.7206659, 48.585335], [4.7211894, 48.585622], [4.7215748, 48.5858621], [4.7217936, 48.586017], [4.7219886, 48.5862371], [4.7222471, 48.5866069], [4.722484, 48.5869866], [4.7225434, 48.5872269], [4.7225948, 48.5875988], [4.7226128, 48.5880656], [4.7225494, 48.5883028], [4.7225198, 48.5884881], [4.7225313, 48.5886287], [4.7225917, 48.5887107], [4.7227157, 48.5887687], [4.722882, 48.5887827], [4.7230845, 48.5887347], [4.7232448, 48.5886267], [4.7233765, 48.5884765], [4.7235028, 48.5882176], [4.7235985, 48.5880228], [4.7237013, 48.5878368], [4.7237535, 48.5876272], [4.7237738, 48.5873769], [4.7237336, 48.5871316], [4.7236175, 48.5868596], [4.7234534, 48.5865469], [4.7233808, 48.5864809], [4.7232901, 48.586201], [4.7232629, 48.586027], [4.7231503, 48.5857807], [4.723193, 48.5854591], [4.7231291, 48.5851088], [4.7230201, 48.5848007], [4.7228569, 48.5844608], [4.7226776, 48.5842046], [4.7224209, 48.5838744], [4.7222582, 48.5836568], [4.7221857, 48.5835208], [4.7220406, 48.5834248], [4.7218402, 48.5833922], [4.7216173, 48.5833888], [4.7208071, 48.5834088], [4.7204866, 48.5834168], [4.7202341, 48.5834069], [4.7200194, 48.5833567], [4.7198569, 48.583286], [4.7196781, 48.5832518], [4.7194943, 48.5832519], [4.719181, 48.5833056], [4.7188829, 48.583429], [4.7185443, 48.583561], [4.7181521, 48.5836489], [4.7176192, 48.583757], [4.7173108, 48.583757], [4.716821, 48.583713], [4.7163675, 48.583641], [4.7158404, 48.5835023], [4.7156061, 48.5834609], [4.7154001, 48.583469], [4.7151159, 48.583453], [4.7149043, 48.583373], [4.714614, 48.583233], [4.7142656, 48.5829676], [4.7138711, 48.582641], [4.7135683, 48.5823574], [4.7133899, 48.5821214], [4.7132871, 48.5819754], [4.7132387, 48.5818374], [4.7132074, 48.5816883], [4.7131873, 48.5815174], [4.7132025, 48.5813954], [4.7132569, 48.5812494], [4.7133959, 48.5810234], [4.7135048, 48.5807854], [4.7136179, 48.5805843], [4.7137708, 48.5803513], [4.7138829, 48.5801947], [4.7139462, 48.5800733], [4.7139764, 48.5799093], [4.713925, 48.5797493], [4.7138111, 48.5796328], [4.7136106, 48.5795933], [4.7134161, 48.5796017], [4.7129116, 48.579684], [4.7127191, 48.5797279], [4.7126033, 48.5798008], [4.7125306, 48.5799016], [4.7124445, 48.5800521], [4.7123408, 48.5802213], [4.7121997, 48.5803789], [4.7120659, 48.5804673], [4.7119638, 48.5805537], [4.7118478, 48.5806596], [4.7117162, 48.5807566], [4.711594, 48.5807983], [4.7113931, 48.5807989], [4.7112113, 48.5807715], [4.711004, 48.5807233], [4.7108522, 48.5806569], [4.7107444, 48.5806134], [4.7106021, 48.5805834], [4.7104332, 48.5805975], [4.7103194, 48.5806377], [4.7102536, 48.5807092], [4.7101702, 48.5808478], [4.7101426, 48.5809201], [4.7101489, 48.5810317], [4.7101745, 48.5811844], [4.7102087, 48.5814461], [4.7103327, 48.5818364], [4.7101745, 48.5818562], [4.7100044, 48.5815419], [4.7099492, 48.5814745], [4.7098458, 48.5814797], [4.708938, 48.5816739], [4.7087062, 48.5817017], [4.7084399, 48.5817234], [4.7082732, 48.5817135], [4.7081342, 48.5816697], [4.707914, 48.5816527], [4.7076831, 48.5816866], [4.7075411, 48.5817323], [4.7074052, 48.5818168], [4.707247, 48.5818846], [4.7071594, 48.5819257], [4.7068986, 48.5820939], [4.706766, 48.5821293], [4.7066349, 48.582115], [4.7063748, 48.5821477], [4.7060795, 48.5821437], [4.7058596, 48.5821152], [4.705618, 48.5820685], [4.7052988, 48.5820691], [4.70509, 48.5820784], [4.7048842, 48.5821125], [4.7044054, 48.58222], [4.7040244, 48.5821254], [4.703609, 48.581707], [4.7033506, 48.5813397], [4.7030365, 48.5808603], [4.7027223, 48.5803562], [4.7027507, 48.5796025], [4.7028834, 48.5788669], [4.7032932, 48.5784517], [4.7039274, 48.5780631], [4.7038712, 48.5773947], [4.7042155, 48.5772349], [4.7044195, 48.5769341], [4.7043841, 48.5767504], [4.7043816, 48.5764537], [4.7040355, 48.5762942], [4.7040355, 48.5761818], [4.7041718, 48.5760667], [4.7046892, 48.5760833], [4.7047905, 48.5757395], [4.7045115, 48.5752842], [4.7040976, 48.5752183], [4.7038207, 48.5752193], [4.7034066, 48.5751287], [4.7030269, 48.5748799], [4.7027139, 48.5745152], [4.7024341, 48.573988], [4.7020307, 48.573679], [4.7017393, 48.5731227], [4.7020122, 48.572753], [4.702529, 48.572682], [4.703114, 48.5726568], [4.7035624, 48.5727018], [4.7040097, 48.5726277], [4.7043881, 48.5725122], [4.7045594, 48.5723289], [4.705038, 48.5719573], [4.7051353, 48.5709481], [4.7047217, 48.5709047], [4.7045148, 48.5708616], [4.7046959, 48.5705992], [4.7050348, 48.570541], [4.704861, 48.5703857], [4.7051118, 48.5701125], [4.7044653, 48.5696274], [4.7044704, 48.569601], [4.7044753, 48.569576], [4.705507, 48.569778], [4.7055592, 48.5697055], [4.7059198, 48.5692872], [4.706474, 48.5693904], [4.706638, 48.5691993], [4.7058639, 48.5689172], [4.7054116, 48.5685129], [4.7050812, 48.5679477], [4.7048362, 48.567422], [4.7051434, 48.5668942], [4.7055202, 48.5666865], [4.705898, 48.5665216], [4.7063118, 48.5665875], [4.7066567, 48.5667245], [4.7072759, 48.5667436], [4.7077928, 48.566695], [4.7081341, 48.5662115], [4.7084113, 48.5664398], [4.7089259, 48.566117], [4.7082736, 48.5657474], [4.708146, 48.565342], [4.7076616, 48.5648386], [4.707264, 48.5647495], [4.706955, 48.5649581], [4.7066459, 48.5650519], [4.7063351, 48.564939], [4.7057829, 48.564714], [4.7053679, 48.5644165], [4.705055, 48.5639596], [4.7048443, 48.5633657], [4.7046668, 48.5624969], [4.7050756, 48.5617828], [4.7057119, 48.5615068], [4.706265, 48.5612086], [4.7074444, 48.5606696], [4.7089924, 48.5606161], [4.7096468, 48.560612], [4.7103018, 48.5606776], [4.7109213, 48.5607438], [4.7111581, 48.5602152], [4.71143, 48.5595487], [4.7115302, 48.5591825], [4.7117909, 48.5590848], [4.7124845, 48.5590095], [4.7134324, 48.558903], [4.7141523, 48.5588153], [4.7151766, 48.5587023], [4.7155104, 48.558817], [4.7177572, 48.5592722], [4.7186273, 48.5579823], [4.7201599, 48.5564796], [4.7201851, 48.55627], [4.7201829, 48.555926], [4.7209375, 48.5554859], [4.7219001, 48.5552676], [4.7235489, 48.5549701], [4.7246165, 48.5549845], [4.7259922, 48.5548871], [4.727234, 48.5550643], [4.7300954, 48.5554543], [4.7323055, 48.556724], [4.7335393, 48.5571522], [4.735095, 48.5572751], [4.7362001, 48.5572165], [4.7372193, 48.5569335], [4.7394386, 48.5563164], [4.7409959, 48.5562703], [4.7437639, 48.5565568], [4.7465534, 48.5575495], [4.7491498, 48.5584769], [4.7520466, 48.5595172], [4.7547642, 48.5595271], [4.7551472, 48.5593496], [4.756027, 48.5590947], [4.7567994, 48.5587319], [4.7574646, 48.558347], [4.757553, 48.5582767], [4.7583337, 48.5577061], [4.7589881, 48.5572385], [4.7599966, 48.5568696], [4.7606707, 48.5566862], [4.7618527, 48.5563647], [4.7642345, 48.5557327], [4.7656314, 48.5554046], [4.766251, 48.5553115], [4.7661879, 48.5554732], [4.7667214, 48.5556511], [4.7670784, 48.5557268], [4.7673909, 48.555769], [4.7675725, 48.5557443], [4.7677049, 48.5557127], [4.7679019, 48.5556687], [4.7682806, 48.5555526], [4.7686416, 48.5554525], [4.7692848, 48.5553712], [4.7696332, 48.5553286], [4.7698534, 48.5553002], [4.7700482, 48.5552604], [4.7702735, 48.5552178], [4.77038, 48.5552039], [4.7705355, 48.5552073], [4.7706535, 48.5552183], [4.7708134, 48.5552393], [4.7708901, 48.5551716], [4.7709432, 48.5551045], [4.7709703, 48.5550157], [4.7709596, 48.554981], [4.7709854, 48.5549493], [4.7709896, 48.5549373], [4.7709974, 48.5549035], [4.7711397, 48.5547527], [4.7713328, 48.5546426], [4.7715046, 48.5545822], [4.7717353, 48.5545627], [4.7719167, 48.5545684], [4.7720542, 48.554593], [4.7723171, 48.5546674], [4.7724917, 48.5547171], [4.772609, 48.5547367], [4.7726714, 48.5547296], [4.7727411, 48.55471], [4.772784, 48.554694], [4.7728377, 48.554655], [4.7728618, 48.554623], [4.772894, 48.5545733], [4.7729101, 48.5545254], [4.7728967, 48.5544757], [4.7728638, 48.5544387], [4.7728153, 48.5543945], [4.7727167, 48.5543621], [4.7725827, 48.554355], [4.7724209, 48.5543587], [4.7722013, 48.5543551], [4.7720518, 48.5543532], [4.7718447, 48.5542965], [4.7717105, 48.5542239], [4.7716575, 48.5541224], [4.7716033, 48.5539414], [4.7715176, 48.5536787], [4.7714562, 48.5535223], [4.771456, 48.5534575], [4.7714558, 48.5533838], [4.7714964, 48.5532365], [4.7715447, 48.5530891], [4.7716169, 48.5529703], [4.7717511, 48.5528388], [4.7719819, 48.5526808], [4.7721483, 48.5526133], [4.7722959, 48.5525689], [4.772431, 48.5525573], [4.7725878, 48.5525726], [4.7727382, 48.5526008], [4.7728843, 48.5526317], [4.7729609, 48.5526648], [4.7731182, 48.5527238], [4.7729753, 48.552854], [4.7730933, 48.5529115], [4.7732223, 48.5529742], [4.7733492, 48.552868], [4.7735468, 48.5527244], [4.7736284, 48.5527518], [4.7737343, 48.5526461], [4.7745342, 48.552969], [4.7750338, 48.5532191], [4.775233, 48.5533352], [4.7752908, 48.5533979], [4.7753053, 48.553475], [4.7752764, 48.553581], [4.7752523, 48.5536244], [4.7751519, 48.5537277], [4.7754011, 48.5538262], [4.7755111, 48.5537279], [4.7757583, 48.5538268], [4.7760233, 48.5539858], [4.7760494, 48.5540199], [4.7761232, 48.5541166], [4.776192, 48.5542123], [4.7762643, 48.5543858], [4.776277, 48.5545197], [4.7762778, 48.5546341], [4.776262, 48.5547487], [4.7762359, 48.5548024], [4.7762037, 48.5548912], [4.7761851, 48.5549639], [4.776142, 48.5550439], [4.7760723, 48.5551309], [4.7759945, 48.5552053], [4.775823, 48.5553474], [4.7757206, 48.5554098], [4.7756911, 48.5554859], [4.7756986, 48.5555696], [4.775761, 48.5556387], [4.7758631, 48.5556795], [4.7760992, 48.5557237], [4.7766622, 48.5558764], [4.7768741, 48.5560699], [4.7770568, 48.5562191], [4.7774268, 48.5563026], [4.7780913, 48.5563881], [4.7784762, 48.5563616], [4.7788184, 48.5563953], [4.7790015, 48.5562797], [4.778934, 48.5561448], [4.7788232, 48.5560676], [4.7788087, 48.5559375], [4.7788135, 48.5558604], [4.7790063, 48.5557881], [4.7791894, 48.5557785], [4.7793629, 48.555711], [4.7795316, 48.5555231], [4.7796087, 48.5554026], [4.779628, 48.5552918], [4.7796491, 48.5551933], [4.7797736, 48.5550901], [4.7799128, 48.5549765], [4.780074, 48.5548877], [4.7802449, 48.5547709], [4.7805404, 48.5546568], [4.7806193, 48.554615], [4.7807269, 48.5545506], [4.7808559, 48.5542988], [4.781274, 48.553912], [4.7813004, 48.5538393], [4.7879745, 48.5553467], [4.7879048, 48.555432], [4.7878779, 48.5555349], [4.787953, 48.5556681], [4.7880872, 48.5558367], [4.7881542, 48.5559521], [4.788187, 48.5560321]]], [[[4.7457133, 48.6020268], [4.7456838, 48.6020737], [4.745734, 48.6022239], [4.7457251, 48.6023078], [4.7457074, 48.6025965], [4.7456543, 48.6027876], [4.7455599, 48.6031114], [4.7455015, 48.6031307], [4.7454832, 48.6031368], [4.745418, 48.6031676], [4.7454006, 48.6031758], [4.7454013, 48.603203], [4.7454252, 48.6032086], [4.7458032, 48.6032974], [4.7452156, 48.60424], [4.7448847, 48.6042148], [4.7448201, 48.6042358], [4.7448499, 48.6042587], [4.7456052, 48.6044742], [4.7454699, 48.6047361], [4.7436042, 48.6059808], [4.7425915, 48.6069685], [4.7415233, 48.6080226], [4.737689, 48.6105205], [4.7353743, 48.6114858], [4.7345014, 48.6113249], [4.7334649, 48.6110104], [4.7329695, 48.6114933], [4.7327129, 48.6116471], [4.7323957, 48.6117387], [4.7320314, 48.6117121], [4.7319353, 48.6116193], [4.7316754, 48.6115985], [4.7313864, 48.6115877], [4.7313317, 48.6113289], [4.7312596, 48.6113196], [4.7312623, 48.6113605], [4.7313005, 48.611377], [4.731334, 48.6115856], [4.7312472, 48.6115968], [4.7312215, 48.6116517], [4.7308836, 48.6116437], [4.7303941, 48.6115405], [4.7300274, 48.6113588], [4.7297632, 48.6111844], [4.7291743, 48.611075], [4.7280056, 48.6113695], [4.7268826, 48.6110987], [4.7263708, 48.6108449], [4.7205107, 48.6068349], [4.7181191, 48.6043446], [4.7197187, 48.6034074], [4.7203246, 48.6038595], [4.7209728, 48.6039607], [4.7229318, 48.6042702], [4.7236544, 48.6041756], [4.7243475, 48.6043968], [4.7248804, 48.6044036], [4.7255145, 48.6044814], [4.7264955, 48.6046737], [4.7265681, 48.6045673], [4.7256044, 48.6043943], [4.7251629, 48.6042641], [4.7246379, 48.6042444], [4.7243037, 48.6040195], [4.7240651, 48.6039485], [4.7238741, 48.6037591], [4.7237131, 48.6037117], [4.7232059, 48.6037472], [4.7230567, 48.6036407], [4.7224601, 48.6036604], [4.7223467, 48.6035855], [4.7221498, 48.6035855], [4.7220663, 48.6034711], [4.7218336, 48.6034], [4.7218754, 48.6033014], [4.7218694, 48.6031357], [4.7222095, 48.6031278], [4.7225377, 48.6029976], [4.7226928, 48.602824], [4.7231224, 48.6027372], [4.7233789, 48.6024334], [4.7237131, 48.6023663], [4.7239338, 48.602173], [4.7244589, 48.6020823], [4.7248467, 48.6020665], [4.7257118, 48.6020744], [4.7260817, 48.6022598], [4.726565, 48.6023782], [4.7267022, 48.60239], [4.7268991, 48.6025439], [4.7271796, 48.6025597], [4.7276091, 48.6026267], [4.7279194, 48.6026741], [4.7281998, 48.6026228], [4.7285876, 48.6025991], [4.7289098, 48.6024886], [4.7290172, 48.6024295], [4.7293275, 48.6018416], [4.7293513, 48.6016048], [4.7292141, 48.6014865], [4.7453322, 48.6019206], [4.7457056, 48.6019352], [4.7457133, 48.6020268]]], [[[4.7812217, 48.5537375], [4.7811624, 48.5535986], [4.7809484, 48.5533678], [4.7807392, 48.5532615], [4.7805675, 48.553226], [4.7802078, 48.5530875], [4.7798381, 48.5530436], [4.7797299, 48.5529746], [4.779545, 48.5526435], [4.7792435, 48.5522442], [4.7783705, 48.5517039], [4.7784551, 48.5515818], [4.7785331, 48.5514693], [4.7782702, 48.5512847], [4.7780878, 48.5511071], [4.7778402, 48.5508694], [4.7774709, 48.5505745], [4.7771061, 48.5502265], [4.7768111, 48.5497755], [4.7766652, 48.549428], [4.7767089, 48.5490298], [4.7771431, 48.5485363], [4.777336, 48.5486593], [4.7773849, 48.548469], [4.7775776, 48.5481934], [4.7775823, 48.5479027], [4.7777286, 48.5477628], [4.7779392, 48.5475793], [4.7779189, 48.5475138], [4.7779146, 48.5471698], [4.7778984, 48.5470577], [4.7778653, 48.5467255], [4.7780084, 48.5467636], [4.778481, 48.5468103], [4.7787308, 48.5468376], [4.7788617, 48.5467524], [4.778977, 48.54666], [4.7791942, 48.5467524], [4.7794054, 48.5467796], [4.7796376, 48.5468392], [4.7798785, 48.5467813], [4.7801381, 48.5468], [4.7803234, 48.5468814], [4.7804327, 48.5468681], [4.7806255, 48.5470608], [4.7808094, 48.5473372], [4.7810929, 48.5475717], [4.7812712, 48.547615], [4.7813628, 48.5474946], [4.7813869, 48.5473644], [4.7815342, 48.5474481], [4.7817532, 48.5474608], [4.7818351, 48.5473885], [4.7818062, 48.5472632], [4.781714, 48.5470959], [4.7815459, 48.546844], [4.7813364, 48.5465511], [4.7811122, 48.5463043], [4.7808616, 48.5461404], [4.7806544, 48.5459091], [4.780187, 48.5454947], [4.7798097, 48.5451273], [4.7785682, 48.5439457], [4.7769704, 48.5421387], [4.7756192, 48.5406777], [4.7745624, 48.5394595], [4.7742258, 48.5387555], [4.7737619, 48.5380394], [4.7736972, 48.5376387], [4.7742508, 48.5376736], [4.7744273, 48.5374654], [4.774246, 48.5372367], [4.7742896, 48.5367945], [4.7745058, 48.5365939], [4.7749061, 48.5362902], [4.7751715, 48.5361909], [4.775563, 48.5358029], [4.7756891, 48.5353815], [4.7759712, 48.5350697], [4.7763446, 48.5351384], [4.7768619, 48.5351013], [4.776911, 48.5355952], [4.7768744, 48.5361153], [4.7772272, 48.5369625], [4.7774392, 48.5376559], [4.7776921, 48.5381027], [4.7779322, 48.5384472], [4.7782704, 48.5387243], [4.7789826, 48.5391697], [4.7794616, 48.5393748], [4.7800203, 48.5395287], [4.7803054, 48.5395893], [4.7803962, 48.539786], [4.7801823, 48.5398762], [4.7800238, 48.5401485], [4.779766, 48.5401983], [4.7794989, 48.5401945], [4.779313, 48.5399862], [4.7791352, 48.5397741], [4.7789048, 48.5394934], [4.7783545, 48.5395654], [4.7781505, 48.5399092], [4.7783846, 48.5400413], [4.7787409, 48.5400208], [4.7792077, 48.5402341], [4.7788063, 48.5405781], [4.7787902, 48.5407273], [4.7789552, 48.5410955], [4.7791263, 48.5412723], [4.7792894, 48.5413206], [4.779434, 48.5413559], [4.779493, 48.5412494], [4.7795421, 48.5410862], [4.7796758, 48.5409547], [4.7798894, 48.5409617], [4.7799109, 48.5411109], [4.7798631, 48.5417793], [4.7799532, 48.5423263], [4.7802864, 48.5430146], [4.7812085, 48.5439337], [4.7817991, 48.5446266], [4.7822717, 48.5449466], [4.7827068, 48.5450733], [4.7830319, 48.545046], [4.7834921, 48.5447328], [4.783858, 48.5443723], [4.7842228, 48.5445193], [4.7848874, 48.5448681], [4.7852538, 48.5452303], [4.7856921, 48.5456707], [4.7861121, 48.5458202], [4.7866684, 48.545763], [4.7873229, 48.5453649], [4.7876866, 48.5449032], [4.7878159, 48.5444494], [4.7877236, 48.5439724], [4.7878984, 48.5436312], [4.7881721, 48.5435192], [4.7883968, 48.5436613], [4.7887085, 48.5437817], [4.7889762, 48.5437824], [4.7892562, 48.5435331], [4.7894322, 48.5434411], [4.789437, 48.5432706], [4.7891897, 48.5430007], [4.7889558, 48.5427091], [4.7884601, 48.5425173], [4.7882456, 48.5423849], [4.7883899, 48.5420865], [4.7883335, 48.5413879], [4.7879435, 48.5408683], [4.787871, 48.5406218], [4.7881988, 48.5404492], [4.7885014, 48.5403652], [4.7886297, 48.5405728], [4.7893206, 48.5412458], [4.7896618, 48.5417647], [4.7899209, 48.5421124], [4.7901022, 48.5424609], [4.790541, 48.5426392], [4.7910882, 48.5427958], [4.791402, 48.5428796], [4.791712, 48.5428799], [4.7919561, 48.5428373], [4.7921728, 48.5427315], [4.7924593, 48.5425322], [4.792675, 48.5423689], [4.7931057, 48.5423476], [4.7936116, 48.5422119], [4.7939758, 48.5419001], [4.7939547, 48.5413313], [4.7940815, 48.541189], [4.7939525, 48.5405826], [4.7939513, 48.540432], [4.7940906, 48.5401942], [4.7938691, 48.5400386], [4.7938884, 48.5398326], [4.7942982, 48.5395698], [4.7944699, 48.5393496], [4.7945343, 48.5387454], [4.7947655, 48.538137], [4.7947467, 48.5378787], [4.794884, 48.5373481], [4.794972, 48.5371762], [4.7949264, 48.5368707], [4.7950476, 48.5363798], [4.7950793, 48.5356982], [4.7951555, 48.5354712], [4.7950568, 48.5351874], [4.7947247, 48.5350137], [4.7943277, 48.5349107], [4.7938271, 48.5346672], [4.7937377, 48.534456], [4.7940182, 48.5345338], [4.7943476, 48.5345416], [4.7947987, 48.5345487], [4.7951667, 48.5345256], [4.7954784, 48.5343977], [4.7956678, 48.5342216], [4.7958384, 48.5341654], [4.7959569, 48.5340857], [4.795914, 48.5340004], [4.7958435, 48.5339081], [4.7958968, 48.5337727], [4.7960996, 48.5338195], [4.7964274, 48.5340017], [4.7966444, 48.5340825], [4.7967758, 48.5339717], [4.7963037, 48.5336949], [4.7961825, 48.5336232], [4.7961591, 48.5334921], [4.796385, 48.5333651], [4.7965827, 48.5332401], [4.7966782, 48.5330048], [4.7965497, 48.5324945], [4.7961956, 48.5322028], [4.795553, 48.5318618], [4.7951313, 48.531621], [4.7960036, 48.5318337], [4.7964301, 48.5320195], [4.7970647, 48.5322153], [4.7977626, 48.5317982], [4.7984052, 48.5314153], [4.7989014, 48.5311652], [4.7991359, 48.5309012], [4.7992866, 48.5302845], [4.7995006, 48.5299506], [4.8001172, 48.5297269], [4.800912, 48.5291902], [4.801052, 48.5290161], [4.8011443, 48.5287717], [4.8011455, 48.5283474], [4.8011542, 48.5280319], [4.8013141, 48.5275386], [4.8015397, 48.5273408], [4.801429, 48.5268589], [4.8016844, 48.5267095], [4.8019978, 48.5266482], [4.8021569, 48.5266928], [4.8023398, 48.5266806], [4.8025471, 48.526671], [4.8028817, 48.5266364], [4.8030434, 48.5266228], [4.8032458, 48.5266854], [4.8035542, 48.526671], [4.8037904, 48.5265601], [4.8040169, 48.526483], [4.8041614, 48.5264204], [4.8042867, 48.5265216], [4.8045373, 48.5264926], [4.8047686, 48.5264686], [4.805053, 48.5265216], [4.8052072, 48.5265264], [4.805212, 48.5267095], [4.8048939, 48.5268637], [4.8046337, 48.5269553], [4.8043291, 48.5270622], [4.8041004, 48.52717], [4.8039522, 48.5272405], [4.8036988, 48.5273938], [4.8034097, 48.5275866], [4.8033374, 48.5278275], [4.8032988, 48.5280637], [4.803359, 48.5281596], [4.8029101, 48.5283979], [4.8027404, 48.5284401], [4.8025181, 48.5286034], [4.802388, 48.5288636], [4.8022145, 48.5291672], [4.8020073, 48.5293696], [4.8021278, 48.5295768], [4.8022338, 48.5296829], [4.8020459, 48.5298804], [4.8017634, 48.530176], [4.8012393, 48.5305938], [4.8007977, 48.5308394], [4.8003836, 48.5311571], [4.7998236, 48.5316341], [4.7991353, 48.5320828], [4.7990581, 48.5323012], [4.7990624, 48.5325435], [4.7988145, 48.5327151], [4.7988247, 48.5328074], [4.7996305, 48.5329701], [4.8001336, 48.5330621], [4.8007677, 48.5329559], [4.8026882, 48.5329129], [4.8045191, 48.5330476], [4.8052497, 48.5330777], [4.8052518, 48.5331975], [4.8049734, 48.5333395], [4.8042635, 48.5337215], [4.803471, 48.5344126], [4.8025167, 48.5341537], [4.801085, 48.5340553], [4.7997344, 48.534061], [4.7987012, 48.5341207], [4.798295, 48.5343764], [4.7980855, 48.5344478], [4.7978712, 48.5344477], [4.7975861, 48.5343482], [4.7970062, 48.5340781], [4.7968458, 48.5341812], [4.7976816, 48.5346752], [4.7972479, 48.5347819], [4.7970507, 48.5348808], [4.796952, 48.5350698], [4.7967221, 48.5352261], [4.7964976, 48.5356873], [4.7963946, 48.5360182], [4.7966047, 48.5362628], [4.7964172, 48.5372753], [4.7967983, 48.5381169], [4.7968302, 48.5383053], [4.7968029, 48.5385295], [4.7971577, 48.5387809], [4.797423, 48.5389882], [4.7976185, 48.5391009], [4.7976456, 48.5391645], [4.7972157, 48.5392469], [4.7968351, 48.5393178], [4.7966041, 48.5394666], [4.7964872, 48.5397399], [4.7964491, 48.5400242], [4.7967355, 48.5405765], [4.7968958, 48.5411038], [4.797694, 48.5418922], [4.7991272, 48.5424672], [4.7992651, 48.5425994], [4.7991305, 48.5426457], [4.7977197, 48.5426157], [4.7972221, 48.5425742], [4.7968514, 48.5426811], [4.7967339, 48.5429472], [4.7967769, 48.5435508], [4.796643, 48.5438563], [4.7960047, 48.5443357], [4.7940193, 48.5451454], [4.7931545, 48.5458158], [4.7932903, 48.5465021], [4.7950653, 48.5471341], [4.7970398, 48.54721], [4.7978755, 48.5474994], [4.7974412, 48.5483697], [4.7965671, 48.5489345], [4.7954242, 48.5494208], [4.7947351, 48.5497272], [4.7943671, 48.549864], [4.7939034, 48.5500528], [4.7933938, 48.5502746], [4.7928195, 48.550632], [4.7928689, 48.5507631], [4.7920372, 48.551324], [4.791878, 48.5514054], [4.7916226, 48.5516787], [4.7915852, 48.5521617], [4.7917798, 48.5522236], [4.7918227, 48.5526959], [4.7917792, 48.5528546], [4.7919159, 48.5529396], [4.7920372, 48.5532266], [4.7917703, 48.5535257], [4.7906567, 48.5541253], [4.7905816, 48.5542052], [4.7905923, 48.5542869], [4.7906245, 48.5543614], [4.7905816, 48.5544307], [4.7904896, 48.5544783], [4.7890654, 48.555018], [4.7889669, 48.5550183], [4.7888293, 48.5549612], [4.7887416, 48.5549615], [4.7886102, 48.5550006], [4.7885163, 48.5551071], [4.7883573, 48.5552701], [4.7883197, 48.5553127], [4.7812217, 48.5537375]]]]}}, {"type": "Feature", "properties": {"name": "Great Lake"}, "geometry": {"type": "Polygon", "coordinates": [[[4.657855, 48.6745687], [4.6580095, 48.6743286], [4.6579408, 48.6741578], [4.6576833, 48.6741437], [4.6572435, 48.674172], [4.6567821, 48.674172], [4.6564388, 48.6740799], [4.6558809, 48.6738815], [4.6553445, 48.6739028], [4.6553938, 48.6737483], [4.6559925, 48.6738185], [4.6567864, 48.6739602], [4.6571512, 48.6740098], [4.6576018, 48.6739177], [4.6582198, 48.6734281], [4.6584853, 48.673341], [4.6585138, 48.6730941], [4.6584129, 48.6728259], [4.6582412, 48.6725], [4.6578872, 48.6722237], [4.657237, 48.6712254], [4.6567864, 48.6708853], [4.6564002, 48.6708499], [4.6558959, 48.6710058], [4.6555526, 48.671105], [4.6550805, 48.6711191], [4.6548445, 48.6710554], [4.6545226, 48.6710554], [4.6542973, 48.6711333], [4.6539111, 48.6713246], [4.6535141, 48.6713813], [4.653085, 48.6713246], [4.6528811, 48.6713104], [4.6525593, 48.6714238], [4.6523554, 48.6716222], [4.6523447, 48.6718914], [4.6523554, 48.6720543], [4.6524842, 48.6722244], [4.6527052, 48.6722804], [4.6530699, 48.6723087], [4.653203, 48.6724511], [4.6531279, 48.672529], [4.6528704, 48.6726778], [4.6526665, 48.6727912], [4.6527953, 48.6731029], [4.6531386, 48.6733155], [4.6533639, 48.6734501], [4.6531815, 48.6737476], [4.6530807, 48.6740799], [4.6530807, 48.6744554], [4.6532953, 48.6751355], [4.6532953, 48.6753268], [4.6539175, 48.6749301], [4.6543252, 48.6748946], [4.6545934, 48.6748167], [4.65469, 48.6747175], [4.6548187, 48.6747459], [4.6548724, 48.6748805], [4.6548295, 48.6750647], [4.6546793, 48.6750576], [4.6545291, 48.6750363], [4.6542394, 48.6750363], [4.6535635, 48.6753906], [4.6534991, 48.6757306], [4.6537137, 48.6763753], [4.6539712, 48.6765807], [4.6544432, 48.6768216], [4.6544432, 48.6770412], [4.654336, 48.6773104], [4.6542179, 48.677445], [4.654336, 48.6776575], [4.6544153, 48.6779558], [4.6553123, 48.6778772], [4.6560354, 48.6778424], [4.6564538, 48.6778495], [4.6566362, 48.6777858], [4.6567757, 48.6777291], [4.6569688, 48.6774599], [4.6570074, 48.6769066], [4.6556556, 48.6771404], [4.6555483, 48.676942], [4.6570868, 48.6767019], [4.6574087, 48.6764043], [4.6574151, 48.6761628], [4.6576941, 48.6752064], [4.657855, 48.6745687]]]}}, {"type": "Feature", "properties": {"name": "Étang du Grand Coulon"}, "geometry": {"type": "Polygon", "coordinates": [[[4.6876776, 48.5691553], [4.6879176, 48.5685811], [4.6883393, 48.567959], [4.6884761, 48.5677684], [4.6887676, 48.5662539], [4.6883897, 48.56524], [4.6887315, 48.5644964], [4.6888247, 48.5636717], [4.6893496, 48.5632723], [4.6898067, 48.562818], [4.6902888, 48.5624487], [4.6904144, 48.5621719], [4.6902543, 48.5618536], [4.6896208, 48.5616818], [4.6893784, 48.5613404], [4.6887254, 48.5614118], [4.6880715, 48.5613911], [4.6874, 48.5615727], [4.6870569, 48.5614838], [4.6865468, 48.561232], [4.6858695, 48.5609626], [4.6850971, 48.5608925], [4.6844908, 48.5610439], [4.6844226, 48.5612027], [4.6840362, 48.5615178], [4.6839021, 48.5615372], [4.683838, 48.561671], [4.6838796, 48.5617362], [4.683992, 48.5617871], [4.6842285, 48.5618251], [4.6845293, 48.5618234], [4.6847727, 48.5623019], [4.6846311, 48.5627902], [4.6845456, 48.5632024], [4.6845198, 48.5638056], [4.6847084, 48.5643013], [4.6850263, 48.5647543], [4.6850974, 48.5651869], [4.6850646, 48.5656237], [4.6850667, 48.5659901], [4.6851046, 48.5665874], [4.6848049, 48.5670637], [4.6850385, 48.567207], [4.6849373, 48.5676879], [4.684664, 48.5681251], [4.683978, 48.5684264], [4.6836234, 48.5686088], [4.6831342, 48.568741], [4.682694, 48.5690465], [4.682616, 48.56929], [4.6824725, 48.5696847], [4.6832007, 48.5696769], [4.6835226, 48.5697692], [4.6836889, 48.5698331], [4.6838552, 48.569755], [4.6842039, 48.5697053], [4.684508, 48.569709], [4.6853671, 48.5696668], [4.6864282, 48.5695466], [4.6872922, 48.5694078], [4.6875113, 48.5693612], [4.6875947, 48.5692833], [4.6876776, 48.5691553]]]}}]}