{"type": "FeatureCollection", "features": [{"type": "Feature", "properties": {"name": "Étang de Parroy"}, "geometry": {"type": "Polygon", "coordinates": [[[6.5830766, 48.6925047], [6.5833753, 48.6924912], [6.5836606, 48.6925876], [6.5837263, 48.6926873], [6.5839531, 48.6927295], [6.5840704, 48.6926759], [6.5844515, 48.6926972], [6.5847747, 48.6926163], [6.5850775, 48.6926595], [6.5853213, 48.6926257], [6.5856414, 48.6925428], [6.5858088, 48.6924211], [6.5863554, 48.6924263], [6.5866086, 48.6926562], [6.5867278, 48.6926871], [6.586947, 48.6926492], [6.5870672, 48.692704], [6.5872848, 48.6927181], [6.5881989, 48.6926981], [6.5887281, 48.6925005], [6.5890178, 48.6923301], [6.5892405, 48.6921255], [6.5890148, 48.6917023], [6.5883617, 48.6911342], [6.5878953, 48.6904806], [6.5874108, 48.6899839], [6.5872519, 48.6895848], [6.5870978, 48.6889886], [6.587018, 48.688642], [6.5871429, 48.6884661], [6.5872091, 48.6880707], [6.5869322, 48.6878581], [6.5868239, 48.6876376], [6.5869882, 48.68684], [6.5869108, 48.686268], [6.5865629, 48.6857456], [6.586414, 48.6853073], [6.5860511, 48.6848855], [6.5857769, 48.6844408], [6.5856599, 48.6839537], [6.5856904, 48.6833179], [6.5859007, 48.6829791], [6.5857883, 48.6826576], [6.5858757, 48.6819222], [6.5861956, 48.681306], [6.5862656, 48.6810079], [6.5858072, 48.6805492], [6.585535, 48.6801401], [6.5848227, 48.6799914], [6.5845055, 48.6799384], [6.5811064, 48.6798616], [6.5801592, 48.6798402], [6.5799733, 48.6798768], [6.579242, 48.6801888], [6.5783418, 48.6803674], [6.5773769, 48.6805588], [6.5767321, 48.6806974], [6.5752795, 48.6812994], [6.5740838, 48.6816174], [6.5737016, 48.681834], [6.5735707, 48.6820339], [6.5735692, 48.6821976], [6.5737407, 48.6822592], [6.5741289, 48.6822513], [6.5748189, 48.6822418], [6.5754139, 48.6821539], [6.5757029, 48.6821678], [6.5762566, 48.6823446], [6.5764819, 48.6823581], [6.5766719, 48.6823049], [6.5773244, 48.6820169], [6.5785137, 48.6817386], [6.578913, 48.6817482], [6.5797446, 48.6819155], [6.5801396, 48.6820478], [6.5805992, 48.6822473], [6.5811109, 48.6824877], [6.5823584, 48.6833093], [6.5825283, 48.683513], [6.5825945, 48.683813], [6.5825042, 48.6840474], [6.5825253, 48.6842262], [6.582736, 48.6843892], [6.5827563, 48.6844168], [6.5828894, 48.6845978], [6.5829316, 48.684859], [6.5831904, 48.68519], [6.5832414, 48.6854035], [6.5831715, 48.6855578], [6.5828797, 48.6857744], [6.5824262, 48.6859363], [6.5816086, 48.6860832], [6.5813648, 48.6862024], [6.5812475, 48.6863476], [6.5812565, 48.6864806], [6.5814882, 48.6865998], [6.5818087, 48.6866916], [6.5821763, 48.6867137], [6.5822708, 48.6867895], [6.5823581, 48.6869246], [6.5825838, 48.6870656], [6.582984, 48.6875067], [6.583065, 48.6876185], [6.5830833, 48.6876438], [6.5831447, 48.6879758], [6.5833361, 48.6881623], [6.5833669, 48.6884923], [6.5837723, 48.6888097], [6.5838869, 48.6892351], [6.5839489, 48.6897073], [6.5838293, 48.6898806], [6.5838432, 48.6900616], [6.5835257, 48.6902439], [6.5825194, 48.6904016], [6.5814268, 48.6907475], [6.5814575, 48.690878], [6.5818125, 48.6911491], [6.5815955, 48.6912755], [6.5813619, 48.6912535], [6.5808985, 48.6915356], [6.5810262, 48.6919461], [6.581556, 48.6920791], [6.5821505, 48.6920789], [6.582352, 48.6920581], [6.5828005, 48.6924216], [6.5830766, 48.6925047]]]}}, {"type": "Feature", "properties": {"name": "Lac de la Plaine"}, "geometry": {"type": "Polygon", "coordinates": [[[6.9337337, 48.4490311], [6.9342526, 48.4496444], [6.9348217, 48.449679], [6.9348407, 48.449679], [6.9348421, 48.4496993], [6.9354772, 48.449709], [6.9356269, 48.449727], [6.9357564, 48.4497617], [6.9358888, 48.4498148], [6.9361392, 48.4499739], [6.9362552, 48.4500382], [6.9363467, 48.4499806], [6.9363713, 48.4499928], [6.9364034, 48.4500098], [6.9369166, 48.4502332], [6.9370735, 48.450323], [6.937435, 48.4507432], [6.9376393, 48.4508986], [6.9378765, 48.4510206], [6.9381745, 48.4511074], [6.938468, 48.4511452], [6.9386383, 48.4511388], [6.9389863, 48.4511029], [6.9390093, 48.4511099], [6.9390171, 48.4511279], [6.9394469, 48.4509091], [6.9395027, 48.4508806], [6.9395908, 48.4508311], [6.9400819, 48.4505555], [6.9403658, 48.4503682], [6.9404571, 48.4502061], [6.9404666, 48.4500395], [6.9405644, 48.4499675], [6.9404825, 48.4497903], [6.9405797, 48.4497577], [6.9404612, 48.4495556], [6.9398488, 48.448852], [6.9393, 48.4484658], [6.9385835, 48.4481036], [6.9378354, 48.4476383], [6.9372088, 48.4470904], [6.9367505, 48.4465737], [6.9364043, 48.4459907], [6.9361036, 48.4452901], [6.9356813, 48.4447702], [6.9334053, 48.4427993], [6.933206, 48.442626], [6.9331045, 48.4425684], [6.9329852, 48.4425359], [6.9328269, 48.4425248], [6.9326793, 48.4425349], [6.9325466, 48.4425703], [6.9315234, 48.4430827], [6.931396, 48.4431483], [6.9313733, 48.4431396], [6.9313347, 48.443108], [6.931271, 48.44314], [6.9313079, 48.4431767], [6.9313106, 48.4431843], [6.9313025, 48.4431925], [6.9312894, 48.4431952], [6.931276, 48.4431925], [6.9312378, 48.4431578], [6.9311573, 48.4432], [6.9312032, 48.4432475], [6.9309744, 48.4433654], [6.930056, 48.4438331], [6.9300098, 48.4438713], [6.9299725, 48.4439174], [6.9299513, 48.4439723], [6.9299682, 48.4440447], [6.9306269, 48.445449], [6.932389, 48.4477562], [6.9327049, 48.4481698], [6.9332024, 48.4484033], [6.9336496, 48.4489317], [6.933639, 48.448945], [6.9336203, 48.4489521], [6.9336806, 48.4490322], [6.9337021, 48.449026], [6.9337337, 48.4490311]]]}}, {"type": "Feature", "properties": {"name": "Grand Étang"}, "geometry": {"type": "Polygon", "coordinates": [[[5.8059104, 48.8305332], [5.8060283, 48.8302406], [5.8060436, 48.8299809], [5.8059947, 48.8298561], [5.80612, 48.829538], [5.8062576, 48.8291535], [5.8062576, 48.8285616], [5.805964, 48.82827], [5.8056521, 48.8282053], [5.8053433, 48.8280503], [5.8049243, 48.8279194], [5.8046736, 48.8279476], [5.8039886, 48.8277443], [5.8032118, 48.8275168], [5.8022385, 48.8272914], [5.8020926, 48.8272692], [5.8020222, 48.8271423], [5.8012975, 48.8270235], [5.8011446, 48.8270356], [5.8006186, 48.826937], [5.8004596, 48.8269209], [5.8003036, 48.826933], [5.8000223, 48.8269974], [5.7998724, 48.8270477], [5.7996033, 48.8270678], [5.7990345, 48.8270276], [5.7983189, 48.8270074], [5.7982486, 48.8269692], [5.797851, 48.8269712], [5.7970244, 48.8269707], [5.7964709, 48.8268761], [5.7962134, 48.8268103], [5.7959032, 48.8267364], [5.7957908, 48.8266567], [5.7958124, 48.826446], [5.7955529, 48.8264033], [5.7951291, 48.8263919], [5.7946355, 48.8264175], [5.7927941, 48.8264346], [5.7926149, 48.8266818], [5.793359, 48.8271466], [5.7939443, 48.8275423], [5.7943205, 48.8277217], [5.7953282, 48.8278754], [5.7963229, 48.8280654], [5.7967527, 48.8282934], [5.7977084, 48.8287147], [5.7983788, 48.8289824], [5.799227, 48.8291758], [5.8005786, 48.8295704], [5.8013478, 48.8298165], [5.8014386, 48.8299104], [5.8015165, 48.8300585], [5.8016592, 48.8300898], [5.8025631, 48.8301838], [5.8028661, 48.8302427], [5.803418, 48.8304379], [5.8037714, 48.8305949], [5.8039396, 48.830768], [5.804013, 48.8309894], [5.8041506, 48.8310297], [5.804325, 48.8310438], [5.8046919, 48.8309653], [5.8047931, 48.8309352], [5.8051262, 48.8308385], [5.805216, 48.830805], [5.805231, 48.8308], [5.80522, 48.830785], [5.80525, 48.830776], [5.805261, 48.83079], [5.805278, 48.830785], [5.8053783, 48.8307489], [5.805514, 48.8307], [5.805541, 48.830695], [5.805656, 48.830676], [5.805776, 48.830657], [5.8059104, 48.8305332]]]}}, {"type": "Feature", "properties": {"name": "Étang Gresson"}, "geometry": {"type": "Polygon", "coordinates": [[[6.9181661, 48.5847754], [6.9191251, 48.5842651], [6.9194516, 48.5836201], [6.9198672, 48.5829967], [6.9191813, 48.5805882], [6.9194311, 48.5796983], [6.9187881, 48.57899], [6.9177672, 48.5788551], [6.9168499, 48.5793582], [6.9163598, 48.579959], [6.9158269, 48.5807301], [6.9153413, 48.5826746], [6.9154574, 48.5831794], [6.9147757, 48.5838131], [6.9144156, 48.5836562], [6.9141057, 48.5837196], [6.9140505, 48.5838253], [6.9141598, 48.5840265], [6.915278, 48.5852629], [6.915555, 48.5854999], [6.9157485, 48.5855481], [6.9160052, 48.5855299], [6.9166228, 48.5853679], [6.9181661, 48.5847754]]]}}, {"type": "Feature", "properties": {"name": "Étang Romé"}, "geometry": {"type": "Polygon", "coordinates": [[[5.8118974, 48.7911569], [5.811911, 48.7914736], [5.8116681, 48.7918087], [5.8115081, 48.7920294], [5.8109195, 48.792862], [5.810295, 48.7927317], [5.8101112, 48.7927128], [5.8093187, 48.792648], [5.8091833, 48.7926639], [5.8076325, 48.7930157], [5.8060002, 48.7932159], [5.8041329, 48.793767], [5.8033359, 48.7934812], [5.8028053, 48.7933437], [5.801949, 48.7931199], [5.8016329, 48.7929869], [5.8014133, 48.792841], [5.8012493, 48.7926865], [5.8026079, 48.7918815], [5.8048871, 48.7906285], [5.8050112, 48.7904755], [5.8047698, 48.7900419], [5.8038672, 48.7898178], [5.8022538, 48.7901619], [5.801461, 48.7903002], [5.8009721, 48.790425], [5.7998515, 48.7908107], [5.7995415, 48.790923], [5.7961543, 48.7913531], [5.7913149, 48.7898192], [5.7913888, 48.7892802], [5.7939012, 48.7891267], [5.7946301, 48.788738], [5.7951291, 48.7879469], [5.7947679, 48.7874717], [5.7907184, 48.7873189], [5.7900707, 48.7872887], [5.7900568, 48.7869457], [5.7900468, 48.7866989], [5.7921792, 48.7864803], [5.7928429, 48.7859871], [5.7956351, 48.7859457], [5.7958207, 48.7857334], [5.7975737, 48.7859022], [5.798568, 48.7872828], [5.7995454, 48.7878151], [5.8004978, 48.787569], [5.8024287, 48.7872205], [5.8035015, 48.7872079], [5.8049288, 48.7870574], [5.805331, 48.7870116], [5.8059046, 48.7869556], [5.8078888, 48.7868336], [5.8087017, 48.7868353], [5.8098495, 48.7869664], [5.8112894, 48.7872414], [5.811597, 48.787343], [5.8118234, 48.7877614], [5.8119492, 48.7881388], [5.8119036, 48.7885405], [5.8113036, 48.7899645], [5.8115328, 48.7906682], [5.8118974, 48.7911569]]]}}, {"type": "Feature", "properties": {"name": "Étang de la Ballastière"}, "geometry": {"type": "Polygon", "coordinates": [[[6.1391039, 48.6052624], [6.1389108, 48.6051844], [6.138664, 48.6051276], [6.1384553, 48.6050762], [6.1384232, 48.6049769], [6.1385412, 48.6046221], [6.1387557, 48.6040262], [6.1388845, 48.6036715], [6.1389596, 48.6035296], [6.1391205, 48.6034019], [6.1395545, 48.6031908], [6.1397652, 48.6030116], [6.1397374, 48.6029344], [6.1397468, 48.6027934], [6.1398098, 48.6026746], [6.1398017, 48.6025903], [6.1397468, 48.6025389], [6.1396703, 48.602342], [6.1396059, 48.6020653], [6.1395751, 48.6020112], [6.1396207, 48.6019474], [6.1397427, 48.601856], [6.1400257, 48.6018649], [6.1403301, 48.6018596], [6.1405568, 48.6017709], [6.1406185, 48.6017434], [6.1406882, 48.601637], [6.1407204, 48.6015234], [6.1407445, 48.601331], [6.1405568, 48.6011545], [6.1402819, 48.6009727], [6.140251, 48.6008743], [6.1403033, 48.6007856], [6.140514, 48.6006916], [6.1407727, 48.6002172], [6.1414682, 48.6002578], [6.141947, 48.6003883], [6.1427839, 48.6007289], [6.1438519, 48.6014366], [6.1446385, 48.601876], [6.1446767, 48.6019252], [6.144619, 48.6020148], [6.1446176, 48.6021301], [6.1446619, 48.6021833], [6.1447504, 48.6022099], [6.1448215, 48.6021957], [6.144847, 48.6021522], [6.1447839, 48.6021034], [6.1447987, 48.6020245], [6.1448389, 48.601988], [6.1449726, 48.6020627], [6.1458523, 48.6024175], [6.1462171, 48.602609], [6.1462922, 48.6027722], [6.1462064, 48.6029354], [6.1461934, 48.6031295], [6.1459748, 48.6032945], [6.1458099, 48.6032759], [6.1456959, 48.6033206], [6.145649, 48.6033534], [6.1455953, 48.6033712], [6.1455557, 48.6034257], [6.1455578, 48.6034488], [6.1454947, 48.6034905], [6.1454112, 48.603498], [6.1453862, 48.6035271], [6.1453137, 48.6035791], [6.1452956, 48.6036279], [6.1452366, 48.6036523], [6.1452627, 48.6037237], [6.1452205, 48.6037561], [6.145132, 48.6037711], [6.1450052, 48.6038465], [6.144857, 48.603851], [6.1447249, 48.6037907], [6.1446881, 48.603804], [6.144682, 48.603839], [6.1447967, 48.6039028], [6.1448396, 48.6039463], [6.1447786, 48.6039747], [6.1446123, 48.6040039], [6.1444634, 48.6041033], [6.1443856, 48.6042256], [6.1442958, 48.6042593], [6.144222, 48.6042496], [6.1441053, 48.6041667], [6.143821, 48.603835], [6.1437607, 48.6038541], [6.1437044, 48.6039059], [6.1437453, 48.6039281], [6.1438049, 48.6039011], [6.1440021, 48.6041467], [6.1441188, 48.6042638], [6.1440195, 48.6043134], [6.143809, 48.6043826], [6.1434383, 48.6044962], [6.1431701, 48.6045246], [6.1429663, 48.604631], [6.1427302, 48.6047019], [6.142462, 48.6046239], [6.1422474, 48.604709], [6.141829, 48.6046381], [6.141314, 48.604631], [6.141078, 48.6046026], [6.1402304, 48.6047232], [6.1401124, 48.6047445], [6.1400325, 48.6048633], [6.139694, 48.6051205], [6.1394579, 48.6052553], [6.1392756, 48.6053333], [6.1391039, 48.6052624]]]}}, {"type": "Feature", "properties": {"name": "Tronc du Chêne"}, "geometry": {"type": "Polygon", "coordinates": [[[6.2756695, 48.520374], [6.2757253, 48.5203468], [6.2759026, 48.5203674], [6.2759726, 48.5201601], [6.2759182, 48.5200799], [6.2759034, 48.519849], [6.2759132, 48.5195313], [6.2759479, 48.5192873], [6.2759049, 48.5191427], [6.2760467, 48.5189975], [6.2761056, 48.5188243], [6.2760022, 48.5179183], [6.2759719, 48.5170135], [6.2741823, 48.516286], [6.2738637, 48.5166671], [6.2736857, 48.5169079], [6.2732753, 48.5174876], [6.2723954, 48.5186813], [6.2721899, 48.5190335], [6.2720243, 48.5193561], [6.2719748, 48.5195215], [6.2715799, 48.5203411], [6.2710222, 48.5213343], [6.2710098, 48.521459], [6.2710765, 48.5215376], [6.271203, 48.5216642], [6.2723358, 48.5221059], [6.2735627, 48.5226148], [6.2739848, 48.522772], [6.2741876, 48.5228588], [6.2746013, 48.5229677], [6.2747092, 48.5229849], [6.2748922, 48.5229603], [6.2751154, 48.5228964], [6.2753048, 48.5226948], [6.2753539, 48.5217977], [6.2752165, 48.5216153], [6.2750324, 48.5214198], [6.2748166, 48.5212672], [6.2747511, 48.5210377], [6.2748239, 48.5209107], [6.2750417, 48.5208488], [6.2752045, 48.5208995], [6.2755295, 48.5210348], [6.2757872, 48.5210676], [6.2759111, 48.5209896], [6.275926, 48.5208893], [6.2758168, 48.5209003], [6.2757525, 48.5208545], [6.275713, 48.5207529], [6.2756238, 48.5206792], [6.275619, 48.5204746], [6.2756695, 48.520374]]]}}, {"type": "Feature", "properties": {"name": "Étang de Pannes"}, "geometry": {"type": "Polygon", "coordinates": [[[5.7601565, 48.9193021], [5.7609236, 48.9189073], [5.7613474, 48.9186641], [5.7618087, 48.9185583], [5.7625276, 48.9184914], [5.7632786, 48.9186359], [5.7641423, 48.9189531], [5.7649255, 48.9191364], [5.765757, 48.9191329], [5.7664168, 48.9191153], [5.7668942, 48.9190659], [5.7670283, 48.9189954], [5.7672751, 48.918791], [5.7672161, 48.9186112], [5.7667601, 48.918227], [5.7664812, 48.9177757], [5.7664221, 48.9173633], [5.7664972, 48.9166935], [5.7665992, 48.9159638], [5.7665026, 48.9156606], [5.7663149, 48.9153186], [5.7660842, 48.9150754], [5.7659018, 48.9148639], [5.7658052, 48.9146559], [5.765714, 48.914402], [5.7656143, 48.9143989], [5.7655679, 48.9145163], [5.7649917, 48.9152705], [5.7646924, 48.9156074], [5.7637989, 48.9158439], [5.7630321, 48.9156996], [5.7623311, 48.9156037], [5.7620175, 48.9156349], [5.7617605, 48.9161481], [5.760989, 48.9169334], [5.7607674, 48.9172517], [5.7606286, 48.9174691], [5.7603604, 48.9178533], [5.7596898, 48.9183962], [5.7595986, 48.9186288], [5.7597274, 48.9191223], [5.7598829, 48.9193374], [5.7601565, 48.9193021]]]}}, {"type": "Feature", "properties": {"name": "Lac de Pierre-Percée"}, "geometry": {"type": "MultiPolygon", "coordinates": [[[[6.9286361, 48.4673842], [6.9288612, 48.4671945], [6.9290686, 48.4670265], [6.9290837, 48.4669849], [6.9290041, 48.4669067], [6.9287702, 48.466818], [6.9283559, 48.4666425], [6.9280663, 48.4664755], [6.9279099, 48.4663723], [6.9277595, 48.466201], [6.9276142, 48.4659512], [6.9274834, 48.4657724], [6.9273356, 48.4656405], [6.9272398, 48.4654784], [6.9270698, 48.4652078], [6.9270119, 48.4649616], [6.9269376, 48.4647466], [6.9270412, 48.4643996], [6.9271715, 48.4641863], [6.9272601, 48.4641556], [6.927319, 48.4640679], [6.9273183, 48.4639416], [6.9273407, 48.4638227], [6.9274751, 48.4631149], [6.927656, 48.4629722], [6.9278005, 48.4628133], [6.9279302, 48.4626574], [6.9280558, 48.4626251], [6.9280806, 48.4625604], [6.9281396, 48.4625455], [6.9282047, 48.4625548], [6.9282692, 48.4625772], [6.9282881, 48.4626071], [6.9283286, 48.4626211], [6.9283566, 48.4626039], [6.9283638, 48.462575], [6.9283425, 48.4625407], [6.9282758, 48.4624972], [6.9282106, 48.4624651], [6.9281543, 48.4624599], [6.927979, 48.4625088], [6.9276862, 48.4625593], [6.9273413, 48.4626023], [6.9270704, 48.4626374], [6.9265257, 48.462752], [6.9260523, 48.4629177], [6.925663, 48.4631902], [6.9253537, 48.4633036], [6.9251625, 48.4633911], [6.924869, 48.4633713], [6.9243176, 48.4631589], [6.9240255, 48.4629408], [6.923827, 48.4628581], [6.9236351, 48.4626861], [6.9234842, 48.4623938], [6.9234531, 48.4621569], [6.9235035, 48.4620322], [6.9235271, 48.4619174], [6.923638, 48.4618228], [6.9237568, 48.4616752], [6.9239582, 48.4614906], [6.9241111, 48.4614379], [6.9243559, 48.4612939], [6.9244988, 48.4612356], [6.9246995, 48.4610937], [6.9248024, 48.4610727], [6.9251602, 48.4607462], [6.9253317, 48.460681], [6.9254404, 48.4606165], [6.9255032, 48.4605313], [6.9258584, 48.4604302], [6.9262091, 48.4603754], [6.9263822, 48.4602905], [6.9264264, 48.4602125], [6.9264152, 48.4601233], [6.9263292, 48.4600857], [6.9260752, 48.4600753], [6.9257154, 48.4599772], [6.9252714, 48.4598978], [6.9246364, 48.4598615], [6.9242454, 48.4598523], [6.9237354, 48.4597793], [6.9234155, 48.459672], [6.9230095, 48.459438], [6.922654, 48.4591165], [6.9225348, 48.4589204], [6.9224788, 48.4586542], [6.9224741, 48.4585216], [6.9226411, 48.458097], [6.9229712, 48.4576508], [6.9230937, 48.4575542], [6.9233062, 48.4572324], [6.9235754, 48.4568986], [6.9240249, 48.4564522], [6.9241592, 48.4561689], [6.9241723, 48.4561335], [6.9241469, 48.4561083], [6.9241012, 48.4561006], [6.92402, 48.4560785], [6.9239246, 48.4560034], [6.9238818, 48.4559018], [6.9237999, 48.4558589], [6.9235112, 48.4558344], [6.9233164, 48.4558243], [6.9229964, 48.4557478], [6.9226673, 48.4556935], [6.9223787, 48.4557187], [6.9222651, 48.4557661], [6.9219311, 48.4558136], [6.9217115, 48.4558859], [6.9214792, 48.4559028], [6.9212768, 48.4558971], [6.9211085, 48.4558667], [6.9208104, 48.4557184], [6.9205664, 48.4555395], [6.9203994, 48.4553894], [6.9203573, 48.4553008], [6.9203456, 48.4552427], [6.9203617, 48.4552376], [6.9204193, 48.4552508], [6.9204631, 48.4552464], [6.9204888, 48.4552321], [6.9204976, 48.4552104], [6.9204713, 48.4551499], [6.9204362, 48.4550565], [6.9204278, 48.454957], [6.9204515, 48.4548599], [6.9205848, 48.4546939], [6.9206504, 48.4545828], [6.9206975, 48.4544682], [6.9206859, 48.454379], [6.9206208, 48.4543081], [6.9184511, 48.4534231], [6.9172284, 48.4528973], [6.9171546, 48.4528835], [6.9171122, 48.4528954], [6.9170329, 48.4529628], [6.9169799, 48.4529863], [6.9169195, 48.4530776], [6.9168692, 48.4532007], [6.9168626, 48.4533299], [6.9167885, 48.4535297], [6.916538, 48.4537277], [6.9164096, 48.4538018], [6.916364, 48.4538025], [6.9163276, 48.4537699], [6.9162311, 48.4537502], [6.9160247, 48.4537969], [6.9157132, 48.4537866], [6.9151741, 48.4536491], [6.9148065, 48.4534283], [6.914209, 48.4529509], [6.9136321, 48.4523984], [6.9131329, 48.4521649], [6.9128696, 48.4520783], [6.9126474, 48.4520512], [6.9126422, 48.4521769], [6.9127151, 48.4525511], [6.9125719, 48.4531244], [6.9127878, 48.4541733], [6.91264, 48.4543638], [6.912404, 48.454467], [6.9122182, 48.4544098], [6.9110897, 48.4546609], [6.9104598, 48.4547268], [6.9093552, 48.4543145], [6.9071024, 48.4528176], [6.9068305, 48.4528871], [6.9067237, 48.4531193], [6.9067204, 48.4534565], [6.9066319, 48.4537814], [6.9073957, 48.4555033], [6.907386, 48.4555808], [6.9072676, 48.4556223], [6.9066517, 48.455589], [6.9050366, 48.4551845], [6.9032131, 48.4555704], [6.903128, 48.4557454], [6.9047435, 48.4561687], [6.9053578, 48.4564628], [6.9056682, 48.4568117], [6.9054116, 48.4571175], [6.9049145, 48.457408], [6.9050226, 48.4575995], [6.9050601, 48.4578307], [6.9054552, 48.4578889], [6.9057038, 48.4577756], [6.9066499, 48.4576714], [6.9070529, 48.4577667], [6.9075902, 48.457559], [6.9083378, 48.4575817], [6.9086865, 48.4576884], [6.9091777, 48.4576929], [6.9098988, 48.4577862], [6.9106472, 48.4577738], [6.9111782, 48.4577507], [6.9117341, 48.457812], [6.9140694, 48.4584852], [6.9142028, 48.4585746], [6.914303, 48.4586418], [6.914396, 48.4588537], [6.9142413, 48.4590936], [6.914209, 48.4595001], [6.9143942, 48.459645], [6.9146892, 48.4596984], [6.9150656, 48.4599099], [6.9154403, 48.4604561], [6.9153947, 48.4605095], [6.9156092, 48.4610128], [6.9162071, 48.4619913], [6.9162183, 48.4621525], [6.9157648, 48.4623308], [6.9150957, 48.462424], [6.9124799, 48.4620882], [6.9119681, 48.4621165], [6.9115704, 48.4620297], [6.9101654, 48.4616278], [6.9096422, 48.4616652], [6.9095955, 48.4623079], [6.9093826, 48.4625897], [6.9088984, 48.4627674], [6.9080315, 48.4626451], [6.9075097, 48.4623399], [6.9073454, 48.4614191], [6.9071254, 48.4613979], [6.9060845, 48.4618006], [6.90529, 48.4619353], [6.9048226, 48.4617676], [6.9036577, 48.4614499], [6.9033254, 48.4616681], [6.9033529, 48.4619502], [6.9034297, 48.4623864], [6.9032308, 48.4624331], [6.9031481, 48.4624076], [6.9030479, 48.4623767], [6.9023407, 48.4615706], [6.9013128, 48.4601008], [6.9009227, 48.459743], [6.9006696, 48.4597094], [6.9006154, 48.4598709], [6.9008325, 48.4603747], [6.900727, 48.4609984], [6.9008276, 48.4610537], [6.9008131, 48.4618934], [6.9009905, 48.4622155], [6.9009107, 48.4623806], [6.9006782, 48.4623479], [6.900139, 48.4623418], [6.899354, 48.4623992], [6.8985974, 48.4621295], [6.8979485, 48.4617938], [6.8970456, 48.4611848], [6.8963967, 48.4606142], [6.8958947, 48.4603125], [6.8943524, 48.4596229], [6.8942803, 48.4596358], [6.8942558, 48.4596803], [6.8943657, 48.4598439], [6.8946304, 48.4601497], [6.8949522, 48.460545], [6.8950698, 48.4607997], [6.8949282, 48.460944], [6.894585, 48.4609249], [6.8938701, 48.460967], [6.8927406, 48.4612685], [6.8922182, 48.4611326], [6.8918099, 48.4611227], [6.8914177, 48.4611592], [6.8913364, 48.4613534], [6.8916256, 48.4615368], [6.8917636, 48.46167], [6.8915981, 48.4618719], [6.8912398, 48.4620314], [6.8905357, 48.4622645], [6.889744, 48.4623951], [6.8893019, 48.4624759], [6.8891058, 48.4625208], [6.8890431, 48.4626087], [6.8891716, 48.4626562], [6.8893702, 48.4626454], [6.8898869, 48.4626047], [6.8903493, 48.4626548], [6.8907924, 48.4626375], [6.8919387, 48.4626794], [6.8923646, 48.4626584], [6.892612, 48.4626652], [6.8926495, 48.4626065], [6.8928105, 48.4625673], [6.8928644, 48.462611], [6.893068, 48.4626456], [6.8935294, 48.462491], [6.8937948, 48.4625389], [6.8939289, 48.4624766], [6.8948248, 48.4625132], [6.8954819, 48.462632], [6.8958414, 48.4626954], [6.8962088, 48.4628875], [6.896376, 48.463059], [6.8965414, 48.4631578], [6.8968253, 48.4632597], [6.8971771, 48.4635171], [6.8972039, 48.4636186], [6.8972451, 48.4637748], [6.897043, 48.4639262], [6.896823, 48.4640169], [6.8967, 48.4639604], [6.8963939, 48.4643157], [6.8960157, 48.464522], [6.8959165, 48.4644953], [6.8958038, 48.4646696], [6.8955845, 48.4647516], [6.8952915, 48.4648972], [6.8951118, 48.4648848], [6.8941462, 48.4654468], [6.8936904, 48.4656795], [6.8938665, 48.4658409], [6.8943232, 48.4658861], [6.8944332, 48.4658266], [6.8945646, 48.4658487], [6.8945861, 48.4659039], [6.8951272, 48.4659562], [6.8954417, 48.4658879], [6.8956891, 48.4657655], [6.8963728, 48.4656651], [6.8969895, 48.4654759], [6.8976982, 48.4651158], [6.8982044, 48.4648351], [6.898775, 48.4644201], [6.8993272, 48.4641211], [6.9000955, 48.4640112], [6.9003689, 48.4639164], [6.9008213, 48.463993], [6.9010328, 48.4639217], [6.9009671, 48.4638275], [6.9010079, 48.4637721], [6.9015759, 48.4639297], [6.90174, 48.4640418], [6.9019112, 48.46404], [6.9020119, 48.4639829], [6.902024, 48.4639208], [6.9020815, 48.4638888], [6.9021566, 48.4638844], [6.9022277, 48.4639004], [6.9024208, 48.4639528], [6.9026048, 48.4640424], [6.9032322, 48.4641596], [6.9036786, 48.4642064], [6.9040821, 48.4642194], [6.9040677, 48.4641627], [6.9041106, 48.46416], [6.9042733, 48.4642741], [6.9042282, 48.4643263], [6.9040285, 48.4645579], [6.9039577, 48.464771], [6.9035003, 48.4649041], [6.903271, 48.4650229], [6.9034025, 48.465461], [6.903145, 48.4656671], [6.9029042, 48.4657081], [6.9028124, 48.465927], [6.9026312, 48.4659257], [6.9021316, 48.4664479], [6.9019336, 48.4665595], [6.9017446, 48.4667007], [6.9017744, 48.4668322], [6.9016564, 48.466971], [6.9014601, 48.4670535], [6.9013321, 48.4670297], [6.9011003, 48.4670943], [6.9009039, 48.4672737], [6.9009453, 48.4674671], [6.9009273, 48.4676872], [6.8994072, 48.4687232], [6.8985827, 48.4689611], [6.8982049, 48.4691645], [6.8975594, 48.4691124], [6.8972911, 48.4692763], [6.8972442, 48.4693985], [6.8969214, 48.4697206], [6.8966586, 48.4701609], [6.8962656, 48.4705386], [6.8959396, 48.4708242], [6.8958844, 48.4710073], [6.8961047, 48.4711075], [6.8962075, 48.471095], [6.8963248, 48.4711101], [6.8964891, 48.4710612], [6.8967487, 48.4710308], [6.8969152, 48.4710347], [6.89735, 48.4708296], [6.8978264, 48.4706686], [6.8980126, 48.4705971], [6.8982459, 48.4705568], [6.8984699, 48.4705748], [6.8987053, 48.4705557], [6.8991287, 48.4705923], [6.8993483, 48.4705162], [6.8994476, 48.4704308], [6.8996519, 48.4703441], [6.8997493, 48.4703481], [6.8998633, 48.470317], [6.8998644, 48.4702607], [6.9000967, 48.4702699], [6.9001064, 48.4701523], [6.9002552, 48.4701426], [6.9004881, 48.47015], [6.9005299, 48.4702236], [6.9004718, 48.470284], [6.9008778, 48.4703579], [6.9011576, 48.4704615], [6.9012943, 48.4705521], [6.9015303, 48.470582], [6.9015692, 48.4705295], [6.901717, 48.4705419], [6.9018032, 48.4705248], [6.9018095, 48.4704696], [6.9019326, 48.4703848], [6.9021085, 48.4702636], [6.9020855, 48.4701703], [6.9021741, 48.470092], [6.9021989, 48.4699182], [6.9020563, 48.4694667], [6.9018643, 48.4692166], [6.9020704, 48.4690289], [6.9022719, 48.4689293], [6.9028748, 48.4687137], [6.9031726, 48.4686651], [6.9032772, 48.4687034], [6.9033995, 48.4687024], [6.9042791, 48.4690028], [6.9045648, 48.4691326], [6.9049917, 48.4692553], [6.9052724, 48.4693483], [6.9054157, 48.4693075], [6.9052517, 48.4691247], [6.9048942, 48.4687753], [6.9044452, 48.468333], [6.9042044, 48.4681281], [6.9038883, 48.4678323], [6.9037484, 48.4675669], [6.9038879, 48.4673903], [6.9041096, 48.4672131], [6.9041167, 48.4669074], [6.90409, 48.4667863], [6.904179, 48.4666988], [6.9042158, 48.4665709], [6.9042702, 48.4665606], [6.9043795, 48.4666304], [6.9045765, 48.4666694], [6.9050265, 48.4668871], [6.9053568, 48.4669795], [6.9056129, 48.4670666], [6.90577, 48.4670848], [6.9059619, 48.4669334], [6.906013, 48.4668709], [6.9061737, 48.4668349], [6.9062095, 48.4667831], [6.9061705, 48.4667281], [6.9059249, 48.4666857], [6.9058548, 48.4666181], [6.9057321, 48.4665915], [6.9057019, 48.4664519], [6.9056938, 48.4663516], [6.9058212, 48.4662549], [6.9060408, 48.466188], [6.9062052, 48.466134], [6.9062291, 48.4660569], [6.9062083, 48.4659379], [6.9062369, 48.4657746], [6.9063422, 48.4656993], [6.9063202, 48.465648], [6.9064406, 48.4655539], [6.9065822, 48.4655211], [6.9067326, 48.4654419], [6.906954, 48.465407], [6.9071364, 48.4654066], [6.9075291, 48.4655775], [6.9076126, 48.4655812], [6.9081195, 48.4659711], [6.9081762, 48.4660703], [6.9082811, 48.4661565], [6.9083747, 48.4662003], [6.9084613, 48.4662094], [6.9085161, 48.4661958], [6.9085913, 48.4660914], [6.9086734, 48.466034], [6.9088103, 48.4659825], [6.9089596, 48.4659457], [6.909052, 48.4659084], [6.9091381, 48.4658536], [6.9091484, 48.4657797], [6.9091128, 48.4656469], [6.9090873, 48.4655314], [6.9091711, 48.4654269], [6.9093676, 48.4653003], [6.9095775, 48.4652301], [6.9098678, 48.4651724], [6.910213, 48.4651552], [6.9105617, 48.4651904], [6.9108185, 48.4652749], [6.9109125, 48.4654059], [6.9109141, 48.4656521], [6.9109483, 48.4657891], [6.911098, 48.4660426], [6.9113586, 48.4664879], [6.9115243, 48.4667961], [6.9116428, 48.4671096], [6.9118797, 48.4673569], [6.9119954, 48.467386], [6.9121435, 48.4673719], [6.9122183, 48.4673083], [6.9123794, 48.4671055], [6.9125063, 48.4669038], [6.9125533, 48.4667756], [6.9126212, 48.4664453], [6.9126395, 48.466214], [6.9126698, 48.4661534], [6.9127866, 48.4659197], [6.9128887, 48.4657655], [6.9130388, 48.4655908], [6.9132016, 48.4654322], [6.9132591, 48.4653929], [6.9134266, 48.4653062], [6.9136936, 48.4652147], [6.9139829, 48.4651586], [6.9141653, 48.4651498], [6.9143211, 48.4651291], [6.9144464, 48.4650865], [6.9148606, 48.4650615], [6.9152984, 48.4650576], [6.9156554, 48.4651084], [6.9160097, 48.4652558], [6.9162223, 48.465377], [6.916367, 48.4655144], [6.9165223, 48.4657237], [6.9165681, 48.465903], [6.916552, 48.4660797], [6.9286361, 48.4673842]]], [[[6.916552, 48.4660797], [6.9162203, 48.4663462], [6.9157844, 48.4666961], [6.9151409, 48.467156], [6.9148053, 48.4674303], [6.9146377, 48.4676412], [6.9145181, 48.4680002], [6.9144783, 48.4683108], [6.9145282, 48.4683937], [6.9145868, 48.4684526], [6.9146964, 48.4684804], [6.9151415, 48.4683697], [6.9156673, 48.4683734], [6.9160942, 48.4684315], [6.9165344, 48.4686125], [6.9169312, 48.4689472], [6.9171515, 48.4691548], [6.9172912, 48.4693752], [6.9173592, 48.4698387], [6.91735, 48.4701872], [6.917274, 48.4705404], [6.9169593, 48.4710564], [6.9167476, 48.4712913], [6.9164002, 48.471572], [6.9161633, 48.471721], [6.9159252, 48.4717515], [6.9155076, 48.4716859], [6.9149963, 48.4712649], [6.9147881, 48.4711467], [6.9146949, 48.4712558], [6.9146259, 48.4713969], [6.9145, 48.4714718], [6.914137, 48.4714182], [6.9139599, 48.4713389], [6.913808, 48.4711436], [6.9136446, 48.4711543], [6.9135342, 48.4712939], [6.9133927, 48.4713122], [6.9131541, 48.4712718], [6.9129274, 48.4711642], [6.9126663, 48.4711947], [6.9125041, 48.4712565], [6.9125075, 48.4713595], [6.9126069, 48.4714964], [6.9132971, 48.4718802], [6.914124, 48.4722647], [6.9149581, 48.4729926], [6.914919, 48.4731156], [6.9148352, 48.4731671], [6.9135349, 48.4733502], [6.9126459, 48.4731903], [6.9118812, 48.4728754], [6.9116509, 48.472899], [6.9115413, 48.4730411], [6.9117294, 48.4732381], [6.9120809, 48.47351], [6.9124453, 48.4738163], [6.9127525, 48.4739969], [6.9134347, 48.4742423], [6.9141073, 48.4744342], [6.9148417, 48.4747393], [6.914837, 48.4749538], [6.9144527, 48.4753351], [6.914126, 48.4756298], [6.9138393, 48.4761015], [6.9135591, 48.4763675], [6.9132599, 48.4765383], [6.9129792, 48.4765749], [6.9124822, 48.4765719], [6.9119852, 48.4764377], [6.9117598, 48.4762668], [6.9115113, 48.4759282], [6.9112679, 48.4756115], [6.9111223, 48.4756007], [6.9110257, 48.4756787], [6.9109436, 48.4760951], [6.9108152, 48.4761478], [6.9103425, 48.4759838], [6.9099456, 48.4758112], [6.9094412, 48.4755592], [6.9091028, 48.4753155], [6.9087644, 48.4750588], [6.908159, 48.4748542], [6.9086277, 48.4753802], [6.9089596, 48.4758008], [6.9093041, 48.4761667], [6.9098391, 48.4764933], [6.9106179, 48.4767757], [6.9110578, 48.4769387], [6.9114682, 48.4771614], [6.9119237, 48.4773383], [6.9121952, 48.4774695], [6.9121856, 48.4776282], [6.9120555, 48.4777425], [6.9117984, 48.4778266], [6.9115023, 48.4779064], [6.9112452, 48.4779258], [6.9108678, 48.4779345], [6.9105489, 48.4779409], [6.9102202, 48.4779798], [6.9099599, 48.477956], [6.9096345, 48.4778654], [6.9094171, 48.4777311], [6.9091568, 48.4776492], [6.9089843, 48.4777053], [6.9088347, 48.4778412], [6.9086036, 48.477867], [6.9083075, 48.4778563], [6.9078747, 48.4778088], [6.9075754, 48.4777182], [6.9072354, 48.4775433], [6.90705, 48.4773945], [6.9068742, 48.477319], [6.9066465, 48.4773039], [6.9062365, 48.4775002], [6.9060347, 48.477662], [6.9058037, 48.4777633], [6.9055943, 48.4778987], [6.9053763, 48.4779548], [6.9050997, 48.4779591], [6.9048557, 48.4779246], [6.9045596, 48.4778254], [6.9042862, 48.4777866], [6.904048, 48.4777451], [6.9038528, 48.4776523], [6.9033809, 48.4776394], [6.9030686, 48.477607], [6.9028213, 48.4776652], [6.9028994, 48.477868], [6.9030523, 48.4780061], [6.9032499, 48.4781269], [6.903196, 48.4782557], [6.9028856, 48.4783079], [6.90243, 48.4784604], [6.9023656, 48.4787106], [6.9023702, 48.4789882], [6.9024664, 48.4793456], [6.9026313, 48.4795283], [6.9028719, 48.4796284], [6.9031007, 48.4795957], [6.9035794, 48.479348], [6.9040279, 48.4792787], [6.9045614, 48.4790797], [6.9053101, 48.4790733], [6.9060472, 48.4791331], [6.9065879, 48.479234], [6.9068746, 48.4792804], [6.9072689, 48.4791536], [6.9077024, 48.4790505], [6.9085275, 48.4789953], [6.9092016, 48.479045], [6.9096774, 48.4790306], [6.9101202, 48.4790133], [6.9106278, 48.4790773], [6.9107276, 48.4791189], [6.9107597, 48.4791626], [6.9106572, 48.4793293], [6.9104666, 48.4795094], [6.9102819, 48.4798152], [6.9101689, 48.4800543], [6.9100892, 48.480175], [6.9099444, 48.4803869], [6.9098594, 48.4804523], [6.9097242, 48.4804912], [6.909648, 48.4805367], [6.9096179, 48.4806082], [6.9096001, 48.4808536], [6.9095608, 48.480955], [6.9093879, 48.4811168], [6.9091962, 48.4813873], [6.9089296, 48.4815338], [6.9088082, 48.4816283], [6.9086859, 48.4816713], [6.9084373, 48.4818501], [6.90824, 48.482091], [6.9080961, 48.4821807], [6.9077133, 48.4822467], [6.9071255, 48.4824541], [6.9064854, 48.4825535], [6.9064229, 48.482579], [6.9063979, 48.4826181], [6.9064316, 48.4826849], [6.9065451, 48.4827292], [6.9066765, 48.4827251], [6.9069789, 48.4828304], [6.9072949, 48.4829086], [6.9073658, 48.4829517], [6.9076243, 48.4830027], [6.9078326, 48.4829994], [6.9081672, 48.4830372], [6.9084575, 48.4831179], [6.9086147, 48.483112], [6.9087937, 48.4829175], [6.9088452, 48.4828054], [6.9089289, 48.4827151], [6.9091823, 48.4825964], [6.9096046, 48.4825106], [6.9098365, 48.4825079], [6.9100269, 48.4825121], [6.9100759, 48.4824809], [6.9101071, 48.4822406], [6.9100908, 48.4820301], [6.910144, 48.48196], [6.9104684, 48.4817937], [6.9105741, 48.4813716], [6.9107251, 48.4811257], [6.9109716, 48.4809906], [6.9110982, 48.4808416], [6.9111625, 48.480669], [6.9113802, 48.4805169], [6.9115638, 48.4803354], [6.911755, 48.4802067], [6.9120346, 48.479561], [6.9121536, 48.4794614], [6.9123439, 48.4793688], [6.9125064, 48.4793198], [6.9126375, 48.4793222], [6.9127493, 48.4793702], [6.9128331, 48.4794455], [6.9129924, 48.4796697], [6.9130209, 48.4797584], [6.9131086, 48.479863], [6.9134666, 48.4803897], [6.9137998, 48.4807832], [6.9141979, 48.4811277], [6.9143194, 48.4812201], [6.9145672, 48.4814776], [6.9145738, 48.4817859], [6.914617, 48.4821127], [6.9146687, 48.4822212], [6.914779, 48.4823382], [6.9148976, 48.4823931], [6.9150448, 48.4823602], [6.9151964, 48.4819713], [6.9153153, 48.4818279], [6.9154448, 48.4817537], [6.9156666, 48.481738], [6.9159118, 48.4817809], [6.9161878, 48.4818781], [6.9167072, 48.4821406], [6.9171777, 48.48233], [6.917412, 48.4824592], [6.9184688, 48.4828747], [6.9186365, 48.4829239], [6.9187014, 48.4829224], [6.91871, 48.4828953], [6.9186978, 48.4828584], [6.9186483, 48.4828141], [6.9186122, 48.4827081], [6.9185258, 48.4826042], [6.918442, 48.4825284], [6.9183173, 48.4824536], [6.9182135, 48.482354], [6.918109, 48.4822799], [6.9180122, 48.4821854], [6.9177891, 48.4821102], [6.9176659, 48.4820366], [6.9175194, 48.4819751], [6.9173909, 48.4818932], [6.9172289, 48.4817742], [6.9170867, 48.481712], [6.9169359, 48.4815768], [6.9167234, 48.4814308], [6.9166263, 48.4813416], [6.9165821, 48.4812514], [6.9166089, 48.4811868], [6.9167304, 48.4809581], [6.9166946, 48.4808876], [6.916632, 48.4808682], [6.9165561, 48.4808706], [6.916397, 48.4809403], [6.9162745, 48.4809874], [6.9159713, 48.4810306], [6.9157098, 48.4809408], [6.915556, 48.4808355], [6.9154021, 48.480685], [6.9152957, 48.4805138], [6.9149308, 48.4802268], [6.9145802, 48.4796676], [6.9145545, 48.4795546], [6.9145896, 48.4793522], [6.9146832, 48.4792639], [6.9147173, 48.4792006], [6.9146936, 48.4791058], [6.9145961, 48.4790153], [6.9145831, 48.478924], [6.9146308, 48.4788269], [6.9147107, 48.4787431], [6.9148487, 48.478672], [6.9149863, 48.4786121], [6.9150952, 48.4785593], [6.9151696, 48.4785179], [6.9152578, 48.4784631], [6.91532, 48.4784579], [6.9155659, 48.478423], [6.9156259, 48.4783982], [6.9159675, 48.4784109], [6.9165085, 48.4785], [6.9168438, 48.4786118], [6.9172284, 48.4786888], [6.9187821, 48.4791127], [6.9189471, 48.4791957], [6.9190145, 48.4791962], [6.9191796, 48.4791446], [6.9193346, 48.4791198], [6.9199906, 48.479134], [6.9204835, 48.4791798], [6.9208007, 48.4792212], [6.921352, 48.4792551], [6.9216131, 48.4792199], [6.9218077, 48.4792266], [6.9221405, 48.4792797], [6.9230041, 48.4792966], [6.9230992, 48.4792764], [6.9230969, 48.4792279], [6.9229507, 48.4791616], [6.9225625, 48.4790198], [6.9221764, 48.4789176], [6.9217509, 48.478764], [6.9214993, 48.4786437], [6.9211379, 48.4784286], [6.9210008, 48.4782819], [6.9209768, 48.4782292], [6.9210136, 48.4781263], [6.9209847, 48.478063], [6.9209287, 48.4780206], [6.9208253, 48.4780292], [6.9207055, 48.4780807], [6.9205567, 48.4781674], [6.9204082, 48.4783128], [6.920313, 48.4783464], [6.920171, 48.47835], [6.9199254, 48.478342], [6.9197791, 48.4783193], [6.9195232, 48.4782505], [6.9192702, 48.4781414], [6.919101, 48.4780139], [6.9190325, 48.4778913], [6.9190024, 48.4777214], [6.9189703, 48.4775736], [6.9189027, 48.4774778], [6.9187836, 48.4774141], [6.9185803, 48.4773822], [6.9184001, 48.4774193], [6.918187, 48.477488], [6.9179132, 48.4775576], [6.9177598, 48.4775505], [6.9175442, 48.4774678], [6.9173149, 48.4773106], [6.9172065, 48.4770151], [6.9172037, 48.4767563], [6.917255, 48.4766489], [6.9173005, 48.4764688], [6.9174787, 48.4762402], [6.9177125, 48.4761457], [6.917884, 48.4760296], [6.9181608, 48.4759292], [6.9183407, 48.4758908], [6.9184746, 48.4758209], [6.918663, 48.4757007], [6.9186558, 48.4756277], [6.9185881, 48.475517], [6.9185889, 48.4754153], [6.9188093, 48.4750866], [6.9191766, 48.4746821], [6.9195238, 48.4744585], [6.91968, 48.4744029], [6.9199911, 48.4743954], [6.9202271, 48.4744378], [6.9205164, 48.4744455], [6.9207306, 48.4744056], [6.9207764, 48.4743538], [6.9207437, 48.4741878], [6.9206784, 48.4740835], [6.9205072, 48.4739022], [6.9204631, 48.4737904], [6.9204908, 48.4735383], [6.9206054, 48.4733157], [6.9207754, 48.4731926], [6.9209898, 48.4731227], [6.9213058, 48.4730767], [6.9217275, 48.4730555], [6.9221085, 48.473061], [6.9227831, 48.4730971], [6.9229544, 48.4731404], [6.9235675, 48.4732135], [6.9240338, 48.4733024], [6.9248729, 48.473558], [6.9267578, 48.4739627], [6.9271251, 48.4740829], [6.9275427, 48.4743247], [6.9279005, 48.4746118], [6.9283266, 48.4749464], [6.928375, 48.4750644], [6.9283808, 48.4753422], [6.9283369, 48.4754035], [6.9283399, 48.4755198], [6.9284358, 48.4756583], [6.9284502, 48.475783], [6.9285584, 48.4759385], [6.9287098, 48.4760445], [6.9288081, 48.4761862], [6.9289442, 48.4762614], [6.9290289, 48.4762391], [6.9291141, 48.4761463], [6.9291265, 48.4760078], [6.9291127, 48.4757697], [6.9291169, 48.4751967], [6.9290773, 48.4749546], [6.9290551, 48.4747627], [6.929053, 48.4747024], [6.9290125, 48.4746405], [6.9288613, 48.4745445], [6.928661, 48.4744471], [6.9285292, 48.4741862], [6.9284641, 48.4740127], [6.9283558, 48.4738936], [6.9281001, 48.4736028], [6.9276532, 48.4731557], [6.9275775, 48.4730008], [6.9275633, 48.4729099], [6.9276488, 48.4727667], [6.927638, 48.4726627], [6.9275339, 48.4725561], [6.92725, 48.4724819], [6.9271104, 48.4724901], [6.9269414, 48.47257], [6.9267385, 48.4725875], [6.9264435, 48.4725394], [6.9260758, 48.4724169], [6.9255565, 48.4721667], [6.9251787, 48.4719151], [6.9250784, 48.4717619], [6.9244462, 48.4715739], [6.9241032, 48.4715001], [6.9239134, 48.4714759], [6.9236435, 48.4713333], [6.9233538, 48.4712597], [6.923154, 48.4711076], [6.9229503, 48.4710051], [6.9226303, 48.4707727], [6.9223657, 48.4705242], [6.9222745, 48.4703854], [6.9222128, 48.470209], [6.9222128, 48.4700209], [6.9222879, 48.4698039], [6.9224332, 48.4695786], [6.9225559, 48.4695107], [6.9226223, 48.4694193], [6.92253, 48.4693381], [6.9223872, 48.4693081], [6.9220959, 48.4692342], [6.9217502, 48.4689706], [6.9214325, 48.4685065], [6.9211787, 48.4679998], [6.9210814, 48.4676004], [6.9210994, 48.4675456], [6.9210859, 48.4674959], [6.9210353, 48.4674435], [6.9208907, 48.4667033], [6.9209146, 48.466279], [6.9209066, 48.4658857], [6.9209525, 48.4656128], [6.9210395, 48.4655537], [6.9210789, 48.4654915], [6.9211928, 48.4654469], [6.921371, 48.4654197], [6.9215511, 48.4654399], [6.9224537, 48.4655092], [6.9225773, 48.465565], [6.9227371, 48.4655787], [6.9233465, 48.4657967], [6.9240103, 48.4660057], [6.9245687, 48.4661168], [6.9247716, 48.4661288], [6.9249899, 48.4661187], [6.9252422, 48.4661431], [6.9255475, 48.4662735], [6.9256646, 48.4664247], [6.9257066, 48.4666285], [6.9257232, 48.4667306], [6.9257988, 48.4667938], [6.9261802, 48.4668809], [6.9263976, 48.4668179], [6.9265277, 48.4668224], [6.9268917, 48.4669568], [6.9274165, 48.4671197], [6.9281526, 48.4673017], [6.9284285, 48.467338], [6.9286361, 48.4673842], [6.916552, 48.4660797]]]]}}, {"type": "Feature", "properties": {"name": "Étang du Breuil"}, "geometry": {"type": "Polygon", "coordinates": [[[6.1936179, 48.5728266], [6.1934115, 48.5726695], [6.1930709, 48.5724783], [6.1928645, 48.5726559], [6.19304, 48.57297], [6.1927613, 48.5733046], [6.192235, 48.5735368], [6.1910791, 48.5738167], [6.1898406, 48.574206], [6.1891285, 48.5743425], [6.1887777, 48.5742811], [6.1887668, 48.574089], [6.1888449, 48.5737822], [6.188923, 48.5735851], [6.1890402, 48.5733299], [6.1890402, 48.5730392], [6.1891378, 48.5727614], [6.1892062, 48.5724675], [6.1892013, 48.5721929], [6.1891623, 48.5719474], [6.1892208, 48.5717859], [6.1892057, 48.5716416], [6.1892115, 48.5715741], [6.1897568, 48.5704977], [6.1899092, 48.5703032], [6.1902118, 48.5700933], [6.1904483, 48.5699488], [6.191983, 48.5692081], [6.1922378, 48.5690789], [6.1926772, 48.5688851], [6.1928836, 48.5688042], [6.1930292, 48.5687662], [6.1933899, 48.5687494], [6.1937853, 48.5688787], [6.1942149, 48.5690369], [6.1946006, 48.5691403], [6.1948816, 48.5692629], [6.1952003, 48.5694829], [6.1954797, 48.5696311], [6.1956873, 48.5697395], [6.1961138, 48.5700814], [6.1962666, 48.570244], [6.1963618, 48.5703096], [6.1965027, 48.5705709], [6.1965812, 48.5708841], [6.196572, 48.5710492], [6.1965443, 48.5712493], [6.1964034, 48.5714495], [6.196184, 48.5717643], [6.1959, 48.5720439], [6.195706, 48.5721722], [6.1953319, 48.5722609], [6.193817, 48.5728216], [6.1936179, 48.5728266]]]}}, {"type": "Feature", "properties": {"name": "Étang du Grand Rozot"}, "geometry": {"type": "Polygon", "coordinates": [[[6.2828387, 48.5135108], [6.2823505, 48.513233], [6.2818706, 48.512765], [6.2815547, 48.5122348], [6.281323, 48.5119069], [6.2813124, 48.5114464], [6.281323, 48.5112859], [6.281308, 48.5110229], [6.281576, 48.5105222], [6.2819149, 48.5101991], [6.2822649, 48.5101004], [6.2824846, 48.510093], [6.2828197, 48.5101818], [6.2829947, 48.5102903], [6.2830505, 48.5104211], [6.2829855, 48.5105877], [6.2829935, 48.5106645], [6.2830512, 48.5106694], [6.2830964, 48.510578], [6.2831741, 48.5105319], [6.2833084, 48.5105654], [6.2834623, 48.5105513], [6.2835259, 48.5105103], [6.2837639, 48.5103908], [6.2840074, 48.5104294], [6.284163, 48.5103493], [6.2842462, 48.510159], [6.2844462, 48.5100897], [6.2845411, 48.5101008], [6.2846746, 48.5100674], [6.2847288, 48.5098865], [6.2847305, 48.5097414], [6.2848623, 48.5096718], [6.2857128, 48.5093308], [6.2859995, 48.5092025], [6.2863309, 48.509311], [6.287083, 48.5090792], [6.2872506, 48.5090866], [6.2877644, 48.5091778], [6.2878798, 48.5092642], [6.2879096, 48.5097427], [6.2878538, 48.5102311], [6.287608, 48.5106505], [6.2875261, 48.5109983], [6.2875336, 48.5116544], [6.2873139, 48.5123969], [6.2871873, 48.5127965], [6.2870346, 48.5138423], [6.2861633, 48.513793], [6.2847447, 48.513719], [6.2828387, 48.5135108]]]}}, {"type": "Feature", "properties": {"name": "Les Paquis"}, "geometry": {"type": "Polygon", "coordinates": [[[6.2841168, 48.519806], [6.2837598, 48.5197226], [6.2834508, 48.5194346], [6.2828023, 48.5193765], [6.2793672, 48.5177745], [6.2769319, 48.5165557], [6.2767274, 48.5163422], [6.2769641, 48.5156565], [6.2773453, 48.5154359], [6.2780945, 48.5152879], [6.27841, 48.5154417], [6.2786597, 48.5154388], [6.2792644, 48.5155607], [6.280018, 48.515584], [6.2809863, 48.5155549], [6.2817925, 48.5153837], [6.2820335, 48.5154417], [6.282292, 48.5153082], [6.2822219, 48.5151805], [6.2825856, 48.5150354], [6.2828485, 48.5147626], [6.2829843, 48.5143446], [6.283015, 48.5139064], [6.283199, 48.5138802], [6.2841585, 48.5139528], [6.2852057, 48.5141386], [6.2861652, 48.5143272], [6.2863361, 48.514719], [6.2861477, 48.5155027], [6.2857446, 48.5170264], [6.2854467, 48.517366], [6.2853678, 48.5178826], [6.2850129, 48.5184892], [6.2849647, 48.5187939], [6.2847632, 48.5190203], [6.2846054, 48.5193743], [6.2843732, 48.5197313], [6.2841168, 48.519806]]]}}]}