{"type": "FeatureCollection", "features": [{"type": "Feature", "properties": {"name": "Étang de Lachaussée"}, "geometry": {"type": "Polygon", "coordinates": [[[5.7958673, 49.0166968], [5.7958639, 49.0166592], [5.7965035, 49.0167328], [5.7980059, 49.0165985], [5.7987229, 49.0161543], [5.798353, 49.0155758], [5.7978133, 49.0151613], [5.7962269, 49.0144025], [5.7959295, 49.0141856], [5.7951003, 49.0145995], [5.7955348, 49.0142266], [5.7941418, 49.0134297], [5.7934642, 49.0133259], [5.7936714, 49.0128771], [5.7931175, 49.0117127], [5.79252, 49.0109579], [5.7925147, 49.0103598], [5.7927051, 49.010081], [5.7931316, 49.010124], [5.7945971, 49.0122166], [5.7949954, 49.0133924], [5.7959629, 49.0139896], [5.7988936, 49.0150906], [5.7999283, 49.0154228], [5.8008284, 49.016005], [5.8013874, 49.0163024], [5.802072, 49.0164746], [5.8035707, 49.0165416], [5.8050013, 49.016343], [5.8074026, 49.0175251], [5.8101247, 49.0186865], [5.8112677, 49.0197194], [5.8114416, 49.0203342], [5.8110148, 49.0209873], [5.8114286, 49.0216957], [5.8119652, 49.0220088], [5.812987, 49.02222], [5.8141494, 49.0232926], [5.8154046, 49.0247102], [5.8166771, 49.0263015], [5.8166771, 49.0277042], [5.8161831, 49.0278394], [5.8161342, 49.0293709], [5.8163166, 49.0301834], [5.8161365, 49.0309318], [5.8166771, 49.031678], [5.8175826, 49.0317978], [5.8176631, 49.0315269], [5.8181244, 49.0318013], [5.8187185, 49.0325505], [5.8188071, 49.0332399], [5.8185148, 49.0335318], [5.8179525, 49.0339345], [5.8170218, 49.0343915], [5.8164934, 49.0346325], [5.8163271, 49.0348716], [5.8163126, 49.0349604], [5.8164601, 49.0350265], [5.8167873, 49.0351285], [5.8171309, 49.0351313], [5.8173084, 49.0351046], [5.8174752, 49.0350948], [5.8176392, 49.0350543], [5.8180856, 49.0347452], [5.8182143, 49.0346889], [5.8183242, 49.0347285], [5.8184437, 49.0348147], [5.8184168, 49.0348481], [5.8182733, 49.0347874], [5.8181271, 49.034849], [5.8179139, 49.0349843], [5.8177042, 49.0351092], [5.8175938, 49.0351611], [5.8174591, 49.0351956], [5.8174307, 49.0351541], [5.8173144, 49.0351572], [5.8172281, 49.0351981], [5.8171629, 49.035198], [5.8170676, 49.0352286], [5.8169053, 49.0352242], [5.8165989, 49.0351688], [5.8165285, 49.0351958], [5.8161208, 49.0350141], [5.8161018, 49.034942], [5.8161168, 49.0347979], [5.8162885, 49.0346221], [5.8164333, 49.0344814], [5.8163727, 49.0344433], [5.8159679, 49.0345762], [5.8153948, 49.0344422], [5.8144293, 49.034868], [5.8138602, 49.0353343], [5.8135217, 49.0356559], [5.8125454, 49.0358546], [5.8090515, 49.0371437], [5.8048688, 49.039438], [5.8015113, 49.0391956], [5.7978037, 49.0393586], [5.7965146, 49.0387433], [5.797285, 49.0386003], [5.7978201, 49.038501], [5.7987857, 49.0382618], [5.7996869, 49.0384166], [5.8001986, 49.0381425], [5.8008134, 49.037657], [5.801575, 49.0385449], [5.8031151, 49.0388137], [5.8048121, 49.0383564], [5.8044136, 49.0377406], [5.8062062, 49.037181], [5.8072589, 49.0366774], [5.8071167, 49.0359872], [5.8050814, 49.0347743], [5.8047179, 49.0347291], [5.80503, 49.0343975], [5.8062422, 49.0351319], [5.8080841, 49.0359312], [5.8091453, 49.0355071], [5.809804, 49.0349034], [5.8093203, 49.0338205], [5.8091822, 49.0330912], [5.8095068, 49.0324615], [5.8104173, 49.0329652], [5.8098865, 49.0336087], [5.810228, 49.0340135], [5.8107872, 49.034271], [5.8120392, 49.0342524], [5.8132911, 49.0333383], [5.8146569, 49.0331518], [5.8140322, 49.0325922], [5.8126367, 49.0313422], [5.8101328, 49.0299617], [5.807828, 49.0295512], [5.8074915, 49.029422], [5.8058363, 49.0287863], [5.8050889, 49.028474], [5.8035415, 49.0284557], [5.8013947, 49.0282037], [5.8006862, 49.0283759], [5.800454, 49.0288503], [5.800486, 49.0296199], [5.8000463, 49.0302256], [5.7994057, 49.03054], [5.7978692, 49.0305079], [5.7965938, 49.0304133], [5.7951325, 49.0304894], [5.7937719, 49.0304654], [5.7918301, 49.0301265], [5.7904333, 49.0297008], [5.7881097, 49.0292154], [5.786705, 49.028787], [5.7865119, 49.0285654], [5.7865579, 49.0285425], [5.7867801, 49.0284318], [5.7875097, 49.0286956], [5.7876813, 49.028889], [5.7901814, 49.0291408], [5.7912004, 49.0289207], [5.7915274, 49.0285646], [5.7912433, 49.0282524], [5.790494, 49.0277466], [5.7910556, 49.0279077], [5.7919509, 49.0279841], [5.793035, 49.0278901], [5.7939697, 49.0280441], [5.7952505, 49.0282277], [5.7963535, 49.0282502], [5.7966842, 49.0277074], [5.7958264, 49.0264174], [5.7958421, 49.0258797], [5.7964039, 49.0257937], [5.7970156, 49.0258572], [5.7974079, 49.0264794], [5.7974929, 49.0271338], [5.7979686, 49.0274012], [5.7988301, 49.0274345], [5.8007983, 49.0269709], [5.8018001, 49.0267083], [5.8044103, 49.026893], [5.8058932, 49.0272565], [5.8063227, 49.0276087], [5.806633, 49.0280214], [5.8081918, 49.0287779], [5.8103758, 49.0289026], [5.810625, 49.0287202], [5.8103604, 49.0279468], [5.8100759, 49.0273498], [5.8105311, 49.0267901], [5.8101043, 49.0257639], [5.8091938, 49.0247377], [5.8081126, 49.0238794], [5.8072254, 49.0234936], [5.8073741, 49.0232152], [5.8080876, 49.0233559], [5.8085718, 49.0230808], [5.8082548, 49.0220509], [5.8071167, 49.0215098], [5.8053241, 49.0209127], [5.8045558, 49.0206515], [5.8054948, 49.0201663], [5.8042144, 49.0190654], [5.802308, 49.0184309], [5.8004016, 49.0181137], [5.79804, 49.017218], [5.7966789, 49.0169505], [5.7962215, 49.0168094], [5.7959312, 49.0168148], [5.7959331, 49.0167241], [5.7958673, 49.0166968]]]}}, {"type": "Feature", "properties": {"name": "Étang de Wargevaux"}, "geometry": {"type": "Polygon", "coordinates": [[[5.712321, 48.8537252], [5.7125339, 48.8539786], [5.7126746, 48.8543039], [5.7127089, 48.8546518], [5.712728, 48.8546987], [5.7126385, 48.8547357], [5.7124025, 48.8546881], [5.7121718, 48.8546916], [5.7119405, 48.8549162], [5.7114365, 48.8551614], [5.7102624, 48.8557469], [5.7086161, 48.8561363], [5.7066816, 48.8566754], [5.7057281, 48.8567775], [5.7054368, 48.8567476], [5.7052629, 48.8566928], [5.7051417, 48.8565817], [5.7051136, 48.8564262], [5.7052224, 48.8562559], [5.7054689, 48.8561776], [5.7057238, 48.8560787], [5.7060286, 48.8557918], [5.7063282, 48.8553146], [5.7064721, 48.8552511], [5.70655, 48.8551373], [5.7064238, 48.854944], [5.7060949, 48.8546531], [5.7052232, 48.8543355], [5.7034582, 48.8537584], [5.7029262, 48.8537139], [5.7022369, 48.8538904], [5.7015261, 48.854351], [5.7005846, 48.854861], [5.6994957, 48.8554822], [5.6987822, 48.8557999], [5.6981341, 48.855922], [5.6972963, 48.8557611], [5.6963047, 48.8556008], [5.6951344, 48.8554293], [5.6940669, 48.8554081], [5.6934258, 48.8554646], [5.6929162, 48.8553764], [5.6925514, 48.8553199], [5.6921571, 48.8553552], [5.691669, 48.8555193], [5.6916481, 48.855481], [5.691618, 48.8554258], [5.6922483, 48.8551911], [5.6925282, 48.8549761], [5.6927928, 48.8545998], [5.6929457, 48.854171], [5.6929404, 48.8537686], [5.6928608, 48.8533436], [5.6932005, 48.8531509], [5.6940508, 48.8528279], [5.6950459, 48.8525314], [5.6954831, 48.852452], [5.6961438, 48.8524418], [5.6976128, 48.8525738], [5.6986866, 48.85247], [5.6995547, 48.8525456], [5.7008645, 48.8527947], [5.7032132, 48.8532162], [5.703637, 48.8535409], [5.7040876, 48.8537051], [5.7044632, 48.8537351], [5.7049736, 48.8536666], [5.7057363, 48.8535266], [5.7069173, 48.8533097], [5.7088163, 48.8530528], [5.7092428, 48.8530591], [5.7096505, 48.8531209], [5.7102392, 48.8532336], [5.7118794, 48.853608], [5.712321, 48.8537252]]]}}, {"type": "Feature", "properties": {"name": "Étang d'Amel"}, "geometry": {"type": "Polygon", "coordinates": [[[5.6120781, 49.2685178], [5.6135532, 49.2680015], [5.6141778, 49.267828], [5.6146369, 49.2677005], [5.6151626, 49.2675465], [5.6153021, 49.2674975], [5.6154845, 49.2673575], [5.6165144, 49.2670214], [5.6175122, 49.2667553], [5.618746, 49.2667974], [5.619776, 49.2666854], [5.620763, 49.2672454], [5.6219637, 49.2673145], [5.623456, 49.2675604], [5.6251833, 49.2677005], [5.6274472, 49.2677635], [5.6281659, 49.2680856], [5.6287024, 49.2687016], [5.6271574, 49.2693807], [5.625237, 49.2690726], [5.6231556, 49.2689466], [5.6217823, 49.2689816], [5.6202149, 49.2694427], [5.6201837, 49.2700107], [5.6221364, 49.2705777], [5.6246362, 49.2710537], [5.6255374, 49.2714598], [5.6259549, 49.2717179], [5.6259558, 49.2721738], [5.6250975, 49.2737418], [5.6221793, 49.2749738], [5.6199691, 49.2752538], [5.6218466, 49.2747988], [5.6233916, 49.2741548], [5.6235526, 49.2734058], [5.6234989, 49.2729158], [5.6227801, 49.2727128], [5.6220934, 49.2722858], [5.6210849, 49.2720128], [5.6202266, 49.2718238], [5.6187782, 49.2717468], [5.6178126, 49.2716348], [5.6172655, 49.2715438], [5.6164608, 49.2716908], [5.6159029, 49.2720618], [5.6141809, 49.2725098], [5.6134236, 49.2724634], [5.6123078, 49.2721414], [5.6115577, 49.2719218], [5.6100011, 49.2716689], [5.6098321, 49.2716356], [5.6097355, 49.2715132], [5.6101817, 49.2708465], [5.610399, 49.2705217], [5.6107667, 49.2699765], [5.6109891, 49.2696467], [5.6120781, 49.2685178]]]}}, {"type": "Feature", "properties": {"name": "Plan d'eau de l'Othain"}, "geometry": {"type": "Polygon", "coordinates": [[[5.4678145, 49.4585048], [5.4677086, 49.458666], [5.4677206, 49.4588099], [5.4677689, 49.458958], [5.4680304, 49.4592361], [5.4683027, 49.4593616], [5.4684167, 49.4594575], [5.4685695, 49.4596737], [5.4687881, 49.4598315], [5.4692213, 49.4600241], [5.4695807, 49.4601531], [5.4697712, 49.4602839], [5.4702044, 49.4604687], [5.4703344, 49.4605524], [5.4703988, 49.4605707], [5.4704753, 49.4606003], [5.4705048, 49.4606683], [5.4706147, 49.4607729], [5.4706603, 49.4608775], [5.470663, 49.4609995], [5.4705879, 49.4610954], [5.4704162, 49.4612105], [5.469849, 49.4614859], [5.4691891, 49.4617509], [5.4683644, 49.4620046], [5.4681967, 49.4620769], [5.4677434, 49.4620612], [5.4674283, 49.4620482], [5.4673773, 49.4620673], [5.4671185, 49.4620595], [5.4668328, 49.4620272], [5.466686, 49.4620686], [5.4666296, 49.4620529], [5.46657, 49.461995], [5.4664077, 49.4619627], [5.4663004, 49.46192], [5.4661609, 49.4618625], [5.4657894, 49.461798], [5.4655199, 49.4616847], [5.4654394, 49.4616045], [5.4652262, 49.4614807], [5.4648896, 49.4613805], [5.4645047, 49.4612706], [5.4637858, 49.4611617], [5.4633754, 49.4610553], [5.4627894, 49.4610919], [5.4625802, 49.4610344], [5.462147, 49.4611399], [5.4618466, 49.4612454], [5.4615542, 49.4612907], [5.4607871, 49.4616481], [5.4603016, 49.4619418], [5.4602239, 49.4620551], [5.4601219, 49.4620673], [5.4599315, 49.4621955], [5.4596458, 49.4625537], [5.4595727, 49.462623], [5.4595479, 49.4626723], [5.4595828, 49.4627202], [5.4595654, 49.4627476], [5.4596224, 49.4627834], [5.4597122, 49.4628498], [5.4597759, 49.4629128], [5.459736, 49.4629294], [5.4597075, 49.4629111], [5.4596021, 49.4628181], [5.4595365, 49.462784], [5.4594755, 49.4627533], [5.4593937, 49.4627333], [5.459275, 49.4627424], [5.4591288, 49.4627015], [5.4590806, 49.4627036], [5.4590376, 49.4627646], [5.4590551, 49.4628217], [5.459104, 49.4629189], [5.4591899, 49.4631251], [5.4592603, 49.463227], [5.4594158, 49.4633656], [5.4594923, 49.4634188], [5.4595533, 49.4634288], [5.4595754, 49.4634598], [5.4596713, 49.4634794], [5.4598309, 49.4633791], [5.4598752, 49.4633495], [5.4598953, 49.4633024], [5.4599483, 49.4630902], [5.4599925, 49.4630906], [5.4599724, 49.4631573], [5.459961, 49.4633138], [5.4599234, 49.4633748], [5.459784, 49.4634548], [5.4597437, 49.4634877], [5.4597156, 49.4635265], [5.4597069, 49.4635683], [5.459725, 49.4636162], [5.4597826, 49.4636589], [5.459843, 49.4637234], [5.45991, 49.4638585], [5.4599503, 49.463971], [5.4599784, 49.4639806], [5.4599952, 49.4641157], [5.4600931, 49.4641514], [5.4600978, 49.4641706], [5.4601441, 49.4641998], [5.4601406, 49.464242], [5.4601367, 49.4642891], [5.4601132, 49.4642974], [5.4600374, 49.4644347], [5.4599838, 49.4644504], [5.4599382, 49.4644974], [5.4599757, 49.4647424], [5.4600053, 49.4648356], [5.4600804, 49.4649542], [5.4601804, 49.4650164], [5.4602131, 49.4650456], [5.460542, 49.4650686], [5.4609041, 49.464745], [5.4612055, 49.464643], [5.4614322, 49.4645088], [5.4618908, 49.4644164], [5.4622127, 49.4642386], [5.462434, 49.4642473], [5.4628283, 49.4641244], [5.4630616, 49.4640067], [5.463818, 49.4639875], [5.4653227, 49.4640381], [5.4660523, 49.4639614], [5.4663607, 49.4640067], [5.4668462, 49.4641967], [5.4670581, 49.4645245], [5.4678132, 49.4653159], [5.4680157, 49.4656488], [5.468127, 49.4660114], [5.4681216, 49.4661273], [5.4682048, 49.4661639], [5.4682343, 49.4662642], [5.468194, 49.4663287], [5.4682718, 49.4667941], [5.4682557, 49.4669492], [5.4681551, 49.4670939], [5.4680143, 49.4671802], [5.46762, 49.4672882], [5.4673693, 49.467378], [5.4673371, 49.4674216], [5.4672593, 49.4674016], [5.4672311, 49.4673536], [5.4671386, 49.4673275], [5.4663353, 49.4675593], [5.4661864, 49.4676221], [5.4664828, 49.4679123], [5.4664613, 49.4679227], [5.4666565, 49.4681204], [5.46669, 49.4681073], [5.4669284, 49.4683514], [5.4673532, 49.4681398], [5.467726, 49.4680439], [5.4687908, 49.4678487], [5.4690537, 49.4676639], [5.4691583, 49.4672368], [5.4693997, 49.4669579], [5.4694346, 49.4664559], [5.4693058, 49.4661369], [5.4693112, 49.4655041], [5.4693541, 49.4651851], [5.4693048, 49.4648756], [5.4684582, 49.4639928], [5.4672298, 49.4634628], [5.4669991, 49.4635709], [5.4668355, 49.4635404], [5.4667698, 49.4633983], [5.4667805, 49.4632702], [5.4666008, 49.4631769], [5.466287, 49.4630915], [5.4663192, 49.4630401], [5.4666799, 49.4629677], [5.4667725, 49.4628841], [5.4671735, 49.4628588], [5.4677112, 49.4627742], [5.4686723, 49.4627344], [5.4698567, 49.4626052], [5.4707301, 49.4624047], [5.4711646, 49.4619514], [5.4714838, 49.4614127], [5.471415, 49.461352], [5.471558, 49.461217], [5.4716755, 49.4611259], [5.4717801, 49.4610893], [5.4718298, 49.4609089], [5.4718418, 49.4608609], [5.4718365, 49.4608052], [5.4717708, 49.4607101], [5.4716527, 49.4606134], [5.4714972, 49.4605306], [5.4712886, 49.4604661], [5.4712424, 49.4604652], [5.4711827, 49.4604752], [5.4711056, 49.4604534], [5.4711036, 49.4603641], [5.4708239, 49.4603349], [5.4707676, 49.4603471], [5.4707227, 49.4603301], [5.4707193, 49.4602856], [5.470832, 49.4602394], [5.4708655, 49.4601819], [5.4708172, 49.4601069], [5.470596, 49.4599553], [5.4701158, 49.4597495], [5.4696518, 49.4595491], [5.4690456, 49.4592074], [5.4687814, 49.4590339], [5.4682463, 49.4585318], [5.4678145, 49.4585048]]]}}, {"type": "Feature", "properties": {"name": "Étang de Perroi"}, "geometry": {"type": "Polygon", "coordinates": [[[5.5852809, 49.1981068], [5.5854027, 49.1979804], [5.5854455, 49.1978675], [5.5856211, 49.1978036], [5.5856439, 49.1977615], [5.5856144, 49.1975985], [5.5855568, 49.1975047], [5.585597, 49.1974399], [5.5857486, 49.1974609], [5.5859953, 49.1972375], [5.586234, 49.1970709], [5.5864003, 49.1969526], [5.5864823, 49.196823], [5.586293, 49.1965627], [5.5861017, 49.1963729], [5.5850549, 49.1958045], [5.5844718, 49.1956617], [5.5838597, 49.1955339], [5.5836779, 49.1953717], [5.5836028, 49.1951762], [5.5836317, 49.1948129], [5.5837905, 49.1940132], [5.5837735, 49.193404], [5.5834689, 49.1932423], [5.5826679, 49.1931846], [5.5815394, 49.1930269], [5.5799378, 49.1926145], [5.5792552, 49.1925864], [5.5791718, 49.1930317], [5.5786785, 49.1933312], [5.5798398, 49.1936602], [5.5805612, 49.1941745], [5.5813567, 49.1946354], [5.5817467, 49.1955242], [5.5821544, 49.1958326], [5.5833408, 49.1963978], [5.5832561, 49.1965128], [5.5822134, 49.1968633], [5.5812529, 49.1970677], [5.5800134, 49.197372], [5.5793152, 49.1981903], [5.5790538, 49.1986475], [5.5784636, 49.1989893], [5.5773507, 49.1989023], [5.5765233, 49.1983134], [5.5760267, 49.1984507], [5.5758391, 49.1990651], [5.5757815, 49.1994537], [5.5760231, 49.1998116], [5.5770776, 49.200598], [5.5774927, 49.2005859], [5.5780729, 49.200399], [5.5794549, 49.2000629], [5.5812769, 49.2000325], [5.5819023, 49.1997324], [5.5823782, 49.1994405], [5.5830502, 49.1988613], [5.583517, 49.198665], [5.5837369, 49.1986238], [5.5839702, 49.1986667], [5.5841714, 49.1986492], [5.5842318, 49.1986352], [5.5843203, 49.1986457], [5.5844007, 49.1986089], [5.5844584, 49.1986256], [5.5847006, 49.1985974], [5.5848487, 49.1985423], [5.58496, 49.1984538], [5.5850547, 49.198326], [5.5850337, 49.198247], [5.5851544, 49.1982093], [5.5851796, 49.1981909], [5.5852809, 49.1981068]]]}}, {"type": "Feature", "properties": {"name": "Étang de Blonnaux"}, "geometry": {"type": "Polygon", "coordinates": [[[5.7178174, 48.807163], [5.7173618, 48.8069958], [5.7168042, 48.8067636], [5.7161247, 48.8063308], [5.7158557, 48.806039], [5.7154004, 48.8048397], [5.7149678, 48.8044372], [5.7136761, 48.8038968], [5.7133346, 48.8038626], [5.7130626, 48.803917], [5.7129478, 48.8040545], [5.7125549, 48.8046828], [5.7123858, 48.8046889], [5.7123506, 48.8047889], [5.7119843, 48.8047996], [5.7117524, 48.8047218], [5.7112001, 48.8045011], [5.7103961, 48.8041459], [5.7092689, 48.8035938], [5.7088033, 48.803146], [5.708465, 48.8030583], [5.7069766, 48.8029736], [5.7068056, 48.8031489], [5.7073035, 48.80334], [5.7074439, 48.8034934], [5.7082343, 48.8040193], [5.7101521, 48.8049243], [5.7097683, 48.805197], [5.7098602, 48.8056826], [5.7096195, 48.8064202], [5.7097256, 48.8067645], [5.7102956, 48.8071412], [5.710631, 48.8072177], [5.711137, 48.8069789], [5.7117874, 48.806891], [5.7121806, 48.8068375], [5.712372, 48.8068601], [5.7127746, 48.8069546], [5.7132185, 48.8070998], [5.7136514, 48.8073123], [5.71385, 48.8074376], [5.7139783, 48.8075854], [5.7139906, 48.8077355], [5.7139658, 48.8078934], [5.7138555, 48.8080823], [5.7138727, 48.8081778], [5.7139802, 48.8082813], [5.7144315, 48.8085311], [5.7156246, 48.8089503], [5.7162523, 48.8091348], [5.716859, 48.809044], [5.7172238, 48.8083938], [5.7178412, 48.8074453], [5.7178174, 48.807163]]]}}, {"type": "Feature", "properties": {"name": "Le Neuf Étang"}, "geometry": {"type": "Polygon", "coordinates": [[[5.7369112, 48.7811936], [5.7370255, 48.7811832], [5.7371312, 48.7812096], [5.737254, 48.7812322], [5.7373966, 48.7812308], [5.7379201, 48.7811227], [5.738205, 48.7810553], [5.7383992, 48.7809819], [5.7389124, 48.780715], [5.7392389, 48.7806055], [5.7398432, 48.7804597], [5.7400873, 48.7803747], [5.7401893, 48.7802894], [5.7402675, 48.7801944], [5.7406954, 48.7793634], [5.7409584, 48.7788293], [5.7412609, 48.7782229], [5.7417436, 48.777327], [5.7420179, 48.7768236], [5.7420281, 48.7766569], [5.7420003, 48.7765481], [5.7419549, 48.776482], [5.7418778, 48.7764688], [5.7417236, 48.7764726], [5.7414323, 48.7764707], [5.7410959, 48.7764393], [5.7405152, 48.7763204], [5.7400386, 48.7761899], [5.7397397, 48.7760356], [5.7392619, 48.7757271], [5.7389763, 48.7755857], [5.7387502, 48.7755165], [5.7385612, 48.7754254], [5.7383246, 48.7753306], [5.7381346, 48.7752832], [5.7378776, 48.7752606], [5.7374692, 48.7752323], [5.7373892, 48.7752832], [5.7371534, 48.7754652], [5.7367583, 48.7757579], [5.7365632, 48.7759018], [5.7364029, 48.7760285], [5.7363087, 48.7762219], [5.7363304, 48.7763925], [5.7363701, 48.7765821], [5.7363273, 48.7769141], [5.736204, 48.7771968], [5.7359964, 48.777544], [5.7358825, 48.7777625], [5.7356996, 48.7785015], [5.7355521, 48.7788077], [5.735475, 48.7788717], [5.7354179, 48.7790166], [5.7354265, 48.7791615], [5.7354767, 48.7793429], [5.7356465, 48.779553], [5.7358288, 48.7797277], [5.7360029, 48.7799264], [5.7361977, 48.7800823], [5.7366192, 48.7803754], [5.7369727, 48.7806607], [5.7370122, 48.7807703], [5.7370777, 48.7808607], [5.7370791, 48.7809343], [5.7370573, 48.7810263], [5.7370084, 48.7811211], [5.7369027, 48.7811399], [5.7369112, 48.7811936]]]}}, {"type": "Feature", "properties": {"name": "Étang du Grand Morinval"}, "geometry": {"type": "Polygon", "coordinates": [[[5.0206068, 48.8754382], [5.0227569, 48.874816], [5.0256276, 48.8754988], [5.0267659, 48.8759271], [5.0282042, 48.8766338], [5.0309875, 48.8775295], [5.0319046, 48.8775902], [5.0328579, 48.8771387], [5.0329276, 48.8766762], [5.0329918, 48.876124], [5.0332898, 48.8755957], [5.0355304, 48.8748705], [5.0366277, 48.8748029], [5.0371286, 48.8747174], [5.0372921, 48.8746507], [5.0373953, 48.8744887], [5.0373105, 48.8742838], [5.0371319, 48.8740788], [5.0368682, 48.8740218], [5.0366275, 48.8740251], [5.0360779, 48.8737835], [5.0359192, 48.8734184], [5.0359389, 48.8728964], [5.0360625, 48.8725878], [5.0366276, 48.8725255], [5.0367765, 48.8725222], [5.0371158, 48.8724605], [5.0374891, 48.8722677], [5.0378004, 48.8720606], [5.0380036, 48.8717097], [5.0380735, 48.8714968], [5.0379225, 48.8713137], [5.037737, 48.8712369], [5.0372748, 48.8712609], [5.0366277, 48.8713026], [5.0351466, 48.8716059], [5.032964, 48.8709067], [5.0298595, 48.8718919], [5.028864, 48.872164], [5.0265944, 48.8722153], [5.025486, 48.8717727], [5.0242903, 48.8716019], [5.0234603, 48.8714505], [5.0200814, 48.8736951], [5.0200083, 48.8744278], [5.0206068, 48.8754382]]]}}, {"type": "Feature", "properties": {"name": "Étang du Haut Fourneau"}, "geometry": {"type": "Polygon", "coordinates": [[[5.517177, 49.3130171], [5.5181464, 49.3129848], [5.5197643, 49.3133531], [5.5214488, 49.3139966], [5.5221032, 49.3145002], [5.5221859, 49.3147299], [5.5227515, 49.3151879], [5.523406, 49.3156407], [5.5237654, 49.3158383], [5.5239773, 49.3158873], [5.5240712, 49.3159013], [5.52422, 49.3158619], [5.5243815, 49.3158476], [5.5252235, 49.3157794], [5.5271959, 49.3160761], [5.5274346, 49.3156792], [5.5275178, 49.3154309], [5.5274751, 49.3152195], [5.5273032, 49.3149588], [5.5266809, 49.3148312], [5.5255901, 49.3144162], [5.5252406, 49.3140863], [5.5252113, 49.313791], [5.5247291, 49.3131993], [5.5244684, 49.3130058], [5.5232083, 49.3126886], [5.5227223, 49.3123658], [5.5221668, 49.3114354], [5.5218878, 49.3109493], [5.5217752, 49.3106258], [5.5216419, 49.3102213], [5.5212873, 49.3102063], [5.5212039, 49.3101396], [5.5213192, 49.3100609], [5.5218396, 49.3100085], [5.5219308, 49.3096657], [5.5216311, 49.3091983], [5.5214184, 49.3090851], [5.521102, 49.3093404], [5.52122, 49.3093929], [5.5212441, 49.3095591], [5.5210403, 49.3096378], [5.520764, 49.3094979], [5.5207774, 49.3093544], [5.5209035, 49.3092793], [5.5210134, 49.309295], [5.5211556, 49.3091621], [5.5212387, 49.308975], [5.5210915, 49.3085957], [5.5206647, 49.3084696], [5.5204341, 49.3085308], [5.5202892, 49.3084259], [5.5202195, 49.308258], [5.5203322, 49.3081758], [5.5206004, 49.308251], [5.5207425, 49.3083069], [5.5211797, 49.3083402], [5.5211797, 49.3081233], [5.5209842, 49.3078752], [5.5200942, 49.3073288], [5.5197823, 49.3074833], [5.5196911, 49.3074291], [5.5199969, 49.3072629], [5.5199218, 49.307186], [5.5200049, 49.3068467], [5.5200326, 49.3065051], [5.5195329, 49.306378], [5.518957, 49.3063041], [5.5188006, 49.3063343], [5.5187631, 49.306852], [5.5188677, 49.3070338], [5.5186933, 49.3073574], [5.5186024, 49.3077493], [5.518586, 49.3080796], [5.518629, 49.3084154], [5.5189991, 49.308564], [5.5191925, 49.3088055], [5.5190745, 49.309498], [5.518814, 49.309594], [5.5186056, 49.3098435], [5.5184063, 49.3105016], [5.5184844, 49.3106172], [5.5187523, 49.3106817], [5.5191064, 49.3106695], [5.5192493, 49.3108491], [5.519219, 49.310937], [5.5187987, 49.3111585], [5.5186906, 49.3111364], [5.518578, 49.3108671], [5.5183428, 49.3108753], [5.5176368, 49.3110124], [5.517115, 49.3109756], [5.516192, 49.310572], [5.515606, 49.310251], [5.5150616, 49.3098756], [5.5146807, 49.3093335], [5.5144256, 49.3092016], [5.5136821, 49.3090725], [5.513385, 49.308792], [5.5129905, 49.3082748], [5.5123883, 49.3077709], [5.5122435, 49.3074693], [5.5117922, 49.3058532], [5.5113441, 49.3053742], [5.5108237, 49.3052762], [5.5103838, 49.3054441], [5.5109096, 49.3060947], [5.5113441, 49.3075497], [5.5108988, 49.3077176], [5.5107195, 49.3074015], [5.5103452, 49.3066855], [5.5098444, 49.3057759], [5.5097616, 49.3057659], [5.5084551, 49.3064107], [5.5091026, 49.3076471], [5.5088603, 49.3076721], [5.5086042, 49.3073337], [5.5068972, 49.3073607], [5.5068844, 49.3076237], [5.5068988, 49.3078412], [5.5068629, 49.3080004], [5.5068629, 49.3082095], [5.5069294, 49.3083981], [5.5070802, 49.3084834], [5.5078103, 49.3085145], [5.5081182, 49.3085191], [5.509057, 49.308696], [5.5094253, 49.3088165], [5.5098223, 49.3090117], [5.5101674, 49.3091622], [5.5106744, 49.3095246], [5.5111791, 49.3098702], [5.5113337, 49.3099421], [5.5121146, 49.3095658], [5.5123097, 49.3097427], [5.5115965, 49.3101559], [5.5115986, 49.3106675], [5.5115208, 49.3109011], [5.5113226, 49.3110927], [5.5110705, 49.3112326], [5.5105823, 49.3114039], [5.5103677, 49.3114914], [5.5103409, 49.3116522], [5.5103463, 49.3119495], [5.5103802, 49.3123611], [5.5105379, 49.312656], [5.5108515, 49.3126716], [5.5114423, 49.3127525], [5.5126445, 49.3129531], [5.5141947, 49.3131371], [5.5149033, 49.3131151], [5.516378, 49.3130831], [5.517177, 49.3130171]]]}}, {"type": "Feature", "properties": {"name": "Étang de la Mosée"}, "geometry": {"type": "Polygon", "coordinates": [[[5.7656385, 48.7905141], [5.7654428, 48.7906874], [5.7651935, 48.7908716], [5.7647429, 48.7911373], [5.7641712, 48.7914295], [5.7639329, 48.7915512], [5.7626603, 48.7922196], [5.7621529, 48.7924408], [5.7618491, 48.7924597], [5.7610901, 48.7924294], [5.76034, 48.7923728], [5.7601059, 48.7922882], [5.7597811, 48.792132], [5.7593674, 48.7919402], [5.7591188, 48.7918503], [5.7589375, 48.7918055], [5.758721, 48.7917375], [5.758794, 48.7916479], [5.7589048, 48.7914936], [5.7589401, 48.791351], [5.7589401, 48.7911718], [5.7588746, 48.7909512], [5.7586374, 48.7906656], [5.7582964, 48.790238], [5.7581249, 48.7901083], [5.7579362, 48.7900192], [5.7577635, 48.789977], [5.7573895, 48.7899228], [5.7568979, 48.7898739], [5.75665, 48.7898645], [5.7561646, 48.7899254], [5.7557527, 48.7900079], [5.7554638, 48.7900192], [5.7549882, 48.7900069], [5.7546247, 48.7899751], [5.7542815, 48.789949], [5.7539604, 48.7899054], [5.7537539, 48.7898667], [5.7536471, 48.7898034], [5.7535509, 48.7897013], [5.7534886, 48.7896075], [5.7534579, 48.7895136], [5.7534695, 48.7893983], [5.7535, 48.7892793], [5.7535474, 48.7891852], [5.7537575, 48.78894], [5.7538721, 48.788906], [5.7541529, 48.788878], [5.7546377, 48.7887715], [5.755338, 48.7885844], [5.7555873, 48.7885114], [5.755858, 48.7883348], [5.7558895, 48.788231], [5.7559197, 48.7880884], [5.7556704, 48.7878644], [5.7553696, 48.7876344], [5.7552071, 48.7875542], [5.7547866, 48.7874082], [5.7546733, 48.7872937], [5.754492, 48.7870167], [5.7544164, 48.7868448], [5.7544014, 48.7866749], [5.7544417, 48.7863763], [5.7545122, 48.786164], [5.7545021, 48.7860429], [5.7543789, 48.78531], [5.7542679, 48.7849888], [5.7541664, 48.7848844], [5.7541128, 48.7846128], [5.7541269, 48.784449], [5.7542038, 48.7843213], [5.7543231, 48.784252], [5.7544947, 48.7842292], [5.7547284, 48.7842631], [5.7554519, 48.7843424], [5.7555087, 48.7843748], [5.7556349, 48.7845146], [5.7557659, 48.7846253], [5.7560682, 48.784862], [5.7565135, 48.7851671], [5.7569082, 48.7853617], [5.7574501, 48.7855993], [5.7578202, 48.7857735], [5.7581326, 48.7859624], [5.7583952, 48.7862379], [5.7591324, 48.7870987], [5.7591497, 48.7871414], [5.7591251, 48.7871992], [5.7590194, 48.7872142], [5.7589363, 48.7872739], [5.7588557, 48.7873751], [5.7588557, 48.7874464], [5.7589262, 48.7874912], [5.7590194, 48.7874995], [5.7593215, 48.7874182], [5.7593824, 48.7874137], [5.7599682, 48.7880674], [5.7602851, 48.7883559], [5.760541, 48.7884963], [5.7611682, 48.7886515], [5.7615741, 48.7887806], [5.7618002, 48.7889209], [5.762824, 48.7895008], [5.7632406, 48.7897213], [5.7643624, 48.7901963], [5.7649463, 48.7903712], [5.7656385, 48.7905141]]]}}, {"type": "Feature", "properties": {"name": "Neuf-Étang des Mandres"}, "geometry": {"type": "Polygon", "coordinates": [[[5.7659066, 48.8143937], [5.766276, 48.8143061], [5.7666297, 48.8141788], [5.7667137, 48.8141398], [5.7671106, 48.8139554], [5.7672239, 48.8138865], [5.7672872, 48.8138424], [5.7673113, 48.8137727], [5.7672699, 48.8137074], [5.7671746, 48.8136173], [5.7668119, 48.8132926], [5.7667629, 48.8130205], [5.7666957, 48.8126943], [5.7667468, 48.8125297], [5.7668272, 48.8123835], [5.7669934, 48.8122725], [5.7672184, 48.8121381], [5.7676131, 48.8119843], [5.7680967, 48.811874], [5.7698058, 48.8115734], [5.7718768, 48.8110216], [5.7727104, 48.8106805], [5.7736585, 48.8104105], [5.7745854, 48.8096765], [5.7747952, 48.809543], [5.7748506, 48.8094335], [5.7748607, 48.8093473], [5.7748053, 48.8092246], [5.7748285, 48.8090535], [5.7746088, 48.8088403], [5.7743974, 48.8086575], [5.7743118, 48.8084187], [5.7743923, 48.8082263], [5.7743451, 48.8077641], [5.7742934, 48.8066325], [5.7744119, 48.8063112], [5.7736504, 48.8058265], [5.7725631, 48.805392], [5.7712856, 48.8051914], [5.7705897, 48.8049779], [5.7703228, 48.8050011], [5.7701767, 48.805157], [5.7703573, 48.8053121], [5.7713538, 48.8056615], [5.7717696, 48.8060248], [5.7720249, 48.8062515], [5.772035, 48.8064074], [5.7719375, 48.8065152], [5.7713431, 48.8065209], [5.7704023, 48.806395], [5.7690775, 48.8062949], [5.7674951, 48.8061188], [5.7661132, 48.8061057], [5.7652926, 48.8061884], [5.7644824, 48.8063355], [5.7637825, 48.8063722], [5.7633286, 48.8063496], [5.7627731, 48.8064481], [5.7591452, 48.8062204], [5.7603598, 48.8064815], [5.7625116, 48.8069069], [5.7631629, 48.8070266], [5.7646321, 48.8071036], [5.7659796, 48.8070648], [5.767087, 48.8068895], [5.7679488, 48.8069551], [5.7684117, 48.8070255], [5.768834, 48.8071014], [5.7694586, 48.8072977], [5.7695517, 48.8076439], [5.7700035, 48.8079259], [5.7708067, 48.8081445], [5.7712581, 48.8082677], [5.7711784, 48.8086107], [5.7711172, 48.8087272], [5.7697561, 48.809036], [5.7680977, 48.8091065], [5.7674528, 48.8098768], [5.7673258, 48.8099351], [5.7669839, 48.8099093], [5.7667453, 48.8100031], [5.7663194, 48.8100587], [5.7659976, 48.8100078], [5.7657732, 48.8100054], [5.765702, 48.810118], [5.7655275, 48.8102516], [5.7655857, 48.8103682], [5.7655204, 48.8104744], [5.7654314, 48.8105799], [5.7652961, 48.8106151], [5.765029, 48.8105588], [5.7645399, 48.8103762], [5.763918, 48.8101156], [5.7628574, 48.8096837], [5.760504, 48.8090713], [5.7591702, 48.8087116], [5.7581591, 48.8087407], [5.757936, 48.8091924], [5.758822, 48.8098349], [5.7597409, 48.8096982], [5.760155, 48.8095739], [5.761246, 48.8097554], [5.762044, 48.8100772], [5.7635592, 48.8107238], [5.7641824, 48.8111347], [5.7642776, 48.8113468], [5.7642565, 48.8115787], [5.7639347, 48.8120186], [5.7640676, 48.8122623], [5.7642207, 48.8124123], [5.7645269, 48.8125577], [5.7647183, 48.8130601], [5.7651183, 48.8137572], [5.7654305, 48.8141087], [5.7655161, 48.8142645], [5.7654654, 48.8143501], [5.7653016, 48.8144392], [5.7653103, 48.814535], [5.7659066, 48.8143937]]]}}, {"type": "Feature", "properties": {"name": "Étang des Grandes Parois"}, "geometry": {"type": "Polygon", "coordinates": [[[5.7745276, 49.0426432], [5.7757276, 49.0416878], [5.7765768, 49.0410116], [5.7765982, 49.040885], [5.7763729, 49.0405123], [5.7764266, 49.0402661], [5.7770156, 49.0395948], [5.7773063, 49.0394292], [5.7769952, 49.0393096], [5.7765553, 49.0387751], [5.7760189, 49.0383601], [5.7743344, 49.0374458], [5.7736585, 49.0369464], [5.7731543, 49.0362782], [5.7729182, 49.0357155], [5.7721565, 49.0353075], [5.7712874, 49.034787], [5.7711051, 49.0346675], [5.7709763, 49.0344846], [5.7710085, 49.0341192], [5.7708476, 49.0337745], [5.7701502, 49.0333103], [5.7693241, 49.0329093], [5.7691524, 49.0324802], [5.7690344, 49.0319175], [5.7686589, 49.0315517], [5.7680902, 49.0310945], [5.7676933, 49.0305177], [5.7671676, 49.0307006], [5.7683263, 49.0323044], [5.7685183, 49.0326807], [5.7693455, 49.0336198], [5.7695279, 49.0339011], [5.7694421, 49.0341332], [5.7690883, 49.0343968], [5.769048, 49.0344813], [5.7691571, 49.0345616], [5.7694517, 49.0346291], [5.7700107, 49.0347237], [5.7701316, 49.0349226], [5.7714044, 49.0366126], [5.7721565, 49.0364962], [5.7717166, 49.0368198], [5.7706618, 49.0375193], [5.771057, 49.0378029], [5.7717917, 49.0377974], [5.7721994, 49.0377623], [5.7726704, 49.0381741], [5.7730148, 49.0385922], [5.7736253, 49.0422392], [5.7739364, 49.0425275], [5.7745276, 49.0426432]]]}}, {"type": "Feature", "properties": {"name": "Étang de Vigneulles"}, "geometry": {"type": "Polygon", "coordinates": [[[5.7704631, 48.9828776], [5.7679357, 48.9823536], [5.7655537, 48.9819628], [5.7611371, 48.9819471], [5.7605346, 48.981945], [5.7585276, 48.981902], [5.7572656, 48.9813337], [5.7574487, 48.9807219], [5.7585401, 48.9803882], [5.7592599, 48.9801681], [5.7612092, 48.9800723], [5.7622352, 48.9800309], [5.7625541, 48.9800351], [5.7640972, 48.980351], [5.7646776, 48.9802395], [5.7657252, 48.9802023], [5.7662065, 48.9799236], [5.7652474, 48.9787228], [5.7659006, 48.9778428], [5.7653629, 48.9772136], [5.7637377, 48.9769594], [5.7624161, 48.9766103], [5.7641717, 48.9756161], [5.7658021, 48.9756025], [5.767491, 48.977579], [5.7677522, 48.9780702], [5.7682268, 48.9788839], [5.7695548, 48.9798738], [5.7709367, 48.9806127], [5.7715492, 48.9808945], [5.7704631, 48.9828776]]]}}, {"type": "Feature", "properties": {"name": "Lac de Madine"}, "geometry": {"type": "Polygon", "coordinates": [[[5.7176755, 48.9387532], [5.717681, 48.9386879], [5.7183354, 48.9387044], [5.718356, 48.9384308], [5.7178259, 48.9384017], [5.7177636, 48.9383291], [5.7180677, 48.9379232], [5.7187088, 48.9381329], [5.7186972, 48.9383909], [5.7185463, 48.938478], [5.7185124, 48.9385387], [5.7185586, 48.9385852], [5.7186482, 48.9386093], [5.7187465, 48.9386217], [5.7188451, 48.9386014], [5.7189191, 48.938536], [5.7190235, 48.9384157], [5.7191515, 48.9383081], [5.7192724, 48.9382666], [5.7194262, 48.9382349], [5.7197185, 48.9382041], [5.7199829, 48.9382169], [5.7202041, 48.9382495], [5.7204216, 48.9382666], [5.7206221, 48.9382802], [5.7207015, 48.9383355], [5.7206926, 48.9384131], [5.7207362, 48.9385067], [5.7208044, 48.9385666], [5.7208971, 48.9386136], [5.721026, 48.9386454], [5.7211811, 48.9386468], [5.7212963, 48.9386094], [5.7213808, 48.9385549], [5.7214488, 48.9384879], [5.7214848, 48.9384], [5.7218858, 48.9384352], [5.722266, 48.9383182], [5.7224086, 48.9383297], [5.7226626, 48.9383094], [5.723057, 48.9381487], [5.7230015, 48.9380853], [5.7231062, 48.9379477], [5.723211, 48.9379214], [5.7232541, 48.9378202], [5.7233162, 48.9377845], [5.7238121, 48.9377306], [5.7242154, 48.9376806], [5.7242585, 48.9377676], [5.724351, 48.9377554], [5.7243972, 48.9376664], [5.7245259, 48.9376399], [5.7253665, 48.9373444], [5.726871, 48.9371228], [5.7289241, 48.9367212], [5.7297393, 48.9364886], [5.7301628, 48.9362258], [5.7313687, 48.9360968], [5.7325457, 48.9360986], [5.7327485, 48.9360333], [5.7329338, 48.9359903], [5.7330155, 48.9359443], [5.7330622, 48.9359151], [5.7331206, 48.9358952], [5.7331813, 48.9359044], [5.733228, 48.9359673], [5.7333213, 48.9359979], [5.7334918, 48.9360179], [5.7338493, 48.9359759], [5.7340334, 48.9359489], [5.7340941, 48.9358814], [5.7341525, 48.9358523], [5.7342365, 48.9358477], [5.7343397, 48.9358989], [5.7344093, 48.9359151], [5.7349516, 48.9358362], [5.7350414, 48.9358152], [5.7351009, 48.9357806], [5.7351422, 48.9357565], [5.7351857, 48.9357489], [5.7352385, 48.935779], [5.7352958, 48.9358393], [5.7354012, 48.9358829], [5.7355986, 48.935891], [5.7362331, 48.9357566], [5.7362632, 48.9357502], [5.7373168, 48.9355471], [5.7386376, 48.935183], [5.7399324, 48.9347925], [5.7412277, 48.9343803], [5.7423084, 48.9339126], [5.7433868, 48.9333765], [5.7438826, 48.9330775], [5.7443142, 48.9327882], [5.7449805, 48.9322987], [5.7455025, 48.9318575], [5.7467769, 48.9307448], [5.7469273, 48.9306008], [5.7469958, 48.9304986], [5.7470545, 48.9303772], [5.7472378, 48.9297556], [5.7471546, 48.9296969], [5.7471783, 48.9296554], [5.7473187, 48.9296813], [5.7473879, 48.9296255], [5.7474234, 48.9295645], [5.7474768, 48.9294723], [5.7475282, 48.9293969], [5.7474669, 48.9293333], [5.7474511, 48.9292878], [5.7475314, 48.9291282], [5.7476332, 48.9290908], [5.7476762, 48.9290488], [5.7478988, 48.9285176], [5.7479561, 48.9283394], [5.7479745, 48.9280929], [5.747883, 48.9279997], [5.7478589, 48.9279273], [5.7478707, 48.9278374], [5.7478908, 48.9277369], [5.7478599, 48.9276673], [5.7478217, 48.9276032], [5.7478264, 48.9275237], [5.7478581, 48.927426], [5.7479035, 48.9274342], [5.7479297, 48.9274541], [5.7479241, 48.9275511], [5.7479471, 48.9276136], [5.7480126, 48.9276928], [5.7484567, 48.9280694], [5.7486579, 48.9282398], [5.7487016, 48.9282779], [5.7487127, 48.9282364], [5.7487297, 48.9281897], [5.7487584, 48.9281845], [5.7487942, 48.9281982], [5.7488075, 48.9282699], [5.7490933, 48.928264], [5.7492387, 48.9281509], [5.7495648, 48.9278791], [5.7493351, 48.9278206], [5.7493754, 48.9277475], [5.7498166, 48.9276162], [5.7500101, 48.927628], [5.7502622, 48.9275037], [5.7508337, 48.9272219], [5.7510556, 48.9271125], [5.7519659, 48.9270276], [5.752976, 48.9267893], [5.7534061, 48.926715], [5.7538258, 48.9264785], [5.7550558, 48.9259572], [5.7553713, 48.9257199], [5.7555756, 48.9255662], [5.7557562, 48.9254025], [5.7562551, 48.9252123], [5.7564454, 48.9250447], [5.7567162, 48.9248917], [5.7568414, 48.9247495], [5.7570131, 48.9249265], [5.757072, 48.9249483], [5.7571399, 48.924962], [5.7572779, 48.9249752], [5.7577627, 48.9248703], [5.7580551, 48.9242268], [5.7583222, 48.9234353], [5.7584792, 48.9224413], [5.758448, 48.9219701], [5.7584366, 48.9217975], [5.758421, 48.9215614], [5.7583482, 48.9207549], [5.7583115, 48.9203478], [5.7579864, 48.9202364], [5.7573422, 48.9198737], [5.7572735, 48.9196459], [5.7574663, 48.9192316], [5.757406, 48.9190633], [5.7572268, 48.9188817], [5.7573363, 48.9187975], [5.757705, 48.9188069], [5.7578399, 48.9186205], [5.7578068, 48.9183329], [5.7578685, 48.9176014], [5.7579561, 48.9170568], [5.7584028, 48.9161346], [5.7579103, 48.9160492], [5.7571132, 48.9158673], [5.7564812, 48.9154404], [5.7560741, 48.9150657], [5.7552565, 48.9141811], [5.7550097, 48.9137796], [5.7553493, 48.913659], [5.7562318, 48.9137218], [5.7566702, 48.9137768], [5.7570342, 48.9138406], [5.75753, 48.9139274], [5.7585633, 48.9140484], [5.7587161, 48.9137592], [5.7586898, 48.9132991], [5.7585578, 48.9128845], [5.7582778, 48.9118684], [5.7582563, 48.9113724], [5.7578878, 48.9106503], [5.7573599, 48.9098806], [5.757052, 48.9093553], [5.7568101, 48.9088254], [5.7564373, 48.9081357], [5.7559866, 48.9077715], [5.7554073, 48.90714], [5.7538945, 48.9051101], [5.7528302, 48.9033713], [5.7522895, 48.9025462], [5.7520197, 48.9017281], [5.7518056, 48.9012573], [5.7512653, 48.9008557], [5.7508474, 48.9004791], [5.7501432, 48.9001779], [5.7486406, 48.8991701], [5.7477141, 48.8983752], [5.7473364, 48.8977496], [5.7466192, 48.8972058], [5.7444129, 48.8967022], [5.7420735, 48.8953719], [5.7413906, 48.8951864], [5.7408059, 48.8951264], [5.7406578, 48.895125], [5.7404953, 48.8950852], [5.7403268, 48.8949635], [5.7399931, 48.8948105], [5.7390174, 48.8943424], [5.7386821, 48.8945279], [5.7393064, 48.8951271], [5.74023, 48.8954964], [5.7419199, 48.896143], [5.7435336, 48.8970576], [5.7436446, 48.8974516], [5.7429301, 48.8977619], [5.7418181, 48.8980433], [5.7419833, 48.8983318], [5.7433759, 48.8982556], [5.7443147, 48.8982824], [5.7448507, 48.8984497], [5.7450271, 48.8988953], [5.7445555, 48.8993132], [5.743341, 48.8995432], [5.7429569, 48.899912], [5.7427193, 48.9004935], [5.7432686, 48.9009488], [5.7444963, 48.9010078], [5.7449192, 48.9005658], [5.7458317, 48.9003937], [5.7466455, 48.9005207], [5.7473023, 48.9008061], [5.7477296, 48.9011262], [5.7478369, 48.9017694], [5.7475731, 48.9023406], [5.7465817, 48.9026749], [5.7452781, 48.9028456], [5.7444456, 48.9028742], [5.7440464, 48.9031721], [5.7445089, 48.9035244], [5.7449707, 48.9039556], [5.745542, 48.9043174], [5.7464969, 48.9044631], [5.7473311, 48.904554], [5.7479115, 48.9043982], [5.7490123, 48.904414], [5.749858, 48.9047517], [5.7501286, 48.9051676], [5.7503824, 48.9056785], [5.7502826, 48.9061817], [5.7502488, 48.9065723], [5.7497558, 48.9068632], [5.7484265, 48.906768], [5.7470473, 48.9067215], [5.7461278, 48.9065829], [5.7454181, 48.9060935], [5.7445437, 48.9059006], [5.7432858, 48.9061027], [5.7420512, 48.9063738], [5.7416877, 48.9069084], [5.7418053, 48.9078551], [5.7424559, 48.9083557], [5.7432778, 48.908752], [5.7445008, 48.9092982], [5.7459476, 48.9096447], [5.7464068, 48.9099339], [5.7472383, 48.9101934], [5.7478107, 48.9104543], [5.7485102, 48.9107994], [5.7482709, 48.9112476], [5.7486255, 48.9116897], [5.7485118, 48.9122894], [5.7478562, 48.912564], [5.7480783, 48.9130668], [5.7486378, 48.9136858], [5.7485601, 48.9140401], [5.7480676, 48.9142164], [5.7475955, 48.9140955], [5.7472662, 48.9137891], [5.7470242, 48.9134514], [5.7467828, 48.913108], [5.7468456, 48.9127149], [5.7464277, 48.912307], [5.7452787, 48.9113456], [5.743871, 48.9104077], [5.7421512, 48.9096166], [5.7414188, 48.9092975], [5.7410301, 48.9091282], [5.7399936, 48.9087393], [5.7397463, 48.9089263], [5.7398367, 48.9091076], [5.7398367, 48.9092319], [5.7398367, 48.9092685], [5.7397706, 48.9095089], [5.7399312, 48.9098892], [5.7399899, 48.9101694], [5.7394701, 48.9105022], [5.7384358, 48.9104483], [5.737224, 48.9099727], [5.7367074, 48.910314], [5.7362015, 48.9102671], [5.7352595, 48.9104144], [5.7344817, 48.9104828], [5.733795, 48.9101303], [5.7336389, 48.9097995], [5.7338256, 48.9095073], [5.7342494, 48.909228], [5.7348422, 48.9088455], [5.7361366, 48.9085895], [5.7368839, 48.9082126], [5.7370502, 48.9078304], [5.7367728, 48.9072839], [5.7360636, 48.9068318], [5.735833, 48.9063795], [5.7352987, 48.9060572], [5.7352488, 48.9055357], [5.7353754, 48.9050618], [5.7359564, 48.9050406], [5.7369284, 48.9053118], [5.7376397, 48.9055526], [5.7387646, 48.9058643], [5.7396299, 48.9057483], [5.7406073, 48.9054246], [5.7408208, 48.9049549], [5.7408847, 48.9039077], [5.7401782, 48.903212], [5.739661, 48.9026548], [5.7393215, 48.9022511], [5.7386863, 48.9019199], [5.7381279, 48.9018448], [5.7379396, 48.9024605], [5.7381129, 48.9030325], [5.7379063, 48.90328], [5.7372503, 48.9033604], [5.7365266, 48.90323], [5.7351066, 48.9027543], [5.733029, 48.9024239], [5.731365, 48.9022557], [5.7301912, 48.9026675], [5.7304433, 48.9029249], [5.7303141, 48.9033114], [5.730041, 48.9037053], [5.7303184, 48.9042166], [5.7302111, 48.9045914], [5.7302331, 48.9053001], [5.7297583, 48.9057885], [5.7295083, 48.9065261], [5.72873, 48.9070279], [5.7279907, 48.9070843], [5.7271823, 48.9068315], [5.7267821, 48.9064708], [5.7266056, 48.9055332], [5.7262058, 48.904924], [5.7257768, 48.9043633], [5.7257076, 48.903907], [5.7259576, 48.9033114], [5.7259887, 48.9027172], [5.7254619, 48.9018117], [5.7252715, 48.9008236], [5.7254405, 48.9000936], [5.7253595, 48.8996169], [5.7253348, 48.8990488], [5.7246664, 48.9001353], [5.7240001, 48.9007111], [5.7237893, 48.9015345], [5.7233655, 48.902567], [5.7232877, 48.9034542], [5.7231542, 48.9043827], [5.7224933, 48.9045681], [5.7216849, 48.9041736], [5.7204983, 48.9035314], [5.7192457, 48.9028008], [5.7183005, 48.9018177], [5.7176551, 48.9009354], [5.7157212, 48.9012785], [5.7140954, 48.9011357], [5.7123105, 48.9013124], [5.7112902, 48.9015786], [5.710124, 48.9014897], [5.70899, 48.9010937], [5.7079159, 48.9007172], [5.705119, 48.8998704], [5.7044551, 48.9001876], [5.7042988, 48.9002874], [5.7042193, 48.9003382], [5.7048728, 48.900648], [5.7062343, 48.90108], [5.7080292, 48.9015684], [5.7093596, 48.9021343], [5.7107994, 48.9025935], [5.7117135, 48.9029172], [5.7127429, 48.903256], [5.7134446, 48.9037941], [5.713716, 48.9044098], [5.7147718, 48.9048183], [5.7154305, 48.904798], [5.7159777, 48.9050829], [5.7168233, 48.9058305], [5.7178606, 48.906514], [5.7190981, 48.9070801], [5.7195166, 48.9075666], [5.7206061, 48.9080987], [5.7220582, 48.9084703], [5.72313, 48.909161], [5.7243504, 48.9097371], [5.7247141, 48.9102752], [5.7256052, 48.911023], [5.7256138, 48.9112916], [5.7252356, 48.911629], [5.7241605, 48.9117443], [5.722996, 48.9120264], [5.7219161, 48.9120701], [5.7207139, 48.9117249], [5.7205578, 48.9113745], [5.7212442, 48.9110469], [5.7217611, 48.910863], [5.7221929, 48.9106406], [5.72208, 48.9104445], [5.7217404, 48.9101948], [5.7213716, 48.910038], [5.7208486, 48.9098258], [5.7204272, 48.909564], [5.7202207, 48.9092862], [5.7202582, 48.9091769], [5.7200064, 48.9090133], [5.7195799, 48.9089234], [5.7189166, 48.9088417], [5.7179861, 48.9086552], [5.7175133, 48.908318], [5.7169699, 48.908141], [5.7167008, 48.9081181], [5.7165946, 48.9083026], [5.7166786, 48.9085745], [5.7174473, 48.9090607], [5.7176839, 48.9093181], [5.7179242, 48.9094988], [5.7181388, 48.9095434], [5.718404, 48.9098658], [5.718403, 48.9099693], [5.7188791, 48.9102383], [5.7190773, 48.9101687], [5.719209, 48.9102563], [5.7192489, 48.910484], [5.7190032, 48.9105791], [5.7188874, 48.9108098], [5.7189413, 48.9113152], [5.7188195, 48.9118539], [5.7184145, 48.9121975], [5.7176192, 48.9123623], [5.7166995, 48.9123299], [5.7158087, 48.9118557], [5.7150102, 48.911569], [5.7145655, 48.9112509], [5.7140629, 48.9107731], [5.7135997, 48.9102898], [5.713656, 48.9100013], [5.7138562, 48.909787], [5.7138857, 48.9097042], [5.7138357, 48.9096393], [5.7134888, 48.9093992], [5.7133654, 48.9093551], [5.7132071, 48.9093252], [5.7130328, 48.909334], [5.7109235, 48.9110182], [5.7106992, 48.9111973], [5.7107191, 48.9112874], [5.7113581, 48.9115486], [5.7117265, 48.9117103], [5.7122417, 48.9120178], [5.7124048, 48.9120147], [5.712651, 48.912013], [5.7128291, 48.9120687], [5.712963, 48.9122956], [5.7129443, 48.9124472], [5.713191, 48.9129072], [5.7134267, 48.9130632], [5.7138312, 48.9131231], [5.7140663, 48.9131532], [5.714229, 48.9131047], [5.7144973, 48.9131293], [5.7149352, 48.9133964], [5.7153241, 48.913683], [5.7161712, 48.9139199], [5.7162479, 48.9142192], [5.7163819, 48.9144128], [5.7163721, 48.9144972], [5.7163051, 48.9145448], [5.716125, 48.9145516], [5.7157635, 48.9144988], [5.7155272, 48.9144708], [5.7152543, 48.9143955], [5.7146072, 48.9141412], [5.7144329, 48.9140107], [5.7142907, 48.9140125], [5.7142827, 48.9142593], [5.7140741, 48.9145365], [5.7138451, 48.9146666], [5.7126599, 48.9146136], [5.7118485, 48.9145023], [5.7109623, 48.9145143], [5.710482, 48.9145431], [5.710075, 48.9146669], [5.7095781, 48.9149044], [5.7095513, 48.9150102], [5.7097177, 48.9151813], [5.7104379, 48.9155948], [5.7106617, 48.9158069], [5.7107214, 48.9160538], [5.7108282, 48.9163019], [5.7106866, 48.9164155], [5.7103398, 48.9164696], [5.7101628, 48.9166177], [5.7099935, 48.9167641], [5.7096861, 48.9168269], [5.7102134, 48.9178535], [5.7103541, 48.9178376], [5.7106318, 48.917803], [5.7113507, 48.9178319], [5.7124295, 48.917668], [5.7132003, 48.9172838], [5.7138859, 48.9168558], [5.71388, 48.9164984], [5.7142271, 48.9160443], [5.714837, 48.915978], [5.7156551, 48.9161842], [5.7164329, 48.9163513], [5.717185, 48.9164046], [5.718098, 48.9167948], [5.7191956, 48.9170585], [5.7208843, 48.9175524], [5.7210565, 48.9178119], [5.720884, 48.9178442], [5.7207352, 48.9179899], [5.7202535, 48.9180301], [5.7201157, 48.9180753], [5.7200319, 48.9182201], [5.7200148, 48.9184068], [5.7201424, 48.9185296], [5.7211719, 48.9190777], [5.7222399, 48.9196488], [5.7225801, 48.919945], [5.7229689, 48.9201363], [5.7233647, 48.9204498], [5.7237926, 48.9206037], [5.723114, 48.9211429], [5.7227201, 48.9210466], [5.7223067, 48.9211408], [5.7219175, 48.9209826], [5.721623, 48.920899], [5.7212161, 48.9209311], [5.7210175, 48.9211408], [5.7208352, 48.9211686], [5.720705, 48.9212712], [5.7202525, 48.9213204], [5.7198944, 48.921267], [5.7196925, 48.9212926], [5.7194321, 48.921575], [5.7196144, 48.9220691], [5.7196189, 48.9223644], [5.7194484, 48.9225654], [5.7191157, 48.9227289], [5.7184197, 48.9227708], [5.7181227, 48.9227194], [5.71701, 48.9226606], [5.7167659, 48.9227643], [5.7164648, 48.923097], [5.7161659, 48.9232872], [5.7160184, 48.923422], [5.7156898, 48.9235109], [5.7153334, 48.9236351], [5.7148509, 48.9238335], [5.7144034, 48.9244855], [5.7141192, 48.9248], [5.7136796, 48.92521], [5.7133623, 48.9252636], [5.7136028, 48.9260628], [5.7139529, 48.9268338], [5.7140172, 48.9268805], [5.7141151, 48.926906], [5.71428, 48.9269087], [5.7145361, 48.9268725], [5.7155253, 48.926697], [5.7156238, 48.9266249], [5.7157271, 48.9265351], [5.7159698, 48.9264804], [5.7170491, 48.926126], [5.7180485, 48.9261025], [5.7181722, 48.9262329], [5.7184001, 48.9262843], [5.7186313, 48.9262158], [5.7188963, 48.925984], [5.7201548, 48.9260853], [5.7203208, 48.9261795], [5.7203697, 48.9264233], [5.7202557, 48.9266479], [5.7194126, 48.9268147], [5.7187349, 48.9270696], [5.7185596, 48.9271356], [5.7174267, 48.9279205], [5.7171793, 48.9287269], [5.7164729, 48.9290456], [5.7147638, 48.9296316], [5.7139336, 48.93007], [5.7133611, 48.9300155], [5.7127682, 48.93044], [5.713136, 48.9305769], [5.7133184, 48.9309961], [5.713282, 48.9312641], [5.7130472, 48.9315394], [5.7125868, 48.9316936], [5.7117589, 48.9316793], [5.7142462, 48.933845], [5.7143548, 48.9338712], [5.7145506, 48.9338277], [5.7150003, 48.9338027], [5.7152844, 48.9338558], [5.7155373, 48.9338462], [5.7159399, 48.9338439], [5.716332, 48.9338022], [5.7164278, 48.9340259], [5.7166624, 48.9344282], [5.7167698, 48.9345809], [5.716802, 48.934756], [5.7167087, 48.9348409], [5.7165787, 48.9348541], [5.7164593, 48.9348347], [5.7163801, 48.934819], [5.716234, 48.9348902], [5.7161508, 48.9349484], [5.7160362, 48.9350768], [5.7160275, 48.9352479], [5.7160566, 48.935399], [5.7161588, 48.9355532], [5.7162717, 48.9356418], [5.7164164, 48.9357166], [5.7165147, 48.9357465], [5.7166296, 48.9357615], [5.7166202, 48.9357844], [5.7168815, 48.9357755], [5.7171352, 48.9357633], [5.7173274, 48.9357399], [5.7175404, 48.9360285], [5.7176633, 48.9360464], [5.7175943, 48.9362957], [5.7174089, 48.9365545], [5.7172083, 48.9367282], [5.7171875, 48.9367473], [5.7171218, 48.9367544], [5.7170521, 48.936735], [5.7169857, 48.936724], [5.7168616, 48.9367315], [5.7167561, 48.9367791], [5.7165994, 48.93679], [5.7165641, 48.9368256], [5.7164405, 48.9367984], [5.7163574, 48.9367649], [5.7162957, 48.9367218], [5.7162443, 48.936641], [5.715951, 48.9366381], [5.7158463, 48.9366587], [5.7155754, 48.9367894], [5.7153984, 48.9369649], [5.7152707, 48.9370861], [5.7151598, 48.9371252], [5.7149385, 48.9371244], [5.7147732, 48.9371434], [5.7144733, 48.9372672], [5.7142445, 48.9374045], [5.7142062, 48.9375173], [5.7142134, 48.9376368], [5.7142324, 48.9376868], [5.7143095, 48.9377481], [5.714473, 48.9378356], [5.714803, 48.9379754], [5.7150092, 48.9379943], [5.7151893, 48.9380079], [5.7153516, 48.9380705], [5.7154234, 48.9381453], [5.7155058, 48.9381841], [5.7158648, 48.9383093], [5.7159674, 48.9383377], [5.7160347, 48.9384582], [5.7159867, 48.9384705], [5.7158125, 48.9384491], [5.7155559, 48.9384361], [5.7154542, 48.9384697], [5.715298, 48.9385379], [5.7151327, 48.9386347], [5.7151717, 48.9386802], [5.7154754, 48.9389667], [5.7155941, 48.9390752], [5.7156999, 48.9391408], [5.7158713, 48.9391639], [5.716084, 48.9391768], [5.7161672, 48.939158], [5.7163002, 48.9391053], [5.7163456, 48.9390534], [5.716353, 48.9388635], [5.7163366, 48.9384161], [5.716386, 48.9383642], [5.7165733, 48.9383172], [5.7168246, 48.9382982], [5.7170541, 48.9383032], [5.7171647, 48.9383268], [5.7172719, 48.9384265], [5.7173838, 48.9385389], [5.7174448, 48.9387039], [5.7174234, 48.9389329], [5.717359, 48.9393328], [5.717257, 48.9394438], [5.717021, 48.9395014], [5.7168147, 48.9395073], [5.7166107, 48.9394809], [5.7164363, 48.9394086], [5.7163505, 48.9393381], [5.7162781, 48.9392812], [5.7161359, 48.9393311], [5.7162539, 48.9394526], [5.7163907, 48.9395531], [5.716525, 48.9396218], [5.7166833, 48.939657], [5.7169191, 48.9396653], [5.7171605, 48.9396482], [5.7174716, 48.9394227], [5.7175038, 48.9393253], [5.7176487, 48.9390175], [5.7176755, 48.9387532]]]}}, {"type": "Feature", "properties": {"name": "Étang de la Perche"}, "geometry": {"type": "Polygon", "coordinates": [[[5.696577, 48.8955186], [5.6978756, 48.8960929], [5.6977339, 48.8967438], [5.6979331, 48.8968133], [5.6983767, 48.8965744], [5.7000656, 48.8951728], [5.7002809, 48.894834], [5.6998625, 48.8942345], [5.6977167, 48.8934374], [5.6965688, 48.8921324], [5.6958571, 48.892333], [5.6941977, 48.8928731], [5.693511, 48.8934938], [5.6917515, 48.8938112], [5.6891873, 48.8940722], [5.6900671, 48.8951267], [5.6914272, 48.8958463], [5.6920412, 48.8960895], [5.6924516, 48.8963195], [5.6932822, 48.8967746], [5.6952203, 48.8967018], [5.696577, 48.8955186]]]}}]}