{"type": "FeatureCollection", "features": [{"type": "Feature", "properties": {"name": "Étang de Vaux"}, "geometry": {"type": "Polygon", "coordinates": [[[3.6173022, 47.1914476], [3.6175789, 47.191453], [3.6176643, 47.1909497], [3.6173666, 47.1903752], [3.617292, 47.1900369], [3.6174363, 47.1893818], [3.6172271, 47.1883913], [3.6166218, 47.187577], [3.6161642, 47.1873174], [3.6160276, 47.1869024], [3.6158925, 47.1864955], [3.615908, 47.1857842], [3.6159867, 47.18527], [3.6159408, 47.1846114], [3.6157741, 47.183612], [3.6156779, 47.1828861], [3.6153437, 47.1822461], [3.6150393, 47.1815604], [3.6150524, 47.181447], [3.6149741, 47.1812468], [3.6149955, 47.1811447], [3.6151208, 47.180992], [3.6151956, 47.1809629], [3.6148849, 47.1806737], [3.614739, 47.1805619], [3.6146972, 47.1805252], [3.6144381, 47.1802981], [3.6141803, 47.1800721], [3.613936, 47.1798579], [3.6137053, 47.1796557], [3.6134207, 47.1794062], [3.6131768, 47.1791924], [3.6122751, 47.1784689], [3.6120781, 47.1783224], [3.6118697, 47.1781835], [3.6116448, 47.1780558], [3.6114791, 47.1779836], [3.6112093, 47.1778968], [3.6110223, 47.1778366], [3.6108006, 47.1781694], [3.6103714, 47.1785997], [3.609835, 47.1790372], [3.6096093, 47.179161], [3.6091698, 47.1794019], [3.6087621, 47.1795404], [3.6082578, 47.1794675], [3.6075605, 47.1793071], [3.6070991, 47.178957], [3.6054576, 47.1774912], [3.6047817, 47.1769807], [3.6044276, 47.1767546], [3.6027861, 47.1760253], [3.6015094, 47.1754054], [3.6010588, 47.1751867], [3.6003721, 47.174997], [3.6001683, 47.1749606], [3.599825, 47.1757482], [3.6001254, 47.175843], [3.6004268, 47.1759881], [3.6005559, 47.1760503], [3.6008549, 47.1764848], [3.6007691, 47.1769151], [3.6004902, 47.1771776], [3.6002649, 47.1774037], [3.6002327, 47.1776371], [3.6003614, 47.1777319], [3.6007155, 47.1777683], [3.6010373, 47.177761], [3.6012519, 47.17771], [3.6016918, 47.1775933], [3.6021826, 47.1774938], [3.6023033, 47.1774693], [3.6025286, 47.1777027], [3.6026102, 47.1778725], [3.6027003, 47.17806], [3.6029149, 47.1783955], [3.6030222, 47.178607], [3.6032475, 47.1788403], [3.603226, 47.1790737], [3.6033333, 47.1792779], [3.6031831, 47.1794821], [3.6030114, 47.1795623], [3.6025072, 47.1798321], [3.6019278, 47.1799561], [3.6013485, 47.1799123], [3.6009086, 47.1798686], [3.6002434, 47.1798904], [3.5993314, 47.1800071], [3.5987199, 47.1801603], [3.5983015, 47.1803645], [3.5978187, 47.1805176], [3.5975612, 47.180678], [3.597926, 47.1807801], [3.5983015, 47.1808384], [3.5987414, 47.1808749], [3.5993422, 47.1809405], [3.6007798, 47.1809989], [3.6022809, 47.181056], [3.604492, 47.1809551], [3.6053503, 47.1809989], [3.6055714, 47.1809745], [3.6056382, 47.181064], [3.6055542, 47.1811447], [3.6055756, 47.1814145], [3.6053074, 47.1815677], [3.6046744, 47.1817646], [3.6033655, 47.1822896], [3.6022674, 47.182358], [3.6008209, 47.1825656], [3.5985375, 47.1829459], [3.5981298, 47.1830771], [3.5979689, 47.1832084], [3.5978294, 47.1834271], [3.597765, 47.1835948], [3.5976041, 47.1837115], [3.5974003, 47.1837626], [3.5971106, 47.1837407], [3.5967887, 47.1837261], [3.5949112, 47.1836896], [3.5946429, 47.1837553], [3.594482, 47.1839084], [3.5944498, 47.1841709], [3.5944498, 47.1843678], [3.5942567, 47.1845574], [3.5939778, 47.1847251], [3.5935701, 47.1848417], [3.593216, 47.1848855], [3.5928727, 47.1850897], [3.5925508, 47.1851626], [3.5922504, 47.185148], [3.5919715, 47.1850678], [3.5917783, 47.1849365], [3.5916603, 47.1848344], [3.5914243, 47.1847324], [3.5912057, 47.1845569], [3.5909745, 47.1845425], [3.5908109, 47.1846797], [3.5908771, 47.1849001], [3.5908235, 47.1851334], [3.5907591, 47.1853303], [3.5906733, 47.1854761], [3.5905016, 47.1856803], [3.5900939, 47.1857094], [3.5899437, 47.1856876], [3.5897399, 47.1856219], [3.5894073, 47.185498], [3.5892571, 47.1854324], [3.5891069, 47.1854761], [3.5890103, 47.1856949], [3.5889137, 47.1859282], [3.588785, 47.1861469], [3.5884953, 47.1864021], [3.5881627, 47.1865844], [3.5877443, 47.1866646], [3.587283, 47.1865771], [3.5869933, 47.1864167], [3.5868216, 47.1862855], [3.5867465, 47.1862053], [3.5866178, 47.1861469], [3.5864247, 47.1860959], [3.5861779, 47.1861178], [3.5858989, 47.1862126], [3.5857541, 47.1864459], [3.5856936, 47.1866065], [3.5856844, 47.1867375], [3.5856307, 47.186898], [3.5855234, 47.1871313], [3.5855127, 47.18735], [3.5856093, 47.1875542], [3.5856629, 47.1877438], [3.5857595, 47.1878531], [3.5859419, 47.1880135], [3.5860062, 47.1881229], [3.5860312, 47.188198], [3.586311, 47.1879562], [3.5869719, 47.1879718], [3.5873903, 47.1878969], [3.5878194, 47.1878313], [3.5878663, 47.1878213], [3.5883988, 47.1877073], [3.5892463, 47.1875761], [3.5896004, 47.1874959], [3.5897721, 47.187525], [3.5899544, 47.1874375], [3.5902656, 47.18735], [3.5905553, 47.1872552], [3.5913814, 47.1868615], [3.5917998, 47.1867375], [3.5921324, 47.1866428], [3.5925186, 47.1865407], [3.5929585, 47.1864167], [3.5935271, 47.186373], [3.5946751, 47.1861396], [3.5960377, 47.1859792], [3.5971428, 47.1856876], [3.5982049, 47.1856001], [3.5993636, 47.1854615], [3.6002649, 47.1852282], [3.6011124, 47.1850022], [3.6024203, 47.1845997], [3.6031831, 47.1843969], [3.6047495, 47.1842219], [3.605125, 47.1840834], [3.6058009, 47.1839084], [3.6061872, 47.183799], [3.6064661, 47.1835876], [3.606788, 47.1834709], [3.6072171, 47.1834344], [3.6075926, 47.183398], [3.6080969, 47.1833178], [3.6085261, 47.183048], [3.6089123, 47.1828438], [3.6092234, 47.1828146], [3.6095882, 47.1827636], [3.6096204, 47.1828948], [3.6095668, 47.1831063], [3.6095775, 47.183325], [3.609556, 47.1836313], [3.6095882, 47.1838574], [3.6100496, 47.1842074], [3.6104143, 47.1843824], [3.6105967, 47.1845209], [3.6107577, 47.1846522], [3.6108113, 47.1850532], [3.6107362, 47.1852574], [3.6106396, 47.1855199], [3.6103285, 47.1857386], [3.6098886, 47.1858042], [3.6095775, 47.1858042], [3.6090196, 47.1856292], [3.6087084, 47.1855344], [3.6084831, 47.1855199], [3.6082793, 47.1856074], [3.608054, 47.1857022], [3.6076463, 47.1858334], [3.6072064, 47.1858699], [3.606273, 47.1860813], [3.605876, 47.1861324], [3.6054791, 47.1862053], [3.6049748, 47.1864167], [3.6047173, 47.1866136], [3.60461, 47.1867157], [3.6045135, 47.1868615], [3.6048139, 47.1869563], [3.6050499, 47.187], [3.6053611, 47.1869855], [3.6056829, 47.1868834], [3.6060799, 47.1867303], [3.6063266, 47.1866501], [3.607185, 47.1865626], [3.6076463, 47.1864823], [3.6080647, 47.1864969], [3.6086226, 47.1866136], [3.6089659, 47.1867886], [3.60932, 47.1869927], [3.6096955, 47.1873063], [3.6099745, 47.1874229], [3.6102319, 47.1873573], [3.61034, 47.1873463], [3.6106611, 47.1873136], [3.6110473, 47.1872917], [3.6113156, 47.187299], [3.6115945, 47.1873573], [3.611734, 47.1875177], [3.6118413, 47.1876927], [3.6117554, 47.1879552], [3.6115516, 47.1881156], [3.6114765, 47.1882614], [3.6114014, 47.1883416], [3.6114121, 47.1884802], [3.6115838, 47.1885458], [3.611828, 47.1884706], [3.6121115, 47.1884945], [3.6123611, 47.1885178], [3.6129353, 47.1886685], [3.6132166, 47.1888022], [3.6133084, 47.1890313], [3.6133755, 47.1893551], [3.6132897, 47.1896322], [3.6126781, 47.1900186], [3.6125065, 47.1901717], [3.612249, 47.1903029], [3.6120988, 47.1904561], [3.6122812, 47.1905581], [3.612839, 47.1906237], [3.6133004, 47.1907258], [3.6136223, 47.1908133], [3.613751, 47.1909081], [3.6138775, 47.1910797], [3.6138214, 47.1912002], [3.6137599, 47.191255], [3.6137575, 47.1913153], [3.613855, 47.1913221], [3.6139512, 47.1913165], [3.6141501, 47.1913147], [3.6141791, 47.1913282], [3.6142045, 47.1913396], [3.6144757, 47.191366], [3.6153147, 47.1913902], [3.6173022, 47.1914476]]]}}, {"type": "Feature", "properties": {"name": "Étang des Hâtes"}, "geometry": {"type": "Polygon", "coordinates": [[[4.1514239, 47.24151], [4.1507319, 47.2413534], [4.1500774, 47.2413952], [4.14949, 47.2414025], [4.149152, 47.2414954], [4.1490072, 47.2415701], [4.1488892, 47.2417631], [4.1487336, 47.2418031], [4.1485459, 47.2417594], [4.1482294, 47.2417758], [4.1486779, 47.2419491], [4.1489529, 47.2421], [4.1491789, 47.2421535], [4.1492861, 47.2422912], [4.1490501, 47.2428775], [4.1489911, 47.2431252], [4.1491252, 47.2435294], [4.1492325, 47.2436022], [4.1493827, 47.2439737], [4.1496724, 47.2440429], [4.1497797, 47.244123], [4.1502975, 47.2442567], [4.1510564, 47.2444107], [4.1517377, 47.2452519], [4.151786, 47.245485], [4.1515768, 47.2458528], [4.1518074, 47.2465083], [4.1517752, 47.2465629], [4.1517913, 47.2466248], [4.1519844, 47.2467632], [4.1519684, 47.2468579], [4.1519281, 47.2470327], [4.1519576, 47.2470728], [4.1521132, 47.2470546], [4.1524887, 47.2471784], [4.1526067, 47.2472767], [4.1527194, 47.2472876], [4.1528803, 47.2472585], [4.1534007, 47.2473495], [4.1538995, 47.2472039], [4.1541409, 47.2469453], [4.1543058, 47.2461547], [4.1550368, 47.2447203], [4.1556174, 47.243788], [4.1556376, 47.2436732], [4.1554365, 47.2432654], [4.155069, 47.243147], [4.1549349, 47.2429977], [4.1548356, 47.2426189], [4.1547471, 47.242466], [4.1547632, 47.2421673], [4.1545621, 47.2423076], [4.1544145, 47.2423185], [4.1540683, 47.2422957], [4.1536528, 47.2424696], [4.1531807, 47.2424387], [4.1526214, 47.2422085], [4.1519952, 47.2418414], [4.151912, 47.2418377], [4.1514239, 47.24151]]]}}, {"type": "Feature", "properties": {"name": "Petit Lac de Pannecière"}, "geometry": {"type": "Polygon", "coordinates": [[[3.8627132, 47.1644478], [3.8626894, 47.1642497], [3.8626385, 47.1642297], [3.8624445, 47.1641762], [3.861555, 47.1640896], [3.8609995, 47.1639101], [3.8605108, 47.1638213], [3.8602265, 47.1637154], [3.8595935, 47.1637042], [3.8593501, 47.1638302], [3.859016, 47.1641743], [3.8588673, 47.1642753], [3.8586795, 47.16433], [3.8583147, 47.1642899], [3.8582075, 47.16433], [3.8579875, 47.1642497], [3.8579446, 47.1641987], [3.8577622, 47.1641111], [3.8575745, 47.1638996], [3.8573652, 47.1638485], [3.8573277, 47.1638157], [3.857215, 47.1636443], [3.8571829, 47.1634692], [3.8569951, 47.1634656], [3.856245, 47.1631871], [3.8557613, 47.1629732], [3.8555145, 47.1629477], [3.8544508, 47.1625172], [3.8537215, 47.1624821], [3.8530012, 47.1624577], [3.8528095, 47.1624564], [3.8526369, 47.1625476], [3.8521092, 47.1626695], [3.8517963, 47.1627039], [3.85159, 47.1626568], [3.8515436, 47.1625628], [3.8512332, 47.1642686], [3.8512754, 47.1642856], [3.8512007, 47.1645849], [3.8513193, 47.1646122], [3.8524729, 47.1648479], [3.8526875, 47.1649354], [3.8529342, 47.1651178], [3.8532025, 47.1652819], [3.8533151, 47.1653257], [3.8535297, 47.1653403], [3.8538891, 47.1654059], [3.8547635, 47.165694], [3.8553429, 47.1659311], [3.8559598, 47.1662083], [3.8562173, 47.166252], [3.8565069, 47.1662448], [3.8569736, 47.1661572], [3.8574833, 47.1661208], [3.8580197, 47.1662083], [3.8588202, 47.1664109], [3.8595164, 47.166573], [3.8598329, 47.1666131], [3.8602298, 47.1666168], [3.8611096, 47.1665329], [3.8613993, 47.1664526], [3.8618231, 47.1663141], [3.8619947, 47.1662338], [3.8620403, 47.1661335], [3.8619921, 47.165922], [3.8618901, 47.1657907], [3.8617641, 47.165725], [3.8616031, 47.1657834], [3.8614529, 47.1657396], [3.8614368, 47.1656849], [3.861461, 47.1656412], [3.8614342, 47.1656101], [3.8611659, 47.1656557], [3.8610533, 47.1656576], [3.8608575, 47.1655956], [3.860431, 47.16555], [3.8601011, 47.1655044], [3.8597015, 47.1654697], [3.8595915, 47.1654187], [3.8595352, 47.1653603], [3.8595432, 47.1653257], [3.8595968, 47.1652527], [3.8598597, 47.1651652], [3.8600528, 47.165147], [3.8602969, 47.1651652], [3.860364, 47.1652017], [3.8603881, 47.165364], [3.8604578, 47.1653913], [3.8611177, 47.1654807], [3.8612866, 47.1654624], [3.861343, 47.165508], [3.8615299, 47.1654976], [3.8618043, 47.1654789], [3.862043, 47.1655153], [3.8622388, 47.1655208], [3.8627002, 47.165674], [3.8627565, 47.1655554], [3.8624158, 47.1654023], [3.8618526, 47.165271], [3.8616863, 47.1652473], [3.861461, 47.1652801], [3.8613188, 47.1652363], [3.8612974, 47.1652035], [3.861402, 47.1650886], [3.861807, 47.1650047], [3.8624722, 47.1649901], [3.8626492, 47.1650631], [3.8628745, 47.1650302], [3.8626438, 47.1645962], [3.862499, 47.1644941], [3.8625365, 47.1644102], [3.8627132, 47.1644478]]]}}, {"type": "Feature", "properties": {"name": "Étang de Fleury-la-Tour"}, "geometry": {"type": "Polygon", "coordinates": [[[3.5555046, 47.0014085], [3.5549832, 47.002016], [3.5548601, 47.0024367], [3.5547728, 47.002735], [3.5549267, 47.0029988], [3.5550769, 47.0029383], [3.5552192, 47.0028759], [3.5562545, 47.0028503], [3.5572861, 47.002926], [3.5577793, 47.0026086], [3.5580049, 47.0022251], [3.5580877, 47.0008801], [3.5587425, 47.0000172], [3.5596852, 46.999505], [3.5607639, 46.9990495], [3.5612284, 46.998886], [3.5616715, 46.9986965], [3.5620975, 46.9984341], [3.5620422, 46.9981407], [3.5620631, 46.9974639], [3.5619344, 46.9965645], [3.5614564, 46.9957702], [3.5611329, 46.9951936], [3.5608357, 46.994299], [3.5609495, 46.9940961], [3.5609951, 46.9937461], [3.5604506, 46.9934885], [3.560398, 46.9932551], [3.5602961, 46.9930886], [3.5604543, 46.9927209], [3.5604651, 46.9923213], [3.560626, 46.9919232], [3.5608947, 46.9914025], [3.5615159, 46.9905225], [3.5622648, 46.9901518], [3.5629118, 46.9900677], [3.5631854, 46.9901343], [3.5632964, 46.9900706], [3.563328, 46.9897563], [3.5632847, 46.9894946], [3.5632594, 46.9893413], [3.5631108, 46.9891437], [3.5625727, 46.9891925], [3.5623265, 46.9892605], [3.5618367, 46.9893173], [3.5614832, 46.9894343], [3.5609676, 46.9895332], [3.5604093, 46.9896468], [3.5589711, 46.9898302], [3.5576745, 46.9900567], [3.5572341, 46.9902107], [3.5563371, 46.990483], [3.5560201, 46.990607], [3.5544744, 46.9910867], [3.5541335, 46.991178], [3.5534689, 46.991356], [3.553379, 46.9914859], [3.5531113, 46.991577], [3.5522582, 46.9914237], [3.5512408, 46.991347], [3.5510963, 46.9919879], [3.5513609, 46.9919926], [3.5515609, 46.9920273], [3.552102, 46.9921343], [3.5524318, 46.9922254], [3.5533909, 46.992414], [3.5542456, 46.9927439], [3.5549301, 46.9934885], [3.5556569, 46.9940656], [3.5566799, 46.9945635], [3.5573156, 46.9951372], [3.5576573, 46.9956707], [3.5577916, 46.9960562], [3.5581466, 46.9968437], [3.5580029, 46.9970274], [3.557844, 46.9972304], [3.5570812, 46.9985238], [3.5564686, 46.999224], [3.5563908, 46.9997179], [3.5562738, 47.0000245], [3.5561644, 47.0005565], [3.5559898, 47.0008234], [3.5555046, 47.0014085]]]}}, {"type": "Feature", "properties": {"name": "Étang de Chèvres"}, "geometry": {"type": "Polygon", "coordinates": [[[3.8038069, 46.8941578], [3.8037853, 46.8940414], [3.8037264, 46.8937252], [3.8035172, 46.8932853], [3.8036766, 46.8929483], [3.8031606, 46.892663], [3.8024658, 46.8925411], [3.8021318, 46.8921025], [3.8009023, 46.8916606], [3.7995529, 46.891434], [3.7989882, 46.8909353], [3.7958965, 46.891583], [3.7949878, 46.8913644], [3.7936956, 46.8911959], [3.793062, 46.8913827], [3.7926355, 46.8918038], [3.7922118, 46.892168], [3.7916734, 46.892412], [3.7902081, 46.892904], [3.7892593, 46.8938846], [3.7892598, 46.894336], [3.78942, 46.8948344], [3.789529, 46.8953204], [3.7901424, 46.8957427], [3.7905997, 46.8959576], [3.7919333, 46.8961762], [3.7924181, 46.8963017], [3.7927213, 46.896535], [3.7930092, 46.8968634], [3.7937942, 46.8977592], [3.7939712, 46.8980103], [3.7944916, 46.8984539], [3.7947893, 46.8985583], [3.7949261, 46.8987581], [3.795248, 46.8989579], [3.7954518, 46.8990257], [3.7956315, 46.8991503], [3.7956986, 46.8992896], [3.7960392, 46.8997221], [3.7962216, 46.8997661], [3.7964201, 46.8996891], [3.7964469, 46.8995645], [3.7962967, 46.8991686], [3.7954169, 46.8984355], [3.7946337, 46.8975192], [3.7939017, 46.8961479], [3.7929118, 46.895624], [3.7918818, 46.8953015], [3.7917477, 46.8951512], [3.7917691, 46.8949056], [3.7927777, 46.8943777], [3.7932229, 46.8939415], [3.794226, 46.8935309], [3.7949771, 46.8933733], [3.7961465, 46.8928674], [3.7965971, 46.8927574], [3.7971228, 46.8927061], [3.7974071, 46.8927354], [3.7986678, 46.8924971], [3.7991077, 46.8925631], [3.7997514, 46.8928931], [3.799966, 46.8928894], [3.8005829, 46.8926878], [3.8008726, 46.8926548], [3.8010603, 46.8928087], [3.8014358, 46.8930727], [3.8021761, 46.8932926], [3.8027555, 46.8935492], [3.8029808, 46.8935529], [3.8038069, 46.8941578]]]}}, {"type": "Feature", "properties": {"name": "Étang Donjon"}, "geometry": {"type": "Polygon", "coordinates": [[[3.701552, 46.7929781], [3.7014815, 46.792854], [3.7012558, 46.7921732], [3.7012102, 46.7919176], [3.701112, 46.791919], [3.7005603, 46.7926203], [3.7003568, 46.7927704], [3.6999812, 46.792847], [3.6991733, 46.7928892], [3.698013, 46.7929713], [3.697058, 46.7930134], [3.6965639, 46.7929779], [3.6963325, 46.792882], [3.6961417, 46.7927367], [3.6958471, 46.7922328], [3.695686, 46.7922155], [3.695549, 46.792273], [3.6955773, 46.7925539], [3.6955363, 46.7927791], [3.6954841, 46.792971], [3.6952701, 46.7931958], [3.694797, 46.7932834], [3.6943594, 46.7933063], [3.6926375, 46.7947979], [3.6924056, 46.7953765], [3.6922648, 46.7956124], [3.6921368, 46.7956875], [3.6919656, 46.7957289], [3.6917374, 46.7958096], [3.6916861, 46.7958865], [3.6917226, 46.796076], [3.6917638, 46.7961932], [3.6919543, 46.7967404], [3.6919624, 46.7967636], [3.6921318, 46.7972429], [3.6923087, 46.7973936], [3.6924767, 46.7974428], [3.6926824, 46.7974416], [3.6929476, 46.7972832], [3.6935902, 46.7970075], [3.6940211, 46.7968995], [3.6942769, 46.7968822], [3.6946064, 46.7968886], [3.6952528, 46.7969476], [3.6957683, 46.7969557], [3.6962862, 46.7969032], [3.6966608, 46.7968942], [3.6972543, 46.796917], [3.6975306, 46.7970113], [3.6979182, 46.7971981], [3.6984833, 46.7976235], [3.6985314, 46.7976984], [3.6986545, 46.7980484], [3.69871, 46.7981229], [3.6991753, 46.7982822], [3.6993627, 46.7983517], [3.6995226, 46.7984513], [3.6996102, 46.7986136], [3.6997374, 46.7986977], [3.6998418, 46.798866], [3.6998918, 46.7989542], [3.6999426, 46.7989719], [3.7000036, 46.7989727], [3.7000876, 46.7989949], [3.7001054, 46.7990272], [3.7001841, 46.7990434], [3.7005272, 46.799062], [3.7005717, 46.7990901], [3.7005776, 46.7991452], [3.7005372, 46.7992484], [3.7006043, 46.7993087], [3.7008079, 46.7994192], [3.7010011, 46.7994805], [3.7012073, 46.7994133], [3.7012851, 46.7992466], [3.7012104, 46.7991298], [3.7009577, 46.7987414], [3.7007283, 46.7985031], [3.7006626, 46.798272], [3.7005657, 46.7980898], [3.7002822, 46.7978362], [3.6998426, 46.7974065], [3.699044, 46.7966629], [3.6983705, 46.7963914], [3.6980988, 46.7962337], [3.6979507, 46.7961097], [3.6977787, 46.7960331], [3.6975174, 46.7959479], [3.6971825, 46.7958706], [3.6963262, 46.7958204], [3.6961227, 46.7956112], [3.6961317, 46.7953697], [3.6964633, 46.7949819], [3.6970478, 46.7946331], [3.6972667, 46.7944776], [3.6975068, 46.7943218], [3.6990102, 46.7937317], [3.7001372, 46.7937045], [3.7003051, 46.7937162], [3.7005161, 46.7938233], [3.7006498, 46.7938733], [3.7008774, 46.7938348], [3.7013957, 46.7938122], [3.7014553, 46.7937438], [3.7015386, 46.7934994], [3.7016176, 46.7932254], [3.7016105, 46.7930972], [3.701552, 46.7929781]]]}}, {"type": "Feature", "properties": {"name": "Étang du Marnant"}, "geometry": {"type": "Polygon", "coordinates": [[[3.7793539, 46.7675381], [3.7790916, 46.7675271], [3.778729, 46.7676024], [3.7764566, 46.7675844], [3.7758837, 46.7675774], [3.7753392, 46.7674613], [3.7749669, 46.7673535], [3.774662, 46.7672977], [3.7744267, 46.7674015], [3.7742786, 46.7675032], [3.774167, 46.7675081], [3.7740104, 46.7675149], [3.7735566, 46.767618], [3.7732565, 46.7677344], [3.7729695, 46.7681699], [3.7728607, 46.7683603], [3.7727201, 46.7686062], [3.772598, 46.7688377], [3.7725588, 46.7690086], [3.7726077, 46.7691643], [3.7726152, 46.7691882], [3.7729016, 46.7692683], [3.7732299, 46.7694583], [3.7736274, 46.7697394], [3.7740228, 46.7701891], [3.7740453, 46.7703125], [3.7738206, 46.7709706], [3.7737957, 46.7711754], [3.773852, 46.7713169], [3.7740692, 46.7716237], [3.7741148, 46.7717559], [3.7740639, 46.7719084], [3.7739459, 46.7720958], [3.7739459, 46.7721895], [3.7739847, 46.7722801], [3.7745789, 46.7724209], [3.7748768, 46.7725446], [3.7755686, 46.7730657], [3.7761533, 46.7734368], [3.7762499, 46.7735672], [3.7763518, 46.7736517], [3.776494, 46.7739824], [3.7765583, 46.7745519], [3.7767595, 46.775046], [3.7767729, 46.7753564], [3.7768158, 46.7754391], [3.7769085, 46.77546], [3.7771833, 46.7755218], [3.7772709, 46.7754783], [3.7774461, 46.7752481], [3.7775253, 46.7750993], [3.7776527, 46.7748403], [3.7776419, 46.7747043], [3.7777841, 46.7744196], [3.777945, 46.7742194], [3.7790742, 46.7739953], [3.779093, 46.7738437], [3.7789428, 46.7736885], [3.7788007, 46.7736536], [3.7785932, 46.7735002], [3.7782723, 46.7732605], [3.7781972, 46.7730859], [3.7781491, 46.7728848], [3.7777278, 46.7730437], [3.7776285, 46.7730161], [3.7771484, 46.7723511], [3.7766629, 46.7715924], [3.7763464, 46.771405], [3.7761641, 46.7711423], [3.7760729, 46.7707584], [3.7757912, 46.7704589], [3.7754572, 46.7694524], [3.7752904, 46.769028], [3.7752508, 46.7688983], [3.7752783, 46.7688026], [3.7754534, 46.7686731], [3.7758177, 46.7685496], [3.7762796, 46.7684247], [3.7778512, 46.7683021], [3.7784371, 46.7681598], [3.7791225, 46.7681166], [3.7802551, 46.7681671], [3.7799084, 46.7679806], [3.7795288, 46.7677663], [3.7793539, 46.7675381]]]}}, {"type": "Feature", "properties": {"name": "Réservoir de Pannecière"}, "geometry": {"type": "Polygon", "coordinates": [[[3.9105164, 47.1388914], [3.9094189, 47.1384336], [3.9090648, 47.1383643], [3.9086711, 47.1384609], [3.908413, 47.1385194], [3.9078825, 47.1389571], [3.9073997, 47.1392345], [3.9071878, 47.1393147], [3.9070483, 47.1393056], [3.9068847, 47.1392655], [3.9066406, 47.1391688], [3.906418, 47.1390356], [3.9060935, 47.1388841], [3.9058842, 47.1387802], [3.9058199, 47.13874], [3.9057957, 47.1386488], [3.9058172, 47.1382693], [3.9058735, 47.137981], [3.9059406, 47.1377493], [3.9060935, 47.1375176], [3.9062302, 47.1373169], [3.9065146, 47.1369501], [3.9068364, 47.1365907], [3.9069947, 47.1364539], [3.9071958, 47.1364119], [3.9082768, 47.1362367], [3.9085128, 47.1361729], [3.908722, 47.1360707], [3.9088856, 47.1359521], [3.9092611, 47.1356346], [3.909575, 47.1353755], [3.9099853, 47.1349905], [3.9101516, 47.1346822], [3.9102106, 47.1345252], [3.9103635, 47.1341585], [3.910511, 47.1340654], [3.910554, 47.1338574], [3.9106237, 47.1337023], [3.9110389, 47.133228], [3.9110314, 47.1330764], [3.9109772, 47.1330565], [3.910886, 47.1330948], [3.9108244, 47.1330547], [3.9108973, 47.1327881], [3.911085, 47.1325181], [3.9116108, 47.1320619], [3.9119889, 47.1319159], [3.9122679, 47.1318338], [3.9127051, 47.1317389], [3.9129787, 47.131717], [3.9132791, 47.1316276], [3.9138579, 47.1315091], [3.9139947, 47.1314069], [3.9140135, 47.1312993], [3.9143193, 47.1311989], [3.9150327, 47.1307135], [3.9154356, 47.1305601], [3.9165031, 47.1300838], [3.9167338, 47.1300346], [3.9169269, 47.1300328], [3.9171737, 47.1300583], [3.9175272, 47.1301442], [3.9180878, 47.1301989], [3.9182004, 47.1302883], [3.9182787, 47.1303922], [3.9184499, 47.1304307], [3.9186274, 47.1303594], [3.9186489, 47.1302755], [3.9185791, 47.1302152], [3.9184906, 47.1301441], [3.9184423, 47.1300163], [3.9184021, 47.1297682], [3.9184584, 47.1295528], [3.918606, 47.1292408], [3.9188205, 47.1287408], [3.9188876, 47.1285911], [3.918901, 47.1284251], [3.9188098, 47.1282864], [3.9187159, 47.1282006], [3.9184611, 47.1279251], [3.9180427, 47.1274287], [3.9178276, 47.1270912], [3.9177691, 47.1269688], [3.9177959, 47.1268283], [3.917871, 47.1267133], [3.9180588, 47.1266294], [3.9186779, 47.1264945], [3.9188683, 47.1265748], [3.9190534, 47.1265967], [3.9191821, 47.126677], [3.9201879, 47.1268704], [3.9210972, 47.1269434], [3.922331, 47.1268448], [3.9234871, 47.1266733], [3.9237016, 47.1265802], [3.9245385, 47.1263448], [3.9248282, 47.1263576], [3.9253029, 47.1261915], [3.9256221, 47.1259963], [3.9257385, 47.1258863], [3.9258018, 47.1258265], [3.9257777, 47.125728], [3.9258747, 47.1255691], [3.9260137, 47.1253484], [3.9263678, 47.1249944], [3.9264992, 47.124842], [3.9265582, 47.1247735], [3.9265992, 47.1246862], [3.9266199, 47.1246421], [3.9266789, 47.1246038], [3.926762, 47.1246421], [3.9267915, 47.1247024], [3.9269954, 47.1247963], [3.9272395, 47.1247808], [3.9273441, 47.1247881], [3.9273583, 47.1247755], [3.9273789, 47.1247571], [3.9272261, 47.1246659], [3.9271805, 47.1245527], [3.9272073, 47.124363], [3.927159, 47.1242352], [3.927217, 47.1241466], [3.9272583, 47.1240837], [3.9272475, 47.1239176], [3.9272019, 47.1238392], [3.9270227, 47.1237478], [3.9269369, 47.1236894], [3.9269342, 47.1235707], [3.9269771, 47.1234211], [3.9271112, 47.1232386], [3.9272802, 47.1231126], [3.9274975, 47.1228462], [3.9278596, 47.1225597], [3.9281058, 47.122516], [3.9283928, 47.1223865], [3.9285516, 47.1223571], [3.928734, 47.1222384], [3.9288455, 47.1220988], [3.928881, 47.1220268], [3.9291961, 47.1217887], [3.9296897, 47.1215943], [3.9298975, 47.121483], [3.9300907, 47.1214401], [3.9302529, 47.1214547], [3.9304514, 47.1215067], [3.9305869, 47.1215085], [3.9306566, 47.1214784], [3.9305265, 47.1213862], [3.9305614, 47.1212767], [3.9306875, 47.1212247], [3.930784, 47.1212357], [3.9309315, 47.1211289], [3.9308819, 47.1211088], [3.9308068, 47.1210212], [3.9308851, 47.1209682], [3.9309495, 47.1209627], [3.9310407, 47.1210083], [3.9311823, 47.1210376], [3.9313835, 47.1209884], [3.9316571, 47.1210541], [3.9320567, 47.1210495], [3.9323679, 47.1210486], [3.9326881, 47.1209516], [3.9327841, 47.1209225], [3.9329482, 47.1208706], [3.9330545, 47.1208369], [3.9335785, 47.1204871], [3.9337626, 47.1203642], [3.9339638, 47.1202145], [3.9340925, 47.1201488], [3.9340201, 47.1200703], [3.9346692, 47.1196724], [3.9347523, 47.1196542], [3.9347926, 47.1196597], [3.9346531, 47.1197947], [3.9345029, 47.1198203], [3.9342749, 47.1199864], [3.9342695, 47.1200448], [3.9351869, 47.1195155], [3.9356214, 47.1192727], [3.9362678, 47.1190574], [3.9369088, 47.1188748], [3.9372012, 47.1187106], [3.9375016, 47.1185189], [3.937802, 47.1182141], [3.93803, 47.1178838], [3.9381292, 47.1176556], [3.9382607, 47.1170332], [3.9383331, 47.1168561], [3.9382848, 47.1168196], [3.9383358, 47.116513], [3.9383385, 47.1164108], [3.9383009, 47.1164035], [3.9382875, 47.1160932], [3.938207, 47.1161096], [3.9381561, 47.1160585], [3.9381346, 47.1159527], [3.9379924, 47.1159071], [3.9377081, 47.1158505], [3.9374023, 47.1157081], [3.9371347, 47.1154451], [3.9370891, 47.1152498], [3.937073, 47.1150289], [3.9370912, 47.114841], [3.9369603, 47.1148007], [3.9369088, 47.1146092], [3.9367586, 47.1143756], [3.936756, 47.1142314], [3.9366969, 47.1141839], [3.9366004, 47.1141693], [3.9364931, 47.1141036], [3.9359808, 47.1140324], [3.9358708, 47.1139795], [3.9357313, 47.1138042], [3.9356133, 47.113618], [3.9355221, 47.1133132], [3.9353215, 47.1131561], [3.9351775, 47.113127], [3.935152, 47.113075], [3.9352048, 47.1130365], [3.935174, 47.1128257], [3.9351498, 47.1126596], [3.935115, 47.1125336], [3.9350533, 47.112384], [3.9349969, 47.1123128], [3.9349148, 47.1122954], [3.9347341, 47.1123128], [3.9346858, 47.1123529], [3.9346617, 47.1124424], [3.9346885, 47.1126833], [3.9348535, 47.1131834], [3.9348918, 47.1132375], [3.9349071, 47.1133057], [3.9353108, 47.1139757], [3.9354985, 47.1143079], [3.9355843, 47.1146766], [3.9358064, 47.1149762], [3.9360746, 47.1152299], [3.9362844, 47.1154542], [3.9363563, 47.1156241], [3.9365091, 47.115834], [3.9366223, 47.1159379], [3.9367398, 47.1160002], [3.9367184, 47.1160695], [3.9366366, 47.1160768], [3.9366706, 47.1167228], [3.9365714, 47.11694], [3.9364051, 47.1170842], [3.9362034, 47.1171994], [3.9358628, 47.1173198], [3.9356884, 47.1173526], [3.9356616, 47.1175607], [3.935616, 47.1175826], [3.935557, 47.1175716], [3.9355034, 47.1174968], [3.9353773, 47.1175023], [3.9354202, 47.1176045], [3.9351627, 47.1176793], [3.9345995, 47.1177669], [3.9344439, 47.1177542], [3.9341515, 47.1177943], [3.9340201, 47.1177415], [3.9337707, 47.117641], [3.9335427, 47.1176008], [3.9332851, 47.1176119], [3.9332771, 47.1176739], [3.9334112, 47.117798], [3.933363, 47.1178673], [3.9330894, 47.1180079], [3.9330545, 47.1181849], [3.9328989, 47.1182725], [3.9327541, 47.1183966], [3.9324617, 47.1185992], [3.9321452, 47.1187361], [3.9318233, 47.118749], [3.9312226, 47.1187544], [3.9311877, 47.1188164], [3.9312628, 47.1188548], [3.9312735, 47.1189259], [3.9313781, 47.1189734], [3.9313674, 47.1190555], [3.9312735, 47.1191231], [3.9311662, 47.1195118], [3.9311367, 47.1197874], [3.9311475, 47.120001], [3.9310831, 47.1201871], [3.9309436, 47.1202985], [3.9306237, 47.1204533], [3.9306003, 47.1204646], [3.9305386, 47.1205613], [3.9305627, 47.1206197], [3.9304635, 47.1206817], [3.9303723, 47.1206635], [3.9302918, 47.1206635], [3.9299217, 47.1208004], [3.9295328, 47.1210121], [3.9292216, 47.1210596], [3.9290446, 47.1211289], [3.9286691, 47.1212457], [3.9284331, 47.1212457], [3.9280307, 47.1213516], [3.927851, 47.1214867], [3.9276337, 47.1214995], [3.9272266, 47.1214007], [3.9270254, 47.1213259], [3.926835, 47.1212748], [3.9266789, 47.1212531], [3.9265372, 47.121262], [3.9264455, 47.1213352], [3.9264353, 47.1214062], [3.9265528, 47.1215031], [3.9266708, 47.1215651], [3.9267352, 47.1217129], [3.9267191, 47.1218973], [3.9266682, 47.1221418], [3.9266065, 47.1222696], [3.9265346, 47.1223296], [3.9264643, 47.1223882], [3.926188, 47.1227295], [3.9260378, 47.122797], [3.9259037, 47.1229595], [3.9257562, 47.1230726], [3.9253839, 47.1232623], [3.9251527, 47.1233209], [3.9250138, 47.1233681], [3.924936, 47.123432], [3.9249628, 47.1235196], [3.925054, 47.1235853], [3.9251666, 47.1236729], [3.9254214, 47.1239193], [3.9255068, 47.1240764], [3.9255685, 47.124237], [3.9255175, 47.1244669], [3.9252841, 47.1248556], [3.9248979, 47.1251914], [3.9247482, 47.1253264], [3.9245283, 47.1253866], [3.9241201, 47.1254104], [3.9240342, 47.1254433], [3.9236426, 47.1254031], [3.923471, 47.1252462], [3.9232725, 47.1252352], [3.9229721, 47.1253739], [3.9222591, 47.1257096], [3.921948, 47.1258319], [3.9216674, 47.1259196], [3.9213364, 47.1259888], [3.9210977, 47.1259596], [3.9208134, 47.125872], [3.9204057, 47.1257534], [3.9201241, 47.1256731], [3.9195447, 47.1256877], [3.9191585, 47.1256439], [3.9186381, 47.1255271], [3.9182085, 47.1254469], [3.9176238, 47.1253046], [3.917098, 47.1251184], [3.9166635, 47.1251038], [3.9162558, 47.1250783], [3.916111, 47.1250345], [3.9156604, 47.1251695], [3.915478, 47.125279], [3.9150113, 47.1254469], [3.9145929, 47.125644], [3.9143461, 47.1259433], [3.9142281, 47.1266003], [3.9143139, 47.1269543], [3.9142603, 47.1271295], [3.9142871, 47.1271806], [3.914389, 47.1272354], [3.9146304, 47.1276223], [3.9147141, 47.1279086], [3.9147141, 47.1280492], [3.9147704, 47.1281459], [3.9149179, 47.1283795], [3.9150052, 47.1286422], [3.9150542, 47.1288632], [3.9150381, 47.1290074], [3.9149501, 47.1291112], [3.9147355, 47.1291349], [3.914588, 47.1291094], [3.91436, 47.1291386], [3.9140274, 47.129197], [3.9133542, 47.1294178], [3.913027, 47.1295145], [3.9129009, 47.1295601], [3.9127292, 47.1295601], [3.9126139, 47.129551], [3.9124181, 47.1294817], [3.9121968, 47.1294233], [3.9119943, 47.1294251], [3.9118066, 47.1294616], [3.9111467, 47.129863], [3.9107605, 47.130093], [3.9105091, 47.1302149], [3.9102857, 47.1302755], [3.9101108, 47.1302357], [3.9098727, 47.1301441], [3.9096608, 47.1300328], [3.9095776, 47.1299324], [3.9095696, 47.1297937], [3.909634, 47.1296879], [3.90998, 47.1292663], [3.9103448, 47.1289652], [3.9106183, 47.1287809], [3.9109481, 47.1286091], [3.9111306, 47.1284342], [3.9112031, 47.1282608], [3.9112487, 47.1281167], [3.9112165, 47.1279287], [3.9111601, 47.1277499], [3.9111467, 47.1277079], [3.9110743, 47.1276787], [3.9109617, 47.127686], [3.9108302, 47.127717], [3.9108061, 47.1277754], [3.9108007, 47.1278831], [3.9108275, 47.1280218], [3.9107331, 47.1281935], [3.9105427, 47.1283979], [3.9103474, 47.1284853], [3.9100819, 47.1285473], [3.909884, 47.1285462], [3.9096769, 47.12852], [3.9095079, 47.1284652], [3.9094221, 47.128447], [3.9093175, 47.1284014], [3.9092343, 47.1284105], [3.9092021, 47.1284524], [3.9092558, 47.1285619], [3.9092563, 47.1286832], [3.9092263, 47.1288594], [3.9091131, 47.1289818], [3.9087059, 47.1293941], [3.9086142, 47.1295329], [3.9085557, 47.1298393], [3.9085343, 47.1300382], [3.908545, 47.1301769], [3.9086308, 47.130343], [3.9089125, 47.1306368], [3.9090117, 47.1307481], [3.9091753, 47.1308521], [3.9093014, 47.1309251], [3.9094006, 47.1310784], [3.9094221, 47.1312097], [3.9094006, 47.1313302], [3.9093518, 47.1314198], [3.9092611, 47.1314835], [3.9090224, 47.1315035], [3.9087783, 47.131436], [3.908545, 47.1313502], [3.9083894, 47.1313302], [3.9081507, 47.1313429], [3.9078476, 47.1313831], [3.9074989, 47.1314415], [3.9073299, 47.1315218], [3.9071315, 47.131624], [3.9069008, 47.1318302], [3.9068498, 47.1319834], [3.9067506, 47.1322918], [3.9066245, 47.1325728], [3.9064341, 47.1330837], [3.9063831, 47.1332899], [3.9062758, 47.1337388], [3.9061525, 47.1339085], [3.9059513, 47.1340143], [3.9056321, 47.1341475], [3.9054336, 47.1342424], [3.9050393, 47.1343555], [3.9048704, 47.1344632], [3.9047202, 47.1346895], [3.904519, 47.1348993], [3.9042642, 47.1350215], [3.9040013, 47.1350708], [3.9038136, 47.1350763], [3.9034783, 47.134985], [3.9030974, 47.1348664], [3.9026897, 47.134684], [3.9025288, 47.1345909], [3.9024054, 47.1345143], [3.9023089, 47.1344705], [3.9021265, 47.1344468], [3.9019226, 47.1344486], [3.9017054, 47.1344687], [3.9015578, 47.1344997], [3.9015122, 47.1345508], [3.9014098, 47.1346476], [3.9014527, 47.1349067], [3.9015654, 47.1349779], [3.901619, 47.1350454], [3.9016056, 47.1351238], [3.9018363, 47.1353884], [3.901965, 47.1357114], [3.9019328, 47.13585], [3.901898, 47.1359102], [3.9019115, 47.1363723], [3.9019943, 47.1368883], [3.9022217, 47.1373342], [3.9020642, 47.1375737], [3.9015815, 47.1376252], [3.9011636, 47.1376982], [3.9010026, 47.1376727], [3.9008631, 47.1376727], [3.9007129, 47.1376672], [3.9006244, 47.1376781], [3.9004581, 47.1377493], [3.9004233, 47.1378095], [3.9002677, 47.1380029], [3.9002784, 47.1383952], [3.9002677, 47.1389115], [3.9002516, 47.1392892], [3.9002189, 47.1400155], [3.9001309, 47.1404277], [3.9000687, 47.1406413], [3.8999673, 47.1407798], [3.8997071, 47.1409841], [3.899333, 47.1412542], [3.8992211, 47.1414039], [3.8992094, 47.1415595], [3.8992163, 47.1417777], [3.8991519, 47.1419565], [3.899011, 47.1423375], [3.8988139, 47.1429891], [3.8987549, 47.1432153], [3.8985645, 47.1434981], [3.8983606, 47.1437298], [3.8981461, 47.1440144], [3.8979932, 47.1443555], [3.8979825, 47.1446438], [3.8979637, 47.1449576], [3.897902, 47.1450944], [3.8978108, 47.1452403], [3.8976284, 47.1454063], [3.8974567, 47.1454519], [3.8972931, 47.1455049], [3.8971107, 47.1455523], [3.8969874, 47.1455505], [3.8967755, 47.1454665], [3.8966709, 47.1453352], [3.8965555, 47.1452038], [3.8963302, 47.144901], [3.8961237, 47.1447824], [3.8959735, 47.1447934], [3.8958635, 47.1448609], [3.8957106, 47.144974], [3.8955143, 47.1451146], [3.8954231, 47.1451748], [3.8952568, 47.145193], [3.8951232, 47.1452422], [3.8950401, 47.1454063], [3.8950374, 47.1455122], [3.8951044, 47.1456198], [3.8952037, 47.1456581], [3.8953727, 47.1456709], [3.8955551, 47.1457019], [3.8957804, 47.1457986], [3.8960159, 47.1459556], [3.8961654, 47.1462665], [3.896172, 47.1464571], [3.8961988, 47.1466031], [3.8961822, 47.1467309], [3.8960271, 47.1467599], [3.8956162, 47.1470684], [3.895294, 47.1472703], [3.8951522, 47.1474916], [3.8949913, 47.1475901], [3.8948491, 47.1478218], [3.8942302, 47.1483196], [3.8935697, 47.1484949], [3.8932103, 47.1487393], [3.8930923, 47.1488998], [3.8933819, 47.1491297], [3.8938647, 47.1492099], [3.8939184, 47.1496733], [3.8937789, 47.1498995], [3.8934517, 47.1501767], [3.8929367, 47.1503774], [3.8927114, 47.1505634], [3.8923037, 47.1507057], [3.8913712, 47.1508062], [3.8906246, 47.150848], [3.8900936, 47.1510268], [3.8899487, 47.1512165], [3.8899366, 47.1517504], [3.8892943, 47.1518184], [3.8888222, 47.1519862], [3.8885969, 47.1519753], [3.8884199, 47.1519133], [3.888039, 47.1515521], [3.8879156, 47.1514463], [3.8877225, 47.1517236], [3.8875937, 47.1521249], [3.887406, 47.1523], [3.8873593, 47.1522909], [3.8861895, 47.1526913], [3.8851022, 47.1528633], [3.884756, 47.1526757], [3.8845468, 47.1523729], [3.884241, 47.1520118], [3.8835144, 47.1520591], [3.8825112, 47.152401], [3.8817594, 47.1524583], [3.8813406, 47.1520006], [3.8812573, 47.1511424], [3.8811733, 47.1506847], [3.8811733, 47.1499986], [3.8817586, 47.1493699], [3.8818418, 47.1490247], [3.881841, 47.148053], [3.8820147, 47.1468896], [3.8811994, 47.1466634], [3.8801318, 47.1464372], [3.8795793, 47.1461745], [3.8792574, 47.1460869], [3.8788712, 47.146138], [3.878721, 47.1467218], [3.8786352, 47.1470465], [3.8785976, 47.1473602], [3.8789141, 47.1475645], [3.8795578, 47.1476959], [3.8798422, 47.1479367], [3.8798153, 47.1482979], [3.8796973, 47.1486773], [3.8795596, 47.1488394], [3.8794597, 47.1488953], [3.8793068, 47.1489135], [3.8790949, 47.1489044], [3.8788562, 47.1488661], [3.8786938, 47.1487833], [3.8785745, 47.1486563], [3.8783921, 47.1482969], [3.8781202, 47.1475791], [3.8779308, 47.1475308], [3.8773353, 47.1474268], [3.8771537, 47.1474334], [3.8766289, 47.147404], [3.8764733, 47.1474733], [3.8764733, 47.1476193], [3.8766611, 47.1477689], [3.8771224, 47.1478747], [3.8772941, 47.1481191], [3.8773262, 47.1482979], [3.8770993, 47.1485706], [3.8764536, 47.1489967], [3.8757207, 47.1491944], [3.8750439, 47.1493062], [3.8744831, 47.1491954], [3.8744563, 47.1493121], [3.8745367, 47.1493559], [3.8751966, 47.1495967], [3.8757759, 47.1500746], [3.8759637, 47.15033], [3.8761622, 47.1506072], [3.8763338, 47.1508808], [3.8763285, 47.1510705], [3.8759208, 47.1516615], [3.8754916, 47.1521905], [3.8753414, 47.1525152], [3.8753629, 47.1527268], [3.8753941, 47.1528636], [3.8751742, 47.1529329], [3.8749515, 47.1529311], [3.8747005, 47.15284], [3.8742578, 47.1523182], [3.8740808, 47.1520993], [3.873588, 47.1520138], [3.8734066, 47.1520318], [3.8732027, 47.1521376], [3.8728148, 47.1522781], [3.8727397, 47.1525772], [3.8726699, 47.1527158], [3.8725358, 47.1528143], [3.8723373, 47.1528654], [3.8721228, 47.1527925], [3.8715854, 47.1530204], [3.871183, 47.1530752], [3.8706394, 47.1530815], [3.870255, 47.1533579], [3.8705188, 47.1536534], [3.871581, 47.1539671], [3.8724983, 47.1546894], [3.8734531, 47.1551235], [3.8740915, 47.1553314], [3.8746226, 47.1554226], [3.8751268, 47.1555065], [3.8755828, 47.1556379], [3.8761139, 47.1560172], [3.8763982, 47.1563711], [3.8764626, 47.1565389], [3.8765045, 47.1567778], [3.8764103, 47.1569304], [3.8762095, 47.1570331], [3.8760217, 47.1570495], [3.8758247, 47.157024], [3.8747028, 47.1572602], [3.8746411, 47.1573641], [3.8744479, 47.1574499], [3.8739196, 47.157473], [3.8736486, 47.1576961], [3.8733885, 47.1580827], [3.873268, 47.1584361], [3.8732356, 47.1587594], [3.8731337, 47.1589144], [3.8728847, 47.1591397], [3.872954, 47.1595692], [3.8726592, 47.1599393], [3.8726777, 47.1601272], [3.8728601, 47.1604573], [3.8728136, 47.1608646], [3.8726616, 47.1611868], [3.8726299, 47.1616111], [3.8728628, 47.1617887], [3.8729168, 47.1619757], [3.8730777, 47.1622493], [3.8732467, 47.1624316], [3.8732597, 47.1625838], [3.8731561, 47.1626157], [3.8730688, 47.1626584], [3.873188, 47.1627259], [3.8733558, 47.1628175], [3.8734308, 47.1629135], [3.8734397, 47.1629496], [3.8733646, 47.1629841], [3.8733315, 47.1630246], [3.8754991, 47.1650222], [3.8755896, 47.1650927], [3.875645, 47.1650072], [3.8761482, 47.1646067], [3.8764497, 47.1643262], [3.876683, 47.1641092], [3.8767447, 47.1639268], [3.8767984, 47.1637846], [3.8769057, 47.1635785], [3.8770719, 47.1633506], [3.8772463, 47.163088], [3.8775333, 47.1628782], [3.8779249, 47.1626484], [3.8781717, 47.1626101], [3.8786062, 47.1625974], [3.8788851, 47.1626047], [3.8790917, 47.1626813], [3.8791748, 47.1627086], [3.8793009, 47.1627068], [3.8797054, 47.1626261], [3.8800277, 47.1624971], [3.8802638, 47.1623712], [3.8804033, 47.1623603], [3.8805749, 47.1623475], [3.8806661, 47.1623147], [3.8806849, 47.1622436], [3.8807917, 47.1622218], [3.8808051, 47.1620978], [3.8805856, 47.1619044], [3.8803952, 47.1618223], [3.8802075, 47.1616709], [3.8801833, 47.1614539], [3.8802209, 47.1612332], [3.8802799, 47.1609652], [3.8810008, 47.1600237], [3.881224, 47.1598691], [3.8814118, 47.1597724], [3.8815593, 47.1595992], [3.8816693, 47.1594861], [3.8820287, 47.1592909], [3.882313, 47.1591797], [3.8827529, 47.159063], [3.8831954, 47.1589681], [3.8842874, 47.1586385], [3.8847266, 47.1584226], [3.8859798, 47.157594], [3.8869586, 47.1571443], [3.8871249, 47.1570622], [3.8874414, 47.1569947], [3.8875996, 47.1570549], [3.8878249, 47.1571862], [3.8879644, 47.1572738], [3.8880529, 47.1573321], [3.8880046, 47.1574507], [3.8881307, 47.1575984], [3.8882755, 47.1577261], [3.8884257, 47.1578829], [3.8886913, 47.1579668], [3.88904, 47.1579833], [3.8893243, 47.157996], [3.8896488, 47.158038], [3.8898446, 47.1580945], [3.8900404, 47.1580945], [3.8902416, 47.1581729], [3.8902684, 47.1581583], [3.8903408, 47.1581474], [3.8903891, 47.1581054], [3.8903542, 47.1580179], [3.890196, 47.1579486], [3.8898151, 47.1577735], [3.8896274, 47.1575875], [3.8895925, 47.1574799], [3.8896005, 47.1572191], [3.8897132, 47.1568105], [3.8898634, 47.1565242], [3.8899734, 47.1563673], [3.8901772, 47.1561904], [3.8903623, 47.1560554], [3.8906386, 47.1559642], [3.890892, 47.155894], [3.891204, 47.1558531], [3.8913842, 47.1559041], [3.8916363, 47.1560244], [3.8917052, 47.1560628], [3.8918241, 47.1561283], [3.8922211, 47.1562105], [3.8924625, 47.1563363], [3.8927629, 47.1564494], [3.8930767, 47.1566299], [3.8931223, 47.1567594], [3.8931786, 47.1569126], [3.8932537, 47.1571114], [3.8931893, 47.1572464], [3.8932403, 47.1573796], [3.8933798, 47.1574252], [3.8936212, 47.1574598], [3.8942381, 47.1575236], [3.8947584, 47.1575984], [3.894973, 47.1576951], [3.8950991, 47.1577753], [3.8952788, 47.1578665], [3.8953727, 47.1579668], [3.8954424, 47.1580982], [3.8953941, 47.1582149], [3.8953821, 47.1583079], [3.8954022, 47.1584027], [3.8954478, 47.1584383], [3.8955538, 47.1584894], [3.8958045, 47.1585961], [3.8959252, 47.1585906], [3.8961693, 47.1585906], [3.8963812, 47.1585742], [3.8966896, 47.1584994], [3.8970356, 47.1582751], [3.8973629, 47.1580617], [3.8975962, 47.1578228], [3.8978054, 47.1576987], [3.8979878, 47.1576732], [3.8982748, 47.1577261], [3.8983928, 47.1578921], [3.8985028, 47.1581109], [3.8985913, 47.1582149], [3.8986852, 47.1582751], [3.8987174, 47.1583827], [3.8986476, 47.1585377], [3.898535, 47.1586325], [3.8984572, 47.1587584], [3.8985108, 47.1588368], [3.898543, 47.1589389], [3.8985833, 47.1589991], [3.8986637, 47.1589991], [3.8986906, 47.1589225], [3.8987791, 47.1587511], [3.8989588, 47.1585322], [3.8996615, 47.1580325], [3.9000263, 47.1577626], [3.9002623, 47.1576513], [3.9004823, 47.157551], [3.9008631, 47.1575382], [3.901177, 47.1576312], [3.9014693, 47.1578118], [3.9019441, 47.1583006], [3.9023223, 47.1585723], [3.9027112, 47.1587894], [3.9032287, 47.1590595], [3.9033687, 47.1590338], [3.9034464, 47.1591018], [3.9034753, 47.1591712], [3.9037116, 47.1593183], [3.9045136, 47.1598271], [3.9048087, 47.1600296], [3.9049213, 47.1602065], [3.9050903, 47.1605092], [3.9052566, 47.1608758], [3.9054041, 47.1611074], [3.9055356, 47.1613299], [3.9056938, 47.1615925], [3.905675, 47.1617402], [3.9056402, 47.1619135], [3.9056563, 47.1620393], [3.9057233, 47.1620266], [3.9058199, 47.1619481], [3.906013, 47.1617475], [3.9062007, 47.1616363], [3.9062919, 47.1616162], [3.9065172, 47.1616874], [3.9068579, 47.1618588], [3.9070349, 47.1619719], [3.9072522, 47.1621615], [3.908207, 47.1633542], [3.9082768, 47.1635895], [3.9083492, 47.1638174], [3.908545, 47.1641894], [3.9087462, 47.1644593], [3.9088695, 47.1646782], [3.9089849, 47.1648386], [3.90906, 47.1649225], [3.9091726, 47.1649152], [3.9092665, 47.1648806], [3.9094006, 47.1649006], [3.9095481, 47.1649335], [3.9096635, 47.1649189], [3.9096876, 47.1648551], [3.9093926, 47.1640964], [3.9090439, 47.1634582], [3.9086791, 47.1627925], [3.9081024, 47.1620683], [3.9080027, 47.1619018], [3.9078793, 47.161785], [3.907536, 47.1614705], [3.9074676, 47.1613419], [3.9073898, 47.1612616], [3.9076714, 47.1610884], [3.908067, 47.160999], [3.908247, 47.1609409], [3.9088556, 47.1608267], [3.9091989, 47.1607209], [3.9093491, 47.1607063], [3.9096589, 47.1607072], [3.9097944, 47.1606352], [3.9097689, 47.1606087], [3.9095718, 47.1605604], [3.9095825, 47.1605166], [3.9096992, 47.1605048], [3.9099741, 47.160502], [3.9099714, 47.1603853], [3.9097998, 47.1603917], [3.9097314, 47.1603607], [3.9095315, 47.1603434], [3.9092647, 47.1603653], [3.9091252, 47.1603853], [3.9089307, 47.1604929], [3.9083138, 47.160575], [3.9082347, 47.1605702], [3.9080702, 47.1605603], [3.9080134, 47.160471], [3.9079061, 47.1603963], [3.9078069, 47.1604182], [3.9072356, 47.1603561], [3.9069968, 47.1604109], [3.9067984, 47.160358], [3.9065172, 47.1601809], [3.906469, 47.1600204], [3.9063027, 47.1597888], [3.9058842, 47.1594205], [3.9053424, 47.1589298], [3.9046424, 47.1584647], [3.9043715, 47.1582933], [3.9043286, 47.1582185], [3.9041971, 47.1580781], [3.9040898, 47.1578939], [3.9040201, 47.1577717], [3.9037868, 47.1576002], [3.903607, 47.1574598], [3.9034649, 47.1571479], [3.9033361, 47.1568032], [3.9031269, 47.1564129], [3.9029553, 47.1561594], [3.9026361, 47.1557417], [3.9015766, 47.1546218], [3.901016, 47.1541403], [3.90089, 47.1539834], [3.9005896, 47.1535566], [3.899919, 47.1529127], [3.8996642, 47.1526701], [3.8996374, 47.152506], [3.8995408, 47.152194], [3.8995515, 47.1520481], [3.8995918, 47.151977], [3.9005949, 47.1509117], [3.900898, 47.1505998], [3.9009731, 47.1504922], [3.9010214, 47.150359], [3.9011099, 47.149903], [3.9012574, 47.1497899], [3.9019038, 47.1492408], [3.9023464, 47.1490165], [3.9025717, 47.1488961], [3.9028399, 47.1487374], [3.9031725, 47.1485513], [3.9032342, 47.1484455], [3.9032423, 47.1483233], [3.9034005, 47.1479694], [3.9037921, 47.1470536], [3.9038753, 47.1466578], [3.9040121, 47.1463914], [3.9041193, 47.1458788], [3.9042964, 47.145753], [3.9045431, 47.145711], [3.9048248, 47.1457128], [3.9050635, 47.1457475], [3.9054524, 47.1457858], [3.9056241, 47.1457913], [3.9058279, 47.1457584], [3.905999, 47.1456273], [3.9061895, 47.1453938], [3.9062646, 47.1452277], [3.9063692, 47.1450672], [3.9065435, 47.1449486], [3.9067447, 47.1448793], [3.9069646, 47.1448282], [3.9069646, 47.1447096], [3.9067506, 47.1447222], [3.9063799, 47.1447571], [3.9058467, 47.1448025], [3.9055463, 47.1448171], [3.905358, 47.1448009], [3.9051144, 47.1447368], [3.9050254, 47.1445965], [3.9050442, 47.1443484], [3.9050281, 47.1441696], [3.9051059, 47.1440657], [3.9052158, 47.1439343], [3.9052641, 47.1434454], [3.9051756, 47.1432885], [3.9050018, 47.1431752], [3.9048248, 47.1430603], [3.9048355, 47.142887], [3.9050072, 47.1427191], [3.9053317, 47.1426078], [3.9057764, 47.1425898], [3.9063289, 47.1426664], [3.9073777, 47.1429473], [3.9077773, 47.143117], [3.9080322, 47.14319], [3.9082285, 47.1432573], [3.9083701, 47.1432794], [3.9084994, 47.1432591], [3.9087349, 47.1431736], [3.9089715, 47.1429636], [3.9092048, 47.1427702], [3.9093947, 47.1426135], [3.9095723, 47.1425148], [3.909679, 47.1425058], [3.9098131, 47.1425168], [3.9099719, 47.1424363], [3.9101967, 47.1422249], [3.9104842, 47.1420167], [3.9107685, 47.1418708], [3.9108619, 47.1418527], [3.9110341, 47.1418087], [3.9111977, 47.1417449], [3.9114391, 47.1416975], [3.911637, 47.1417524], [3.9118382, 47.1417761], [3.9120099, 47.1419858], [3.9122325, 47.1422102], [3.9123934, 47.1422394], [3.9127716, 47.142161], [3.9129782, 47.1421719], [3.9133054, 47.142327], [3.9136353, 47.1423562], [3.9137024, 47.142316], [3.9137694, 47.1421883], [3.9138901, 47.1420679], [3.9141208, 47.1420023], [3.9141744, 47.1420187], [3.9143649, 47.1419822], [3.9144266, 47.1419183], [3.9147404, 47.1418508], [3.9149952, 47.14188], [3.9154217, 47.1419822], [3.9159581, 47.14213], [3.9160895, 47.1421555], [3.9161512, 47.1420497], [3.9162183, 47.1420424], [3.9162505, 47.1420661], [3.9162317, 47.142119], [3.9165482, 47.1421792], [3.9169076, 47.1423087], [3.9172643, 47.1424], [3.9173877, 47.1423835], [3.9176935, 47.1423489], [3.9178973, 47.1423835], [3.9185545, 47.142493], [3.9189112, 47.1425477], [3.9197293, 47.1426189], [3.9199305, 47.1425879], [3.9204133, 47.1425423], [3.9206091, 47.1425368], [3.9207324, 47.1425623], [3.9210784, 47.1426006], [3.9211991, 47.142639], [3.9212957, 47.1427101], [3.9216122, 47.1427703], [3.9220735, 47.1427923], [3.9222211, 47.1428214], [3.9223739, 47.1428925], [3.9223632, 47.1429819], [3.9224598, 47.1430914], [3.9225912, 47.1431534], [3.9227065, 47.1431297], [3.9228487, 47.1431315], [3.9229232, 47.1431605], [3.9229989, 47.1431899], [3.9231008, 47.1431844], [3.9232591, 47.143137], [3.9233932, 47.1431498], [3.9235568, 47.1431224], [3.9244205, 47.1431242], [3.924914, 47.1430878], [3.9251259, 47.1431133], [3.9253646, 47.1431443], [3.9258367, 47.1430367], [3.925952, 47.1430421], [3.9259815, 47.1431096], [3.9265341, 47.1430294], [3.9269739, 47.143033], [3.9274272, 47.1430148], [3.9275882, 47.1430367], [3.9276847, 47.1430203], [3.9278537, 47.143013], [3.9280495, 47.1430732], [3.9281675, 47.1430312], [3.9282668, 47.1427995], [3.9283097, 47.1427813], [3.9284465, 47.142825], [3.9283445, 47.1430695], [3.9283606, 47.1431388], [3.9283875, 47.1431844], [3.9286503, 47.1432301], [3.9288595, 47.1433176], [3.928991, 47.1434982], [3.9291117, 47.1435822], [3.9292377, 47.1436515], [3.9292619, 47.1436843], [3.9291304, 47.1437099], [3.9291438, 47.1437737], [3.9291921, 47.1438084], [3.9292967, 47.1437993], [3.9293611, 47.1438157], [3.9293879, 47.1438558], [3.9293718, 47.1439014], [3.9294094, 47.1439324], [3.9296964, 47.1439762], [3.9298332, 47.143978], [3.9300102, 47.1440218], [3.9300933, 47.1440765], [3.9301845, 47.1441003], [3.9303857, 47.1441076], [3.9305896, 47.1441477], [3.9309463, 47.1441513], [3.9311796, 47.1441039], [3.9313272, 47.1440455], [3.9313352, 47.1439525], [3.9313245, 47.143885], [3.931354, 47.1438284], [3.931303, 47.1437153], [3.9313513, 47.1436715], [3.9314371, 47.1436642], [3.9315176, 47.143688], [3.9315337, 47.1436077], [3.9312977, 47.1435621], [3.9312735, 47.1435201], [3.9313218, 47.1434636], [3.9314264, 47.1434563], [3.9314796, 47.1434158], [3.9315176, 47.1433869], [3.9315712, 47.1433322], [3.9311238, 47.1432409], [3.9309092, 47.1432099], [3.930607, 47.1431735], [3.930493, 47.1430868], [3.9303642, 47.1429108], [3.9302127, 47.1428187], [3.9299887, 47.142607], [3.9298694, 47.1425715], [3.9297768, 47.1424784], [3.9290768, 47.142369], [3.9286986, 47.1422249], [3.9286342, 47.1424237], [3.9285918, 47.1424929], [3.9284357, 47.1424656], [3.9284947, 47.1422303], [3.9284974, 47.142088], [3.9282668, 47.1420679], [3.9281058, 47.1419694], [3.927902, 47.1419183], [3.9277571, 47.1419457], [3.927674, 47.1419402], [3.9276016, 47.1418873], [3.9275452, 47.1417943], [3.927438, 47.1417377], [3.9274192, 47.1416538], [3.9274541, 47.1415553], [3.9273682, 47.1414841], [3.9272234, 47.1414476], [3.9270276, 47.1414677], [3.9268237, 47.1414604], [3.9263678, 47.1412926], [3.9260727, 47.1412032], [3.9259681, 47.1411922], [3.9258876, 47.1412725], [3.9258635, 47.1413491], [3.9257777, 47.1413783], [3.9256489, 47.1413217], [3.9249891, 47.1413272], [3.9248469, 47.1413327], [3.9247987, 47.141298], [3.9246967, 47.1411977], [3.9243266, 47.1410244], [3.9241227, 47.1409423], [3.9241093, 47.1407945], [3.9240584, 47.1407379], [3.9236963, 47.1406887], [3.9232779, 47.1406595], [3.9229104, 47.1406996], [3.9226207, 47.1407726], [3.922272, 47.1408], [3.922007, 47.1408382], [3.921264, 47.1411191], [3.9205956, 47.1413765], [3.9199578, 47.1413745], [3.9194182, 47.1413145], [3.919107, 47.1411247], [3.9188683, 47.1411503], [3.9184659, 47.1410682], [3.9183613, 47.1410062], [3.9182594, 47.1409605], [3.9182326, 47.1408401], [3.9183132, 47.1407183], [3.9183292, 47.1406941], [3.9184821, 47.1406558], [3.9185196, 47.1405974], [3.9181575, 47.140249], [3.9179081, 47.1400538], [3.9178169, 47.1399133], [3.917841, 47.1397874], [3.9180105, 47.1395993], [3.9181817, 47.1390539], [3.9181146, 47.1388533], [3.9179644, 47.1388204], [3.9178008, 47.1388678], [3.9178169, 47.1389591], [3.9175969, 47.1390777], [3.9173904, 47.1390886], [3.9172085, 47.139302], [3.9170825, 47.1395008], [3.9170203, 47.1398713], [3.9166528, 47.1399808], [3.9161003, 47.1396998], [3.9159179, 47.1395101], [3.9156577, 47.1396122], [3.9153466, 47.1396013], [3.9147645, 47.1395411], [3.9142147, 47.1393386], [3.913976, 47.1391324], [3.9139572, 47.1390102], [3.9138928, 47.1389609], [3.9135522, 47.1391324], [3.9133161, 47.1391561], [3.9126348, 47.1390339], [3.9123264, 47.138835], [3.9121225, 47.1388314], [3.9118629, 47.1388987], [3.9115678, 47.138906], [3.9110985, 47.1390009], [3.9108571, 47.138979], [3.9105164, 47.1388914]]]}}, {"type": "Feature", "properties": {"name": "Étang de Baye"}, "geometry": {"type": "Polygon", "coordinates": [[[3.6125018, 47.1782781], [3.6150833, 47.1803927], [3.615396, 47.1803096], [3.6160754, 47.1800407], [3.6170882, 47.1797318], [3.6180018, 47.1794085], [3.6181423, 47.179221], [3.6182979, 47.1789684], [3.6183344, 47.1787142], [3.6185404, 47.1782544], [3.6189588, 47.1773516], [3.619219, 47.1771849], [3.6192442, 47.1769193], [3.6192174, 47.1768081], [3.6191069, 47.1767279], [3.6189213, 47.1766978], [3.6189805, 47.1762888], [3.6192112, 47.1761691], [3.6192961, 47.1759242], [3.6192053, 47.1758502], [3.6199099, 47.1739069], [3.6201191, 47.1729466], [3.6205864, 47.1717187], [3.6209002, 47.1708694], [3.6210791, 47.1701909], [3.6212108, 47.1695992], [3.621362, 47.1691539], [3.6212756, 47.1691419], [3.6213134, 47.1690363], [3.621236, 47.1690237], [3.6212035, 47.1691309], [3.6210748, 47.169101], [3.6210692, 47.168885], [3.6212934, 47.1683102], [3.6215083, 47.1676785], [3.620898, 47.166517], [3.6206261, 47.1660466], [3.6203732, 47.1655661], [3.6200231, 47.1652853], [3.6197933, 47.1651484], [3.6192775, 47.164788], [3.6191104, 47.1645912], [3.6191179, 47.1644877], [3.6190975, 47.1643095], [3.619006, 47.1641641], [3.6184971, 47.1641309], [3.6182744, 47.164114], [3.6176857, 47.1640706], [3.6169226, 47.1640317], [3.6164905, 47.1640219], [3.6162157, 47.1641253], [3.6158846, 47.164389], [3.6155833, 47.1645296], [3.6146208, 47.1647636], [3.6144, 47.1648241], [3.6142739, 47.1648551], [3.6141988, 47.1649171], [3.6141801, 47.1650302], [3.6141908, 47.1651487], [3.6142203, 47.1651761], [3.6143356, 47.1651834], [3.6147567, 47.1651633], [3.6156606, 47.1651888], [3.6159368, 47.1652077], [3.6161879, 47.1652784], [3.616384, 47.1654153], [3.616356, 47.1656284], [3.6162006, 47.1657968], [3.6161239, 47.1665708], [3.6162607, 47.1671408], [3.6161255, 47.1677458], [3.6153863, 47.1682345], [3.6148676, 47.168808], [3.6148662, 47.1690677], [3.6143672, 47.169955], [3.6139843, 47.1706029], [3.6135113, 47.1707275], [3.6128162, 47.1706246], [3.6128175, 47.1708913], [3.6128865, 47.1718508], [3.6131745, 47.1722041], [3.6134015, 47.171994], [3.6137507, 47.1719136], [3.6139975, 47.1719102], [3.6141906, 47.1719568], [3.6141962, 47.1720746], [3.6143462, 47.1722232], [3.6143725, 47.1723168], [3.6143998, 47.1723912], [3.6143676, 47.1724382], [3.6142866, 47.1724807], [3.6142228, 47.1726375], [3.6141531, 47.1730654], [3.6142174, 47.1732474], [3.6139699, 47.1737061], [3.6138197, 47.1739966], [3.6137829, 47.174221], [3.6137534, 47.1744652], [3.6138156, 47.174682], [3.6137883, 47.1749219], [3.6136113, 47.1752353], [3.6135308, 47.1754213], [3.6136091, 47.1756356], [3.6137628, 47.1758075], [3.6139599, 47.1759119], [3.6143558, 47.1759936], [3.614652, 47.1760775], [3.6146198, 47.1762301], [3.6143408, 47.1767856], [3.61413, 47.1769311], [3.613976, 47.1771207], [3.6135842, 47.1772345], [3.612691, 47.1774019], [3.6122323, 47.1774629], [3.6121733, 47.1779412], [3.6125018, 47.1782781]]]}}, {"type": "Feature", "properties": {"name": "Étang Neuf"}, "geometry": {"type": "Polygon", "coordinates": [[[3.6360278, 47.1897751], [3.6354195, 47.18842], [3.6341905, 47.1886005], [3.6336466, 47.1886016], [3.6329776, 47.1886625], [3.632365, 47.1888597], [3.6324229, 47.1890489], [3.6326938, 47.1891524], [3.6333263, 47.189222], [3.6338703, 47.1894298], [3.6340011, 47.1897073], [3.6336584, 47.1900543], [3.6334314, 47.1903624], [3.6332952, 47.1907025], [3.632843, 47.190837], [3.6322344, 47.1909205], [3.6320383, 47.1912497], [3.6326144, 47.1916682], [3.6324723, 47.1918409], [3.6320313, 47.1920385], [3.6296839, 47.1925161], [3.629031, 47.1924909], [3.6287419, 47.192574], [3.6287376, 47.1928048], [3.6293722, 47.1930403], [3.6300218, 47.1933534], [3.6302337, 47.1940806], [3.6302071, 47.1946904], [3.6288651, 47.195315], [3.6288422, 47.1956302], [3.6290165, 47.1959856], [3.629635, 47.1965112], [3.6303051, 47.1968545], [3.6310979, 47.196607], [3.6314048, 47.1961102], [3.6323457, 47.1954395], [3.6328284, 47.1945373], [3.6326783, 47.1937813], [3.6328618, 47.1935238], [3.6334379, 47.1931077], [3.6339014, 47.1924413], [3.6344271, 47.1920648], [3.6350343, 47.1919288], [3.6356507, 47.1919827], [3.6364137, 47.1923602], [3.636663, 47.1933198], [3.6364897, 47.194134], [3.6361513, 47.1948778], [3.6359597, 47.195293], [3.6362333, 47.1954742], [3.6366587, 47.1953896], [3.6375395, 47.1950145], [3.6384482, 47.1948756], [3.6390507, 47.195012], [3.639563, 47.1952427], [3.6400656, 47.1954742], [3.6403993, 47.1956714], [3.6407871, 47.1955934], [3.640432, 47.195122], [3.6399154, 47.1945964], [3.6393446, 47.1941768], [3.6386355, 47.1939031], [3.6384434, 47.1934157], [3.6384311, 47.1931842], [3.6386811, 47.1929039], [3.6386285, 47.1926353], [3.638209, 47.1924494], [3.6376543, 47.19211], [3.63701, 47.1916634], [3.6366705, 47.191046], [3.636339, 47.1903007], [3.6360605, 47.1898746], [3.6360278, 47.1897751]]]}}, {"type": "Feature", "properties": {"name": "Réservoir de Chaumeçon"}, "geometry": {"type": "Polygon", "coordinates": [[[3.9185813, 47.3018264], [3.918753, 47.3014754], [3.9187047, 47.3012498], [3.9187449, 47.3009843], [3.9185223, 47.3008315], [3.9179993, 47.3006914], [3.9176211, 47.3002112], [3.9174172, 47.299731], [3.9173797, 47.2993872], [3.9171785, 47.2985596], [3.9172778, 47.2977719], [3.9176184, 47.2969734], [3.9178571, 47.2969279], [3.9183587, 47.2966805], [3.9186966, 47.2967005], [3.9198071, 47.2972117], [3.9199385, 47.2971607], [3.9199787, 47.2968824], [3.9197105, 47.2963603], [3.9196837, 47.295962], [3.9199734, 47.2954472], [3.9200833, 47.295107], [3.9202362, 47.2948814], [3.9204535, 47.2948195], [3.9206761, 47.2948141], [3.9209121, 47.2948014], [3.9210168, 47.2947177], [3.9209738, 47.2945594], [3.9207619, 47.2943502], [3.9207324, 47.2942156], [3.9207941, 47.2941465], [3.9207727, 47.2939827], [3.9206868, 47.2939336], [3.9206761, 47.2938881], [3.9207485, 47.2936425], [3.9208558, 47.2935352], [3.9207941, 47.2927475], [3.9208612, 47.2923636], [3.92077, 47.2922381], [3.9205769, 47.2921563], [3.9201397, 47.2921344], [3.9198607, 47.2920598], [3.9195657, 47.2920362], [3.9193377, 47.2919325], [3.9190748, 47.2916796], [3.918871, 47.2912721], [3.9187315, 47.2909101], [3.9187369, 47.2907209], [3.9188281, 47.2906281], [3.9187154, 47.2903661], [3.9187235, 47.2900477], [3.9189702, 47.2896456], [3.9193431, 47.2892763], [3.9199358, 47.2886414], [3.9201826, 47.2882302], [3.9205213, 47.2878397], [3.9208533, 47.2876613], [3.921124, 47.2875798], [3.9209309, 47.287517], [3.9208223, 47.2875206], [3.9206332, 47.2875561], [3.920306, 47.287588], [3.9198644, 47.2878138], [3.9192519, 47.2882857], [3.9186641, 47.2887267], [3.9170578, 47.2897148], [3.9163846, 47.2899568], [3.9159983, 47.2899458], [3.9158347, 47.2900004], [3.9154726, 47.2899859], [3.9152285, 47.2898658], [3.9148021, 47.2894637], [3.914668, 47.2891926], [3.9144239, 47.2888797], [3.9139947, 47.2884904], [3.9138311, 47.2880865], [3.9137211, 47.2874115], [3.9137399, 47.2868802], [3.9138606, 47.2867438], [3.9138177, 47.28664], [3.9139974, 47.2865454], [3.914448, 47.2864581], [3.9148879, 47.2865491], [3.9152352, 47.286499], [3.915651, 47.2863435], [3.9157315, 47.2861724], [3.9156818, 47.2860687], [3.915706, 47.285925], [3.9158803, 47.2856266], [3.9159849, 47.2855593], [3.9159983, 47.2854774], [3.9151749, 47.2853719], [3.914963, 47.2852227], [3.9146787, 47.2847314], [3.9143166, 47.2844167], [3.91422, 47.2842293], [3.9143059, 47.28406], [3.914507, 47.2839145], [3.9146465, 47.2835942], [3.9147592, 47.2835087], [3.9151534, 47.2834687], [3.9155799, 47.2835142], [3.9158025, 47.2835833], [3.9159822, 47.2831448], [3.9158562, 47.2823897], [3.9159071, 47.2820203], [3.9160225, 47.2818475], [3.9161727, 47.2817401], [3.9162639, 47.2814817], [3.9156175, 47.2804081], [3.9152795, 47.280168], [3.9150166, 47.2797622], [3.914963, 47.2795693], [3.9151266, 47.27934], [3.9153063, 47.279209], [3.9153117, 47.2790725], [3.9154565, 47.2789433], [3.9154538, 47.2788032], [3.9159152, 47.278048], [3.9163846, 47.277675], [3.9171812, 47.2772655], [3.9176372, 47.2771072], [3.9183327, 47.2768096], [3.9184915, 47.2767787], [3.9190641, 47.2766213], [3.9196703, 47.2763411], [3.9199626, 47.2764703], [3.919968, 47.2765285], [3.9202657, 47.2766541], [3.9203516, 47.2766486], [3.9202845, 47.2765303], [3.9200968, 47.2764084], [3.9199707, 47.2761882], [3.9201289, 47.2757042], [3.9205608, 47.2752892], [3.921065, 47.2748925], [3.9214513, 47.2746487], [3.9216149, 47.2744594], [3.9217222, 47.2742428], [3.9217946, 47.2737387], [3.9218429, 47.2735859], [3.9218026, 47.2734093], [3.9219153, 47.2731163], [3.9218616, 47.2729835], [3.9215934, 47.2727524], [3.9213815, 47.2723975], [3.9213628, 47.2721664], [3.9214218, 47.2719971], [3.9215371, 47.271917], [3.9217114, 47.2719716], [3.9220065, 47.2721227], [3.922154, 47.2720153], [3.9221433, 47.2718988], [3.9219984, 47.2717896], [3.9218912, 47.2716258], [3.9218482, 47.2714529], [3.9219287, 47.2712746], [3.9223337, 47.270987], [3.9224893, 47.2707614], [3.9224893, 47.2706176], [3.922331, 47.2703755], [3.9221245, 47.2702518], [3.9219072, 47.2701553], [3.9214915, 47.2694437], [3.9210623, 47.2689068], [3.9208102, 47.2686319], [3.9205895, 47.2681403], [3.9196381, 47.2683244], [3.9194268, 47.2683492], [3.919386, 47.26818], [3.9207888, 47.2679597], [3.921234, 47.2679421], [3.9215264, 47.2679076], [3.9222908, 47.2680495], [3.9229372, 47.2680805], [3.9236909, 47.2680914], [3.9239645, 47.268024], [3.9240718, 47.2678075], [3.9242327, 47.2677019], [3.9242327, 47.2673306], [3.9236311, 47.2663745], [3.9230686, 47.2658872], [3.9230123, 47.2657325], [3.9227575, 47.2655633], [3.9225966, 47.2652993], [3.922618, 47.264979], [3.9224946, 47.2645403], [3.922559, 47.2644038], [3.9223149, 47.264027], [3.9220709, 47.263521], [3.9218563, 47.2633499], [3.9213359, 47.2631733], [3.9213118, 47.2630878], [3.9213762, 47.2626964], [3.9214835, 47.262438], [3.9214379, 47.262438], [3.9213949, 47.2624325], [3.9211911, 47.2627838], [3.9210972, 47.2631715], [3.9211616, 47.2632571], [3.9217168, 47.2634591], [3.9218482, 47.2635865], [3.9221245, 47.2643456], [3.9222291, 47.2644511], [3.9222667, 47.2648388], [3.9221889, 47.2650991], [3.9218938, 47.265485], [3.9219314, 47.2656579], [3.9225885, 47.2662786], [3.9228836, 47.2664988], [3.9229211, 47.266972], [3.9228809, 47.267225], [3.9227092, 47.2672505], [3.9201868, 47.2673139], [3.9198492, 47.2673098], [3.919452, 47.2672957], [3.9190565, 47.2672651], [3.9187544, 47.2671837], [3.9179826, 47.2672192], [3.9171875, 47.2671628], [3.9166447, 47.2672105], [3.9158696, 47.2674052], [3.9155239, 47.2675565], [3.9148655, 47.2677547], [3.9148866, 47.2678056], [3.9156402, 47.2677541], [3.9157432, 47.2678919], [3.916394, 47.2679646], [3.9167, 47.2681441], [3.9167387, 47.2682566], [3.9169986, 47.2683808], [3.9171712, 47.2684278], [3.9191768, 47.2682039], [3.9191804, 47.2683256], [3.91924, 47.2683745], [3.9187941, 47.2684196], [3.9190092, 47.268595], [3.9189502, 47.2687899], [3.9188096, 47.2689519], [3.9188576, 47.2693026], [3.9189716, 47.2694564], [3.9191003, 47.2696876], [3.9194074, 47.2698259], [3.9196515, 47.2698932], [3.9202809, 47.2702813], [3.9202781, 47.2705676], [3.920304, 47.2709294], [3.9204275, 47.271171], [3.9204372, 47.2713016], [3.9201581, 47.2718096], [3.92025, 47.2725152], [3.9209309, 47.2736277], [3.9209551, 47.2738552], [3.9208934, 47.2740809], [3.9204615, 47.2744394], [3.9199868, 47.2746741], [3.9194369, 47.2748761], [3.9182755, 47.2750472], [3.9182729, 47.275191], [3.9180128, 47.2753156], [3.9172402, 47.2751728], [3.9166744, 47.2751261], [3.916252, 47.2751809], [3.9157167, 47.2754057], [3.915301, 47.2757533], [3.9149228, 47.2758898], [3.9142361, 47.2763502], [3.9139063, 47.2765169], [3.913292, 47.2765704], [3.9128575, 47.276494], [3.9122898, 47.276222], [3.912172, 47.2762204], [3.9120964, 47.2762505], [3.9120001, 47.2763205], [3.9119471, 47.2763527], [3.9118898, 47.2764181], [3.9118292, 47.276516], [3.9121199, 47.2768561], [3.9121896, 47.276978], [3.9123962, 47.2771875], [3.9125785, 47.2776167], [3.9126724, 47.2780189], [3.9129165, 47.2784993], [3.9129487, 47.2785812], [3.9128655, 47.2786321], [3.9128494, 47.2789124], [3.9129433, 47.2791453], [3.913154, 47.2793166], [3.9132142, 47.2797039], [3.9131016, 47.2800187], [3.912954, 47.2801297], [3.912895, 47.2802389], [3.912659, 47.280268], [3.9122969, 47.2802316], [3.9121011, 47.2802717], [3.9121306, 47.2804882], [3.9126188, 47.2806538], [3.9127797, 47.2807502], [3.9130291, 47.2811578], [3.9133188, 47.2815145], [3.913689, 47.2818493], [3.9136916, 47.2821331], [3.9134744, 47.2823369], [3.9131525, 47.2824334], [3.9123237, 47.2825862], [3.9119616, 47.2825189], [3.9115325, 47.2826044], [3.9112857, 47.2828864], [3.9110094, 47.2830593], [3.9105615, 47.283143], [3.910532, 47.2831976], [3.9107037, 47.2832795], [3.9108109, 47.283687], [3.9105776, 47.2840528], [3.9104649, 47.2841601], [3.910304, 47.2843875], [3.9100626, 47.2844294], [3.9096978, 47.2843621], [3.9095637, 47.2844512], [3.9091186, 47.2844412], [3.9088618, 47.2844776], [3.9088335, 47.2844994], [3.9088586, 47.284545], [3.9090353, 47.2846859], [3.9095449, 47.284877], [3.9097354, 47.2850062], [3.9100787, 47.2851354], [3.9103717, 47.2854681], [3.9105848, 47.2859331], [3.9104492, 47.2863046], [3.9103577, 47.2863671], [3.9104274, 47.286409], [3.9106661, 47.2864745], [3.9107117, 47.2865491], [3.9110061, 47.2870357], [3.9110845, 47.2873041], [3.910996, 47.2873842], [3.9114037, 47.2880555], [3.9115941, 47.2886268], [3.9116639, 47.2892399], [3.9115539, 47.2897366], [3.9114279, 47.2899222], [3.9109638, 47.290055], [3.9108056, 47.290246], [3.9106849, 47.2903279], [3.910591, 47.2904589], [3.9100599, 47.2905626], [3.9098105, 47.290679], [3.9096898, 47.2908073], [3.9096723, 47.29087], [3.9096817, 47.2909028], [3.9099339, 47.2910192], [3.9100841, 47.291243], [3.9100921, 47.2916596], [3.9102665, 47.2918506], [3.91054, 47.2920125], [3.9109048, 47.29226], [3.9111409, 47.2927002], [3.9110768, 47.2929911], [3.9106232, 47.2931004], [3.9098293, 47.2936826], [3.9095986, 47.2937462], [3.9093103, 47.2937863], [3.9091855, 47.2937735], [3.9089222, 47.293833], [3.9091158, 47.2939545], [3.9091574, 47.2940328], [3.9092204, 47.2940828], [3.9092647, 47.2940646], [3.9092526, 47.2939827], [3.9094108, 47.29395], [3.9097407, 47.2939409], [3.9101323, 47.2938063], [3.910886, 47.2938317], [3.9116022, 47.2940246], [3.9122593, 47.2943266], [3.9126, 47.2946849], [3.9131907, 47.2952015], [3.9136509, 47.2958245], [3.9137041, 47.2962233], [3.9137532, 47.2964969], [3.9135015, 47.2967393], [3.9130314, 47.2968839], [3.9125943, 47.2972549], [3.9130348, 47.2975558], [3.9130301, 47.297646], [3.9134101, 47.2981511], [3.9134475, 47.2984798], [3.9129389, 47.2992135], [3.9133907, 47.2995561], [3.9136058, 47.2997638], [3.9137277, 47.3004354], [3.9134341, 47.3004889], [3.9131345, 47.300408], [3.9130586, 47.3003913], [3.9127904, 47.3005514], [3.9126885, 47.3007078], [3.9122164, 47.3009843], [3.9120072, 47.301017], [3.9115325, 47.3010279], [3.9114654, 47.3011134], [3.91168, 47.3015409], [3.9122137, 47.3013844], [3.9126188, 47.3014845], [3.9127743, 47.3014263], [3.9133161, 47.3014463], [3.9141712, 47.3013792], [3.9146116, 47.3012997], [3.9153797, 47.3013258], [3.9159822, 47.3017052], [3.9162671, 47.301959], [3.9162644, 47.3021154], [3.9161915, 47.3022492], [3.9178635, 47.3034154], [3.9179319, 47.3034631], [3.9183881, 47.3030417], [3.9185303, 47.3026668], [3.9185196, 47.3024758], [3.9185894, 47.3023284], [3.9185813, 47.3018264]]]}}, {"type": "Feature", "properties": {"name": "Lac des Settons"}, "geometry": {"type": "Polygon", "coordinates": [[[4.0636821, 47.197694], [4.0641153, 47.1973347], [4.0643969, 47.1969902], [4.0647161, 47.1967041], [4.0652606, 47.1962357], [4.0654993, 47.1960972], [4.0656656, 47.1959186], [4.0656736, 47.1958475], [4.0658453, 47.1957855], [4.0660116, 47.1956306], [4.0661511, 47.195463], [4.0661859, 47.1953627], [4.0662208, 47.1951768], [4.0663671, 47.1948347], [4.0664569, 47.1946246], [4.0667358, 47.1937351], [4.0667827, 47.1933979], [4.0668002, 47.1932722], [4.0667975, 47.1929915], [4.0668466, 47.1928225], [4.0668726, 47.1927327], [4.066996, 47.1924629], [4.0671462, 47.1922552], [4.0674305, 47.1919763], [4.0681574, 47.1917029], [4.0684766, 47.1917412], [4.0690371, 47.1920929], [4.0696138, 47.1925468], [4.0699705, 47.19276], [4.0702146, 47.192822], [4.0708771, 47.1932084], [4.0716577, 47.1933615], [4.0719822, 47.1934034], [4.0722933, 47.1935182], [4.0725642, 47.1935711], [4.0728137, 47.1935565], [4.0734896, 47.1933232], [4.0736666, 47.1931865], [4.0738463, 47.1930152], [4.0738866, 47.1929605], [4.0738356, 47.192884], [4.0739134, 47.1927218], [4.0740073, 47.1926215], [4.0741011, 47.1925358], [4.0743023, 47.1925267], [4.0747261, 47.1926215], [4.0750104, 47.1927272], [4.075056, 47.1927199], [4.0750372, 47.1926434], [4.0753645, 47.1925759], [4.0755308, 47.192534], [4.075622, 47.1924721], [4.0757629, 47.1922346], [4.0757722, 47.1921112], [4.0755951, 47.1919435], [4.0750211, 47.1916373], [4.0747476, 47.1914368], [4.0742788, 47.1908774], [4.0738197, 47.1902457], [4.0735406, 47.1896833], [4.0735084, 47.1894026], [4.0733528, 47.1890781], [4.0733367, 47.1889323], [4.0731726, 47.1887413], [4.0730953, 47.1885714], [4.0729371, 47.1884985], [4.0726849, 47.1882579], [4.0725991, 47.1882573], [4.0724006, 47.1882561], [4.0718293, 47.1885149], [4.0715852, 47.1886844], [4.0714297, 47.1888703], [4.0709801, 47.1890874], [4.0705979, 47.1891886], [4.0700725, 47.1892003], [4.0695696, 47.189177], [4.069013, 47.1889542], [4.068785, 47.1888248], [4.0685949, 47.1886467], [4.0683585, 47.1883654], [4.0682754, 47.1882324], [4.0682566, 47.1880738], [4.0681627, 47.1880519], [4.0682968, 47.1878751], [4.0685574, 47.1871084], [4.0685973, 47.1869619], [4.068785, 47.1868616], [4.0689862, 47.1866975], [4.0691256, 47.1864551], [4.0692115, 47.1863548], [4.0691471, 47.1862874], [4.0690425, 47.1862291], [4.069064, 47.1861817], [4.0691686, 47.1861653], [4.0691954, 47.1861944], [4.0693241, 47.1862108], [4.0697882, 47.1858973], [4.070102, 47.1857278], [4.0705982, 47.1854416], [4.0708141, 47.1851748], [4.0709159, 47.1850487], [4.0717381, 47.1842585], [4.0728217, 47.1834146], [4.0732285, 47.1831812], [4.0750104, 47.1827746], [4.0753955, 47.1828223], [4.0757722, 47.1827491], [4.0758982, 47.1827764], [4.0759733, 47.182771], [4.0759975, 47.182667], [4.0763622, 47.1823316], [4.0766519, 47.1819652], [4.0775907, 47.1807911], [4.0778589, 47.180638], [4.0781164, 47.1806015], [4.078728, 47.1804521], [4.0792751, 47.1802078], [4.0793985, 47.1800255], [4.0795326, 47.1799379], [4.0796453, 47.1800109], [4.0799028, 47.179989], [4.0803641, 47.1801348], [4.0808033, 47.1806967], [4.0822953, 47.1809844], [4.0838402, 47.1806088], [4.0840924, 47.18035], [4.0850083, 47.1798358], [4.0867424, 47.1789644], [4.0873432, 47.1786727], [4.0878683, 47.1785463], [4.0885583, 47.1784138], [4.0888493, 47.1784238], [4.0889928, 47.1783573], [4.0891966, 47.1783409], [4.0893683, 47.1783682], [4.0895399, 47.1783537], [4.0896499, 47.178319], [4.0898484, 47.1781768], [4.0896445, 47.1780601], [4.0896445, 47.1778195], [4.0895051, 47.1777721], [4.0893602, 47.1775022], [4.0886843, 47.1773418], [4.0885127, 47.1774366], [4.088164, 47.1774074], [4.0878099, 47.1774585], [4.0876329, 47.1773746], [4.0871501, 47.1773746], [4.086222, 47.1776773], [4.0860987, 47.1779471], [4.0854335, 47.1782279], [4.0848219, 47.1784138], [4.0839046, 47.1785305], [4.0829551, 47.1784175], [4.0819305, 47.1782388], [4.0814062, 47.1783135], [4.0808802, 47.1782373], [4.0803266, 47.1780127], [4.0799303, 47.177834], [4.079766, 47.1776116], [4.0787387, 47.1771376], [4.0785348, 47.1771686], [4.0783873, 47.1771194], [4.0782961, 47.1771668], [4.0782291, 47.1773473], [4.0780976, 47.1773874], [4.0779394, 47.177422], [4.0775183, 47.1774621], [4.0761584, 47.1771595], [4.0756461, 47.176999], [4.0750292, 47.1766891], [4.0748441, 47.1766636], [4.0745169, 47.1767219], [4.0742165, 47.1766563], [4.0734333, 47.1761093], [4.0730283, 47.1757337], [4.0730014, 47.1755988], [4.0731007, 47.1754128], [4.073098, 47.1752579], [4.0729129, 47.1750391], [4.072229, 47.1746726], [4.0714592, 47.1743626], [4.0712097, 47.1743535], [4.0710112, 47.1742952], [4.0706867, 47.1742514], [4.0701503, 47.1739214], [4.0698525, 47.1738631], [4.0696862, 47.1740326], [4.0696433, 47.1740199], [4.0697774, 47.1737901], [4.0697359, 47.17374], [4.0693563, 47.1735385], [4.0693912, 47.1734674], [4.0693456, 47.1734072], [4.0692598, 47.1733562], [4.0684521, 47.1732255], [4.0683006, 47.173125], [4.0681813, 47.1731112], [4.0681559, 47.1732319], [4.0681356, 47.1733682], [4.0680976, 47.1735252], [4.0679504, 47.1735563], [4.0677575, 47.1735742], [4.0674631, 47.1734545], [4.067189, 47.173225], [4.0666926, 47.1728047], [4.0661173, 47.1722153], [4.0660697, 47.172107], [4.0658924, 47.1716854], [4.0655422, 47.1711681], [4.0647546, 47.1694741], [4.0643835, 47.1690603], [4.0636218, 47.1687065], [4.0631014, 47.1684038], [4.0628734, 47.1683327], [4.0627339, 47.1683509], [4.0626535, 47.1683363], [4.062514, 47.1682543], [4.0624389, 47.1681558], [4.0621975, 47.167968], [4.0621787, 47.1678987], [4.0621948, 47.1678239], [4.0620661, 47.1677455], [4.0618971, 47.1677984], [4.061704, 47.1678221], [4.0617388, 47.1678841], [4.0617093, 47.1678987], [4.0616611, 47.1678932], [4.0616074, 47.1678331], [4.0615725, 47.16772], [4.0613794, 47.1675522], [4.0612802, 47.1674756], [4.0612735, 47.1674693], [4.0611944, 47.1674756], [4.0611783, 47.1675486], [4.0612762, 47.1676051], [4.0613097, 47.1678367], [4.0611917, 47.1679443], [4.0611246, 47.1680993], [4.0610817, 47.1681412], [4.0609261, 47.1681777], [4.0608591, 47.1681102], [4.0607733, 47.1681868], [4.0607545, 47.1682288], [4.0607893, 47.1682707], [4.0607464, 47.168278], [4.0606633, 47.1682543], [4.0605774, 47.1682579], [4.0604863, 47.1682926], [4.0604621, 47.1683582], [4.060497, 47.168546], [4.0604085, 47.1687576], [4.0603039, 47.1688706], [4.0601671, 47.1690967], [4.0600008, 47.1694286], [4.05999, 47.1697878], [4.0600732, 47.1699009], [4.0603307, 47.1700577], [4.0607357, 47.1701252], [4.0613821, 47.1701999], [4.0616047, 47.1702783], [4.0619427, 47.1705755], [4.062109, 47.170849], [4.0622082, 47.1712538], [4.0621868, 47.1714982], [4.0620634, 47.1717297], [4.0618408, 47.1720014], [4.0615913, 47.1722567], [4.0611139, 47.1725758], [4.060809, 47.1727044], [4.0607051, 47.1729039], [4.0607125, 47.1729849], [4.0607195, 47.1730276], [4.0606928, 47.1730736], [4.0606633, 47.1731064], [4.0605989, 47.1731301], [4.0605238, 47.1731246], [4.0604568, 47.1730936], [4.0603414, 47.1730663], [4.0598747, 47.1729952], [4.0594509, 47.172842], [4.0591586, 47.1726323], [4.0591706, 47.1725421], [4.0590808, 47.1725101], [4.0588206, 47.17247], [4.0585229, 47.1723096], [4.0583432, 47.1722531], [4.0582654, 47.1721819], [4.0583029, 47.1721345], [4.0581527, 47.1720689], [4.0579542, 47.1720051], [4.0575975, 47.1720233], [4.0573936, 47.1720716], [4.0571657, 47.1721965], [4.0571442, 47.1722394], [4.0570879, 47.1722686], [4.0570128, 47.1722439], [4.0568022, 47.1723005], [4.0565957, 47.1724044], [4.0566292, 47.1726086], [4.0565622, 47.1726979], [4.0565166, 47.1728073], [4.0563557, 47.1730043], [4.0561947, 47.1733234], [4.0559989, 47.173502], [4.0558004, 47.1734966], [4.0557522, 47.1735713], [4.0557387, 47.1736953], [4.0558219, 47.1737774], [4.0561464, 47.1740654], [4.0564147, 47.174514], [4.0565139, 47.1747747], [4.0565515, 47.1752086], [4.0564495, 47.1753928], [4.0563771, 47.1754511], [4.0563288, 47.1755669], [4.0560499, 47.1758358], [4.0557843, 47.1761221], [4.0555403, 47.1762479], [4.0554491, 47.1763135], [4.0553927, 47.1763956], [4.0553981, 47.176525], [4.0550441, 47.176855], [4.0549636, 47.1770173], [4.0551004, 47.1772816], [4.0552291, 47.1776153], [4.0553659, 47.1779234], [4.0556207, 47.1783172], [4.0558568, 47.1784867], [4.0559238, 47.1787511], [4.0559211, 47.1790392], [4.0559358, 47.1793741], [4.055887, 47.1795736], [4.0558657, 47.1797952], [4.0557468, 47.1799161], [4.0554588, 47.1803934], [4.0553981, 47.1805377], [4.0554222, 47.1806307], [4.055551, 47.1806818], [4.0558353, 47.1806836], [4.0561384, 47.1807656], [4.0562001, 47.1808568], [4.0565139, 47.1809735], [4.0566185, 47.1811375], [4.0567151, 47.1811375], [4.0567421, 47.1813256], [4.0566782, 47.1815476], [4.0567017, 47.1818121], [4.056479, 47.1827545], [4.056251, 47.1833179], [4.0555939, 47.1837699], [4.0554035, 47.1840507], [4.0551138, 47.1843533], [4.0548885, 47.18447], [4.054808, 47.1847252], [4.0548402, 47.1850168], [4.0554008, 47.1853851], [4.0556207, 47.1856129], [4.0558648, 47.1859319], [4.0558702, 47.1864642], [4.0559721, 47.1867686], [4.0560365, 47.1872827], [4.0565729, 47.1880191], [4.0568368, 47.1882709], [4.0571871, 47.1883873], [4.0575626, 47.1883581], [4.0577692, 47.188442], [4.0580213, 47.1884547], [4.0584666, 47.1885185], [4.0590203, 47.18855], [4.0593226, 47.1886151], [4.059703, 47.1887355], [4.0600274, 47.1888187], [4.0604051, 47.1888849], [4.0609959, 47.1889724], [4.0614576, 47.1890736], [4.061605, 47.1891059], [4.0617388, 47.1891748], [4.0622136, 47.189388], [4.0623906, 47.1894755], [4.0624982, 47.1897585], [4.062514, 47.1899476], [4.0626588, 47.1902301], [4.062852, 47.1904452], [4.0629888, 47.1905746], [4.062957, 47.1908309], [4.0626894, 47.1911132], [4.062404, 47.1912636], [4.061932, 47.1916883], [4.0618396, 47.1917974], [4.0617072, 47.1919538], [4.0614179, 47.1923233], [4.0611085, 47.1928238], [4.0608805, 47.1931318], [4.060846, 47.1932207], [4.0607116, 47.1936458], [4.0604506, 47.1940894], [4.0603495, 47.1942218], [4.0601966, 47.1943348], [4.0600046, 47.1943688], [4.059754, 47.1944551], [4.0595904, 47.1944642], [4.0593804, 47.1945079], [4.0574342, 47.1951886], [4.0571925, 47.1952515], [4.0570946, 47.1952752], [4.0570745, 47.1953618], [4.0567164, 47.195411], [4.0568748, 47.1959123], [4.056921, 47.1960896], [4.0569501, 47.196201], [4.0569967, 47.1962138], [4.0571643, 47.1968569], [4.0572273, 47.1968849], [4.0572396, 47.1969314], [4.0572529, 47.196983], [4.0572043, 47.1970219], [4.0573228, 47.1975586], [4.0573373, 47.1976245], [4.0577772, 47.1975115], [4.0583646, 47.1973493], [4.0584787, 47.1972631], [4.0587107, 47.1970569], [4.0594457, 47.1964036], [4.05953, 47.1963534], [4.0596002, 47.1963116], [4.0606244, 47.196218], [4.0607907, 47.1962028], [4.0611717, 47.196209], [4.0617873, 47.1962049], [4.0622895, 47.1963104], [4.0624036, 47.1963445], [4.0624501, 47.1963873], [4.0626267, 47.1974185], [4.0627205, 47.1977894], [4.0629807, 47.1979443], [4.0631363, 47.1979452], [4.0632476, 47.1979671], [4.0633026, 47.1980154], [4.0633325, 47.1980135], [4.0634045, 47.198009], [4.0634662, 47.1979753], [4.0636093, 47.1977889], [4.0636821, 47.197694]]]}}, {"type": "Feature", "properties": {"name": "Lac de Saint-Agnan"}, "geometry": {"type": "MultiPolygon", "coordinates": [[[[4.1005422, 47.3184367], [4.1004578, 47.3182567], [4.1002105, 47.3183082], [4.0995671, 47.3184423], [4.0990848, 47.3184771], [4.1005422, 47.3184367]]], [[[4.0988242, 47.3185395], [4.0986776, 47.3186363], [4.0984879, 47.319557], [4.0979766, 47.3202911], [4.0964464, 47.321112], [4.0946984, 47.3218194], [4.094483, 47.3218546], [4.0942073, 47.3218702], [4.0937205, 47.3218809], [4.0934392, 47.3219424], [4.093055, 47.3220629], [4.0927773, 47.322142], [4.0924897, 47.3220994], [4.0920458, 47.3221976], [4.0920165, 47.3223304], [4.0920865, 47.3225053], [4.0921206, 47.3227805], [4.092186, 47.3230372], [4.0923945, 47.3232199], [4.0924839, 47.3233419], [4.0924599, 47.323424], [4.0923325, 47.323534], [4.0919641, 47.3234726], [4.0915804, 47.3234832], [4.0906233, 47.3244979], [4.0906338, 47.3246158], [4.0905332, 47.3246855], [4.0904141, 47.3246661], [4.0902751, 47.3246105], [4.0898832, 47.3244118], [4.0897185, 47.324386], [4.0895706, 47.3242864], [4.0894952, 47.3243467], [4.0893232, 47.3243194], [4.0891955, 47.3245861], [4.0891093, 47.3246581], [4.0888202, 47.3248701], [4.0886079, 47.325058], [4.0885597, 47.3251086], [4.0885737, 47.3251872], [4.0889014, 47.3259032], [4.0889525, 47.3260863], [4.0889445, 47.3262785], [4.0886723, 47.326617], [4.0884475, 47.3267495], [4.0881504, 47.3268567], [4.088031, 47.3269551], [4.0879436, 47.3271001], [4.0877923, 47.3273805], [4.0876854, 47.3274808], [4.0875402, 47.327667], [4.0874529, 47.3276996], [4.0871203, 47.3276984], [4.086957, 47.3277652], [4.0868474, 47.3278828], [4.0868141, 47.3279978], [4.0869153, 47.3281255], [4.0869023, 47.3282118], [4.0869596, 47.3283052], [4.0869112, 47.3283329], [4.0869258, 47.3283754], [4.0869646, 47.3284004], [4.0869646, 47.3284414], [4.0868829, 47.3284798], [4.0868556, 47.3285461], [4.08643, 47.3286549], [4.0862748, 47.3286737], [4.0861817, 47.3286731], [4.0860962, 47.3286889], [4.0858689, 47.3287441], [4.0856055, 47.3287318], [4.0854012, 47.3286785], [4.0850075, 47.3286654], [4.0847517, 47.3287547], [4.0846474, 47.3287806], [4.0845434, 47.3289195], [4.0844348, 47.3289595], [4.0842468, 47.3289938], [4.0840301, 47.3289489], [4.083798, 47.3288575], [4.083143, 47.3287221], [4.0830401, 47.3287399], [4.08284, 47.3287431], [4.082318, 47.3285705], [4.0820651, 47.3285204], [4.0819829, 47.3285353], [4.081746, 47.3284764], [4.0812627, 47.3284173], [4.0806666, 47.3287347], [4.080597, 47.3287239], [4.0804889, 47.3287982], [4.0802764, 47.3290308], [4.0803234, 47.3293008], [4.0804224, 47.3293777], [4.0807312, 47.3295073], [4.0809983, 47.3294919], [4.0810718, 47.3296138], [4.0811689, 47.3298606], [4.081532, 47.3298447], [4.0815924, 47.3300092], [4.0814783, 47.3301166], [4.0815294, 47.3302355], [4.0817735, 47.3302321], [4.0817574, 47.3303409], [4.0818084, 47.3304183], [4.0817272, 47.3305493], [4.0818443, 47.330681], [4.0819241, 47.3307979], [4.0820632, 47.3309597], [4.0820627, 47.331087], [4.0822281, 47.3312715], [4.0824277, 47.331429], [4.0823317, 47.3315964], [4.0822632, 47.3318378], [4.0819878, 47.3319198], [4.0817103, 47.3319744], [4.0814788, 47.3320481], [4.0811337, 47.332081], [4.0809399, 47.3320743], [4.0807514, 47.3321038], [4.0807071, 47.3321797], [4.0806091, 47.3322337], [4.08042, 47.3322241], [4.0802627, 47.3321894], [4.0799051, 47.332041], [4.0796329, 47.3319994], [4.0795846, 47.3319147], [4.0790126, 47.3318065], [4.0786091, 47.3320667], [4.0785326, 47.3322341], [4.0782274, 47.3323583], [4.0779371, 47.3323366], [4.0776672, 47.3324071], [4.0766295, 47.3324412], [4.0757416, 47.332327], [4.0756954, 47.3324255], [4.0755764, 47.3324866], [4.0748399, 47.3320265], [4.0741355, 47.3318035], [4.0736773, 47.3317358], [4.0735989, 47.3318238], [4.0737741, 47.3319602], [4.0739922, 47.3323611], [4.0745239, 47.3327941], [4.0744825, 47.3330712], [4.0746613, 47.334159], [4.0748677, 47.3343131], [4.0751017, 47.3342683], [4.0754342, 47.3343584], [4.0756541, 47.3345038], [4.0759599, 47.3352418], [4.0758365, 47.3356527], [4.0761262, 47.3359435], [4.0765715, 47.3361943], [4.0764905, 47.3363524], [4.0766123, 47.3364018], [4.0768483, 47.3363858], [4.07745, 47.3363443], [4.0781345, 47.3362782], [4.0780863, 47.3360169], [4.078016, 47.335875], [4.0786122, 47.3357246], [4.0789761, 47.3357593], [4.079224, 47.3357187], [4.0799015, 47.3354476], [4.0806323, 47.3351959], [4.080545, 47.3349328], [4.0988242, 47.3185395]]], [[[4.080545, 47.3349328], [4.0804974, 47.3347894], [4.0805411, 47.3346895], [4.0806712, 47.3343921], [4.0811216, 47.3343185], [4.0813394, 47.3340842], [4.0831393, 47.3337957], [4.0839727, 47.3333145], [4.0850812, 47.3328898], [4.080545, 47.3349328]]], [[[4.0850812, 47.3328898], [4.0857872, 47.3328984], [4.0864076, 47.3330548], [4.0872009, 47.3333063], [4.0877912, 47.333297], [4.0880674, 47.333526], [4.0883172, 47.3337598], [4.0890613, 47.3337395], [4.0895058, 47.3334219], [4.0896486, 47.3334525], [4.0899837, 47.3332675], [4.0899362, 47.3329069], [4.0904165, 47.3328805], [4.0904796, 47.3326789], [4.0905426, 47.3325427], [4.0899739, 47.3323002], [4.0893886, 47.3321013], [4.0892814, 47.3317617], [4.0895933, 47.3315909], [4.0903003, 47.3311117], [4.0905658, 47.3310715], [4.0910586, 47.3312861], [4.0914363, 47.3317754], [4.0917274, 47.3317999], [4.0922962, 47.3316855], [4.092676, 47.3314862], [4.0926402, 47.3313552], [4.0933782, 47.3311847], [4.0937641, 47.3310505], [4.0936831, 47.3309025], [4.0938103, 47.3307514], [4.0945038, 47.3307706], [4.0951544, 47.3305164], [4.0954109, 47.3301671], [4.0952654, 47.3298791], [4.0955185, 47.3297323], [4.095346, 47.3294151], [4.0951803, 47.3291805], [4.0947173, 47.3290637], [4.093971, 47.3290577], [4.0936442, 47.3290089], [4.0933596, 47.3291831], [4.0931778, 47.3291822], [4.093016, 47.3291579], [4.0928094, 47.3289037], [4.0929919, 47.3285981], [4.0936551, 47.3284119], [4.0940245, 47.3280956], [4.0944533, 47.3274206], [4.0950267, 47.3270074], [4.0957775, 47.3265224], [4.0959795, 47.326214], [4.0961993, 47.3258784], [4.0983429, 47.3248102], [4.0987851, 47.3245898], [4.0993839, 47.3242788], [4.1003495, 47.3237774], [4.1010101, 47.3235573], [4.1017972, 47.3234675], [4.1030695, 47.3237014], [4.1034386, 47.3237692], [4.1041057, 47.3235608], [4.1042505, 47.3233607], [4.1039061, 47.3228809], [4.103597, 47.32288], [4.1037054, 47.3226081], [4.1018483, 47.3220354], [4.1011821, 47.3212863], [4.1010242, 47.3199348], [4.1008597, 47.3189818], [4.1005422, 47.3184367], [4.0850812, 47.3328898]]]]}}]}