{"type": "FeatureCollection", "features": [{"type": "Feature", "properties": {"name": "Étang de l'Épine"}, "geometry": {"type": "Polygon", "coordinates": [[[2.6222383, 49.1258853], [2.6220399, 49.1257176], [2.6216039, 49.1252315], [2.6211572, 49.1251485], [2.6203508, 49.125102], [2.6184944, 49.1251212], [2.6180505, 49.1255749], [2.617517, 49.1258971], [2.6165004, 49.1259627], [2.6151213, 49.1262519], [2.613571, 49.1259673], [2.6123361, 49.1254906], [2.6120054, 49.1250205], [2.6114684, 49.1243807], [2.609991, 49.1237134], [2.6084609, 49.1233344], [2.6076174, 49.1230495], [2.6073587, 49.1228816], [2.607107, 49.1227296], [2.6069656, 49.1222367], [2.6067547, 49.1220365], [2.6063482, 49.1216187], [2.6060268, 49.1210561], [2.6059648, 49.1202451], [2.6059687, 49.1198928], [2.6051338, 49.1196777], [2.6035949, 49.1192972], [2.6029603, 49.1194184], [2.6023277, 49.1191177], [2.6021094, 49.1191513], [2.6014462, 49.1192534], [2.6011926, 49.1192546], [2.6007236, 49.1190891], [2.6002054, 49.1189377], [2.5994605, 49.1187353], [2.5992914, 49.1186894], [2.5991292, 49.1187464], [2.59917, 49.1187783], [2.5990789, 49.1189157], [2.5988681, 49.1189319], [2.5987096, 49.1189559], [2.5985223, 49.1189437], [2.5984369, 49.1188675], [2.5983002, 49.1186337], [2.5982722, 49.1185391], [2.5983712, 49.1184634], [2.5980307, 49.1184917], [2.5982561, 49.1189124], [2.5982313, 49.1189887], [2.5981362, 49.1189967], [2.5979824, 49.1189425], [2.5978255, 49.1188641], [2.5975789, 49.1186068], [2.5972488, 49.1183653], [2.5972202, 49.1182947], [2.5971487, 49.1182513], [2.5971425, 49.118231], [2.5968729, 49.117884], [2.5966005, 49.1175334], [2.5963935, 49.1175077], [2.5962256, 49.117592], [2.5959627, 49.1179289], [2.5953249, 49.1184195], [2.5949332, 49.1185221], [2.5946227, 49.1185223], [2.5944905, 49.1185625], [2.5944455, 49.1185913], [2.5944244, 49.1186235], [2.5943486, 49.1188051], [2.5943466, 49.1189204], [2.5944241, 49.1190091], [2.5944701, 49.1190836], [2.5946093, 49.1191329], [2.5947802, 49.119126], [2.594922, 49.1190677], [2.5950299, 49.1189959], [2.5950869, 49.1189109], [2.5951165, 49.1187739], [2.5952039, 49.1186631], [2.5959906, 49.1180351], [2.5963263, 49.1176322], [2.5965333, 49.117581], [2.5970033, 49.1183024], [2.5969026, 49.1183903], [2.595834, 49.1187711], [2.5954423, 49.119064], [2.5951682, 49.1193863], [2.5945416, 49.1195877], [2.5938926, 49.1207191], [2.5940045, 49.1207594], [2.5943066, 49.1204738], [2.5954367, 49.12006], [2.5965181, 49.1196457], [2.5969321, 49.1195746], [2.5976371, 49.119582], [2.598798, 49.1195471], [2.5991584, 49.1194396], [2.5994882, 49.1193413], [2.5998738, 49.1191774], [2.6002407, 49.1191059], [2.6005528, 49.1191324], [2.600779, 49.1191953], [2.6011054, 49.1193817], [2.6012795, 49.1194063], [2.6015681, 49.1194064], [2.6023297, 49.1191928], [2.6030294, 49.1195475], [2.603653, 49.1194214], [2.6055737, 49.1198624], [2.6058177, 49.1200297], [2.6058215, 49.1201893], [2.6059261, 49.121089], [2.6062165, 49.121639], [2.6063443, 49.1217175], [2.606626, 49.1220473], [2.6066233, 49.1221799], [2.6068259, 49.122549], [2.6069869, 49.1226687], [2.6070721, 49.1229551], [2.6073659, 49.1231432], [2.6081236, 49.123985], [2.6085359, 49.1241782], [2.6085907, 49.1247234], [2.6085948, 49.1250438], [2.6090051, 49.1253959], [2.6092422, 49.1254436], [2.6093056, 49.1255777], [2.609151, 49.1257061], [2.6092331, 49.126094], [2.6093972, 49.1266788], [2.6097437, 49.1272217], [2.6100801, 49.1275807], [2.6106008, 49.1282719], [2.6108992, 49.1289043], [2.6112813, 49.1299206], [2.6114571, 49.1310573], [2.6116535, 49.131326], [2.613742, 49.1326399], [2.6150539, 49.1335334], [2.6155805, 49.1337261], [2.6162142, 49.1337495], [2.6180039, 49.1336347], [2.6211765, 49.1336152], [2.6223546, 49.133586], [2.6230062, 49.1332998], [2.6235602, 49.1329127], [2.6240323, 49.132257], [2.6241137, 49.131536], [2.6236276, 49.1309105], [2.6230663, 49.1300964], [2.6225444, 49.1294133], [2.6223671, 49.1277406], [2.6223026, 49.1274023], [2.6221202, 49.1273158], [2.6221476, 49.1272471], [2.6223254, 49.1271845], [2.6221977, 49.1265848], [2.6224348, 49.126197], [2.622298, 49.1260567], [2.6222383, 49.1258853]]]}}, {"type": "Feature", "properties": {"name": "Plan d'eau du Canada"}, "geometry": {"type": "Polygon", "coordinates": [[[2.0538806, 49.4557155], [2.0537767, 49.4559869], [2.0537451, 49.4560476], [2.0539949, 49.4562913], [2.0543659, 49.4564691], [2.0545292, 49.4565157], [2.0546865, 49.4565449], [2.0553806, 49.4565234], [2.0556177, 49.4564855], [2.0560568, 49.456531], [2.056902, 49.4565703], [2.0573342, 49.4566577], [2.0584761, 49.4570585], [2.0586263, 49.4570873], [2.0587429, 49.4570943], [2.0588274, 49.4570926], [2.0588943, 49.4570849], [2.0590273, 49.4570612], [2.0591117, 49.457035], [2.0591868, 49.4570036], [2.0592432, 49.456967], [2.0593304, 49.4568936], [2.0593746, 49.4568485], [2.0594309, 49.4567229], [2.0594866, 49.4566062], [2.0596375, 49.4559728], [2.0597075, 49.4556618], [2.0597254, 49.4555725], [2.0598899, 49.4549969], [2.0600624, 49.4547727], [2.0600981, 49.4546388], [2.0601849, 49.4544882], [2.0604087, 49.4541958], [2.0605147, 49.4538952], [2.0604275, 49.4536087], [2.060306, 49.4533491], [2.0599423, 49.4523016], [2.0599813, 49.452089], [2.0599873, 49.451679], [2.0599428, 49.4512264], [2.059854, 49.451002], [2.0597501, 49.4508355], [2.0596218, 49.4506901], [2.05952, 49.4505485], [2.0592518, 49.4501275], [2.0592156, 49.45004], [2.0592185, 49.4498847], [2.0593206, 49.4494781], [2.059423, 49.4492044], [2.0594868, 49.4490338], [2.0593922, 49.4489619], [2.0579241, 49.4486172], [2.0575696, 49.4484582], [2.0574277, 49.4483332], [2.0573279, 49.4482452], [2.0567682, 49.4475154], [2.0565353, 49.4472943], [2.0560356, 49.4471349], [2.05551, 49.4470857], [2.0549966, 49.4472444], [2.0549536, 49.4472577], [2.0545859, 49.4475866], [2.0544297, 49.4480254], [2.0542305, 49.4489741], [2.054094, 49.4496574], [2.0542035, 49.4499954], [2.0547281, 49.450705], [2.0549342, 49.4511378], [2.0551419, 49.4514977], [2.0553144, 49.4522168], [2.0550921, 49.4524809], [2.054951, 49.4529268], [2.0549735, 49.453438], [2.0549072, 49.4538884], [2.0547681, 49.4543681], [2.0547594, 49.4549276], [2.0546716, 49.4550897], [2.0544452, 49.455241], [2.0541429, 49.4554431], [2.0538806, 49.4557155]]]}}, {"type": "Feature", "properties": {"name": "Le Marais Chantraine"}, "geometry": {"type": "Polygon", "coordinates": [[[2.3812853, 49.2624509], [2.3812625, 49.2625467], [2.38134, 49.2628265], [2.3820028, 49.2632328], [2.3826811, 49.2635547], [2.3829415, 49.2636844], [2.3833462, 49.2637332], [2.3846152, 49.2636756], [2.3850176, 49.2636161], [2.3851096, 49.2636591], [2.3851088, 49.2637912], [2.3851605, 49.2639303], [2.3854716, 49.2640564], [2.3860081, 49.2640634], [2.386758, 49.2640098], [2.387891, 49.2637945], [2.388719, 49.2636021], [2.388759, 49.2634707], [2.3885474, 49.2631488], [2.3886469, 49.2629312], [2.388947, 49.2628967], [2.3893174, 49.2627803], [2.3897195, 49.2627637], [2.390136, 49.2627828], [2.3908355, 49.2625157], [2.3934679, 49.2623694], [2.3935738, 49.2624696], [2.3936811, 49.2625939], [2.3940767, 49.2626449], [2.3943436, 49.2627357], [2.3946062, 49.2627853], [2.3957456, 49.2627454], [2.3956662, 49.2622888], [2.394736, 49.2612789], [2.3932892, 49.2615411], [2.3918778, 49.2616223], [2.3907083, 49.2617399], [2.3902023, 49.26171], [2.3899997, 49.26174], [2.3898268, 49.2617187], [2.3896605, 49.261759], [2.3894969, 49.2617257], [2.3891447, 49.2617427], [2.3874503, 49.261815], [2.385739, 49.2617923], [2.3826116, 49.2619673], [2.3821932, 49.2619113], [2.3820261, 49.2619276], [2.3812853, 49.2624509]]]}}]}