{"type": "FeatureCollection", "features": [{"type": "Feature", "properties": {"name": "Étang de Morette"}, "geometry": {"type": "Polygon", "coordinates": [[[-0.8388962, 48.5251231], [-0.8389605, 48.5249241], [-0.8391604, 48.5246953], [-0.8393065, 48.524528], [-0.8394567, 48.5237393], [-0.8397571, 48.5231211], [-0.8398859, 48.5227658], [-0.8401852, 48.522409], [-0.8406412, 48.5221703], [-0.8410864, 48.5219617], [-0.8418283, 48.5217912], [-0.8426217, 48.5218136], [-0.8446173, 48.5221617], [-0.8450438, 48.5221244], [-0.8451049, 48.5219919], [-0.8452766, 48.5216462], [-0.8456768, 48.5213143], [-0.8458434, 48.5212578], [-0.8461167, 48.5211651], [-0.8467738, 48.5212308], [-0.8476106, 48.5217993], [-0.8479218, 48.5220907], [-0.8480505, 48.5223891], [-0.8480183, 48.5226378], [-0.8471359, 48.5231761], [-0.8466145, 48.5231207], [-0.8463028, 48.523185], [-0.8458661, 48.5234909], [-0.8453386, 48.5237701], [-0.8451623, 48.5241184], [-0.8450116, 48.5243361], [-0.8447385, 48.5244701], [-0.8442866, 48.5244492], [-0.8438518, 48.5245826], [-0.8437046, 48.5248007], [-0.8436016, 48.5249534], [-0.843604, 48.5258107], [-0.8435031, 48.5260283], [-0.8431668, 48.5261367], [-0.8420865, 48.526347], [-0.8417092, 48.5265654], [-0.841345, 48.5269428], [-0.8410714, 48.5270011], [-0.8407233, 48.5268366], [-0.8405935, 48.5266938], [-0.8405892, 48.5264323], [-0.8404019, 48.5262465], [-0.8394712, 48.5254734], [-0.8389571, 48.5253175], [-0.8388962, 48.5251231]]]}}, {"type": "Feature", "properties": {"name": "Étang de Vrigny"}, "geometry": {"type": "Polygon", "coordinates": [[[-0.0248433, 48.6517422], [-0.024916, 48.6516739], [-0.0253597, 48.6512427], [-0.0262037, 48.6513095], [-0.0273093, 48.6510268], [-0.0279247, 48.6507256], [-0.0291521, 48.6506846], [-0.0301154, 48.6504066], [-0.0305726, 48.6507807], [-0.0309704, 48.6512816], [-0.030985, 48.6518389], [-0.0315233, 48.6521583], [-0.031338, 48.652517], [-0.0311946, 48.6524173], [-0.0308949, 48.6523477], [-0.0302194, 48.652241], [-0.0298515, 48.6522011], [-0.0295303, 48.6521873], [-0.0293359, 48.6521541], [-0.0292251, 48.6521463], [-0.0291621, 48.6521936], [-0.0291766, 48.6522439], [-0.0292414, 48.652272], [-0.0293656, 48.652269], [-0.0294706, 48.6522722], [-0.0298478, 48.652296], [-0.0302351, 48.6523255], [-0.03081, 48.6524199], [-0.0310979, 48.6525274], [-0.0312707, 48.6526231], [-0.0307694, 48.653701], [-0.0311077, 48.6540083], [-0.0342432, 48.6544852], [-0.0343496, 48.6546138], [-0.0343357, 48.6547369], [-0.0343206, 48.65487], [-0.0322071, 48.6547014], [-0.029741, 48.6545242], [-0.0285378, 48.654494], [-0.0266495, 48.6547924], [-0.0243965, 48.6555097], [-0.0239555, 48.655661], [-0.023735, 48.6559278], [-0.0231575, 48.65582], [-0.0224331, 48.6556847], [-0.0222314, 48.655004], [-0.0220131, 48.6547173], [-0.02119, 48.6542531], [-0.021148, 48.6540254], [-0.0213892, 48.6537844], [-0.0220293, 48.6536257], [-0.0222785, 48.6533661], [-0.0222716, 48.6529206], [-0.0224546, 48.6526871], [-0.0227278, 48.6526198], [-0.0233934, 48.6524991], [-0.0236991, 48.6527377], [-0.0239628, 48.6528868], [-0.0241384, 48.6528285], [-0.0248028, 48.6524022], [-0.0248758, 48.652075], [-0.0248433, 48.6517422]]]}}, {"type": "Feature", "properties": {"name": "Étang du Petit Jard"}, "geometry": {"type": "Polygon", "coordinates": [[[-0.2673686, 48.542911], [-0.266918, 48.5432676], [-0.2656091, 48.5434217], [-0.2655662, 48.542796], [-0.2652229, 48.5424387], [-0.2632103, 48.5419615], [-0.2630127, 48.5412915], [-0.2632488, 48.5407516], [-0.2637852, 48.5402238], [-0.2642143, 48.54014], [-0.2647722, 48.5401116], [-0.2652915, 48.5402665], [-0.2657378, 48.5401699], [-0.2678407, 48.5403517], [-0.2684018, 48.5400235], [-0.2702525, 48.5399802], [-0.2710705, 48.5400938], [-0.2716821, 48.5403716], [-0.2719143, 48.540436], [-0.2722798, 48.5407016], [-0.2724992, 48.5413909], [-0.2722449, 48.5419024], [-0.2711484, 48.5428684], [-0.2700541, 48.5430112], [-0.2696893, 48.5432101], [-0.2684233, 48.5427647], [-0.2673686, 48.542911]]]}}, {"type": "Feature", "properties": {"name": "Étang des Personnes"}, "geometry": {"type": "Polygon", "coordinates": [[[0.8421913, 48.5347397], [0.8424406, 48.5346698], [0.8429534, 48.5345054], [0.843374, 48.5343422], [0.8440772, 48.5339689], [0.8479091, 48.5335946], [0.8479969, 48.5331282], [0.8483133, 48.5320307], [0.8487679, 48.5315352], [0.8493458, 48.5312682], [0.8495078, 48.5310455], [0.8488892, 48.5308399], [0.8488257, 48.5299962], [0.8503576, 48.5285835], [0.8502783, 48.5285309], [0.850366, 48.5282914], [0.8496657, 48.5276577], [0.8491647, 48.5277975], [0.8472808, 48.5279941], [0.8474754, 48.5289137], [0.8468657, 48.5293039], [0.8455566, 48.5296201], [0.8439487, 48.5305214], [0.8420311, 48.5318908], [0.8415877, 48.5332069], [0.841211, 48.5336045], [0.841213, 48.5337436], [0.8418336, 48.5345863], [0.8421913, 48.5347397]]]}}, {"type": "Feature", "properties": {"name": "Lac de Rabodanges"}, "geometry": {"type": "Polygon", "coordinates": [[[-0.2867114, 48.7818379], [-0.287191, 48.7821555], [-0.2878481, 48.7826756], [-0.2893812, 48.7844436], [-0.2903253, 48.7849088], [-0.291248, 48.7861119], [-0.2920741, 48.786548], [-0.2925397, 48.786668], [-0.2931416, 48.7870596], [-0.2939658, 48.787403], [-0.2947718, 48.7875558], [-0.2954043, 48.7875798], [-0.2957236, 48.7873713], [-0.2971378, 48.7883284], [-0.2965288, 48.7886411], [-0.2961125, 48.7890412], [-0.2954196, 48.7893325], [-0.294878, 48.7893401], [-0.293805, 48.7890724], [-0.2926574, 48.788491], [-0.2922345, 48.7884097], [-0.2916114, 48.7881232], [-0.2912879, 48.7881853], [-0.2911707, 48.7882298], [-0.2911109, 48.7882021], [-0.2911492, 48.7880639], [-0.2910151, 48.787849], [-0.2886971, 48.78654], [-0.2884319, 48.7864845], [-0.2881247, 48.7861986], [-0.287782, 48.7857599], [-0.2876187, 48.7857811], [-0.2874405, 48.7855959], [-0.2872452, 48.7854765], [-0.2872284, 48.7853924], [-0.2867566, 48.785445], [-0.2863655, 48.7850044], [-0.2869964, 48.784841], [-0.2863489, 48.7838149], [-0.2853767, 48.7830239], [-0.2843767, 48.7822104], [-0.2826855, 48.7813603], [-0.2822598, 48.7813081], [-0.2822225, 48.7811577], [-0.2810046, 48.7802055], [-0.2802555, 48.7798616], [-0.277112, 48.7784197], [-0.2767279, 48.7785328], [-0.2764768, 48.7785855], [-0.2764575, 48.7783624], [-0.2765755, 48.77825], [-0.2750689, 48.7775415], [-0.2741025, 48.7773748], [-0.2726493, 48.7770366], [-0.2725205, 48.7769698], [-0.2708933, 48.7763127], [-0.2700918, 48.7759019], [-0.2683974, 48.7751492], [-0.2677122, 48.7749106], [-0.2659197, 48.7736115], [-0.2664494, 48.7732285], [-0.2663467, 48.772096], [-0.2657831, 48.7718222], [-0.2646888, 48.7710585], [-0.2640418, 48.77105], [-0.2631159, 48.7713251], [-0.2624057, 48.7712445], [-0.2618489, 48.7712996], [-0.2613146, 48.7715315], [-0.260349, 48.7722259], [-0.2593619, 48.7724097], [-0.2589757, 48.7725816], [-0.2587397, 48.7727781], [-0.2584156, 48.7727103], [-0.2584178, 48.7724274], [-0.2581682, 48.7722254], [-0.2573226, 48.7721224], [-0.2568823, 48.7720848], [-0.2564063, 48.7720705], [-0.2558576, 48.7720577], [-0.2550975, 48.7721957], [-0.2550244, 48.7721973], [-0.254477, 48.7722092], [-0.25382, 48.7722235], [-0.2531031, 48.7725044], [-0.252663, 48.7725372], [-0.2522135, 48.7723972], [-0.2519376, 48.7716878], [-0.2510376, 48.7708536], [-0.2511557, 48.7706319], [-0.2509133, 48.7704682], [-0.2511488, 48.7697271], [-0.2515275, 48.7688968], [-0.2518451, 48.7684433], [-0.2522565, 48.7678786], [-0.2529927, 48.767304], [-0.254542, 48.7654157], [-0.254955, 48.7651176], [-0.2552069, 48.7644717], [-0.2550731, 48.7642589], [-0.2554716, 48.7643932], [-0.2557745, 48.7646056], [-0.25601, 48.7650655], [-0.256157, 48.7648406], [-0.256082, 48.7644883], [-0.255782, 48.7640903], [-0.2555638, 48.7639568], [-0.2550413, 48.7638026], [-0.2546503, 48.7638557], [-0.2541305, 48.7639738], [-0.2538885, 48.7641113], [-0.253748, 48.7640608], [-0.2531863, 48.7640222], [-0.2527394, 48.7642018], [-0.2524846, 48.764345], [-0.2523746, 48.7644988], [-0.2522229, 48.764489], [-0.2520206, 48.764513], [-0.2516799, 48.7645713], [-0.2508189, 48.7649019], [-0.2507814, 48.7647206], [-0.2503363, 48.7648264], [-0.2502929, 48.7647356], [-0.2508889, 48.7646031], [-0.2510679, 48.7645254], [-0.2512126, 48.7644062], [-0.2512112, 48.7643538], [-0.2510785, 48.7642095], [-0.2510928, 48.764175], [-0.2511223, 48.7641607], [-0.2511658, 48.7641397], [-0.2512677, 48.764207], [-0.2515619, 48.7643169], [-0.2517627, 48.7643016], [-0.2521, 48.7641938], [-0.2522485, 48.7641166], [-0.2533224, 48.7638344], [-0.254456, 48.7636855], [-0.2551823, 48.763595], [-0.2558319, 48.7637013], [-0.2562765, 48.7640373], [-0.2564041, 48.7642106], [-0.2565554, 48.7644135], [-0.2565554, 48.7646724], [-0.2565608, 48.7649948], [-0.25652, 48.7653124], [-0.256284, 48.7657586], [-0.2558688, 48.766458], [-0.2549676, 48.7674586], [-0.2541516, 48.7686191], [-0.2533822, 48.7693104], [-0.2529566, 48.7697197], [-0.2528246, 48.7699887], [-0.2527329, 48.7703416], [-0.2528627, 48.770762], [-0.2532334, 48.7711523], [-0.2539007, 48.7711869], [-0.2543517, 48.7709507], [-0.254705, 48.770925], [-0.2552854, 48.7708404], [-0.2561567, 48.7707247], [-0.2568441, 48.7705883], [-0.2575653, 48.770404], [-0.2592694, 48.7697935], [-0.2598382, 48.7697923], [-0.2609553, 48.7696352], [-0.2621514, 48.7692129], [-0.2631385, 48.7692568], [-0.2638509, 48.769425], [-0.2645997, 48.769623], [-0.2653089, 48.7698373], [-0.2664483, 48.7704285], [-0.2673796, 48.7713915], [-0.2677787, 48.772269], [-0.2687075, 48.7738798], [-0.2698343, 48.7744581], [-0.2716038, 48.7755075], [-0.2731852, 48.7758493], [-0.2734175, 48.7756125], [-0.2733853, 48.7751267], [-0.2736251, 48.7752371], [-0.2738214, 48.7755442], [-0.2738965, 48.7761664], [-0.2745754, 48.7761289], [-0.2762491, 48.7766252], [-0.276637, 48.7765646], [-0.2769787, 48.7768621], [-0.2774293, 48.7771039], [-0.2793123, 48.7775013], [-0.2817498, 48.7791252], [-0.2829894, 48.7795192], [-0.2846738, 48.7804373], [-0.2849509, 48.7805113], [-0.2854519, 48.7802895], [-0.2852768, 48.7806075], [-0.285433, 48.7809916], [-0.2859749, 48.7813503], [-0.2862731, 48.7815477], [-0.2863112, 48.781656], [-0.2863305, 48.7817534], [-0.2863191, 48.7818073], [-0.2862623, 48.7818829], [-0.2861611, 48.7819758], [-0.2861611, 48.7819931], [-0.2860895, 48.7820687], [-0.2860668, 48.7821226], [-0.2861009, 48.7821751], [-0.2861532, 48.7822005], [-0.2862077, 48.7822163], [-0.2863453, 48.7821833], [-0.286443, 48.7821122], [-0.2864931, 48.782023], [-0.2865817, 48.7819451], [-0.2866522, 48.7818912], [-0.2867114, 48.7818379]]]}}, {"type": "Feature", "properties": {"name": "Étang du Bouillon"}, "geometry": {"type": "Polygon", "coordinates": [[[0.8088416, 48.5539866], [0.8083765, 48.5546133], [0.8076493, 48.5561302], [0.8073983, 48.557343], [0.807625, 48.5583462], [0.8076497, 48.5584117], [0.8077703, 48.5587325], [0.809867, 48.5586247], [0.811673, 48.5594549], [0.8124862, 48.5594361], [0.812565, 48.5593315], [0.813595, 48.5592099], [0.8136274, 48.5594508], [0.8138475, 48.5594649], [0.8142004, 48.5616431], [0.813721, 48.5618549], [0.8128784, 48.5629185], [0.8124901, 48.5641093], [0.8128833, 48.5648382], [0.8132995, 48.5649942], [0.8138507, 48.565035], [0.814313, 48.5640946], [0.8152201, 48.5630093], [0.8159975, 48.562318], [0.8165406, 48.5619698], [0.8168834, 48.5619001], [0.8172249, 48.5617606], [0.8175632, 48.5614817], [0.8172488, 48.5612574], [0.8173596, 48.5599102], [0.8170664, 48.5590208], [0.8169916, 48.5587253], [0.817572, 48.5584923], [0.8181499, 48.5581221], [0.8162781, 48.5574282], [0.8154276, 48.557914], [0.8146966, 48.557509], [0.8141741, 48.5571943], [0.814267, 48.5566673], [0.8142549, 48.5560513], [0.8148331, 48.5557035], [0.814088, 48.5545903], [0.8129536, 48.5546678], [0.8116104, 48.5545876], [0.8105031, 48.5543014], [0.809266, 48.5538709], [0.8088416, 48.5539866]]]}}, {"type": "Feature", "properties": {"name": "Lac de la Ferté-Macé"}, "geometry": {"type": "Polygon", "coordinates": [[[-0.3751364, 48.5898829], [-0.375021, 48.589857], [-0.374792, 48.589856], [-0.374636, 48.589825], [-0.374497, 48.589787], [-0.37436, 48.589746], [-0.374301, 48.589727], [-0.374079, 48.589631], [-0.37391, 48.589541], [-0.373684, 48.589404], [-0.373596, 48.589319], [-0.373361, 48.589086], [-0.373227, 48.588923], [-0.373089, 48.588762], [-0.372933, 48.588585], [-0.3728962, 48.5885475], [-0.37283, 48.58848], [-0.3727095, 48.5883631], [-0.372664, 48.588319], [-0.372501, 48.588157], [-0.372435, 48.588088], [-0.372255, 48.588017], [-0.372181, 48.587947], [-0.372104, 48.58788], [-0.372075, 48.587856], [-0.371454, 48.587395], [-0.371206, 48.587279], [-0.370872, 48.587211], [-0.37069, 48.587143], [-0.370506, 48.587077], [-0.370394, 48.58704], [-0.370356, 48.587003], [-0.370322, 48.586965], [-0.370305, 48.586942], [-0.370236, 48.586926], [-0.369248, 48.587363], [-0.3689818, 48.5875982], [-0.367955, 48.588535], [-0.367463, 48.589359], [-0.367601, 48.58935], [-0.367659, 48.589309], [-0.367684, 48.589303], [-0.367757, 48.589306], [-0.367892, 48.589402], [-0.368034, 48.589452], [-0.368267, 48.589524], [-0.368348, 48.589561], [-0.368484, 48.58966], [-0.368577, 48.589739], [-0.368642, 48.589782], [-0.368777, 48.589918], [-0.368908, 48.590056], [-0.368934, 48.590095], [-0.368941, 48.590129], [-0.368944, 48.590163], [-0.368942, 48.590189], [-0.3689311, 48.5901968], [-0.368914, 48.590209], [-0.368884, 48.59024], [-0.3688845, 48.5902765], [-0.368885, 48.590313], [-0.3688814, 48.5903391], [-0.3688787, 48.5903582], [-0.368855, 48.590365], [-0.368818, 48.590655], [-0.368813, 48.590813], [-0.368812, 48.590985], [-0.368831, 48.591058], [-0.368883, 48.591122], [-0.368969, 48.591191], [-0.369099, 48.591249], [-0.369243, 48.591285], [-0.369443, 48.591307], [-0.369657, 48.591299], [-0.370106, 48.591398], [-0.370322, 48.59142], [-0.370447, 48.591443], [-0.370759, 48.591513], [-0.370931, 48.591564], [-0.371036, 48.591618], [-0.371114, 48.591678], [-0.371167, 48.591747], [-0.371315, 48.591853], [-0.37135, 48.591927], [-0.371375, 48.5919466], [-0.371493, 48.592039], [-0.3716, 48.592141], [-0.37165, 48.592226], [-0.371685, 48.592335], [-0.37169, 48.592487], [-0.3717199, 48.5925602], [-0.37173, 48.592585], [-0.371803, 48.592679], [-0.371894, 48.592767], [-0.372036, 48.592884], [-0.372161, 48.592983], [-0.372266, 48.593011], [-0.372297, 48.59306], [-0.372406, 48.593168], [-0.372434, 48.59322], [-0.372457, 48.593273], [-0.372476, 48.593325], [-0.372505, 48.593354], [-0.3725415, 48.5933877], [-0.372589, 48.5933968], [-0.3726619, 48.5934458], [-0.3728565, 48.5935195], [-0.3729059, 48.5935261], [-0.372953, 48.59353], [-0.3730231, 48.5935223], [-0.3731018, 48.5935195], [-0.3731426, 48.5935273], [-0.373159, 48.59351], [-0.373176, 48.5935023], [-0.3731865, 48.5934976], [-0.37323, 48.593478], [-0.373234, 48.593448], [-0.373275, 48.593438], [-0.373346, 48.593416], [-0.373416, 48.593392], [-0.373464, 48.593359], [-0.37354, 48.593284], [-0.373608, 48.593213], [-0.373721, 48.59304], [-0.373744, 48.592977], [-0.373776, 48.592715], [-0.37382, 48.592631], [-0.373804, 48.592486], [-0.373822, 48.592448], [-0.373867, 48.592391], [-0.373925, 48.592361], [-0.374098, 48.592301], [-0.374159, 48.592336], [-0.374216, 48.592377], [-0.374269, 48.59242], [-0.374318, 48.592465], [-0.374356, 48.592526], [-0.374376, 48.59261], [-0.374378, 48.592614], [-0.374389, 48.592627], [-0.374403, 48.592638], [-0.374421, 48.592647], [-0.374442, 48.592653], [-0.374463, 48.592657], [-0.374529, 48.592651], [-0.374589, 48.592617], [-0.374615, 48.592585], [-0.374745, 48.592325], [-0.3747936, 48.5923053], [-0.374994, 48.592224], [-0.375147, 48.592146], [-0.375481, 48.591959], [-0.375625, 48.591904], [-0.376158, 48.591839], [-0.376588, 48.591796], [-0.3766587, 48.5917894], [-0.377014, 48.591756], [-0.377121, 48.59173], [-0.377308, 48.591613], [-0.377374, 48.591558], [-0.377405, 48.591513], [-0.377392, 48.591472], [-0.3773351, 48.5914481], [-0.377283, 48.591423], [-0.377068, 48.591246], [-0.376988, 48.591134], [-0.376628, 48.590581], [-0.376561, 48.59035], [-0.37644, 48.590258], [-0.376292, 48.59017], [-0.376095, 48.590074], [-0.375383, 48.589885], [-0.37525, 48.589877], [-0.3751364, 48.5898829]]]}}, {"type": "Feature", "properties": {"name": "Étang du Belloy"}, "geometry": {"type": "Polygon", "coordinates": [[[0.7807803, 48.6105048], [0.7807374, 48.610519], [0.7807267, 48.6104693], [0.7806945, 48.610448], [0.7806516, 48.610448], [0.7806087, 48.6104055], [0.7805657, 48.6103913], [0.7805443, 48.6104055], [0.7805014, 48.6103913], [0.7803297, 48.6104055], [0.7803082, 48.6103913], [0.7802439, 48.6103913], [0.7802224, 48.6104055], [0.7800937, 48.6104055], [0.7800078, 48.6104906], [0.7799542, 48.6104977], [0.7798898, 48.6105544], [0.7799542, 48.610597], [0.7799435, 48.6106183], [0.7798576, 48.6106183], [0.7798362, 48.6105757], [0.779804, 48.610597], [0.7797611, 48.6106537], [0.7798147, 48.6106608], [0.7798362, 48.6106467], [0.7798684, 48.6106821], [0.7798362, 48.6107034], [0.7797289, 48.6107034], [0.7796752, 48.6107389], [0.7796752, 48.610824], [0.7796109, 48.6108524], [0.779568, 48.6109091], [0.7796216, 48.610902], [0.7796538, 48.6109233], [0.779568, 48.6109659], [0.779568, 48.6110652], [0.7795465, 48.6110794], [0.7796216, 48.6111148], [0.779686, 48.6111006], [0.7797182, 48.6111219], [0.7797182, 48.6111929], [0.7796752, 48.6112354], [0.7797182, 48.6112638], [0.7797182, 48.6112922], [0.7796752, 48.6113205], [0.7797503, 48.6113418], [0.7798469, 48.6114057], [0.7798254, 48.6114482], [0.7798898, 48.611505], [0.7798898, 48.6115333], [0.7798684, 48.6115475], [0.7799542, 48.6115901], [0.7799542, 48.6116327], [0.7798791, 48.6116256], [0.7798469, 48.6116468], [0.7798684, 48.6116894], [0.7797825, 48.6117178], [0.7797611, 48.6117887], [0.7796431, 48.6118242], [0.7795894, 48.611888], [0.7794499, 48.6119802], [0.7793856, 48.6119944], [0.7792568, 48.6119944], [0.7792354, 48.6119802], [0.7791924, 48.6119802], [0.779053, 48.6120583], [0.7790959, 48.6122285], [0.7790315, 48.6122427], [0.779053, 48.6122569], [0.7790315, 48.6122711], [0.7790315, 48.6123136], [0.7790744, 48.6123562], [0.779053, 48.6123704], [0.7791173, 48.6124129], [0.779053, 48.6124697], [0.7790959, 48.612569], [0.7791924, 48.6126612], [0.7792354, 48.6126754], [0.7792568, 48.6126612], [0.7793319, 48.6126967], [0.7793319, 48.6127534], [0.7793641, 48.6127747], [0.7794285, 48.6127605], [0.7794714, 48.6127747], [0.7794607, 48.6128243], [0.7794929, 48.6128456], [0.7795572, 48.6128456], [0.7796538, 48.6128953], [0.7797074, 48.6129591], [0.7797396, 48.6129662], [0.7797718, 48.6130442], [0.7798254, 48.6129946], [0.7798362, 48.6129733], [0.7800078, 48.6129875], [0.7800293, 48.6130159], [0.7800722, 48.6129733], [0.7802653, 48.6129875], [0.7803082, 48.6129591], [0.780437, 48.6129591], [0.7804585, 48.6129449], [0.7805228, 48.6129875], [0.7805443, 48.6129591], [0.780555, 48.6129662], [0.7805657, 48.61303], [0.7805979, 48.6130088], [0.7805765, 48.6129946], [0.7805872, 48.6129591], [0.780673, 48.6129591], [0.7806408, 48.6129804], [0.7806408, 48.6130088], [0.7806838, 48.613023], [0.7806945, 48.6130442], [0.7807803, 48.6130584], [0.7808018, 48.6130159], [0.780952, 48.6130159], [0.7809734, 48.61303], [0.7810163, 48.61303], [0.7809627, 48.6129946], [0.7809627, 48.6129804], [0.7810163, 48.6129733], [0.7810378, 48.6129875], [0.7810807, 48.6129449], [0.7811022, 48.6129449], [0.7811236, 48.6130017], [0.781188, 48.6130017], [0.7812953, 48.6130442], [0.7813382, 48.6130017], [0.7813597, 48.6130159], [0.7814026, 48.6129875], [0.781467, 48.6130159], [0.7814777, 48.6130088], [0.7814562, 48.6129236], [0.7814884, 48.6129024], [0.7815957, 48.6129449], [0.7817888, 48.6129166], [0.7818961, 48.6128882], [0.7817674, 48.612874], [0.7817674, 48.6128598], [0.7819176, 48.6128598], [0.781939, 48.6128314], [0.7819645, 48.6128314], [0.7819819, 48.6128314], [0.7820678, 48.6128598], [0.7821321, 48.6128456], [0.782218, 48.6128031], [0.7823038, 48.6128031], [0.7824004, 48.6127392], [0.7824004, 48.6126825], [0.7825077, 48.6125548], [0.7825398, 48.6125335], [0.7825828, 48.6125335], [0.78269, 48.6124484], [0.7828832, 48.61242], [0.7829046, 48.6123916], [0.782969, 48.6123916], [0.7830548, 48.6124342], [0.7830977, 48.6123916], [0.783205, 48.6123775], [0.7832694, 48.6123349], [0.7833552, 48.6123349], [0.7833338, 48.6123065], [0.7833123, 48.6123207], [0.7832694, 48.6123207], [0.7832587, 48.6122852], [0.7832909, 48.612264], [0.7833338, 48.612264], [0.7834411, 48.6122214], [0.7834303, 48.6122711], [0.7834625, 48.6122923], [0.7835269, 48.6122923], [0.7835484, 48.6123207], [0.7835805, 48.6123136], [0.7835805, 48.6122427], [0.7834733, 48.6121718], [0.7834733, 48.6121008], [0.7834947, 48.6120441], [0.7835162, 48.6120299], [0.7835162, 48.6119873], [0.7835913, 48.611966], [0.7836556, 48.6119235], [0.78372, 48.6119377], [0.7837522, 48.6119306], [0.7836878, 48.6118738], [0.7836878, 48.6118455], [0.7837737, 48.6117887], [0.7837951, 48.6117178], [0.7838488, 48.6116965], [0.7839346, 48.6116397], [0.7840097, 48.6116468], [0.7839882, 48.6116043], [0.7840312, 48.6115759], [0.7840848, 48.6114837], [0.7841706, 48.6114837], [0.7842886, 48.6114482], [0.7842672, 48.6113915], [0.7843316, 48.6113773], [0.7843101, 48.6113631], [0.7843316, 48.6113489], [0.7842886, 48.6113064], [0.7843637, 48.6112425], [0.7844388, 48.611207], [0.7844388, 48.6111361], [0.7844818, 48.6111219], [0.7844818, 48.611051], [0.7845676, 48.6109233], [0.7845676, 48.6108949], [0.7846105, 48.6108666], [0.784632, 48.6107672], [0.7845891, 48.6107389], [0.7845891, 48.6106963], [0.7846105, 48.6105686], [0.784632, 48.6104977], [0.7846534, 48.6104835], [0.7846534, 48.6103984], [0.7846963, 48.6103274], [0.7847929, 48.6103062], [0.7848251, 48.6102849], [0.7848465, 48.6102565], [0.7848465, 48.6102281], [0.7848787, 48.6102068], [0.7849216, 48.610221], [0.784986, 48.610221], [0.7850718, 48.6101927], [0.7851148, 48.6101927], [0.785104, 48.6102565], [0.7852542, 48.6103416], [0.7851899, 48.6103842], [0.7851899, 48.6104126], [0.785265, 48.6104055], [0.7853079, 48.6103771], [0.7853937, 48.6104197], [0.7854152, 48.6104055], [0.7854259, 48.6104126], [0.7854044, 48.6104409], [0.7854044, 48.6104835], [0.7854366, 48.6105048], [0.7855117, 48.6104693], [0.7855117, 48.6103274], [0.7855761, 48.6102849], [0.7855761, 48.6102281], [0.7855976, 48.6102139], [0.7855761, 48.6101998], [0.7856083, 48.6101643], [0.7856619, 48.6101572], [0.785619, 48.6101288], [0.785619, 48.6099586], [0.7855976, 48.6099444], [0.7855976, 48.6098167], [0.785619, 48.6097316], [0.7856405, 48.6097174], [0.785619, 48.6095897], [0.7855976, 48.6095755], [0.785619, 48.6095329], [0.785619, 48.6094336], [0.7856619, 48.6093201], [0.7857263, 48.609235], [0.7857263, 48.6091924], [0.7857907, 48.6091499], [0.7857478, 48.6091073], [0.7858336, 48.6090789], [0.7858551, 48.6089938], [0.7859194, 48.6089512], [0.7859194, 48.6089229], [0.7859838, 48.6088803], [0.7859838, 48.6088377], [0.7860267, 48.6088236], [0.7860482, 48.6087952], [0.7860482, 48.6086959], [0.7859194, 48.6086533], [0.7859194, 48.6084689], [0.7858765, 48.6084405], [0.7859409, 48.6083837], [0.7858229, 48.6083199], [0.7857692, 48.6083128], [0.7857585, 48.6082631], [0.7856727, 48.6082631], [0.7856405, 48.6082844], [0.7856405, 48.608327], [0.7855761, 48.6083554], [0.7855225, 48.608405], [0.7854581, 48.6083766], [0.7854474, 48.6084121], [0.7854152, 48.6084334], [0.7853293, 48.608405], [0.7852435, 48.608476], [0.7851362, 48.6084901], [0.7851148, 48.608476], [0.7850826, 48.6084972], [0.7850718, 48.6085469], [0.784986, 48.6085043], [0.7849109, 48.6085114], [0.7849002, 48.6085327], [0.7848358, 48.6085327], [0.7847714, 48.6085043], [0.7847285, 48.6085043], [0.7846856, 48.6085611], [0.7846212, 48.6085469], [0.7845891, 48.6085256], [0.7845891, 48.6084263], [0.7845247, 48.6083837], [0.784514, 48.6083483], [0.7844496, 48.6083908], [0.7844281, 48.6083908], [0.7843852, 48.6083483], [0.7843208, 48.6083483], [0.7842994, 48.6083341], [0.7842135, 48.6083483], [0.7841706, 48.6083908], [0.7841277, 48.6083766], [0.7840633, 48.608405], [0.7840312, 48.6082419], [0.7840097, 48.6082277], [0.7840097, 48.6081993], [0.7839346, 48.6081638], [0.7838488, 48.6080929], [0.7838166, 48.6080858], [0.7838058, 48.6080503], [0.7837307, 48.6080149], [0.7836878, 48.6079581], [0.7836878, 48.6078872], [0.7835698, 48.6078091], [0.7835269, 48.6078091], [0.7834411, 48.6077524], [0.7833767, 48.6077524], [0.7833445, 48.6077311], [0.7834089, 48.6076885], [0.7833982, 48.6076531], [0.7831621, 48.6076389], [0.7830548, 48.6075537], [0.7829046, 48.6075254], [0.782851, 48.6074899], [0.7828403, 48.6074544], [0.782733, 48.607497], [0.7827222, 48.6074757], [0.7826364, 48.6074331], [0.7826042, 48.6073977], [0.7825184, 48.6074402], [0.7825077, 48.6074048], [0.7824755, 48.6073835], [0.7824111, 48.6073835], [0.7823253, 48.6073551], [0.7822394, 48.6072984], [0.7821751, 48.6072984], [0.7821536, 48.6072842], [0.7820463, 48.6073125], [0.7819605, 48.6073125], [0.7818854, 48.607348], [0.7818747, 48.6073693], [0.7817245, 48.6073977], [0.7817137, 48.6074615], [0.7816923, 48.6074899], [0.7817352, 48.6075041], [0.7816494, 48.6075183], [0.7816386, 48.6075396], [0.7815957, 48.6075396], [0.7815742, 48.6075112], [0.7815206, 48.6075466], [0.781585, 48.607575], [0.7815313, 48.6076105], [0.7814348, 48.6076176], [0.7815421, 48.6076602], [0.7815421, 48.6076885], [0.7814562, 48.6077311], [0.781424, 48.6077808], [0.7813919, 48.6077878], [0.7814348, 48.6078304], [0.7814348, 48.6078872], [0.7814133, 48.6079439], [0.7813704, 48.6079723], [0.7813704, 48.6080149], [0.7813275, 48.608029], [0.7813489, 48.6080432], [0.7812846, 48.6080858], [0.7812846, 48.6081284], [0.7814133, 48.6082135], [0.7814348, 48.6082702], [0.7814777, 48.6082844], [0.7814133, 48.6082986], [0.7814991, 48.6083128], [0.7814991, 48.6083554], [0.7814562, 48.6083979], [0.7814991, 48.6084405], [0.7814991, 48.6085682], [0.781467, 48.6085895], [0.781424, 48.6085895], [0.7813597, 48.6086462], [0.7813382, 48.6086462], [0.781188, 48.6087455], [0.7810485, 48.6087101], [0.7810378, 48.6086888], [0.780952, 48.6086746], [0.7809091, 48.608632], [0.7808232, 48.6086462], [0.7807374, 48.6085753], [0.7807569, 48.608193], [0.7802439, 48.6080929], [0.7800937, 48.6080929], [0.7800078, 48.6080503], [0.779922, 48.6080645], [0.7796124, 48.6080606], [0.7794706, 48.6080581], [0.7793715, 48.6080952], [0.7791805, 48.6082132], [0.7792139, 48.6082915], [0.7791388, 48.6083128], [0.779184, 48.6083915], [0.7790256, 48.6084313], [0.7790256, 48.6084739], [0.7790899, 48.608559], [0.7790421, 48.6086591], [0.7790685, 48.6088428], [0.7792246, 48.6089371], [0.7792139, 48.6089725], [0.779171, 48.6089583], [0.7791281, 48.6089583], [0.7790959, 48.6089938], [0.7792139, 48.6090151], [0.7792461, 48.6090364], [0.7792246, 48.6090789], [0.7792783, 48.6091144], [0.7793212, 48.609086], [0.7793856, 48.609086], [0.7793963, 48.6091215], [0.7793748, 48.6091357], [0.779407, 48.6091712], [0.7795143, 48.609086], [0.7795465, 48.6090931], [0.7794821, 48.6091641], [0.7794821, 48.6092066], [0.7793856, 48.6091995], [0.7793534, 48.6092208], [0.7793534, 48.6092492], [0.779407, 48.6092988], [0.7794929, 48.6092705], [0.7795036, 48.6093201], [0.7795465, 48.6093485], [0.7794821, 48.6093911], [0.7794821, 48.6094053], [0.7795143, 48.6094265], [0.7795358, 48.6094123], [0.779568, 48.6094336], [0.779568, 48.6095046], [0.7794714, 48.6094691], [0.7794607, 48.6095046], [0.7795143, 48.6095684], [0.7796109, 48.6095897], [0.779568, 48.6096464], [0.7796109, 48.6096748], [0.7796109, 48.6097599], [0.7796538, 48.6097599], [0.779686, 48.6097387], [0.7797503, 48.6097812], [0.7797825, 48.6097741], [0.7796752, 48.6097032], [0.779686, 48.6096677], [0.7798147, 48.6096961], [0.7798791, 48.6096961], [0.7799113, 48.6096464], [0.7799649, 48.609611], [0.7800508, 48.6096252], [0.7800829, 48.6096464], [0.78004, 48.609689], [0.7800722, 48.6097103], [0.7801473, 48.6097032], [0.7801473, 48.6096464], [0.7802224, 48.6095968], [0.7802868, 48.609611], [0.7803726, 48.609611], [0.7804585, 48.6096393], [0.7804799, 48.6096677], [0.7806301, 48.6096535], [0.7807374, 48.6097387], [0.7807267, 48.6097032], [0.7807374, 48.6096677], [0.7808232, 48.6096677], [0.7808661, 48.6096535], [0.7808769, 48.6097174], [0.7809949, 48.6097245], [0.7811344, 48.6098167], [0.7811344, 48.6098593], [0.7811773, 48.6099018], [0.7812417, 48.609916], [0.7811987, 48.6099444], [0.7811987, 48.6099586], [0.7812631, 48.6099869], [0.7812417, 48.6100295], [0.7812631, 48.6100579], [0.7813382, 48.6100508], [0.7813597, 48.6100224], [0.7813919, 48.6100721], [0.7814777, 48.6101288], [0.7814777, 48.610143], [0.7816279, 48.6102281], [0.781585, 48.6102849], [0.7815206, 48.6103132], [0.7815206, 48.6103842], [0.7814562, 48.6104267], [0.7814348, 48.6104693], [0.7812524, 48.6105757], [0.7811451, 48.6105757], [0.7811022, 48.6106041], [0.7810378, 48.6106041], [0.7809734, 48.6105757], [0.7809091, 48.6105757], [0.7808661, 48.6106041], [0.7808125, 48.610597], [0.7807803, 48.6105048]]]}}, {"type": "Feature", "properties": {"name": "Étang du Haut Plan"}, "geometry": {"type": "Polygon", "coordinates": [[[0.8050992, 48.6211886], [0.8056283, 48.6208388], [0.805649, 48.6202387], [0.8063179, 48.6201703], [0.8074507, 48.6195385], [0.8074985, 48.6186483], [0.8071593, 48.6184012], [0.8070908, 48.6181659], [0.8067732, 48.6181539], [0.8064742, 48.6178793], [0.8069697, 48.6174887], [0.8070106, 48.6174565], [0.80699, 48.6171564], [0.8068528, 48.6171865], [0.8063392, 48.6174523], [0.8057521, 48.6168973], [0.8049269, 48.6163517], [0.8041207, 48.6162692], [0.8034248, 48.6167896], [0.8032104, 48.617157], [0.8026028, 48.6173036], [0.801774, 48.6176264], [0.8006907, 48.617849], [0.8000993, 48.618193], [0.7999964, 48.6198475], [0.8015434, 48.620757], [0.8021624, 48.6210161], [0.8036293, 48.6213281], [0.8043575, 48.6214609], [0.8050597, 48.6215094], [0.8050992, 48.6211886]]]}}]}