{"type": "FeatureCollection", "features": [{"type": "Feature", "properties": {"name": "Lac Chauvet"}, "geometry": {"type": "Polygon", "coordinates": [[[2.8261187, 45.4619416], [2.82619, 45.4619028], [2.8262383, 45.4619732], [2.8263488, 45.4621174], [2.8264244, 45.4622258], [2.8265831, 45.4623568], [2.8269635, 45.4625993], [2.827751, 45.463007], [2.8280031, 45.4631256], [2.828454, 45.4632392], [2.8294565, 45.4633084], [2.8302503, 45.4634967], [2.830984, 45.4635135], [2.8315328, 45.4633087], [2.8329581, 45.4631904], [2.8334926, 45.4629822], [2.8339505, 45.46268], [2.83451, 45.4622934], [2.8350365, 45.4620766], [2.8354592, 45.4615314], [2.8353277, 45.4603153], [2.8355791, 45.4593176], [2.835457, 45.4590181], [2.8354849, 45.4583217], [2.8353536, 45.457634], [2.8352935, 45.4575714], [2.8345852, 45.4567559], [2.8341255, 45.4564686], [2.8327897, 45.4559873], [2.831903, 45.4557738], [2.8307282, 45.455691], [2.8299986, 45.4558157], [2.8293764, 45.4560338], [2.828679, 45.4564396], [2.8285545, 45.4565034], [2.8281576, 45.4566987], [2.8278221, 45.4568939], [2.8273997, 45.4572014], [2.827013, 45.4576086], [2.8268059, 45.4580433], [2.8265451, 45.4583959], [2.8264035, 45.4587274], [2.826274, 45.4589697], [2.8261354, 45.4593932], [2.8260855, 45.4598963], [2.8259652, 45.4601078], [2.8258883, 45.460243], [2.82588, 45.4603033], [2.8258239, 45.4607119], [2.8257185, 45.4606803], [2.8256922, 45.4607383], [2.8258041, 45.4608023], [2.8257486, 45.4608835], [2.8258804, 45.4609919], [2.8258708, 45.4614146], [2.8258987, 45.4615001], [2.8259047, 45.4616548], [2.8260158, 45.461878], [2.8261068, 45.4619382], [2.8261187, 45.4619416]]]}}, {"type": "Feature", "properties": {"name": "Lac de Montcineyre"}, "geometry": {"type": "Polygon", "coordinates": [[[2.8921486, 45.4600785], [2.8922552, 45.4608148], [2.8923932, 45.4614293], [2.8932322, 45.4618988], [2.8944299, 45.4623151], [2.8954815, 45.4624771], [2.89634, 45.4624891], [2.896794, 45.4623604], [2.8985295, 45.4623219], [2.9007137, 45.461749], [2.9016753, 45.4617978], [2.9019701, 45.461804], [2.9024007, 45.4617756], [2.9025102, 45.4615781], [2.9025352, 45.4613721], [2.9025161, 45.4611529], [2.9021615, 45.4610094], [2.9015689, 45.4608163], [2.9002223, 45.4606784], [2.899452, 45.4603918], [2.8991685, 45.4600076], [2.8992174, 45.4594438], [2.8990216, 45.4591872], [2.8990857, 45.4587214], [2.899103, 45.4573023], [2.8993595, 45.4564499], [2.8995617, 45.455948], [2.8996108, 45.4558754], [2.899594, 45.455786], [2.8994991, 45.4556616], [2.8992393, 45.4554841], [2.8989359, 45.4553457], [2.8985171, 45.4552103], [2.8980808, 45.4551478], [2.8959485, 45.4556542], [2.8950388, 45.4560298], [2.8943726, 45.4564972], [2.8937817, 45.4570183], [2.8933884, 45.457391], [2.8933759, 45.4577268], [2.8927619, 45.4588199], [2.8922929, 45.4596733], [2.8922431, 45.4598131], [2.8921486, 45.4600785]]]}}, {"type": "Feature", "properties": {"name": "Lac Pavin"}, "geometry": {"type": "Polygon", "coordinates": [[[2.8880323, 45.4994677], [2.8884333, 45.499346], [2.8892689, 45.4990643], [2.8897583, 45.4988543], [2.8904252, 45.4985574], [2.8907851, 45.4983254], [2.8911091, 45.4980454], [2.8912355, 45.4977994], [2.8914333, 45.4974507], [2.8916036, 45.4971886], [2.8917509, 45.4971337], [2.8918618, 45.4970987], [2.8920741, 45.4970333], [2.8922025, 45.4969334], [2.8922673, 45.4968299], [2.8922862, 45.4967109], [2.8923925, 45.4966654], [2.8924497, 45.496571], [2.8924264, 45.4965045], [2.8927769, 45.4959883], [2.8927993, 45.494841], [2.8921165, 45.4939097], [2.8919238, 45.4936324], [2.8917825, 45.4933893], [2.8915059, 45.4931921], [2.8911542, 45.4929843], [2.8899089, 45.4927925], [2.8888065, 45.4925916], [2.8882568, 45.4925565], [2.8879482, 45.4926879], [2.8873404, 45.4925716], [2.8867755, 45.492389], [2.8864228, 45.4924467], [2.8860799, 45.4924549], [2.8854415, 45.4926918], [2.8846611, 45.4931089], [2.883851, 45.4937384], [2.8833412, 45.4939791], [2.8832317, 45.4943925], [2.8831815, 45.494621], [2.8830764, 45.4959121], [2.8831093, 45.4964718], [2.8833293, 45.4966223], [2.883506, 45.4967796], [2.8838724, 45.4969232], [2.8839253, 45.4969916], [2.8840528, 45.4970801], [2.8845508, 45.4975557], [2.8847349, 45.4976889], [2.8850111, 45.497812], [2.8852516, 45.4980681], [2.8853615, 45.4980981], [2.8854295, 45.4982068], [2.8855154, 45.4983275], [2.885617, 45.4985857], [2.885927, 45.498852], [2.8863167, 45.4991177], [2.8863618, 45.4991494], [2.8865258, 45.4992647], [2.8868845, 45.4993733], [2.8869459, 45.4993771], [2.8870229, 45.4994126], [2.8873993, 45.4994637], [2.8880323, 45.4994677]]]}}, {"type": "Feature", "properties": {"name": "Lac de Bourdouze"}, "geometry": {"type": "Polygon", "coordinates": [[[2.9253547, 45.4713594], [2.9264472, 45.4713723], [2.9269625, 45.471286], [2.9274847, 45.471142], [2.9276555, 45.4710782], [2.9278835, 45.471043], [2.9282472, 45.4707425], [2.9288367, 45.4700451], [2.9289928, 45.4696799], [2.9290304, 45.4694995], [2.9291136, 45.4679204], [2.9282715, 45.4672846], [2.9278894, 45.4672389], [2.9277551, 45.4672428], [2.9276549, 45.4671593], [2.9275571, 45.4670117], [2.9273165, 45.4668433], [2.9272433, 45.4668735], [2.9272275, 45.4668047], [2.9271272, 45.4667825], [2.9268624, 45.4668539], [2.9265438, 45.4671466], [2.9264447, 45.4672374], [2.9262887, 45.4672411], [2.9259402, 45.4671547], [2.925844, 45.4671309], [2.9257131, 45.4671514], [2.9253998, 45.46703], [2.9248723, 45.4668735], [2.9245704, 45.4668415], [2.9240731, 45.4669699], [2.9234778, 45.4670419], [2.9232424, 45.4674204], [2.9232009, 45.4676226], [2.9232554, 45.4678296], [2.9233031, 45.4682692], [2.9236107, 45.4690124], [2.9236227, 45.4691723], [2.9237866, 45.4692404], [2.9237772, 45.4693469], [2.9234307, 45.4694671], [2.923418, 45.4693478], [2.9233254, 45.4693405], [2.9232671, 45.4694087], [2.9223423, 45.4690783], [2.922277, 45.4691426], [2.9222672, 45.4692142], [2.9222307, 45.4695416], [2.9221213, 45.4696823], [2.9218951, 45.4697872], [2.9218117, 45.4700838], [2.9218843, 45.4701266], [2.9220994, 45.4701735], [2.9225938, 45.4700061], [2.9229929, 45.4699948], [2.9230831, 45.4700318], [2.9233688, 45.4699842], [2.9235341, 45.4702593], [2.9240306, 45.4708068], [2.924336, 45.4710718], [2.9247418, 45.4712732], [2.9253547, 45.4713594]]]}}, {"type": "Feature", "properties": {"name": "Retenue de Fades-Besserve"}, "geometry": {"type": "Polygon", "coordinates": [[[2.7987445, 45.9738502], [2.7973246, 45.972071], [2.7968268, 45.9720946], [2.7965886, 45.9719612], [2.7964959, 45.9718812], [2.7964812, 45.9718388], [2.7963578, 45.9718379], [2.7963565, 45.9718775], [2.7963383, 45.9718929], [2.7963129, 45.9718924], [2.7962974, 45.9718812], [2.7962951, 45.9718383], [2.7961831, 45.9718379], [2.7961798, 45.9718295], [2.7961811, 45.9718202], [2.7962022, 45.9718069], [2.7962324, 45.971799], [2.7962814, 45.9717955], [2.7962814, 45.9717857], [2.7964352, 45.971785], [2.7964346, 45.9717204], [2.796213, 45.9717228], [2.7961932, 45.9717179], [2.7961794, 45.9717048], [2.7961754, 45.9716885], [2.7961841, 45.9716757], [2.7962026, 45.9716636], [2.7962465, 45.9716633], [2.7964373, 45.9716631], [2.7964383, 45.9715811], [2.7962267, 45.9715809], [2.7962052, 45.9715753], [2.7961791, 45.9715624], [2.796174, 45.9715673], [2.7960158, 45.9715158], [2.7960131, 45.9715028], [2.7960359, 45.9714972], [2.7958509, 45.9714177], [2.7955803, 45.971331], [2.794817, 45.971267], [2.7943914, 45.9710567], [2.793538, 45.9709119], [2.7925529, 45.9708129], [2.7921343, 45.9708741], [2.7917923, 45.9708562], [2.7914982, 45.9707716], [2.7913882, 45.9704907], [2.7913688, 45.9700061], [2.7915339, 45.9696067], [2.7917032, 45.9693818], [2.7918606, 45.9689998], [2.7918766, 45.9686312], [2.7916429, 45.9679152], [2.7916081, 45.9676449], [2.7916661, 45.9673707], [2.7918866, 45.9670036], [2.7918659, 45.9664963], [2.791917, 45.966326], [2.7918825, 45.9661846], [2.7920765, 45.9658663], [2.7921181, 45.9658388], [2.7921513, 45.9658251], [2.7921738, 45.9657983], [2.7922083, 45.9657425], [2.7923433, 45.9656654], [2.7923594, 45.9656174], [2.7923259, 45.9655979], [2.7922666, 45.9655862], [2.7921511, 45.9655581], [2.7920406, 45.965549], [2.7919041, 45.9654951], [2.791846, 45.9651442], [2.791846, 45.9640713], [2.7916952, 45.9639906], [2.7917068, 45.9637163], [2.7919389, 45.9632968], [2.7919853, 45.9630911], [2.7918228, 45.9628935], [2.7917184, 45.9625062], [2.7915849, 45.9622561], [2.7916429, 45.9620625], [2.7913354, 45.9618982], [2.7912657, 45.9616027], [2.7913122, 45.9613768], [2.791421, 45.9610867], [2.7911265, 45.9607919], [2.7907203, 45.9604046], [2.790494, 45.9602392], [2.7905768, 45.9598272], [2.790167, 45.9593556], [2.7894578, 45.9592349], [2.788019, 45.958667], [2.7880288, 45.9584785], [2.7894366, 45.9575235], [2.7899774, 45.9573084], [2.7900874, 45.9570564], [2.7908508, 45.9567748], [2.7914827, 45.9567108], [2.7917925, 45.9558186], [2.7916769, 45.9548585], [2.791799, 45.9538571], [2.7919748, 45.9532343], [2.7917114, 45.9528082], [2.7916565, 45.9521506], [2.7916467, 45.9520292], [2.7902747, 45.9518618], [2.7899521, 45.9515114], [2.7900367, 45.9509426], [2.789174, 45.9514611], [2.7886863, 45.9512455], [2.7884324, 45.9509324], [2.7879988, 45.9509101], [2.7880983, 45.9513747], [2.7883022, 45.9517293], [2.7883231, 45.9520382], [2.7869552, 45.9520315], [2.7863374, 45.9520526], [2.7854145, 45.9523437], [2.7849473, 45.9521406], [2.7840628, 45.9521794], [2.7834777, 45.9519458], [2.7820978, 45.9513689], [2.781454, 45.9509177], [2.7812593, 45.9503365], [2.7813169, 45.9487062], [2.7810697, 45.9476303], [2.7802779, 45.9463046], [2.7782503, 45.9446222], [2.7783427, 45.9438184], [2.7788883, 45.9430601], [2.7790307, 45.9423987], [2.7786959, 45.9408742], [2.777588, 45.9398596], [2.7760946, 45.9392644], [2.7758906, 45.9390034], [2.7755192, 45.9382671], [2.7756086, 45.9381006], [2.7754518, 45.9380779], [2.7750611, 45.9387495], [2.7744877, 45.9386925], [2.774052, 45.9383289], [2.7733963, 45.9371989], [2.7729611, 45.9362965], [2.7723902, 45.9356654], [2.7718924, 45.9352554], [2.7711564, 45.9348484], [2.7708131, 45.9346283], [2.7705137, 45.9341372], [2.7703786, 45.9340089], [2.7703196, 45.9341171], [2.7701813, 45.9340259], [2.7699119, 45.9337329], [2.769869, 45.9335426], [2.7696762, 45.9333609], [2.7693882, 45.9329931], [2.7697784, 45.9323232], [2.7697026, 45.9321239], [2.7697402, 45.9320614], [2.7696919, 45.9319495], [2.7701479, 45.9315129], [2.7707004, 45.9307108], [2.7713714, 45.9299856], [2.7714481, 45.9290712], [2.7715139, 45.9284821], [2.77165, 45.9282799], [2.7717036, 45.9281642], [2.7716687, 45.9280933], [2.7717304, 45.9278097], [2.7718432, 45.9275492], [2.7721108, 45.9270034], [2.7722065, 45.9269679], [2.7722579, 45.9269509], [2.7722909, 45.9269351], [2.772329, 45.9269277], [2.7723527, 45.926925], [2.7723737, 45.926916], [2.7723842, 45.9269204], [2.7724114, 45.9269158], [2.7724222, 45.9269226], [2.7724348, 45.9269349], [2.7724557, 45.9269366], [2.7725058, 45.9269407], [2.7725478, 45.9269386], [2.7725788, 45.9269346], [2.7726118, 45.9269373], [2.7726475, 45.926944], [2.7726831, 45.9269469], [2.7727133, 45.9269516], [2.7727381, 45.92696], [2.7729283, 45.9270735], [2.7731566, 45.9270788], [2.7732887, 45.9270675], [2.7734911, 45.9270502], [2.7739223, 45.9269755], [2.7740545, 45.9269642], [2.7741936, 45.9269626], [2.7743247, 45.9269762], [2.7743967, 45.9269823], [2.7744287, 45.9269814], [2.7744793, 45.926975], [2.77453, 45.9269686], [2.7745868, 45.9269833], [2.7746134, 45.9269853], [2.7746677, 45.9270052], [2.7747282, 45.9270424], [2.774757, 45.9270623], [2.7747647, 45.9270847], [2.7747786, 45.9271036], [2.7748226, 45.927103], [2.7748538, 45.9271073], [2.7748885, 45.9271217], [2.7749257, 45.9271458], [2.7749438, 45.9271612], [2.7749417, 45.9271813], [2.7749573, 45.9271848], [2.774974, 45.9271783], [2.7749967, 45.927189], [2.7750109, 45.9272081], [2.7750235, 45.9272262], [2.7750417, 45.927238], [2.7750683, 45.9272554], [2.7751023, 45.9272722], [2.7751303, 45.9272767], [2.7751537, 45.9272899], [2.775157, 45.9272997], [2.7751893, 45.9273189], [2.7752228, 45.9273388], [2.7752475, 45.927354], [2.7752861, 45.9273643], [2.7753162, 45.9273702], [2.775354, 45.9273846], [2.7753792, 45.9273857], [2.7754136, 45.927385], [2.7754359, 45.9273932], [2.7754571, 45.9273971], [2.7754783, 45.9273997], [2.7754982, 45.9274004], [2.7755136, 45.9274065], [2.7755256, 45.9274066], [2.7755408, 45.927401], [2.775559, 45.9274005], [2.7755754, 45.9274014], [2.7755937, 45.927408], [2.7756116, 45.92741], [2.7756348, 45.9274057], [2.7756561, 45.9273975], [2.7756702, 45.9273872], [2.7756943, 45.927384], [2.7757224, 45.9273837], [2.7757389, 45.927372], [2.7757569, 45.9273614], [2.7757802, 45.9273423], [2.7758002, 45.9273259], [2.775815, 45.927304], [2.7758214, 45.9272888], [2.7758359, 45.9272743], [2.7758473, 45.9272566], [2.7758487, 45.9272397], [2.775831, 45.9272252], [2.7758124, 45.9272171], [2.7758104, 45.9272045], [2.7757297, 45.9270949], [2.7756871, 45.9270277], [2.77489, 45.926471], [2.7746462, 45.9264004], [2.7743678, 45.9263318], [2.7742442, 45.9263288], [2.7742275, 45.926318], [2.7742091, 45.9263162], [2.7741922, 45.9263195], [2.7741841, 45.9263151], [2.7741692, 45.9263097], [2.7741507, 45.9263139], [2.7741394, 45.9263193], [2.7741298, 45.9263187], [2.7741301, 45.9263088], [2.7741282, 45.9262962], [2.7741263, 45.9262886], [2.774133, 45.9262806], [2.7741463, 45.9262766], [2.7741674, 45.9262599], [2.7742156, 45.926218], [2.7742583, 45.9261767], [2.7742711, 45.9261632], [2.7742836, 45.9261432], [2.7742966, 45.9261314], [2.774305, 45.9261143], [2.7743218, 45.9260996], [2.7743225, 45.9260889], [2.7743364, 45.9260791], [2.7743697, 45.9260527], [2.7743885, 45.9260356], [2.7744474, 45.9259082], [2.7744706, 45.9258945], [2.7744886, 45.9258707], [2.7745099, 45.9258127], [2.7745284, 45.9257649], [2.7745487, 45.925717], [2.7745651, 45.9256906], [2.7745939, 45.925644], [2.7746139, 45.9256099], [2.7746401, 45.9255883], [2.7746985, 45.9254833], [2.7747384, 45.9254294], [2.7747806, 45.9253612], [2.7748101, 45.925327], [2.7748319, 45.9252755], [2.7748664, 45.9252377], [2.7748868, 45.9252063], [2.7749164, 45.9251835], [2.774956, 45.9251565], [2.7749955, 45.9251373], [2.7750245, 45.9251232], [2.7750576, 45.9251192], [2.7750921, 45.9251151], [2.7751382, 45.9250744], [2.7752273, 45.9249868], [2.7752892, 45.9249315], [2.7753595, 45.9248376], [2.775436, 45.9247528], [2.7755224, 45.9246709], [2.7758314, 45.9243727], [2.7758578, 45.9243446], [2.7758801, 45.9243557], [2.7759697, 45.9242767], [2.7759951, 45.9242704], [2.7760172, 45.9242517], [2.7760204, 45.9242386], [2.7760194, 45.9242168], [2.7760271, 45.9242011], [2.776049, 45.9242014], [2.7760667, 45.9242014], [2.7760787, 45.9241837], [2.7760947, 45.9241793], [2.7761135, 45.9241852], [2.7761396, 45.9241788], [2.7761895, 45.924167], [2.7762417, 45.9241621], [2.7763034, 45.9241652], [2.776357, 45.9241578], [2.776409, 45.9241626], [2.7764396, 45.9241716], [2.7764892, 45.9241642], [2.7765393, 45.9241524], [2.7765691, 45.9241411], [2.776595, 45.9241477], [2.776625, 45.924162], [2.7766527, 45.9241753], [2.7767441, 45.9242143], [2.7770844, 45.9242965], [2.7778827, 45.9241938], [2.7789254, 45.9237252], [2.7798656, 45.9232525], [2.780756, 45.9229102], [2.7822249, 45.922816], [2.7833902, 45.9228085], [2.7849613, 45.9229652], [2.7864441, 45.9235206], [2.7872118, 45.9238976], [2.787186, 45.9239877], [2.7873478, 45.924068], [2.7881053, 45.9241819], [2.7890267, 45.9237374], [2.7892555, 45.9233429], [2.789438, 45.9229978], [2.7894799, 45.9227099], [2.7894478, 45.9223457], [2.7887672, 45.9219649], [2.7879467, 45.9216787], [2.7875599, 45.9210842], [2.7877049, 45.9208018], [2.7882373, 45.9206101], [2.7885006, 45.9203184], [2.7888023, 45.9201262], [2.789357, 45.9196], [2.7903546, 45.9185758], [2.7907836, 45.9183231], [2.7912793, 45.9181595], [2.7914333, 45.9183617], [2.791593, 45.9189194], [2.7918993, 45.9192074], [2.7917546, 45.9196396], [2.7918825, 45.9200278], [2.7917844, 45.9206982], [2.7920451, 45.9211114], [2.7926188, 45.9212979], [2.7928146, 45.9213231], [2.7943375, 45.920666], [2.7947182, 45.9204718], [2.7958788, 45.9202002], [2.7965463, 45.9197803], [2.7968206, 45.9194291], [2.796928, 45.9191185], [2.7967549, 45.9186969], [2.7964381, 45.9184197], [2.7953841, 45.9180206], [2.7949262, 45.9174445], [2.7944442, 45.9161429], [2.7946035, 45.9155575], [2.7937986, 45.9143926], [2.7934804, 45.9136213], [2.793836, 45.9131555], [2.7943463, 45.912915], [2.7951717, 45.9128757], [2.7955883, 45.9134557], [2.7957042, 45.9138312], [2.7958927, 45.9140456], [2.7966818, 45.9144252], [2.7974897, 45.9146043], [2.7980879, 45.9145925], [2.798705, 45.9143681], [2.7993641, 45.9137004], [2.7995523, 45.9133327], [2.7996045, 45.9131214], [2.7995577, 45.9129127], [2.7994542, 45.9126979], [2.7990893, 45.9123678], [2.7986187, 45.9120917], [2.797455, 45.911558], [2.7971447, 45.9113523], [2.7964583, 45.9111398], [2.7962559, 45.9112147], [2.7968794, 45.9114479], [2.7977074, 45.9117912], [2.798458, 45.9121644], [2.7989299, 45.9124687], [2.7992881, 45.9128192], [2.7993765, 45.9130676], [2.7993205, 45.9133377], [2.7988979, 45.9139355], [2.7983934, 45.9143309], [2.7980822, 45.9144151], [2.7977394, 45.9144052], [2.7973732, 45.9143444], [2.7960945, 45.9136597], [2.7956302, 45.9128653], [2.795174, 45.9121682], [2.7946002, 45.9119467], [2.7934272, 45.9122391], [2.7928674, 45.9128307], [2.7927756, 45.9133838], [2.7928502, 45.9145447], [2.7928494, 45.9150363], [2.7933169, 45.915741], [2.7938239, 45.9174746], [2.7942338, 45.9178568], [2.7945909, 45.9182466], [2.7950133, 45.9184557], [2.7960102, 45.9186882], [2.7963338, 45.9190307], [2.7960917, 45.9194986], [2.7951383, 45.9198531], [2.7927597, 45.920436], [2.7932391, 45.918055], [2.793061, 45.9177427], [2.792559, 45.9173979], [2.7917497, 45.9172448], [2.7910373, 45.9171174], [2.7904476, 45.917317], [2.7898161, 45.9176496], [2.7893781, 45.9179304], [2.7886336, 45.9188507], [2.7881843, 45.9192058], [2.7877442, 45.919831], [2.7871145, 45.9202025], [2.7867476, 45.9201218], [2.7865351, 45.9200962], [2.786465, 45.9202734], [2.7861413, 45.9205161], [2.7859875, 45.9209954], [2.7862908, 45.9217953], [2.7871005, 45.9226024], [2.7873492, 45.9227206], [2.787554, 45.9227388], [2.7881305, 45.9229144], [2.7873511, 45.9231042], [2.7867364, 45.922759], [2.7858174, 45.9221619], [2.785643, 45.9221109], [2.7843383, 45.9218821], [2.7817735, 45.9216561], [2.7786209, 45.9215808], [2.7787175, 45.9216749], [2.7765929, 45.9220116], [2.7749753, 45.92255], [2.7733128, 45.9225376], [2.7720201, 45.921176], [2.7712536, 45.9201874], [2.7699279, 45.9190934], [2.7679457, 45.9176364], [2.7668165, 45.9174062], [2.7648853, 45.9167266], [2.7644669, 45.9166374], [2.7638221, 45.9165485], [2.7616148, 45.9157532], [2.7609622, 45.913972], [2.7608036, 45.9121082], [2.7610248, 45.9114369], [2.7611414, 45.9108921], [2.7616249, 45.9099748], [2.7612911, 45.9090022], [2.760313, 45.9084548], [2.7592497, 45.9076006], [2.7581493, 45.9073465], [2.7575976, 45.9067422], [2.7573792, 45.9062773], [2.7571257, 45.9062535], [2.7570739, 45.9063096], [2.7569766, 45.9064152], [2.756552, 45.9068756], [2.7563547, 45.9069792], [2.7560534, 45.9071375], [2.7556288, 45.9072315], [2.755464, 45.907268], [2.7551647, 45.9073342], [2.7549377, 45.9074183], [2.7549155, 45.9074265], [2.754536, 45.907567], [2.7538733, 45.9082555], [2.753254, 45.9090698], [2.7522043, 45.9093487], [2.7519114, 45.9095095], [2.7516409, 45.909582], [2.7506481, 45.9091485], [2.7498443, 45.9086936], [2.7490184, 45.9078593], [2.7479323, 45.9068008], [2.7479318, 45.9065997], [2.7477108, 45.906323], [2.747685, 45.9060986], [2.7473351, 45.9055215], [2.7470965, 45.9052544], [2.7468207, 45.9051196], [2.7466625, 45.9042242], [2.7465698, 45.9040693], [2.7462356, 45.9045571], [2.7459326, 45.904774], [2.745263, 45.9045862], [2.7447808, 45.9042125], [2.7443806, 45.9041289], [2.7442706, 45.9040505], [2.7442062, 45.903806], [2.7440426, 45.9039609], [2.7437637, 45.9041065], [2.7426861, 45.9040699], [2.741257, 45.9042288], [2.7400107, 45.9048293], [2.7386821, 45.9058844], [2.7384431, 45.9067261], [2.7388015, 45.9077383], [2.7390092, 45.9079811], [2.7390478, 45.9086668], [2.7392071, 45.9089591], [2.7400701, 45.9106258], [2.7401319, 45.9108571], [2.7398584, 45.9110511], [2.7394029, 45.9109966], [2.7386907, 45.9103604], [2.7376589, 45.9098265], [2.7372824, 45.9095579], [2.7367946, 45.9091203], [2.7362336, 45.9088672], [2.735791, 45.908721], [2.7349621, 45.9086398], [2.7346263, 45.9086603], [2.7339787, 45.9084203], [2.7329224, 45.9077132], [2.7315187, 45.9075225], [2.7302879, 45.9069645], [2.7297008, 45.9065963], [2.7293361, 45.9061228], [2.7292878, 45.9053981], [2.7293361, 45.9051629], [2.7294806, 45.9049609], [2.7293656, 45.904379], [2.7291867, 45.9040884], [2.7285977, 45.9034579], [2.7282675, 45.9033745], [2.7276744, 45.9033676], [2.7271479, 45.9034124], [2.726564, 45.9035349], [2.7265079, 45.9036789], [2.726339, 45.903845], [2.7267491, 45.9038074], [2.7270811, 45.9039823], [2.727926, 45.9042294], [2.7286699, 45.9046215], [2.7284554, 45.9057389], [2.7284509, 45.906656], [2.7286864, 45.9071889], [2.7297963, 45.908065], [2.7307618, 45.9084272], [2.7318937, 45.9088818], [2.733475, 45.9091369], [2.734193, 45.9093657], [2.7347407, 45.9097448], [2.7362351, 45.9101015], [2.7377801, 45.9107545], [2.7390815, 45.911399], [2.7402339, 45.9117342], [2.7409841, 45.9116128], [2.7415572, 45.9110594], [2.7415907, 45.9102777], [2.74149, 45.9096055], [2.7410364, 45.908904], [2.7403784, 45.908128], [2.7404619, 45.9078343], [2.7415491, 45.9066624], [2.7423434, 45.9064809], [2.7423926, 45.9065931], [2.7429719, 45.9067283], [2.7441484, 45.9070029], [2.7464595, 45.9077773], [2.7468736, 45.9082279], [2.7482771, 45.9093384], [2.7503515, 45.9107523], [2.7505019, 45.910799], [2.7508753, 45.9112925], [2.7511312, 45.9112086], [2.751553, 45.9112261], [2.7519872, 45.911257], [2.7525097, 45.9113673], [2.7527514, 45.9113197], [2.7533842, 45.9114695], [2.7537295, 45.9114084], [2.753855, 45.9114492], [2.7541181, 45.9112373], [2.7542993, 45.9111691], [2.7544994, 45.9112667], [2.7546642, 45.9111886], [2.7551258, 45.9111275], [2.7552192, 45.9109312], [2.7554288, 45.9107785], [2.7556325, 45.9108019], [2.7560386, 45.9107242], [2.7563927, 45.9106437], [2.7565128, 45.9105507], [2.7565593, 45.9105334], [2.7565918, 45.9105296], [2.756607, 45.9105515], [2.7566295, 45.9105711], [2.7566971, 45.9106231], [2.75674, 45.9106649], [2.756753, 45.9107159], [2.756841, 45.9108208], [2.7568868, 45.9108852], [2.7569306, 45.9109266], [2.7569843, 45.9109911], [2.7570165, 45.911013], [2.7570687, 45.9110596], [2.7571382, 45.9111159], [2.7573203, 45.9113099], [2.7573501, 45.9113468], [2.7573732, 45.9113884], [2.7573828, 45.9114368], [2.7573808, 45.9115032], [2.7573775, 45.9115468], [2.757363, 45.9115953], [2.75737, 45.9116418], [2.757375, 45.9116751], [2.7573931, 45.9117042], [2.7574173, 45.9117265], [2.7574558, 45.9117512], [2.7575005, 45.9118032], [2.7575176, 45.9118318], [2.757533, 45.9118616], [2.7575498, 45.9119011], [2.7575582, 45.911959], [2.7575526, 45.9120006], [2.7575444, 45.9120435], [2.7575302, 45.912083], [2.757518, 45.9120989], [2.7575163, 45.9121197], [2.757515, 45.9121356], [2.7575235, 45.9121523], [2.7575442, 45.9121862], [2.7575564, 45.9122287], [2.7575344, 45.9122805], [2.7575208, 45.9123313], [2.7575112, 45.912369], [2.7575115, 45.9124067], [2.7575122, 45.9124526], [2.7575016, 45.9124676], [2.7574936, 45.9124958], [2.7574851, 45.9125366], [2.7574723, 45.9125763], [2.7574771, 45.9126237], [2.7574597, 45.9126513], [2.7574561, 45.912685], [2.7574599, 45.9127227], [2.7574533, 45.9127509], [2.7574348, 45.9127833], [2.7574115, 45.91281], [2.7573799, 45.9128298], [2.7573533, 45.9128461], [2.7573267, 45.9128766], [2.7572956, 45.9129079], [2.7572386, 45.9129367], [2.7571962, 45.9129454], [2.7571711, 45.9129612], [2.7571132, 45.9129807], [2.7570023, 45.9130061], [2.756818, 45.9130582], [2.7566778, 45.91309], [2.7566265, 45.9131205], [2.7566026, 45.9131638], [2.7565884, 45.9132104], [2.7565883, 45.9132724], [2.7565981, 45.9133316], [2.7566223, 45.9133818], [2.7566553, 45.9134435], [2.7566798, 45.9134926], [2.7567453, 45.9140438], [2.7567574, 45.9141453], [2.7567652, 45.9143217], [2.7567733, 45.9144147], [2.7567939, 45.9144949], [2.7568286, 45.9145639], [2.7569085, 45.914626], [2.7569629, 45.9146904], [2.7570174, 45.9147418], [2.7570829, 45.9147941], [2.7571594, 45.9148388], [2.7573288, 45.9149358], [2.7574109, 45.91498], [2.7574889, 45.9150365], [2.7575533, 45.9150778], [2.7575901, 45.9151163], [2.7576048, 45.9151472], [2.7575907, 45.9151964], [2.7575711, 45.9152343], [2.7575387, 45.9152854], [2.7570265, 45.91565], [2.7567818, 45.9157939], [2.7568076, 45.9158838], [2.7573585, 45.9160414], [2.7574879, 45.9159896], [2.7575576, 45.9158926], [2.7577186, 45.9157918], [2.7579062, 45.9157863], [2.7582939, 45.9158731], [2.7584065, 45.916091], [2.758584, 45.9164272], [2.7589041, 45.9167771], [2.7593276, 45.917123], [2.7596844, 45.9173807], [2.7601701, 45.9178146], [2.7605007, 45.9181181], [2.7605939, 45.9183258], [2.7607334, 45.918296], [2.761023, 45.9183632], [2.7618492, 45.9186048], [2.7631112, 45.9189546], [2.7643593, 45.9194277], [2.7644686, 45.9195304], [2.7646028, 45.9194776], [2.7658574, 45.9198062], [2.7672167, 45.920275], [2.7675157, 45.9205055], [2.7677127, 45.9207784], [2.7681792, 45.9210104], [2.7685072, 45.921836], [2.7685503, 45.9223659], [2.7686908, 45.9227512], [2.768762, 45.9231996], [2.7687183, 45.9233564], [2.7687564, 45.9234646], [2.7688977, 45.9238725], [2.7687956, 45.924677], [2.7689892, 45.925084], [2.7690608, 45.9254853], [2.7691981, 45.9258323], [2.7691379, 45.926321], [2.7692958, 45.9265626], [2.7692994, 45.9272814], [2.7695391, 45.9275318], [2.769653, 45.9276791], [2.7696061, 45.9278471], [2.7695308, 45.9279885], [2.76948, 45.928084], [2.7694935, 45.9282015], [2.7694452, 45.9282995], [2.7691533, 45.9284145], [2.7690456, 45.9284748], [2.7690148, 45.9285193], [2.76889, 45.9286996], [2.7687498, 45.9288832], [2.7681738, 45.9292743], [2.7680337, 45.9293091], [2.7677554, 45.9293209], [2.7673762, 45.9293231], [2.7668461, 45.9291567], [2.7665618, 45.9291175], [2.766379, 45.9291795], [2.765662, 45.9291948], [2.7650303, 45.9290588], [2.7649969, 45.9290892], [2.7649699, 45.9291138], [2.7650289, 45.9291791], [2.7655714, 45.9293493], [2.766138, 45.9294739], [2.7665103, 45.9296326], [2.7668247, 45.9298293], [2.7670366, 45.9299981], [2.7675193, 45.9301511], [2.7679876, 45.9302289], [2.768695, 45.9305158], [2.7687263, 45.9306137], [2.7684903, 45.9309757], [2.7681845, 45.93136], [2.767886, 45.9319415], [2.7679539, 45.9328262], [2.7680504, 45.933121], [2.76817, 45.9337397], [2.7685332, 45.9343223], [2.7692369, 45.9351823], [2.7706324, 45.9361178], [2.7707058, 45.9362661], [2.7708989, 45.9363929], [2.7709418, 45.9366578], [2.7709955, 45.9369413], [2.7712905, 45.937292], [2.7715326, 45.9377439], [2.7715856, 45.9380008], [2.7718055, 45.9381986], [2.7719343, 45.9383963], [2.771886, 45.9385045], [2.7718699, 45.938594], [2.7719235, 45.9386947], [2.7722347, 45.9388141], [2.77246, 45.9390603], [2.772731, 45.9391997], [2.7731091, 45.9394931], [2.7742839, 45.9401944], [2.7745663, 45.9404592], [2.7748364, 45.9403809], [2.7752709, 45.9403511], [2.7756411, 45.9405152], [2.7758557, 45.9405451], [2.7762599, 45.9408319], [2.776612, 45.9412911], [2.7768266, 45.941556], [2.7770466, 45.9417649], [2.7771645, 45.942067], [2.7767443, 45.9428417], [2.7760772, 45.9440066], [2.7764512, 45.9452445], [2.7768129, 45.9456434], [2.7776807, 45.9460027], [2.7790994, 45.9474632], [2.7787365, 45.9481607], [2.7787884, 45.9483053], [2.7792846, 45.9482817], [2.7794076, 45.9485189], [2.7793819, 45.9497456], [2.779666, 45.9512874], [2.7797171, 45.9519073], [2.7804854, 45.9521344], [2.7816625, 45.9528111], [2.7832949, 45.9532277], [2.7846531, 45.9536002], [2.785772, 45.9535357], [2.7865747, 45.9536954], [2.7872398, 45.9535342], [2.7879283, 45.9535878], [2.7885115, 45.9535113], [2.7889521, 45.9532521], [2.7898461, 45.9534859], [2.789727, 45.95553], [2.7891651, 45.9559192], [2.785304, 45.9575855], [2.7849564, 45.9575689], [2.7842833, 45.9580754], [2.7848147, 45.9587261], [2.7850642, 45.9597098], [2.7852637, 45.9599615], [2.785708, 45.9598826], [2.7876429, 45.9601404], [2.7884105, 45.9604429], [2.7887897, 45.9608615], [2.7893283, 45.961527], [2.7895021, 45.9623383], [2.7894305, 45.9631339], [2.7894175, 45.9641977], [2.7896987, 45.964804], [2.7898173, 45.965793], [2.7898442, 45.965913], [2.7896093, 45.9662611], [2.7895933, 45.9665924], [2.7896676, 45.9670102], [2.7896386, 45.9670789], [2.7895023, 45.9671253], [2.7894013, 45.9670912], [2.7892531, 45.9671274], [2.788871, 45.9671325], [2.7881204, 45.9674477], [2.7877032, 45.9674817], [2.787339, 45.9673969], [2.7872855, 45.9680529], [2.7873167, 45.9682376], [2.7872604, 45.9683553], [2.7870731, 45.9684996], [2.7868429, 45.9685396], [2.7866029, 45.9684738], [2.7863966, 45.9683905], [2.7859641, 45.9682158], [2.7852918, 45.9680312], [2.7849354, 45.968176], [2.7846527, 45.9681464], [2.784363, 45.9684673], [2.7840346, 45.9691561], [2.7840009, 45.9698929], [2.7838562, 45.9700053], [2.7837684, 45.9700519], [2.7836259, 45.9701429], [2.7833818, 45.9701586], [2.7831282, 45.9700954], [2.7824859, 45.9693519], [2.7822271, 45.9691595], [2.7817914, 45.9689856], [2.7817039, 45.9689371], [2.7816498, 45.9688712], [2.7815804, 45.9687318], [2.7813969, 45.9684468], [2.7813414, 45.9683184], [2.7811921, 45.9682218], [2.7810499, 45.9681487], [2.7808741, 45.9680931], [2.7808158, 45.967908], [2.7800133, 45.9673015], [2.7797892, 45.9671955], [2.7795477, 45.9671543], [2.7794386, 45.9672715], [2.7794512, 45.9672904], [2.7796268, 45.9673377], [2.7801829, 45.9677438], [2.7804056, 45.9682401], [2.7810865, 45.9687422], [2.7810284, 45.9687874], [2.7811407, 45.968889], [2.7811487, 45.9689644], [2.7812432, 45.9691084], [2.7813519, 45.9691932], [2.781424, 45.9693007], [2.781515, 45.9693819], [2.7816555, 45.9694172], [2.7817658, 45.9694397], [2.7818448, 45.9695035], [2.7818943, 45.9695478], [2.7819953, 45.9696785], [2.7820459, 45.9697267], [2.7821341, 45.9698356], [2.782167, 45.969878], [2.7822637, 45.9700028], [2.7822995, 45.9700287], [2.78235, 45.9700928], [2.7823925, 45.9701638], [2.7824816, 45.9702228], [2.7825507, 45.9702946], [2.7825838, 45.97038], [2.7826547, 45.9704535], [2.7826899, 45.970564], [2.7827044, 45.9706455], [2.7826797, 45.9707271], [2.7827081, 45.970802], [2.7828124, 45.9708503], [2.7829166, 45.9708729], [2.7830478, 45.9708825], [2.7833355, 45.9709556], [2.7833907, 45.9709593], [2.7834575, 45.9709546], [2.7835323, 45.9709386], [2.7835982, 45.9709227], [2.7836715, 45.9709029], [2.7837789, 45.9708847], [2.7838276, 45.9708709], [2.7838712, 45.9708598], [2.7838894, 45.9708407], [2.7839453, 45.9708026], [2.7839804, 45.970775], [2.7840248, 45.970734], [2.7840627, 45.9706858], [2.7840806, 45.9706559], [2.784249, 45.9704464], [2.7845321, 45.970295], [2.7845739, 45.970245], [2.7846221, 45.9702095], [2.7849561, 45.9699148], [2.7849791, 45.9697908], [2.7850361, 45.9696158], [2.7850839, 45.9695346], [2.7851126, 45.9694574], [2.7851412, 45.9693801], [2.7852324, 45.9692926], [2.7853403, 45.9692412], [2.7858186, 45.9693484], [2.7858404, 45.9693655], [2.7858829, 45.9693722], [2.7859613, 45.9693826], [2.7860133, 45.9693929], [2.7860536, 45.9694066], [2.7860876, 45.9694205], [2.7861169, 45.9694343], [2.7861499, 45.9694498], [2.7861812, 45.9694683], [2.7862162, 45.9695133], [2.7862363, 45.9695554], [2.7862486, 45.9696057], [2.7862574, 45.9696377], [2.7862881, 45.9696525], [2.7863244, 45.9696623], [2.7863502, 45.9696851], [2.7863967, 45.9696931], [2.7864454, 45.9697015], [2.7865264, 45.9697099], [2.7866024, 45.9697286], [2.7868824, 45.969806], [2.7871428, 45.9698149], [2.7873313, 45.9698026], [2.7876537, 45.9697891], [2.7880203, 45.9697217], [2.7880862, 45.9697104], [2.7881842, 45.969711], [2.7882728, 45.9697203], [2.7883335, 45.9697623], [2.7883596, 45.9698294], [2.7883942, 45.9699373], [2.7883054, 45.9703339], [2.7883957, 45.9709583], [2.7886401, 45.9714794], [2.7888216, 45.9718813], [2.7893355, 45.9723559], [2.7905577, 45.9726967], [2.7910005, 45.9726826], [2.7913937, 45.9727352], [2.7919173, 45.9726744], [2.7922207, 45.972761], [2.793046, 45.9728816], [2.7933442, 45.9729169], [2.7935393, 45.9730153], [2.7936342, 45.9731334], [2.7936736, 45.9732298], [2.793645, 45.9732985], [2.7935784, 45.973357], [2.7935035, 45.9734199], [2.7933964, 45.9734454], [2.79328, 45.9735064], [2.7921819, 45.9735729], [2.7918629, 45.9734676], [2.7915493, 45.9733212], [2.7915494, 45.9734433], [2.7913887, 45.9734685], [2.7910996, 45.9732671], [2.7909894, 45.9733227], [2.7908672, 45.9732648], [2.7905894, 45.9733839], [2.7904351, 45.9733775], [2.7902438, 45.9734182], [2.7897646, 45.9733991], [2.7893307, 45.9736101], [2.7891064, 45.9738003], [2.7885819, 45.9743301], [2.7883548, 45.9745831], [2.788008, 45.9747521], [2.7866026, 45.9749864], [2.78622, 45.9751684], [2.7857486, 45.9750429], [2.7851167, 45.9750705], [2.7846761, 45.9751896], [2.7843531, 45.9754364], [2.7836285, 45.976302], [2.7832079, 45.9771571], [2.7823825, 45.9775481], [2.7819901, 45.9779435], [2.7819577, 45.9781816], [2.7819952, 45.9784314], [2.7818397, 45.9786886], [2.7817538, 45.9787371], [2.7816385, 45.9786103], [2.7816036, 45.9781826], [2.7813971, 45.9779132], [2.7808741, 45.9778172], [2.7804637, 45.9777408], [2.7800399, 45.9777874], [2.7797395, 45.9779626], [2.7794927, 45.9782832], [2.7791172, 45.9787045], [2.7789384, 45.9789912], [2.7786076, 45.9792692], [2.778322, 45.9794789], [2.7782609, 45.979601], [2.7787203, 45.9795302], [2.7789831, 45.9792935], [2.7792916, 45.978971], [2.7795625, 45.9786486], [2.7798361, 45.9783112], [2.7800024, 45.9781099], [2.780174, 45.9780316], [2.7806005, 45.9780894], [2.7809545, 45.9782133], [2.7810001, 45.9787874], [2.7810484, 45.979149], [2.7815124, 45.9791938], [2.7822286, 45.9791527], [2.7824244, 45.9788825], [2.7822018, 45.9787035], [2.782234, 45.9785526], [2.7823895, 45.9784911], [2.7827013, 45.9782807], [2.7834343, 45.9778686], [2.7840331, 45.977286], [2.7842439, 45.9769695], [2.7843827, 45.9765732], [2.7847286, 45.9763605], [2.7848657, 45.9761124], [2.7852898, 45.9758174], [2.7859478, 45.9758928], [2.7869489, 45.9757568], [2.7879816, 45.9758099], [2.7887376, 45.9757145], [2.789248, 45.9755755], [2.7897242, 45.9752852], [2.7900302, 45.9748836], [2.7906095, 45.9746834], [2.791281, 45.9748757], [2.7923294, 45.9750566], [2.7932978, 45.9749316], [2.7935655, 45.9749456], [2.7938097, 45.9749966], [2.7939529, 45.9750543], [2.7940547, 45.9751194], [2.7941835, 45.9751609], [2.7943054, 45.9751879], [2.7943664, 45.9751585], [2.7944825, 45.9752076], [2.7946585, 45.9753648], [2.7952497, 45.9757107], [2.7952952, 45.9753951], [2.7956209, 45.9752226], [2.7957804, 45.9750698], [2.7960902, 45.9748899], [2.7963652, 45.974792], [2.7967568, 45.9746746], [2.7971725, 45.9745273], [2.797485, 45.974381], [2.7975326, 45.9743731], [2.7976184, 45.9742855], [2.7976962, 45.9743214], [2.797715, 45.974278], [2.7978109, 45.974217], [2.7980174, 45.9741298], [2.7982387, 45.974011], [2.7984399, 45.973901], [2.7985686, 45.9738563], [2.7986906, 45.9738423], [2.7987445, 45.9738502]]]}}, {"type": "Feature", "properties": {"name": "Plan d'eau d'Anschald"}, "geometry": {"type": "Polygon", "coordinates": [[[2.8445955, 45.8450594], [2.8447706, 45.8439719], [2.8445504, 45.8439525], [2.8442376, 45.8437333], [2.8441712, 45.8434441], [2.8436399, 45.8429546], [2.8429918, 45.8424343], [2.8424132, 45.8418792], [2.8417813, 45.8414976], [2.8412522, 45.841382], [2.8402095, 45.841324], [2.8397642, 45.8411667], [2.8387435, 45.8412367], [2.8384762, 45.8416043], [2.8381356, 45.8419671], [2.8376715, 45.8422798], [2.8374243, 45.8425103], [2.8377025, 45.8433148], [2.837816, 45.8441628], [2.8374421, 45.8445918], [2.8375764, 45.8450493], [2.8377428, 45.8453303], [2.8383373, 45.845314], [2.8386826, 45.8449893], [2.83895, 45.8448653], [2.8391223, 45.8447204], [2.8393295, 45.8444779], [2.8393414, 45.8444692], [2.8395416, 45.8443233], [2.8397186, 45.8441589], [2.8398473, 45.8440559], [2.8401158, 45.8440532], [2.8401415, 45.8440529], [2.8403509, 45.8440795], [2.8405501, 45.8441174], [2.840739, 45.8441974], [2.8408644, 45.8443031], [2.841007, 45.8444027], [2.8411515, 45.8447887], [2.841297, 45.8449562], [2.8414168, 45.8450309], [2.8416479, 45.8450711], [2.8425089, 45.845002], [2.8428362, 45.8449818], [2.8437634, 45.8449025], [2.8439434, 45.8448921], [2.8439909, 45.8448869], [2.8440431, 45.844766], [2.8440883, 45.8447768], [2.844129, 45.8447926], [2.8440996, 45.8448914], [2.8441738, 45.8449279], [2.8445955, 45.8450594]]]}}, {"type": "Feature", "properties": {"name": "Lac de l'Esclauze"}, "geometry": {"type": "Polygon", "coordinates": [[[2.7792855, 45.3910303], [2.7791874, 45.3907708], [2.7787693, 45.3905693], [2.7776648, 45.390619], [2.7771707, 45.3908341], [2.7755319, 45.3906194], [2.7750552, 45.3906919], [2.7743241, 45.3911997], [2.7737163, 45.391752], [2.7735484, 45.3918092], [2.7734143, 45.3919718], [2.7733915, 45.3920995], [2.773573, 45.392447], [2.7733909, 45.3926499], [2.7727324, 45.3927378], [2.7721209, 45.3926642], [2.7720025, 45.3927096], [2.7719472, 45.3928571], [2.7719369, 45.3928846], [2.7718397, 45.3931531], [2.7722192, 45.3934904], [2.7720419, 45.3938978], [2.770961, 45.3943819], [2.7715501, 45.3948175], [2.7722865, 45.3950634], [2.7723187, 45.395162], [2.772249, 45.3952024], [2.7730353, 45.3952794], [2.773665, 45.3953961], [2.7740089, 45.3954964], [2.7744966, 45.3955854], [2.7749395, 45.3957643], [2.7755589, 45.3956018], [2.7761363, 45.3953653], [2.7761763, 45.3951457], [2.7766674, 45.3948462], [2.7771781, 45.3946063], [2.7774962, 45.394246], [2.7777113, 45.3941684], [2.7779935, 45.3942364], [2.7782593, 45.3941269], [2.7783923, 45.3939589], [2.7783985, 45.3938088], [2.7786369, 45.3936191], [2.7791382, 45.3936587], [2.7794914, 45.3936178], [2.7798316, 45.3934767], [2.7799161, 45.3933922], [2.7798768, 45.3932271], [2.780018, 45.3930974], [2.7802015, 45.3930773], [2.7799327, 45.3930322], [2.7797577, 45.3929012], [2.7798467, 45.3928198], [2.7800858, 45.3928695], [2.7803847, 45.3929176], [2.78049, 45.3926354], [2.780374, 45.3926117], [2.7805, 45.3925375], [2.7803508, 45.3921882], [2.7799499, 45.3920812], [2.7797839, 45.3918078], [2.7798314, 45.391726], [2.7797336, 45.391558], [2.7797984, 45.3914037], [2.7792855, 45.3910303]]]}}, {"type": "Feature", "properties": {"name": "Gour de Tazenat"}, "geometry": {"type": "Polygon", "coordinates": [[[2.9944971, 45.9819842], [2.9948989, 45.9812252], [2.9951576, 45.9806902], [2.9952284, 45.980184], [2.995135, 45.9798179], [2.9949753, 45.9794731], [2.9946112, 45.978952], [2.9942436, 45.9784978], [2.9929499, 45.977766], [2.9918538, 45.9775727], [2.9912354, 45.9776257], [2.9902009, 45.9776726], [2.9886507, 45.9781676], [2.987673, 45.9788453], [2.9872037, 45.9793986], [2.9870245, 45.9798543], [2.9867504, 45.9802858], [2.9867556, 45.9806329], [2.9869058, 45.9814572], [2.9870868, 45.981679], [2.9872014, 45.9819596], [2.9874344, 45.9825224], [2.987794, 45.9829183], [2.9880683, 45.9830516], [2.9885393, 45.9832248], [2.9885999, 45.9833176], [2.9887562, 45.9833302], [2.988919, 45.9834098], [2.9889354, 45.9834609], [2.9890033, 45.9834666], [2.9890819, 45.9834507], [2.9894264, 45.9835545], [2.989649, 45.9835201], [2.9897594, 45.983565], [2.9899863, 45.983568], [2.99012, 45.9835326], [2.9903466, 45.9835664], [2.9905528, 45.9835351], [2.9906145, 45.9835532], [2.990797, 45.9835301], [2.9908326, 45.9834972], [2.9909172, 45.9834762], [2.9911193, 45.9834532], [2.9912945, 45.9833958], [2.9914621, 45.9833499], [2.9916149, 45.9833308], [2.9917308, 45.9833199], [2.9919441, 45.9832819], [2.9920697, 45.9831816], [2.9920556, 45.9829684], [2.9921752, 45.9829287], [2.9923711, 45.9829615], [2.9924483, 45.9830212], [2.9924581, 45.9830871], [2.9925802, 45.9831085], [2.9927947, 45.9830643], [2.9930682, 45.9829311], [2.9933969, 45.9828355], [2.9938019, 45.982651], [2.994255, 45.9823406], [2.9944971, 45.9819842]]]}}, {"type": "Feature", "properties": {"name": "Étang de Chancelade"}, "geometry": {"type": "Polygon", "coordinates": [[[2.6155521, 45.9681942], [2.6157904, 45.9680277], [2.6160221, 45.9677727], [2.6161051, 45.9675485], [2.616484, 45.9667466], [2.6165825, 45.9664544], [2.6166677, 45.9661434], [2.6169617, 45.9661351], [2.6171973, 45.9660092], [2.617509, 45.9657398], [2.6178589, 45.965656], [2.6180369, 45.9656409], [2.6182786, 45.9656351], [2.6184478, 45.9656359], [2.6187548, 45.9657138], [2.619042, 45.9658006], [2.6195917, 45.9659925], [2.619757, 45.9661012], [2.6198898, 45.9661657], [2.6200177, 45.9662128], [2.620186, 45.9664158], [2.6205634, 45.9666982], [2.6209381, 45.966649], [2.6212777, 45.9666496], [2.6218355, 45.9666194], [2.6220007, 45.9667728], [2.622187, 45.9667598], [2.6224578, 45.9666704], [2.6226804, 45.9665983], [2.6226923, 45.9665439], [2.6223942, 45.9664347], [2.6219095, 45.9661214], [2.6216833, 45.9662014], [2.621573, 45.966079], [2.6214074, 45.9660589], [2.6212502, 45.9659104], [2.6207665, 45.9654434], [2.6208, 45.9651914], [2.6204524, 45.9647087], [2.6198483, 45.9634074], [2.6199672, 45.9628415], [2.6202347, 45.9626194], [2.6203511, 45.9625228], [2.6208185, 45.9623524], [2.6211128, 45.9622694], [2.6214741, 45.9621966], [2.6224242, 45.9620444], [2.6224912, 45.9618322], [2.6229295, 45.9612213], [2.6231682, 45.9610854], [2.6232991, 45.9608962], [2.623941, 45.9606715], [2.6246436, 45.9604255], [2.6256492, 45.9603415], [2.6261384, 45.9603827], [2.6262295, 45.9604402], [2.6262953, 45.9605668], [2.6262529, 45.9606936], [2.6263517, 45.9610075], [2.6263319, 45.9613508], [2.6263916, 45.9616481], [2.6263454, 45.9617116], [2.626509, 45.9619824], [2.6267012, 45.9619245], [2.6272078, 45.9617723], [2.6274509, 45.9616674], [2.6278748, 45.9616086], [2.6282565, 45.9617025], [2.6285809, 45.9617741], [2.6288058, 45.9619409], [2.6291216, 45.9621414], [2.6295652, 45.9623447], [2.6298747, 45.9625558], [2.6300357, 45.9626031], [2.6303674, 45.9630216], [2.6307126, 45.9631508], [2.6311527, 45.9630338], [2.6314068, 45.9630722], [2.6316695, 45.9628926], [2.6314039, 45.9625959], [2.6312348, 45.9624569], [2.631321, 45.9622738], [2.6312402, 45.9619595], [2.630669, 45.9613084], [2.6303072, 45.961112], [2.629894, 45.9606914], [2.6296431, 45.9604112], [2.6295603, 45.9600745], [2.6295034, 45.9599379], [2.6294713, 45.9596778], [2.6293289, 45.9595186], [2.6293901, 45.9594239], [2.6294025, 45.9592767], [2.6292923, 45.9591992], [2.6292956, 45.9589745], [2.6294618, 45.9587701], [2.6295975, 45.9587472], [2.6296882, 45.958614], [2.6296698, 45.958358], [2.6298984, 45.9582363], [2.629912, 45.9580445], [2.630356, 45.9577453], [2.6303988, 45.9576183], [2.6303337, 45.9576006], [2.630349, 45.9575448], [2.6303881, 45.9575487], [2.6303807, 45.9575262], [2.6304271, 45.9575178], [2.6302537, 45.9571215], [2.630032, 45.9567328], [2.6299034, 45.9567124], [2.6290128, 45.9564506], [2.6281926, 45.9561046], [2.6276474, 45.9563302], [2.6271705, 45.9568841], [2.6271446, 45.9570383], [2.6266896, 45.9571258], [2.6258808, 45.9566086], [2.6257237, 45.9562217], [2.6254366, 45.9560897], [2.6249398, 45.9556168], [2.6247829, 45.9551941], [2.6248079, 45.9549294], [2.6248308, 45.9546663], [2.624584, 45.9545111], [2.6244526, 45.9546964], [2.6244667, 45.9548533], [2.6242447, 45.9552825], [2.6244969, 45.9560355], [2.624421, 45.956175], [2.6242158, 45.9561737], [2.6239477, 45.9564246], [2.6238743, 45.9565054], [2.6240002, 45.9568444], [2.6242007, 45.9570514], [2.6244747, 45.9571553], [2.6248081, 45.9572052], [2.6250776, 45.9572107], [2.6252169, 45.9572316], [2.6253157, 45.9573052], [2.6253069, 45.9574119], [2.6252415, 45.9575202], [2.6250418, 45.9576294], [2.6248135, 45.9577476], [2.6246401, 45.9578827], [2.6245723, 45.9579513], [2.624383, 45.9579933], [2.6241893, 45.9578501], [2.6238513, 45.95769], [2.6223322, 45.9570629], [2.6207826, 45.9568665], [2.6198634, 45.9563902], [2.6180906, 45.9570802], [2.6174741, 45.9569511], [2.6165324, 45.9568095], [2.615914, 45.9569911], [2.6158845, 45.9572877], [2.6160126, 45.9576139], [2.6161535, 45.9577043], [2.61624, 45.9577748], [2.6163543, 45.9578252], [2.6165106, 45.9578284], [2.616662, 45.9577948], [2.6167514, 45.9578103], [2.6169319, 45.95785], [2.6169261, 45.9578955], [2.6169869, 45.9579251], [2.6170641, 45.9579397], [2.6171708, 45.9579385], [2.6173022, 45.9579786], [2.6177428, 45.9583743], [2.6177678, 45.9583708], [2.6177813, 45.9583822], [2.6177827, 45.9584286], [2.6178731, 45.958523], [2.6179174, 45.9585366], [2.6179446, 45.9585753], [2.6180108, 45.9586346], [2.6180259, 45.9587003], [2.618061, 45.9587503], [2.6180978, 45.9587706], [2.6181092, 45.9588127], [2.6181166, 45.9589028], [2.6181845, 45.9589733], [2.61817, 45.9590162], [2.6180893, 45.9590425], [2.6180466, 45.9591121], [2.6180333, 45.9591859], [2.6180486, 45.9592498], [2.617244, 45.9594016], [2.6164997, 45.9593536], [2.615706, 45.9593853], [2.6152324, 45.9592447], [2.6142464, 45.9590887], [2.6135135, 45.9591275], [2.6129861, 45.9593058], [2.61276, 45.9595823], [2.6134784, 45.9598114], [2.6133065, 45.9601222], [2.613296, 45.9604912], [2.6136643, 45.9607078], [2.6139146, 45.9607556], [2.6141379, 45.9607457], [2.6143565, 45.9606955], [2.6147631, 45.9606037], [2.6153239, 45.9605587], [2.6154888, 45.9606881], [2.6157252, 45.9609982], [2.6158688, 45.9615376], [2.6158458, 45.9617702], [2.6156705, 45.9620276], [2.6156637, 45.9622801], [2.6157109, 45.9625765], [2.6156692, 45.9628187], [2.6155615, 45.9629092], [2.6152307, 45.9631132], [2.6148855, 45.9631859], [2.6150368, 45.9634533], [2.6149378, 45.9637295], [2.6147192, 45.9640415], [2.6143063, 45.964279], [2.6139921, 45.9646976], [2.6136887, 45.9648188], [2.6134182, 45.9649413], [2.6126346, 45.9650644], [2.6119748, 45.9654478], [2.6116542, 45.9656265], [2.6111076, 45.9656365], [2.6106614, 45.9657596], [2.6101625, 45.9658041], [2.609428, 45.9660663], [2.6094191, 45.9664013], [2.6099064, 45.9665152], [2.6108759, 45.9671583], [2.6115895, 45.9676568], [2.6124947, 45.967873], [2.6130917, 45.9680721], [2.6132489, 45.9681706], [2.6133842, 45.9686277], [2.6135848, 45.9688027], [2.6138366, 45.9689052], [2.6140256, 45.9689615], [2.6141997, 45.9689749], [2.6147297, 45.9687631], [2.6151323, 45.9685362], [2.6155521, 45.9681942]]]}}, {"type": "Feature", "properties": {"name": "Lac de la Landie"}, "geometry": {"type": "Polygon", "coordinates": [[[2.7704093, 45.4214563], [2.7691241, 45.4210211], [2.7686597, 45.4211387], [2.7677135, 45.4208673], [2.767297, 45.4207726], [2.767179, 45.4207457], [2.7668914, 45.4206803], [2.7662822, 45.4203737], [2.7659345, 45.4201987], [2.7656036, 45.4200322], [2.7652142, 45.4198362], [2.7643784, 45.4196967], [2.764262, 45.4194589], [2.763291, 45.4189639], [2.7631991, 45.4189171], [2.7630186, 45.4186206], [2.7626338, 45.4184971], [2.7625038, 45.4184221], [2.7620626, 45.4184094], [2.7619517, 45.4184746], [2.7617682, 45.4185672], [2.7616592, 45.418628], [2.7615664, 45.4186393], [2.7614515, 45.4185925], [2.7615961, 45.4183717], [2.761398, 45.4184573], [2.7613567, 45.4185151], [2.7613549, 45.4185692], [2.7614002, 45.4186036], [2.7615366, 45.4186517], [2.7615417, 45.418723], [2.7614483, 45.4188025], [2.7613725, 45.4191429], [2.7614048, 45.4191669], [2.7613943, 45.4191941], [2.7613585, 45.419205], [2.7612808, 45.4191846], [2.7613109, 45.4188389], [2.7611799, 45.4188133], [2.7611385, 45.4188421], [2.7610989, 45.4191606], [2.7613471, 45.4192612], [2.7616942, 45.4196411], [2.7617206, 45.4198435], [2.7628593, 45.4215098], [2.7628779, 45.421537], [2.7636252, 45.4226305], [2.7640664, 45.4232761], [2.7646012, 45.4235924], [2.7648236, 45.4235877], [2.7659224, 45.4235642], [2.7666754, 45.4231973], [2.7669214, 45.4232404], [2.76702, 45.4232577], [2.7683001, 45.423317], [2.7701219, 45.4235112], [2.7704346, 45.4237649], [2.7714552, 45.4239904], [2.7718446, 45.4237565], [2.7723617, 45.4237576], [2.7726684, 45.4234652], [2.7731412, 45.4233007], [2.7732834, 45.4221058], [2.7719926, 45.4220093], [2.7712803, 45.4216792], [2.7704093, 45.4214563]]]}}, {"type": "Feature", "properties": {"name": "Plan d'eau des Couleyras"}, "geometry": {"type": "Polygon", "coordinates": [[[3.2993435, 45.8513302], [3.2993873, 45.8514416], [3.2993555, 45.8515251], [3.2997174, 45.8515848], [3.3000595, 45.8516166], [3.3012409, 45.8516683], [3.3012886, 45.8516046], [3.3012409, 45.851533], [3.3012807, 45.8513541], [3.3014001, 45.8512701], [3.3012804, 45.8511607], [3.3011048, 45.8510919], [3.3007077, 45.851013], [3.3006796, 45.8509646], [3.3007229, 45.8509366], [3.3006542, 45.8508985], [3.3007306, 45.8507992], [3.3009393, 45.8507686], [3.301171, 45.8508755], [3.3013186, 45.8508985], [3.3014357, 45.8509825], [3.301591, 45.8509723], [3.3017527, 45.850743], [3.3016923, 45.8506475], [3.3017941, 45.8505075], [3.3018736, 45.8503039], [3.3017114, 45.8501352], [3.301705, 45.8500207], [3.3018609, 45.8499888], [3.3018228, 45.8496853], [3.3016803, 45.8496222], [3.3016843, 45.8495631], [3.3017862, 45.8495529], [3.3017821, 45.849502], [3.3018941, 45.8494939], [3.3018473, 45.8494083], [3.3016558, 45.8494348], [3.3015488, 45.8492141], [3.302038, 45.8489436], [3.3018073, 45.8487964], [3.3010565, 45.848657], [3.301146, 45.8485411], [3.3015468, 45.8484174], [3.3014601, 45.8480334], [3.3013543, 45.8477938], [3.3011582, 45.8477225], [3.3008812, 45.8477084], [3.3004612, 45.8477771], [3.3000724, 45.8478867], [3.2991984, 45.8476516], [3.2989557, 45.8477431], [3.2981443, 45.8481508], [3.2979703, 45.848285], [3.2980647, 45.8484243], [3.2980399, 45.8485436], [3.2978559, 45.8486828], [3.2974399, 45.8487468], [3.2972635, 45.8486147], [3.297179, 45.8485937], [3.2969705, 45.8486081], [3.2966297, 45.848646], [3.2945632, 45.8490503], [3.2944815, 45.8490844], [3.2944139, 45.8492388], [3.2945145, 45.8494378], [3.2946112, 45.8494582], [3.2945886, 45.8495698], [3.2948313, 45.8498085], [3.2948472, 45.8498642], [3.295054, 45.8500551], [3.2951394, 45.850256], [3.2952445, 45.8503324], [3.2954545, 45.8508701], [3.2955245, 45.8509211], [3.2955468, 45.8510579], [3.2956709, 45.8511852], [3.2964269, 45.8513449], [3.2966128, 45.8514734], [3.2972425, 45.8515758], [3.2977041, 45.8515586], [3.298449, 45.8516409], [3.298802, 45.8515564], [3.2990136, 45.8513808], [3.2993435, 45.8513302]]]}}, {"type": "Feature", "properties": {"name": "Les Martailles"}, "geometry": {"type": "Polygon", "coordinates": [[[3.2842862, 45.8377479], [3.285119, 45.8381021], [3.2855665, 45.8381581], [3.2859021, 45.8380773], [3.286679, 45.8381084], [3.2875118, 45.8377852], [3.2882697, 45.837829], [3.2891263, 45.8377043], [3.2895336, 45.8378468], [3.2896482, 45.8379461], [3.2898518, 45.8380098], [3.2899857, 45.8380002], [3.290558, 45.838102], [3.2909161, 45.8380799], [3.2909733, 45.8378921], [3.2909415, 45.8377426], [3.2906074, 45.8375357], [3.2903612, 45.8371709], [3.2895855, 45.8365743], [3.2893031, 45.8365305], [3.2889491, 45.8363833], [3.288607, 45.8361009], [3.288603, 45.8359299], [3.2884638, 45.8356793], [3.2882848, 45.835727], [3.2881854, 45.8356753], [3.2881108, 45.8352119], [3.2878423, 45.8347495], [3.2878721, 45.8343915], [3.2874732, 45.8335278], [3.2871732, 45.832566], [3.2870853, 45.8324094], [3.286436, 45.8321238], [3.2860133, 45.8320431], [3.2857604, 45.8320603], [3.2858245, 45.8323036], [3.2857985, 45.8323641], [3.2853119, 45.8323198], [3.2853785, 45.8322696], [3.2856044, 45.8322601], [3.285598, 45.8320882], [3.2856585, 45.8319896], [3.2847409, 45.8317127], [3.2845917, 45.8317811], [3.2840821, 45.8324212], [3.2838956, 45.8330738], [3.2841975, 45.8340873], [3.2846885, 45.8345846], [3.2849682, 45.834684], [3.2853225, 45.8349512], [3.2849433, 45.8355665], [3.2840256, 45.8362837], [3.2840156, 45.836592], [3.28413, 45.8366765], [3.2841548, 45.8368307], [3.2840118, 45.837051], [3.2840864, 45.8374799], [3.2842862, 45.8377479]]]}}, {"type": "Feature", "properties": {"name": "Lac d'Aubusson"}, "geometry": {"type": "Polygon", "coordinates": [[[3.6041153, 45.7445324], [3.6043134, 45.7448796], [3.6043296, 45.7449079], [3.604451, 45.7451129], [3.6045478, 45.7451059], [3.604716, 45.7452921], [3.6048589, 45.7456756], [3.6048548, 45.7460718], [3.6051651, 45.7464607], [3.6053724, 45.7466703], [3.6058467, 45.7471515], [3.6060529, 45.7472924], [3.6062145, 45.7476396], [3.6065719, 45.7480004], [3.6066441, 45.7483269], [3.6068847, 45.74865], [3.607139, 45.7488391], [3.6073384, 45.7491106], [3.6075755, 45.7493443], [3.6077027, 45.7496914], [3.6076821, 45.7499664], [3.6078161, 45.7500832], [3.6079329, 45.7503135], [3.6082732, 45.7507637], [3.6087372, 45.7511624], [3.6090293, 45.7512759], [3.6092012, 45.7512312], [3.609019, 45.7513721], [3.6089537, 45.7514614], [3.6090018, 45.7516299], [3.6091413, 45.7517281], [3.6091531, 45.7517364], [3.609318, 45.751757], [3.6094246, 45.751702], [3.6095655, 45.751568], [3.6096824, 45.7514443], [3.6098462, 45.7513918], [3.6099284, 45.751421], [3.6100546, 45.7514657], [3.610246, 45.7515336], [3.610366, 45.7515407], [3.6105347, 45.7515302], [3.6106718, 45.7514953], [3.6109059, 45.7514271], [3.611119, 45.7512724], [3.6111637, 45.7510559], [3.6112427, 45.7509493], [3.6113837, 45.7509356], [3.6111063, 45.7505876], [3.611345, 45.7506811], [3.6114737, 45.7508758], [3.6115796, 45.7508497], [3.6116277, 45.7509871], [3.6118064, 45.7509803], [3.6120264, 45.7512209], [3.6122188, 45.7512518], [3.612102, 45.7510937], [3.6119061, 45.7508462], [3.6117926, 45.7507122], [3.611693, 45.7505953], [3.6118064, 45.7504922], [3.6119645, 45.7505403], [3.612214, 45.7507186], [3.6126593, 45.7507466], [3.6126405, 45.7506212], [3.6124608, 45.750552], [3.6125278, 45.7504453], [3.6131608, 45.7503162], [3.6131555, 45.7501253], [3.6130214, 45.7500223], [3.6131219, 45.7499167], [3.61319, 45.7498973], [3.6126684, 45.7495573], [3.6121497, 45.7491015], [3.6105618, 45.748744], [3.610249, 45.7485943], [3.6099547, 45.7480765], [3.6097357, 45.7477015], [3.6096302, 45.7472466], [3.6092073, 45.7467338], [3.6086993, 45.7461942], [3.6085735, 45.746], [3.6086284, 45.7458885], [3.6085616, 45.7458393], [3.6080973, 45.7454664], [3.6076891, 45.745008], [3.6076328, 45.7447928], [3.6078413, 45.7446036], [3.6086571, 45.7442455], [3.6088693, 45.7440946], [3.6097634, 45.7438591], [3.609968, 45.7437761], [3.6100202, 45.7437436], [3.6100281, 45.7436618], [3.6098912, 45.7435544], [3.6100065, 45.7434889], [3.6099319, 45.7434318], [3.6098759, 45.7434303], [3.6093336, 45.7435267], [3.6082283, 45.7435555], [3.6079037, 45.7437857], [3.6074544, 45.7438541], [3.6072117, 45.743855], [3.6071071, 45.7437792], [3.6069105, 45.7436437], [3.6067598, 45.7436649], [3.6064255, 45.7437602], [3.6050295, 45.7442294], [3.6041153, 45.7445324]]]}}, {"type": "Feature", "properties": {"name": "Lac de Guéry"}, "geometry": {"type": "Polygon", "coordinates": [[[2.8228733, 45.612127], [2.8228576, 45.6121302], [2.8228542, 45.6121537], [2.8227964, 45.6121523], [2.8227546, 45.6121576], [2.8226905, 45.6123096], [2.8225923, 45.6123718], [2.8225693, 45.6124277], [2.8224838, 45.612454], [2.8223977, 45.6125552], [2.8220226, 45.6126261], [2.8212223, 45.6129631], [2.8210907, 45.6132], [2.8207959, 45.613458], [2.8204539, 45.6136935], [2.8203799, 45.6137839], [2.8203717, 45.6138865], [2.8203305, 45.6140108], [2.8202594, 45.6140851], [2.8201921, 45.6141341], [2.8199746, 45.6144208], [2.819903, 45.6145564], [2.8196255, 45.6148988], [2.8195515, 45.6150367], [2.8193145, 45.6152817], [2.8192908, 45.6153717], [2.8192968, 45.6154405], [2.8192181, 45.6155121], [2.819074, 45.6155609], [2.8188804, 45.6157566], [2.818759, 45.6158228], [2.8186994, 45.6159186], [2.8186462, 45.6159927], [2.8185832, 45.6160238], [2.8184285, 45.6160719], [2.8184402, 45.6160944], [2.8184768, 45.6161382], [2.8185402, 45.616136], [2.8185633, 45.6161541], [2.8186111, 45.6162713], [2.818602, 45.616408], [2.8185159, 45.6164749], [2.8185426, 45.6165484], [2.8185933, 45.6166006], [2.8185423, 45.6167313], [2.8185849, 45.6167827], [2.8185529, 45.6169078], [2.8185249, 45.6169623], [2.8184346, 45.617035], [2.8184439, 45.6170894], [2.8184194, 45.6171304], [2.8183216, 45.6173233], [2.8181873, 45.6175254], [2.8181907, 45.6175887], [2.8182322, 45.6176288], [2.8182801, 45.6176831], [2.8183356, 45.6177208], [2.8184478, 45.6177898], [2.8185398, 45.6178047], [2.8186954, 45.6178891], [2.8188517, 45.6179403], [2.8191489, 45.6179923], [2.8193357, 45.618058], [2.8195171, 45.6180607], [2.8197013, 45.6180949], [2.819871, 45.6181091], [2.8200143, 45.6181054], [2.8202694, 45.6181448], [2.8203667, 45.6181422], [2.8205955, 45.6181922], [2.8208086, 45.6181817], [2.8210694, 45.6181905], [2.8213189, 45.6182027], [2.8215556, 45.6182474], [2.8218318, 45.6184631], [2.8219501, 45.6185867], [2.8219896, 45.6187051], [2.8220474, 45.6187577], [2.822096, 45.6187228], [2.8221316, 45.6186972], [2.8222257, 45.6185566], [2.8222189, 45.6184004], [2.8222839, 45.6183785], [2.8222839, 45.6183776], [2.8223375, 45.6183664], [2.8223684, 45.6182864], [2.8222932, 45.6182034], [2.822328, 45.6181689], [2.8223925, 45.6181685], [2.8225464, 45.6180493], [2.8225992, 45.6179527], [2.8227318, 45.6179412], [2.8229134, 45.6178131], [2.823146, 45.617687], [2.8231419, 45.6175888], [2.8231407, 45.6175607], [2.823139, 45.6175068], [2.8231573, 45.6174607], [2.8232207, 45.6174098], [2.823274, 45.6173965], [2.8233856, 45.6173918], [2.8234752, 45.6173137], [2.8236071, 45.6172852], [2.8237263, 45.6172555], [2.8238294, 45.6171965], [2.8239357, 45.6170523], [2.8240402, 45.6169168], [2.8240455, 45.6168919], [2.8242541, 45.6165451], [2.8243224, 45.6164761], [2.8243621, 45.6164101], [2.8244267, 45.6163625], [2.8244663, 45.6162813], [2.8244524, 45.6162373], [2.8244683, 45.616206], [2.8245513, 45.6161501], [2.8245432, 45.6160855], [2.8245615, 45.6160095], [2.8247404, 45.6157834], [2.8247797, 45.6157816], [2.8248136, 45.6157313], [2.8247951, 45.6157143], [2.8248181, 45.6156294], [2.8249031, 45.6156117], [2.8249193, 45.6155573], [2.8251344, 45.614724], [2.8253741, 45.6143906], [2.8254659, 45.6135765], [2.8255381, 45.6135225], [2.8255534, 45.6134703], [2.8255129, 45.6133648], [2.8254942, 45.6132887], [2.8254971, 45.6131705], [2.8255789, 45.6130608], [2.8256741, 45.6129877], [2.8257608, 45.6128921], [2.8257813, 45.6128196], [2.8257806, 45.6127967], [2.8257797, 45.6127651], [2.8257297, 45.6127034], [2.8255944, 45.6125548], [2.8255186, 45.6125597], [2.8254745, 45.6125643], [2.82529, 45.6124789], [2.8249965, 45.6123235], [2.8245985, 45.6120981], [2.8244156, 45.6119709], [2.8244101, 45.611942], [2.8243753, 45.6119185], [2.8243005, 45.6119094], [2.8242335, 45.6119249], [2.8241773, 45.6119087], [2.8240672, 45.611893], [2.8238884, 45.6118802], [2.8237106, 45.6118781], [2.823554, 45.6119048], [2.8234811, 45.6120222], [2.8234622, 45.6120304], [2.823447, 45.6120191], [2.8234201, 45.6120343], [2.8234306, 45.6120486], [2.8231811, 45.6121525], [2.822888, 45.6121527], [2.8228881, 45.6121278], [2.8228733, 45.612127]]]}}, {"type": "Feature", "properties": {"name": "Étang de Tyx"}, "geometry": {"type": "Polygon", "coordinates": [[[2.4918348, 45.8566141], [2.4921355, 45.856723], [2.4921469, 45.8568286], [2.4920154, 45.8569473], [2.4916838, 45.8569668], [2.4916643, 45.8570045], [2.4918503, 45.8570852], [2.4923224, 45.8571737], [2.493368, 45.8571782], [2.4938127, 45.8574578], [2.4940762, 45.8577816], [2.4941746, 45.8582514], [2.4942652, 45.8586291], [2.4945013, 45.8591269], [2.4946639, 45.8592564], [2.4946091, 45.8593213], [2.4943229, 45.8595439], [2.4944956, 45.8595053], [2.494713, 45.8594017], [2.4948511, 45.8594444], [2.4948836, 45.8595785], [2.4949238, 45.8596283], [2.4951037, 45.8597219], [2.4952225, 45.8596379], [2.4953707, 45.8594952], [2.4954898, 45.8586499], [2.496253, 45.8584543], [2.4971162, 45.8585852], [2.4977034, 45.8585356], [2.4979025, 45.8586291], [2.4980894, 45.8586494], [2.4982845, 45.8585377], [2.4985974, 45.858556], [2.4988698, 45.8586061], [2.498819, 45.8586386], [2.4989673, 45.8586813], [2.4991969, 45.8586406], [2.4998024, 45.8587071], [2.4999389, 45.8586437], [2.5005499, 45.8587272], [2.5006657, 45.8587902], [2.5009046, 45.8588162], [2.5011407, 45.858646], [2.5015446, 45.8586257], [2.5022628, 45.858337], [2.5026151, 45.8577381], [2.5029554, 45.8571522], [2.5039387, 45.8564228], [2.5042935, 45.8559358], [2.5051402, 45.8543589], [2.5053977, 45.8534563], [2.5057113, 45.8531192], [2.5061076, 45.8528881], [2.5069733, 45.852536], [2.5070856, 45.8525443], [2.5071133, 45.8525413], [2.5072659, 45.8525725], [2.5074261, 45.8525156], [2.5075613, 45.8523966], [2.5077593, 45.8522311], [2.5077734, 45.8521969], [2.5076742, 45.8521562], [2.5076547, 45.8520652], [2.5076369, 45.8519758], [2.507596, 45.8519431], [2.5075683, 45.8519219], [2.5074598, 45.8517912], [2.5065783, 45.851421], [2.5061169, 45.8512258], [2.5054463, 45.8507298], [2.5046485, 45.850272], [2.5038859, 45.8499062], [2.5033442, 45.8491481], [2.5030422, 45.8487917], [2.5029934, 45.8486943], [2.5029518, 45.8482743], [2.5029505, 45.8478263], [2.5028708, 45.8475592], [2.5029292, 45.8471841], [2.502938, 45.847024], [2.5029164, 45.8468619], [2.5028741, 45.8466778], [2.5028596, 45.8465161], [2.5028361, 45.8464752], [2.5027782, 45.8464324], [2.5027097, 45.8464149], [2.5025605, 45.8464047], [2.5024893, 45.8463864], [2.5023694, 45.8464009], [2.502083, 45.846281], [2.5020118, 45.8462871], [2.5018635, 45.846214], [2.501682, 45.8463594], [2.5014995, 45.8463754], [2.5010632, 45.8464903], [2.5008939, 45.8466457], [2.5008632, 45.8466744], [2.5008441, 45.8467982], [2.5007584, 45.8467506], [2.5006409, 45.8468363], [2.5004271, 45.8468026], [2.5001529, 45.8471621], [2.5000739, 45.8471774], [2.4999265, 45.8473518], [2.4999107, 45.8474777], [2.4999208, 45.8475751], [2.499958, 45.8476258], [2.4999523, 45.8476519], [2.4999016, 45.8476864], [2.4998406, 45.847693], [2.4997839, 45.8476709], [2.499654, 45.8475779], [2.4994788, 45.84756], [2.4993098, 45.8475015], [2.4991635, 45.8474153], [2.4989738, 45.8474284], [2.4988559, 45.8474772], [2.4987493, 45.8475901], [2.4986263, 45.8475808], [2.4985634, 45.8476011], [2.4984902, 45.8477109], [2.4985146, 45.8477738], [2.4984699, 45.8478287], [2.4985835, 45.8479707], [2.4985327, 45.8480596], [2.4985588, 45.848188], [2.4987127, 45.8483889], [2.4987776, 45.8484681], [2.4988187, 45.8485432], [2.498936, 45.8488523], [2.4991563, 45.8492737], [2.4991762, 45.8494229], [2.4991652, 45.8494516], [2.499115, 45.8494833], [2.4988135, 45.8495204], [2.4987036, 45.8495571], [2.4986772, 45.8495826], [2.4986557, 45.8496917], [2.498609, 45.8497496], [2.4985863, 45.8498186], [2.4985963, 45.849917], [2.4987659, 45.8500524], [2.4988186, 45.8501067], [2.4988989, 45.8502303], [2.4990546, 45.850377], [2.4992902, 45.8506446], [2.4994891, 45.850801], [2.4997137, 45.8510576], [2.4996503, 45.851173], [2.4997397, 45.8513827], [2.500024, 45.8514401], [2.5001174, 45.8512978], [2.500154, 45.851306], [2.5001357, 45.8515132], [2.5000587, 45.8515731], [2.5000607, 45.8517987], [2.4999489, 45.8521217], [2.499823, 45.8524378], [2.4996706, 45.8523119], [2.4993781, 45.8524622], [2.4989491, 45.8525391], [2.498863, 45.8526546], [2.4988174, 45.8527748], [2.4988386, 45.8528171], [2.4987443, 45.8529114], [2.4987557, 45.8529357], [2.49865, 45.8530577], [2.4985054, 45.8530186], [2.4986387, 45.8530739], [2.4985639, 45.8531438], [2.4986011, 45.8532502], [2.4986449, 45.8532681], [2.4986011, 45.8533136], [2.4987035, 45.853299], [2.498931, 45.8534095], [2.4991331, 45.8534756], [2.4994784, 45.8534479], [2.4995657, 45.8535391], [2.4994614, 45.8536939], [2.4992153, 45.8538456], [2.4988902, 45.8541376], [2.4986967, 45.8543127], [2.4985011, 45.8544574], [2.4984173, 45.8548359], [2.4984649, 45.8551904], [2.4987138, 45.8553555], [2.4990719, 45.8554824], [2.499138, 45.8556272], [2.4988345, 45.8557923], [2.4987279, 45.8557173], [2.4983957, 45.8556745], [2.4981881, 45.8556676], [2.4976492, 45.8557394], [2.4975552, 45.8557417], [2.4971863, 45.8557217], [2.4968937, 45.8557345], [2.4963093, 45.8557785], [2.495599, 45.8557597], [2.4952769, 45.8558993], [2.4951783, 45.8560664], [2.4951504, 45.8561908], [2.4950768, 45.8562543], [2.4946972, 45.8561381], [2.4946401, 45.8561061], [2.4946124, 45.856062], [2.494551, 45.8558794], [2.4945018, 45.8558167], [2.4944622, 45.8557898], [2.4943651, 45.855754], [2.4942728, 45.8557405], [2.4941774, 45.8557395], [2.4938653, 45.8557709], [2.4933203, 45.8557999], [2.4932152, 45.8557822], [2.4926762, 45.8557119], [2.4925796, 45.8558537], [2.4924545, 45.8558796], [2.4923791, 45.8560122], [2.4924092, 45.8561127], [2.4925588, 45.8561972], [2.4925514, 45.8564493], [2.492527, 45.8565407], [2.4924173, 45.8565813], [2.4920536, 45.8565935], [2.4920266, 45.8566141], [2.4918234, 45.8565344], [2.4916143, 45.856338], [2.4914778, 45.8563199], [2.4913122, 45.8562917], [2.4912729, 45.8562603], [2.491219, 45.8561799], [2.4911591, 45.8561381], [2.491056, 45.8561528], [2.4910807, 45.8561873], [2.4910604, 45.8562395], [2.4910672, 45.8562555], [2.4911044, 45.8562349], [2.4911378, 45.8561945], [2.491171, 45.8562043], [2.4912543, 45.8563127], [2.4913561, 45.8563655], [2.4912745, 45.8564075], [2.4913399, 45.8564382], [2.4913514, 45.8564706], [2.4913791, 45.8565173], [2.4913405, 45.8565681], [2.4914055, 45.8566148], [2.4914218, 45.8565902], [2.4914652, 45.8565345], [2.4914954, 45.8564359], [2.4915359, 45.8564148], [2.4915552, 45.8564612], [2.491556, 45.8565274], [2.4915677, 45.8565575], [2.4918348, 45.8566141]]]}}, {"type": "Feature", "properties": {"name": "Lac Chambon"}, "geometry": {"type": "Polygon", "coordinates": [[[2.9150849, 45.572876], [2.915208, 45.572991], [2.9154266, 45.5730526], [2.9156574, 45.57323], [2.9157679, 45.5734204], [2.9159741, 45.573726], [2.9160712, 45.5737753], [2.9162144, 45.5738337], [2.91651, 45.5739208], [2.9167635, 45.5739954], [2.9169821, 45.5740259], [2.917207, 45.5741049], [2.9175332, 45.574216], [2.9177456, 45.5742202], [2.9178008, 45.5741914], [2.9178719, 45.5741317], [2.9179619, 45.574145], [2.9180565, 45.5742068], [2.9182895, 45.5740656], [2.9184294, 45.5740808], [2.9184713, 45.5740303], [2.9185443, 45.5739424], [2.918604, 45.5738858], [2.9187912, 45.5737849], [2.9189652, 45.5737413], [2.9198595, 45.5733301], [2.9201659, 45.5732256], [2.9204084, 45.5731983], [2.9209794, 45.5732085], [2.9213286, 45.5732283], [2.9215571, 45.5732485], [2.9218585, 45.5732957], [2.9219725, 45.5732421], [2.9222847, 45.5733205], [2.9223428, 45.5734193], [2.922789, 45.57354], [2.9229507, 45.5735763], [2.9230963, 45.5736011], [2.9232418, 45.5736176], [2.9233765, 45.573628], [2.9234925, 45.5736152], [2.9236841, 45.5733891], [2.9237159, 45.5733193], [2.923598, 45.5732064], [2.9235686, 45.573172], [2.923607, 45.5730224], [2.9234216, 45.5729575], [2.9232961, 45.5728673], [2.9232815, 45.5727756], [2.9233287, 45.5726507], [2.9232894, 45.5726071], [2.9232048, 45.5726768], [2.923007, 45.5726931], [2.9228735, 45.5727321], [2.9228477, 45.5727213], [2.9228391, 45.572671], [2.9228851, 45.5725884], [2.923037, 45.5725225], [2.9231261, 45.5725041], [2.9234153, 45.5724428], [2.9235292, 45.5724125], [2.9236494, 45.5723546], [2.9237146, 45.5722913], [2.9237826, 45.5722463], [2.9237826, 45.5722068], [2.9237963, 45.5721646], [2.9238487, 45.5721435], [2.9241104, 45.5720645], [2.9243069, 45.5719727], [2.9243592, 45.5719231], [2.9243978, 45.5718258], [2.9244559, 45.571678], [2.9244895, 45.5715927], [2.924552, 45.5714337], [2.9246675, 45.571353], [2.925113, 45.5709], [2.9255797, 45.5706966], [2.925685, 45.5706569], [2.9258035, 45.5706679], [2.92591, 45.5707038], [2.9260211, 45.5708378], [2.9261001, 45.5708718], [2.9261405, 45.5709296], [2.9262442, 45.5709012], [2.9264793, 45.5706881], [2.9265041, 45.5706285], [2.9263544, 45.5705614], [2.9260583, 45.5704278], [2.9260115, 45.5703709], [2.9260041, 45.5702892], [2.9261207, 45.5702157], [2.9263172, 45.5700936], [2.9263585, 45.5700358], [2.9264706, 45.5699991], [2.9266239, 45.5700395], [2.9268683, 45.5700726], [2.9272528, 45.5700422], [2.9276421, 45.5700851], [2.928034, 45.5700456], [2.9281553, 45.5700074], [2.928312, 45.5700599], [2.9284321, 45.5701312], [2.9286498, 45.5701622], [2.9288317, 45.5702657], [2.9289112, 45.5701688], [2.9290287, 45.5700257], [2.9292981, 45.5693135], [2.9292772, 45.5689768], [2.9290244, 45.5687512], [2.9285147, 45.5678804], [2.928284, 45.5677775], [2.9265365, 45.5676229], [2.925131, 45.5676385], [2.9242112, 45.5676564], [2.9234218, 45.5674646], [2.922864, 45.5672066], [2.9226318, 45.5670887], [2.9224432, 45.5670538], [2.9220464, 45.567077], [2.9217026, 45.5671342], [2.9214636, 45.5672456], [2.9211789, 45.5673376], [2.9204437, 45.5674246], [2.9202846, 45.5674285], [2.9201303, 45.5674638], [2.9197298, 45.5676735], [2.9194488, 45.5677028], [2.9193948, 45.5677445], [2.9192592, 45.5678343], [2.9192815, 45.567986], [2.9194088, 45.5680492], [2.9196338, 45.5680052], [2.9197825, 45.5681633], [2.9195182, 45.5682962], [2.9194055, 45.5684424], [2.9194397, 45.5685206], [2.9192377, 45.5688956], [2.9191206, 45.5689723], [2.9187524, 45.5688715], [2.9187032, 45.5687896], [2.9184914, 45.5688813], [2.9184094, 45.5690413], [2.9183437, 45.5691332], [2.9183078, 45.5692002], [2.9177289, 45.5689469], [2.9176428, 45.5690039], [2.9173793, 45.5690606], [2.9175289, 45.5691574], [2.9175516, 45.56927], [2.9174399, 45.5693613], [2.9172838, 45.5693648], [2.917099, 45.569449], [2.917019, 45.5698043], [2.9168996, 45.5699438], [2.9167872, 45.570049], [2.9166614, 45.570162], [2.9165697, 45.5701362], [2.9166355, 45.5702292], [2.9165237, 45.5705717], [2.9164238, 45.5707504], [2.9164105, 45.5708216], [2.9164003, 45.5708759], [2.9165447, 45.5711553], [2.9164249, 45.5712859], [2.9162679, 45.5713707], [2.915923, 45.5713298], [2.915726, 45.571389], [2.9155647, 45.5714333], [2.9155027, 45.5715003], [2.9155409, 45.571658], [2.9155018, 45.5717816], [2.9156306, 45.5719606], [2.9156059, 45.5721077], [2.9153151, 45.5721259], [2.9152123, 45.5722166], [2.9149292, 45.5722185], [2.9148467, 45.5723702], [2.9148756, 45.5724773], [2.9148924, 45.5725781], [2.9150261, 45.5726765], [2.9150507, 45.5727826], [2.9150849, 45.572876]]]}}, {"type": "Feature", "properties": {"name": "Lac d'Aydat"}, "geometry": {"type": "Polygon", "coordinates": [[[2.9872282, 45.6663031], [2.9874098, 45.6663206], [2.987571, 45.6664077], [2.9876539, 45.6662833], [2.9878549, 45.666257], [2.9879139, 45.666302], [2.9880319, 45.6663859], [2.9881635, 45.6663807], [2.9883566, 45.6662371], [2.9883672, 45.6661352], [2.9880401, 45.6660424], [2.9879918, 45.6661181], [2.9878497, 45.66608], [2.9878201, 45.6659591], [2.9883699, 45.6656586], [2.9886381, 45.6657397], [2.988767, 45.6657657], [2.9886515, 45.6658544], [2.9886865, 45.6659766], [2.9890377, 45.6661644], [2.9893624, 45.6659575], [2.9889279, 45.6657814], [2.988834, 45.665758], [2.9890191, 45.6656669], [2.9890695, 45.6655818], [2.9893355, 45.6655541], [2.9893113, 45.6656173], [2.9891854, 45.6656521], [2.9893222, 45.6656831], [2.9894159, 45.6657419], [2.9896225, 45.6656459], [2.9899383, 45.6653133], [2.9899579, 45.6651174], [2.9900328, 45.6649918], [2.9898157, 45.6647428], [2.9900276, 45.6647148], [2.9901374, 45.6648535], [2.9902395, 45.6649222], [2.9903924, 45.6649297], [2.9912282, 45.6656201], [2.9915999, 45.665719], [2.9920979, 45.665784], [2.9924194, 45.6658784], [2.9929766, 45.66602], [2.9930801, 45.6660086], [2.9930593, 45.6659034], [2.992566, 45.6656785], [2.9923799, 45.6656035], [2.9921653, 45.6654667], [2.9919561, 45.6653276], [2.9914733, 45.6650995], [2.9912982, 45.664813], [2.9909798, 45.6640159], [2.9906556, 45.6637529], [2.9906611, 45.663248], [2.9906641, 45.662968], [2.9906406, 45.6629024], [2.9904631, 45.6624995], [2.99055, 45.6621761], [2.9908311, 45.6618586], [2.9913814, 45.6614744], [2.9919161, 45.661239], [2.9923182, 45.6609695], [2.9923771, 45.6607296], [2.9923155, 45.6606074], [2.9922026, 45.660477], [2.9919613, 45.6603766], [2.9917389, 45.6604289], [2.9916101, 45.6605031], [2.990977, 45.6603729], [2.9904648, 45.6602969], [2.9900973, 45.6602611], [2.9898971, 45.6604421], [2.9893569, 45.6609304], [2.987542, 45.6618034], [2.9873642, 45.6618536], [2.9871952, 45.6618705], [2.9870155, 45.6618874], [2.9868976, 45.6618126], [2.986892, 45.6616401], [2.9867403, 45.6613932], [2.9863636, 45.6610984], [2.985846, 45.6608007], [2.985398, 45.6606691], [2.9849956, 45.6606241], [2.9845263, 45.6607478], [2.984132, 45.6608772], [2.9833836, 45.6612465], [2.9831512, 45.6613239], [2.9825657, 45.6613737], [2.9815403, 45.6612975], [2.9813232, 45.6611433], [2.9812276, 45.6610574], [2.9809343, 45.6610194], [2.9804691, 45.6611461], [2.9803398, 45.661322], [2.9802129, 45.6613898], [2.9802064, 45.6614357], [2.980167, 45.661521], [2.9800363, 45.661623], [2.9799652, 45.661733], [2.9800139, 45.6618337], [2.9799636, 45.6619212], [2.9798455, 45.6619561], [2.9797964, 45.6620713], [2.9796817, 45.6621785], [2.9796907, 45.6622225], [2.9797034, 45.6622842], [2.9796793, 45.6623345], [2.9796374, 45.6623866], [2.9797012, 45.662446], [2.9798191, 45.6624807], [2.9799179, 45.6626736], [2.9797958, 45.662941], [2.9797827, 45.6630125], [2.9795936, 45.6629345], [2.9795929, 45.662957], [2.979601, 45.6629814], [2.9798026, 45.6630717], [2.9798127, 45.6631086], [2.9799976, 45.6631802], [2.9800686, 45.6632884], [2.9802132, 45.6637083], [2.9802873, 45.6638235], [2.9804829, 45.6640091], [2.9805318, 45.664259], [2.9808253, 45.6644552], [2.9810823, 45.6646868], [2.9814057, 45.6650009], [2.9814848, 45.6650777], [2.9820588, 45.6652806], [2.9827159, 45.6654439], [2.9830029, 45.6655601], [2.9832323, 45.6657485], [2.9835998, 45.6661497], [2.9835327, 45.6661928], [2.9835922, 45.6662371], [2.9835855, 45.6663492], [2.9836316, 45.6664455], [2.9838296, 45.6667058], [2.9841367, 45.666887], [2.984406, 45.6670977], [2.9844488, 45.6672491], [2.9845605, 45.6673675], [2.9848796, 45.6676888], [2.9851956, 45.6680585], [2.9859085, 45.6686536], [2.9862402, 45.6689304], [2.9867489, 45.6692388], [2.9872122, 45.6695214], [2.9877227, 45.6698552], [2.988286, 45.6699824], [2.9886034, 45.6699452], [2.988868, 45.6698078], [2.9888816, 45.6697632], [2.988925, 45.6696207], [2.9888252, 45.6693613], [2.9886209, 45.6690513], [2.9886424, 45.6689763], [2.9885539, 45.6689126], [2.9883834, 45.6688525], [2.9885112, 45.6684653], [2.9885129, 45.6680086], [2.9887981, 45.6677876], [2.9886409, 45.6673153], [2.9889923, 45.6672596], [2.9892453, 45.6673491], [2.9893569, 45.6672636], [2.9891881, 45.6672092], [2.9890714, 45.6669816], [2.9885427, 45.6671618], [2.9885658, 45.6670338], [2.9888635, 45.6668164], [2.9888716, 45.6667493], [2.9887857, 45.6666722], [2.9889118, 45.6665629], [2.9891425, 45.6665403], [2.9887749, 45.6664804], [2.9885229, 45.6665512], [2.9879811, 45.6665635], [2.9879037, 45.6667686], [2.9877692, 45.6668004], [2.9877558, 45.6668679], [2.9874688, 45.6667704], [2.9874098, 45.6666175], [2.9874661, 45.6665486], [2.987399, 45.666523], [2.98734, 45.6665399], [2.9872282, 45.6663031]]]}}, {"type": "Feature", "properties": {"name": "Les Lacs du Fouillat"}, "geometry": {"type": "Polygon", "coordinates": [[[2.6238489, 45.460854], [2.6239087, 45.4609686], [2.6240051, 45.4612444], [2.6241982, 45.4615435], [2.624276, 45.4615491], [2.6243618, 45.4615717], [2.6243752, 45.4616169], [2.6243484, 45.4616752], [2.6244101, 45.4617147], [2.6244798, 45.4616733], [2.6245657, 45.4616582], [2.6245871, 45.4616244], [2.6246005, 45.4615886], [2.6246408, 45.4615623], [2.6246837, 45.4615623], [2.624689, 45.4615962], [2.6246837, 45.4616319], [2.6247025, 45.461662], [2.6247802, 45.4616432], [2.6248741, 45.4613968], [2.6249063, 45.4612368], [2.6250457, 45.4611119], [2.6253086, 45.4610713], [2.6255661, 45.4611691], [2.6256573, 45.4613535], [2.6256573, 45.4616037], [2.6257136, 45.4616808], [2.6258418, 45.4616718], [2.6261395, 45.4615336], [2.6264401, 45.4617149], [2.626487, 45.4617895], [2.626327, 45.461944], [2.6264504, 45.4620779], [2.6266175, 45.462144], [2.6265977, 45.4622429], [2.6269029, 45.4627979], [2.62689, 45.4630838], [2.6268133, 45.4633555], [2.6273524, 45.4632942], [2.6276314, 45.4634597], [2.6278608, 45.4635354], [2.6278572, 45.4633465], [2.6278205, 45.4630651], [2.6287326, 45.4625477], [2.6291018, 45.4624119], [2.6295905, 45.4620428], [2.6298815, 45.4620668], [2.6301178, 45.4618904], [2.630437, 45.461947], [2.6306891, 45.461948], [2.6307314, 45.46186], [2.6308286, 45.4616573], [2.630956, 45.4614861], [2.6311599, 45.4614353], [2.6312162, 45.4613873], [2.6312427, 45.4613023], [2.6313264, 45.4609701], [2.6314348, 45.4605445], [2.631585, 45.4604787], [2.6320329, 45.4605069], [2.6321322, 45.4604693], [2.6321756, 45.4602924], [2.6321337, 45.4600396], [2.6321375, 45.4598928], [2.6323038, 45.4597713], [2.6325238, 45.4597186], [2.632623, 45.4597205], [2.6327458, 45.4596103], [2.6325087, 45.4594026], [2.6321992, 45.4591888], [2.6320182, 45.4591034], [2.631868, 45.459062], [2.6317768, 45.4589717], [2.6310351, 45.458698], [2.6307012, 45.4586698], [2.6306335, 45.4586541], [2.6305711, 45.4586397], [2.630492, 45.4586246], [2.6303981, 45.45865], [2.6302184, 45.458746], [2.6301312, 45.4589144], [2.630083, 45.4591392], [2.6302345, 45.4595286], [2.630201, 45.4595916], [2.6301232, 45.4596772], [2.630003, 45.4597389], [2.6298389, 45.4598089], [2.6297678, 45.4599068], [2.6295277, 45.4598927], [2.629226, 45.4600977], [2.629104, 45.4602953], [2.6289913, 45.4603997], [2.6288974, 45.4605897], [2.6288094, 45.4606544], [2.6285461, 45.4606311], [2.6283637, 45.4606536], [2.6280901, 45.4607722], [2.6278776, 45.4608561], [2.627795, 45.4610694], [2.6279533, 45.4614776], [2.6279667, 45.4617598], [2.6278701, 45.4619009], [2.6276717, 45.4620533], [2.6274464, 45.4621079], [2.6271384, 45.4620571], [2.6266165, 45.4619033], [2.6264771, 45.4617018], [2.626161, 45.4615238], [2.6265268, 45.4612902], [2.6267085, 45.4611611], [2.6267155, 45.461123], [2.6267289, 45.4610863], [2.6267704, 45.4610534], [2.6268375, 45.4610384], [2.6268817, 45.4610666], [2.627012, 45.4610071], [2.6270936, 45.4609518], [2.6271875, 45.4608634], [2.6272023, 45.4608098], [2.627154, 45.4606931], [2.6270628, 45.4604323], [2.6272107, 45.4604437], [2.6272477, 45.4606453], [2.6273401, 45.4606726], [2.6274236, 45.460601], [2.6275228, 45.4604853], [2.6275831, 45.4604345], [2.6276153, 45.4603743], [2.6276126, 45.4603263], [2.6275345, 45.4602432], [2.6273927, 45.4600008], [2.6273485, 45.4598785], [2.6273002, 45.4598155], [2.6272559, 45.4597986], [2.6272338, 45.4597692], [2.627221, 45.4594938], [2.6272492, 45.4594524], [2.6273458, 45.4594675], [2.6274356, 45.4595023], [2.6274544, 45.4595314], [2.6273967, 45.4597064], [2.6274034, 45.4597788], [2.6274598, 45.4598165], [2.6274978, 45.4598052], [2.6275563, 45.4597469], [2.6275617, 45.4597262], [2.6276462, 45.4596998], [2.6277092, 45.4595756], [2.6277548, 45.4594383], [2.6277226, 45.4593781], [2.6277843, 45.4592803], [2.627898, 45.4592522], [2.6279412, 45.4593188], [2.6280016, 45.4593461], [2.6281115, 45.4593198], [2.6281912, 45.4593074], [2.6282993, 45.4592013], [2.6283047, 45.4591072], [2.6282457, 45.4590395], [2.6281799, 45.4589755], [2.6280123, 45.4589153], [2.6278245, 45.4587761], [2.6277736, 45.4585785], [2.6278578, 45.4582143], [2.6280455, 45.458086], [2.6280445, 45.4579953], [2.6280096, 45.4578354], [2.6279399, 45.4578561], [2.6278943, 45.457826], [2.6277923, 45.4578884], [2.627208, 45.4579411], [2.6269522, 45.4579189], [2.6268101, 45.4578343], [2.6266441, 45.4578087], [2.6264303, 45.4578978], [2.6264271, 45.457952], [2.6265478, 45.4579972], [2.6266256, 45.4580235], [2.6265237, 45.458159], [2.6263064, 45.4581176], [2.6260704, 45.4580781], [2.6258944, 45.4579957], [2.6255612, 45.4577861], [2.6255178, 45.4576548], [2.6252281, 45.4573481], [2.6251397, 45.457271], [2.6250297, 45.4572277], [2.6249358, 45.4572296], [2.6248406, 45.4571157], [2.62474, 45.4570904], [2.6246944, 45.4572465], [2.6247936, 45.457493], [2.6248317, 45.4576047], [2.6247786, 45.457838], [2.6248607, 45.4582794], [2.6246059, 45.4585785], [2.6243618, 45.4588777], [2.6242357, 45.4589586], [2.6240936, 45.4589435], [2.6239219, 45.4587855], [2.6238468, 45.458667], [2.6238522, 45.4583678], [2.62382, 45.4581872], [2.6235813, 45.4580762], [2.6234605, 45.4580709], [2.6230179, 45.4580036], [2.6219943, 45.4581355], [2.6217944, 45.4583264], [2.6215031, 45.4586756], [2.6213545, 45.4588923], [2.6212187, 45.4590936], [2.6212177, 45.4592976], [2.6213663, 45.4593845], [2.6216323, 45.4593747], [2.6218362, 45.4595324], [2.6220942, 45.4596159], [2.6223394, 45.4595993], [2.6223834, 45.4597958], [2.6226668, 45.4602853], [2.6228447, 45.4603526], [2.6231391, 45.4606337], [2.6234508, 45.4607958], [2.6236198, 45.4606862], [2.6237496, 45.4607596], [2.6238205, 45.4608246], [2.6238489, 45.460854]]]}}]}