{"type": "FeatureCollection", "features": [{"type": "Feature", "properties": {"name": "Lac d'Aressy"}, "geometry": {"type": "Polygon", "coordinates": [[[-0.329497, 43.2733429], [-0.3294611, 43.2732274], [-0.3292573, 43.2730731], [-0.3290695, 43.2730223], [-0.3289488, 43.2731786], [-0.3288512, 43.2733639], [-0.3287959, 43.2735086], [-0.3288522, 43.2735594], [-0.3289703, 43.2736258], [-0.3287664, 43.2736902], [-0.328635, 43.2737215], [-0.3285143, 43.2738172], [-0.3285357, 43.2738894], [-0.3284553, 43.2739109], [-0.3284204, 43.273991], [-0.3284338, 43.2740671], [-0.3285048, 43.2743446], [-0.3285596, 43.2743844], [-0.3287633, 43.2744], [-0.3289689, 43.2746331], [-0.3291121, 43.27491], [-0.3290617, 43.2753855], [-0.3290803, 43.2755053], [-0.3289991, 43.2755413], [-0.3289184, 43.2755475], [-0.3288318, 43.2755524], [-0.3287341, 43.2755468], [-0.3286693, 43.2755429], [-0.3285719, 43.2755346], [-0.3284591, 43.2755062], [-0.3283918, 43.2754826], [-0.3282821, 43.2753044], [-0.328149, 43.2751197], [-0.3280315, 43.2749225], [-0.3279403, 43.2747682], [-0.327833, 43.2745515], [-0.3276533, 43.2743874], [-0.3275728, 43.2743054], [-0.3281307, 43.2736922], [-0.3281307, 43.2736102], [-0.3279483, 43.2734969], [-0.3276211, 43.2733778], [-0.3275353, 43.273368], [-0.3273582, 43.2732586], [-0.3272375, 43.2730848], [-0.3270228, 43.2730334], [-0.3268865, 43.2730112], [-0.3267985, 43.2729509], [-0.3268164, 43.2728662], [-0.3269517, 43.2727612], [-0.3277338, 43.2729891], [-0.3279698, 43.2726982], [-0.3280664, 43.2725771], [-0.3281254, 43.2724501], [-0.3280633, 43.2723271], [-0.3279805, 43.2722802], [-0.3280069, 43.272161], [-0.3275909, 43.2720451], [-0.3275583, 43.272036], [-0.3274413, 43.2720034], [-0.3273711, 43.2719838], [-0.3268781, 43.2720205], [-0.326449, 43.2719756], [-0.3258643, 43.2719307], [-0.3250368, 43.2719557], [-0.324837, 43.2719033], [-0.324735, 43.2717588], [-0.3246895, 43.2715069], [-0.3246853, 43.2712718], [-0.3247591, 43.2711986], [-0.3250787, 43.271293], [-0.3254495, 43.2711457], [-0.3260483, 43.2708338], [-0.3264329, 43.2707042], [-0.3268308, 43.2705503], [-0.3271785, 43.2705909], [-0.3274119, 43.2705636], [-0.3280663, 43.2706641], [-0.3289806, 43.2710422], [-0.3300432, 43.2713353], [-0.3303972, 43.2714463], [-0.3307194, 43.271585], [-0.3315162, 43.272099], [-0.3319207, 43.2724462], [-0.332243, 43.2728417], [-0.3327441, 43.2731551], [-0.33318, 43.2735033], [-0.3334003, 43.2739496], [-0.3339165, 43.2743536], [-0.334247, 43.2747421], [-0.3343882, 43.2751111], [-0.3347012, 43.2755077], [-0.3346551, 43.2756808], [-0.3344795, 43.2759126], [-0.3342627, 43.2759808], [-0.3343291, 43.276094], [-0.3342173, 43.2761765], [-0.334091, 43.2760725], [-0.3338536, 43.2762082], [-0.3336279, 43.2762117], [-0.3333971, 43.2762001], [-0.3327211, 43.2757269], [-0.3325926, 43.2755034], [-0.3320122, 43.2752307], [-0.331556, 43.2748805], [-0.3315435, 43.2747682], [-0.3317028, 43.274656], [-0.3316898, 43.2745259], [-0.3312896, 43.2741233], [-0.330092, 43.273406], [-0.3298202, 43.2732994], [-0.3296308, 43.2732925], [-0.329497, 43.2733429]]]}}, {"type": "Feature", "properties": {"name": "Retenue de l'Aubin"}, "geometry": {"type": "Polygon", "coordinates": [[[-0.5567259, 43.4450399], [-0.5549408, 43.4465661], [-0.5538585, 43.4474348], [-0.5525616, 43.4466181], [-0.5526743, 43.4464638], [-0.5526949, 43.4462899], [-0.5524588, 43.4461202], [-0.5523285, 43.4459511], [-0.5521529, 43.4458656], [-0.5518713, 43.4457857], [-0.5515834, 43.4456924], [-0.5512408, 43.4454691], [-0.550598, 43.4451389], [-0.5500756, 43.4449454], [-0.5495666, 43.4448554], [-0.5489034, 43.4446084], [-0.5490676, 43.4444499], [-0.5489897, 43.4444497], [-0.5488651, 43.4445133], [-0.5481653, 43.4441579], [-0.5480808, 43.444021], [-0.5475989, 43.4439012], [-0.5469381, 43.4434277], [-0.5460445, 43.4430922], [-0.5458955, 43.4428676], [-0.5457034, 43.4428528], [-0.5456108, 43.4423489], [-0.5456267, 43.4420638], [-0.5458155, 43.4417285], [-0.5461984, 43.4413783], [-0.5466579, 43.4412757], [-0.5472347, 43.4414713], [-0.5479504, 43.4418072], [-0.548856, 43.4418156], [-0.5493496, 43.4421039], [-0.5519704, 43.4427124], [-0.5534647, 43.4434882], [-0.5544848, 43.443522], [-0.5556985, 43.444232], [-0.5567259, 43.4450399]]]}}, {"type": "Feature", "properties": {"name": "Lac de Laroin"}, "geometry": {"type": "Polygon", "coordinates": [[[-0.4394373, 43.3082791], [-0.4395905, 43.3081891], [-0.439923, 43.3082197], [-0.4402561, 43.3084739], [-0.4407328, 43.3086819], [-0.4409876, 43.3087], [-0.4416579, 43.3089352], [-0.4421018, 43.3090092], [-0.4428464, 43.3093522], [-0.4437555, 43.3102474], [-0.443877, 43.3103637], [-0.4453856, 43.3111035], [-0.4456924, 43.3113513], [-0.4457786, 43.3118547], [-0.4460889, 43.3120301], [-0.4471766, 43.3118962], [-0.4478058, 43.3119964], [-0.4482022, 43.3121732], [-0.4490015, 43.3131867], [-0.4491209, 43.3135046], [-0.4491281, 43.313691], [-0.4490379, 43.3137742], [-0.4488749, 43.3138127], [-0.4488996, 43.3139671], [-0.4490359, 43.3139771], [-0.4491592, 43.3139841], [-0.4492499, 43.3141338], [-0.4492359, 43.3143188], [-0.4492256, 43.3144554], [-0.4486489, 43.3150451], [-0.4484723, 43.3152292], [-0.448424, 43.3153771], [-0.4482988, 43.3155083], [-0.4480432, 43.3155516], [-0.4471224, 43.315437], [-0.4467624, 43.3153147], [-0.4464711, 43.3153432], [-0.4461246, 43.3151952], [-0.4458778, 43.3151839], [-0.4455487, 43.3152897], [-0.4433262, 43.3147188], [-0.443087, 43.3145927], [-0.4429716, 43.3144512], [-0.4430374, 43.314313], [-0.4428355, 43.3138334], [-0.4428538, 43.3135636], [-0.4432421, 43.3130866], [-0.4425242, 43.3116759], [-0.4422391, 43.3108184], [-0.4420291, 43.3106217], [-0.441654, 43.3105259], [-0.4411183, 43.3105096], [-0.4404962, 43.3104714], [-0.4400974, 43.3102993], [-0.4396487, 43.3102399], [-0.4391461, 43.3101544], [-0.4385372, 43.3101347], [-0.4384138, 43.3100683], [-0.4383127, 43.3099144], [-0.4387954, 43.3091599], [-0.4390067, 43.3088297], [-0.4393285, 43.3085543], [-0.4394373, 43.3082791]]]}}, {"type": "Feature", "properties": {"name": "Retenue de l'Ayguelongue"}, "geometry": {"type": "Polygon", "coordinates": [[[-0.462601, 43.4337981], [-0.4622887, 43.4334873], [-0.4621172, 43.433468], [-0.4618665, 43.4332661], [-0.4608787, 43.4319076], [-0.4600881, 43.4305328], [-0.4596708, 43.429916], [-0.4595205, 43.4294027], [-0.4599168, 43.4291914], [-0.459658, 43.428599], [-0.4595716, 43.4279778], [-0.4591742, 43.4271634], [-0.4590172, 43.4260139], [-0.4592602, 43.425341], [-0.4595234, 43.4246712], [-0.4592447, 43.4241058], [-0.4589624, 43.4230859], [-0.4590167, 43.4216547], [-0.4585454, 43.4209731], [-0.4576757, 43.4202853], [-0.4583825, 43.4197105], [-0.4590074, 43.4194321], [-0.4600442, 43.419516], [-0.4615821, 43.4209588], [-0.4610523, 43.4211752], [-0.4614724, 43.4216344], [-0.4619337, 43.4218243], [-0.46246, 43.4228624], [-0.462742, 43.4241841], [-0.4624687, 43.4246616], [-0.4622129, 43.425554], [-0.4627086, 43.4258564], [-0.4629022, 43.4263528], [-0.4637544, 43.4267949], [-0.4639677, 43.4272961], [-0.4644153, 43.4276924], [-0.4645408, 43.4283618], [-0.4652729, 43.4287028], [-0.4662343, 43.430313], [-0.4662748, 43.4311129], [-0.4665833, 43.4311474], [-0.4666116, 43.431302], [-0.4664202, 43.431678], [-0.4667154, 43.4322508], [-0.4669187, 43.432312], [-0.4672495, 43.4324115], [-0.4675833, 43.4326652], [-0.4678161, 43.4331685], [-0.4674897, 43.4332038], [-0.464921, 43.4335161], [-0.462601, 43.4337981]]]}}, {"type": "Feature", "properties": {"name": "Lac du Louet"}, "geometry": {"type": "Polygon", "coordinates": [[[-0.0665103, 43.3318734], [-0.0668042, 43.3319014], [-0.0668948, 43.3320567], [-0.0667644, 43.3321967], [-0.0665116, 43.3323804], [-0.0664801, 43.3324689], [-0.0664797, 43.3324951], [-0.0664764, 43.3326859], [-0.0663229, 43.3328429], [-0.0664022, 43.3330313], [-0.066469, 43.3336707], [-0.0664265, 43.3339865], [-0.0662567, 43.3342089], [-0.0662474, 43.3344789], [-0.0662608, 43.334936], [-0.0663737, 43.335209], [-0.0663183, 43.3354104], [-0.0663246, 43.3358184], [-0.0664492, 43.3358622], [-0.066382, 43.3360245], [-0.0664225, 43.3360933], [-0.0662093, 43.3361932], [-0.0661863, 43.3362355], [-0.0661524, 43.3362648], [-0.0661419, 43.336301], [-0.0660811, 43.3364504], [-0.0660989, 43.3364867], [-0.0661731, 43.3365762], [-0.0663795, 43.3367981], [-0.0667785, 43.3372957], [-0.0669278, 43.3375989], [-0.0670697, 43.3383129], [-0.0671273, 43.3386216], [-0.0670733, 43.3390347], [-0.0671212, 43.3391898], [-0.0670842, 43.3392384], [-0.0670398, 43.3393328], [-0.0669884, 43.3394443], [-0.0669656, 43.3395041], [-0.067006, 43.3395768], [-0.0669842, 43.3402452], [-0.0671148, 43.3404225], [-0.0671141, 43.3404796], [-0.0670847, 43.3405574], [-0.0670558, 43.3406304], [-0.0669958, 43.3408347], [-0.0669646, 43.3409414], [-0.0669146, 43.3410773], [-0.0668622, 43.3413157], [-0.0669022, 43.3415673], [-0.0669697, 43.3416394], [-0.067089, 43.3421512], [-0.0670562, 43.3423326], [-0.067025, 43.342642], [-0.0670731, 43.3428177], [-0.0670203, 43.3430194], [-0.0669122, 43.3431886], [-0.066728, 43.3436335], [-0.066424, 43.344078], [-0.0664118, 43.3443362], [-0.0663702, 43.3446032], [-0.0663287, 43.3448805], [-0.0662911, 43.3452524], [-0.0662488, 43.3453683], [-0.0661619, 43.3455851], [-0.0659589, 43.3461062], [-0.0658715, 43.3461531], [-0.0657361, 43.3462142], [-0.0656836, 43.3462384], [-0.0656311, 43.34629], [-0.0655795, 43.3463487], [-0.0654616, 43.3464086], [-0.0654011, 43.3464615], [-0.065341, 43.3465448], [-0.0653155, 43.3466555], [-0.0652807, 43.3466654], [-0.0652106, 43.3466587], [-0.0643613, 43.3464241], [-0.0635297, 43.3461699], [-0.0627039, 43.3459191], [-0.0620402, 43.3457111], [-0.0621463, 43.345438], [-0.0622842, 43.3450243], [-0.062368, 43.3446722], [-0.0624581, 43.3446063], [-0.0625011, 43.3444242], [-0.0627236, 43.343954], [-0.0629015, 43.3436958], [-0.0629293, 43.3435599], [-0.0630936, 43.3433534], [-0.0631992, 43.3431914], [-0.0633408, 43.3430563], [-0.0634495, 43.3429296], [-0.0635319, 43.3427567], [-0.0635528, 43.3425665], [-0.0635485, 43.3424447], [-0.0635063, 43.3423172], [-0.0635017, 43.3420926], [-0.0635088, 43.3418727], [-0.0634372, 43.3416238], [-0.063467, 43.3414058], [-0.0634416, 43.3411725], [-0.0634894, 43.3409882], [-0.0634972, 43.3407716], [-0.06354, 43.3406059], [-0.0635835, 43.3403365], [-0.0635967, 43.3400496], [-0.0635566, 43.3398873], [-0.0636913, 43.3396659], [-0.0638014, 43.3394971], [-0.0637723, 43.3393654], [-0.0637733, 43.3392302], [-0.0638366, 43.3391497], [-0.063877, 43.3389367], [-0.0637129, 43.3382415], [-0.0638457, 43.3379364], [-0.063978, 43.3376169], [-0.0639529, 43.3374429], [-0.0639614, 43.3373546], [-0.0638991, 43.3370571], [-0.0639097, 43.3368875], [-0.0638852, 43.3366483], [-0.0639095, 43.3365923], [-0.0638652, 43.3364891], [-0.0640083, 43.3363359], [-0.0639677, 43.3361372], [-0.0640063, 43.3360547], [-0.0639719, 43.3359841], [-0.0639602, 43.3356426], [-0.063811, 43.3354502], [-0.063874, 43.3352264], [-0.0639263, 43.335006], [-0.0639282, 43.3349002], [-0.0639739, 43.3347669], [-0.0639712, 43.3347045], [-0.0640014, 43.3346387], [-0.06414, 43.3345272], [-0.0641936, 43.3343776], [-0.0642739, 43.3341144], [-0.0642479, 43.3340753], [-0.0643694, 43.3339625], [-0.0644076, 43.333774], [-0.06438, 43.3335803], [-0.0644882, 43.3333074], [-0.0646534, 43.3327457], [-0.0647132, 43.3326961], [-0.0647812, 43.3326002], [-0.0648752, 43.3323079], [-0.0649548, 43.3321681], [-0.0650102, 43.3321101], [-0.0652423, 43.3318671], [-0.0657023, 43.3316784], [-0.06609, 43.3317133], [-0.0661429, 43.3316968], [-0.0661756, 43.3316866], [-0.0662092, 43.3316837], [-0.0665103, 43.3318734]]]}}, {"type": "Feature", "properties": {"name": "Lac de Serres-Castet"}, "geometry": {"type": "Polygon", "coordinates": [[[-0.3351581, 43.387376], [-0.3357115, 43.3877695], [-0.3362537, 43.3877699], [-0.3362992, 43.3879016], [-0.3366946, 43.3879008], [-0.337162, 43.3882377], [-0.3375265, 43.3882656], [-0.3377671, 43.3884437], [-0.3382436, 43.3884446], [-0.3384522, 43.3885163], [-0.3388571, 43.3885911], [-0.3395045, 43.3887026], [-0.3396995, 43.3888728], [-0.3399022, 43.388924], [-0.3401568, 43.3889238], [-0.3404504, 43.3887735], [-0.3405635, 43.3887332], [-0.341245, 43.3891087], [-0.3416974, 43.3895801], [-0.3426824, 43.3897713], [-0.3430203, 43.3899016], [-0.3435153, 43.3899835], [-0.3444373, 43.3902533], [-0.3448254, 43.3900575], [-0.3448112, 43.3902719], [-0.3452506, 43.3904251], [-0.3448629, 43.3910939], [-0.3436587, 43.3931928], [-0.3423621, 43.3929225], [-0.3421246, 43.3930215], [-0.3413386, 43.3930773], [-0.3405758, 43.3932822], [-0.3405526, 43.3930875], [-0.3407482, 43.3925848], [-0.3405421, 43.3921127], [-0.3391318, 43.3911267], [-0.3387535, 43.3911023], [-0.3365937, 43.3901088], [-0.3364028, 43.3898921], [-0.3346432, 43.3886605], [-0.334303, 43.3887821], [-0.334006, 43.3884546], [-0.3342142, 43.3880311], [-0.3347568, 43.3875542], [-0.3351581, 43.387376]]]}}, {"type": "Feature", "properties": {"name": "Réservoir du Gabas"}, "geometry": {"type": "Polygon", "coordinates": [[[-0.1407112, 43.2916068], [-0.1436037, 43.2892441], [-0.1438435, 43.2890465], [-0.1441104, 43.2888311], [-0.1446008, 43.2884419], [-0.1445091, 43.2884182], [-0.1446176, 43.288253], [-0.1446404, 43.2881793], [-0.144649, 43.2880849], [-0.1446466, 43.2879828], [-0.1445573, 43.2878372], [-0.1444597, 43.2877057], [-0.1442915, 43.287584], [-0.144156, 43.2874435], [-0.1438923, 43.2872319], [-0.1436639, 43.2870104], [-0.1434085, 43.286696], [-0.1430753, 43.2864759], [-0.142715, 43.2862636], [-0.1425649, 43.2861291], [-0.1425072, 43.2859985], [-0.1424385, 43.2859138], [-0.1423455, 43.2858905], [-0.1421267, 43.2858534], [-0.1419379, 43.2858203], [-0.14181, 43.2858451], [-0.1417715, 43.2859024], [-0.1415751, 43.2858353], [-0.1413305, 43.2857634], [-0.1410407, 43.285664], [-0.1409963, 43.2855915], [-0.1409248, 43.2855586], [-0.1406649, 43.2853838], [-0.1404376, 43.2852011], [-0.1400644, 43.2849345], [-0.1399754, 43.2849153], [-0.1398353, 43.2848572], [-0.1396484, 43.2847358], [-0.139505, 43.2846204], [-0.1394512, 43.2845347], [-0.1393757, 43.2844569], [-0.1392312, 43.2843353], [-0.1392013, 43.2842487], [-0.1392094, 43.2841641], [-0.1390823, 43.2842073], [-0.1390205, 43.2841794], [-0.1389619, 43.2840799], [-0.1387128, 43.2839669], [-0.1386249, 43.2838493], [-0.1385641, 43.2837792], [-0.1384426, 43.2837933], [-0.1383672, 43.283663], [-0.138319, 43.2835287], [-0.1383435, 43.2834504], [-0.138376, 43.2832661], [-0.1383913, 43.283172], [-0.138393, 43.2830898], [-0.1383747, 43.2830281], [-0.1383815, 43.2829047], [-0.1383516, 43.2827726], [-0.1384006, 43.2827576], [-0.1384604, 43.2827749], [-0.1384933, 43.2828254], [-0.1386296, 43.2828592], [-0.1386848, 43.2829189], [-0.1386433, 43.2829988], [-0.1385657, 43.2830398], [-0.1385407, 43.283114], [-0.1385724, 43.2831793], [-0.1386966, 43.2831971], [-0.1388906, 43.2831899], [-0.1390874, 43.2831569], [-0.1392952, 43.2831934], [-0.1396458, 43.2832053], [-0.1398704, 43.2831808], [-0.1399453, 43.2831381], [-0.1399795, 43.2830401], [-0.139993, 43.2828277], [-0.14002, 43.2825722], [-0.140035, 43.2822713], [-0.1400217, 43.2821742], [-0.139965, 43.2819547], [-0.1399549, 43.2817759], [-0.1399584, 43.281613], [-0.1399327, 43.2815087], [-0.1397058, 43.2811181], [-0.1396446, 43.2810308], [-0.1396159, 43.2809474], [-0.139613, 43.2808439], [-0.1396724, 43.2807831], [-0.1397477, 43.2807289], [-0.1398495, 43.2807075], [-0.1399498, 43.2806409], [-0.1400134, 43.2805112], [-0.1400086, 43.2803563], [-0.1399818, 43.2802637], [-0.1398533, 43.2802253], [-0.1397555, 43.2801571], [-0.1396795, 43.2801008], [-0.1396687, 43.2800277], [-0.1396092, 43.2800437], [-0.1395334, 43.2799769], [-0.1395287, 43.2797443], [-0.139568, 43.2795402], [-0.1395652, 43.2793969], [-0.1395266, 43.2792851], [-0.1395478, 43.2791813], [-0.1395876, 43.2791596], [-0.1396677, 43.279091], [-0.1396945, 43.2789932], [-0.1396602, 43.2788843], [-0.1395265, 43.2788396], [-0.1394025, 43.2787763], [-0.1393205, 43.2787574], [-0.1392304, 43.278842], [-0.1390675, 43.2790886], [-0.1388207, 43.2793467], [-0.1385798, 43.2793841], [-0.1383388, 43.279378], [-0.1382555, 43.2794108], [-0.1382536, 43.2793132], [-0.1379045, 43.2797172], [-0.1377016, 43.2800073], [-0.1375096, 43.2802301], [-0.1374091, 43.2802969], [-0.1372927, 43.2803679], [-0.137179, 43.2804469], [-0.1370386, 43.28049], [-0.1369333, 43.2805273], [-0.1367981, 43.2805427], [-0.1366853, 43.2805262], [-0.1365039, 43.2804756], [-0.1363333, 43.2804526], [-0.1358846, 43.2804549], [-0.1354358, 43.2804809], [-0.1347762, 43.2803908], [-0.1346826, 43.2803414], [-0.1346024, 43.2802181], [-0.1346314, 43.2801309], [-0.1346604, 43.2800397], [-0.1346276, 43.2799492], [-0.1345623, 43.2798547], [-0.1345199, 43.2798128], [-0.1345319, 43.2796958], [-0.1345178, 43.2795725], [-0.1343229, 43.2794251], [-0.1342616, 43.2793154], [-0.134305, 43.2792406], [-0.1344153, 43.2791799], [-0.1344359, 43.2790976], [-0.1344304, 43.2790132], [-0.1344656, 43.2789662], [-0.134449, 43.278908], [-0.1343677, 43.2788553], [-0.1343081, 43.2788244], [-0.1343029, 43.2787625], [-0.1342709, 43.2787296], [-0.1342069, 43.2786204], [-0.1341603, 43.2785049], [-0.1339584, 43.2783054], [-0.1338541, 43.2782633], [-0.133728, 43.2782568], [-0.1336715, 43.2782675], [-0.1336073, 43.278281], [-0.1335386, 43.2782448], [-0.1333795, 43.2781605], [-0.1331809, 43.2781223], [-0.1329476, 43.2780835], [-0.1327198, 43.2780724], [-0.1325901, 43.2780897], [-0.1324891, 43.2780046], [-0.1324234, 43.2779313], [-0.1324277, 43.2778481], [-0.1323659, 43.2777528], [-0.1322578, 43.2776206], [-0.1322393, 43.2775514], [-0.1322833, 43.2774881], [-0.1324871, 43.2772709], [-0.1325293, 43.277129], [-0.1325335, 43.2770484], [-0.1325159, 43.2769373], [-0.1324685, 43.2768579], [-0.1324496, 43.2767188], [-0.13245, 43.2764287], [-0.132514, 43.2763023], [-0.1325862, 43.2762418], [-0.1328104, 43.2761537], [-0.1331123, 43.2760565], [-0.1330977, 43.2759283], [-0.1326574, 43.2758696], [-0.1324496, 43.2757938], [-0.132345, 43.2756982], [-0.1323628, 43.2756448], [-0.1323481, 43.2755913], [-0.1323105, 43.2754943], [-0.132272, 43.2754426], [-0.1321928, 43.2754029], [-0.1320045, 43.2753194], [-0.1316968, 43.2752835], [-0.1312182, 43.2752144], [-0.1310873, 43.2752125], [-0.1308812, 43.2751789], [-0.1307131, 43.2751057], [-0.130427, 43.2748867], [-0.1299599, 43.2747045], [-0.1297074, 43.2745314], [-0.1296227, 43.27446], [-0.1296004, 43.274387], [-0.1295163, 43.2743424], [-0.1293286, 43.2739685], [-0.1292876, 43.2738627], [-0.1292194, 43.2737608], [-0.1290615, 43.2736319], [-0.1289754, 43.2735232], [-0.1288785, 43.2734461], [-0.128605, 43.2733703], [-0.1284755, 43.2733732], [-0.128346, 43.2733406], [-0.1281952, 43.273364], [-0.1281741, 43.2733995], [-0.1280986, 43.2734033], [-0.1277386, 43.2732949], [-0.1275877, 43.2732676], [-0.1273755, 43.2731932], [-0.1270848, 43.27312], [-0.1268798, 43.2731459], [-0.1265756, 43.2731516], [-0.1252872, 43.2728039], [-0.1250423, 43.2726765], [-0.1247458, 43.272559], [-0.1243755, 43.2723951], [-0.124341, 43.2724074], [-0.1242286, 43.272357], [-0.1241558, 43.2723905], [-0.1241189, 43.2724497], [-0.1240289, 43.2725049], [-0.123827, 43.272548], [-0.1237112, 43.2725471], [-0.1234253, 43.2724465], [-0.1233929, 43.272345], [-0.1234364, 43.2721734], [-0.1233931, 43.2720399], [-0.1230389, 43.2718869], [-0.1227773, 43.2718783], [-0.1227764, 43.2718103], [-0.1229074, 43.2716888], [-0.1229166, 43.2716608], [-0.1228865, 43.2716271], [-0.1224675, 43.2714999], [-0.122306, 43.2712991], [-0.1221873, 43.2712547], [-0.1221178, 43.2711764], [-0.1220225, 43.2711392], [-0.1219411, 43.2710568], [-0.121773, 43.2709715], [-0.1216753, 43.2707447], [-0.1216515, 43.270669], [-0.1216693, 43.270609], [-0.1216775, 43.2704652], [-0.1216886, 43.2703247], [-0.1216844, 43.2702054], [-0.1216314, 43.2701399], [-0.1216564, 43.2700996], [-0.1216135, 43.2700271], [-0.121598, 43.2699362], [-0.1217246, 43.2698613], [-0.1218356, 43.2698028], [-0.1218775, 43.2697375], [-0.1216663, 43.2698656], [-0.1215006, 43.2699387], [-0.1214204, 43.2698861], [-0.1212929, 43.2698605], [-0.1212017, 43.2697853], [-0.1210739, 43.2697718], [-0.120856, 43.2697702], [-0.1207528, 43.2698059], [-0.1206496, 43.2698616], [-0.1207053, 43.2697899], [-0.1207458, 43.2697341], [-0.1207394, 43.269682], [-0.1207265, 43.2696017], [-0.1207391, 43.2695486], [-0.1207588, 43.269502], [-0.1207598, 43.2694287], [-0.1207074, 43.2695287], [-0.1207062, 43.2696292], [-0.1207093, 43.269687], [-0.1206609, 43.2697431], [-0.1205969, 43.2698432], [-0.120477, 43.2698966], [-0.120357, 43.2699222], [-0.1202373, 43.2699137], [-0.1201253, 43.2699318], [-0.1200435, 43.2700036], [-0.1199725, 43.2700796], [-0.1199017, 43.2701122], [-0.1197982, 43.2701336], [-0.1196804, 43.2701494], [-0.1195735, 43.2701871], [-0.1194854, 43.2702624], [-0.1193201, 43.2703136], [-0.1191041, 43.2703603], [-0.1189295, 43.2703648], [-0.1187823, 43.2703495], [-0.1186789, 43.2702989], [-0.1185214, 43.2702613], [-0.1182787, 43.2701833], [-0.1181233, 43.2700814], [-0.1179819, 43.2699213], [-0.1178942, 43.2697334], [-0.1177246, 43.2695535], [-0.1171381, 43.2690572], [-0.1170014, 43.2689641], [-0.1170176, 43.268861], [-0.1168261, 43.2688855], [-0.1166779, 43.2688391], [-0.1166547, 43.2688973], [-0.1164607, 43.2688468], [-0.1161929, 43.2688174], [-0.1160888, 43.268866], [-0.1160008, 43.2689591], [-0.1159995, 43.2690778], [-0.1160953, 43.2691878], [-0.1162376, 43.2693563], [-0.1161783, 43.2693908], [-0.1162124, 43.2695236], [-0.1162098, 43.2695904], [-0.1160844, 43.2696006], [-0.1158773, 43.26943], [-0.1158346, 43.2693276], [-0.1156453, 43.2692301], [-0.1153431, 43.2691466], [-0.1151621, 43.2692697], [-0.1150376, 43.2692336], [-0.1149223, 43.2692741], [-0.1146511, 43.2691727], [-0.1144874, 43.2691717], [-0.1144139, 43.2692065], [-0.1144909, 43.2693147], [-0.1144533, 43.2693433], [-0.1142217, 43.2693798], [-0.1140611, 43.2694164], [-0.1140197, 43.2694433], [-0.1137979, 43.2695259], [-0.1136474, 43.269587], [-0.1135788, 43.2696402], [-0.113729, 43.2698384], [-0.1137887, 43.269819], [-0.1141987, 43.269675], [-0.1143083, 43.2696503], [-0.1144498, 43.269611], [-0.1146078, 43.2695995], [-0.1146723, 43.2696322], [-0.1147524, 43.269634], [-0.1148851, 43.2696615], [-0.1150195, 43.2697125], [-0.1151462, 43.2697349], [-0.1153286, 43.2697797], [-0.1155296, 43.2699091], [-0.1156586, 43.269981], [-0.1158345, 43.2701009], [-0.1158641, 43.2701657], [-0.1158032, 43.270196], [-0.1157579, 43.2702446], [-0.1156781, 43.2702502], [-0.1154857, 43.2702099], [-0.1153304, 43.2701928], [-0.115069, 43.2701627], [-0.1147974, 43.2701341], [-0.114631, 43.2700851], [-0.1144349, 43.2699869], [-0.1143539, 43.2701008], [-0.1142738, 43.2701098], [-0.1141275, 43.2702353], [-0.1142064, 43.2703956], [-0.1143345, 43.2705559], [-0.1144407, 43.2707163], [-0.1145852, 43.2708766], [-0.1148371, 43.2711181], [-0.1152605, 43.2714987], [-0.1154712, 43.2714849], [-0.1155916, 43.2715165], [-0.1156464, 43.271568], [-0.1156851, 43.2715794], [-0.1157459, 43.2715506], [-0.1159114, 43.2715606], [-0.1161031, 43.2716244], [-0.1164186, 43.2716793], [-0.1164965, 43.2717184], [-0.116762, 43.271951], [-0.1169154, 43.2720942], [-0.1170148, 43.2721181], [-0.1171417, 43.2721828], [-0.1171751, 43.2722311], [-0.1172522, 43.2722993], [-0.1173476, 43.2723294], [-0.1178388, 43.2726422], [-0.1180838, 43.2726872], [-0.1182626, 43.2728049], [-0.1187107, 43.2730111], [-0.1189363, 43.273119], [-0.1190036, 43.2731712], [-0.1190398, 43.2731284], [-0.1191559, 43.2731701], [-0.1191368, 43.2732257], [-0.1191587, 43.2732693], [-0.1192298, 43.273261], [-0.1192928, 43.2732069], [-0.1193612, 43.2732126], [-0.1198637, 43.2733021], [-0.1201838, 43.273393], [-0.1204657, 43.273452], [-0.1208171, 43.2735919], [-0.1211685, 43.2737596], [-0.1217241, 43.2740644], [-0.1226935, 43.2746544], [-0.122834, 43.2747442], [-0.1230018, 43.2748103], [-0.1234493, 43.27488], [-0.1240642, 43.2748522], [-0.1242672, 43.2748546], [-0.1244921, 43.2749154], [-0.1246883, 43.2749649], [-0.1248163, 43.2749548], [-0.1249, 43.275016], [-0.1249044, 43.275134], [-0.1249823, 43.2753377], [-0.1251086, 43.2757352], [-0.125686, 43.2763356], [-0.1260056, 43.2766242], [-0.1259985, 43.276704], [-0.1260937, 43.2768556], [-0.1261693, 43.2768924], [-0.1262237, 43.2770216], [-0.1263381, 43.2771589], [-0.1268045, 43.2774717], [-0.1268292, 43.2775263], [-0.1269904, 43.2776466], [-0.1269523, 43.277738], [-0.1269691, 43.2778055], [-0.1270463, 43.277873], [-0.1272773, 43.2781867], [-0.1273366, 43.2783379], [-0.1273813, 43.2784006], [-0.1274096, 43.2784632], [-0.1274354, 43.2787219], [-0.1274706, 43.2788534], [-0.1275028, 43.279038], [-0.1275841, 43.2792226], [-0.1276485, 43.2794845], [-0.1275981, 43.2796707], [-0.1276078, 43.2797696], [-0.1275539, 43.2798348], [-0.1275904, 43.2807746], [-0.1277237, 43.2810263], [-0.1280088, 43.2812906], [-0.1280869, 43.2816103], [-0.1283566, 43.2818199], [-0.1283724, 43.2819023], [-0.1285021, 43.2820035], [-0.1286087, 43.2820231], [-0.128617, 43.2820664], [-0.1286581, 43.2821098], [-0.1287185, 43.2820766], [-0.1288176, 43.2821135], [-0.1287829, 43.2821623], [-0.1288847, 43.2823224], [-0.1291827, 43.2825137], [-0.1295308, 43.2828431], [-0.1295711, 43.2829521], [-0.1296605, 43.2830372], [-0.1297997, 43.2832029], [-0.1298814, 43.283252], [-0.1299137, 43.2834098], [-0.1299675, 43.283463], [-0.1300375, 43.2834566], [-0.1300747, 43.2835058], [-0.1301492, 43.2835527], [-0.1302381, 43.2835231], [-0.1303831, 43.2836072], [-0.1304687, 43.2836346], [-0.1306445, 43.2837236], [-0.1307111, 43.2838254], [-0.1307308, 43.2839001], [-0.1307942, 43.2839748], [-0.1309289, 43.2841381], [-0.1309184, 43.2841869], [-0.1309461, 43.2842357], [-0.1310652, 43.2843933], [-0.1316711, 43.2847896], [-0.1320695, 43.2850309], [-0.1321902, 43.2851437], [-0.1323191, 43.2851591], [-0.1324015, 43.2851885], [-0.1325058, 43.2851979], [-0.132608, 43.2853103], [-0.1326609, 43.2854147], [-0.1327636, 43.2854704], [-0.1328979, 43.2855302], [-0.1329753, 43.2856896], [-0.1331301, 43.2857737], [-0.133162, 43.2858201], [-0.1332649, 43.2858665], [-0.1333598, 43.2859567], [-0.1333802, 43.2860177], [-0.1334593, 43.2860642], [-0.1335464, 43.2860856], [-0.1337808, 43.2862118], [-0.1338324, 43.2863137], [-0.133895, 43.2864156], [-0.1340037, 43.2864604], [-0.1341283, 43.2865767], [-0.1342874, 43.2866259], [-0.1344529, 43.2866828], [-0.1344865, 43.2867291], [-0.134542, 43.2867635], [-0.1346857, 43.2868092], [-0.1347515, 43.2868646], [-0.1348037, 43.286916], [-0.1349049, 43.2869302], [-0.1350112, 43.2870807], [-0.1351228, 43.2872456], [-0.1352959, 43.287373], [-0.1353996, 43.2873356], [-0.1355365, 43.2872962], [-0.1360527, 43.2878025], [-0.1360977, 43.2879405], [-0.1363101, 43.2881434], [-0.1365006, 43.288464], [-0.1365268, 43.2885326], [-0.1366005, 43.2885886], [-0.1367306, 43.2886943], [-0.13687, 43.2887299], [-0.1369848, 43.2888325], [-0.1370973, 43.2889681], [-0.1372012, 43.2891256], [-0.1375084, 43.289298], [-0.1378157, 43.2894169], [-0.13799, 43.2895481], [-0.1382088, 43.2897445], [-0.1384103, 43.2899691], [-0.1386797, 43.2901356], [-0.1387284, 43.2903225], [-0.1390698, 43.2905722], [-0.13934, 43.2906869], [-0.1394932, 43.2907934], [-0.1396162, 43.290947], [-0.1398924, 43.2911758], [-0.1400047, 43.2913255], [-0.1403199, 43.2915809], [-0.1404929, 43.2916834], [-0.1407112, 43.2916068]]]}}, {"type": "Feature", "properties": {"name": "Retenue du Balaing"}, "geometry": {"type": "Polygon", "coordinates": [[[-0.345647, 43.4343064], [-0.3471091, 43.4344057], [-0.3477944, 43.4351606], [-0.3480595, 43.4356805], [-0.3485584, 43.4360467], [-0.3492397, 43.4364284], [-0.3499693, 43.4367089], [-0.3501811, 43.4369558], [-0.3507446, 43.4372514], [-0.3534269, 43.4386743], [-0.3544718, 43.4390678], [-0.35483, 43.439376], [-0.3556009, 43.4397096], [-0.357279, 43.4409591], [-0.3579993, 43.4413942], [-0.3586155, 43.4415545], [-0.3572026, 43.4431765], [-0.3562344, 43.4442296], [-0.3560292, 43.4441168], [-0.3551753, 43.4436518], [-0.3542786, 43.4431491], [-0.3537743, 43.4426813], [-0.3531552, 43.4423122], [-0.3516449, 43.441915], [-0.3513185, 43.4416324], [-0.3508537, 43.4406941], [-0.3496143, 43.4393121], [-0.3482323, 43.4384493], [-0.3467909, 43.4372147], [-0.3454916, 43.4360799], [-0.3447612, 43.4354669], [-0.3447644, 43.4354293], [-0.344803, 43.4353816], [-0.3454311, 43.4350529], [-0.345647, 43.4343064]]]}}, {"type": "Feature", "properties": {"name": "Lac de Bassillon-Vauzé"}, "geometry": {"type": "Polygon", "coordinates": [[[-0.0709171, 43.4629212], [-0.0709766, 43.4630632], [-0.0709021, 43.4632327], [-0.0706583, 43.4635941], [-0.064907, 43.4635139], [-0.0645938, 43.4634837], [-0.0647135, 43.4630017], [-0.0644791, 43.4624243], [-0.0646049, 43.4619239], [-0.0646284, 43.4614231], [-0.0645614, 43.4604912], [-0.0645139, 43.4598075], [-0.0643247, 43.4594424], [-0.06395, 43.4591069], [-0.0635927, 43.4582759], [-0.0634608, 43.4578283], [-0.0634264, 43.4575094], [-0.0630227, 43.4572416], [-0.0624195, 43.4566562], [-0.0620317, 43.4563555], [-0.0617862, 43.4558921], [-0.0615546, 43.4557391], [-0.0614681, 43.455661], [-0.0613889, 43.4555459], [-0.0613554, 43.4548519], [-0.0614192, 43.4546388], [-0.0613809, 43.4544598], [-0.0611713, 43.4541396], [-0.0611818, 43.4535538], [-0.0612895, 43.4533345], [-0.0613279, 43.4533137], [-0.061466, 43.4532957], [-0.0616173, 43.453345], [-0.061976, 43.4538511], [-0.062019, 43.4540213], [-0.0621138, 43.4541343], [-0.0630184, 43.4542424], [-0.0636905, 43.4543023], [-0.0638649, 43.4544104], [-0.0638909, 43.4545514], [-0.063933, 43.4548704], [-0.0640913, 43.4552295], [-0.0642657, 43.4554312], [-0.0644768, 43.4554726], [-0.064571, 43.45563], [-0.0645491, 43.4558298], [-0.064638, 43.4559984], [-0.0648703, 43.4561175], [-0.0654558, 43.4563544], [-0.0655961, 43.4565983], [-0.0656259, 43.4568052], [-0.0657195, 43.4569966], [-0.0659109, 43.4572066], [-0.0659279, 43.4573517], [-0.0660172, 43.4574937], [-0.0661363, 43.4576326], [-0.0661661, 43.4577592], [-0.0662682, 43.4579846], [-0.0664383, 43.458139], [-0.0665872, 43.4582748], [-0.066651, 43.458423], [-0.0668296, 43.458565], [-0.0671401, 43.4586824], [-0.0675357, 43.4588522], [-0.0678759, 43.45913], [-0.0680801, 43.4594172], [-0.0681141, 43.4596209], [-0.0682715, 43.4599327], [-0.0684374, 43.4601581], [-0.0685267, 43.460331], [-0.0687266, 43.4604514], [-0.069203, 43.4608065], [-0.0695112, 43.4612014], [-0.070215, 43.4620485], [-0.0706782, 43.4624807], [-0.0708526, 43.4627383], [-0.0709171, 43.4629212]]]}}, {"type": "Feature", "properties": {"name": "Lac du Gabassot"}, "geometry": {"type": "Polygon", "coordinates": [[[-0.2661349, 43.5516721], [-0.266003, 43.5516667], [-0.2637472, 43.5510634], [-0.2624725, 43.5507225], [-0.262378, 43.5506543], [-0.2624752, 43.5505666], [-0.2626036, 43.5503286], [-0.262921, 43.5495478], [-0.2629014, 43.5493248], [-0.2629519, 43.5488797], [-0.2630875, 43.5485983], [-0.26334, 43.5481436], [-0.2634112, 43.5477285], [-0.2639242, 43.546798], [-0.2640766, 43.5465133], [-0.264214, 43.5457353], [-0.2643903, 43.5454573], [-0.2645817, 43.5445517], [-0.2646349, 43.54375], [-0.2647891, 43.5429908], [-0.2648582, 43.5425398], [-0.2646881, 43.5418654], [-0.2649805, 43.5406744], [-0.265189, 43.5400889], [-0.2654165, 43.5396595], [-0.2657081, 43.5392571], [-0.2659769, 43.5390109], [-0.2663118, 43.5389323], [-0.2666256, 43.5389011], [-0.2672625, 43.5388811], [-0.2674287, 43.5389395], [-0.2675282, 43.5390988], [-0.2671655, 43.5398059], [-0.2672319, 43.5402857], [-0.2674872, 43.5408407], [-0.2677105, 43.5415692], [-0.2677052, 43.5418987], [-0.267745, 43.5422514], [-0.2679896, 43.5426849], [-0.2679604, 43.543105], [-0.2679072, 43.5435116], [-0.2680002, 43.5439664], [-0.2679567, 43.5441444], [-0.2679335, 43.5442465], [-0.2680234, 43.5448942], [-0.2682727, 43.5455587], [-0.2681717, 43.5461329], [-0.2681218, 43.5472453], [-0.2678759, 43.5480052], [-0.2676578, 43.5482285], [-0.2674366, 43.5493009], [-0.2671377, 43.5497478], [-0.2669516, 43.5503799], [-0.2669572, 43.5508623], [-0.2667937, 43.5511824], [-0.2665531, 43.5513636], [-0.2663256, 43.5514195], [-0.2662049, 43.5515946], [-0.2661349, 43.5516721]]]}}, {"type": "Feature", "properties": {"name": "Lac d'Artouste"}, "geometry": {"type": "Polygon", "coordinates": [[[-0.3322958, 42.8629864], [-0.3322026, 42.8626953], [-0.3320433, 42.8626218], [-0.3318215, 42.8625694], [-0.3313169, 42.8624914], [-0.3308837, 42.8624612], [-0.330488, 42.8625514], [-0.3300698, 42.8626127], [-0.3296795, 42.8625242], [-0.3293635, 42.8624765], [-0.3291219, 42.8623879], [-0.3286851, 42.8623471], [-0.3283319, 42.8621018], [-0.3280427, 42.8618145], [-0.3279509, 42.8616522], [-0.3280345, 42.8615092], [-0.3278208, 42.8613798], [-0.3276204, 42.8612611], [-0.3275791, 42.8612367], [-0.3274583, 42.8608689], [-0.3274305, 42.8605214], [-0.3275606, 42.8601468], [-0.3277464, 42.8598538], [-0.3278237, 42.8596077], [-0.3276442, 42.85952], [-0.3273747, 42.8593974], [-0.3273375, 42.8591317], [-0.3275048, 42.8588797], [-0.3278858, 42.8586957], [-0.3279416, 42.8585595], [-0.3281275, 42.8584846], [-0.3281542, 42.8583611], [-0.3281368, 42.8581916], [-0.3280438, 42.8581099], [-0.3279416, 42.8580349], [-0.3280066, 42.8579396], [-0.3279881, 42.8577692], [-0.3279323, 42.8576807], [-0.3280252, 42.8576057], [-0.3279602, 42.8574763], [-0.3278672, 42.8573401], [-0.3279881, 42.8570062], [-0.3282483, 42.856761], [-0.3286107, 42.8565975], [-0.3287966, 42.856543], [-0.3289732, 42.8564476], [-0.3292404, 42.8561444], [-0.32941, 42.8558822], [-0.3293821, 42.8556641], [-0.3294564, 42.8555006], [-0.32941, 42.8553099], [-0.3295494, 42.8551328], [-0.3298282, 42.8549761], [-0.3301163, 42.854724], [-0.3303765, 42.8545741], [-0.3308597, 42.8545264], [-0.3311031, 42.8544336], [-0.3312315, 42.8541653], [-0.3313802, 42.8540972], [-0.3315753, 42.853995], [-0.3317984, 42.8538519], [-0.3319656, 42.8537293], [-0.3322166, 42.8535862], [-0.33249, 42.8536073], [-0.3325697, 42.8536135], [-0.3328578, 42.8535726], [-0.3331924, 42.8535999], [-0.3335525, 42.8536471], [-0.3339266, 42.8539405], [-0.334131, 42.8539541], [-0.334289, 42.8539269], [-0.334447, 42.8538042], [-0.3345957, 42.8536816], [-0.3347537, 42.8537021], [-0.3349303, 42.8538179], [-0.3351719, 42.8539337], [-0.3351998, 42.854104], [-0.3353612, 42.8541147], [-0.3355808, 42.8540086], [-0.3357202, 42.8539201], [-0.3357736, 42.8539291], [-0.335841, 42.8539405], [-0.3357295, 42.8540699], [-0.3357202, 42.854213], [-0.3358224, 42.8542811], [-0.3357109, 42.8544515], [-0.3356273, 42.8545264], [-0.3355622, 42.854649], [-0.3354228, 42.8548262], [-0.3354786, 42.8549284], [-0.3355622, 42.8550442], [-0.3355901, 42.8551941], [-0.3356366, 42.8554053], [-0.3357945, 42.8555756], [-0.3358038, 42.8557595], [-0.3356801, 42.8561206], [-0.3356273, 42.8564476], [-0.3354321, 42.8567133], [-0.3351719, 42.8568768], [-0.3351905, 42.8570267], [-0.3353206, 42.8571152], [-0.3355343, 42.8570539], [-0.3356923, 42.8570403], [-0.3357388, 42.8572038], [-0.3356644, 42.8575219], [-0.3354321, 42.8579941], [-0.3353206, 42.8581712], [-0.3353299, 42.8584641], [-0.3353113, 42.8586549], [-0.3354611, 42.859126], [-0.3354977, 42.8593974], [-0.335567, 42.8596335], [-0.3356824, 42.8599652], [-0.3356139, 42.8603128], [-0.3354542, 42.860547], [-0.3353235, 42.8607066], [-0.3354259, 42.8608413], [-0.3356865, 42.8608982], [-0.3355268, 42.8611111], [-0.3353235, 42.861175], [-0.3353862, 42.8613314], [-0.3352509, 42.8614836], [-0.3353859, 42.8615902], [-0.3353618, 42.8616165], [-0.3350654, 42.8619401], [-0.3348152, 42.8617817], [-0.3346111, 42.8617535], [-0.3343941, 42.861771], [-0.3341455, 42.862036], [-0.3340721, 42.8621434], [-0.3339666, 42.8623318], [-0.3339583, 42.8626196], [-0.3337487, 42.8626348], [-0.3333937, 42.8626781], [-0.3331162, 42.8627369], [-0.3328382, 42.8628059], [-0.332563, 42.8628855], [-0.3322958, 42.8629864]]]}}, {"type": "Feature", "properties": {"name": "Lac de Bious-Artigues"}, "geometry": {"type": "Polygon", "coordinates": [[[-0.4482814, 42.8692768], [-0.448142, 42.8692218], [-0.448321, 42.8687871], [-0.4492605, 42.8684582], [-0.4493782, 42.8683653], [-0.4498824, 42.8683643], [-0.4503494, 42.8679804], [-0.4504512, 42.867628], [-0.4505064, 42.8674371], [-0.4504735, 42.8667548], [-0.4508206, 42.8661243], [-0.4509606, 42.8659025], [-0.450955, 42.8655937], [-0.4508053, 42.8654048], [-0.4506685, 42.8650226], [-0.4501941, 42.8645325], [-0.4507263, 42.8646795], [-0.4517642, 42.8643843], [-0.4521325, 42.8644196], [-0.4530881, 42.8649789], [-0.4535762, 42.8649661], [-0.4542322, 42.8646344], [-0.4549604, 42.8645345], [-0.4553745, 42.864254], [-0.4556774, 42.8642012], [-0.4559604, 42.8636005], [-0.4558119, 42.863478], [-0.4559242, 42.8631291], [-0.455363, 42.8628183], [-0.4553235, 42.8625608], [-0.4554877, 42.8625745], [-0.4562161, 42.8630389], [-0.4564428, 42.8636059], [-0.4565783, 42.8637037], [-0.4564583, 42.864865], [-0.4566294, 42.8652598], [-0.4570348, 42.8656807], [-0.4581041, 42.8659965], [-0.4584062, 42.8660169], [-0.4588176, 42.8663321], [-0.4587562, 42.8664948], [-0.4584522, 42.8668219], [-0.4582997, 42.8673928], [-0.4585066, 42.867654], [-0.4583471, 42.8681222], [-0.458316, 42.8682134], [-0.4579585, 42.8681814], [-0.4570903, 42.8686462], [-0.456802, 42.8693254], [-0.4564425, 42.8695214], [-0.4563654, 42.8694204], [-0.4562543, 42.8693242], [-0.4561059, 42.8692344], [-0.4559678, 42.8691774], [-0.4558056, 42.8691312], [-0.4556393, 42.8691125], [-0.4554944, 42.8691056], [-0.4553523, 42.8691154], [-0.4552047, 42.869144], [-0.4550465, 42.8691891], [-0.4549539, 42.8692343], [-0.4548571, 42.8692832], [-0.4548477, 42.8692161], [-0.454574, 42.8690069], [-0.4540206, 42.8688675], [-0.4532798, 42.8688897], [-0.4528209, 42.8690372], [-0.452622, 42.8691621], [-0.4516901, 42.8691545], [-0.4503978, 42.8690914], [-0.4488167, 42.8693981], [-0.4482814, 42.8692768]]]}}, {"type": "Feature", "properties": {"name": "Lac de Fabrèges"}, "geometry": {"type": "Polygon", "coordinates": [[[-0.3937117, 42.8678887], [-0.3938323, 42.867918], [-0.3938196, 42.8682252], [-0.3943117, 42.8686743], [-0.3945288, 42.868746], [-0.39473, 42.8688522], [-0.3949124, 42.8690114], [-0.39511, 42.8691224], [-0.3952051, 42.8691758], [-0.3954086, 42.8693711], [-0.3954853, 42.8695504], [-0.3956212, 42.8696644], [-0.3957351, 42.8697615], [-0.3959115, 42.8699232], [-0.3961656, 42.8700951], [-0.3964191, 42.870418], [-0.3965056, 42.8706666], [-0.3964815, 42.8707393], [-0.3966548, 42.8711405], [-0.3966378, 42.8712086], [-0.3965673, 42.8713684], [-0.3965539, 42.8715433], [-0.3965941, 42.8716947], [-0.3966558, 42.8717989], [-0.3966652, 42.8718977], [-0.3967121, 42.872021], [-0.3968033, 42.8721409], [-0.3969213, 42.8722077], [-0.3970401, 42.872224], [-0.3971815, 42.8723611], [-0.3973076, 42.872367], [-0.3973398, 42.8724043], [-0.3972834, 42.8724417], [-0.3972562, 42.8725662], [-0.3972861, 42.8729547], [-0.3973248, 42.872997], [-0.3973907, 42.8731867], [-0.3975506, 42.8733769], [-0.3976857, 42.8738296], [-0.3977099, 42.8740968], [-0.3977528, 42.8741203], [-0.3978128, 42.8740952], [-0.3981168, 42.8743577], [-0.3981479, 42.8744953], [-0.3982427, 42.8749282], [-0.3984385, 42.8752914], [-0.3987077, 42.8755946], [-0.3988884, 42.8759512], [-0.3988811, 42.8760545], [-0.3989464, 42.8761037], [-0.3990671, 42.8760919], [-0.3990805, 42.8761489], [-0.3990054, 42.8762], [-0.3990001, 42.8762354], [-0.3990939, 42.8762432], [-0.3991315, 42.8762707], [-0.3990766, 42.8763771], [-0.3993192, 42.8767818], [-0.3996277, 42.8771513], [-0.3997135, 42.8771906], [-0.3996867, 42.8773439], [-0.3997243, 42.8774659], [-0.4001105, 42.8779415], [-0.4005236, 42.878464], [-0.4008561, 42.8787906], [-0.4014194, 42.8793075], [-0.4015411, 42.8793482], [-0.4014623, 42.8794441], [-0.4014623, 42.8795424], [-0.401483, 42.8796077], [-0.4015777, 42.8796377], [-0.4016597, 42.8795986], [-0.4017882, 42.8796524], [-0.4018553, 42.8797006], [-0.4018351, 42.8797527], [-0.4019116, 42.8797805], [-0.4019733, 42.8798116], [-0.402098, 42.879907], [-0.4020832, 42.8799512], [-0.4020417, 42.8800033], [-0.4020363, 42.8800406], [-0.4020645, 42.8800475], [-0.4020918, 42.8800781], [-0.4020363, 42.8800839], [-0.4019532, 42.8801664], [-0.4019773, 42.8802254], [-0.4020171, 42.8803748], [-0.4019853, 42.8805143], [-0.4020605, 42.8806165], [-0.4021168, 42.8806086], [-0.4021221, 42.880644], [-0.4020256, 42.8807108], [-0.4019818, 42.8807676], [-0.4019612, 42.8809388], [-0.4019505, 42.8810882], [-0.4019878, 42.881358], [-0.4019558, 42.8815678], [-0.4019719, 42.8816503], [-0.4020014, 42.8817525], [-0.40198, 42.8819176], [-0.4019809, 42.8820301], [-0.4020363, 42.882067], [-0.4020202, 42.8820945], [-0.4020284, 42.8821376], [-0.4020739, 42.8821849], [-0.4021516, 42.8822124], [-0.4022046, 42.8822033], [-0.402382, 42.8823345], [-0.4024176, 42.8823807], [-0.4024045, 42.8823973], [-0.4024103, 42.8824406], [-0.4024689, 42.8824305], [-0.4024741, 42.8824121], [-0.4024975, 42.8824152], [-0.4026639, 42.8825564], [-0.4026406, 42.8825743], [-0.4026281, 42.8825999], [-0.402528, 42.8825863], [-0.4024035, 42.8825836], [-0.4022843, 42.8825899], [-0.4021652, 42.8826027], [-0.4020356, 42.8826342], [-0.4019101, 42.8826694], [-0.4018038, 42.882712], [-0.4016846, 42.8827761], [-0.4015928, 42.8828455], [-0.4015086, 42.882916], [-0.4014425, 42.8829927], [-0.4014104, 42.8830388], [-0.4013812, 42.8830858], [-0.401361, 42.8831216], [-0.4013276, 42.8832058], [-0.4013204, 42.8832247], [-0.401307, 42.883225], [-0.4012944, 42.8832282], [-0.4012844, 42.8832334], [-0.4012767, 42.8832405], [-0.4012718, 42.8832492], [-0.4012702, 42.8832598], [-0.4012724, 42.883267], [-0.4012774, 42.8832748], [-0.401285, 42.8832814], [-0.4012649, 42.8832839], [-0.40125, 42.883302], [-0.4012709, 42.8833122], [-0.4012578, 42.88335], [-0.4012396, 42.8833631], [-0.4012416, 42.8833838], [-0.4012549, 42.8834057], [-0.4012522, 42.8834812], [-0.4012864, 42.8834766], [-0.4012936, 42.883494], [-0.4013066, 42.8835006], [-0.4013032, 42.8835597], [-0.4012933, 42.8835646], [-0.4012665, 42.8835744], [-0.4011914, 42.8835577], [-0.4010895, 42.8835587], [-0.4010198, 42.8835253], [-0.4009621, 42.8835617], [-0.4009125, 42.8835813], [-0.4008347, 42.8835872], [-0.4007489, 42.8835793], [-0.4006362, 42.8835902], [-0.4005879, 42.8835902], [-0.4004478, 42.8835638], [-0.4003371, 42.8835833], [-0.4002956, 42.8835666], [-0.4002848, 42.8835125], [-0.4003438, 42.8834555], [-0.4003446, 42.8834018], [-0.4003532, 42.8833587], [-0.4003123, 42.8833435], [-0.4002654, 42.8833366], [-0.4002084, 42.8833381], [-0.4001816, 42.8833268], [-0.4001454, 42.8833406], [-0.4001011, 42.8833337], [-0.4000826, 42.8833225], [-0.3999375, 42.8833317], [-0.3998651, 42.8833504], [-0.3997967, 42.8833691], [-0.3997486, 42.8834363], [-0.3996532, 42.883371], [-0.3996384, 42.8833219], [-0.3995982, 42.8832855], [-0.3995325, 42.8832826], [-0.399509, 42.8832683], [-0.3995124, 42.8832482], [-0.399476, 42.8831919], [-0.3995124, 42.8831008], [-0.3995217, 42.8829947], [-0.399566, 42.882973], [-0.3994976, 42.8829436], [-0.3994788, 42.8828355], [-0.3994949, 42.8827814], [-0.3995114, 42.8827034], [-0.3995311, 42.8825505], [-0.3995175, 42.882381], [-0.3995633, 42.8822753], [-0.3996798, 42.8821698], [-0.399684, 42.8821073], [-0.3996478, 42.8820739], [-0.3996491, 42.8820061], [-0.399562, 42.8819894], [-0.3995271, 42.8819609], [-0.3995298, 42.8819039], [-0.3995901, 42.8818419], [-0.3995518, 42.8817626], [-0.3995459, 42.8817221], [-0.3994507, 42.8816081], [-0.3994654, 42.8815186], [-0.3994735, 42.8814793], [-0.3994051, 42.8813506], [-0.3993742, 42.8812789], [-0.3994051, 42.8812376], [-0.3993501, 42.8811295], [-0.39933, 42.881044], [-0.399287, 42.880984], [-0.3992636, 42.8810017], [-0.3992327, 42.8809894], [-0.3992562, 42.88097], [-0.3993031, 42.8807757], [-0.399338, 42.8806479], [-0.399401, 42.880534], [-0.3994212, 42.8804666], [-0.3993273, 42.8804062], [-0.3991865, 42.8803423], [-0.3991476, 42.8802981], [-0.3991194, 42.8801979], [-0.3990752, 42.88013], [-0.3989518, 42.8799954], [-0.398984, 42.8799227], [-0.3989705, 42.8798834], [-0.3988713, 42.8798284], [-0.398815, 42.8797596], [-0.3987935, 42.8797006], [-0.3985006, 42.8794629], [-0.3984019, 42.8793409], [-0.3982732, 42.8792721], [-0.3982356, 42.8791935], [-0.398259, 42.8790489], [-0.3982204, 42.878955], [-0.3981564, 42.8789247], [-0.3980586, 42.8789005], [-0.3979333, 42.8789024], [-0.3977428, 42.8788711], [-0.3976261, 42.8788371], [-0.3974162, 42.8788342], [-0.3969594, 42.8787348], [-0.3966719, 42.8786491], [-0.3964676, 42.8785591], [-0.3963964, 42.8784357], [-0.3963661, 42.8783667], [-0.3958994, 42.8779041], [-0.3957278, 42.8777331], [-0.3956661, 42.8776156], [-0.395253, 42.8773774], [-0.3951144, 42.8772525], [-0.3950384, 42.8767361], [-0.3951339, 42.8766201], [-0.3951569, 42.8764841], [-0.3949955, 42.8761587], [-0.3948426, 42.8759327], [-0.3948413, 42.8758225], [-0.3949365, 42.8757715], [-0.3949767, 42.8757066], [-0.3950036, 42.8756044], [-0.3950921, 42.8754845], [-0.3951779, 42.8753174], [-0.3951538, 42.8751621], [-0.3952181, 42.8751091], [-0.3952342, 42.8749184], [-0.3952179, 42.8747406], [-0.3952315, 42.8745665], [-0.3952361, 42.8743965], [-0.3951886, 42.8742894], [-0.3951564, 42.8742422], [-0.3950197, 42.8741754], [-0.3949071, 42.8740506], [-0.3946576, 42.8737508], [-0.394502, 42.8735798], [-0.3944859, 42.873509], [-0.3943276, 42.8732987], [-0.3940702, 42.8731002], [-0.3939575, 42.8730549], [-0.3939414, 42.8730176], [-0.3940111, 42.872937], [-0.3941962, 42.8728603], [-0.3942713, 42.8728368], [-0.3942768, 42.8727093], [-0.3942606, 42.8725714], [-0.3943142, 42.8725419], [-0.3943276, 42.872422], [-0.394274, 42.8722411], [-0.3941345, 42.8721979], [-0.3940102, 42.8719709], [-0.3940004, 42.8718126], [-0.3938663, 42.8717419], [-0.3936946, 42.8713644], [-0.3935713, 42.8711836], [-0.3935643, 42.8711102], [-0.3933781, 42.8709595], [-0.3931608, 42.870801], [-0.3930509, 42.8705781], [-0.3930712, 42.8703676], [-0.3931582, 42.8699294], [-0.393067, 42.86978], [-0.3929383, 42.8696463], [-0.3931636, 42.869438], [-0.3932927, 42.86919], [-0.3934573, 42.8684144], [-0.3934676, 42.8678949], [-0.3935737, 42.8678922], [-0.3937117, 42.8678887]]]}}, {"type": "Feature", "properties": {"name": "Lac d'Orthez"}, "geometry": {"type": "Polygon", "coordinates": [[[-0.7405004, 43.4723037], [-0.74122, 43.4719198], [-0.7413501, 43.4717802], [-0.7413447, 43.4717468], [-0.7414395, 43.4716996], [-0.7416071, 43.4716958], [-0.7421237, 43.4717909], [-0.743515, 43.471321], [-0.7442632, 43.4708586], [-0.744984, 43.4705085], [-0.7452767, 43.4704495], [-0.7454772, 43.4705124], [-0.7457753, 43.4706698], [-0.7462465, 43.4708944], [-0.7465631, 43.471011], [-0.7466029, 43.4710262], [-0.7466427, 43.4710506], [-0.7466444, 43.4710743], [-0.7466335, 43.4711048], [-0.746637, 43.4711315], [-0.7466694, 43.4711652], [-0.746687, 43.4711796], [-0.7466813, 43.4711998], [-0.7466605, 43.4712188], [-0.7466662, 43.4712437], [-0.74669, 43.4713023], [-0.7466771, 43.4713609], [-0.7466421, 43.4714216], [-0.7465819, 43.4715056], [-0.7465218, 43.4715696], [-0.7464986, 43.4716011], [-0.7464953, 43.4716403], [-0.746523, 43.471655], [-0.7465578, 43.4716591], [-0.7466434, 43.4716539], [-0.7467625, 43.4716255], [-0.7470201, 43.4715336], [-0.7475256, 43.471392], [-0.7478469, 43.4713057], [-0.7479397, 43.471282], [-0.747975, 43.4712897], [-0.7479974, 43.4713107], [-0.7480307, 43.4713395], [-0.7480615, 43.4713734], [-0.7480943, 43.4713949], [-0.7481218, 43.4713976], [-0.7481465, 43.4713876], [-0.7481668, 43.4713642], [-0.7481864, 43.4713353], [-0.7481947, 43.471306], [-0.748194, 43.4712707], [-0.7481827, 43.4712336], [-0.748165, 43.4712056], [-0.7481258, 43.4711549], [-0.7480865, 43.4711109], [-0.7479922, 43.4710117], [-0.7479326, 43.470933], [-0.7478949, 43.4708879], [-0.7478699, 43.4708406], [-0.7478756, 43.4708139], [-0.747894, 43.4707872], [-0.7479402, 43.4707543], [-0.7487771, 43.4705272], [-0.7505568, 43.4702619], [-0.752384, 43.4707921], [-0.7532113, 43.4710028], [-0.7543977, 43.4714558], [-0.7551496, 43.4718667], [-0.755867, 43.4722679], [-0.7559375, 43.4723623], [-0.7562735, 43.4726514], [-0.7563377, 43.4727831], [-0.7563765, 43.4728834], [-0.7563522, 43.4730195], [-0.7563393, 43.4730916], [-0.7562545, 43.4733613], [-0.7562789, 43.4734891], [-0.7562162, 43.4739948], [-0.7565707, 43.4746913], [-0.7565906, 43.4748736], [-0.7567098, 43.4751076], [-0.7567119, 43.4752386], [-0.7566271, 43.4755309], [-0.7564442, 43.4756346], [-0.7562044, 43.4756864], [-0.7558142, 43.4756141], [-0.7554797, 43.4755377], [-0.7552265, 43.4754816], [-0.7549782, 43.4754262], [-0.7548541, 43.4753874], [-0.7544727, 43.4752197], [-0.7543934, 43.4751738], [-0.754456, 43.4751236], [-0.7541761, 43.4749046], [-0.7535868, 43.4745394], [-0.7532158, 43.4743469], [-0.7528021, 43.4741322], [-0.7523929, 43.4740044], [-0.7518699, 43.473908], [-0.7505624, 43.4736148], [-0.7483166, 43.4734215], [-0.7460897, 43.4732394], [-0.7456724, 43.4732394], [-0.7446486, 43.4731097], [-0.7418792, 43.472583], [-0.7407394, 43.4725015], [-0.7405426, 43.4724154], [-0.7405004, 43.4723037]]]}}]}