{"type": "FeatureCollection", "features": [{"type": "Feature", "properties": {"name": "Lac de Puydarrieux"}, "geometry": {"type": "Polygon", "coordinates": [[[0.4218078, 43.2966883], [0.4267051, 43.2955563], [0.4265557, 43.295223], [0.4265189, 43.2952191], [0.4264878, 43.2952044], [0.4264678, 43.2951816], [0.4264626, 43.2951549], [0.4264732, 43.2951289], [0.4264976, 43.2951086], [0.4265314, 43.2950975], [0.4265684, 43.2950975], [0.4266021, 43.2951088], [0.4266264, 43.2951292], [0.4266368, 43.2951551], [0.4266315, 43.2951819], [0.4266114, 43.2952045], [0.4265801, 43.2952192], [0.4267276, 43.2955503], [0.4302284, 43.2947878], [0.4306744, 43.2946317], [0.4307213, 43.2944685], [0.4303209, 43.293737], [0.430571, 43.291866], [0.4304613, 43.2913987], [0.4303899, 43.2909606], [0.4298162, 43.2885357], [0.4287794, 43.2866426], [0.4281691, 43.2861786], [0.4279947, 43.2859961], [0.427807, 43.2854533], [0.4277399, 43.2849398], [0.4274436, 43.2846158], [0.4269926, 43.284116], [0.426739, 43.2828936], [0.4265758, 43.2825069], [0.4263613, 43.2823839], [0.4261708, 43.2821593], [0.4261467, 43.2819504], [0.4258999, 43.2816829], [0.4258731, 43.2813665], [0.4256129, 43.2809252], [0.4255804, 43.2807004], [0.4252052, 43.2802984], [0.4250298, 43.279861], [0.4247466, 43.2795603], [0.4246949, 43.2791797], [0.4244975, 43.2789017], [0.424237, 43.2785391], [0.4241414, 43.2780879], [0.4240835, 43.2779674], [0.4238471, 43.2775324], [0.4236951, 43.2773908], [0.4236751, 43.2771893], [0.4234321, 43.2769649], [0.4234002, 43.2768877], [0.4233115, 43.2768064], [0.4231431, 43.2767829], [0.4226211, 43.2767011], [0.4217878, 43.2766236], [0.4214395, 43.2766018], [0.4213105, 43.2764357], [0.4212808, 43.2763033], [0.4213926, 43.2761704], [0.4218904, 43.2759455], [0.4219582, 43.2758235], [0.4219034, 43.2757622], [0.4218911, 43.275701], [0.4218783, 43.2754847], [0.4217719, 43.2752877], [0.4216487, 43.2751537], [0.4215719, 43.2750388], [0.4214471, 43.2750586], [0.4214166, 43.2750577], [0.4211009, 43.2751932], [0.4210451, 43.2752618], [0.4208949, 43.2753492], [0.4206374, 43.2754224], [0.4203054, 43.2754386], [0.419996, 43.275421], [0.419986, 43.2754695], [0.4199579, 43.2755935], [0.4199843, 43.2757172], [0.4199843, 43.2758957], [0.4198091, 43.2761944], [0.419679, 43.2763438], [0.4195189, 43.2763693], [0.4193488, 43.2763547], [0.4192137, 43.2764166], [0.4191686, 43.2766024], [0.4192287, 43.2767846], [0.4193488, 43.2769267], [0.4193538, 43.2770578], [0.4192187, 43.2771635], [0.4191736, 43.2773092], [0.4190836, 43.2774695], [0.4189034, 43.2775387], [0.4186883, 43.2779576], [0.4186482, 43.2781689], [0.4186482, 43.2783583], [0.4185231, 43.2786461], [0.4185332, 43.2788902], [0.4184903, 43.2790022], [0.4185448, 43.2791261], [0.4187054, 43.2794891], [0.4187896, 43.2800236], [0.4188313, 43.2802602], [0.4187802, 43.280381], [0.4187439, 43.2806805], [0.4186686, 43.281587], [0.4186522, 43.2816603], [0.4185879, 43.2819473], [0.4186159, 43.2820767], [0.418672, 43.2822503], [0.4186627, 43.2826996], [0.4185926, 43.2832852], [0.4185972, 43.2835064], [0.4186487, 43.2839387], [0.4186206, 43.2841158], [0.4185318, 43.2842553], [0.4182044, 43.2844085], [0.4177318, 43.2845466], [0.4174282, 43.2846672], [0.4173206, 43.2847864], [0.4172505, 43.2849634], [0.4172692, 43.2851846], [0.4173619, 43.2853979], [0.417171, 43.2856408], [0.4169699, 43.285811], [0.416948, 43.285916], [0.4169419, 43.2859471], [0.4169074, 43.2862234], [0.4168225, 43.2865803], [0.4167047, 43.2867312], [0.4166104, 43.2868479], [0.4165633, 43.2870195], [0.4165397, 43.2873901], [0.4166057, 43.287596], [0.4166293, 43.2877504], [0.4166198, 43.287891], [0.4165821, 43.2880969], [0.4166151, 43.2882994], [0.4166717, 43.2885327], [0.4167283, 43.2887557], [0.4168838, 43.2890646], [0.4169215, 43.289243], [0.4169027, 43.2895278], [0.4168744, 43.2896444], [0.4168131, 43.2897611], [0.4166906, 43.2898812], [0.4165559, 43.2899585], [0.4165377, 43.2900054], [0.4165457, 43.2900532], [0.4165727, 43.2901214], [0.4167047, 43.2902518], [0.4169828, 43.2904233], [0.4173034, 43.2905194], [0.4175815, 43.2906532], [0.4179397, 43.2908934], [0.4181094, 43.2911301], [0.4181943, 43.2913326], [0.4181754, 43.2915316], [0.4180199, 43.2917443], [0.4177559, 43.291957], [0.4172798, 43.2921046], [0.4167848, 43.2922555], [0.4163229, 43.2923516], [0.4161485, 43.2924065], [0.4161202, 43.2924545], [0.4162333, 43.2925438], [0.4163889, 43.2925952], [0.4168037, 43.2926192], [0.4175343, 43.2926879], [0.4178643, 43.2927359], [0.4180482, 43.2928011], [0.4184677, 43.2928525], [0.4188448, 43.2929932], [0.4190805, 43.2931373], [0.4193327, 43.2933415], [0.4194121, 43.2934325], [0.4197428, 43.2938115], [0.4200893, 43.2941409], [0.4203698, 43.2944668], [0.4205371, 43.2946881], [0.4206526, 43.2948974], [0.4207068, 43.2950604], [0.4207304, 43.2952371], [0.420794, 43.2954893], [0.4208765, 43.2958272], [0.4209967, 43.2960897], [0.4211782, 43.2962766], [0.421304, 43.2963921], [0.4215129, 43.2965099], [0.4215977, 43.2966026], [0.4216449, 43.2967124], [0.4218078, 43.2966883]]]}}, {"type": "Feature", "properties": {"name": "Lac de Cap-de-Long"}, "geometry": {"type": "Polygon", "coordinates": [[[0.1433203, 42.8241291], [0.1433653, 42.8240932], [0.1431899, 42.8239979], [0.1429583, 42.8238324], [0.1427809, 42.8236537], [0.1426271, 42.823443], [0.1425472, 42.82328], [0.1425058, 42.8231416], [0.1424794, 42.8230075], [0.1424682, 42.8228967], [0.1424731, 42.8227893], [0.1424948, 42.822642], [0.1425464, 42.8224697], [0.1426251, 42.8223084], [0.1427222, 42.8221557], [0.1428293, 42.8220437], [0.1428712, 42.8219966], [0.1429039, 42.8219479], [0.1429141, 42.8219125], [0.1429015, 42.8218611], [0.1428558, 42.8218122], [0.1427934, 42.8217679], [0.1424474, 42.821527], [0.1423126, 42.8214256], [0.1422335, 42.8213592], [0.1421238, 42.8212669], [0.1418874, 42.8210239], [0.14159, 42.8206494], [0.1414282, 42.8203779], [0.1413172, 42.820165], [0.1412642, 42.8199967], [0.1411622, 42.8199269], [0.1409988, 42.8198511], [0.1408942, 42.8197785], [0.1407647, 42.819709], [0.140482, 42.8194041], [0.1404076, 42.8193167], [0.1403039, 42.8192307], [0.1402172, 42.8191789], [0.1397238, 42.8190837], [0.1394811, 42.8189553], [0.1393662, 42.8189502], [0.1391016, 42.8191574], [0.1386255, 42.8194835], [0.1384036, 42.8197003], [0.1379627, 42.820284], [0.1378052, 42.8205379], [0.1377328, 42.8208126], [0.1376148, 42.8210926], [0.1376433, 42.8214086], [0.1372863, 42.8218505], [0.136935, 42.8221433], [0.1368003, 42.8223308], [0.1368367, 42.8225516], [0.1361754, 42.8228703], [0.1357607, 42.8229678], [0.1356229, 42.8230002], [0.1347115, 42.8231694], [0.1341427, 42.8232118], [0.1337958, 42.823331], [0.1333785, 42.823467], [0.1330912, 42.8233793], [0.1326123, 42.8233481], [0.1322386, 42.8232573], [0.1320145, 42.823382], [0.1316921, 42.8234261], [0.1314305, 42.8234085], [0.1312303, 42.8233838], [0.130666, 42.823314], [0.1297109, 42.8232325], [0.1294024, 42.8231609], [0.129159, 42.8230504], [0.1285191, 42.8229348], [0.1280539, 42.8229796], [0.1275893, 42.8228207], [0.1275129, 42.8228237], [0.1274403, 42.822802], [0.1273914, 42.822753], [0.1272425, 42.8226713], [0.1270103, 42.8225941], [0.1268655, 42.8224739], [0.1267303, 42.8224628], [0.1266264, 42.8223907], [0.1264775, 42.8223576], [0.1263579, 42.8222477], [0.1262658, 42.8222364], [0.1259953, 42.8222504], [0.1257721, 42.8221273], [0.1256551, 42.8219979], [0.1252841, 42.8219704], [0.1248825, 42.821752], [0.1244726, 42.8216678], [0.1238715, 42.8213572], [0.1234343, 42.8212268], [0.1230874, 42.8208963], [0.1228688, 42.8208121], [0.1226582, 42.8206109], [0.1224645, 42.8205174], [0.1221939, 42.8205115], [0.1218797, 42.8205436], [0.1217261, 42.8205291], [0.1215737, 42.8204734], [0.121382, 42.8202857], [0.1211967, 42.8201007], [0.121052, 42.8199], [0.1208556, 42.8196891], [0.1205795, 42.8193926], [0.1204153, 42.8193895], [0.1202821, 42.8193628], [0.1200756, 42.8192201], [0.1196439, 42.8188627], [0.1195508, 42.8187645], [0.1194763, 42.8186878], [0.1193467, 42.818639], [0.1191781, 42.8186793], [0.1189864, 42.8186678], [0.1185235, 42.8186031], [0.1183549, 42.8185987], [0.1182251, 42.8187174], [0.1181726, 42.8188881], [0.1181563, 42.8189713], [0.1181345, 42.8190716], [0.1178095, 42.8194117], [0.1177347, 42.8195266], [0.1177313, 42.8196046], [0.117843, 42.8196837], [0.1178852, 42.8197543], [0.117829, 42.8198495], [0.11765, 42.8198524], [0.1174786, 42.8198635], [0.1172643, 42.819747], [0.1171386, 42.8198054], [0.1170034, 42.8199571], [0.1167484, 42.8200988], [0.1166602, 42.8202973], [0.116671, 42.8204549], [0.1168444, 42.8207125], [0.116965, 42.8208668], [0.1171596, 42.8210019], [0.1172919, 42.8213632], [0.117072, 42.8217227], [0.1169244, 42.8221696], [0.1170002, 42.8224623], [0.1178023, 42.8231046], [0.1178513, 42.8232747], [0.1180115, 42.8234807], [0.1180906, 42.8238723], [0.1183669, 42.8241266], [0.1189333, 42.8242254], [0.119614, 42.8246258], [0.1196545, 42.8247922], [0.1196416, 42.8249669], [0.1196965, 42.8250633], [0.1198576, 42.8252391], [0.120033, 42.8253556], [0.1200986, 42.8253753], [0.1201937, 42.825403], [0.1203469, 42.8254111], [0.1204577, 42.8253813], [0.120641, 42.8254215], [0.1210362, 42.8256199], [0.1214116, 42.8259591], [0.1216929, 42.826273], [0.1217677, 42.8263042], [0.1218972, 42.8263588], [0.1223864, 42.8264742], [0.1226622, 42.8268519], [0.1230428, 42.8270527], [0.1234505, 42.8272252], [0.1238564, 42.8273969], [0.1242001, 42.8275802], [0.1247642, 42.8276454], [0.1252704, 42.8275264], [0.1257074, 42.8275278], [0.1261746, 42.8276199], [0.1267339, 42.8278008], [0.126986, 42.8280648], [0.1273917, 42.8282207], [0.1281298, 42.8281441], [0.1287887, 42.8282511], [0.1289384, 42.82836], [0.1291381, 42.8284135], [0.1293455, 42.8284247], [0.1295221, 42.8284839], [0.1296396, 42.8285561], [0.1298686, 42.8285947], [0.1300136, 42.8285853], [0.1300981, 42.8285515], [0.1302402, 42.8285486], [0.1303707, 42.8285993], [0.1304783, 42.8284867], [0.1308143, 42.8284742], [0.1311415, 42.8284991], [0.1314064, 42.8282345], [0.1315285, 42.8282243], [0.131593, 42.8281749], [0.1315878, 42.8281117], [0.1316087, 42.828035], [0.131642, 42.8280056], [0.1322155, 42.8280404], [0.1324558, 42.8279018], [0.1324907, 42.8278392], [0.1325728, 42.8278099], [0.1329113, 42.8278714], [0.1334145, 42.8277588], [0.1335339, 42.8277531], [0.1336019, 42.8277736], [0.1336403, 42.8277685], [0.133674, 42.8277428], [0.1336699, 42.8277263], [0.133669, 42.8276822], [0.1336926, 42.8276687], [0.1338112, 42.8276482], [0.1338548, 42.8276137], [0.1339874, 42.8276162], [0.1341261, 42.8275832], [0.1341548, 42.8275536], [0.1342036, 42.8275293], [0.1342019, 42.8274871], [0.1341879, 42.8274653], [0.1341879, 42.8274359], [0.1342019, 42.8274141], [0.1342804, 42.8273873], [0.1342804, 42.8273502], [0.1342874, 42.8273131], [0.1343049, 42.8272899], [0.1343519, 42.8272952], [0.1344478, 42.8273374], [0.1345216, 42.8273552], [0.1346065, 42.8273336], [0.1353219, 42.8270662], [0.1357743, 42.8268677], [0.1359839, 42.8268089], [0.1361122, 42.8267347], [0.1362478, 42.8266407], [0.1362693, 42.8265899], [0.1363551, 42.8265493], [0.1364365, 42.8265547], [0.1364896, 42.8265375], [0.1365278, 42.8264935], [0.1366589, 42.8262933], [0.136631, 42.8262357], [0.1366148, 42.8262146], [0.1366354, 42.8262006], [0.1366687, 42.8262049], [0.1369728, 42.8262454], [0.1370932, 42.8262396], [0.1372214, 42.8262053], [0.1373252, 42.8261564], [0.1374229, 42.8260643], [0.1375174, 42.8259159], [0.1376635, 42.8258315], [0.1378048, 42.825774], [0.1379182, 42.8257816], [0.1379513, 42.8257497], [0.1379007, 42.8256716], [0.1379042, 42.8256332], [0.1379339, 42.8255872], [0.1382049, 42.8253671], [0.1383664, 42.8252648], [0.1384955, 42.8252086], [0.1386682, 42.8251855], [0.1387571, 42.8251229], [0.1388548, 42.8250013], [0.1388862, 42.8248977], [0.139003, 42.8247174], [0.1392223, 42.8246207], [0.1395263, 42.8245447], [0.1396867, 42.8245127], [0.1398472, 42.8245005], [0.1401768, 42.8245178], [0.1405584, 42.8244842], [0.1408832, 42.8244142], [0.1410186, 42.8244169], [0.1412861, 42.8244487], [0.1415679, 42.8244383], [0.1421745, 42.8242619], [0.1424244, 42.824219], [0.1432505, 42.8240938], [0.1433203, 42.8241291]]]}}, {"type": "Feature", "properties": {"name": "Lac d'Oredon"}, "geometry": {"type": "Polygon", "coordinates": [[[0.1681813, 42.8251942], [0.1679678, 42.8251988], [0.1676292, 42.8252325], [0.1669801, 42.8251529], [0.1664139, 42.8251111], [0.1660182, 42.8251946], [0.1656821, 42.8252572], [0.1653925, 42.8251699], [0.1651805, 42.8251566], [0.1648417, 42.8251415], [0.1645754, 42.8250353], [0.1643737, 42.8249367], [0.1641694, 42.824948], [0.1639626, 42.8250315], [0.1637454, 42.8250429], [0.1635747, 42.8249253], [0.1632619, 42.8247318], [0.1628973, 42.824491], [0.1622534, 42.8241629], [0.1618992, 42.8240226], [0.1615579, 42.8238746], [0.1612967, 42.8237722], [0.1611054, 42.8236755], [0.1609761, 42.8234783], [0.1607046, 42.8231483], [0.1601926, 42.8227462], [0.1598901, 42.8225452], [0.1594763, 42.8223479], [0.1589747, 42.8222322], [0.1582792, 42.8221184], [0.1580051, 42.822126], [0.1576922, 42.8220445], [0.1574543, 42.8219402], [0.1569372, 42.8217467], [0.1565024, 42.8216333], [0.1562132, 42.8215893], [0.155921, 42.8216386], [0.1555926, 42.8218321], [0.1554504, 42.8219724], [0.1553495, 42.8221526], [0.1553159, 42.8223555], [0.1552838, 42.8224688], [0.1553107, 42.8226419], [0.1553314, 42.8227424], [0.1555512, 42.822786], [0.1557607, 42.8228733], [0.1559313, 42.8229965], [0.1560787, 42.823226], [0.155983, 42.8234138], [0.1557684, 42.8236148], [0.1555952, 42.8237248], [0.1555383, 42.8237191], [0.1555124, 42.8236641], [0.1554814, 42.8236243], [0.1553392, 42.8236376], [0.1552176, 42.8236945], [0.1552254, 42.8237684], [0.1553805, 42.8238196], [0.1556339, 42.8238538], [0.1556934, 42.8239012], [0.1555667, 42.8240074], [0.1555667, 42.8240719], [0.1555176, 42.8241819], [0.1553909, 42.8241876], [0.1553288, 42.8241401], [0.155265, 42.8240465], [0.1551242, 42.824021], [0.1550746, 42.824018], [0.1550357, 42.8240298], [0.1550277, 42.8240574], [0.1550652, 42.8240938], [0.1551403, 42.8241685], [0.1551872, 42.8242659], [0.1551913, 42.8243485], [0.1551417, 42.8243603], [0.1550987, 42.8243465], [0.1550223, 42.8243554], [0.1549888, 42.8243839], [0.1549821, 42.8244361], [0.1549999, 42.8244834], [0.1555471, 42.8249634], [0.1564507, 42.8255128], [0.1566929, 42.8255676], [0.1567986, 42.8256156], [0.1568501, 42.8257039], [0.1570785, 42.8258572], [0.1573143, 42.8259674], [0.1579582, 42.8261134], [0.1582995, 42.8261533], [0.1589537, 42.8264358], [0.1593441, 42.8265212], [0.1595742, 42.8265629], [0.1602414, 42.8267962], [0.1610274, 42.8268815], [0.1614334, 42.8269592], [0.1620229, 42.8272304], [0.1621807, 42.8273651], [0.1625711, 42.8275528], [0.1629771, 42.8277368], [0.1633365, 42.8278771], [0.164114, 42.8281656], [0.1643449, 42.8282564], [0.1645388, 42.8283777], [0.164738, 42.8285446], [0.1650431, 42.8287305], [0.1652653, 42.8288159], [0.1653055, 42.8288313], [0.1654839, 42.8289451], [0.165789, 42.8290418], [0.1664768, 42.8291878], [0.1665459, 42.8291979], [0.1669809, 42.8292758], [0.1674064, 42.8293373], [0.1680983, 42.8292067], [0.1682636, 42.8292087], [0.1685008, 42.8291648], [0.1686439, 42.8291371], [0.168729, 42.829019], [0.1687497, 42.8288825], [0.1688299, 42.8288085], [0.1688924, 42.8287153], [0.16891, 42.8286891], [0.1689152, 42.828636], [0.1690083, 42.8284463], [0.169014, 42.8284006], [0.1690212, 42.828342], [0.1689979, 42.8282377], [0.1689074, 42.828105], [0.1688583, 42.8280386], [0.1688531, 42.8278736], [0.1688505, 42.8277409], [0.1688221, 42.827629], [0.1688237, 42.8275009], [0.1688247, 42.8274147], [0.1688505, 42.8273256], [0.1688971, 42.8272763], [0.1689555, 42.8271732], [0.1689875, 42.827025], [0.1689253, 42.8269104], [0.1688348, 42.8268239], [0.1685441, 42.8266046], [0.1684244, 42.8265624], [0.1682716, 42.8265087], [0.1681642, 42.8264635], [0.1681221, 42.8264112], [0.1681313, 42.8263723], [0.1682117, 42.8262744], [0.1682756, 42.8262241], [0.1685079, 42.8260411], [0.1686524, 42.8259379], [0.1687365, 42.8258614], [0.1688078, 42.8257863], [0.1688151, 42.8256925], [0.16875, 42.8254826], [0.1686524, 42.8251681], [0.1684787, 42.8251802], [0.1683731, 42.8251852], [0.1681813, 42.8251942]]]}}, {"type": "Feature", "properties": {"name": "Lac de l'Oule"}, "geometry": {"type": "Polygon", "coordinates": [[[0.204145, 42.8250791], [0.2040665, 42.8252013], [0.2039833, 42.8252849], [0.2039163, 42.8253449], [0.2038479, 42.8253862], [0.2038075, 42.8253566], [0.203675, 42.8254527], [0.2033088, 42.8257974], [0.2031202, 42.8259256], [0.2028566, 42.826086], [0.2024293, 42.8266711], [0.2020897, 42.8272305], [0.2018244, 42.8275091], [0.2015935, 42.8277095], [0.2013201, 42.8278897], [0.2008622, 42.8280441], [0.1995903, 42.829018], [0.1986524, 42.829653], [0.1985831, 42.8297978], [0.1982704, 42.8300931], [0.1981834, 42.8303406], [0.1980734, 42.8304918], [0.1980376, 42.8305277], [0.1981104, 42.8306075], [0.1982041, 42.8307391], [0.1981845, 42.8309988], [0.1980275, 42.8311784], [0.1979215, 42.8314449], [0.1977177, 42.8317183], [0.1976614, 42.8318895], [0.1975745, 42.8319642], [0.197436, 42.8320249], [0.1973804, 42.8322959], [0.1972496, 42.8329265], [0.1969467, 42.8333961], [0.1968523, 42.8336035], [0.1968352, 42.8337965], [0.1967872, 42.8339653], [0.1966327, 42.8342252], [0.1964977, 42.8345336], [0.1965647, 42.8346423], [0.1966562, 42.8347863], [0.1966759, 42.8349219], [0.1967021, 42.8353378], [0.1967575, 42.835487], [0.196787, 42.8356395], [0.1966977, 42.8358057], [0.1967587, 42.8359818], [0.1970567, 42.8360937], [0.1971115, 42.8361706], [0.1970321, 42.836346], [0.1968371, 42.8364918], [0.1968319, 42.8365699], [0.1967552, 42.8367337], [0.1968065, 42.8371052], [0.1970203, 42.8371854], [0.1971087, 42.8373419], [0.1971425, 42.837482], [0.1970391, 42.8375788], [0.1970773, 42.8377297], [0.196734, 42.8379913], [0.1965019, 42.8384284], [0.1964664, 42.8385917], [0.1964772, 42.8386635], [0.1965429, 42.8387608], [0.1966824, 42.8388464], [0.1967628, 42.8388965], [0.1968433, 42.8388975], [0.1969194, 42.8388282], [0.1970887, 42.8387579], [0.197298, 42.8387667], [0.1974186, 42.8388582], [0.1975353, 42.8388837], [0.1976614, 42.8388591], [0.1977002, 42.8388601], [0.1976775, 42.838923], [0.1975943, 42.8389998], [0.1974804, 42.8389801], [0.1974401, 42.8389221], [0.1973985, 42.8389172], [0.1973623, 42.8389349], [0.1972899, 42.8389821], [0.1971246, 42.8392106], [0.1971417, 42.8393685], [0.1971364, 42.8395112], [0.1971102, 42.8395987], [0.1971933, 42.8396567], [0.1972932, 42.839695], [0.1973622, 42.8396984], [0.1974113, 42.8396788], [0.197424, 42.8395608], [0.1974015, 42.8394792], [0.1974809, 42.8393828], [0.1977186, 42.8392762], [0.1984163, 42.8389262], [0.1985948, 42.83869], [0.1988697, 42.8385514], [0.1992249, 42.8382873], [0.1992533, 42.8381521], [0.1992238, 42.8380243], [0.1992989, 42.8377961], [0.1994621, 42.8375602], [0.1995912, 42.8374077], [0.1996569, 42.8372523], [0.1997387, 42.8371313], [0.1998943, 42.8370399], [0.1999319, 42.8369504], [0.2000481, 42.8367745], [0.2004089, 42.8365653], [0.2010545, 42.8359547], [0.2015719, 42.8354521], [0.2018526, 42.8351599], [0.201906, 42.8350769], [0.2018854, 42.8349484], [0.2019458, 42.8348177], [0.2021179, 42.834716], [0.2022158, 42.8346157], [0.2022585, 42.8344051], [0.2024149, 42.8343696], [0.202505, 42.8342383], [0.2026363, 42.8339766], [0.2029413, 42.8338269], [0.2030821, 42.8337281], [0.2032999, 42.8335167], [0.2033547, 42.8333337], [0.203513, 42.8332667], [0.203703, 42.833111], [0.2038165, 42.8329428], [0.2039108, 42.8326385], [0.2041174, 42.8324707], [0.2041801, 42.832356], [0.2042567, 42.8322302], [0.2045188, 42.8319515], [0.2046643, 42.8317354], [0.2047371, 42.8314711], [0.2050698, 42.8306299], [0.2051599, 42.8303478], [0.2052985, 42.8298522], [0.205344, 42.8294722], [0.2052886, 42.8293034], [0.205276, 42.8291957], [0.2052604, 42.8289461], [0.2053244, 42.828739], [0.2051706, 42.8285888], [0.205158, 42.8284957], [0.2051183, 42.8281671], [0.2050944, 42.8278988], [0.2051182, 42.827709], [0.2051645, 42.8275793], [0.2052673, 42.8273098], [0.2053664, 42.8271154], [0.2054317, 42.82696], [0.2056892, 42.8266098], [0.206083, 42.8259621], [0.2063278, 42.8256955], [0.2065083, 42.825499], [0.2066969, 42.8253224], [0.2068389, 42.8252395], [0.20684, 42.8252084], [0.2059795, 42.825165], [0.2051097, 42.8251224], [0.204145, 42.8250791]]]}}, {"type": "Feature", "properties": {"name": "Lac de Lourdes"}, "geometry": {"type": "Polygon", "coordinates": [[[-0.0778018, 43.1075936], [-0.0777517, 43.1073529], [-0.0777594, 43.1071702], [-0.0778489, 43.106921], [-0.0779157, 43.1065875], [-0.0780505, 43.1063422], [-0.0781265, 43.1063164], [-0.0781676, 43.1063042], [-0.0781957, 43.1062958], [-0.0783449, 43.1062515], [-0.0784261, 43.10622], [-0.0785041, 43.1061651], [-0.0785306, 43.1060934], [-0.078535, 43.1060816], [-0.0785475, 43.1060285], [-0.0785743, 43.1059767], [-0.0786058, 43.1059429], [-0.0786482, 43.1059132], [-0.0787037, 43.1059027], [-0.0787659, 43.1058993], [-0.0788311, 43.1058826], [-0.0788886, 43.105848], [-0.0789102, 43.1057911], [-0.0788955, 43.1057509], [-0.0788593, 43.1056898], [-0.0790033, 43.1055623], [-0.0791275, 43.1054863], [-0.0792808, 43.1053672], [-0.0794835, 43.1052734], [-0.0795086, 43.1052693], [-0.0795416, 43.1052853], [-0.0795474, 43.1053114], [-0.0796679, 43.105382], [-0.0798564, 43.1054863], [-0.0800157, 43.1055353], [-0.0803243, 43.1055897], [-0.0806478, 43.1057903], [-0.080684, 43.1058486], [-0.0807142, 43.1058971], [-0.080814, 43.105991], [-0.0809823, 43.1060844], [-0.081104, 43.1061695], [-0.0813044, 43.1062872], [-0.0815204, 43.1063675], [-0.0815694, 43.1064097], [-0.0817319, 43.1064651], [-0.0828249, 43.1067914], [-0.0831292, 43.1067485], [-0.0834265, 43.1067417], [-0.0840237, 43.1067988], [-0.0843673, 43.1067183], [-0.0848624, 43.1067262], [-0.0856122, 43.106579], [-0.0864959, 43.1067394], [-0.087167, 43.1065992], [-0.0883415, 43.1060378], [-0.0889124, 43.1063079], [-0.0891134, 43.1063311], [-0.0894485, 43.1063697], [-0.089744, 43.1062448], [-0.0902514, 43.1064], [-0.0908581, 43.1066408], [-0.0916197, 43.1071084], [-0.0922479, 43.1075981], [-0.0924854, 43.1078697], [-0.0928758, 43.1086359], [-0.0933603, 43.109263], [-0.0936201, 43.1095211], [-0.0937362, 43.1097852], [-0.0937739, 43.109873], [-0.0938061, 43.110167], [-0.0936684, 43.1101753], [-0.0931061, 43.1106709], [-0.0930107, 43.1109278], [-0.0928707, 43.1110865], [-0.0926443, 43.1111975], [-0.0921904, 43.111284], [-0.0921114, 43.1112248], [-0.0918937, 43.1111428], [-0.0915925, 43.1110718], [-0.091478, 43.1110514], [-0.0913448, 43.1110534], [-0.0913186, 43.1110863], [-0.0911082, 43.111131], [-0.0910837, 43.1110757], [-0.0909586, 43.1110563], [-0.0908487, 43.1110373], [-0.090655, 43.1110859], [-0.0905484, 43.1111243], [-0.0903747, 43.1111146], [-0.0901773, 43.1110713], [-0.0899029, 43.1110603], [-0.0886259, 43.1107587], [-0.0877236, 43.1105896], [-0.0876213, 43.1104837], [-0.0875347, 43.1103895], [-0.0874333, 43.1103693], [-0.0872671, 43.110336], [-0.087119, 43.110442], [-0.0869579, 43.1104644], [-0.0865555, 43.1104418], [-0.0862687, 43.1104299], [-0.0854109, 43.1103387], [-0.0853542, 43.110256], [-0.0851872, 43.1099828], [-0.0850118, 43.1098523], [-0.0848049, 43.1097474], [-0.084617, 43.1096584], [-0.0845523, 43.1096749], [-0.0844454, 43.1095319], [-0.0843433, 43.1094385], [-0.0843076, 43.1094058], [-0.0840225, 43.1091657], [-0.0837262, 43.109102], [-0.0835895, 43.1090444], [-0.0833606, 43.1090254], [-0.0826703, 43.1090165], [-0.0819626, 43.1090264], [-0.0816036, 43.1090493], [-0.0813056, 43.1090561], [-0.0810391, 43.1090668], [-0.0806217, 43.1090041], [-0.0804351, 43.1089607], [-0.0802419, 43.1088937], [-0.0801439, 43.1088189], [-0.0800555, 43.1087055], [-0.079927, 43.1086175], [-0.0797073, 43.1084587], [-0.0794963, 43.1083638], [-0.0793075, 43.1082727], [-0.0791222, 43.1081638], [-0.0789449, 43.1080815], [-0.0785655, 43.1080078], [-0.0784318, 43.1079499], [-0.0782745, 43.1079671], [-0.0779987, 43.1078695], [-0.0778883, 43.1077942], [-0.0778018, 43.1075936]]]}}, {"type": "Feature", "properties": {"name": "Lac de Castelnau-Magnoac"}, "geometry": {"type": "Polygon", "coordinates": [[[0.5072618, 43.3041902], [0.5049301, 43.3057803], [0.504093, 43.3062012], [0.5037935, 43.3065135], [0.5035146, 43.3067549], [0.5023123, 43.3071204], [0.5020963, 43.3069785], [0.5018235, 43.3067775], [0.5013525, 43.306502], [0.5010186, 43.3063562], [0.5009882, 43.3061458], [0.5009882, 43.3059464], [0.5006686, 43.3057914], [0.5002424, 43.305736], [0.4997402, 43.3050382], [0.4998315, 43.3048499], [0.5001359, 43.3045398], [0.5001359, 43.3043183], [0.5000598, 43.30413], [0.4996945, 43.3038864], [0.4989335, 43.3034212], [0.4988117, 43.3033326], [0.498827, 43.3031554], [0.498553, 43.3027677], [0.4983856, 43.302668], [0.498227, 43.302472], [0.498016, 43.302465], [0.4977822, 43.302414], [0.497168, 43.3003642], [0.4975029, 43.2999432], [0.4973963, 43.2997328], [0.4970919, 43.2993894], [0.4970006, 43.2990017], [0.4972746, 43.2986805], [0.4973659, 43.2984922], [0.4971985, 43.2979605], [0.4971728, 43.2978396], [0.4972218, 43.2977542], [0.4975255, 43.2975804], [0.4977628, 43.2974534], [0.4977269, 43.2974145], [0.4977439, 43.2974027], [0.4977635, 43.2973891], [0.4978034, 43.2974157], [0.4979045, 43.2974605], [0.498001, 43.2974759], [0.4981139, 43.2974451], [0.4981704, 43.2973526], [0.4981869, 43.2973098], [0.4983828, 43.2971407], [0.4986034, 43.2970923], [0.4991433, 43.2971537], [0.4999372, 43.2974814], [0.5008208, 43.2978719], [0.5018557, 43.2980048], [0.5030593, 43.2980123], [0.5031429, 43.2979748], [0.5038269, 43.2982164], [0.5039257, 43.2983496], [0.503984, 43.298469], [0.5040989, 43.2987046], [0.5042024, 43.2987799], [0.5046105, 43.2991125], [0.5049149, 43.2994116], [0.5050975, 43.2997106], [0.5051163, 43.2998918], [0.5051559, 43.2999962], [0.5051282, 43.3000828], [0.5051303, 43.3001584], [0.5052449, 43.3003329], [0.5053327, 43.3004277], [0.5053867, 43.300486], [0.5059498, 43.3006743], [0.5062142, 43.300657], [0.5064216, 43.3006157], [0.5067869, 43.3004306], [0.5071978, 43.3002866], [0.5073795, 43.3002216], [0.5075066, 43.3002045], [0.507624, 43.3002202], [0.5077113, 43.3002525], [0.5077489, 43.3002953], [0.5078371, 43.3003752], [0.5079441, 43.3004571], [0.5079284, 43.3005771], [0.5079147, 43.3006107], [0.5079284, 43.3006521], [0.5079561, 43.3006902], [0.5083169, 43.3012407], [0.5088111, 43.3018816], [0.509009, 43.3021821], [0.5091542, 43.302247], [0.5091545, 43.3024108], [0.5091414, 43.3024983], [0.5090898, 43.302577], [0.5087454, 43.3030068], [0.5083697, 43.3034295], [0.5073245, 43.3041471], [0.5072618, 43.3041902]]]}}, {"type": "Feature", "properties": {"name": "Lac d'Aumar"}, "geometry": {"type": "Polygon", "coordinates": [[[0.149561, 42.8412364], [0.1495836, 42.8413789], [0.1495919, 42.8414974], [0.1495803, 42.8416463], [0.149526, 42.8417325], [0.1495609, 42.841778], [0.1496384, 42.841796], [0.1496708, 42.841834], [0.1496087, 42.8419563], [0.149513, 42.8420643], [0.1494316, 42.8420985], [0.1493372, 42.8421857], [0.1493256, 42.8422444], [0.1492958, 42.842307], [0.1491355, 42.8424255], [0.1489933, 42.8425118], [0.1489542, 42.8425278], [0.148908, 42.8425468], [0.1487528, 42.8425838], [0.1485964, 42.8425487], [0.1483275, 42.842453], [0.1481685, 42.8424113], [0.1480834, 42.8424161], [0.1479526, 42.8424236], [0.1478491, 42.8424663], [0.1478078, 42.8425686], [0.1477392, 42.842654], [0.1476552, 42.8426985], [0.1474677, 42.8427061], [0.1474121, 42.8426739], [0.1474005, 42.8426435], [0.1473953, 42.8425554], [0.1473617, 42.8425288], [0.1473074, 42.8425421], [0.1472195, 42.8426132], [0.1470411, 42.8427004], [0.1469066, 42.8427213], [0.1467411, 42.8427317], [0.1465343, 42.8427554], [0.1463248, 42.842744], [0.1461358, 42.8427041], [0.1460749, 42.8427036], [0.1459859, 42.8427157], [0.1458996, 42.84267], [0.1457077, 42.8426578], [0.1456005, 42.8427149], [0.1455222, 42.8427567], [0.1455655, 42.8428], [0.1455887, 42.8428422], [0.145573, 42.8428939], [0.1453901, 42.8431279], [0.145266, 42.8433517], [0.1452647, 42.8434322], [0.1453035, 42.8435318], [0.1452505, 42.8436417], [0.1451677, 42.843709], [0.1449311, 42.8438759], [0.144829, 42.843964], [0.1447682, 42.8439944], [0.1447036, 42.8439953], [0.1446932, 42.8439688], [0.1447075, 42.8439147], [0.1447294, 42.8438778], [0.1447437, 42.8438323], [0.1447333, 42.8438029], [0.1446842, 42.8437801], [0.1446157, 42.843782], [0.1445097, 42.8438152], [0.1444476, 42.84391], [0.1443842, 42.8440986], [0.1443144, 42.8441963], [0.1442847, 42.8443859], [0.1441826, 42.8446181], [0.1441722, 42.84471], [0.1442058, 42.844875], [0.1441838, 42.8449641], [0.1440158, 42.8450778], [0.1438257, 42.8452361], [0.1436757, 42.8452779], [0.1436044, 42.8453536], [0.1435166, 42.8454535], [0.1434919, 42.8455172], [0.1434746, 42.8455956], [0.1434901, 42.8456814], [0.1435523, 42.8457692], [0.1437278, 42.8459153], [0.1439134, 42.8460212], [0.1440734, 42.8461191], [0.1441456, 42.846166], [0.1441502, 42.8462344], [0.1441291, 42.8463202], [0.1441227, 42.8463604], [0.1441538, 42.8463872], [0.1441831, 42.8463912], [0.1442041, 42.8463805], [0.1442068, 42.846353], [0.1442297, 42.8463108], [0.1442654, 42.8462786], [0.1443266, 42.8462002], [0.1443431, 42.8461546], [0.1443367, 42.8461197], [0.1443065, 42.846099], [0.14429, 42.8460507], [0.1442324, 42.8460058], [0.1442434, 42.8459998], [0.1442864, 42.8460138], [0.144429, 42.846111], [0.1444774, 42.8461546], [0.1445542, 42.8461734], [0.144674, 42.8461714], [0.1447947, 42.8461466], [0.1450506, 42.8460453], [0.1451814, 42.8459803], [0.1452637, 42.8459569], [0.1454081, 42.8459455], [0.1454885, 42.8459669], [0.1455279, 42.845987], [0.1455845, 42.8459877], [0.1456248, 42.8459743], [0.1456622, 42.8459341], [0.1456878, 42.845924], [0.1457399, 42.845926], [0.1457527, 42.8459421], [0.1457866, 42.8459575], [0.1458085, 42.8459582], [0.1458359, 42.8459307], [0.1459182, 42.8458771], [0.1459795, 42.8458087], [0.1460544, 42.8457323], [0.1463195, 42.8455983], [0.1464439, 42.8455775], [0.1466304, 42.8455775], [0.1467492, 42.8455688], [0.1469412, 42.8455152], [0.1470628, 42.8454273], [0.1472347, 42.8453248], [0.1474449, 42.8451653], [0.1476479, 42.8449957], [0.1477905, 42.8449012], [0.1479258, 42.8448422], [0.148051, 42.844804], [0.1481214, 42.8446793], [0.148201, 42.8446083], [0.1482896, 42.8444159], [0.1483399, 42.8443341], [0.1483911, 42.84431], [0.1485072, 42.8442074], [0.1486635, 42.8440881], [0.1487641, 42.8440211], [0.1487906, 42.8439755], [0.1492367, 42.8437215], [0.1494196, 42.8435311], [0.1495567, 42.8433756], [0.1497213, 42.8431906], [0.1499059, 42.8430311], [0.1501637, 42.8428152], [0.1503045, 42.842779], [0.1506592, 42.8425819], [0.1508348, 42.8424452], [0.1508293, 42.84235], [0.1508878, 42.8422495], [0.1509883, 42.8421757], [0.1510596, 42.8421114], [0.1510724, 42.8420377], [0.1511858, 42.8418526], [0.1513357, 42.841799], [0.1515314, 42.841728], [0.1516264, 42.841618], [0.1518714, 42.841492], [0.1520835, 42.8414183], [0.1522536, 42.8413807], [0.1523176, 42.8413861], [0.152334, 42.8414169], [0.1523285, 42.8414598], [0.1522883, 42.8415148], [0.1522316, 42.8415577], [0.1522371, 42.8415926], [0.1522901, 42.8416247], [0.1523285, 42.8416288], [0.1524273, 42.8416194], [0.1526193, 42.8415738], [0.1528716, 42.8415108], [0.1529758, 42.8414585], [0.1530928, 42.8413218], [0.1532336, 42.8412346], [0.1536176, 42.8409879], [0.1538059, 42.840878], [0.153863, 42.8408501], [0.1539211, 42.8408217], [0.1540307, 42.8407523], [0.1542026, 42.8406434], [0.1545354, 42.8404034], [0.1546415, 42.8403364], [0.1547822, 42.8403122], [0.1548462, 42.840323], [0.1549742, 42.8403404], [0.1550985, 42.8402238], [0.1552796, 42.8400843], [0.1554057, 42.8400575], [0.1555502, 42.8400374], [0.1556215, 42.8400401], [0.1556233, 42.8401058], [0.1556672, 42.8401849], [0.1557184, 42.8402103], [0.1558299, 42.840213], [0.1559213, 42.8401983], [0.1560639, 42.8401621], [0.1561005, 42.8401085], [0.1562157, 42.8400723], [0.1563144, 42.8400883], [0.1564113, 42.8401192], [0.1565631, 42.8401299], [0.1566015, 42.8401165], [0.1566618, 42.8400749], [0.1567258, 42.8400213], [0.1567953, 42.839973], [0.1568739, 42.8399342], [0.1570001, 42.8398792], [0.1569562, 42.8397076], [0.1569013, 42.8396164], [0.1568831, 42.8395427], [0.1569068, 42.8394891], [0.1569854, 42.8394234], [0.1571043, 42.8393966], [0.1571738, 42.83941], [0.157225, 42.8394395], [0.1573109, 42.8394864], [0.1573749, 42.8395279], [0.1574115, 42.839532], [0.1574224, 42.8395011], [0.157395, 42.8394824], [0.1573658, 42.8394287], [0.1573877, 42.8393952], [0.1574316, 42.8393751], [0.1574718, 42.8393309], [0.1574444, 42.839174], [0.1574251, 42.8391657], [0.1573036, 42.8391137], [0.15715, 42.8389421], [0.1570897, 42.838875], [0.1568904, 42.838879], [0.156777, 42.8389206], [0.1566819, 42.8389729], [0.1566326, 42.8390225], [0.1566033, 42.8390922], [0.1566015, 42.8391686], [0.1565942, 42.8392531], [0.1565741, 42.8393054], [0.156457, 42.8393242], [0.1562961, 42.8392973], [0.1561188, 42.8392317], [0.1560073, 42.8391472], [0.1559433, 42.8390279], [0.1558482, 42.8389702], [0.1555776, 42.8389045], [0.1554496, 42.8388603], [0.1552869, 42.838863], [0.1552009, 42.838863], [0.1550821, 42.8388294], [0.154945, 42.8388254], [0.1548298, 42.838875], [0.1546506, 42.8389367], [0.1543672, 42.8389809], [0.1541167, 42.8390319], [0.1540637, 42.8390855], [0.1539522, 42.8390962], [0.1538827, 42.8390654], [0.1538443, 42.8390292], [0.1536925, 42.8389662], [0.1535133, 42.8389421], [0.1532811, 42.8389421], [0.1529904, 42.8389756], [0.1528094, 42.8390225], [0.1526723, 42.8390399], [0.1525589, 42.8390091], [0.1523834, 42.8390064], [0.1520982, 42.8390909], [0.1518477, 42.8391727], [0.1514692, 42.8391901], [0.1513248, 42.839233], [0.1510212, 42.8393268], [0.1509097, 42.839359], [0.1507872, 42.8394073], [0.1504709, 42.8394274], [0.1503009, 42.8394301], [0.150118, 42.8394395], [0.1500767, 42.8394775], [0.1500394, 42.8395119], [0.1501144, 42.839544], [0.149937, 42.839658], [0.1496317, 42.8398323], [0.1495439, 42.8399181], [0.1494561, 42.8400374], [0.1494251, 42.8401728], [0.1494726, 42.8403551], [0.149511, 42.8406246], [0.1494689, 42.8408673], [0.1494177, 42.8410416], [0.1494415, 42.8411046], [0.1495238, 42.8411984], [0.149561, 42.8412364]]]}}, {"type": "Feature", "properties": {"name": "Lac de Gaube"}, "geometry": {"type": "Polygon", "coordinates": [[[-0.1404823, 42.8349415], [-0.1402932, 42.8348431], [-0.1402422, 42.8348057], [-0.1402082, 42.8347092], [-0.1402167, 42.8346625], [-0.1402974, 42.8346127], [-0.1402804, 42.83451], [-0.1401658, 42.8343792], [-0.1400384, 42.8342889], [-0.1399323, 42.8342516], [-0.1398431, 42.8342516], [-0.1397158, 42.834317], [-0.1396266, 42.8343637], [-0.1394738, 42.8343823], [-0.1393847, 42.8343419], [-0.1393337, 42.8342671], [-0.1392998, 42.8342018], [-0.1393082, 42.8341239], [-0.1394101, 42.8341021], [-0.1394059, 42.8339403], [-0.1393183, 42.8338846], [-0.1392148, 42.8338188], [-0.1391278, 42.8337613], [-0.1389304, 42.8336647], [-0.1388328, 42.8335978], [-0.1388413, 42.8335387], [-0.1388752, 42.833492], [-0.1388667, 42.8334375], [-0.1388264, 42.8334375], [-0.138767, 42.8334733], [-0.1387118, 42.8335215], [-0.1386502, 42.833534], [-0.1384868, 42.833548], [-0.1383127, 42.8335496], [-0.1381896, 42.83352], [-0.1381217, 42.8334577], [-0.138058, 42.8333737], [-0.1380049, 42.8332087], [-0.1379306, 42.8330468], [-0.1378372, 42.8329176], [-0.1377757, 42.8328102], [-0.1377375, 42.8327074], [-0.1377417, 42.8326203], [-0.1377376, 42.8324844], [-0.1377379, 42.8324349], [-0.1377688, 42.8323628], [-0.1377927, 42.8322077], [-0.1378023, 42.8321637], [-0.1378118, 42.8321206], [-0.1377354, 42.8320381], [-0.1377163, 42.8319696], [-0.1377587, 42.8319229], [-0.1378351, 42.831884], [-0.137954, 42.8317921], [-0.1380283, 42.8316894], [-0.1380622, 42.8316209], [-0.1380113, 42.8314917], [-0.1378797, 42.8313251], [-0.1378054, 42.8312769], [-0.1377905, 42.8312193], [-0.1377566, 42.8312021], [-0.1376759, 42.8311586], [-0.1376611, 42.8310558], [-0.1376929, 42.8309858], [-0.1377035, 42.8308675], [-0.1376483, 42.83076], [-0.1376971, 42.8306558], [-0.1378033, 42.8304005], [-0.1378637, 42.830235], [-0.1377958, 42.8301011], [-0.1378468, 42.8298831], [-0.137902, 42.8297088], [-0.1379996, 42.8295438], [-0.138093, 42.8293725], [-0.1381057, 42.8291204], [-0.1381218, 42.8288895], [-0.1381482, 42.8285101], [-0.1382119, 42.8283544], [-0.138301, 42.8282392], [-0.1384156, 42.8281739], [-0.1384666, 42.8280618], [-0.1385175, 42.8280151], [-0.1387086, 42.827959], [-0.1387756, 42.8279672], [-0.1388359, 42.8279746], [-0.1390029, 42.8280125], [-0.1390675, 42.8280271], [-0.1391246, 42.82804], [-0.1394642, 42.8281023], [-0.1396436, 42.8281842], [-0.1397232, 42.8282206], [-0.1398459, 42.8282264], [-0.1399864, 42.828233], [-0.1402539, 42.8282922], [-0.1404109, 42.8283794], [-0.1405213, 42.8285381], [-0.140534, 42.8286222], [-0.1405722, 42.8287218], [-0.1406741, 42.8287405], [-0.140759, 42.828672], [-0.140793, 42.8286222], [-0.1409246, 42.8287499], [-0.1409458, 42.828918], [-0.141052, 42.8291048], [-0.1411666, 42.8291608], [-0.1411581, 42.8292605], [-0.1411156, 42.8293539], [-0.1413279, 42.8295967], [-0.1414298, 42.8298489], [-0.141502, 42.8299765], [-0.1415784, 42.830098], [-0.1416081, 42.8302381], [-0.1416261, 42.8302983], [-0.1416476, 42.8303701], [-0.141693, 42.8305214], [-0.1417397, 42.8306957], [-0.1417227, 42.8308296], [-0.1415657, 42.8309417], [-0.1414977, 42.8310693], [-0.1415147, 42.8312219], [-0.1413576, 42.8313776], [-0.1412642, 42.8315177], [-0.1413279, 42.8316484], [-0.1412685, 42.8317418], [-0.1413237, 42.831857], [-0.1413534, 42.8321403], [-0.141277, 42.8322991], [-0.1413407, 42.8324828], [-0.1414723, 42.8328066], [-0.1415996, 42.8329809], [-0.1415954, 42.8331988], [-0.1416803, 42.8334417], [-0.1417057, 42.8335973], [-0.1417482, 42.8336658], [-0.1417204, 42.8337316], [-0.1416548, 42.8338744], [-0.1416039, 42.8340799], [-0.1415062, 42.8342449], [-0.1414553, 42.8343787], [-0.1413619, 42.8345126], [-0.1413831, 42.8346091], [-0.1413332, 42.8346828], [-0.1412581, 42.8347938], [-0.1411944, 42.834867], [-0.1411159, 42.8349106], [-0.1410501, 42.8349261], [-0.1410267, 42.8348965], [-0.1410543, 42.834867], [-0.1410968, 42.8348389], [-0.1411201, 42.8347845], [-0.1411201, 42.834702], [-0.1411392, 42.8346662], [-0.141205, 42.8345977], [-0.1412071, 42.8345385], [-0.1411244, 42.8345977], [-0.1409779, 42.834702], [-0.1407784, 42.8348514], [-0.1406552, 42.8349277], [-0.1405891, 42.8349443], [-0.1405682, 42.8349495], [-0.1404823, 42.8349415]]]}}, {"type": "Feature", "properties": {"name": "Réservoir du Lizon"}, "geometry": {"type": "Polygon", "coordinates": [[[0.3181411, 43.2367797], [0.3179817, 43.2370423], [0.3169416, 43.2370779], [0.313099, 43.2372072], [0.3130846, 43.2370809], [0.3130172, 43.2369441], [0.3129257, 43.2368353], [0.3127957, 43.2367161], [0.3127668, 43.2366494], [0.3127812, 43.2365687], [0.3128872, 43.2364986], [0.3129787, 43.2363618], [0.3130605, 43.2361688], [0.3130846, 43.2360811], [0.3130364, 43.2358917], [0.3130027, 43.2358403], [0.3128198, 43.2355619], [0.3128294, 43.2352602], [0.3129113, 43.2351094], [0.3130894, 43.2348813], [0.3138454, 43.2341165], [0.3142932, 43.233671], [0.3145436, 43.2335061], [0.3146399, 43.2333272], [0.3148133, 43.233264], [0.3149337, 43.2332079], [0.3149914, 43.2331272], [0.3150685, 43.2329202], [0.3151359, 43.2328466], [0.3152755, 43.2327799], [0.3153429, 43.2325799], [0.3153574, 43.2324361], [0.3153767, 43.2322887], [0.3154393, 43.2322958], [0.315497, 43.2323414], [0.3156319, 43.23238], [0.3157378, 43.2323344], [0.315786, 43.2322537], [0.3158582, 43.2320397], [0.3159786, 43.2318011], [0.3161134, 43.2317169], [0.3161664, 43.2315871], [0.3162049, 43.2314432], [0.3163012, 43.2312994], [0.3164406, 43.2311889], [0.3165791, 43.2311044], [0.3166361, 43.2310409], [0.3166884, 43.230952], [0.3167488, 43.2308396], [0.3167529, 43.2307619], [0.3166821, 43.2306634], [0.3166933, 43.2305805], [0.3167465, 43.2305203], [0.3168785, 43.2304359], [0.3168978, 43.2303491], [0.3168173, 43.2302506], [0.316843, 43.2302035], [0.3168567, 43.2301691], [0.3168803, 43.2301412], [0.3168837, 43.2301224], [0.3169326, 43.2301209], [0.316943, 43.2301479], [0.316943, 43.2301605], [0.3169075, 43.2301896], [0.3168921, 43.2302306], [0.317033, 43.2302248], [0.3171963, 43.2302511], [0.3172761, 43.2303046], [0.3173853, 43.2304539], [0.3174218, 43.2306165], [0.3173626, 43.2307724], [0.3172943, 43.2308918], [0.3172442, 43.2309515], [0.3172141, 43.2310341], [0.3172305, 43.2311107], [0.3172715, 43.2312401], [0.317358, 43.231459], [0.3173717, 43.2315519], [0.3173353, 43.2316846], [0.3173216, 43.2317875], [0.3173945, 43.2320727], [0.3174992, 43.2325305], [0.3175629, 43.2327859], [0.3176631, 43.2330016], [0.3178315, 43.2331674], [0.3179954, 43.2333996], [0.3182049, 43.2336949], [0.3182777, 43.2339271], [0.3183142, 43.2340166], [0.3185099, 43.2342389], [0.3185373, 43.2343649], [0.3185145, 43.234481], [0.3185828, 43.2346369], [0.3185828, 43.2348061], [0.3185873, 43.2349056], [0.31856, 43.2351776], [0.318601, 43.2354596], [0.3186055, 43.235642], [0.3183597, 43.2361196], [0.3182413, 43.2363021], [0.3182641, 43.2365409], [0.3182322, 43.2366371], [0.3181411, 43.2367797]]]}}, {"type": "Feature", "properties": {"name": "Lac de Génos-Loudenvielle"}, "geometry": {"type": "Polygon", "coordinates": [[[0.410761, 42.8028003], [0.4107765, 42.8032424], [0.4108424, 42.8038135], [0.4107879, 42.8038549], [0.4104254, 42.8038596], [0.4102979, 42.803837], [0.4102231, 42.8037293], [0.409949, 42.8024109], [0.4098499, 42.8022414], [0.409762, 42.8022475], [0.409669, 42.8022496], [0.4096325, 42.8023043], [0.4095706, 42.8023369], [0.4094896, 42.802359], [0.4093873, 42.8023788], [0.4093961, 42.8024294], [0.4094946, 42.8024306], [0.4096097, 42.8024615], [0.4096912, 42.8025034], [0.4097102, 42.8025442], [0.409715, 42.8025896], [0.4097336, 42.8026028], [0.409737, 42.8026568], [0.4097245, 42.8027095], [0.4096722, 42.8029498], [0.409657, 42.803175], [0.4096418, 42.8033375], [0.409611, 42.8034498], [0.4095954, 42.8035056], [0.4093095, 42.8034909], [0.4091804, 42.8034633], [0.4091494, 42.8033877], [0.4090464, 42.8032762], [0.4089012, 42.8031557], [0.4086729, 42.8030926], [0.4085629, 42.802992], [0.4079045, 42.8027839], [0.4073302, 42.8027158], [0.4069996, 42.8027212], [0.4070341, 42.8024618], [0.4077196, 42.8024315], [0.4077167, 42.802224], [0.407716, 42.8021716], [0.4077146, 42.8020729], [0.4077131, 42.8019649], [0.4067956, 42.8019722], [0.4067701, 42.801918], [0.4067605, 42.8018586], [0.4067955, 42.8016991], [0.4068035, 42.8016538], [0.4066474, 42.8016557], [0.406641, 42.8017372], [0.406619, 42.8019935], [0.4066426, 42.8021983], [0.4066431, 42.8024287], [0.4068744, 42.8024605], [0.4068348, 42.8027068], [0.4068013, 42.8027304], [0.406464, 42.802815], [0.4062395, 42.8028492], [0.4060253, 42.8028993], [0.4056075, 42.8030107], [0.4053053, 42.8031398], [0.4051611, 42.8032708], [0.4049967, 42.8035372], [0.4050263, 42.8036177], [0.4050324, 42.8036479], [0.4049699, 42.8036759], [0.4048922, 42.8036875], [0.4048207, 42.803774], [0.4047477, 42.8038738], [0.4046177, 42.804149], [0.4045512, 42.8045455], [0.4045553, 42.8046537], [0.4045893, 42.8047053], [0.4046531, 42.8047415], [0.4047795, 42.8048169], [0.4050002, 42.804907], [0.4054163, 42.8051057], [0.4055962, 42.8053947], [0.4057042, 42.8056338], [0.4058403, 42.8058249], [0.4059624, 42.805881], [0.4060147, 42.8059373], [0.4060049, 42.8059726], [0.4060008, 42.8059871], [0.4058852, 42.8060027], [0.4055998, 42.806285], [0.4055318, 42.8063523], [0.4054397, 42.8065109], [0.4053389, 42.8067668], [0.4053897, 42.8068648], [0.4053815, 42.8069913], [0.4052812, 42.8072135], [0.4053037, 42.8074635], [0.4053167, 42.8076563], [0.4052873, 42.8079247], [0.405296, 42.8079919], [0.4053149, 42.8080368], [0.4053532, 42.8080939], [0.4054046, 42.8081268], [0.4054441, 42.8081483], [0.4055103, 42.8081763], [0.4056177, 42.8082151], [0.4058218, 42.8082829], [0.4060546, 42.8082881], [0.4061302, 42.8083116], [0.4061822, 42.8083493], [0.4062088, 42.8084186], [0.4062871, 42.8084846], [0.4063726, 42.8085471], [0.4064674, 42.80859], [0.4065911, 42.8086297], [0.4067104, 42.8086246], [0.4068282, 42.8086195], [0.406906, 42.8085877], [0.4070382, 42.8085095], [0.4072014, 42.8084869], [0.4073794, 42.8085375], [0.4078002, 42.8087673], [0.4078898, 42.8089603], [0.4077667, 42.8092956], [0.4078501, 42.8094156], [0.4080004, 42.8094611], [0.4081508, 42.8095814], [0.408183, 42.8097148], [0.4081608, 42.809747], [0.4080495, 42.8099166], [0.4079293, 42.8100836], [0.4079329, 42.8101257], [0.4080357, 42.8102496], [0.4081047, 42.8103073], [0.4081956, 42.8103478], [0.4083259, 42.8104535], [0.4083936, 42.8104757], [0.4085293, 42.8105247], [0.4085532, 42.8104903], [0.408588, 42.8104605], [0.4086692, 42.8104344], [0.4086813, 42.8104313], [0.4087263, 42.8104196], [0.4087806, 42.8104099], [0.4088528, 42.8104008], [0.408787, 42.8103134], [0.4086334, 42.8102238], [0.4083755, 42.8101229], [0.4083424, 42.810048], [0.4084152, 42.8099457], [0.4085924, 42.8098547], [0.4089903, 42.8097678], [0.4091701, 42.8096401], [0.4093446, 42.8094515], [0.4094526, 42.8092478], [0.4095385, 42.8091247], [0.4095668, 42.8090247], [0.4095888, 42.8088178], [0.4096936, 42.8086407], [0.4099969, 42.8083521], [0.4101274, 42.8081309], [0.4102184, 42.8079381], [0.4102193, 42.8077691], [0.4102363, 42.8075939], [0.4102837, 42.8074817], [0.4103344, 42.8073914], [0.4104394, 42.8071798], [0.4104834, 42.806878], [0.4103851, 42.8066849], [0.4103781, 42.8065678], [0.4102945, 42.8064497], [0.4102888, 42.8063637], [0.4103856, 42.806242], [0.4104982, 42.8061613], [0.4105216, 42.8060904], [0.4105425, 42.8060841], [0.4106005, 42.806099], [0.4106141, 42.806067], [0.4104889, 42.80603], [0.4105487, 42.8058701], [0.4105915, 42.805805], [0.4106592, 42.8056673], [0.4108146, 42.8054823], [0.4109675, 42.8053112], [0.4110394, 42.8052105], [0.4110398, 42.8052009], [0.4110447, 42.8050725], [0.4110309, 42.8049782], [0.4110214, 42.8049128], [0.4110213, 42.8047867], [0.4109816, 42.8046697], [0.4110347, 42.8045542], [0.4110737, 42.8044642], [0.4111057, 42.8043644], [0.4111498, 42.8042467], [0.4111727, 42.8041482], [0.4111837, 42.8040446], [0.411226, 42.80391], [0.4112569, 42.8037872], [0.411253, 42.8035921], [0.4111752, 42.8034838], [0.4111299, 42.8033445], [0.411065, 42.8030397], [0.4110522, 42.8029564], [0.4110264, 42.8028709], [0.4109772, 42.8027941], [0.4109264, 42.8026963], [0.4108915, 42.8025216], [0.4107952, 42.8020722], [0.4107871, 42.8019785], [0.4107385, 42.8020008], [0.4106923, 42.8020173], [0.4107489, 42.8023457], [0.4107691, 42.8026915], [0.410761, 42.8028003]]]}}, {"type": "Feature", "properties": {"name": "Lac de Caillaouas"}, "geometry": {"type": "Polygon", "coordinates": [[[0.4432934, 42.7202832], [0.4433885, 42.7206377], [0.4434206, 42.7209437], [0.4435777, 42.7209631], [0.4436579, 42.7209393], [0.4437394, 42.7209569], [0.4437816, 42.7209785], [0.4437802, 42.7210137], [0.4436762, 42.7211738], [0.4435398, 42.7212729], [0.4433978, 42.7213246], [0.443177, 42.7214423], [0.4430617, 42.7215714], [0.4429282, 42.7217883], [0.4428888, 42.7220073], [0.4429544, 42.7220789], [0.4431334, 42.7221403], [0.4432348, 42.7222352], [0.4432427, 42.7223652], [0.4431672, 42.7224967], [0.4430717, 42.7226164], [0.4430101, 42.7227129], [0.4429286, 42.7228823], [0.4427795, 42.7232373], [0.4427138, 42.7234651], [0.4426104, 42.7238376], [0.4426562, 42.7240596], [0.4428729, 42.7243722], [0.4432785, 42.7246278], [0.4435609, 42.7247184], [0.4437398, 42.7247272], [0.4439128, 42.7243956], [0.4439148, 42.7242977], [0.4439148, 42.7242188], [0.4439605, 42.724156], [0.4441852, 42.7241487], [0.444398, 42.7242203], [0.4445888, 42.7243094], [0.4448016, 42.7243445], [0.4450819, 42.7243518], [0.445414, 42.7244526], [0.4455691, 42.7245241], [0.4456347, 42.7246045], [0.4457023, 42.7246103], [0.4459628, 42.7245548], [0.4462093, 42.7245548], [0.446442, 42.7245285], [0.4467422, 42.7245767], [0.4468695, 42.7245606], [0.4470703, 42.7244759], [0.4473347, 42.7244014], [0.4475873, 42.7243912], [0.4479094, 42.7243006], [0.4482235, 42.7241999], [0.4483209, 42.7241224], [0.4484999, 42.7239691], [0.4487584, 42.7238727], [0.449162, 42.723712], [0.4495199, 42.7235513], [0.4496571, 42.7234739], [0.449681, 42.7233965], [0.449673, 42.7233103], [0.4498023, 42.7232153], [0.4499633, 42.7232007], [0.4502476, 42.7231116], [0.45053, 42.7229919], [0.4508998, 42.722818], [0.4512299, 42.7227406], [0.4514068, 42.7226573], [0.4514844, 42.7225493], [0.4516435, 42.7224499], [0.4521763, 42.7223082], [0.4524269, 42.7221914], [0.4526635, 42.7220292], [0.4529021, 42.7217999], [0.4532461, 42.7215486], [0.453594, 42.7211206], [0.4538426, 42.72083], [0.4538465, 42.7206517], [0.4538088, 42.7205553], [0.4536994, 42.7204297], [0.4536875, 42.7202939], [0.4537332, 42.7201668], [0.4536914, 42.7199593], [0.4535702, 42.7198308], [0.4533276, 42.7197052], [0.4529359, 42.7196234], [0.4522181, 42.7196234], [0.4518781, 42.7196423], [0.4516812, 42.7196745], [0.4513293, 42.7197022], [0.4509495, 42.7197095], [0.4505857, 42.7196847], [0.4501755, 42.7194966], [0.4499387, 42.7193245], [0.4498231, 42.7191388], [0.4497202, 42.7190041], [0.4495493, 42.718795], [0.4494137, 42.7186636], [0.4493773, 42.7185119], [0.4492574, 42.7185019], [0.449093, 42.7185435], [0.4489248, 42.7185467], [0.448634, 42.7184897], [0.4484033, 42.7182776], [0.4483098, 42.718255], [0.4479825, 42.71824], [0.4477517, 42.7181603], [0.4475084, 42.7181642], [0.4473168, 42.7182414], [0.4470067, 42.7182049], [0.4466706, 42.7182049], [0.4463366, 42.71824], [0.4459509, 42.7181728], [0.4456944, 42.7181216], [0.4454261, 42.7181391], [0.44507, 42.7181815], [0.4446803, 42.718405], [0.4444676, 42.7186344], [0.4444238, 42.718725], [0.4441554, 42.7189368], [0.4439784, 42.7190507], [0.4437001, 42.7192947], [0.4434893, 42.7195474], [0.4434018, 42.7198045], [0.4432608, 42.7201651], [0.4432934, 42.7202832]]]}}, {"type": "Feature", "properties": {"name": "Lac de Migouélou"}, "geometry": {"type": "Polygon", "coordinates": [[[-0.2991649, 42.8871586], [-0.2991951, 42.8871238], [-0.2992487, 42.8870471], [-0.299466, 42.8870098], [-0.2996054, 42.8869665], [-0.2997047, 42.8869135], [-0.2999005, 42.88666], [-0.3000185, 42.8864202], [-0.2999622, 42.8862885], [-0.2998066, 42.8861804], [-0.2996632, 42.8861624], [-0.299655, 42.8860856], [-0.2996165, 42.8860103], [-0.2995764, 42.885967], [-0.2995342, 42.8859351], [-0.2994763, 42.8859041], [-0.2994053, 42.8858801], [-0.2993012, 42.8858652], [-0.2991865, 42.8858734], [-0.2993855, 42.8856557], [-0.2993962, 42.885585], [-0.2994525, 42.8854631], [-0.2995732, 42.8851801], [-0.2996591, 42.8850288], [-0.299879, 42.8848401], [-0.300048, 42.8846868], [-0.3002223, 42.8842918], [-0.3003538, 42.8842014], [-0.3005335, 42.8841483], [-0.30063, 42.88405], [-0.3006274, 42.8839203], [-0.3005469, 42.8837985], [-0.3005871, 42.8836884], [-0.3005093, 42.8834211], [-0.3005683, 42.8831342], [-0.3005764, 42.8830359], [-0.3005657, 42.8829436], [-0.3006542, 42.8828217], [-0.300799, 42.8825033], [-0.3008983, 42.8824601], [-0.3009841, 42.8823421], [-0.3010565, 42.8821967], [-0.3010994, 42.8820454], [-0.3010887, 42.8819392], [-0.3010967, 42.8818154], [-0.3012764, 42.881385], [-0.3014991, 42.8809565], [-0.3016493, 42.8808406], [-0.3017941, 42.8807619], [-0.3018813, 42.8807049], [-0.3019365, 42.8806925], [-0.302169, 42.8806198], [-0.3023695, 42.8805235], [-0.3026186, 42.8801857], [-0.3029689, 42.8796731], [-0.303154, 42.8795473], [-0.3035027, 42.8793292], [-0.3036905, 42.8793173], [-0.3038246, 42.8793743], [-0.3041223, 42.8793448], [-0.3043073, 42.8792328], [-0.3044495, 42.8791483], [-0.3047043, 42.8791503], [-0.3048679, 42.8791955], [-0.3050047, 42.8792603], [-0.3051066, 42.8793704], [-0.3051361, 42.8794962], [-0.3050503, 42.8796318], [-0.3050584, 42.8797379], [-0.3051737, 42.8799089], [-0.3054741, 42.8802116], [-0.3056484, 42.8802843], [-0.3058523, 42.8802706], [-0.3060025, 42.8801939], [-0.3062385, 42.8799758], [-0.3067428, 42.8795257], [-0.3068608, 42.8794588], [-0.3071666, 42.8794805], [-0.307349, 42.8795473], [-0.3074455, 42.879563], [-0.3075904, 42.8795434], [-0.3077433, 42.8795571], [-0.307821, 42.8795886], [-0.307872, 42.879679], [-0.3078988, 42.8797969], [-0.307931, 42.8798303], [-0.3080276, 42.8798853], [-0.3081805, 42.8798795], [-0.3083387, 42.8798834], [-0.3083923, 42.8798893], [-0.3085023, 42.8799699], [-0.3085801, 42.8800013], [-0.3087437, 42.8800819], [-0.3088698, 42.8800367], [-0.3089958, 42.8800504], [-0.3091863, 42.8801664], [-0.3092694, 42.8804082], [-0.3092533, 42.8805772], [-0.30913, 42.8808052], [-0.3090066, 42.8809526], [-0.3089207, 42.8810214], [-0.3088617, 42.8811118], [-0.3085667, 42.8813909], [-0.3083923, 42.8816326], [-0.3083628, 42.8816798], [-0.3083843, 42.8817388], [-0.3084916, 42.8817486], [-0.3085774, 42.8818547], [-0.3086686, 42.8819451], [-0.3086954, 42.8820257], [-0.3086042, 42.8821731], [-0.3085399, 42.8823245], [-0.3085077, 42.8824699], [-0.3084353, 42.882578], [-0.3084223, 42.8826175], [-0.308387, 42.8827254], [-0.3083333, 42.8828276], [-0.3081912, 42.882859], [-0.3081241, 42.8829436], [-0.3080168, 42.8830418], [-0.307864, 42.8831421], [-0.3076574, 42.8831951], [-0.3074187, 42.8832443], [-0.3072336, 42.8833288], [-0.3070298, 42.8835764], [-0.3069413, 42.8836452], [-0.3068125, 42.8836865], [-0.3066784, 42.883771], [-0.3065604, 42.8838909], [-0.3063673, 42.8838987], [-0.3061983, 42.8839125], [-0.3060588, 42.8840048], [-0.3058523, 42.8841365], [-0.305737, 42.8842643], [-0.3056431, 42.8843566], [-0.305576, 42.8843743], [-0.3054875, 42.8843999], [-0.3054312, 42.8844883], [-0.3054178, 42.8845689], [-0.3053749, 42.8846338], [-0.3053588, 42.8847222], [-0.3053561, 42.8848342], [-0.3052971, 42.8850425], [-0.3052381, 42.8853806], [-0.3052354, 42.8854965], [-0.3050932, 42.8857677], [-0.3050047, 42.8858955], [-0.304943, 42.8859367], [-0.3049323, 42.8860173], [-0.3049618, 42.8861254], [-0.3050396, 42.8862197], [-0.3050154, 42.8862885], [-0.3048813, 42.886434], [-0.3048196, 42.8865597], [-0.3047231, 42.8869017], [-0.3046614, 42.8870353], [-0.3045648, 42.8870963], [-0.30442, 42.88711], [-0.3041062, 42.8872142], [-0.3039318, 42.8872653], [-0.3037629, 42.8873223], [-0.3035992, 42.8873458], [-0.3033578, 42.8873675], [-0.3031352, 42.8874087], [-0.3029475, 42.8874932], [-0.3028214, 42.8875266], [-0.3027383, 42.8876033], [-0.3027087, 42.8876858], [-0.3027034, 42.887786], [-0.302749, 42.8879118], [-0.3027383, 42.8879885], [-0.3026497, 42.8880494], [-0.3025129, 42.8881889], [-0.3023788, 42.8882656], [-0.302293, 42.8883442], [-0.3022501, 42.8884857], [-0.3022072, 42.8885918], [-0.3021106, 42.8886861], [-0.301939, 42.8887706], [-0.3019255, 42.8888394], [-0.301888, 42.8888708], [-0.3018531, 42.8889711], [-0.3019014, 42.8890261], [-0.3018665, 42.8890674], [-0.3018424, 42.8891381], [-0.3018595, 42.8891749], [-0.3018826, 42.8892246], [-0.3018558, 42.8893051], [-0.3017378, 42.8893621], [-0.3015062, 42.8893983], [-0.301322, 42.889427], [-0.300745, 42.8894589], [-0.3002259, 42.8894435], [-0.300158, 42.8894427], [-0.3001124, 42.8893916], [-0.3001334, 42.889321], [-0.3006111, 42.8892129], [-0.3006783, 42.8891027], [-0.3007057, 42.8889934], [-0.3005935, 42.888894], [-0.3004691, 42.8888178], [-0.3004626, 42.8886438], [-0.2997614, 42.8889746], [-0.2997741, 42.8889483], [-0.2997769, 42.8889204], [-0.2997697, 42.888893], [-0.2997528, 42.8888679], [-0.2997276, 42.888847], [-0.2996957, 42.8888317], [-0.2996594, 42.8888231], [-0.2996214, 42.8888217], [-0.2996139, 42.8888101], [-0.2996313, 42.8887748], [-0.2996322, 42.8887373], [-0.2996164, 42.8887016], [-0.2995858, 42.8886716], [-0.2995435, 42.8886504], [-0.2994942, 42.8886404], [-0.2994431, 42.8886426], [-0.2994394, 42.8886356], [-0.2994595, 42.8886037], [-0.2994655, 42.8885688], [-0.2994568, 42.8885342], [-0.2994344, 42.888503], [-0.2994002, 42.8884783], [-0.2993575, 42.8884623], [-0.2993101, 42.8884565], [-0.2992626, 42.8884614], [-0.2992545, 42.8884486], [-0.2992811, 42.888419], [-0.2992934, 42.8883848], [-0.29929, 42.8883495], [-0.2992714, 42.8883168], [-0.2992395, 42.8882902], [-0.2991976, 42.8882725], [-0.2991502, 42.8882656], [-0.2991023, 42.8882702], [-0.2990903, 42.8882529], [-0.2991064, 42.8882227], [-0.2991101, 42.8881904], [-0.2991012, 42.8881587], [-0.2990805, 42.88813], [-0.2990495, 42.8881069], [-0.2990128, 42.8880858], [-0.2989683, 42.8880806], [-0.2989235, 42.8880803], [-0.2989225, 42.888064], [-0.2989593, 42.8880522], [-0.2989912, 42.8880343], [-0.2990163, 42.8880113], [-0.2990331, 42.8879846], [-0.2990408, 42.8879557], [-0.2990387, 42.8879263], [-0.2990271, 42.8878982], [-0.2990066, 42.8878728], [-0.2989785, 42.8878519], [-0.2989816, 42.887838], [-0.2990145, 42.887823], [-0.2990548, 42.8877989], [-0.2990832, 42.887767], [-0.2990971, 42.8877303], [-0.2990951, 42.8876922], [-0.2990775, 42.8876564], [-0.2990458, 42.8876261], [-0.2990526, 42.8876131], [-0.299077, 42.8876082], [-0.2990985, 42.8875945], [-0.2991316, 42.88757], [-0.2991464, 42.887535], [-0.2991552, 42.8875015], [-0.2991507, 42.8874677], [-0.2991332, 42.8874361], [-0.2991042, 42.8874095], [-0.2991108, 42.8873909], [-0.2991536, 42.8873802], [-0.2991905, 42.887361], [-0.2992186, 42.887335], [-0.2992355, 42.8873043], [-0.2992399, 42.8872713], [-0.2992314, 42.8872388], [-0.2992107, 42.8872093], [-0.2991667, 42.8871843], [-0.2991649, 42.8871586]]]}}, {"type": "Feature", "properties": {"name": "Lac du Gabas"}, "geometry": {"type": "Polygon", "coordinates": [[[-0.1112324, 43.268126], [-0.1112704, 43.2683692], [-0.1116156, 43.2685208], [-0.1117634, 43.2685857], [-0.1120063, 43.2688618], [-0.1123239, 43.2689441], [-0.1127687, 43.2689242], [-0.1128271, 43.2692011], [-0.1129588, 43.2694832], [-0.11316, 43.2697954], [-0.1132423, 43.2697649], [-0.1133016, 43.2697429], [-0.1135788, 43.2696402], [-0.113729, 43.2698384], [-0.1134595, 43.269946], [-0.1134019, 43.269969], [-0.1133226, 43.2700007], [-0.1140762, 43.2711385], [-0.1137301, 43.2714584], [-0.1128762, 43.2712595], [-0.1126174, 43.2712452], [-0.1124361, 43.271185], [-0.1122968, 43.2711141], [-0.1119363, 43.2710424], [-0.1116069, 43.2710405], [-0.1113832, 43.2709675], [-0.1111857, 43.2709031], [-0.1109677, 43.2708527], [-0.1107794, 43.2708372], [-0.1106147, 43.270897], [-0.1102562, 43.2709423], [-0.1099142, 43.2709379], [-0.1094644, 43.2708943], [-0.1092862, 43.2708107], [-0.1090816, 43.2707147], [-0.1087536, 43.2706161], [-0.1082013, 43.2706146], [-0.1077051, 43.2703656], [-0.1075852, 43.270301], [-0.1074795, 43.2700591], [-0.1073259, 43.2696141], [-0.1058929, 43.2684382], [-0.1057804, 43.2683345], [-0.1057326, 43.268039], [-0.105616, 43.267879], [-0.105316, 43.2677365], [-0.1050324, 43.2668831], [-0.1046099, 43.266174], [-0.1045851, 43.2660436], [-0.1046771, 43.2659574], [-0.1048319, 43.2658611], [-0.105095, 43.2658088], [-0.1053667, 43.2658054], [-0.1055106, 43.2657676], [-0.1055418, 43.2657195], [-0.1054954, 43.2656789], [-0.105359, 43.2656704], [-0.1044708, 43.2657765], [-0.1044965, 43.2656136], [-0.1048706, 43.2654319], [-0.1049587, 43.2654172], [-0.1047704, 43.2650578], [-0.1048296, 43.2649728], [-0.1048449, 43.2648988], [-0.1048313, 43.2647073], [-0.1049619, 43.2646994], [-0.1050377, 43.2647491], [-0.1048884, 43.2650087], [-0.1048701, 43.2651128], [-0.1049765, 43.2651342], [-0.1053782, 43.2649165], [-0.1054366, 43.2648953], [-0.1054963, 43.2648963], [-0.1055048, 43.2649272], [-0.1053504, 43.2650448], [-0.1052922, 43.2652283], [-0.1052305, 43.2652711], [-0.1051687, 43.2653151], [-0.1051205, 43.2654052], [-0.1051385, 43.2654554], [-0.1052045, 43.2654987], [-0.1053147, 43.2655395], [-0.1053737, 43.2655397], [-0.1053784, 43.2655147], [-0.1052941, 43.2654895], [-0.1052075, 43.2654451], [-0.1052415, 43.2654095], [-0.1053388, 43.2653664], [-0.1053805, 43.2653199], [-0.1054193, 43.2652679], [-0.1054727, 43.2653286], [-0.1055223, 43.2653899], [-0.1055977, 43.2654618], [-0.105658, 43.2655336], [-0.1056632, 43.2655799], [-0.1055932, 43.2656065], [-0.1056399, 43.265708], [-0.1058036, 43.2657908], [-0.1060765, 43.2658677], [-0.106335, 43.265899], [-0.1065469, 43.2659445], [-0.1071793, 43.2659041], [-0.108001, 43.2659922], [-0.1082872, 43.2661386], [-0.1092997, 43.2664544], [-0.1093657, 43.2666386], [-0.1094135, 43.2675818], [-0.109547, 43.2677242], [-0.1096457, 43.2678569], [-0.1098007, 43.2679267], [-0.1100879, 43.2679741], [-0.1103487, 43.2676443], [-0.1105112, 43.2675873], [-0.1107843, 43.2675962], [-0.1111833, 43.2678514], [-0.1111676, 43.2679157], [-0.111126, 43.267946], [-0.1110445, 43.2679908], [-0.1110583, 43.2680513], [-0.1111245, 43.2680961], [-0.1112324, 43.268126]]]}}, {"type": "Feature", "properties": {"name": "Lac Bleu"}, "geometry": {"type": "Polygon", "coordinates": [[[0.082337, 42.9391108], [0.082544, 42.9394951], [0.082583, 42.9395851], [0.0824049, 42.9397029], [0.082367, 42.9397267], [0.0823117, 42.9397109], [0.082229, 42.9397232], [0.082181, 42.9397498], [0.0823062, 42.9397964], [0.0822925, 42.9398345], [0.0822305, 42.939954], [0.0819651, 42.9399277], [0.0819201, 42.9398881], [0.0818736, 42.9398563], [0.0818016, 42.9398497], [0.0817296, 42.9398596], [0.0816846, 42.9398739], [0.0816471, 42.9398596], [0.0816861, 42.9398365], [0.0816456, 42.9398157], [0.0815376, 42.9398179], [0.0814656, 42.9398277], [0.0814207, 42.9398376], [0.0812407, 42.9398146], [0.0810712, 42.9398255], [0.0806543, 42.9398607], [0.0805448, 42.9398837], [0.0803018, 42.9399145], [0.0799059, 42.9399386], [0.0798204, 42.9399309], [0.0797949, 42.9398936], [0.0796509, 42.9398728], [0.079342, 42.9399123], [0.0789145, 42.9399968], [0.0785381, 42.9400407], [0.0783041, 42.9400539], [0.0782142, 42.9401022], [0.0781152, 42.9401242], [0.0778632, 42.9401857], [0.0776772, 42.9401857], [0.07748, 42.9400708], [0.0774283, 42.9400407], [0.0773203, 42.9399046], [0.0772183, 42.9397641], [0.0771973, 42.9394566], [0.0771073, 42.9392919], [0.0769244, 42.9391997], [0.0768974, 42.939147], [0.0766874, 42.9390987], [0.0763814, 42.939057], [0.0763244, 42.9390328], [0.0762735, 42.9390504], [0.0761355, 42.9389055], [0.0761535, 42.9388089], [0.0761685, 42.9386793], [0.0761355, 42.9384268], [0.0760815, 42.9383126], [0.0760335, 42.9382709], [0.0759885, 42.9381962], [0.0760125, 42.9381369], [0.0760755, 42.9380864], [0.0761415, 42.9380557], [0.0762045, 42.9379766], [0.0761505, 42.9379195], [0.0760755, 42.9378426], [0.0759885, 42.9377877], [0.0759975, 42.9377021], [0.0759855, 42.9375923], [0.0758985, 42.9374935], [0.0759315, 42.9373925], [0.0760335, 42.9371092], [0.0759705, 42.9370279], [0.0759315, 42.9369225], [0.0758745, 42.9368874], [0.0758685, 42.9368237], [0.0759135, 42.9367513], [0.0760815, 42.9366173], [0.0761805, 42.9364109], [0.0762315, 42.9361539], [0.0763184, 42.9357301], [0.0763334, 42.9355786], [0.0764054, 42.935449], [0.0764054, 42.9352865], [0.0764084, 42.9351416], [0.0763544, 42.9349747], [0.0764264, 42.9348956], [0.0763754, 42.9348319], [0.0763035, 42.9347705], [0.0763125, 42.9347243], [0.0763754, 42.9347112], [0.0764294, 42.9345333], [0.0764654, 42.9344213], [0.0764204, 42.9343883], [0.0764564, 42.9343093], [0.0766784, 42.9341951], [0.0768224, 42.9339909], [0.0770323, 42.9338327], [0.0770683, 42.9336856], [0.0770743, 42.9334748], [0.0771673, 42.9332903], [0.0772363, 42.932996], [0.0772363, 42.9328313], [0.0772423, 42.9325392], [0.0772843, 42.932469], [0.07736, 42.9323636], [0.0774135, 42.9322891], [0.0775423, 42.9321308], [0.0775153, 42.9320429], [0.0773473, 42.9318738], [0.0772393, 42.9317662], [0.0771761, 42.931714], [0.0771223, 42.9316696], [0.0771493, 42.9315114], [0.0774343, 42.9312633], [0.0774793, 42.9311557], [0.0775783, 42.9310568], [0.0775873, 42.9309031], [0.0775273, 42.9308131], [0.0774253, 42.9307779], [0.0773893, 42.9306703], [0.0774853, 42.9304639], [0.0776322, 42.930376], [0.0779052, 42.9303123], [0.0779862, 42.9303123], [0.0780582, 42.9302376], [0.0783671, 42.9301388], [0.0786551, 42.9301388], [0.0787001, 42.9302618], [0.0788531, 42.9302816], [0.07903, 42.9303826], [0.0798356, 42.9306562], [0.0800799, 42.9308592], [0.0805928, 42.9310678], [0.0807259, 42.931137], [0.0809688, 42.9312632], [0.0811717, 42.9313687], [0.0813037, 42.9315729], [0.0812677, 42.9318167], [0.0812467, 42.9320166], [0.0812557, 42.9320824], [0.0814057, 42.932089], [0.0815646, 42.9320978], [0.0818256, 42.931988], [0.0820925, 42.9319968], [0.0822095, 42.9320297], [0.0823115, 42.9322428], [0.0822845, 42.9324316], [0.0822155, 42.9325085], [0.0821315, 42.9325129], [0.0819936, 42.9326007], [0.0820026, 42.9326688], [0.0821735, 42.932693], [0.0822125, 42.9327852], [0.0822182, 42.9328386], [0.0822245, 42.9328972], [0.0820176, 42.9332486], [0.0818256, 42.933545], [0.0818106, 42.9337537], [0.0818826, 42.9339733], [0.0820536, 42.9341621], [0.0821945, 42.9341687], [0.0825395, 42.9341687], [0.0825905, 42.9342961], [0.0827165, 42.9345135], [0.0829204, 42.934564], [0.0831664, 42.9345992], [0.0834873, 42.9346453], [0.0836223, 42.9346541], [0.0837903, 42.934709], [0.0842492, 42.9350032], [0.0844172, 42.9351614], [0.0844742, 42.9353436], [0.0845192, 42.9355171], [0.0844892, 42.9355742], [0.0844142, 42.9356225], [0.0843422, 42.9357147], [0.0843512, 42.9357653], [0.0846212, 42.9357872], [0.0846811, 42.9358597], [0.0846841, 42.9359409], [0.0846541, 42.9361276], [0.0846691, 42.9362879], [0.0846781, 42.9363955], [0.0846272, 42.9366393], [0.0845012, 42.9371114], [0.0844232, 42.9372256], [0.0842372, 42.9373551], [0.0840182, 42.9375352], [0.0840512, 42.937656], [0.0840932, 42.9377372], [0.0839223, 42.9378997], [0.0838413, 42.9381149], [0.0836553, 42.9384553], [0.0836163, 42.9386771], [0.0834423, 42.9388418], [0.0833404, 42.9388923], [0.0829954, 42.9388637], [0.0827914, 42.9388879], [0.0826745, 42.9389648], [0.0825575, 42.9390087], [0.0824315, 42.9390416], [0.0823475, 42.939068], [0.082337, 42.9391108]]]}}, {"type": "Feature", "properties": {"name": "Lac de Gréziolles"}, "geometry": {"type": "Polygon", "coordinates": [[[0.1989961, 42.8913876], [0.1989751, 42.8913324], [0.1989893, 42.8912727], [0.1990744, 42.8912064], [0.1993118, 42.8910961], [0.1994589, 42.8910299], [0.199551, 42.8909987], [0.1996201, 42.8909987], [0.1997229, 42.891013], [0.1997973, 42.8910377], [0.1998682, 42.8910598], [0.1999178, 42.891052], [0.1999426, 42.8910247], [0.2000454, 42.8909299], [0.2003235, 42.8907469], [0.2006868, 42.8906262], [0.2009508, 42.8905223], [0.2011439, 42.8904236], [0.2013052, 42.8903211], [0.2017588, 42.8899913], [0.2019023, 42.8898849], [0.2019696, 42.8897901], [0.2019909, 42.8896941], [0.202099, 42.8895331], [0.2024728, 42.8891761], [0.2027191, 42.8890073], [0.2028379, 42.8889035], [0.2029548, 42.8888814], [0.2030859, 42.8888502], [0.2032294, 42.88881], [0.203497, 42.8886724], [0.2036458, 42.8885828], [0.2037362, 42.8884854], [0.2038921, 42.8884153], [0.2041703, 42.8883244], [0.2043227, 42.8883141], [0.2044538, 42.8883582], [0.2044786, 42.8884049], [0.204553, 42.8884465], [0.2046594, 42.8884439], [0.2047267, 42.8884101], [0.2047905, 42.8883115], [0.2048131, 42.8881644], [0.2048285, 42.8880052], [0.2048358, 42.8878942], [0.2047952, 42.8877918], [0.2047908, 42.8877468], [0.204791, 42.8876391], [0.2049571, 42.8873807], [0.2050259, 42.8871864], [0.2052106, 42.8868357], [0.2052964, 42.8867104], [0.2053674, 42.8866061], [0.2055382, 42.8864654], [0.2056916, 42.8863108], [0.2059271, 42.8861713], [0.2061426, 42.8859767], [0.2061176, 42.8858849], [0.2059797, 42.8858279], [0.2057843, 42.885883], [0.2057266, 42.8859803], [0.2056397, 42.8860329], [0.2055212, 42.8860923], [0.2053232, 42.8862502], [0.2052931, 42.8863439], [0.2051754, 42.8864008], [0.2050426, 42.8863934], [0.2049122, 42.8863567], [0.2047494, 42.8861603], [0.2046892, 42.885995], [0.2045389, 42.8859546], [0.2042632, 42.8859491], [0.2039926, 42.8860556], [0.2033286, 42.8864448], [0.2032008, 42.8865789], [0.203083, 42.8866835], [0.203098, 42.8867588], [0.2029464, 42.8869145], [0.2027692, 42.8870288], [0.2025034, 42.8871093], [0.2020498, 42.8875559], [0.2019293, 42.8877428], [0.2018833, 42.8879298], [0.2016848, 42.8881556], [0.2014119, 42.8883556], [0.2009619, 42.8885088], [0.2007528, 42.8885711], [0.2005969, 42.888623], [0.2003346, 42.8885737], [0.2001149, 42.8884906], [0.1998881, 42.8883348], [0.199679, 42.8881764], [0.1995692, 42.8880674], [0.199477, 42.888057], [0.1993424, 42.8880855], [0.1992148, 42.8881608], [0.1990163, 42.8883192], [0.1989313, 42.8883608], [0.1988533, 42.8883452], [0.1988002, 42.888314], [0.1986903, 42.8882335], [0.1985167, 42.8882102], [0.1983005, 42.8882647], [0.19818, 42.8884075], [0.198095, 42.8885373], [0.197893, 42.8886178], [0.1977264, 42.8886152], [0.1975138, 42.88861], [0.1973756, 42.8886749], [0.1970106, 42.8887165], [0.1968617, 42.8888619], [0.1967731, 42.8889424], [0.1966172, 42.8889917], [0.1962132, 42.8891008], [0.1960715, 42.8891631], [0.1959191, 42.88935], [0.1957419, 42.8894227], [0.1955966, 42.8894357], [0.1956108, 42.8895837], [0.1955966, 42.8897602], [0.1956746, 42.8898719], [0.1957986, 42.8899757], [0.1958836, 42.8900692], [0.1958517, 42.8902094], [0.1957702, 42.8903418], [0.1956108, 42.8904587], [0.1955505, 42.8905885], [0.1955009, 42.8906949], [0.195384, 42.8907365], [0.1952316, 42.8907962], [0.1950119, 42.8909286], [0.1951182, 42.8910299], [0.1952741, 42.8911181], [0.1954797, 42.8913518], [0.195423, 42.8914816], [0.1953592, 42.891775], [0.1951324, 42.8918049], [0.1949995, 42.8918828], [0.195019, 42.8919477], [0.1950757, 42.8919736], [0.1951944, 42.8919736], [0.1953538, 42.8919658], [0.1955316, 42.8920244], [0.1957408, 42.8921533], [0.1960309, 42.8922997], [0.1961974, 42.8922788], [0.1963876, 42.892223], [0.1966063, 42.8921429], [0.1966636, 42.8921251], [0.1967269, 42.8921574], [0.1967266, 42.8922184], [0.1967731, 42.8922516], [0.1968571, 42.8922277], [0.1969273, 42.892224], [0.1970324, 42.8922401], [0.1970284, 42.8922071], [0.1970424, 42.8921511], [0.1970693, 42.8921025], [0.1971168, 42.8920539], [0.1971648, 42.8920337], [0.1972419, 42.8920067], [0.1972403, 42.8919453], [0.1973304, 42.8918467], [0.1974632, 42.8917841], [0.1975762, 42.8917968], [0.1981974, 42.8916178], [0.1989961, 42.8913876]]]}}, {"type": "Feature", "properties": {"name": "Retenue de l'Arrêt Darré"}, "geometry": {"type": "Polygon", "coordinates": [[[0.1941071, 43.2152393], [0.1940451, 43.2151202], [0.1940569, 43.2149124], [0.1940715, 43.2146271], [0.1943061, 43.2139062], [0.1942509, 43.2137013], [0.1939713, 43.2136263], [0.1938773, 43.2135172], [0.1937736, 43.2133918], [0.193784, 43.2132596], [0.1939901, 43.2129876], [0.1941261, 43.2127574], [0.1941757, 43.2125173], [0.1942145, 43.2122323], [0.1941303, 43.2121728], [0.1939107, 43.2122577], [0.1937957, 43.2123902], [0.1936905, 43.2125385], [0.1936002, 43.2126428], [0.1935116, 43.2127331], [0.1933464, 43.2127417], [0.1932431, 43.2127159], [0.1931375, 43.212681], [0.1927239, 43.2126596], [0.1928011, 43.2127052], [0.1928366, 43.2127645], [0.1928929, 43.2127965], [0.1930014, 43.2128102], [0.1930411, 43.2128391], [0.1930077, 43.2128908], [0.1928658, 43.2129607], [0.192655, 43.2130596], [0.1925507, 43.2131372], [0.192463, 43.2132375], [0.1924192, 43.2133394], [0.1923837, 43.2133501], [0.192342, 43.2133288], [0.1923524, 43.2132771], [0.1922919, 43.2132147], [0.1922585, 43.2131235], [0.1923065, 43.2130931], [0.1923963, 43.2131204], [0.1925256, 43.2130444], [0.1926822, 43.2129607], [0.1927907, 43.2128893], [0.1927865, 43.212836], [0.1927614, 43.2128117], [0.1926112, 43.2128163], [0.1924088, 43.2128117], [0.1923295, 43.2127813], [0.1923275, 43.2127172], [0.1923566, 43.2126429], [0.1923943, 43.2125893], [0.1923399, 43.2125295], [0.192282, 43.2125318], [0.1917551, 43.2125039], [0.19169, 43.2125005], [0.1915451, 43.2124959], [0.1914608, 43.2124932], [0.1913849, 43.2125023], [0.1913223, 43.2125338], [0.1912462, 43.2127245], [0.1911834, 43.2128538], [0.1911764, 43.2129975], [0.1912609, 43.2132706], [0.1910618, 43.2153397], [0.1910548, 43.2157387], [0.1909892, 43.2161613], [0.1909564, 43.2169468], [0.1909071, 43.2174013], [0.1908091, 43.2175039], [0.19076, 43.2175633], [0.1906536, 43.21757], [0.1904136, 43.217519], [0.1902951, 43.2175625], [0.1899204, 43.2176642], [0.1897367, 43.2178195], [0.1897769, 43.2178876], [0.1898396, 43.2180229], [0.1900821, 43.2183388], [0.1903594, 43.218697], [0.1904715, 43.2190777], [0.1906698, 43.2191884], [0.1906405, 43.2193133], [0.19042, 43.2196131], [0.1903613, 43.219822], [0.1901041, 43.2199933], [0.1899939, 43.2201164], [0.1901188, 43.2201914], [0.1901776, 43.2202717], [0.1901105, 43.2204029], [0.1896265, 43.2204484], [0.1894796, 43.220684], [0.1893981, 43.2212551], [0.1893473, 43.2220706], [0.1896192, 43.2223651], [0.189847, 43.2224454], [0.1899143, 43.2226624], [0.1900049, 43.2229542], [0.1898565, 43.2230394], [0.1898335, 43.2232156], [0.1903222, 43.223856], [0.190509, 43.2241008], [0.1912579, 43.2251563], [0.1914182, 43.2253459], [0.1916907, 43.2256682], [0.1917603, 43.2257505], [0.1922878, 43.2262226], [0.1927302, 43.2266691], [0.1927358, 43.2267781], [0.192775, 43.2268838], [0.1929217, 43.2270104], [0.1930048, 43.2273889], [0.1928971, 43.2277098], [0.1925736, 43.2279416], [0.1922616, 43.2280871], [0.1917632, 43.2282671], [0.191378, 43.2283635], [0.1913527, 43.2286835], [0.1911969, 43.2287403], [0.1910203, 43.2287176], [0.1909932, 43.2286958], [0.1909215, 43.2286381], [0.1908021, 43.2284905], [0.1907468, 43.2283799], [0.1906834, 43.2282529], [0.1906611, 43.2279108], [0.1906595, 43.2278861], [0.1905911, 43.2278187], [0.1905244, 43.2278231], [0.1904732, 43.2278219], [0.1904124, 43.2280438], [0.1903781, 43.2281997], [0.1903764, 43.2282803], [0.1904318, 43.2283758], [0.1905555, 43.228488], [0.1905946, 43.2285639], [0.1904748, 43.2288463], [0.1903708, 43.2292551], [0.1900332, 43.2294179], [0.1895136, 43.2295996], [0.189124, 43.2296034], [0.1890821, 43.2296195], [0.1890616, 43.2296488], [0.1891384, 43.2296904], [0.1892747, 43.2297283], [0.1895136, 43.2297245], [0.189789, 43.2297018], [0.1900317, 43.2297044], [0.1902981, 43.2296488], [0.1906722, 43.2295542], [0.1911789, 43.2295038], [0.19168, 43.2295513], [0.1929166, 43.2296931], [0.1937755, 43.2298333], [0.1946738, 43.230219], [0.1950377, 43.2306035], [0.1953802, 43.2312958], [0.1957251, 43.231887], [0.1964367, 43.2329796], [0.1965475, 43.2331248], [0.1965622, 43.2332827], [0.1964079, 43.2334139], [0.195987, 43.2335652], [0.1954198, 43.2337752], [0.194937, 43.2340561], [0.1947328, 43.2341312], [0.194464, 43.2341572], [0.1942883, 43.2341552], [0.1940679, 43.2341044], [0.1937197, 43.2338809], [0.1935067, 43.2338695], [0.1933952, 43.2338695], [0.1932967, 43.2339298], [0.1932631, 43.234006], [0.1933629, 43.2342518], [0.1933939, 43.2343495], [0.1934438, 43.234418], [0.193621, 43.2344903], [0.1938911, 43.2346114], [0.1942288, 43.2346417], [0.1946229, 43.2345544], [0.194919, 43.2345847], [0.1955952, 43.234449], [0.1965622, 43.2342195], [0.1970322, 43.2341851], [0.1972491, 43.2342425], [0.1974481, 43.2344089], [0.1977717, 43.2346583], [0.200443, 43.2331458], [0.2008805, 43.232898], [0.2031076, 43.2316468], [0.2030736, 43.2315146], [0.2022439, 43.2307332], [0.2017536, 43.2303028], [0.2012455, 43.2298267], [0.2008833, 43.2294308], [0.2007215, 43.22923], [0.200555, 43.2290233], [0.2002167, 43.2284077], [0.1997818, 43.2280966], [0.1992614, 43.2275441], [0.1985957, 43.2269957], [0.1983428, 43.2264472], [0.1981156, 43.2262693], [0.1978093, 43.2260018], [0.1972911, 43.2253675], [0.1970726, 43.2250049], [0.1968523, 43.2246305], [0.1968251, 43.2244224], [0.1968526, 43.224153], [0.1968726, 43.2237435], [0.1968074, 43.2235278], [0.196524, 43.2233299], [0.1963278, 43.2231095], [0.1962112, 43.2226848], [0.1962465, 43.2223019], [0.1961023, 43.2219595], [0.1960138, 43.2217313], [0.1956369, 43.2214938], [0.1952078, 43.2211837], [0.1950418, 43.2208128], [0.1950487, 43.2204962], [0.1952551, 43.220259], [0.1953554, 43.2198762], [0.1953023, 43.2195235], [0.1950853, 43.2191483], [0.1947747, 43.2187777], [0.1945645, 43.2185557], [0.1943828, 43.2182921], [0.1943933, 43.2180783], [0.1946141, 43.2177474], [0.1947861, 43.2175008], [0.1949954, 43.2173815], [0.1950426, 43.2172481], [0.1950013, 43.2171062], [0.1945822, 43.2169083], [0.1942014, 43.2167215], [0.1940215, 43.2166029], [0.1939211, 43.2164308], [0.1938149, 43.2161082], [0.1938385, 43.2158329], [0.1939625, 43.2157168], [0.1940805, 43.2156351], [0.1941631, 43.2155168], [0.1941838, 43.2154265], [0.1941838, 43.2153555], [0.1941071, 43.2152393]]]}}, {"type": "Feature", "properties": {"name": "Lac d'Aubert"}, "geometry": {"type": "Polygon", "coordinates": [[[0.1421895, 42.84351], [0.1426744, 42.8426785], [0.1429292, 42.8419752], [0.1427157, 42.8414894], [0.1425569, 42.8413084], [0.1424014, 42.8411209], [0.1423348, 42.8406076], [0.142116, 42.8403566], [0.1421546, 42.8401249], [0.1423003, 42.8400065], [0.1425685, 42.8400061], [0.1426597, 42.840051], [0.1426885, 42.8400529], [0.142714, 42.8400426], [0.1427395, 42.8400131], [0.1426939, 42.8397102], [0.142922, 42.8394416], [0.1434512, 42.8391999], [0.1429452, 42.8388623], [0.1428427, 42.8388183], [0.142708, 42.8387795], [0.1425247, 42.8387824], [0.1424185, 42.8387835], [0.1422615, 42.8387851], [0.1416083, 42.8388267], [0.141499, 42.8388147], [0.1413105, 42.8387441], [0.1411261, 42.8386452], [0.140896, 42.8383278], [0.140773, 42.838268], [0.1398885, 42.8379672], [0.1396151, 42.8385791], [0.1393227, 42.8388333], [0.1391017, 42.8390255], [0.138851, 42.8392712], [0.1386281, 42.8395365], [0.1385663, 42.8398964], [0.1385009, 42.8402209], [0.138521, 42.8404197], [0.138568, 42.8404915], [0.1386688, 42.8405482], [0.1388629, 42.8404919], [0.1388871, 42.8405796], [0.1387785, 42.84064], [0.138635, 42.8406921], [0.138584, 42.840829], [0.1385908, 42.8409862], [0.1387195, 42.841057], [0.1389408, 42.8411209], [0.1386919, 42.8417191], [0.1383126, 42.8422033], [0.1380913, 42.8423443], [0.1376678, 42.842614], [0.1364447, 42.842968], [0.1353675, 42.8429416], [0.1350757, 42.8429125], [0.1347002, 42.8427847], [0.1345119, 42.8428201], [0.1342469, 42.842854], [0.1340461, 42.842864], [0.1339345, 42.842856], [0.1337851, 42.8429154], [0.133233, 42.8430148], [0.1326768, 42.8433561], [0.1325706, 42.8434212], [0.1328797, 42.8436267], [0.1326664, 42.8437801], [0.1324957, 42.8441024], [0.1324285, 42.8443185], [0.1320251, 42.8444664], [0.1321596, 42.8445687], [0.1321922, 42.844659], [0.1319941, 42.8448607], [0.132088, 42.8449773], [0.1318441, 42.8452968], [0.1318643, 42.8454625], [0.1319693, 42.8455564], [0.1322594, 42.8455458], [0.1323909, 42.8455242], [0.1324418, 42.8455596], [0.1324445, 42.8456048], [0.1325008, 42.84565], [0.1326349, 42.8456402], [0.1327905, 42.845709], [0.1329273, 42.8456913], [0.1329944, 42.8457307], [0.1330668, 42.8457582], [0.1331553, 42.8457248], [0.1332009, 42.8456658], [0.1333832, 42.8456512], [0.1335066, 42.8457267], [0.1335227, 42.8457712], [0.1327285, 42.8463584], [0.1327395, 42.8465279], [0.1331067, 42.8467706], [0.1335798, 42.8470238], [0.1342415, 42.8469877], [0.1354861, 42.846979], [0.1364624, 42.8468929], [0.1375675, 42.8466266], [0.1387047, 42.8462317], [0.1397347, 42.8457834], [0.1415248, 42.8444414], [0.1421895, 42.84351]]]}}]}