{"type": "FeatureCollection", "features": [{"type": "Feature", "properties": {"name": "Gravière Epple"}, "geometry": {"type": "Polygon", "coordinates": [[[8.1255164, 48.9010399], [8.1260416, 48.9011191], [8.1260888, 48.9011579], [8.126055, 48.9011993], [8.1254544, 48.901163], [8.125479, 48.901272], [8.1255773, 48.9014174], [8.1254729, 48.9014376], [8.1254974, 48.9016072], [8.1255036, 48.9019505], [8.1255773, 48.9021323], [8.125617, 48.9023185], [8.1258292, 48.9026008], [8.1258964, 48.9027992], [8.1259642, 48.9029973], [8.1260197, 48.9033277], [8.1262101, 48.9036104], [8.1263246, 48.9037962], [8.1265726, 48.9039739], [8.1274082, 48.9044626], [8.1278936, 48.9046645], [8.1281443, 48.9047107], [8.1283375, 48.9047528], [8.1285018, 48.9047009], [8.1288213, 48.9044909], [8.1289872, 48.9042728], [8.129448, 48.9040143], [8.1296938, 48.9038608], [8.1301177, 48.9034893], [8.1305048, 48.9032106], [8.1307813, 48.9029441], [8.1312579, 48.9024418], [8.1313267, 48.9023094], [8.1313414, 48.9022383], [8.1314151, 48.9020897], [8.1313857, 48.9019895], [8.1312277, 48.9019674], [8.1310416, 48.9020283], [8.1307123, 48.9020961], [8.1306041, 48.9020574], [8.1302158, 48.90208], [8.1299174, 48.902188], [8.1297314, 48.902231], [8.1294242, 48.902337], [8.1292245, 48.902332], [8.1291323, 48.9022361], [8.1287944, 48.9022411], [8.1287791, 48.902327], [8.1287483, 48.9024935], [8.1286331, 48.9025743], [8.1285103, 48.9025693], [8.1284217, 48.9024999], [8.1281789, 48.9021196], [8.1282491, 48.9017161], [8.1279957, 48.9010143], [8.1278882, 48.9009134], [8.1280187, 48.9008376], [8.1282722, 48.9007619], [8.1286639, 48.9006811], [8.1292168, 48.9004842], [8.1300386, 48.9003075], [8.1306142, 48.9001668], [8.13096, 48.90006], [8.1313041, 48.8999728], [8.1324601, 48.8996311], [8.1327343, 48.8994998], [8.132742, 48.8992675], [8.1330055, 48.899038], [8.1331058, 48.8988465], [8.1330568, 48.8986315], [8.1326859, 48.8984909], [8.1325429, 48.8982944], [8.1323933, 48.8981787], [8.1323543, 48.8979942], [8.1331014, 48.897499], [8.1331216, 48.8973673], [8.1331796, 48.89719], [8.1331674, 48.8972104], [8.1331361, 48.8970999], [8.1331768, 48.8968513], [8.1330952, 48.8966623], [8.1330775, 48.8965229], [8.1332152, 48.8964049], [8.1334562, 48.896319], [8.1335858, 48.89625], [8.1337418, 48.8961435], [8.1338804, 48.8960281], [8.1340234, 48.8959135], [8.134256, 48.8959011], [8.1345749, 48.8959383], [8.1346774, 48.8959789], [8.1348684, 48.8959233], [8.1349654, 48.895805], [8.1349842, 48.8956712], [8.1348527, 48.8955581], [8.1346305, 48.8955478], [8.1344536, 48.8956064], [8.1343456, 48.8957031], [8.1342376, 48.8957808], [8.134026, 48.8957632], [8.1337261, 48.8953599], [8.1337956, 48.8952704], [8.1340882, 48.8952613], [8.1341499, 48.8952363], [8.1340534, 48.8951872], [8.1340255, 48.8951206], [8.1340832, 48.8950622], [8.1339167, 48.8949743], [8.1338733, 48.8947823], [8.1334942, 48.894438], [8.1334767, 48.8942405], [8.1333571, 48.8940834], [8.1329401, 48.8940547], [8.1326669, 48.8939791], [8.1322758, 48.8937502], [8.1316592, 48.8934789], [8.1314236, 48.8932016], [8.1313763, 48.8930572], [8.1312819, 48.8930167], [8.131415, 48.8927503], [8.1316182, 48.8927136], [8.1317698, 48.8925827], [8.1316854, 48.8922938], [8.1315951, 48.8921226], [8.1316127, 48.8913181], [8.1313546, 48.8909433], [8.1313832, 48.890356], [8.1314733, 48.8900387], [8.1318165, 48.8896801], [8.1315618, 48.8891092], [8.1302637, 48.8892673], [8.1293608, 48.8893676], [8.1288088, 48.8894188], [8.1283487, 48.8893445], [8.1280734, 48.8893658], [8.1277387, 48.8895571], [8.1276983, 48.8900876], [8.1278249, 48.890708], [8.1278499, 48.8909157], [8.1276317, 48.8909525], [8.1273765, 48.8908956], [8.1272326, 48.8906745], [8.1269911, 48.8905019], [8.1269048, 48.8902059], [8.1265749, 48.8897828], [8.1264749, 48.8897411], [8.1263301, 48.8897179], [8.1236391, 48.8901544], [8.1223002, 48.8903597], [8.12096, 48.8905446], [8.1208708, 48.8907221], [8.120645, 48.8911558], [8.1206467, 48.8914529], [8.1206567, 48.891675], [8.1200174, 48.8923816], [8.1201548, 48.8927393], [8.1202409, 48.8928031], [8.1203462, 48.8930419], [8.1204394, 48.8932532], [8.1206965, 48.8936677], [8.1208689, 48.8945929], [8.1210844, 48.8949396], [8.1212494, 48.8952157], [8.121627, 48.8955108], [8.1225674, 48.89613], [8.1226903, 48.896332], [8.1229922, 48.8961494], [8.1230995, 48.8961467], [8.1231303, 48.8961961], [8.1228232, 48.8964632], [8.122921, 48.8965475], [8.1230275, 48.8966394], [8.1230287, 48.8966891], [8.1232792, 48.8967507], [8.1234568, 48.8967075], [8.1242139, 48.8965499], [8.1243715, 48.8966203], [8.1239621, 48.8967621], [8.123795, 48.8968242], [8.1237376, 48.8969775], [8.1237956, 48.8970602], [8.1242201, 48.8974791], [8.124439, 48.8975455], [8.1245888, 48.897677], [8.1248345, 48.8977942], [8.1252769, 48.8980163], [8.1254902, 48.898173], [8.125707, 48.8983758], [8.1257438, 48.898501], [8.1256701, 48.8988403], [8.125664, 48.8990422], [8.1255459, 48.8991392], [8.125568, 48.8993605], [8.1254786, 48.8994591], [8.1259668, 48.899452], [8.1260177, 48.8994811], [8.1259978, 48.8995203], [8.1255537, 48.8995966], [8.1254322, 48.8996295], [8.1255832, 48.8996856], [8.1257991, 48.8997028], [8.1258582, 48.899739], [8.1258012, 48.8997685], [8.1254782, 48.8997683], [8.125492, 48.8999193], [8.1259587, 48.8999598], [8.1259762, 48.8999977], [8.12594, 48.9000374], [8.1254916, 48.9000066], [8.125513, 48.9002035], [8.1260164, 48.9002984], [8.1260298, 48.9003451], [8.1259802, 48.9003839], [8.1255094, 48.9003237], [8.1255082, 48.9004089], [8.1253949, 48.9004893], [8.1254453, 48.9005909], [8.1254464, 48.9007497], [8.1259426, 48.9007691], [8.1259856, 48.9008079], [8.1259306, 48.900845], [8.1255404, 48.9008318], [8.1254483, 48.900852], [8.1254361, 48.9008916], [8.125436, 48.9009328], [8.1255164, 48.9010399]]]}}, {"type": "Feature", "properties": {"name": "Gravière Willersinn"}, "geometry": {"type": "Polygon", "coordinates": [[[8.1414485, 48.9028673], [8.1414129, 48.902471], [8.1410571, 48.9020752], [8.1408497, 48.9018539], [8.1406719, 48.901717], [8.1404766, 48.9015644], [8.1401686, 48.9014233], [8.139197, 48.9014197], [8.1384038, 48.9013965], [8.1380672, 48.9013117], [8.1379131, 48.9010615], [8.1376708, 48.900894], [8.1374681, 48.9008679], [8.1373994, 48.9008554], [8.1373046, 48.900848], [8.1369379, 48.9008257], [8.1366805, 48.9009274], [8.1365203, 48.901184], [8.1362259, 48.9015165], [8.1354902, 48.9021097], [8.1353073, 48.9022692], [8.134658, 48.9025025], [8.1341365, 48.9028703], [8.1337948, 48.9031526], [8.1329669, 48.9038672], [8.1326347, 48.9041551], [8.1314695, 48.9051591], [8.1303446, 48.9061037], [8.1301845, 48.9063094], [8.1301805, 48.9067814], [8.1302068, 48.9072161], [8.1303243, 48.9076218], [8.1304978, 48.9078209], [8.1307473, 48.9079692], [8.1311421, 48.9081868], [8.1316656, 48.908268], [8.1348827, 48.908857], [8.1352633, 48.9090821], [8.135509, 48.9092992], [8.1356857, 48.9092992], [8.1358086, 48.9090317], [8.1359698, 48.9090519], [8.1362766, 48.9090905], [8.1365535, 48.9090821], [8.1367471, 48.9090355], [8.1367869, 48.9091569], [8.1366493, 48.9093042], [8.1362954, 48.9095756], [8.1362639, 48.9097255], [8.1363937, 48.9097178], [8.1365824, 48.9096144], [8.1369668, 48.9090403], [8.1371859, 48.9087189], [8.1377078, 48.9080544], [8.1382162, 48.9075543], [8.1386531, 48.907007], [8.1404427, 48.9050535], [8.1412303, 48.9040555], [8.1413743, 48.9036327], [8.1413816, 48.9035508], [8.1414485, 48.9028673]]]}}, {"type": "Feature", "properties": {"name": "Gravière Veltz-Vix"}, "geometry": {"type": "Polygon", "coordinates": [[[7.914544, 48.6971839], [7.9146688, 48.6970342], [7.9144588, 48.6960011], [7.9141782, 48.6949372], [7.9138982, 48.6947587], [7.9137585, 48.6943297], [7.9135512, 48.693976], [7.9132545, 48.6937693], [7.912903, 48.6931727], [7.9126571, 48.6929984], [7.9126728, 48.69255], [7.9126249, 48.6921429], [7.9126612, 48.6919057], [7.91237, 48.6915178], [7.9120339, 48.6914916], [7.9114052, 48.6912033], [7.9109636, 48.6910773], [7.9101831, 48.6909669], [7.9099158, 48.6910405], [7.9094145, 48.6911745], [7.9092977, 48.6912846], [7.9084316, 48.6917182], [7.9080132, 48.6916934], [7.9076162, 48.6915199], [7.9075725, 48.6911994], [7.9072949, 48.691247], [7.9066157, 48.691494], [7.9063059, 48.6919929], [7.9064437, 48.6923284], [7.906738, 48.692585], [7.9076321, 48.6937582], [7.9089039, 48.6947881], [7.9102016, 48.6959361], [7.9111499, 48.6964103], [7.9124726, 48.6969343], [7.9139949, 48.6971839], [7.914544, 48.6971839]]]}}, {"type": "Feature", "properties": {"name": "Sandwoerth"}, "geometry": {"type": "Polygon", "coordinates": [[[7.9094376, 48.7023157], [7.9094979, 48.702502], [7.9089813, 48.7032267], [7.9089489, 48.7034098], [7.9090465, 48.703584], [7.9096303, 48.7038449], [7.9098253, 48.7039255], [7.9098605, 48.7039627], [7.9100014, 48.7039999], [7.9101518, 48.7041007], [7.9103233, 48.704158], [7.9105699, 48.7042542], [7.9107743, 48.7043704], [7.9109786, 48.7044324], [7.911055, 48.7044684], [7.9111495, 48.7046185], [7.9112726, 48.7047602], [7.9114887, 48.7051463], [7.9116062, 48.705292], [7.9116649, 48.7053292], [7.9117399, 48.7053643], [7.9117781, 48.7053975], [7.9117847, 48.7054377], [7.9117854, 48.7055029], [7.9117254, 48.7058268], [7.9120016, 48.7064671], [7.912456, 48.7068616], [7.9127431, 48.7070897], [7.9130065, 48.707257], [7.9137115, 48.7075228], [7.913942, 48.7075772], [7.9141957, 48.7075865], [7.9146373, 48.7075656], [7.9148464, 48.70754], [7.9150367, 48.7074872], [7.9153327, 48.707371], [7.9153984, 48.7073276], [7.9154476, 48.7072487], [7.915459, 48.7071734], [7.9154632, 48.7070294], [7.9154348, 48.7068898], [7.9153984, 48.7068067], [7.915389, 48.7067153], [7.9154225, 48.7065752], [7.9153785, 48.706251], [7.9155481, 48.7060901], [7.9156861, 48.705819], [7.9154303, 48.7056611], [7.9160989, 48.7052061], [7.9162561, 48.7050407], [7.9171134, 48.7045946], [7.9173113, 48.7044479], [7.9175468, 48.7043367], [7.9177129, 48.704271], [7.9178159, 48.7041833], [7.9179255, 48.7040495], [7.9179039, 48.7037074], [7.9180703, 48.7035044], [7.9179376, 48.7032588], [7.9175776, 48.7031805], [7.9175025, 48.7030675], [7.9174027, 48.7029967], [7.9174027, 48.7027666], [7.917804, 48.7022401], [7.918025, 48.7018177], [7.9180763, 48.7014491], [7.9180458, 48.7011079], [7.9177167, 48.7008906], [7.9178377, 48.7006723], [7.918078, 48.7004381], [7.9181755, 48.6992374], [7.916816, 48.6981108], [7.9161223, 48.6977513], [7.9155108, 48.6977513], [7.9121273, 48.6994381], [7.9116475, 48.6985662], [7.9107678, 48.6982547], [7.909641, 48.698389], [7.9089224, 48.6987645], [7.9081178, 48.69977], [7.9070771, 48.7004286], [7.9076135, 48.7012287], [7.908403, 48.7019055], [7.9094376, 48.7023157]]]}}, {"type": "Feature", "properties": {"name": "Étang Gerig"}, "geometry": {"type": "Polygon", "coordinates": [[[7.7281772, 48.5573628], [7.728267, 48.5572078], [7.7284741, 48.5560538], [7.728357, 48.5559426], [7.7282058, 48.5556129], [7.7282179, 48.5554022], [7.7283834, 48.555101], [7.7285595, 48.5550003], [7.7286212, 48.5549651], [7.7287357, 48.5548996], [7.7287641, 48.5548469], [7.7289816, 48.5544431], [7.729104, 48.5541362], [7.7290886, 48.553273], [7.7289646, 48.5530222], [7.7287089, 48.5526295], [7.7287354, 48.5524309], [7.7288012, 48.5521353], [7.7289748, 48.5519509], [7.7289563, 48.5517229], [7.7286116, 48.5513565], [7.7278011, 48.5508118], [7.72723, 48.5504432], [7.7268073, 48.550595], [7.7259068, 48.5504397], [7.7245993, 48.5501368], [7.7240272, 48.5500178], [7.7237988, 48.5498555], [7.7237198, 48.5497324], [7.7237153, 48.5496907], [7.7237345, 48.5496318], [7.7237998, 48.5495803], [7.7238516, 48.5495498], [7.7238133, 48.5494976], [7.7237593, 48.5494767], [7.7235328, 48.5495557], [7.7234585, 48.5495468], [7.723178, 48.5495699], [7.7229223, 48.5496042], [7.722759, 48.5495796], [7.7226723, 48.5496161], [7.7225923, 48.5496191], [7.72247, 48.5496211], [7.7223312, 48.5496438], [7.7222282, 48.549681], [7.7220697, 48.5497363], [7.7220474, 48.549778], [7.7220218, 48.5498069], [7.722037, 48.5498236], [7.7219199, 48.549887], [7.721899, 48.5498848], [7.7218951, 48.5498546], [7.7218343, 48.5498453], [7.7218044, 48.5498762], [7.7211679, 48.5499074], [7.7210538, 48.5498023], [7.720972, 48.54983], [7.721027, 48.5499621], [7.7209673, 48.5500133], [7.7207918, 48.5501691], [7.720905, 48.5503038], [7.7211241, 48.5503858], [7.7217975, 48.5503527], [7.7218788, 48.5500707], [7.7225088, 48.5498759], [7.7226739, 48.5500402], [7.7230057, 48.5501234], [7.7231662, 48.5502267], [7.7235081, 48.5504049], [7.7236095, 48.5504708], [7.7235813, 48.5505823], [7.7236742, 48.5508653], [7.7236545, 48.5510409], [7.7235081, 48.5512001], [7.7232028, 48.5514599], [7.7229596, 48.5518938], [7.7229187, 48.552038], [7.7228202, 48.5520652], [7.7225017, 48.5520728], [7.7223665, 48.5520568], [7.7222274, 48.552103], [7.7221102, 48.5521627], [7.7217398, 48.5522368], [7.7212786, 48.5524222], [7.7208423, 48.5527205], [7.7203223, 48.552828], [7.719693, 48.5531499], [7.7189128, 48.5530737], [7.7187861, 48.5533338], [7.7183991, 48.553099], [7.7180025, 48.5531079], [7.7177514, 48.5541011], [7.7180583, 48.5547627], [7.7181474, 48.5551745], [7.7182489, 48.5552888], [7.7183949, 48.5553454], [7.7188671, 48.5554993], [7.7192829, 48.5556969], [7.7195986, 48.5560711], [7.7199765, 48.5565737], [7.7213317, 48.5571736], [7.7216314, 48.5576002], [7.7217707, 48.5580065], [7.7223605, 48.5584422], [7.7226972, 48.558535], [7.722917, 48.5584467], [7.7236055, 48.5581701], [7.7236402, 48.5581586], [7.7247019, 48.5578052], [7.7248214, 48.5577981], [7.7252572, 48.5577724], [7.7259707, 48.5573741], [7.7262793, 48.5572447], [7.7267103, 48.5569056], [7.7269986, 48.5569031], [7.7277235, 48.5574828], [7.7279573, 48.5575392], [7.728072, 48.5575014], [7.7281772, 48.5573628]]]}}, {"type": "Feature", "properties": {"name": "Ballastière"}, "geometry": {"type": "Polygon", "coordinates": [[[7.7219127, 48.5017212], [7.723734, 48.50161], [7.7238828, 48.5015651], [7.7244766, 48.5013965], [7.7247312, 48.5012435], [7.7248969, 48.5008765], [7.725053, 48.5002026], [7.7248255, 48.4998458], [7.7247461, 48.4994434], [7.7241222, 48.4990752], [7.7240562, 48.4989118], [7.7241215, 48.4986674], [7.7246539, 48.4983101], [7.7246051, 48.4982045], [7.7247915, 48.4981362], [7.7246801, 48.4980131], [7.7246479, 48.4977294], [7.7244877, 48.4972753], [7.7245273, 48.4969339], [7.7241326, 48.4961538], [7.7240375, 48.4959501], [7.723774, 48.4956055], [7.7230793, 48.4954403], [7.7227077, 48.4955183], [7.7225817, 48.4957935], [7.7222817, 48.4961316], [7.7218339, 48.4961106], [7.7212138, 48.4962371], [7.7206185, 48.4967649], [7.7204048, 48.4972354], [7.7203081, 48.4982565], [7.7196249, 48.4982918], [7.7196973, 48.4980615], [7.7198636, 48.4980508], [7.7198797, 48.4973008], [7.7181845, 48.4974145], [7.7178144, 48.4975318], [7.7176642, 48.4982428], [7.7177876, 48.4988329], [7.7186405, 48.4986978], [7.7185225, 48.4990177], [7.7178868, 48.4990548], [7.7180509, 48.4997064], [7.7182812, 48.4998036], [7.7182784, 48.4999881], [7.7181549, 48.500268], [7.7183745, 48.5019433], [7.7189564, 48.5022052], [7.7201378, 48.5020218], [7.7219127, 48.5017212]]]}}, {"type": "Feature", "properties": {"name": "Ballastière"}, "geometry": {"type": "Polygon", "coordinates": [[[7.7325988, 48.4952093], [7.732265, 48.4953821], [7.7319391, 48.4954868], [7.7319628, 48.4955844], [7.7319629, 48.4957145], [7.7319422, 48.4958784], [7.7320386, 48.4959885], [7.7324045, 48.4961763], [7.7326021, 48.4964792], [7.7326852, 48.4965876], [7.7328132, 48.4966997], [7.7330404, 48.4967206], [7.7335684, 48.4965855], [7.733709, 48.4966106], [7.7340999, 48.4965898], [7.7345736, 48.4966157], [7.7347108, 48.4967473], [7.7347048, 48.4968257], [7.7346975, 48.4969197], [7.7348149, 48.4973163], [7.7349491, 48.4977127], [7.7351314, 48.4978496], [7.7354441, 48.4981131], [7.7358073, 48.4982121], [7.7361614, 48.4982211], [7.7365396, 48.4981588], [7.7369051, 48.4980353], [7.7373147, 48.4979491], [7.7378944, 48.497874], [7.7382541, 48.4976939], [7.7386415, 48.4970811], [7.7386127, 48.496564], [7.7386306, 48.496497], [7.7385678, 48.4963704], [7.7384342, 48.4959544], [7.7382376, 48.4956998], [7.7381787, 48.4955908], [7.7382081, 48.4953925], [7.7380928, 48.4951935], [7.7379224, 48.495116], [7.7379189, 48.4950492], [7.7377863, 48.4949608], [7.7377462, 48.4947699], [7.7374999, 48.494456], [7.7373225, 48.4941976], [7.736966, 48.493861], [7.7367205, 48.4936844], [7.7365851, 48.4935748], [7.7363361, 48.4934943], [7.7361881, 48.4933917], [7.7360461, 48.4933419], [7.7359496, 48.4932893], [7.7356488, 48.4931413], [7.7355061, 48.4931293], [7.7350726, 48.4929882], [7.7345144, 48.4929998], [7.7343686, 48.4929556], [7.7343144, 48.4929373], [7.7340416, 48.4929212], [7.7338271, 48.4928956], [7.7337201, 48.4929307], [7.7328574, 48.4929938], [7.7324555, 48.4932298], [7.7319159, 48.4936543], [7.7319928, 48.4941868], [7.7321471, 48.4942463], [7.7322852, 48.4946322], [7.732561, 48.4949135], [7.7324626, 48.4950252], [7.7325988, 48.4952093]]]}}, {"type": "Feature", "properties": {"name": "Plan d'Eau de Wolfartsboffen"}, "geometry": {"type": "Polygon", "coordinates": [[[7.6762529, 48.9476975], [7.6755949, 48.9478585], [7.6742589, 48.9481853], [7.67407, 48.9484418], [7.6746162, 48.9493086], [7.6750686, 48.9496721], [7.6761861, 48.9502459], [7.6766351, 48.9504205], [7.6772171, 48.9507605], [7.677535, 48.9509763], [7.6781546, 48.9512176], [7.6789064, 48.9514695], [7.6803996, 48.9519186], [7.6811908, 48.9521503], [7.6817259, 48.9523255], [7.6821309, 48.952506], [7.6828484, 48.9527068], [7.6831019, 48.9527385], [7.6833741, 48.9527747], [7.6837161, 48.9526848], [7.6838677, 48.9527535], [7.6838931, 48.9528486], [7.6842217, 48.9529649], [7.6845194, 48.9527632], [7.6845516, 48.9526558], [7.6842284, 48.9525606], [7.6840688, 48.9524911], [7.6839562, 48.9523414], [7.6840237, 48.9520964], [7.6835078, 48.9512316], [7.6824309, 48.9508399], [7.6801347, 48.9498631], [7.679078, 48.9491792], [7.6778901, 48.948519], [7.6766436, 48.9475798], [7.6762529, 48.9476975]]]}}, {"type": "Feature", "properties": {"name": "Lac Achard"}, "geometry": {"type": "Polygon", "coordinates": [[[7.6949008, 48.5302367], [7.6949437, 48.5302799], [7.6954854, 48.5307991], [7.6958762, 48.5311021], [7.6961414, 48.5313377], [7.696511, 48.5316291], [7.6967265, 48.5317642], [7.6975481, 48.5323623], [7.6981782, 48.5327207], [7.698625, 48.5330142], [7.6988977, 48.5331879], [7.6991648, 48.5333547], [7.6993331, 48.5333874], [7.6993963, 48.5333922], [7.6995485, 48.5333532], [7.6999878, 48.5329833], [7.7001716, 48.5327809], [7.7004231, 48.5324716], [7.7005006, 48.5319714], [7.7005755, 48.5319104], [7.7007349, 48.5318631], [7.7007968, 48.5316969], [7.7007639, 48.5316056], [7.700831, 48.5315232], [7.7008675, 48.5314435], [7.7009242, 48.5314054], [7.70109, 48.5312942], [7.7011926, 48.5311781], [7.701208, 48.5310817], [7.7012036, 48.5309921], [7.7011391, 48.5308767], [7.7006207, 48.5305005], [7.6998023, 48.5300592], [7.6996723, 48.5299746], [7.6994615, 48.529878], [7.6993852, 48.529842], [7.6993944, 48.5297613], [7.699335, 48.5295123], [7.6992962, 48.5294173], [7.6991251, 48.5292844], [7.6988878, 48.5291667], [7.6987489, 48.5291008], [7.6985138, 48.5289166], [7.6984494, 48.5288575], [7.6983442, 48.528787], [7.697996, 48.5287002], [7.6975014, 48.5287449], [7.6974721, 48.5287956], [7.6974084, 48.52883], [7.6973303, 48.5288266], [7.6972523, 48.5287809], [7.6972471, 48.5287008], [7.697147, 48.5286164], [7.6970686, 48.5284653], [7.6969307, 48.5283181], [7.6967666, 48.5281687], [7.6966273, 48.5281074], [7.6965784, 48.528112], [7.6965095, 48.5280892], [7.6964995, 48.5280275], [7.6965514, 48.5279878], [7.6964544, 48.5277609], [7.6962316, 48.527499], [7.6957079, 48.526981], [7.695298, 48.5266707], [7.695276, 48.5266612], [7.6952131, 48.5266439], [7.6951949, 48.5266448], [7.6951633, 48.5266546], [7.6951199, 48.5266854], [7.6951088, 48.5267033], [7.6949916, 48.526972], [7.6947866, 48.5274515], [7.6946388, 48.5278931], [7.6945119, 48.5282687], [7.6944728, 48.5285063], [7.6945254, 48.5285693], [7.6945948, 48.5286477], [7.6947129, 48.5287168], [7.6948048, 48.528753], [7.6949156, 48.5288165], [7.6950277, 48.5288465], [7.6952415, 48.5288667], [7.695426, 48.5288659], [7.6955566, 48.5288719], [7.6956543, 48.5288698], [7.6957577, 48.5288411], [7.695808, 48.528765], [7.6958222, 48.5286258], [7.6959133, 48.5285686], [7.6961019, 48.5285324], [7.6962065, 48.5285332], [7.6962317, 48.5285887], [7.6961592, 48.5287042], [7.6960199, 48.5287897], [7.6959647, 48.5288365], [7.6958097, 48.5289364], [7.695648, 48.5289719], [7.6955072, 48.5289757], [7.6953838, 48.5289549], [7.6952289, 48.5289483], [7.6951863, 48.5289417], [7.6948927, 48.528959], [7.6947359, 48.5289925], [7.6946213, 48.5290134], [7.6944725, 48.5290699], [7.6943961, 48.5291196], [7.6943215, 48.5291876], [7.6942792, 48.5293069], [7.6942931, 48.5294108], [7.6943368, 48.5295143], [7.6944564, 48.5296987], [7.6945336, 48.5298001], [7.6949008, 48.5302367]]]}}, {"type": "Feature", "properties": {"name": "Gravière de Dalhunden"}, "geometry": {"type": "Polygon", "coordinates": [[[7.9887719, 48.7646271], [7.9903464, 48.7654399], [7.9909345, 48.7657804], [7.9911909, 48.7659643], [7.9913907, 48.7661731], [7.9915198, 48.7662867], [7.9936302, 48.7681436], [7.9938161, 48.7682293], [7.994158, 48.7681585], [7.9956503, 48.767599], [7.9970503, 48.7671433], [7.9971138, 48.7670452], [7.9970498, 48.7669781], [7.9969216, 48.7669583], [7.9968424, 48.7668365], [7.9969496, 48.7666667], [7.9971629, 48.7665035], [7.9982134, 48.7663111], [7.9984786, 48.7662997], [8.0007731, 48.7665305], [8.0014533, 48.7663693], [8.0018497, 48.7661584], [8.0021576, 48.7659208], [8.0023921, 48.7655567], [8.0027201, 48.7648485], [8.0025582, 48.7646387], [8.0021432, 48.7643962], [8.0018379, 48.7642595], [8.0014151, 48.7641515], [8.001016, 48.764006], [8.0007332, 48.7638594], [8.0000056, 48.7636034], [7.9991799, 48.7634568], [7.997916, 48.7631763], [7.9951319, 48.7628184], [7.994143, 48.7627907], [7.9937132, 48.7628206], [7.9935343, 48.7629108], [7.9930784, 48.7632885], [7.9928686, 48.7631958], [7.9927395, 48.7632107], [7.9925595, 48.76333], [7.9922803, 48.7630999], [7.991503, 48.7631347], [7.9909298, 48.7631097], [7.9898506, 48.7636423], [7.9897939, 48.7641811], [7.9887486, 48.7638916], [7.9887719, 48.7646271]]]}}, {"type": "Feature", "properties": {"name": "Gravière"}, "geometry": {"type": "Polygon", "coordinates": [[[7.7151637, 48.4494228], [7.7153637, 48.4494431], [7.7155048, 48.4494366], [7.7161574, 48.4493243], [7.7162645, 48.4493289], [7.7163884, 48.4493094], [7.7164461, 48.4492573], [7.7165859, 48.4492573], [7.7166939, 48.4492841], [7.7168129, 48.4492581], [7.7170349, 48.4492101], [7.7171588, 48.4491466], [7.7174005, 48.4490839], [7.7175024, 48.4490424], [7.7175195, 48.4490237], [7.7175281, 48.448944], [7.7174741, 48.4488024], [7.7175661, 48.4487243], [7.7177121, 48.4486486], [7.7178189, 48.4486445], [7.7179072, 48.4486063], [7.7180157, 48.448504], [7.7180365, 48.4482969], [7.7180295, 48.4478641], [7.7179497, 48.447726], [7.7175229, 48.447268], [7.7173251, 48.4470954], [7.7171204, 48.4468675], [7.7168428, 48.4465936], [7.7166728, 48.446375], [7.7165583, 48.4461402], [7.7164577, 48.4457098], [7.716416, 48.4453898], [7.7164611, 48.4450699], [7.7164611, 48.4449824], [7.7165379, 48.4448604], [7.7165313, 48.4447361], [7.7166911, 48.4446281], [7.7167843, 48.444538], [7.7167133, 48.4443976], [7.7167109, 48.4443071], [7.7166232, 48.4442379], [7.7165464, 48.4442169], [7.7164954, 48.4442071], [7.7164364, 48.4442116], [7.7163868, 48.4442498], [7.7162983, 48.4442569], [7.7161767, 48.4441908], [7.71603, 48.4441484], [7.7159687, 48.4440794], [7.7159576, 48.443982], [7.715908, 48.4438984], [7.7158718, 48.4438219], [7.7158329, 48.4437303], [7.7157618, 48.4436466], [7.7156787, 48.4435719], [7.7156894, 48.4435488], [7.7157202, 48.4435185], [7.7157323, 48.4434714], [7.7157323, 48.4434011], [7.7157229, 48.4433531], [7.7156907, 48.4433264], [7.7156344, 48.4433166], [7.7155848, 48.4433299], [7.715558, 48.4433629], [7.7155526, 48.4433869], [7.7155298, 48.4433967], [7.7154963, 48.443386], [7.71546, 48.4432944], [7.715373, 48.4431402], [7.7152384, 48.4429701], [7.7150481, 48.4428246], [7.7150282, 48.4427997], [7.7149813, 48.4427481], [7.7149612, 48.4427285], [7.7149196, 48.4427125], [7.7149156, 48.442668], [7.7148928, 48.442636], [7.7148432, 48.4426129], [7.7147989, 48.4425657], [7.7147573, 48.4425488], [7.7147037, 48.442531], [7.7146326, 48.4425052], [7.7145562, 48.4424705], [7.7145132, 48.4424732], [7.7144676, 48.4424599], [7.7144891, 48.4424296], [7.7145106, 48.4424011], [7.7145199, 48.4423727], [7.7145079, 48.4423442], [7.7144757, 48.4423193], [7.7144167, 48.4423033], [7.7143295, 48.4423033], [7.7142249, 48.4423104], [7.7141565, 48.4423291], [7.7140747, 48.4423407], [7.714009, 48.4423611], [7.7139714, 48.4423816], [7.7139352, 48.4424065], [7.7139084, 48.4424341], [7.7139151, 48.4424634], [7.7139325, 48.4424812], [7.7139688, 48.442499], [7.7139205, 48.442531], [7.7138668, 48.4425506], [7.7138011, 48.4425613], [7.7137609, 48.4425915], [7.7137166, 48.4426271], [7.7137113, 48.4426769], [7.7136818, 48.4427081], [7.7136603, 48.4427303], [7.7136536, 48.442765], [7.7136388, 48.4428086], [7.7136053, 48.4428326], [7.7135865, 48.4428655], [7.7135852, 48.4428824], [7.713557, 48.4429074], [7.7135356, 48.4429385], [7.7135396, 48.4429981], [7.7135409, 48.4430408], [7.7135396, 48.4430702], [7.7135061, 48.4430942], [7.7134846, 48.443096], [7.7134216, 48.4431191], [7.7133988, 48.4431413], [7.7133679, 48.443168], [7.7133384, 48.443192], [7.713317, 48.4432054], [7.7132727, 48.4432098], [7.7132365, 48.4432285], [7.7132083, 48.4432321], [7.7131708, 48.4432205], [7.7131332, 48.4432072], [7.7130944, 48.4432152], [7.7130742, 48.4432463], [7.7130488, 48.4432757], [7.7130193, 48.4432872], [7.7129468, 48.4432872], [7.7128784, 48.443265], [7.7128342, 48.4432356], [7.7128181, 48.4432143], [7.7127644, 48.4431903], [7.7127148, 48.4431849], [7.7126987, 48.4431751], [7.7126987, 48.4431538], [7.7126813, 48.4431013], [7.7126478, 48.4430666], [7.7125767, 48.4430239], [7.7125324, 48.4429892], [7.7124882, 48.4429492], [7.7124721, 48.4429171], [7.7124466, 48.4428913], [7.712401, 48.4428753], [7.7123393, 48.4428629], [7.7122736, 48.4428326], [7.7122508, 48.4428202], [7.7121703, 48.4428059], [7.7120818, 48.4427988], [7.7120094, 48.4428077], [7.7119665, 48.4428015], [7.7119008, 48.4428122], [7.7118538, 48.4428255], [7.7117868, 48.4428433], [7.7117506, 48.442862], [7.7116567, 48.4428638], [7.7116057, 48.4428771], [7.7115548, 48.4428913], [7.7114663, 48.4429136], [7.7114139, 48.4429429], [7.7113616, 48.4429616], [7.7113228, 48.4429741], [7.7112892, 48.4429901], [7.7112222, 48.4430186], [7.7111699, 48.4430346], [7.7111229, 48.4430711], [7.7111001, 48.4431049], [7.7110666, 48.4431422], [7.7110143, 48.4431858], [7.7109767, 48.443233], [7.7109861, 48.4432792], [7.7109727, 48.4433219], [7.7109794, 48.4433593], [7.7109513, 48.4434082], [7.7109097, 48.4434491], [7.7109271, 48.443555], [7.7109734, 48.4436213], [7.7109754, 48.4436529], [7.7109741, 48.443684], [7.7110009, 48.4437289], [7.711015, 48.4437592], [7.7110545, 48.4437943], [7.7111243, 48.4438486], [7.7111732, 48.4438886], [7.7112255, 48.4439189], [7.7112604, 48.4439473], [7.7113154, 48.4439731], [7.7113737, 48.4440074], [7.7114582, 48.4440505], [7.7115259, 48.4440839], [7.7115487, 48.4440923], [7.7115742, 48.4441164], [7.7115883, 48.4441386], [7.7116279, 48.4441671], [7.7116761, 48.4441813], [7.7117325, 48.4441942], [7.711762, 48.444208], [7.7118116, 48.4442311], [7.7118807, 48.4442556], [7.7119403, 48.4442667], [7.711992, 48.4442747], [7.7120382, 48.444285], [7.7120704, 48.4443014], [7.7121127, 48.4443094], [7.7121596, 48.4443121], [7.7122233, 48.444313], [7.7122689, 48.4443196], [7.7123239, 48.4443352], [7.7123601, 48.4443406], [7.7124258, 48.444393], [7.7124721, 48.4444291], [7.7125056, 48.4444744], [7.7125324, 48.4445029], [7.712578, 48.4445429], [7.7125854, 48.4445776], [7.7125975, 48.4446257], [7.7126364, 48.4446386], [7.7126632, 48.444647], [7.7126645, 48.4446621], [7.7126404, 48.444692], [7.7126276, 48.4447275], [7.7126404, 48.4448009], [7.7126632, 48.4448712], [7.7126726, 48.4449361], [7.7126853, 48.4449691], [7.7126393, 48.4450399], [7.7126063, 48.4451033], [7.7126526, 48.4451614], [7.7126148, 48.445236], [7.7126202, 48.4452986], [7.7126265, 48.4453703], [7.7126974, 48.445439], [7.7127585, 48.4455108], [7.7128242, 48.4455742], [7.7128426, 48.4456331], [7.7129109, 48.445691], [7.7129253, 48.4457638], [7.712999, 48.4458408], [7.7130744, 48.4459352], [7.7130577, 48.4460059], [7.7130508, 48.4460777], [7.7130822, 48.4461585], [7.7132461, 48.4463781], [7.7133252, 48.4464639], [7.7135109, 48.4468344], [7.7136913, 48.4470462], [7.7139394, 48.4470542], [7.7140964, 48.4471082], [7.7142187, 48.4471946], [7.7142274, 48.447327], [7.7141441, 48.4473569], [7.714178, 48.4474167], [7.7140743, 48.4475626], [7.7140559, 48.4476545], [7.7141307, 48.4477335], [7.7142473, 48.4479735], [7.7143749, 48.4481965], [7.714484, 48.4483381], [7.7145939, 48.4485973], [7.7149196, 48.4490623], [7.7150594, 48.4492771], [7.7150815, 48.4493528], [7.7151637, 48.4494228]]]}}, {"type": "Feature", "properties": {"name": "Plan d'eau de Brumath"}, "geometry": {"type": "Polygon", "coordinates": [[[7.7211768, 48.7055298], [7.7209602, 48.7054347], [7.7206682, 48.7054261], [7.7204711, 48.7054294], [7.7202851, 48.7054332], [7.7201601, 48.7054601], [7.7200638, 48.7054567], [7.7197692, 48.7053493], [7.7197213, 48.7053289], [7.7196286, 48.7053109], [7.7194865, 48.7052948], [7.7188554, 48.7052222], [7.7187226, 48.7051411], [7.7187278, 48.705101], [7.7187125, 48.704999], [7.7187675, 48.7049], [7.7188193, 48.7047092], [7.7189503, 48.704129], [7.719056, 48.7037516], [7.7190794, 48.7037144], [7.7191382, 48.7035402], [7.7191735, 48.7034354], [7.7191862, 48.7031456], [7.7191463, 48.7030019], [7.7189408, 48.7029164], [7.7182787, 48.7029108], [7.7174974, 48.7028882], [7.7170119, 48.7028672], [7.7167381, 48.7028903], [7.7164584, 48.7030049], [7.716344, 48.7033], [7.7162932, 48.7035923], [7.7160757, 48.7037076], [7.7160041, 48.7037033], [7.7155305, 48.703675], [7.7141349, 48.703523], [7.7140721, 48.7035438], [7.7139757, 48.7037579], [7.7139894, 48.7038494], [7.7141604, 48.7039437], [7.7146259, 48.7040624], [7.7146814, 48.7041093], [7.7147372, 48.7042171], [7.7147243, 48.7043988], [7.7147291, 48.704752], [7.714806, 48.7049104], [7.7147844, 48.7050384], [7.7147623, 48.70515], [7.7147686, 48.7052899], [7.714769, 48.7052997], [7.7146859, 48.7053716], [7.714573, 48.7055171], [7.714498, 48.7057628], [7.7145979, 48.7059022], [7.7147709, 48.7060337], [7.7152454, 48.7060901], [7.7154573, 48.7062502], [7.7154175, 48.7063615], [7.7149558, 48.7073907], [7.7149813, 48.707548], [7.7149437, 48.7076029], [7.7149062, 48.707756], [7.714803, 48.7078345], [7.7147753, 48.7079151], [7.7148065, 48.7079684], [7.7149138, 48.7079894], [7.7154508, 48.7079771], [7.7194568, 48.7078225], [7.7197342, 48.7078188], [7.7200134, 48.7078243], [7.7202136, 48.7078666], [7.7203048, 48.7079817], [7.7204227, 48.7087399], [7.7205064, 48.7088007], [7.7206427, 48.708801], [7.7212488, 48.7087303], [7.7214405, 48.7086828], [7.7215711, 48.7086029], [7.7215999, 48.7085005], [7.721618, 48.7083354], [7.7215713, 48.7080631], [7.7215206, 48.707211], [7.7214402, 48.7070525], [7.7213021, 48.7069448], [7.7212802, 48.7068408], [7.7213407, 48.7067026], [7.7213562, 48.7065699], [7.7213337, 48.7058274], [7.7212833, 48.7056406], [7.7211768, 48.7055298]]]}}, {"type": "Feature", "properties": {"name": "Plan d'eau de Plobsheim"}, "geometry": {"type": "Polygon", "coordinates": [[[7.7652753, 48.4832074], [7.7652258, 48.4832127], [7.7651298, 48.4831839], [7.7651117, 48.4831132], [7.7651119, 48.4829702], [7.7651237, 48.4788989], [7.7651585, 48.4769026], [7.7651058, 48.4743607], [7.7648107, 48.4679405], [7.7646973, 48.465217], [7.7646188, 48.4639494], [7.7643745, 48.4620187], [7.7641004, 48.4603888], [7.7635679, 48.4581319], [7.7627102, 48.4553612], [7.7621384, 48.4538561], [7.7611229, 48.4514901], [7.7604639, 48.4501033], [7.7589869, 48.4472881], [7.757009, 48.4439076], [7.7568801, 48.4437284], [7.7564477, 48.4436821], [7.7560078, 48.4429537], [7.7559359, 48.442893], [7.7558262, 48.4428754], [7.7509033, 48.4441502], [7.7501764, 48.4442541], [7.7492913, 48.4442321], [7.7484306, 48.4440908], [7.7455823, 48.4432869], [7.745265, 48.4437358], [7.7450987, 48.4438259], [7.7448477, 48.4438405], [7.7446878, 48.4437928], [7.7407219, 48.4426037], [7.7312129, 48.4397438], [7.7315875, 48.4391665], [7.731159, 48.4390423], [7.7307779, 48.4395998], [7.7283402, 48.4388625], [7.7257258, 48.4380894], [7.7242758, 48.4372609], [7.7121059, 48.4266737], [7.7118768, 48.4258048], [7.7121174, 48.425737], [7.7119752, 48.4254933], [7.7117832, 48.4254823], [7.7108581, 48.4256673], [7.7105596, 48.4262971], [7.7103487, 48.4267262], [7.7103782, 48.4271667], [7.7102396, 48.4272498], [7.7092479, 48.4270484], [7.7093094, 48.4271641], [7.7113086, 48.429011], [7.7118566, 48.4292156], [7.7121521, 48.429501], [7.7121334, 48.4302521], [7.711672, 48.4304691], [7.7112759, 48.4306534], [7.7122083, 48.4314868], [7.7132286, 48.4324968], [7.713781, 48.4332563], [7.7142919, 48.4343756], [7.7145011, 48.4354878], [7.7148107, 48.437137], [7.7151299, 48.4385556], [7.7154142, 48.439614], [7.7159061, 48.4405311], [7.7164661, 48.4415343], [7.7170997, 48.4421774], [7.7177803, 48.4427046], [7.7178296, 48.442817], [7.7179306, 48.4428628], [7.7181999, 48.4429917], [7.7186911, 48.443252], [7.7189418, 48.443435], [7.7193849, 48.4435901], [7.7198827, 48.4436819], [7.7205549, 48.4436965], [7.7217136, 48.4435851], [7.723596, 48.4432204], [7.7257258, 48.4429226], [7.7286702, 48.4430428], [7.7303321, 48.4433047], [7.7325975, 48.4439944], [7.7362206, 48.444994], [7.7366104, 48.4454305], [7.7373422, 48.4464534], [7.737686, 48.4467511], [7.7383379, 48.4470319], [7.7411244, 48.4475552], [7.7416098, 48.4477112], [7.7417383, 48.4477723], [7.7418362, 48.4478212], [7.7418323, 48.4478767], [7.7417549, 48.44793], [7.7416005, 48.4480044], [7.7415514, 48.448101], [7.7414681, 48.4484462], [7.7414252, 48.4489997], [7.7415023, 48.449493], [7.7415967, 48.4495671], [7.7416974, 48.4495714], [7.7430081, 48.449536], [7.7430904, 48.4494978], [7.7433996, 48.449095], [7.7435241, 48.4488956], [7.7434686, 48.4488464], [7.7430717, 48.4487102], [7.7429276, 48.4487417], [7.7428821, 48.4487301], [7.742876, 48.4486822], [7.7429482, 48.4485575], [7.7430018, 48.4485508], [7.7439174, 48.4488245], [7.7440456, 48.448817], [7.7440742, 48.4487606], [7.7440534, 48.4486428], [7.7441289, 48.4486162], [7.7441959, 48.4486205], [7.7446486, 48.448783], [7.7447029, 48.4488268], [7.7446068, 48.4488781], [7.7441589, 48.448919], [7.7439936, 48.4489518], [7.7439324, 48.4489999], [7.7439429, 48.4491597], [7.7439583, 48.4495865], [7.7439467, 48.4496478], [7.7442566, 48.4501541], [7.7479586, 48.4559332], [7.7483234, 48.4566817], [7.7487477, 48.4578862], [7.7489436, 48.4598833], [7.7496663, 48.4682295], [7.7497953, 48.4699628], [7.7500297, 48.4716454], [7.7501085, 48.4720758], [7.7505927, 48.4734853], [7.7507414, 48.4738609], [7.7507475, 48.4738756], [7.7508006, 48.4740141], [7.7508057, 48.4740262], [7.7510276, 48.4745009], [7.7512549, 48.4749571], [7.7512413, 48.4749813], [7.7511473, 48.4750246], [7.7511635, 48.4750546], [7.7512833, 48.4752772], [7.751392, 48.4752629], [7.7514283, 48.4752863], [7.7515146, 48.4754399], [7.751521, 48.4754507], [7.7516945, 48.4757421], [7.7517009, 48.4757528], [7.7517935, 48.4759082], [7.7517854, 48.4759385], [7.7517122, 48.4759741], [7.7517995, 48.4761223], [7.7518599, 48.4762248], [7.7519635, 48.4762152], [7.7519976, 48.4762275], [7.7521219, 48.4764135], [7.7521315, 48.4764276], [7.7523245, 48.4767135], [7.7523331, 48.4767261], [7.7525231, 48.4769854], [7.7525341, 48.4770001], [7.7525976, 48.477087], [7.7526018, 48.4770926], [7.7526684, 48.4771836], [7.7526736, 48.4771904], [7.7527376, 48.4772779], [7.7527483, 48.4772922], [7.7529306, 48.4775409], [7.7529179, 48.4775673], [7.7528481, 48.4776088], [7.7528805, 48.4776516], [7.7530202, 48.4778504], [7.7530861, 48.4778436], [7.7531277, 48.4778427], [7.7531585, 48.4778699], [7.7545057, 48.4797217], [7.7566258, 48.4826491], [7.7570035, 48.4830931], [7.7603951, 48.4856981], [7.762183, 48.4871909], [7.7636713, 48.4883734], [7.7646937, 48.4891177], [7.7654847, 48.4897309], [7.7653781, 48.4868765], [7.7652753, 48.4832074]]]}}, {"type": "Feature", "properties": {"name": "Delta de la Sauer"}, "geometry": {"type": "Polygon", "coordinates": [[[8.1476964, 48.9182287], [8.1465964, 48.9188203], [8.1459136, 48.9190391], [8.1452372, 48.9192577], [8.1443456, 48.9194791], [8.143676, 48.9195865], [8.1430201, 48.9195949], [8.1422386, 48.9196187], [8.1409459, 48.9195206], [8.1400255, 48.9194147], [8.1391084, 48.9191965], [8.1379757, 48.9188459], [8.137306, 48.9185776], [8.1363242, 48.9181584], [8.1355187, 48.9177264], [8.134358, 48.9174091], [8.1333534, 48.9169837], [8.1324808, 48.9166792], [8.1316466, 48.9163665], [8.1307646, 48.9160069], [8.1294661, 48.9154327], [8.1289669, 48.9151196], [8.1285351, 48.9149067], [8.1282983, 48.914676], [8.1281186, 48.9143271], [8.127645, 48.9137206], [8.1272611, 48.9133235], [8.1268771, 48.9128445], [8.1268773, 48.9122822], [8.1269018, 48.911826], [8.1268732, 48.9114097], [8.1265881, 48.9106708], [8.1259955, 48.9100384], [8.1256115, 48.9095986], [8.125108, 48.9086538], [8.1247029, 48.9080226], [8.1244063, 48.9077089], [8.123921, 48.9076072], [8.1234882, 48.9074784], [8.122843, 48.9071993], [8.1224602, 48.9069336], [8.1218256, 48.9059096], [8.1211789, 48.9051481], [8.1209674, 48.9048101], [8.120431, 48.9043753], [8.1199872, 48.903981], [8.1197056, 48.9035412], [8.1194475, 48.903089], [8.1193062, 48.9027273], [8.1192602, 48.902397], [8.1193711, 48.9021605], [8.1198214, 48.9016165], [8.1200664, 48.9012729], [8.1201725, 48.9009938], [8.1201889, 48.900473], [8.1200582, 48.8999684], [8.1196579, 48.8994072], [8.1191762, 48.8989698], [8.11858, 48.8986424], [8.1181248, 48.8983966], [8.1177173, 48.8983337], [8.1172396, 48.8983382], [8.116748, 48.8982924], [8.116689, 48.8983852], [8.1167215, 48.898449], [8.1170005, 48.8984851], [8.117383, 48.8984919], [8.1179839, 48.8985698], [8.1185998, 48.8988248], [8.1190619, 48.899088], [8.1194856, 48.8994577], [8.1196662, 48.8998073], [8.119805, 48.9001778], [8.1199112, 48.9006824], [8.1198785, 48.9010206], [8.1197642, 48.9012729], [8.1193559, 48.9018312], [8.1191435, 48.9021158], [8.1189639, 48.9024862], [8.1189639, 48.902819], [8.119113, 48.9031746], [8.1193314, 48.9035652], [8.1196254, 48.9039946], [8.1199439, 48.9043382], [8.1203359, 48.90473], [8.1207687, 48.9051487], [8.121275, 48.9057177], [8.1222711, 48.9070265], [8.1236272, 48.9077857], [8.12446, 48.9082621], [8.124705, 48.9087076], [8.1251365, 48.909447], [8.1254073, 48.9098133], [8.125783, 48.9102373], [8.126028, 48.9106882], [8.126419, 48.9113468], [8.1264799, 48.9119602], [8.1264995, 48.9124239], [8.1259346, 48.9115675], [8.124041, 48.9103864], [8.1223994, 48.9098611], [8.121568, 48.9086588], [8.1212568, 48.9091665], [8.1225067, 48.9104076], [8.1239015, 48.9108976], [8.1259627, 48.9126374], [8.1265975, 48.9131903], [8.127276, 48.9140907], [8.1277787, 48.9151099], [8.1279245, 48.9155946], [8.1290294, 48.9164478], [8.1298608, 48.9172275], [8.1304885, 48.9178507], [8.1312409, 48.9186421], [8.1320071, 48.9193578], [8.1324775, 48.9197184], [8.1328826, 48.9199972], [8.1349903, 48.9208281], [8.1362354, 48.9216612], [8.1369867, 48.9220905], [8.1378064, 48.9223479], [8.1391346, 48.9228793], [8.1397879, 48.9230672], [8.1404561, 48.9231342], [8.1413885, 48.9229813], [8.1421324, 48.9229629], [8.1425318, 48.9228149], [8.143226, 48.9223374], [8.1436833, 48.9219027], [8.1443104, 48.9213929], [8.1454555, 48.920368], [8.1459291, 48.9197455], [8.1460707, 48.9194236], [8.1466228, 48.919155], [8.1476605, 48.9186829], [8.1482582, 48.9184078], [8.1485895, 48.9183168], [8.1487913, 48.9183044], [8.1499175, 48.9180853], [8.1513169, 48.9176848], [8.1517694, 48.9175342], [8.1525073, 48.9173264], [8.1531637, 48.9171795], [8.1537897, 48.9171351], [8.1546325, 48.9169723], [8.1554947, 48.9168718], [8.1555552, 48.9168647], [8.1556233, 48.9168568], [8.1564889, 48.9170017], [8.1568891, 48.9170553], [8.1573373, 48.9171778], [8.1575916, 48.9166721], [8.1575575, 48.9166383], [8.1577521, 48.9165475], [8.1577884, 48.9165818], [8.1578064, 48.9165735], [8.1580269, 48.9166004], [8.1581017, 48.9166573], [8.1581623, 48.9166703], [8.1573983, 48.9158741], [8.1573074, 48.9159639], [8.1572745, 48.9160622], [8.1572565, 48.9160692], [8.1572949, 48.9161043], [8.1570987, 48.9161916], [8.1570597, 48.9161579], [8.1567544, 48.9161636], [8.156342, 48.9160679], [8.1561196, 48.9158109], [8.1560102, 48.9154667], [8.1556379, 48.9151862], [8.1553386, 48.9148017], [8.1550741, 48.9145848], [8.1548404, 48.9142276], [8.1547576, 48.9141129], [8.154592, 48.9140639], [8.1542243, 48.9137148], [8.1540527, 48.9135215], [8.1536442, 48.9131617], [8.1534236, 48.9130543], [8.1531294, 48.9130275], [8.1522224, 48.9129308], [8.151822, 48.9128825], [8.1514462, 48.912818], [8.1510867, 48.9127214], [8.1507023, 48.9125089], [8.1505389, 48.9123801], [8.1504179, 48.91219], [8.1503068, 48.911872], [8.150388, 48.9115216], [8.1504064, 48.9111986], [8.1503133, 48.9108753], [8.1504114, 48.9105703], [8.1505552, 48.9102953], [8.1506173, 48.9099892], [8.1504898, 48.9099645], [8.1504572, 48.9102438], [8.1503526, 48.9104371], [8.1501891, 48.9107808], [8.1501422, 48.9109389], [8.1501979, 48.9113031], [8.1501549, 48.9114935], [8.1501042, 48.9117002], [8.1501434, 48.9119451], [8.1502032, 48.9121492], [8.1503398, 48.912411], [8.1505029, 48.9125551], [8.150745, 48.9127063], [8.1510617, 48.9128789], [8.15149, 48.9129504], [8.1519896, 48.913013], [8.1522744, 48.9130277], [8.1525359, 48.9130578], [8.1528692, 48.913105], [8.1531925, 48.9131778], [8.1534304, 48.9131937], [8.1539056, 48.9134854], [8.1541658, 48.9137737], [8.1546211, 48.9141428], [8.1548038, 48.9143705], [8.1549386, 48.914549], [8.1551626, 48.9148586], [8.1554094, 48.9151547], [8.1556039, 48.9153041], [8.1558726, 48.9155225], [8.1559108, 48.9157983], [8.1559809, 48.9159392], [8.1559861, 48.9162793], [8.1558246, 48.9162946], [8.15575, 48.9161788], [8.1557258, 48.9159858], [8.1555757, 48.9160325], [8.155235, 48.9161929], [8.1547661, 48.9163131], [8.1540334, 48.9164855], [8.153512, 48.9166213], [8.1531585, 48.9163979], [8.1530169, 48.9164538], [8.153033, 48.9165454], [8.1529659, 48.9166054], [8.1527862, 48.9165384], [8.1526805, 48.916581], [8.1521897, 48.9167488], [8.1515169, 48.9169789], [8.1506726, 48.9171483], [8.1501165, 48.9172877], [8.1494863, 48.9172459], [8.1493288, 48.9171095], [8.1491357, 48.917113], [8.1490509, 48.9173431], [8.1488866, 48.9173514], [8.1486628, 48.9170571], [8.14839, 48.9168944], [8.1481594, 48.9167957], [8.1479056, 48.9164525], [8.1478489, 48.9161939], [8.1477195, 48.9159074], [8.1478857, 48.9157441], [8.1483105, 48.9159321], [8.1488087, 48.9160138], [8.148964, 48.9159109], [8.1489597, 48.9157901], [8.1486905, 48.9154138], [8.1480206, 48.9147593], [8.1469953, 48.9140671], [8.1466138, 48.9134962], [8.146492, 48.9131067], [8.1468733, 48.9129956], [8.147447, 48.9130693], [8.148165, 48.9132442], [8.1489842, 48.9133942], [8.149597, 48.9135736], [8.1501032, 48.9137876], [8.1504774, 48.9139834], [8.1506109, 48.9141976], [8.1509069, 48.9143109], [8.1511259, 48.9145148], [8.1515034, 48.9145633], [8.1517032, 48.9146518], [8.1519252, 48.9148216], [8.1525235, 48.9149492], [8.1527248, 48.9150752], [8.1529877, 48.9150708], [8.1529498, 48.914878], [8.1527265, 48.91479], [8.1526243, 48.9147032], [8.1523613, 48.9147083], [8.1520944, 48.914554], [8.1518336, 48.914422], [8.1516014, 48.9142572], [8.1513352, 48.91405], [8.1507879, 48.9138415], [8.1503588, 48.9135806], [8.1493963, 48.9132816], [8.1486422, 48.9129883], [8.1475371, 48.9127627], [8.1466052, 48.9126553], [8.1462496, 48.9126076], [8.1455814, 48.912194], [8.1444816, 48.9117492], [8.143488, 48.9112212], [8.1431651, 48.9112432], [8.1430256, 48.9112114], [8.1428674, 48.911128], [8.1429335, 48.91102], [8.1426877, 48.9110316], [8.142634, 48.9109223], [8.1426744, 48.9106969], [8.1424677, 48.9106332], [8.1424034, 48.9107037], [8.1422049, 48.9107919], [8.1420118, 48.9108236], [8.1418505, 48.9107128], [8.1419527, 48.9105451], [8.1417221, 48.9104922], [8.1415558, 48.9103688], [8.1411964, 48.9102771], [8.1409926, 48.910267], [8.1408262, 48.9101326], [8.1408046, 48.909977], [8.1410247, 48.909854], [8.1409456, 48.9096932], [8.1410416, 48.9095259], [8.1412853, 48.9093843], [8.1412295, 48.9091178], [8.1411233, 48.909107], [8.141095, 48.9093292], [8.1410225, 48.9094407], [8.1408997, 48.9094425], [8.1407985, 48.90933], [8.1406854, 48.9088959], [8.1407327, 48.9085936], [8.1404905, 48.9083566], [8.1401668, 48.9081825], [8.1396421, 48.9080572], [8.1395656, 48.9079783], [8.1393403, 48.9079254], [8.1391113, 48.9079253], [8.1388273, 48.9077644], [8.1388259, 48.9078704], [8.1390941, 48.9079687], [8.1394337, 48.9080482], [8.1396444, 48.9082101], [8.1399467, 48.9083713], [8.1402, 48.9085001], [8.1402821, 48.9085988], [8.1404689, 48.9088495], [8.140535, 48.9091339], [8.1406948, 48.9093775], [8.1407544, 48.9095599], [8.1406918, 48.9097331], [8.140567, 48.9099228], [8.1404758, 48.9099178], [8.1404252, 48.9100938], [8.1401771, 48.9100585], [8.1400323, 48.9101819], [8.1399572, 48.91033], [8.1401288, 48.9103758], [8.1402441, 48.9102298], [8.1404132, 48.9101996], [8.1404739, 48.9104925], [8.1405833, 48.9106757], [8.1408638, 48.9108166], [8.1410565, 48.9109993], [8.1413065, 48.9110864], [8.1414109, 48.9111797], [8.1413848, 48.9113196], [8.1409844, 48.9112107], [8.1404024, 48.9110775], [8.1398821, 48.9108906], [8.1393096, 48.9107443], [8.1388692, 48.9102884], [8.1381736, 48.9098642], [8.1377364, 48.9096346], [8.137814, 48.909832], [8.1380265, 48.9099555], [8.1383456, 48.910183], [8.1385903, 48.9103637], [8.1388191, 48.9104926], [8.1388521, 48.9105874], [8.1386722, 48.9106431], [8.1383586, 48.9105733], [8.1382176, 48.9103866], [8.1379758, 48.9103523], [8.1378329, 48.9104428], [8.1375754, 48.9103547], [8.1372106, 48.9102524], [8.1369263, 48.9100832], [8.13676, 48.9100409], [8.1368405, 48.910129], [8.1370336, 48.910263], [8.1372535, 48.9103653], [8.1376934, 48.9105204], [8.1379586, 48.9106227], [8.1380226, 48.9106441], [8.1389622, 48.9108926], [8.1396359, 48.9110861], [8.1404938, 48.9112682], [8.141368, 48.9114335], [8.1422231, 48.9116496], [8.1438828, 48.9122867], [8.144651, 48.9126957], [8.1451333, 48.9130918], [8.1457776, 48.9136969], [8.1460887, 48.9140389], [8.1459914, 48.9142019], [8.1462768, 48.9145375], [8.1465983, 48.91461], [8.146491, 48.9147052], [8.146571, 48.9149378], [8.1468934, 48.9150789], [8.1474179, 48.9153956], [8.1474055, 48.9155596], [8.1473756, 48.9158024], [8.1476229, 48.9163057], [8.1476722, 48.9165202], [8.1475031, 48.9167127], [8.1473198, 48.9165769], [8.1472099, 48.9163798], [8.1468724, 48.9161307], [8.1466154, 48.9158622], [8.1466199, 48.915578], [8.1461611, 48.9154173], [8.1461176, 48.9151028], [8.1460431, 48.9149268], [8.1458017, 48.9148339], [8.1454978, 48.9147601], [8.1454396, 48.914506], [8.1451297, 48.9143869], [8.1447298, 48.9142751], [8.1445401, 48.9141284], [8.1441245, 48.9139375], [8.1438037, 48.9140066], [8.1434361, 48.913952], [8.1431514, 48.9137495], [8.1427869, 48.9136159], [8.1425554, 48.9134971], [8.142114, 48.9133047], [8.1418294, 48.9130624], [8.1418397, 48.9128916], [8.1416175, 48.912731], [8.1415129, 48.9125018], [8.1412956, 48.9123784], [8.1410354, 48.9121845], [8.1408065, 48.9120749], [8.1405955, 48.9118496], [8.1401955, 48.9116716], [8.1402737, 48.911772], [8.1406448, 48.9120391], [8.1409128, 48.9122582], [8.1410696, 48.9123999], [8.141198, 48.9125528], [8.14122, 48.912589], [8.1412518, 48.9126724], [8.1413377, 48.9127565], [8.1413965, 48.9128596], [8.1415207, 48.9129541], [8.1415403, 48.9130916], [8.1418018, 48.9132806], [8.1420306, 48.9134825], [8.1423509, 48.91362], [8.1424358, 48.9137575], [8.1430634, 48.914041], [8.1436059, 48.9141957], [8.1441812, 48.9142945], [8.1451715, 48.9145984], [8.1454444, 48.9149313], [8.1458121, 48.9153018], [8.1460572, 48.9155703], [8.1463269, 48.9159033], [8.1463936, 48.9163351], [8.1466694, 48.9165566], [8.147078, 48.9167378], [8.1474402, 48.9169968], [8.1477544, 48.9172857], [8.1479666, 48.9173956], [8.1484097, 48.9178508], [8.1482106, 48.9179546], [8.1481121, 48.9179198], [8.1477979, 48.9178088], [8.1474707, 48.9178523], [8.1472067, 48.9178766], [8.147008, 48.9178064], [8.1468489, 48.9177895], [8.1466656, 48.9178008], [8.1464424, 48.9178251], [8.1462572, 48.9178194], [8.1459756, 48.9178336], [8.1456849, 48.9178428], [8.1451484, 48.9178809], [8.1449474, 48.9180938], [8.1439341, 48.9180698], [8.1429048, 48.917904], [8.1425439, 48.9178619], [8.1422205, 48.9178339], [8.1417814, 48.917797], [8.1414386, 48.9178251], [8.1407752, 48.9178156], [8.1402335, 48.9177481], [8.1389652, 48.9177305], [8.1382006, 48.9175958], [8.1379857, 48.9171366], [8.1378294, 48.917111], [8.13758, 48.9170143], [8.1372137, 48.9168916], [8.1369835, 48.9167924], [8.1367419, 48.9167163], [8.1365155, 48.9166383], [8.136278, 48.9165441], [8.1357787, 48.916367], [8.1355486, 48.9163074], [8.1351273, 48.9161299], [8.134761, 48.9159731], [8.1345156, 48.9159077], [8.1342974, 48.9158034], [8.1340517, 48.9157281], [8.1338876, 48.9156416], [8.1337436, 48.9155897], [8.1335483, 48.9154779], [8.133365, 48.9153971], [8.1331426, 48.9152716], [8.1329515, 48.9152118], [8.1325306, 48.9149538], [8.1322771, 48.9148209], [8.1319694, 48.914638], [8.1317663, 48.9145364], [8.1314816, 48.9143639], [8.1311149, 48.9140478], [8.130799, 48.9138072], [8.130534, 48.9134971], [8.1302658, 48.9131916], [8.1300865, 48.9129986], [8.1299696, 48.9128656], [8.1297509, 48.9125783], [8.1296504, 48.9123688], [8.1295762, 48.9123353], [8.1295487, 48.9122828], [8.1295372, 48.9122303], [8.1295762, 48.9121812], [8.1295569, 48.912121], [8.1295413, 48.91204], [8.1294826, 48.9119016], [8.1293657, 48.9117241], [8.1292845, 48.9113863], [8.1292767, 48.9113003], [8.1292258, 48.9111776], [8.1291951, 48.9110315], [8.1291676, 48.9109455], [8.1291208, 48.9107936], [8.1291048, 48.9106739], [8.129031, 48.9105327], [8.1289571, 48.9104256], [8.1287824, 48.9102539], [8.1287512, 48.9102278], [8.1287237, 48.9101311], [8.1286967, 48.9100452], [8.1286495, 48.9100034], [8.1285289, 48.9099589], [8.1283611, 48.9099537], [8.1282483, 48.909938], [8.1281859, 48.9099174], [8.1280805, 48.9098757], [8.1278856, 48.9098103], [8.1277687, 48.909779], [8.1276633, 48.9097345], [8.1275969, 48.9096876], [8.1274492, 48.9096562], [8.1273318, 48.9096172], [8.127258, 48.9095777], [8.1271916, 48.9095258], [8.127098, 48.90945], [8.1270045, 48.9093926], [8.1268757, 48.9092517], [8.1267346, 48.9091289], [8.1266451, 48.9090429], [8.1266291, 48.9089778], [8.1265824, 48.9088628], [8.1265475, 48.9087479], [8.1265278, 48.908654], [8.1265434, 48.9085862], [8.1266332, 48.9084716], [8.1267698, 48.9083645], [8.1271091, 48.9081838], [8.1273003, 48.9081162], [8.1274213, 48.9080638], [8.1275341, 48.9079621], [8.1275927, 48.9079124], [8.1277335, 48.9079281], [8.1277839, 48.9079545], [8.1278151, 48.9079984], [8.1278889, 48.9080404], [8.127971, 48.90808], [8.1280567, 48.9081113], [8.1281232, 48.9081346], [8.1282126, 48.9081448], [8.1282827, 48.9082], [8.1284074, 48.9082418], [8.1285244, 48.9082547], [8.1288792, 48.9083305], [8.1289961, 48.9083483], [8.1291639, 48.9083382], [8.1293001, 48.9083327], [8.1298034, 48.9082179], [8.1298047, 48.9081102], [8.1296291, 48.9081442], [8.1294297, 48.9081522], [8.1292582, 48.9081915], [8.1290864, 48.9082228], [8.1289736, 48.9082124], [8.1287397, 48.9081783], [8.1284747, 48.9081286], [8.1283381, 48.908108], [8.1281863, 48.9080583], [8.1281318, 48.908022], [8.1280538, 48.9079539], [8.1279213, 48.9078809], [8.1278118, 48.9078446], [8.1276756, 48.9078234], [8.1275431, 48.9078339], [8.1273249, 48.9079015], [8.1272231, 48.9078993], [8.1270595, 48.9078938], [8.1269508, 48.9079619], [8.1268802, 48.9080506], [8.1267592, 48.9081421], [8.1265955, 48.9082437], [8.1264552, 48.9083508], [8.126397, 48.9084395], [8.1262837, 48.9086068], [8.1262485, 48.9087032], [8.1262993, 48.9088496], [8.1264433, 48.9090767], [8.1265844, 48.9092541], [8.1266849, 48.9093791], [8.1268408, 48.9095409], [8.126993, 48.9097027], [8.1272034, 48.9097905], [8.1273323, 48.9098636], [8.1275427, 48.9099106], [8.1276366, 48.909968], [8.1279521, 48.9100908], [8.1283976, 48.9103465], [8.1285613, 48.910425], [8.1286626, 48.910545], [8.1287057, 48.9106522], [8.1287951, 48.9108373], [8.1289087, 48.9110246], [8.1289707, 48.9110897], [8.1289748, 48.9113168], [8.1289633, 48.9115283], [8.1289555, 48.9117294], [8.1290023, 48.9117923], [8.1292939, 48.9119798], [8.1293485, 48.912082], [8.1294617, 48.91216], [8.1293805, 48.9123899], [8.1293649, 48.9124737], [8.1295368, 48.9126429], [8.1296151, 48.912742], [8.1296266, 48.9128697], [8.1297046, 48.9130395], [8.1297124, 48.9131573], [8.1299154, 48.9134501], [8.1298453, 48.9135075], [8.1298326, 48.9135778], [8.1299339, 48.9136248], [8.1300159, 48.9136536], [8.1300976, 48.9137033], [8.1301402, 48.9137866], [8.130203, 48.9138915], [8.1302498, 48.9139618], [8.1302502, 48.9141626], [8.1302776, 48.9141994], [8.1304138, 48.9143795], [8.1305857, 48.9145204], [8.1309131, 48.914844], [8.1313274, 48.9151708], [8.1314792, 48.9152958], [8.1317717, 48.9154867], [8.1327152, 48.9160489], [8.1329687, 48.9161975], [8.1335065, 48.9165345], [8.1345239, 48.9170717], [8.1348278, 48.9172338], [8.1356072, 48.9175183], [8.1359818, 48.9176134], [8.1362858, 48.9177021], [8.1370348, 48.9178746], [8.1382901, 48.9181564], [8.1391713, 48.9183766], [8.1396348, 48.918512], [8.1404651, 48.918656], [8.141249, 48.9187683], [8.141553, 48.9188257], [8.1418685, 48.9189479], [8.1424219, 48.9189798], [8.1425855, 48.9190009], [8.1428001, 48.9190031], [8.143221, 48.9190059], [8.1434429, 48.9189982], [8.143689, 48.9189669], [8.1441686, 48.9189356], [8.144683, 48.9189067], [8.1452446, 48.9188804], [8.1454765, 48.918851], [8.1457672, 48.9187683], [8.1462283, 48.9187109], [8.1469541, 48.9182723], [8.1472474, 48.9181792], [8.1473602, 48.9181553], [8.1474775, 48.9181635], [8.1476964, 48.9182287]]]}}, {"type": "Feature", "properties": {"name": "Bassins de décantation"}, "geometry": {"type": "MultiPolygon", "coordinates": [[[[7.6924036, 48.4162807], [7.6924336, 48.416306], [7.6926623, 48.4163933], [7.692709, 48.4163943], [7.6927327, 48.4164229], [7.692851, 48.4164667], [7.692902, 48.4164661], [7.6950182, 48.4160904], [7.6950581, 48.4160639], [7.6949675, 48.4158915], [7.6949183, 48.4158425], [7.6948537, 48.4156926], [7.6948722, 48.4155947], [7.6940352, 48.4134247], [7.6939852, 48.4134031], [7.6926418, 48.4136413], [7.6914685, 48.413842], [7.6914633, 48.4138754], [7.6924036, 48.4162807]]], [[[7.6969117, 48.415732], [7.6970362, 48.4157592], [7.6978545, 48.4156], [7.6979115, 48.4155118], [7.6977122, 48.4142613], [7.6975735, 48.4142005], [7.6965291, 48.4144331], [7.6964553, 48.4145336], [7.6969117, 48.415732]]], [[[7.6929058, 48.4114455], [7.6923559, 48.4115598], [7.692311, 48.4116168], [7.6925314, 48.4122132], [7.692575, 48.412353], [7.692644, 48.4124303], [7.6926871, 48.4124618], [7.6927428, 48.4124658], [7.6932536, 48.4123549], [7.6932903, 48.4123082], [7.6929692, 48.4114731], [7.6929058, 48.4114455]]], [[[7.6957339, 48.4133922], [7.6958506, 48.4134347], [7.6964184, 48.413302], [7.6964822, 48.4132061], [7.6956281, 48.4117324], [7.6954575, 48.4116816], [7.6950566, 48.4118001], [7.6949821, 48.4118865], [7.6957339, 48.4133922]]], [[[7.6952287, 48.4146094], [7.6953526, 48.4146448], [7.6962945, 48.4144436], [7.6963791, 48.41437], [7.6965919, 48.4134905], [7.6965541, 48.4133822], [7.6964635, 48.4133536], [7.6958043, 48.4135012], [7.6950146, 48.4137013], [7.694937, 48.4138208], [7.6952287, 48.4146094]]], [[[7.6921351, 48.4115867], [7.6918586, 48.4116208], [7.6917912, 48.4116489], [7.6917672, 48.4116899], [7.6917559, 48.4126575], [7.6917947, 48.4126848], [7.6923248, 48.4125862], [7.69235, 48.4125605], [7.69235, 48.4124634], [7.6923751, 48.4124346], [7.6924254, 48.4124133], [7.6921351, 48.4115867]]], [[[7.6956944, 48.4158895], [7.6958058, 48.4159375], [7.6967792, 48.4158049], [7.6968254, 48.4157416], [7.6963725, 48.4145567], [7.69626, 48.4145114], [7.6953837, 48.4147051], [7.6953028, 48.4148419], [7.6956944, 48.4158895]]], [[[7.6960863, 48.4123317], [7.6962295, 48.4123754], [7.6970423, 48.4121448], [7.6971312, 48.411992], [7.6965643, 48.4111181], [7.6964669, 48.4110777], [7.695631, 48.4111883], [7.6955598, 48.4112726], [7.6956764, 48.4116595], [7.6960863, 48.4123317]]], [[[7.6917804, 48.4127835], [7.6915254, 48.412806], [7.6913096, 48.4128113], [7.6912401, 48.4128232], [7.6912048, 48.4128749], [7.6914269, 48.413512], [7.6915272, 48.4137455], [7.6916154, 48.4137695], [7.6923477, 48.4136307], [7.6937329, 48.4133981], [7.6938354, 48.4133355], [7.6935176, 48.412428], [7.6934651, 48.412421], [7.6921642, 48.4127054], [7.6917804, 48.4127835]]], [[[7.6948597, 48.4135971], [7.6949868, 48.4136505], [7.6956423, 48.4134822], [7.6956789, 48.4134166], [7.6949065, 48.4118931], [7.6947793, 48.4118605], [7.69439, 48.4119765], [7.6943112, 48.4120831], [7.6948597, 48.4135971]]], [[[7.6964827, 48.4142814], [7.6966048, 48.41436], [7.6976378, 48.4141256], [7.6976859, 48.4140371], [7.6975662, 48.4129638], [7.6974519, 48.4124773], [7.6973807, 48.4123268], [7.6970805, 48.4122285], [7.6962711, 48.4124314], [7.696209, 48.4125274], [7.6966411, 48.4133061], [7.6966698, 48.4134837], [7.6964827, 48.4142814]]], [[[7.6942271, 48.411879], [7.6943709, 48.4119158], [7.6954228, 48.4116198], [7.6955105, 48.4115378], [7.6953995, 48.4111325], [7.6951127, 48.4109551], [7.6940711, 48.4110789], [7.6939726, 48.4111934], [7.6942271, 48.411879]]]]}}, {"type": "Feature", "properties": {"name": "Bassin des Mouettes"}, "geometry": {"type": "MultiPolygon", "coordinates": [[[[8.170184, 48.9693541], [8.1704036, 48.9683999], [8.1705585, 48.968103], [8.1707519, 48.967854], [8.1715729, 48.9669711], [8.1722426, 48.9664028], [8.1729769, 48.9660007], [8.1740203, 48.9656838], [8.1743096, 48.9655738], [8.1745569, 48.9654855], [8.1746941, 48.9654027], [8.1747617, 48.965282], [8.1747486, 48.9651665], [8.1746887, 48.965079], [8.1747025, 48.9647593], [8.1747481, 48.9645066], [8.1747709, 48.9643833], [8.1748453, 48.9642525], [8.1749466, 48.9642187], [8.1750574, 48.9642067], [8.1751974, 48.9642451], [8.1752715, 48.9642969], [8.1752537, 48.9643827], [8.1752269, 48.9645119], [8.1751299, 48.9647185], [8.1751257, 48.9649538], [8.175141, 48.9651732], [8.1752043, 48.9651908], [8.17555, 48.9651244], [8.1755947, 48.9651558], [8.1757044, 48.9651396], [8.1757625, 48.9650944], [8.1760393, 48.9650576], [8.1763132, 48.9650092], [8.1764271, 48.964921], [8.1763655, 48.9647522], [8.1764006, 48.9647165], [8.1763005, 48.9645777], [8.1762081, 48.9645367], [8.1759406, 48.9645349], [8.1758545, 48.9644995], [8.1758679, 48.964437], [8.1758988, 48.9643851], [8.1759417, 48.9643613], [8.1759926, 48.9643457], [8.1760898, 48.9643214], [8.1762012, 48.9643378], [8.1765811, 48.9642194], [8.1766287, 48.9637449], [8.1765019, 48.9635195], [8.1763624, 48.9631581], [8.1762623, 48.9627885], [8.1760902, 48.9627908], [8.1760065, 48.9626778], [8.1759992, 48.9621801], [8.1761221, 48.9620112], [8.175965, 48.9617135], [8.1759147, 48.9608012], [8.1759323, 48.9605799], [8.1756946, 48.9602447], [8.1756599, 48.9599734], [8.1750401, 48.9596573], [8.1746385, 48.9594501], [8.1742774, 48.9593073], [8.1740096, 48.9592433], [8.1739362, 48.9586482], [8.1738697, 48.9585014], [8.1738308, 48.9584732], [8.1737704, 48.9584423], [8.173461, 48.9584389], [8.1729694, 48.9584821], [8.1728432, 48.9585394], [8.1726028, 48.9586356], [8.1724799, 48.9587977], [8.1721877, 48.958761], [8.172181, 48.9587187], [8.1718082, 48.9586611], [8.1714481, 48.9588693], [8.1712921, 48.9588396], [8.1711381, 48.9587841], [8.1710789, 48.9586749], [8.1710866, 48.9584946], [8.1712667, 48.9584189], [8.1714131, 48.9584217], [8.1715703, 48.9583261], [8.171364, 48.9582296], [8.1714758, 48.9580594], [8.1716582, 48.9578815], [8.171683, 48.9577818], [8.1716068, 48.9575405], [8.1710935, 48.9571573], [8.1705387, 48.9570118], [8.169745, 48.9566894], [8.169322, 48.9567297], [8.1689197, 48.9566539], [8.1686666, 48.9566139], [8.1683987, 48.9565278], [8.1682271, 48.9565042], [8.1681395, 48.956446], [8.1680469, 48.9564863], [8.1677398, 48.9564431], [8.1674846, 48.956444], [8.1672458, 48.9564812], [8.1669819, 48.9564928], [8.1669468, 48.9565333], [8.166689, 48.9566741], [8.1664097, 48.9568428], [8.1660109, 48.9568913], [8.1659547, 48.9569345], [8.1655687, 48.9569019], [8.1652914, 48.9569258], [8.1651342, 48.9568175], [8.1650624, 48.9568059], [8.1648392, 48.9566207], [8.1647014, 48.9566037], [8.1645561, 48.9564893], [8.1643991, 48.9564863], [8.1641953, 48.9564203], [8.164144, 48.9563596], [8.1638555, 48.956324], [8.1637826, 48.9562404], [8.1630388, 48.9562213], [8.1620836, 48.9562399], [8.1613293, 48.9563251], [8.160658, 48.9565677], [8.1600963, 48.9568737], [8.1596961, 48.957195], [8.1592524, 48.9575927], [8.1589549, 48.9578793], [8.1587421, 48.9581938], [8.1584636, 48.9586627], [8.1583675, 48.9590804], [8.1583948, 48.9594925], [8.1587118, 48.9601792], [8.1590517, 48.9605498], [8.1594471, 48.9608814], [8.1599433, 48.9612036], [8.1606559, 48.9615509], [8.1607466, 48.9615104], [8.160909, 48.9615848], [8.1609361, 48.9616473], [8.1611413, 48.9617282], [8.1614752, 48.9614496], [8.1612043, 48.9612979], [8.1609302, 48.9614988], [8.1607872, 48.961437], [8.1610845, 48.9611792], [8.1611922, 48.9611695], [8.1612983, 48.9611887], [8.1614249, 48.9612426], [8.1619442, 48.9614894], [8.1620175, 48.9615563], [8.1618697, 48.9616359], [8.1616859, 48.9615391], [8.1612807, 48.9619045], [8.1616352, 48.9620513], [8.1621684, 48.9616369], [8.1623409, 48.9617069], [8.162369, 48.9617879], [8.1621012, 48.9619743], [8.1618526, 48.9619017], [8.16165, 48.9620606], [8.1618602, 48.9621931], [8.1619578, 48.9623219], [8.1624056, 48.9620497], [8.1625779, 48.9621495], [8.1622543, 48.9624841], [8.1632079, 48.962919], [8.1639701, 48.9631519], [8.1647676, 48.9633263], [8.1653602, 48.963365], [8.1658782, 48.9633815], [8.1664124, 48.9632762], [8.1667549, 48.9631058], [8.1670247, 48.9628858], [8.1674435, 48.9624622], [8.1676256, 48.9622541], [8.1677193, 48.9619423], [8.1677641, 48.961617], [8.1677173, 48.961368], [8.1674435, 48.9609258], [8.167081, 48.9604633], [8.1668716, 48.9602771], [8.1668969, 48.9596496], [8.1674323, 48.9594842], [8.1677884, 48.9595153], [8.1682451, 48.9598825], [8.1685442, 48.9599614], [8.168925, 48.9599825], [8.1695402, 48.9600065], [8.1700181, 48.9601368], [8.1701856, 48.960388], [8.1699283, 48.9607325], [8.169551, 48.9611521], [8.1694829, 48.9615094], [8.1693752, 48.9618555], [8.1690967, 48.9621345], [8.1687581, 48.9623755], [8.1681874, 48.9625332], [8.1678524, 48.9626976], [8.167304, 48.9633191], [8.166564, 48.9643097], [8.1663028, 48.9653716], [8.1663088, 48.965685], [8.1661851, 48.9658446], [8.166063, 48.9659005], [8.1659872, 48.9660242], [8.1660628, 48.9660846], [8.1658924, 48.9663742], [8.1658856, 48.9663857], [8.1656851, 48.9667221], [8.1649576, 48.9673509], [8.170184, 48.9693541]]], [[[8.1649576, 48.9673509], [8.1643636, 48.9678053], [8.1643418, 48.967822], [8.1641658, 48.9679565], [8.164146, 48.9679714], [8.1637202, 48.9682974], [8.1649576, 48.9673509]]], [[[8.1638541, 48.968365], [8.1644431, 48.9686622], [8.1651284, 48.9689873], [8.1652601, 48.9690408], [8.165693, 48.9692169], [8.1661104, 48.9693495], [8.1662787, 48.969403], [8.1669295, 48.9695954], [8.1675998, 48.9697523], [8.1690272, 48.969985], [8.1695339, 48.9700181], [8.1638541, 48.968365]]]]}}, {"type": "Feature", "properties": {"name": "Salmenkopf - Port d'Offendorf"}, "geometry": {"type": "Polygon", "coordinates": [[[7.95397, 48.7157856], [7.9539386, 48.7158019], [7.9538794, 48.7158032], [7.9538008, 48.7157837], [7.9527923, 48.7153659], [7.9523317, 48.7151757], [7.9500941, 48.7143198], [7.9488101, 48.7139135], [7.9488792, 48.7137505], [7.9482802, 48.713633], [7.9481669, 48.7137825], [7.9478755, 48.7137576], [7.9477652, 48.7137851], [7.9475138, 48.7139017], [7.9471793, 48.7140033], [7.9466882, 48.7143629], [7.9454848, 48.7132413], [7.9452473, 48.7129635], [7.9449937, 48.7126466], [7.9449598, 48.7122928], [7.9449073, 48.7120845], [7.9448645, 48.712045], [7.9447551, 48.711944], [7.9447312, 48.7118913], [7.9446045, 48.711612], [7.9442497, 48.7113822], [7.944012, 48.7112283], [7.9438114, 48.7111405], [7.9433622, 48.7108026], [7.9429052, 48.7103569], [7.9427325, 48.710275], [7.9425382, 48.7102643], [7.9423277, 48.7102892], [7.9422036, 48.7103391], [7.9420633, 48.7104246], [7.9416785, 48.7103977], [7.940808, 48.7104165], [7.9405752, 48.7105635], [7.940367, 48.7106032], [7.9402243, 48.7107219], [7.9400635, 48.7108627], [7.9398053, 48.7109614], [7.9397826, 48.7110413], [7.9397101, 48.7110421], [7.93952, 48.7110802], [7.9393408, 48.7112044], [7.9392615, 48.7113133], [7.9390029, 48.711169], [7.938809, 48.7110831], [7.9387011, 48.71106], [7.9386324, 48.7110647], [7.938496, 48.7111152], [7.9379705, 48.7113639], [7.9376403, 48.7115608], [7.9375403, 48.71166], [7.9377187, 48.7118234], [7.9380907, 48.7121279], [7.9384803, 48.7124468], [7.9388482, 48.712748], [7.9392801, 48.7131015], [7.9395465, 48.7133166], [7.9399292, 48.7136329], [7.9400372, 48.7137213], [7.9401985, 48.7138612], [7.9404653, 48.7140926], [7.9407486, 48.7143384], [7.9410491, 48.7145991], [7.9414918, 48.7149831], [7.9418891, 48.7153278], [7.9420584, 48.7154335], [7.9423578, 48.7156639], [7.9426645, 48.7158838], [7.9429753, 48.7161067], [7.943279, 48.7163245], [7.9436677, 48.7166185], [7.94397, 48.716847], [7.9436009, 48.7170788], [7.9436009, 48.7172183], [7.9439932, 48.7175638], [7.9443718, 48.7176806], [7.9444427, 48.7176528], [7.9444454, 48.7175958], [7.9441528, 48.7174973], [7.9439412, 48.7173483], [7.9438843, 48.7172281], [7.9440397, 48.7171059], [7.9441868, 48.7170961], [7.944489, 48.7173094], [7.9448157, 48.7174257], [7.9451903, 48.7174642], [7.9454087, 48.717527], [7.9457522, 48.7177156], [7.9463271, 48.7178318], [7.9477283, 48.717996], [7.9490623, 48.7180761], [7.9493015, 48.7180542], [7.9494307, 48.71796], [7.9496183, 48.7178358], [7.9497026, 48.717699], [7.9498557, 48.7176878], [7.9504159, 48.7175855], [7.95084, 48.7174379], [7.9510395, 48.7173655], [7.9512653, 48.7172636], [7.952242, 48.7166958], [7.9524751, 48.7166038], [7.9526478, 48.7165237], [7.9527422, 48.7164596], [7.952807, 48.7164275], [7.9529041, 48.7163937], [7.9529986, 48.7163706], [7.9531713, 48.7163545], [7.9535463, 48.7163723], [7.9537036, 48.7163758], [7.9538659, 48.7163794], [7.9541198, 48.7163857], [7.9543796, 48.7164735], [7.9550284, 48.7167197], [7.95397, 48.7157856]]]}}]}