{"type": "FeatureCollection", "features": [{"type": "Feature", "properties": {"name": "Gravière"}, "geometry": {"type": "Polygon", "coordinates": [[[7.3683653, 48.1186177], [7.3694938, 48.1182117], [7.3702723, 48.1181245], [7.3712767, 48.1177946], [7.3715456, 48.1177272], [7.3728716, 48.1173579], [7.3730169, 48.1172706], [7.3729387, 48.1171714], [7.3729365, 48.1170429], [7.3730344, 48.1170121], [7.3733579, 48.1169104], [7.373423, 48.1169164], [7.3735637, 48.1170833], [7.3739989, 48.1169388], [7.3749643, 48.1166519], [7.3751676, 48.1166046], [7.3753122, 48.1165086], [7.3752921, 48.1163928], [7.375278, 48.1163113], [7.3750761, 48.1159659], [7.3750664, 48.1156679], [7.3750462, 48.1156058], [7.3749938, 48.1154442], [7.374879, 48.1153387], [7.374832, 48.1151867], [7.3747523, 48.1149885], [7.3746379, 48.1148014], [7.3746199, 48.114772], [7.3745572, 48.1146533], [7.3745666, 48.1146066], [7.3745808, 48.1145365], [7.3746227, 48.1142816], [7.3746908, 48.1141312], [7.374711, 48.114008], [7.3747067, 48.113906], [7.3746851, 48.1137955], [7.3746561, 48.113676], [7.374614, 48.1135477], [7.374512, 48.1133403], [7.3744798, 48.1132749], [7.3742998, 48.1129349], [7.3740598, 48.1127068], [7.3737523, 48.1126093], [7.3733981, 48.1126329], [7.3727799, 48.1126737], [7.3725816, 48.1126812], [7.371725, 48.1127015], [7.371491, 48.1127553], [7.3713352, 48.1129202], [7.3712752, 48.1130767], [7.371133, 48.1132106], [7.3710778, 48.1133154], [7.3709922, 48.1134185], [7.3709873, 48.113486], [7.3710283, 48.1135395], [7.3713148, 48.113719], [7.3715158, 48.1138216], [7.3712262, 48.1140598], [7.3710232, 48.11406], [7.3709759, 48.1140868], [7.3709236, 48.1141164], [7.370866, 48.1141367], [7.370737, 48.1141261], [7.3705934, 48.114084], [7.3704408, 48.114097], [7.3704068, 48.1140994], [7.37035, 48.1141035], [7.3702794, 48.114097], [7.3702017, 48.1140785], [7.3701571, 48.1140552], [7.3701403, 48.114036], [7.3701349, 48.1140178], [7.3702097, 48.1139824], [7.3702127, 48.1139471], [7.3701934, 48.1139294], [7.3701455, 48.1139748], [7.3700987, 48.1139851], [7.3700283, 48.1140002], [7.3699086, 48.1140349], [7.3695258, 48.1143068], [7.3694493, 48.1143663], [7.3693614, 48.1144261], [7.3692892, 48.1144412], [7.3691512, 48.114465], [7.3689549, 48.1144844], [7.3687643, 48.1144779], [7.3686633, 48.1144526], [7.3687479, 48.1143547], [7.3687833, 48.1142835], [7.3688043, 48.1141936], [7.3688494, 48.114101], [7.3688999, 48.113989], [7.3689279, 48.1138594], [7.368934, 48.1137677], [7.3689839, 48.1136612], [7.3690055, 48.1135672], [7.3689822, 48.1134905], [7.3688991, 48.1134372], [7.3689201, 48.1133432], [7.3689342, 48.1132202], [7.3689279, 48.1131865], [7.3688717, 48.1131337], [7.3688209, 48.1130947], [7.368761, 48.113065], [7.3685927, 48.1130321], [7.3681931, 48.1130519], [7.3680803, 48.1130796], [7.3679649, 48.1131588], [7.3678498, 48.1132005], [7.3675096, 48.1131807], [7.366637, 48.1132606], [7.3662371, 48.1133178], [7.3658606, 48.1132807], [7.36545, 48.1133531], [7.3652424, 48.1133977], [7.3648124, 48.113636], [7.3647702, 48.113792], [7.364782, 48.114041], [7.364814, 48.1141678], [7.364845, 48.1142799], [7.3652535, 48.11457], [7.3659313, 48.1148668], [7.3660715, 48.1149261], [7.3661702, 48.1150426], [7.366222, 48.11511], [7.3664725, 48.1152472], [7.3667829, 48.1153377], [7.3665893, 48.1160787], [7.3678052, 48.11606], [7.3677993, 48.1164341], [7.3670201, 48.1166756], [7.3673788, 48.1175861], [7.3667806, 48.1178283], [7.3668568, 48.1181188], [7.3669011, 48.1187566], [7.3672046, 48.1189305], [7.3683653, 48.1186177]]]}}, {"type": "Feature", "properties": {"name": "Plan d'Eau de Reiningue"}, "geometry": {"type": "Polygon", "coordinates": [[[7.2361086, 47.7668861], [7.2371077, 47.7668088], [7.2377556, 47.7667244], [7.2381611, 47.7666951], [7.2398306, 47.7666163], [7.2409387, 47.766637], [7.2417268, 47.7666902], [7.2426841, 47.7668176], [7.243419, 47.7669689], [7.2440492, 47.7671558], [7.2443855, 47.7672759], [7.2446901, 47.7674848], [7.2449151, 47.7676883], [7.2449839, 47.7678413], [7.2449915, 47.7682005], [7.2448547, 47.7684228], [7.244634, 47.7686054], [7.2440712, 47.7688771], [7.2425773, 47.7692897], [7.2417742, 47.7694376], [7.2409704, 47.7695242], [7.2405051, 47.769523], [7.2392377, 47.7693817], [7.2391065, 47.7693194], [7.2387957, 47.7691716], [7.2385023, 47.7690856], [7.2372094, 47.769008], [7.2370036, 47.7690729], [7.236741, 47.7693103], [7.2360266, 47.7697696], [7.2354902, 47.7699647], [7.2348562, 47.770095], [7.2343811, 47.7700629], [7.2339413, 47.7699297], [7.2336541, 47.7697323], [7.2334999, 47.7695644], [7.2336482, 47.7694375], [7.233577, 47.7692656], [7.2334911, 47.7692278], [7.233466, 47.7691535], [7.2334538, 47.7691078], [7.2337094, 47.7686166], [7.2337586, 47.7681917], [7.2335705, 47.7679111], [7.2331838, 47.7676709], [7.2331725, 47.7675531], [7.2331688, 47.7675148], [7.2332833, 47.767351], [7.2334728, 47.7671846], [7.2334798, 47.7671784], [7.233701, 47.7670168], [7.2339656, 47.766918], [7.2341606, 47.7668515], [7.2343776, 47.7668216], [7.2346987, 47.7668197], [7.2346623, 47.766788], [7.2361086, 47.7668861]]]}}, {"type": "Feature", "properties": {"name": "plan d'eau de Michelbach"}, "geometry": {"type": "Polygon", "coordinates": [[[7.1275101, 47.760203], [7.1278256, 47.7602117], [7.128236, 47.7601266], [7.1285133, 47.7598442], [7.1289136, 47.7594366], [7.128497, 47.7594778], [7.1282593, 47.7593384], [7.1282276, 47.7591354], [7.1281455, 47.7589755], [7.1278001, 47.758629], [7.1278819, 47.7583991], [7.1281958, 47.7581637], [7.128577, 47.7581188], [7.1290928, 47.7581434], [7.1296077, 47.7581557], [7.129922, 47.7581455], [7.1302073, 47.7580461], [7.1302769, 47.7580674], [7.1303982, 47.7581279], [7.1305589, 47.7582597], [7.1316856, 47.7577349], [7.1318865, 47.7576161], [7.1320244, 47.757463], [7.1320581, 47.7572951], [7.1320297, 47.7571666], [7.1312521, 47.7559188], [7.1303671, 47.7546787], [7.1284812, 47.7519328], [7.1284204, 47.7518352], [7.1280452, 47.7519352], [7.1278645, 47.7520292], [7.1276361, 47.7520983], [7.127366, 47.7522193], [7.1269611, 47.7524312], [7.1268306, 47.7524915], [7.1268117, 47.752787], [7.1267594, 47.7528753], [7.1266535, 47.7528835], [7.1264268, 47.7528708], [7.1262901, 47.7529087], [7.126112, 47.7530039], [7.1253404, 47.7532318], [7.12445, 47.7533112], [7.1238403, 47.7534988], [7.123039, 47.7538053], [7.1227397, 47.7539468], [7.1223447, 47.7542293], [7.1218865, 47.7545492], [7.121156, 47.7548561], [7.1197767, 47.7554972], [7.1191799, 47.7557634], [7.1183916, 47.756468], [7.1171924, 47.756817], [7.1161981, 47.757147], [7.1157711, 47.7574145], [7.1144086, 47.7582493], [7.1134651, 47.7586294], [7.113058, 47.7586458], [7.1125728, 47.7587876], [7.1119895, 47.7590728], [7.111505, 47.7593862], [7.1112145, 47.7596576], [7.1107202, 47.759819], [7.1102809, 47.7600311], [7.1099717, 47.7601116], [7.1093772, 47.760216], [7.1089076, 47.7602241], [7.1087547, 47.760363], [7.1086942, 47.7605445], [7.1087258, 47.7606108], [7.1088714, 47.760752], [7.1090097, 47.7607823], [7.1091999, 47.7607563], [7.1094506, 47.7607347], [7.10971, 47.7607477], [7.1104837, 47.760765], [7.1107183, 47.7607354], [7.1108944, 47.7607131], [7.1114865, 47.7605748], [7.1119394, 47.7605604], [7.1124187, 47.7605522], [7.1133757, 47.7603078], [7.1134726, 47.7602982], [7.1136426, 47.7602814], [7.1138423, 47.7603327], [7.1139863, 47.7603387], [7.1140543, 47.7603019], [7.1142035, 47.760221], [7.1142246, 47.7602095], [7.114214, 47.7601343], [7.1145152, 47.7601008], [7.1149392, 47.7601833], [7.11579, 47.76048], [7.1163887, 47.7605669], [7.1167615, 47.7605714], [7.1174579, 47.760812], [7.1187604, 47.7612284], [7.1194383, 47.7614801], [7.1195532, 47.7615228], [7.1201638, 47.7615127], [7.1205478, 47.7614244], [7.1208145, 47.7612448], [7.1210954, 47.7610368], [7.1214814, 47.7608973], [7.1217695, 47.7607932], [7.1220119, 47.7606353], [7.1224555, 47.760419], [7.1228791, 47.7602108], [7.1233276, 47.760124], [7.1240369, 47.7600537], [7.1243849, 47.7599394], [7.1245276, 47.7599394], [7.1247696, 47.7600474], [7.1250322, 47.760104], [7.1254458, 47.7601127], [7.1261398, 47.7600042], [7.1265332, 47.7600345], [7.1268881, 47.760106], [7.1275101, 47.760203]]]}}, {"type": "Feature", "properties": {"name": "Lac de l'Est"}, "geometry": {"type": "Polygon", "coordinates": [[[7.4826936, 47.643027], [7.4825698, 47.6423589], [7.48225, 47.6418701], [7.4822179, 47.6418062], [7.4820751, 47.641661], [7.4820324, 47.6415379], [7.4820298, 47.6414312], [7.4823138, 47.6412973], [7.4824256, 47.6412272], [7.4828167, 47.6410507], [7.4834839, 47.6409383], [7.4841304, 47.6403582], [7.4841853, 47.6403089], [7.484986, 47.6400159], [7.4850075, 47.6399532], [7.485332, 47.6399405], [7.485501, 47.63999], [7.4857155, 47.6399973], [7.4859555, 47.639946], [7.4861125, 47.6398816], [7.4862949, 47.6398816], [7.4865095, 47.6397804], [7.4870319, 47.639567], [7.486817, 47.6393434], [7.4867805, 47.6390631], [7.4869096, 47.638921], [7.4851898, 47.6384358], [7.4850289, 47.638443], [7.4847607, 47.6386671], [7.4846575, 47.6387339], [7.4846247, 47.6387552], [7.4844122, 47.6387763], [7.4841869, 47.6387013], [7.4840686, 47.6386183], [7.4841277, 47.6384792], [7.4843211, 47.638219], [7.4841528, 47.6381459], [7.4839089, 47.6380815], [7.4836825, 47.6380638], [7.4834196, 47.6382044], [7.4829028, 47.6384807], [7.482577, 47.6386946], [7.4823851, 47.6388458], [7.4821106, 47.63902], [7.481861, 47.6392057], [7.4811547, 47.6399392], [7.48104, 47.640174], [7.4808804, 47.6403393], [7.4808191, 47.6403665], [7.4807314, 47.6404054], [7.4806512, 47.6404799], [7.4804873, 47.6406322], [7.480383, 47.6407575], [7.4800276, 47.6411842], [7.4798148, 47.6414009], [7.4795345, 47.6416301], [7.4794891, 47.6415959], [7.4796673, 47.6413986], [7.4798143, 47.6412265], [7.4799045, 47.6410753], [7.479992, 47.6409234], [7.4800075, 47.6408367], [7.4798816, 47.6407747], [7.479709, 47.6406988], [7.479598, 47.6407204], [7.4794782, 47.6407601], [7.479427, 47.6408309], [7.4794378, 47.6409342], [7.4794906, 47.6410656], [7.4794625, 47.6411971], [7.4793964, 47.641313], [7.4793305, 47.6414649], [7.4792269, 47.6415377], [7.4790973, 47.6415646], [7.4789239, 47.641553], [7.478708, 47.6415981], [7.4785858, 47.6416925], [7.4784377, 47.6417823], [7.4782665, 47.641755], [7.4780653, 47.6418498], [7.4779328, 47.641926], [7.4779264, 47.6420057], [7.4780113, 47.6420589], [7.4780949, 47.6420436], [7.4781846, 47.6419617], [7.4782788, 47.6418633], [7.4783481, 47.6418702], [7.478521, 47.6418572], [7.478644, 47.6418253], [7.4787468, 47.6417324], [7.4788523, 47.641678], [7.4789831, 47.6416645], [7.4790582, 47.6417101], [7.4790255, 47.6417818], [7.4789899, 47.6418319], [7.4788867, 47.6418564], [7.4787896, 47.6419375], [7.4786944, 47.6420254], [7.4786066, 47.6421173], [7.4785789, 47.6422051], [7.4786817, 47.6423443], [7.4782828, 47.6424887], [7.4780485, 47.6424489], [7.4780009, 47.6426374], [7.4778323, 47.642704], [7.4775497, 47.6425848], [7.4773919, 47.6426378], [7.4772227, 47.6428035], [7.4768561, 47.643419], [7.4766195, 47.6437025], [7.4760348, 47.6443492], [7.4760504, 47.6445489], [7.4762147, 47.6447121], [7.476413, 47.6447994], [7.4766113, 47.6448247], [7.4769788, 47.6448509], [7.4771682, 47.6449534], [7.4771556, 47.6451708], [7.4769627, 47.6453172], [7.4767689, 47.6454579], [7.4768512, 47.6456341], [7.4769338, 47.6456872], [7.4770634, 47.6456859], [7.4773318, 47.6456888], [7.4778767, 47.6456463], [7.4781082, 47.6455943], [7.4781448, 47.6454586], [7.4778741, 47.6452], [7.4776836, 47.6449862], [7.4776946, 47.6448435], [7.477901, 47.644612], [7.4780961, 47.6443723], [7.4782914, 47.6440509], [7.47845, 47.6438309], [7.4784882, 47.6436655], [7.4782859, 47.6434362], [7.4781255, 47.6432388], [7.478124, 47.6429521], [7.4783059, 47.6428255], [7.4786538, 47.6427204], [7.4788474, 47.6426989], [7.4789622, 47.6427305], [7.4791584, 47.6428739], [7.4793057, 47.6429816], [7.4796053, 47.6433847], [7.4796054, 47.6435131], [7.4794559, 47.6436623], [7.4794068, 47.6437213], [7.4795503, 47.6438355], [7.4799952, 47.6439281], [7.4803664, 47.6442075], [7.4813857, 47.6438582], [7.4823479, 47.6435562], [7.4826654, 47.6433286], [7.4827518, 47.6431468], [7.4826936, 47.643027]]]}}, {"type": "Feature", "properties": {"name": "Lac Blanc"}, "geometry": {"type": "Polygon", "coordinates": [[[7.0958924, 48.1250902], [7.0958404, 48.1248594], [7.0957717, 48.1247778], [7.0952077, 48.1245164], [7.0945257, 48.1243856], [7.094178, 48.1242649], [7.0940911, 48.1241919], [7.0939219, 48.1241476], [7.0937586, 48.1241579], [7.0936231, 48.1241447], [7.0931087, 48.1240153], [7.0928267, 48.1239038], [7.0927848, 48.1237687], [7.0926637, 48.1237173], [7.0926173, 48.1237115], [7.0925721, 48.1237227], [7.0924896, 48.1237219], [7.0924289, 48.1236831], [7.0922555, 48.1236797], [7.092206, 48.1236978], [7.0920993, 48.1236888], [7.0920247, 48.1236721], [7.091839, 48.1236932], [7.0917313, 48.1236345], [7.0915161, 48.1235974], [7.0912685, 48.1234509], [7.0911535, 48.1233155], [7.0909702, 48.1232649], [7.0905452, 48.1232796], [7.0898972, 48.1234154], [7.0894772, 48.1234393], [7.089255, 48.1235072], [7.0891195, 48.1236171], [7.0889306, 48.1237615], [7.088943, 48.1239724], [7.0891345, 48.1244965], [7.0890921, 48.1247668], [7.0889728, 48.1249797], [7.0888017, 48.1252604], [7.0887624, 48.1254109], [7.0887387, 48.1255538], [7.088645, 48.1257322], [7.0885593, 48.1258284], [7.0884374, 48.1259566], [7.0881701, 48.1261794], [7.0880345, 48.1263914], [7.0880265, 48.1265365], [7.0880015, 48.1267882], [7.0880276, 48.1269735], [7.0879726, 48.1271026], [7.0879478, 48.1272509], [7.0878838, 48.1273375], [7.0878749, 48.1274635], [7.0879459, 48.1279702], [7.0879554, 48.1284213], [7.0879862, 48.1285323], [7.0880984, 48.1285975], [7.0881753, 48.1287008], [7.0882185, 48.1288424], [7.0883068, 48.1290042], [7.088343, 48.1292548], [7.0883157, 48.1296515], [7.0882795, 48.1297783], [7.0881739, 48.1299499], [7.0882458, 48.1304168], [7.0885619, 48.1307541], [7.0889428, 48.1309421], [7.0893414, 48.1308084], [7.0897772, 48.1305581], [7.0900048, 48.1303199], [7.0901808, 48.1300359], [7.0903039, 48.1296856], [7.0902731, 48.129452], [7.0904022, 48.1292555], [7.0904899, 48.1291115], [7.0906211, 48.128979], [7.0906932, 48.128879], [7.090824, 48.1286757], [7.0911389, 48.1284156], [7.0914233, 48.1282149], [7.0920155, 48.1279526], [7.0926101, 48.1276226], [7.0931028, 48.1272478], [7.093355, 48.1270659], [7.0936505, 48.1269065], [7.0941851, 48.1264401], [7.0944807, 48.1262923], [7.0946968, 48.1260885], [7.095188, 48.1257705], [7.0955212, 48.1255994], [7.095634, 48.1254549], [7.0956962, 48.1253042], [7.0957638, 48.1252112], [7.0958924, 48.1250902]]]}}, {"type": "Feature", "properties": {"name": "Ochsengrund"}, "geometry": {"type": "Polygon", "coordinates": [[[7.5463173, 47.8599872], [7.5462961, 47.8600284], [7.5462623, 47.8600781], [7.5462347, 47.8601065], [7.5462157, 47.860142], [7.5462051, 47.8601945], [7.5461882, 47.860284], [7.546167, 47.8603933], [7.5461459, 47.8604842], [7.5461607, 47.8605637], [7.5461839, 47.8606162], [7.546222, 47.8606659], [7.5462644, 47.8607128], [7.5463384, 47.8607625], [7.5464062, 47.8607923], [7.54644, 47.8608037], [7.5464654, 47.8608122], [7.5464887, 47.8608264], [7.5465099, 47.8608434], [7.5465564, 47.8608605], [7.5466305, 47.8608704], [7.5467215, 47.8608733], [7.54684, 47.8608747], [7.5469162, 47.8608633], [7.5471173, 47.8607852], [7.5472464, 47.8607355], [7.5473311, 47.8606858], [7.5473628, 47.8606603], [7.5473924, 47.8606418], [7.5474644, 47.8606148], [7.5475067, 47.8605978], [7.5475533, 47.8605779], [7.547602, 47.8605637], [7.5476401, 47.8605566], [7.547693, 47.8605353], [7.5477692, 47.8605069], [7.5478538, 47.860443], [7.5479025, 47.8604189], [7.5479533, 47.8604032], [7.5479977, 47.8604004], [7.5480549, 47.8603976], [7.5481057, 47.8603834], [7.5481988, 47.8603479], [7.5483406, 47.8602953], [7.5487004, 47.8601207], [7.548802, 47.8600653], [7.5488591, 47.8600213], [7.5489142, 47.8599943], [7.5489903, 47.8599588], [7.5492697, 47.8598636], [7.5493988, 47.8598225], [7.5494919, 47.8597926], [7.5495914, 47.8597571], [7.5498285, 47.8596549], [7.5502581, 47.8594745], [7.5504338, 47.8593666], [7.5505798, 47.8592701], [7.5506877, 47.8591181], [7.5508465, 47.8588852], [7.5508888, 47.8586907], [7.5509777, 47.8582973], [7.5510602, 47.8578969], [7.5511364, 47.8575021], [7.5512063, 47.8571684], [7.5512973, 47.856846], [7.551365, 47.8565009], [7.5514243, 47.8561814], [7.5514856, 47.8558661], [7.5515153, 47.8556304], [7.5515809, 47.8552683], [7.5516211, 47.8549345], [7.5517079, 47.8546903], [7.5517523, 47.8544673], [7.5517354, 47.8544133], [7.5517417, 47.8541122], [7.5517396, 47.8539163], [7.5517565, 47.853858], [7.5517756, 47.8538026], [7.5517862, 47.8537288], [7.5518073, 47.8536677], [7.551837, 47.8536336], [7.5519534, 47.8534504], [7.5520782, 47.8532289], [7.5521311, 47.8530812], [7.552129, 47.8530357], [7.5520994, 47.8529974], [7.5520782, 47.8529434], [7.5520825, 47.8529008], [7.55211, 47.8528639], [7.5521671, 47.8528], [7.5522327, 47.8527134], [7.5522518, 47.8525898], [7.5522433, 47.8523739], [7.5521968, 47.8523143], [7.5520846, 47.852266], [7.5519957, 47.8522291], [7.5519237, 47.8522035], [7.5518708, 47.8521921], [7.551837, 47.8521652], [7.5518073, 47.8521154], [7.5517671, 47.8520345], [7.5517459, 47.8519805], [7.5516825, 47.8519365], [7.5516105, 47.851918], [7.5513036, 47.851874], [7.5511555, 47.8518456], [7.5509756, 47.8518172], [7.5508253, 47.851803], [7.5506687, 47.8517788], [7.55062, 47.8517675], [7.5505861, 47.8517618], [7.5505565, 47.8517561], [7.5505311, 47.8517561], [7.5505057, 47.8517632], [7.5504824, 47.8517788], [7.5503872, 47.851901], [7.5503618, 47.8519379], [7.5503639, 47.851972], [7.5503406, 47.8520103], [7.550311, 47.8520501], [7.5502877, 47.8521027], [7.5502666, 47.8521581], [7.5502666, 47.8521865], [7.5502771, 47.8522035], [7.550292, 47.8522234], [7.5502941, 47.8522489], [7.5502877, 47.8522816], [7.5502729, 47.8523171], [7.550256, 47.8523427], [7.5502539, 47.8523782], [7.5502602, 47.8524506], [7.5502623, 47.8524847], [7.550256, 47.8525287], [7.5502263, 47.852577], [7.5501988, 47.8526253], [7.5501713, 47.8526963], [7.5501438, 47.8527375], [7.5501121, 47.8527687], [7.5500316, 47.8528256], [7.5499851, 47.8528724], [7.5499745, 47.8528966], [7.5499724, 47.852925], [7.5499724, 47.8529605], [7.5499724, 47.8529903], [7.5499639, 47.8530272], [7.5499258, 47.8531039], [7.5498898, 47.8531678], [7.5498708, 47.8531991], [7.5498433, 47.8532033], [7.5498158, 47.8532147], [7.5495152, 47.8532147], [7.5494284, 47.853209], [7.5493798, 47.8531934], [7.5493311, 47.853155], [7.5492909, 47.8530926], [7.5492782, 47.8530031], [7.5492655, 47.8529704], [7.5492189, 47.8529164], [7.549111, 47.8528142], [7.5490792, 47.8527673], [7.5490729, 47.852719], [7.5491279, 47.852577], [7.5491554, 47.8524875], [7.5491597, 47.852354], [7.5491512, 47.8522901], [7.5491512, 47.8522433], [7.5491681, 47.8521027], [7.5492824, 47.8518527], [7.5494179, 47.8515743], [7.54942, 47.8515516], [7.5493988, 47.8515417], [7.5493755, 47.8515431], [7.5493628, 47.8515701], [7.5491068, 47.8521183], [7.5490835, 47.8521652], [7.5490665, 47.8522007], [7.5490644, 47.8522248], [7.5490687, 47.8522546], [7.5490856, 47.8522788], [7.5491046, 47.8523029], [7.5491173, 47.8523299], [7.5491194, 47.8523526], [7.5491173, 47.8523796], [7.5491089, 47.8524094], [7.5490919, 47.8524506], [7.5490602, 47.8525103], [7.5490157, 47.8526068], [7.5489903, 47.8526409], [7.5489734, 47.8526693], [7.5489649, 47.8526921], [7.5489565, 47.8527148], [7.5489649, 47.8527347], [7.5489798, 47.8527503], [7.5489819, 47.8527744], [7.5489692, 47.8527844], [7.5489417, 47.8527844], [7.5488972, 47.8527957], [7.548857, 47.8528099], [7.5488189, 47.8528256], [7.5486708, 47.8529207], [7.5486263, 47.8529605], [7.5485903, 47.8530002], [7.5485798, 47.8530414], [7.548584, 47.853084], [7.5485819, 47.8531224], [7.5485776, 47.8531508], [7.5485649, 47.8531778], [7.5485459, 47.8532019], [7.548512, 47.8532175], [7.5484824, 47.8532332], [7.5484591, 47.8532459], [7.548438, 47.8532644], [7.5483977, 47.8533198], [7.5483808, 47.853378], [7.5483808, 47.8534107], [7.548366, 47.8534533], [7.5483469, 47.8534845], [7.5483491, 47.8535243], [7.5483618, 47.8535527], [7.5483766, 47.8535811], [7.5483808, 47.8536251], [7.5483829, 47.8536663], [7.548385, 47.8537174], [7.5483766, 47.8537544], [7.5483385, 47.8537998], [7.5482856, 47.853858], [7.5482517, 47.8539177], [7.5481946, 47.8540696], [7.5481332, 47.8542159], [7.5481014, 47.8542898], [7.5480803, 47.8543253], [7.5480655, 47.854348], [7.5480358, 47.8543764], [7.5479914, 47.8544119], [7.5479279, 47.8544545], [7.5478305, 47.8544886], [7.5477543, 47.8545127], [7.5475321, 47.8545525], [7.5474559, 47.8545837], [7.547403, 47.8546235], [7.5473501, 47.8546775], [7.547293, 47.8547101], [7.5472612, 47.8547414], [7.5472443, 47.8547698], [7.5472337, 47.8547925], [7.5472104, 47.8548337], [7.5471808, 47.8548735], [7.5471575, 47.8549146], [7.5471321, 47.8549501], [7.5471258, 47.8549729], [7.5471131, 47.855051], [7.5471004, 47.8551277], [7.5471046, 47.8551816], [7.5471236, 47.8552043], [7.5471512, 47.8552271], [7.5471639, 47.8552413], [7.547185, 47.8552668], [7.5471893, 47.8552825], [7.5471893, 47.8553038], [7.5471808, 47.8553222], [7.5471512, 47.8553549], [7.5471363, 47.8553918], [7.5471236, 47.8554529], [7.5471427, 47.8554955], [7.5471702, 47.8555253], [7.5472231, 47.8556276], [7.5472443, 47.8556545], [7.5472612, 47.8556872], [7.5472591, 47.8557199], [7.5472295, 47.8557483], [7.5471639, 47.8558349], [7.5470348, 47.8559528], [7.5468506, 47.8561019], [7.5467321, 47.8562169], [7.5466728, 47.8562623], [7.5466474, 47.8563007], [7.5466348, 47.8563248], [7.5466136, 47.8563575], [7.5465818, 47.8563831], [7.5465353, 47.8564257], [7.5465078, 47.8564526], [7.5464676, 47.8564881], [7.54644, 47.8565109], [7.5464083, 47.8565336], [7.5463871, 47.8565478], [7.5463723, 47.8565634], [7.5463723, 47.8565776], [7.5463787, 47.8565947], [7.5463702, 47.8566117], [7.5463511, 47.856616], [7.5463215, 47.8566046], [7.5463109, 47.8565961], [7.5462877, 47.8565932], [7.5462517, 47.8566018], [7.5462136, 47.8566302], [7.5462136, 47.8566486], [7.5462136, 47.8566685], [7.5461945, 47.8566784], [7.5461607, 47.8566884], [7.546131, 47.8567125], [7.5460993, 47.8567509], [7.5460951, 47.856775], [7.5461078, 47.8567821], [7.5461226, 47.8567949], [7.5461141, 47.8568176], [7.5460993, 47.8568219], [7.5460633, 47.8568275], [7.5460294, 47.856846], [7.5460019, 47.8568659], [7.5459723, 47.8568886], [7.5459511, 47.8569085], [7.5459469, 47.8569383], [7.5459384, 47.8569752], [7.5459321, 47.8570065], [7.5459321, 47.8570306], [7.5459406, 47.8570562], [7.5459469, 47.8570803], [7.5459469, 47.8570988], [7.5459384, 47.8571187], [7.5459257, 47.8571528], [7.5459257, 47.8571783], [7.5459427, 47.857201], [7.5459617, 47.8572223], [7.545966, 47.8572578], [7.5459681, 47.8572848], [7.5459744, 47.8573104], [7.5459914, 47.8573331], [7.5459956, 47.8573629], [7.5459998, 47.8574282], [7.5460125, 47.8575603], [7.5460146, 47.8576256], [7.5460337, 47.8576824], [7.5460527, 47.8577421], [7.546076, 47.8578287], [7.5460781, 47.8579253], [7.5460718, 47.8579594], [7.5460527, 47.8579991], [7.5460379, 47.858036], [7.5460252, 47.8580659], [7.5460083, 47.8582774], [7.5460168, 47.8585288], [7.5460273, 47.858871], [7.5460506, 47.8590855], [7.5460697, 47.8591962], [7.5461099, 47.8593666], [7.5461141, 47.8594575], [7.5461459, 47.8595825], [7.5461734, 47.8596563], [7.5461924, 47.8596932], [7.5462496, 47.8597671], [7.5462792, 47.8597955], [7.5463173, 47.8598793], [7.5463173, 47.859919], [7.5463173, 47.8599872]]]}}, {"type": "Feature", "properties": {"name": "Lac de Kruth-Wildenstein"}, "geometry": {"type": "Polygon", "coordinates": [[[6.9563997, 47.9618332], [6.9567877, 47.9619332], [6.9569054, 47.9621917], [6.9571952, 47.9623432], [6.957225, 47.9625594], [6.9576044, 47.9630321], [6.9579497, 47.9630694], [6.958254, 47.9631026], [6.9584281, 47.9632184], [6.9587052, 47.9634305], [6.9589047, 47.9633545], [6.9590282, 47.9634807], [6.9591391, 47.963513], [6.959172, 47.9634417], [6.9591558, 47.9632957], [6.9594229, 47.9631379], [6.9594507, 47.9630203], [6.9594372, 47.9628962], [6.9591364, 47.9626494], [6.959155, 47.9623666], [6.9591746, 47.9620791], [6.9593394, 47.9619888], [6.9594673, 47.9620651], [6.9596509, 47.9621379], [6.9603794, 47.9618412], [6.961159, 47.9613829], [6.9610848, 47.9610583], [6.9612604, 47.9607754], [6.9613762, 47.9603546], [6.9613919, 47.9593636], [6.9612841, 47.9584843], [6.9612792, 47.9580605], [6.9614415, 47.9580192], [6.9615566, 47.9574424], [6.9615608, 47.9569962], [6.9612765, 47.9565346], [6.9610351, 47.9563119], [6.9606817, 47.9561691], [6.9612733, 47.9558331], [6.9610024, 47.9556405], [6.9609922, 47.9553886], [6.960622, 47.9549876], [6.9606039, 47.9548038], [6.960627, 47.9546872], [6.9605869, 47.954612], [6.9605199, 47.954563], [6.960135, 47.9544341], [6.9598436, 47.9544078], [6.9595333, 47.9544418], [6.9589932, 47.9547697], [6.9586349, 47.9548203], [6.9581249, 47.954789], [6.9576183, 47.9546192], [6.9574649, 47.9545677], [6.9573989, 47.9545456], [6.9572254, 47.9542709], [6.9572325, 47.9539437], [6.9566247, 47.9532131], [6.9562258, 47.9522119], [6.955702, 47.9505539], [6.9555312, 47.9504575], [6.9554333, 47.950331], [6.9554682, 47.9502725], [6.955542, 47.9502159], [6.9556457, 47.9498532], [6.9557535, 47.9497432], [6.9559711, 47.9497319], [6.9560729, 47.9495862], [6.9560896, 47.949239], [6.9560385, 47.9487384], [6.9562393, 47.9482262], [6.9564852, 47.9475112], [6.9563413, 47.9474546], [6.9562702, 47.9473745], [6.9563121, 47.9472573], [6.956474, 47.9471914], [6.956535, 47.9469229], [6.9551856, 47.9466937], [6.9535344, 47.9464174], [6.9534527, 47.9466615], [6.9533247, 47.9468677], [6.9526219, 47.9475145], [6.9524725, 47.9477731], [6.9516615, 47.9485974], [6.9509112, 47.9498666], [6.9507819, 47.9502029], [6.9505309, 47.9507666], [6.9504923, 47.9513194], [6.9505905, 47.9516946], [6.9505285, 47.9521288], [6.9510614, 47.9531967], [6.9516041, 47.9541255], [6.9519475, 47.9543837], [6.95255, 47.9549242], [6.9525185, 47.9551538], [6.9538064, 47.9559877], [6.9541408, 47.9561388], [6.9540853, 47.9564355], [6.9543128, 47.9568077], [6.9545275, 47.957213], [6.95485, 47.9573303], [6.955255, 47.9571884], [6.9556357, 47.957168], [6.9564211, 47.9574555], [6.9567623, 47.95781], [6.9567688, 47.9603182], [6.9567092, 47.9609606], [6.9566644, 47.9615253], [6.9563997, 47.9618332]]]}}]}