{"type": "FeatureCollection", "features": [{"type": "Feature", "properties": {"name": "Le Grand Large"}, "geometry": {"type": "Polygon", "coordinates": [[[4.9886459, 45.7934791], [4.9890233, 45.7933413], [4.9890196, 45.7932694], [4.9890189, 45.7932557], [4.989002, 45.7931782], [4.9891897, 45.7930105], [4.9893211, 45.792852], [4.9893934, 45.7927037], [4.9894431, 45.7925653], [4.9894795, 45.7923943], [4.989465, 45.792221], [4.9897418, 45.7919553], [4.9899092, 45.7919005], [4.9898304, 45.791791], [4.989849, 45.7917487], [4.9898152, 45.7916438], [4.9897695, 45.7916455], [4.989734, 45.791593], [4.9897729, 45.7915727], [4.9897306, 45.7914323], [4.989657, 45.7914476], [4.9895711, 45.7910917], [4.9894479, 45.7906104], [4.9893344, 45.7902636], [4.9892969, 45.7898886], [4.9893365, 45.7896888], [4.9892234, 45.7893811], [4.9890537, 45.7886961], [4.9890363, 45.7886126], [4.9889789, 45.7883376], [4.9889021, 45.7879697], [4.988893, 45.7878401], [4.9888525, 45.7876942], [4.9889384, 45.7875125], [4.9889607, 45.7874778], [4.9891101, 45.7872452], [4.9893209, 45.7869622], [4.98933, 45.78695], [4.9894049, 45.7868539], [4.9894062, 45.7868277], [4.9894077, 45.7867983], [4.9896333, 45.7865613], [4.9896397, 45.7865259], [4.9897903, 45.7865009], [4.9898491, 45.7865227], [4.9899245, 45.7864447], [4.9899528, 45.7863898], [4.9899834, 45.7863305], [4.9900076, 45.786254], [4.9898028, 45.7861034], [4.9897977, 45.7859048], [4.9900101, 45.7856046], [4.9900377, 45.7855711], [4.9900614, 45.7855409], [4.9900935, 45.7855389], [4.9900997, 45.7855385], [4.9901094, 45.7855378], [4.9901653, 45.7855342], [4.9901659, 45.7854835], [4.9902941, 45.785484], [4.9903066, 45.7854773], [4.990407, 45.7853057], [4.9904404, 45.7852421], [4.9904949, 45.7851587], [4.9904983, 45.7851239], [4.9905188, 45.7849108], [4.9904547, 45.7847739], [4.990307, 45.7846555], [4.9901297, 45.7844882], [4.9901338, 45.7844414], [4.990116, 45.7844334], [4.9900979, 45.7844252], [4.9901095, 45.7843581], [4.9900527, 45.784321], [4.9899775, 45.784365], [4.9898291, 45.7843924], [4.9898149, 45.7843515], [4.9897959, 45.7842965], [4.9896935, 45.784168], [4.9896548, 45.7840984], [4.9896226, 45.7840404], [4.9895216, 45.7838409], [4.9894688, 45.78366], [4.9893755, 45.7835169], [4.9893408, 45.7834267], [4.9891991, 45.7833683], [4.9891153, 45.7833027], [4.989067, 45.7832248], [4.9889687, 45.7830874], [4.9887729, 45.7828927], [4.9884952, 45.78289], [4.988614, 45.7827343], [4.9883199, 45.7824017], [4.9882126, 45.7823718], [4.9881174, 45.7823017], [4.9880504, 45.7821932], [4.9879713, 45.7820276], [4.9878894, 45.7818761], [4.9877567, 45.7817106], [4.9876427, 45.7815525], [4.9875797, 45.7812888], [4.9874187, 45.7811681], [4.9872538, 45.7810044], [4.9871612, 45.7808642], [4.986665, 45.7805181], [4.9860534, 45.7801427], [4.9857518, 45.7799672], [4.9854755, 45.7799008], [4.9852623, 45.7798101], [4.9851188, 45.7797268], [4.985037, 45.7796464], [4.9849632, 45.7795781], [4.9849316, 45.7795712], [4.9848143, 45.7795454], [4.9846159, 45.7795594], [4.9843557, 45.7795295], [4.9837924, 45.7794163], [4.9835054, 45.7793957], [4.9831769, 45.7792938], [4.9825774, 45.7792582], [4.9816225, 45.7793041], [4.9810613, 45.7793354], [4.9804725, 45.7793747], [4.9797554, 45.7793821], [4.9794979, 45.779327], [4.979467, 45.7793775], [4.979239, 45.7793518], [4.9789815, 45.7792998], [4.9788836, 45.779305], [4.9787254, 45.7793223], [4.9785832, 45.7793957], [4.9785604, 45.7793892], [4.9782749, 45.7792996], [4.9780638, 45.7792333], [4.9778842, 45.7792592], [4.9777477, 45.7791937], [4.9774975, 45.7790355], [4.9773087, 45.7788854], [4.9773451, 45.778802], [4.9773422, 45.7787458], [4.9772667, 45.7787001], [4.9767701, 45.7784622], [4.9765045, 45.7783439], [4.9764603, 45.7783425], [4.9763677, 45.7783173], [4.9763798, 45.7782883], [4.9762822, 45.778286], [4.9760516, 45.7782112], [4.975897, 45.7781611], [4.9758762, 45.7781255], [4.9758816, 45.778075], [4.9758494, 45.7780395], [4.9757693, 45.777839], [4.9755037, 45.7778709], [4.9754509, 45.7778575], [4.9754033, 45.7778422], [4.9748213, 45.7777231], [4.9740453, 45.7776375], [4.9736942, 45.777641], [4.9732287, 45.7777242], [4.9725324, 45.7777945], [4.9721446, 45.7778235], [4.9718978, 45.7778809], [4.9717612, 45.7778663], [4.9716489, 45.7778844], [4.9714506, 45.7779162], [4.9713195, 45.7779546], [4.970769, 45.7780403], [4.9695504, 45.7781623], [4.9694617, 45.7781732], [4.9692089, 45.7782163], [4.9689015, 45.7784077], [4.9687493, 45.7783982], [4.968675, 45.7783575], [4.9686368, 45.7782085], [4.9681246, 45.7783179], [4.968012, 45.778342], [4.967827, 45.7784358], [4.9678291, 45.7784412], [4.9678834, 45.7785804], [4.9677182, 45.7785982], [4.9675314, 45.778631], [4.9675087, 45.7786754], [4.9667839, 45.7788274], [4.9665659, 45.7788274], [4.9647364, 45.7788274], [4.9643276, 45.7788274], [4.9679666, 45.7802577], [4.9687814, 45.7808198], [4.9791521, 45.7874268], [4.9866633, 45.7922151], [4.9886459, 45.7934791]]]}}, {"type": "Feature", "properties": {"name": "Plan d'eau du Colombier"}, "geometry": {"type": "Polygon", "coordinates": [[[4.7283236, 45.9579748], [4.728374, 45.9579643], [4.7285806, 45.9580238], [4.7287216, 45.9580729], [4.7288325, 45.9580939], [4.7291499, 45.9581044], [4.7293615, 45.9581114], [4.7296033, 45.9581324], [4.7297393, 45.9581674], [4.7298754, 45.958241], [4.7300315, 45.9583215], [4.7301424, 45.9583601], [4.7303338, 45.9583601], [4.7305153, 45.9583604], [4.7306316, 45.9583553], [4.7307479, 45.9583124], [4.7308788, 45.9582366], [4.7313222, 45.9580142], [4.731489, 45.9579422], [4.7317039, 45.9578675], [4.7318373, 45.9577619], [4.7319484, 45.9577207], [4.7321855, 45.9577181], [4.7326263, 45.9577078], [4.7327374, 45.9576795], [4.7329448, 45.9575533], [4.7330374, 45.9574864], [4.7331634, 45.957337], [4.7331819, 45.9572598], [4.7331893, 45.9571336], [4.7332264, 45.9569018], [4.7333004, 45.9566494], [4.733356, 45.9563327], [4.7334153, 45.9560211], [4.7335005, 45.9556271], [4.7334801, 45.9554595], [4.7334837, 45.9552559], [4.7335057, 45.9550753], [4.7333996, 45.9549786], [4.733341, 45.9548743], [4.7331726, 45.9546911], [4.7329494, 45.9545358], [4.732232, 45.9541364], [4.7320366, 45.9540484], [4.7317974, 45.9539134], [4.731502, 45.9537452], [4.7312456, 45.95358], [4.7309138, 45.9533793], [4.7305118, 45.9531503], [4.7303063, 45.9530028], [4.7301339, 45.9528749], [4.729691, 45.9526634], [4.729264, 45.9523587], [4.7289537, 45.9520823], [4.7286798, 45.9518731], [4.7284014, 45.9516264], [4.7281915, 45.951517], [4.7280942, 45.9514857], [4.7279231, 45.9515764], [4.7277634, 45.9516406], [4.7276985, 45.9517226], [4.7275982, 45.9518169], [4.7274566, 45.95194], [4.7273917, 45.9520507], [4.7273858, 45.9521738], [4.7273799, 45.9522476], [4.7273445, 45.9524322], [4.7272897, 45.9524655], [4.7273231, 45.9525561], [4.7274339, 45.9525739], [4.7274876, 45.9525959], [4.7274912, 45.9526259], [4.7274566, 45.9526464], [4.7274566, 45.9526946], [4.7274802, 45.9528054], [4.7274979, 45.9528915], [4.7274625, 45.9529407], [4.7274448, 45.9530474], [4.7274448, 45.9531622], [4.7274123, 45.9532733], [4.7273519, 45.953376], [4.7272224, 45.9534165], [4.7270773, 45.9533934], [4.7269606, 45.9533391], [4.7269142, 45.9532293], [4.7268429, 45.9531871], [4.72679, 45.9530711], [4.7266701, 45.9530008], [4.7262954, 45.952877], [4.7259577, 45.9527342], [4.7257158, 45.9527424], [4.725627, 45.9528048], [4.7255388, 45.9527612], [4.7255861, 45.9525788], [4.7256393, 45.9524664], [4.7257069, 45.9523858], [4.7257845, 45.9522779], [4.7258732, 45.9522163], [4.7259951, 45.9521623], [4.7260782, 45.9521084], [4.7260948, 45.9520314], [4.7261059, 45.9519466], [4.7261336, 45.9518965], [4.7262001, 45.9518349], [4.7262777, 45.9518079], [4.7263774, 45.9516846], [4.726455, 45.9516153], [4.7264924, 45.9514794], [4.7264979, 45.951436], [4.7265054, 45.9513573], [4.7264599, 45.9512578], [4.7264117, 45.9512169], [4.7264013, 45.951208], [4.7263873, 45.9511843], [4.7263167, 45.9510587], [4.7262603, 45.9509279], [4.7261996, 45.9507873], [4.7259914, 45.9502717], [4.7259264, 45.9500545], [4.7258274, 45.949954], [4.7256377, 45.949999], [4.7252611, 45.9501172], [4.7248535, 45.9502636], [4.724515, 45.9503785], [4.7243403, 45.9504971], [4.7242352, 45.9506176], [4.7241632, 45.9506969], [4.7241697, 45.9509637], [4.7242088, 45.9513211], [4.7242348, 45.9515744], [4.7242023, 45.9516468], [4.7240526, 45.9518277], [4.7237729, 45.9523208], [4.7234671, 45.9528455], [4.7232003, 45.953325], [4.7230897, 45.9536235], [4.7230182, 45.9538089], [4.7229856, 45.9541029], [4.7229401, 45.9547362], [4.7229401, 45.9551342], [4.7229596, 45.9554011], [4.7230637, 45.9558489], [4.7231483, 45.9560569], [4.7234215, 45.9564143], [4.7236948, 45.9567806], [4.723916, 45.9570384], [4.7242235, 45.9572781], [4.7243811, 45.9574485], [4.7245503, 45.9575864], [4.7246203, 45.9576838], [4.7247779, 45.957838], [4.7248771, 45.9580246], [4.7249997, 45.9581585], [4.7251748, 45.9582437], [4.7254704, 45.9583267], [4.7257359, 45.958615], [4.7262015, 45.9585535], [4.7263192, 45.9585592], [4.7264705, 45.9585391], [4.7266188, 45.9585591], [4.7267858, 45.9585739], [4.7268513, 45.9585556], [4.726961, 45.9585695], [4.727173, 45.9585197], [4.7274985, 45.9584789], [4.7275815, 45.9584157], [4.7278304, 45.9583912], [4.7280489, 45.9583654], [4.7281706, 45.9583732], [4.7280733, 45.9582486], [4.7280465, 45.9580994], [4.7280787, 45.9580211], [4.7281699, 45.958036], [4.7282504, 45.9580136], [4.7283236, 45.9579748]]]}}, {"type": "Feature", "properties": {"name": "Lac des Sapins"}, "geometry": {"type": "Polygon", "coordinates": [[[4.3729312, 46.0087698], [4.3732935, 46.0087794], [4.373811, 46.0088965], [4.3741006, 46.0090232], [4.3743856, 46.0091532], [4.3744624, 46.0091882], [4.3745579, 46.0091697], [4.3746092, 46.0091783], [4.375241, 46.0094303], [4.3754056, 46.0095692], [4.3754144, 46.0096282], [4.3753631, 46.0096994], [4.3757102, 46.0098011], [4.3757573, 46.0097344], [4.3758514, 46.0096595], [4.3760151, 46.0096138], [4.3762003, 46.0096288], [4.3765592, 46.0096808], [4.3767816, 46.0096862], [4.3768176, 46.0096811], [4.3768447, 46.0096708], [4.3769762, 46.0096144], [4.3770863, 46.0095497], [4.377208, 46.0094299], [4.3773115, 46.0093655], [4.377413, 46.0093435], [4.3774917, 46.0092991], [4.3775419, 46.0092264], [4.3776766, 46.0091636], [4.3778426, 46.009157], [4.3779293, 46.0091206], [4.378089, 46.0090804], [4.3781641, 46.0089994], [4.3780155, 46.0089703], [4.3775631, 46.0088505], [4.3760962, 46.0078458], [4.3748731, 46.0073093], [4.371912, 46.0060648], [4.3699486, 46.0057816], [4.3683285, 46.0056996], [4.3683429, 46.0047643], [4.3683906, 46.0044839], [4.3683569, 46.0043837], [4.3682858, 46.0043222], [4.3680672, 46.0042635], [4.367964, 46.0042914], [4.3676595, 46.0043893], [4.3674517, 46.0044936], [4.3672974, 46.0045318], [4.3672022, 46.0045765], [4.3669984, 46.0047628], [4.3669372, 46.0049309], [4.3668012, 46.0051429], [4.3666202, 46.0054801], [4.3666269, 46.0055453], [4.3666618, 46.0055546], [4.3665934, 46.0057651], [4.3665639, 46.005767], [4.3665142, 46.0058564], [4.3664378, 46.0059058], [4.3662554, 46.0059505], [4.3661387, 46.0059598], [4.3658504, 46.0059682], [4.3656962, 46.0059505], [4.3655795, 46.0059086], [4.3654776, 46.005821], [4.3654065, 46.0057046], [4.3654065, 46.0055863], [4.3654843, 46.0051745], [4.3654735, 46.0050339], [4.3654454, 46.0049566], [4.3651181, 46.0046557], [4.3649358, 46.0045784], [4.3648633, 46.004501], [4.3644449, 46.0038378], [4.364237, 46.0035853], [4.3641646, 46.0035704], [4.3640922, 46.0035714], [4.3640077, 46.0035872], [4.363942, 46.0035928], [4.3638843, 46.0035714], [4.3637435, 46.0035108], [4.3636711, 46.0035052], [4.361488, 46.0039891], [4.3615862, 46.0042038], [4.3615455, 46.0042465], [4.361496, 46.0042549], [4.3622187, 46.0055695], [4.3622723, 46.0058266], [4.3624011, 46.0060744], [4.3625593, 46.0063147], [4.3627068, 46.0067376], [4.3628651, 46.0069463], [4.3631145, 46.0071158], [4.3632781, 46.0071903], [4.3634954, 46.0073393], [4.3638495, 46.0075126], [4.3641606, 46.0075871], [4.3642464, 46.0075759], [4.3644369, 46.0076076], [4.3646675, 46.0076076], [4.364807, 46.0076505], [4.3650082, 46.0076505], [4.3654507, 46.0077473], [4.3656251, 46.0077548], [4.3661186, 46.007833], [4.3663064, 46.0078088], [4.3664002, 46.0078181], [4.3670145, 46.0079057], [4.3672451, 46.0079038], [4.3674034, 46.0078777], [4.3675724, 46.0077753], [4.3679076, 46.0075629], [4.3681678, 46.0074884], [4.3684173, 46.0074567], [4.3685836, 46.0074586], [4.368884, 46.0075517], [4.3694848, 46.0078405], [4.3697879, 46.0080473], [4.3699126, 46.0081862], [4.3701032, 46.0081719], [4.370485, 46.0080172], [4.3708284, 46.0078607], [4.3712068, 46.0078274], [4.3715662, 46.0079448], [4.3720865, 46.0082969], [4.3723172, 46.0085335], [4.3725049, 46.0086415], [4.3729312, 46.0087698]]]}}, {"type": "Feature", "properties": {"name": "Carrière des Rives du Beaujolais - plan d'eau n°2"}, "geometry": {"type": "Polygon", "coordinates": [[[4.7350414, 45.9587272], [4.735142, 45.958648], [4.735156, 45.958605], [4.735153, 45.958528], [4.735144, 45.958472], [4.735105, 45.95844], [4.735037, 45.95837], [4.734978, 45.958304], [4.7354382, 45.9578823], [4.7354867, 45.9577657], [4.7353764, 45.9576474], [4.735317, 45.957551], [4.7352829, 45.9574592], [4.7350857, 45.957259], [4.7348015, 45.9570357], [4.7346062, 45.9569223], [4.7343488, 45.9568272], [4.734112, 45.9568033], [4.733959, 45.956767], [4.733972, 45.956682], [4.733958, 45.956597], [4.733986, 45.956535], [4.733999, 45.95646], [4.734012, 45.956369], [4.734048, 45.956302], [4.734049, 45.956203], [4.734089, 45.956129], [4.734149, 45.955932], [4.734197, 45.955718], [4.73423, 45.955605], [4.734274, 45.955576], [4.734432, 45.955449], [4.734479, 45.955368], [4.73453, 45.955307], [4.734623, 45.955222], [4.734707, 45.955137], [4.734763, 45.955064], [4.734777, 45.954989], [4.7348126, 45.9549152], [4.7353634, 45.9552451], [4.735305, 45.955282], [4.7352557, 45.9553064], [4.73518, 45.955349], [4.735178, 45.955412], [4.735147, 45.955493], [4.735116, 45.95554], [4.73506, 45.955607], [4.735045, 45.955665], [4.735151, 45.955755], [4.735253, 45.955826], [4.735388, 45.955916], [4.735581, 45.956011], [4.735716, 45.956106], [4.735833, 45.956177], [4.736098, 45.956328], [4.736245, 45.956409], [4.7364, 45.956479], [4.736588, 45.956562], [4.736619, 45.956614], [4.736638, 45.956686], [4.73668, 45.956717], [4.736767, 45.956744], [4.736765, 45.95679], [4.736775, 45.956856], [4.736818, 45.956905], [4.7369, 45.956909], [4.73693, 45.956935], [4.73696, 45.956954], [4.736969, 45.956997], [4.736924, 45.957128], [4.737075, 45.957209], [4.737181, 45.957273], [4.737422, 45.957353], [4.737565, 45.957423], [4.737663, 45.957511], [4.737738, 45.957564], [4.737881, 45.957649], [4.738025, 45.957744], [4.738135, 45.957829], [4.738222, 45.957865], [4.738331, 45.957898], [4.738443, 45.957913], [4.738542, 45.957915], [4.738752, 45.957886], [4.738843, 45.957907], [4.738907, 45.957964], [4.738996, 45.958029], [4.739084, 45.958082], [4.739142, 45.95811], [4.739222, 45.958146], [4.739269, 45.958195], [4.739323, 45.958208], [4.739387, 45.958245], [4.739421, 45.958293], [4.739521, 45.958444], [4.739596, 45.958483], [4.739646, 45.9585], [4.739721, 45.958519], [4.739793, 45.958558], [4.73986, 45.958609], [4.739895, 45.958672], [4.739896, 45.958706], [4.739814, 45.958716], [4.739828, 45.958753], [4.739853, 45.958791], [4.739967, 45.958852], [4.740062, 45.958859], [4.740133, 45.95889], [4.740234, 45.958954], [4.74033, 45.958982], [4.740431, 45.959029], [4.740602, 45.959096], [4.740609, 45.95917], [4.740709, 45.959201], [4.740871, 45.959241], [4.741004, 45.95928], [4.741214, 45.959374], [4.741364, 45.959447], [4.741404, 45.959504], [4.741451, 45.959561], [4.7416517, 45.9596381], [4.7419628, 45.9598768], [4.7426066, 45.9605182], [4.7427723, 45.9606289], [4.7432932, 45.9607121], [4.7446772, 45.9616742], [4.7445378, 45.9618532], [4.7445914, 45.9619949], [4.7460876, 45.9626426], [4.746469, 45.962979], [4.746993, 45.96355], [4.747081, 45.963621], [4.747078, 45.963635], [4.747116, 45.963669], [4.747162, 45.963683], [4.747163, 45.963712], [4.747151, 45.963741], [4.747198, 45.963786], [4.747249, 45.963846], [4.747296, 45.963868], [4.747329, 45.963865], [4.7474, 45.963887], [4.747429, 45.963915], [4.747435, 45.963952], [4.747436, 45.963993], [4.747483, 45.964044], [4.747521, 45.964057], [4.747567, 45.964091], [4.747635, 45.964171], [4.74769, 45.964182], [4.747719, 45.96421], [4.747716, 45.964247], [4.747742, 45.964273], [4.747818, 45.964335], [4.747872, 45.964323], [4.747906, 45.964345], [4.747945, 45.964434], [4.747966, 45.964437], [4.748, 45.964453], [4.748013, 45.964491], [4.748026, 45.964522], [4.748064, 45.964527], [4.748122, 45.964547], [4.748166, 45.964615], [4.748203, 45.964632], [4.748275, 45.964674], [4.748314, 45.964719], [4.748294, 45.96476], [4.748279, 45.9648], [4.748222, 45.964813], [4.748297, 45.964852], [4.748339, 45.964886], [4.748399, 45.964931], [4.74845, 45.964994], [4.748465, 45.96508], [4.748443, 45.965138], [4.748386, 45.965193], [4.74828, 45.965247], [4.748117, 45.965313], [4.747824, 45.965447], [4.747685, 45.96548], [4.747579, 45.965514], [4.747466, 45.965587], [4.7460508, 45.966279], [4.7458738, 45.9662939], [4.7456968, 45.9662342], [4.7448001, 45.9654504], [4.7445702, 45.9654139], [4.7443717, 45.9654959], [4.7442269, 45.9655109], [4.7436905, 45.9658092], [4.7435993, 45.9658502], [4.7434866, 45.9658837], [4.7432291, 45.9658427], [4.742006, 45.9647614], [4.741855, 45.9644735], [4.7420052, 45.9640932], [4.7422144, 45.9639291], [4.7422842, 45.963765], [4.7422788, 45.9636271], [4.7421393, 45.9634779], [4.7414264, 45.9635159], [4.74089, 45.9634637], [4.7405407, 45.9634332], [4.7403428, 45.9634041], [4.7381911, 45.9613822], [4.737881, 45.961055], [4.737738, 45.960953], [4.737492, 45.960758], [4.737386, 45.960662], [4.737531, 45.9605852], [4.7376488, 45.9605517], [4.7380299, 45.9607122], [4.7384213, 45.9604666], [4.7384317, 45.9603486], [4.7383475, 45.9602533], [4.7378355, 45.9599888], [4.7374852, 45.95982], [4.7373698, 45.9597275], [4.7370281, 45.9595293], [4.7367811, 45.9595185], [4.7366472, 45.9596116], [4.736623, 45.959778], [4.7365, 45.9598], [4.736454, 45.959764], [4.736393, 45.95969], [4.736382, 45.959615], [4.736297, 45.959515], [4.736259, 45.959473], [4.736188, 45.959477], [4.736172, 45.959457], [4.736136, 45.95938], [4.736055, 45.959303], [4.735949, 45.959216], [4.735864, 45.959125], [4.735752, 45.958997], [4.735681, 45.958943], [4.735543, 45.958908], [4.7354427, 45.9589648], [4.7350414, 45.9587272]]]}}, {"type": "Feature", "properties": {"name": "Carrière des Rives du Beaujolais - plan d'eau n°3"}, "geometry": {"type": "Polygon", "coordinates": [[[4.7354427, 45.9589648], [4.735268, 45.959082], [4.73524, 45.959117], [4.7353218, 45.9592352], [4.7354506, 45.9593806], [4.7355471, 45.9595671], [4.7349517, 45.9597797], [4.7343778, 45.9599956], [4.7340023, 45.9601896], [4.733895, 45.960294], [4.7339358, 45.9604513], [4.7339418, 45.9607074], [4.7339687, 45.9609863], [4.734065, 45.961252], [4.7341953, 45.9615242], [4.7343919, 45.9617474], [4.7343976, 45.9619973], [4.734402, 45.9621438], [4.7344906, 45.9622068], [4.7345599, 45.9622675], [4.7345951, 45.9623657], [4.7345656, 45.9624198], [4.7344717, 45.962444], [4.7344181, 45.9625316], [4.7342357, 45.9626249], [4.7340238, 45.962692], [4.7339675, 45.9627759], [4.7340006, 45.9628695], [4.7342192, 45.9629235], [4.7343598, 45.9628958], [4.7357304, 45.9631669], [4.7359272, 45.9633379], [4.7367668, 45.963787], [4.7374731, 45.9640251], [4.7375187, 45.9641015], [4.7373524, 45.9642115], [4.7373471, 45.9642954], [4.7373953, 45.9643663], [4.7376958, 45.9644278], [4.7378969, 45.9648641], [4.7380176, 45.9649685], [4.7380552, 45.9650952], [4.7381356, 45.9652146], [4.7381437, 45.9653078], [4.7378889, 45.9653619], [4.7378191, 45.9654308], [4.7378084, 45.9655203], [4.7378567, 45.9657608], [4.7379184, 45.9658335], [4.7380042, 45.9658671], [4.7381544, 45.9658988], [4.7382832, 45.9659901], [4.7383153, 45.9661076], [4.738318, 45.966253], [4.7385004, 45.9666427], [4.7385058, 45.966762], [4.7387847, 45.9672747], [4.7390234, 45.9679458], [4.7390798, 45.9682441], [4.7389993, 45.9684119], [4.7388491, 45.9685088], [4.7377145, 45.9688258], [4.736529, 45.9691017], [4.7364324, 45.9691054], [4.7362688, 45.96896], [4.7358611, 45.9685405], [4.7357485, 45.9683877], [4.73566, 45.9683261], [4.7348794, 45.9671796], [4.7347265, 45.9670715], [4.7346729, 45.9669335], [4.7345763, 45.9668422], [4.7344959, 45.9666706], [4.7339004, 45.9656937], [4.7335315, 45.9648993], [4.7337127, 45.9648342], [4.7339326, 45.9647858], [4.7339997, 45.9647652], [4.7340828, 45.9645825], [4.7337368, 45.9642991], [4.7335437, 45.9641798], [4.7334713, 45.9640946], [4.7335087, 45.9639808], [4.7335178, 45.9638572], [4.73337, 45.9637576], [4.7332136, 45.9636543], [4.7334994, 45.9635022], [4.7333209, 45.9633466], [4.732955, 45.9631883], [4.7328654, 45.962943], [4.7328654, 45.9624744], [4.7328795, 45.9621931], [4.7328035, 45.9619637], [4.732817, 45.9616277], [4.732574, 45.9613411], [4.7322863, 45.9609705], [4.7317491, 45.9608995], [4.7311794, 45.9609003], [4.7310485, 45.9608712], [4.7305948, 45.9605873], [4.7303804, 45.9605299], [4.7302294, 45.9604236], [4.7301611, 45.9602187], [4.7302585, 45.9600654], [4.7303334, 45.9600171], [4.7295961, 45.9597446], [4.7297948, 45.9594258], [4.7309748, 45.9597714], [4.7313748, 45.9597381], [4.7315453, 45.9597471], [4.7319999, 45.9597995], [4.7326079, 45.9596168], [4.7328164, 45.959545], [4.7328508, 45.9594457], [4.7329561, 45.959465], [4.7331154, 45.9594756], [4.7332745, 45.9593934], [4.7333987, 45.9592179], [4.734762, 45.958859], [4.734834, 45.958837], [4.734914, 45.958817], [4.7350414, 45.9587272], [4.7354427, 45.9589648]]]}}, {"type": "Feature", "properties": {"name": "Lac des Eaux Bleues"}, "geometry": {"type": "Polygon", "coordinates": [[[4.9428275, 45.8010853], [4.9429247, 45.8009752], [4.943082, 45.8008925], [4.943069, 45.8008118], [4.9429678, 45.8006916], [4.9427735, 45.8003739], [4.942711, 45.8002276], [4.9425704, 45.8000865], [4.9424626, 45.799941], [4.9422742, 45.7999231], [4.9422217, 45.7998486], [4.9420754, 45.7998383], [4.9418711, 45.7998787], [4.941678, 45.7999545], [4.9416183, 45.7999907], [4.9415516, 45.8000163], [4.9414711, 45.8000298], [4.9414081, 45.8000664], [4.9413863, 45.8001756], [4.9414009, 45.8002673], [4.9414239, 45.8003819], [4.9413997, 45.800587], [4.9414893, 45.8006408], [4.9418842, 45.8007106], [4.9420534, 45.8007642], [4.9424132, 45.8007968], [4.9425011, 45.8008394], [4.9425371, 45.8008732], [4.9425008, 45.8009459], [4.9422577, 45.8010306], [4.9421969, 45.8011274], [4.9422317, 45.8013513], [4.9421969, 45.8014724], [4.9418323, 45.8018173], [4.9417629, 45.8019505], [4.9418497, 45.8022591], [4.9419973, 45.8023923], [4.9423738, 45.8025925], [4.9424868, 45.8027296], [4.942508, 45.802827], [4.9424824, 45.802898], [4.9423848, 45.8029307], [4.9421929, 45.8029341], [4.9419654, 45.8029141], [4.9418971, 45.8028471], [4.9417812, 45.8027101], [4.9416139, 45.8026059], [4.9414761, 45.8024891], [4.9413221, 45.8024665], [4.9412393, 45.8020456], [4.941153, 45.8019161], [4.9408035, 45.8017373], [4.9398772, 45.8014757], [4.9397097, 45.8013229], [4.939465, 45.8011728], [4.9392236, 45.8010599], [4.9385752, 45.800797], [4.9379737, 45.8006235], [4.9372938, 45.8001906], [4.9371726, 45.8002288], [4.9370744, 45.8002598], [4.9373795, 45.8003854], [4.9373353, 45.8004855], [4.9374144, 45.8005406], [4.9374962, 45.8005107], [4.9376008, 45.8005406], [4.9375566, 45.8006395], [4.9376571, 45.8006332], [4.937806, 45.8006809], [4.9378355, 45.8007407], [4.938042, 45.8008249], [4.938498, 45.800995], [4.9385087, 45.8009287], [4.9385811, 45.8009464], [4.9387072, 45.8010521], [4.9387327, 45.8010053], [4.9388252, 45.8010334], [4.9388319, 45.8010932], [4.9389432, 45.801153], [4.9390613, 45.8011147], [4.9391189, 45.8011343], [4.9390505, 45.8011932], [4.939081, 45.8012146], [4.939241, 45.8011839], [4.939419, 45.8014421], [4.939379, 45.8015416], [4.9393764, 45.8016364], [4.939319, 45.801669], [4.9392336, 45.8018164], [4.9391332, 45.8017886], [4.9389118, 45.8017952], [4.9384908, 45.8017447], [4.9379815, 45.801625], [4.9375349, 45.8016577], [4.9372846, 45.8017625], [4.9369075, 45.8020018], [4.9366767, 45.8023255], [4.9363692, 45.8029795], [4.9361865, 45.8034171], [4.9358157, 45.8035997], [4.9354873, 45.8037065], [4.9351359, 45.8037907], [4.9349119, 45.8037941], [4.9346845, 45.8037827], [4.9339818, 45.8036546], [4.9337987, 45.8040986], [4.9336186, 45.8045106], [4.9338813, 45.8045832], [4.9345838, 45.8047592], [4.9350687, 45.8049498], [4.9354643, 45.8052142], [4.9355289, 45.8052574], [4.9356349, 45.8053061], [4.9362162, 45.805573], [4.9363031, 45.8056822], [4.936322, 45.8058494], [4.9362309, 45.8062129], [4.9361605, 45.806445], [4.9360808, 45.8066465], [4.9361079, 45.8068085], [4.9360965, 45.8068861], [4.936134, 45.8071049], [4.9361962, 45.8071769], [4.9364599, 45.807246], [4.9366664, 45.8073274], [4.9370526, 45.8074076], [4.9374048, 45.8075406], [4.9375923, 45.8077178], [4.9377235, 45.8080205], [4.938052, 45.8082028], [4.9382377, 45.8083907], [4.9384305, 45.8085092], [4.9385273, 45.8086801], [4.9386499, 45.8088344], [4.9390074, 45.8089731], [4.9391438, 45.8089777], [4.9392937, 45.8089591], [4.9393617, 45.8089005], [4.9395736, 45.8089752], [4.9396081, 45.8090512], [4.9395747, 45.8090856], [4.9397119, 45.809117], [4.9399272, 45.8091001], [4.9402334, 45.8089753], [4.9404484, 45.8089932], [4.9405862, 45.8089253], [4.9405533, 45.8088288], [4.9396355, 45.8085353], [4.9394985, 45.8085611], [4.9394539, 45.8085677], [4.9393412, 45.8085242], [4.9393165, 45.8084112], [4.9394308, 45.8082379], [4.9396283, 45.8081858], [4.940077, 45.8081963], [4.9404981, 45.80837], [4.9408246, 45.8083477], [4.940961, 45.8083295], [4.9412351, 45.8082562], [4.9414366, 45.8082314], [4.941596, 45.8082661], [4.9416996, 45.80836], [4.9418657, 45.8084076], [4.9420182, 45.8084322], [4.9422388, 45.8084149], [4.942541, 45.8082771], [4.942587, 45.8082171], [4.9425832, 45.8081649], [4.9426562, 45.8081286], [4.9429033, 45.8082736], [4.9430927, 45.8082558], [4.9434772, 45.8081173], [4.9436258, 45.8080855], [4.9437356, 45.8081133], [4.943818, 45.8081341], [4.9443245, 45.8080255], [4.9447616, 45.8078812], [4.9451785, 45.8079885], [4.945199, 45.80799], [4.9453966, 45.808004], [4.9455706, 45.8080828], [4.9457385, 45.8082241], [4.9459808, 45.8082851], [4.9460505, 45.8083819], [4.9459435, 45.8085616], [4.9458287, 45.8086399], [4.9455999, 45.8087029], [4.9447247, 45.8087159], [4.9445297, 45.8086758], [4.944419, 45.8085863], [4.9443679, 45.8085375], [4.9439785, 45.808475], [4.9440021, 45.8086671], [4.9441634, 45.8088769], [4.9442145, 45.8090845], [4.9443864, 45.8091443], [4.9445482, 45.8092485], [4.9447555, 45.8093188], [4.94509, 45.8093285], [4.9453893, 45.8094188], [4.9457571, 45.8096041], [4.9461934, 45.8097684], [4.946628, 45.8098015], [4.9467927, 45.8098613], [4.9473125, 45.8101857], [4.947511, 45.8102549], [4.9478186, 45.8104471], [4.9480788, 45.8105647], [4.9484315, 45.8106649], [4.9489298, 45.8106417], [4.9491487, 45.8105647], [4.9492203, 45.8104596], [4.9489865, 45.8097344], [4.9487198, 45.8093165], [4.9484315, 45.8090395], [4.9481531, 45.8089404], [4.9480656, 45.8087254], [4.9478778, 45.8086308], [4.9477234, 45.8086789], [4.9475947, 45.8087289], [4.9474197, 45.8087579], [4.9472958, 45.8087466], [4.9472862, 45.8086032], [4.9472976, 45.8084564], [4.9473615, 45.808369], [4.9472266, 45.8082467], [4.9472376, 45.8079614], [4.9473113, 45.8078376], [4.9473074, 45.8077047], [4.9474057, 45.8076119], [4.9477164, 45.8075869], [4.9480096, 45.8076703], [4.9484768, 45.8077262], [4.9486914, 45.8078739], [4.9491436, 45.8083533], [4.9492836, 45.8086371], [4.9493791, 45.8087515], [4.9499831, 45.8090554], [4.9502101, 45.8092368], [4.9518916, 45.8102415], [4.951982, 45.810363], [4.9520085, 45.8104673], [4.952024, 45.8105724], [4.9521439, 45.810689], [4.9523314, 45.8107315], [4.9527233, 45.8107277], [4.9534137, 45.8107868], [4.9535789, 45.8108563], [4.9536612, 45.8109637], [4.9537409, 45.811114], [4.953805, 45.8112], [4.953983, 45.8113104], [4.9540688, 45.8113957], [4.9540869, 45.8114881], [4.9539732, 45.8117366], [4.9540126, 45.8118562], [4.9545185, 45.812006], [4.9549922, 45.8120558], [4.955829, 45.812077], [4.9559946, 45.8121935], [4.9565304, 45.8123066], [4.9568332, 45.8124579], [4.95713, 45.8125309], [4.9573749, 45.812567], [4.957536, 45.812579], [4.9579674, 45.8126641], [4.9580254, 45.8126843], [4.9580598, 45.8126653], [4.9583095, 45.8125933], [4.958469, 45.8124946], [4.9586042, 45.8122862], [4.9585631, 45.8122437], [4.9587124, 45.8120378], [4.9586996, 45.8119967], [4.9588174, 45.8118579], [4.9588447, 45.8118528], [4.959019, 45.8118252], [4.9591687, 45.8118038], [4.9596031, 45.8116838], [4.9604174, 45.8115966], [4.9612121, 45.8115349], [4.9616753, 45.8114867], [4.9620481, 45.8114357], [4.9625558, 45.811377], [4.9628704, 45.8113781], [4.9630468, 45.8113545], [4.9632831, 45.8112934], [4.9641245, 45.8111758], [4.9643783, 45.8111384], [4.9645788, 45.8110671], [4.965049, 45.810797], [4.9654399, 45.8105699], [4.9654732, 45.8104763], [4.9654823, 45.8103151], [4.965545, 45.8102192], [4.9656843, 45.8101756], [4.9658436, 45.8101644], [4.9661145, 45.8100819], [4.9663607, 45.8101141], [4.9665284, 45.8100746], [4.9672917, 45.809674], [4.9675388, 45.8094461], [4.9677595, 45.8093155], [4.9680991, 45.8091571], [4.9686266, 45.8090681], [4.9692524, 45.8088325], [4.9697596, 45.8087489], [4.9708008, 45.8084118], [4.9710546, 45.8082517], [4.97119, 45.8082047], [4.9712287, 45.8080609], [4.9711874, 45.8080039], [4.9711254, 45.8079784], [4.9710265, 45.8078586], [4.970968, 45.807763], [4.970913, 45.8075701], [4.9708615, 45.8075113], [4.9707797, 45.8074609], [4.9707961, 45.8072595], [4.9709434, 45.8071945], [4.9711671, 45.8070588], [4.9713544, 45.8069195], [4.9713953, 45.8068784], [4.9713711, 45.8067382], [4.9714473, 45.8066222], [4.9714881, 45.8065814], [4.9715803, 45.8066381], [4.9717063, 45.8065918], [4.9717405, 45.8064848], [4.9718164, 45.8064577], [4.97187, 45.8065063], [4.9719777, 45.8064911], [4.9717285, 45.8062309], [4.9718432, 45.8061685], [4.9720106, 45.8062713], [4.9719204, 45.8061569], [4.972049, 45.8061012], [4.972153, 45.8061025], [4.9721833, 45.8061496], [4.972341, 45.8061254], [4.9723774, 45.8060629], [4.972356, 45.8059582], [4.9722211, 45.8058677], [4.972169, 45.8058907], [4.9722093, 45.8059803], [4.9721546, 45.8060483], [4.972039, 45.8060576], [4.9720017, 45.8060369], [4.9719955, 45.8059833], [4.972043, 45.8059538], [4.9719923, 45.805831], [4.9721557, 45.8056313], [4.9721584, 45.8055855], [4.9722938, 45.805377], [4.9722997, 45.8052656], [4.9720255, 45.8047282], [4.9716386, 45.8047778], [4.9715497, 45.8047369], [4.9715262, 45.8046252], [4.9716476, 45.8044782], [4.9718411, 45.8043374], [4.9713377, 45.8034222], [4.9708759, 45.8031632], [4.9702828, 45.80294], [4.969888, 45.8028722], [4.9695299, 45.8028944], [4.9692374, 45.8029388], [4.9689894, 45.8029223], [4.9683176, 45.8029773], [4.9680448, 45.8030548], [4.9677199, 45.8032437], [4.9672849, 45.803749], [4.9669834, 45.8038937], [4.9668251, 45.8040354], [4.9665336, 45.8044057], [4.9664919, 45.804642], [4.9659681, 45.8047299], [4.965666, 45.8047946], [4.9655342, 45.8046865], [4.9657565, 45.8045269], [4.9655165, 45.8044883], [4.9652353, 45.8045311], [4.9649528, 45.8044345], [4.9646605, 45.8042176], [4.964338, 45.8042885], [4.9639873, 45.804256], [4.9636499, 45.8043487], [4.9634516, 45.8043673], [4.9632034, 45.8043184], [4.9628342, 45.8040802], [4.9624828, 45.8037258], [4.9625788, 45.8031465], [4.9625343, 45.8028947], [4.9623246, 45.8027694], [4.9619413, 45.8027261], [4.9615365, 45.8026419], [4.9613663, 45.802416], [4.9611028, 45.802257], [4.9607763, 45.8022457], [4.9604491, 45.8024809], [4.9602445, 45.8027533], [4.9598127, 45.8026735], [4.9595185, 45.8025451], [4.9594116, 45.80263], [4.9596683, 45.8027393], [4.9598307, 45.8028728], [4.9599546, 45.8031232], [4.9599329, 45.8032345], [4.959856, 45.8036144], [4.9596822, 45.8037855], [4.9593586, 45.8039289], [4.9592547, 45.8039317], [4.9591562, 45.8038882], [4.9590823, 45.8038273], [4.9586511, 45.8034479], [4.9585304, 45.8031587], [4.9586422, 45.8028246], [4.9586584, 45.8025553], [4.958802, 45.8025322], [4.9589926, 45.8025752], [4.9591423, 45.8025628], [4.9596306, 45.802162], [4.9597832, 45.8019513], [4.9599826, 45.801902], [4.9605009, 45.8014468], [4.9605315, 45.8013298], [4.9605109, 45.8012342], [4.9604176, 45.8011426], [4.9603023, 45.8010664], [4.9599964, 45.800972], [4.959476, 45.8010229], [4.9591735, 45.8010235], [4.959086, 45.8011446], [4.9589966, 45.8011301], [4.9585413, 45.8011432], [4.9582692, 45.8012396], [4.9580148, 45.8012949], [4.957834, 45.8013116], [4.9576543, 45.8012937], [4.9576154, 45.8012451], [4.95753, 45.8010442], [4.95752, 45.8006937], [4.9575834, 45.8006022], [4.9574147, 45.8005579], [4.9572464, 45.800398], [4.9567052, 45.8002905], [4.9565417, 45.8002032], [4.9565661, 45.8001146], [4.9566666, 45.8000526], [4.9568524, 45.7999975], [4.9573001, 45.7999767], [4.957484, 45.7999285], [4.9578049, 45.7999146], [4.9580624, 45.7997947], [4.9582246, 45.7998332], [4.958349, 45.7999584], [4.9587035, 45.7999859], [4.9591412, 45.7998594], [4.95926, 45.7998732], [4.9594381, 45.7999905], [4.9598836, 45.7999974], [4.9603389, 45.7999215], [4.9604939, 45.7999897], [4.960703, 45.7999268], [4.9607684, 45.7999044], [4.960822, 45.799916], [4.9609689, 45.7998062], [4.9610023, 45.7997775], [4.960856, 45.7994682], [4.9604886, 45.799257], [4.9605108, 45.7991851], [4.9603914, 45.7991916], [4.9600736, 45.7990495], [4.9594378, 45.7989296], [4.9589927, 45.7987138], [4.9587013, 45.798679], [4.9575046, 45.7986233], [4.9553893, 45.7985979], [4.9544376, 45.7985373], [4.9538225, 45.7985166], [4.9523431, 45.7985314], [4.9516952, 45.7985037], [4.9510937, 45.7984516], [4.9510229, 45.7985546], [4.9509538, 45.7986004], [4.9508665, 45.7985902], [4.9505213, 45.7984686], [4.9501678, 45.7984764], [4.9499158, 45.798562], [4.9497023, 45.798727], [4.9495821, 45.7989111], [4.9494604, 45.7991279], [4.949141, 45.7993028], [4.9491245, 45.7993118], [4.9489857, 45.799363], [4.9486818, 45.7994752], [4.9477268, 45.7995962], [4.9471973, 45.7996809], [4.9463726, 45.7999049], [4.9456136, 45.7998944], [4.9454176, 45.7999715], [4.945347, 45.8000873], [4.9454599, 45.8003009], [4.9455802, 45.8007462], [4.9456059, 45.801088], [4.9456607, 45.8013392], [4.9456729, 45.8014757], [4.9456842, 45.80163], [4.9456233, 45.8017138], [4.9454907, 45.8017251], [4.9454418, 45.8014711], [4.9453568, 45.801479], [4.9454058, 45.801733], [4.9453505, 45.8017384], [4.9451387, 45.8016788], [4.9450027, 45.8016371], [4.9449004, 45.8016443], [4.944537, 45.8015732], [4.9444813, 45.8015327], [4.9443091, 45.8015171], [4.9441582, 45.8014959], [4.9438273, 45.8014187], [4.943753, 45.8014273], [4.9436973, 45.8013885], [4.9433371, 45.8012797], [4.9430128, 45.8012144], [4.9429723, 45.8011836], [4.9428478, 45.8011634], [4.9428275, 45.8010853]]]}}, {"type": "Feature", "properties": {"name": "Lac du Drapeau"}, "geometry": {"type": "MultiPolygon", "coordinates": [[[[4.9745761, 45.8054617], [4.9746839, 45.8054495], [4.9748245, 45.8055425], [4.9748205, 45.8056743], [4.9749175, 45.8058398], [4.9750002, 45.8058622], [4.9749935, 45.8058131], [4.9749599, 45.8057893], [4.974917, 45.8056762], [4.9749593, 45.8056682], [4.9750223, 45.8057112], [4.9750471, 45.8057897], [4.9750981, 45.8058519], [4.9753354, 45.8059248], [4.9755017, 45.8059202], [4.975597, 45.8059734], [4.9756023, 45.8060417], [4.9755071, 45.8061174], [4.9753408, 45.8061043], [4.9753354, 45.8060632], [4.9754253, 45.8060202], [4.9754173, 45.8059865], [4.975314, 45.8059763], [4.9752094, 45.8060015], [4.9749586, 45.8059753], [4.9748982, 45.8059445], [4.9748982, 45.8060216], [4.9750841, 45.8060956], [4.9750237, 45.8063515], [4.9747534, 45.8064325], [4.9746206, 45.8064063], [4.9743744, 45.8064582], [4.9742612, 45.8065362], [4.9741593, 45.8065465], [4.9740605, 45.8065841], [4.9739734, 45.8065533], [4.9738747, 45.8065323], [4.9739479, 45.8067296], [4.9738441, 45.8067503], [4.9737921, 45.8067349], [4.9736871, 45.8066518], [4.9735023, 45.8065449], [4.9733479, 45.8064998], [4.9732092, 45.806485], [4.9716973, 45.8071337], [4.9716501, 45.8071537], [4.9714612, 45.80727], [4.9713245, 45.8074152], [4.9713309, 45.8075075], [4.9714074, 45.8076328], [4.9715213, 45.8078806], [4.971523, 45.8079961], [4.971962, 45.8087012], [4.9723, 45.8089705], [4.9725661, 45.8091898], [4.9726041, 45.8091819], [4.9726308, 45.8091334], [4.9727171, 45.8090987], [4.9728491, 45.809116], [4.9729067, 45.8091229], [4.9729482, 45.8091517], [4.9729219, 45.8092095], [4.9728188, 45.8092123], [4.9727591, 45.8092391], [4.9727885, 45.809257], [4.9728266, 45.8092773], [4.9737392, 45.8097649], [4.9737102, 45.8098726], [4.9737874, 45.8100207], [4.9739985, 45.8102291], [4.9742694, 45.810167], [4.974572, 45.8101064], [4.9749024, 45.8100302], [4.9751079, 45.8100698], [4.9752854, 45.8101805], [4.9753133, 45.8103521], [4.9751309, 45.8105241], [4.9749641, 45.8106456], [4.9747517, 45.8105933], [4.9744963, 45.810412], [4.9742919, 45.8103529], [4.9739253, 45.8104794], [4.9738945, 45.8106191], [4.9740078, 45.8107785], [4.9740109, 45.8109201], [4.9739689, 45.8109589], [4.9738951, 45.810957], [4.9737355, 45.810771], [4.9735621, 45.8108076], [4.9734481, 45.8106], [4.9733408, 45.8104654], [4.9732228, 45.8103607], [4.9731384, 45.8103334], [4.9730456, 45.8103034], [4.9730757, 45.8102026], [4.9731937, 45.8101353], [4.973183, 45.8100905], [4.9730729, 45.810066], [4.9730165, 45.8100691], [4.9729757, 45.8100709], [4.9728663, 45.8100758], [4.972793, 45.8101256], [4.9726649, 45.8101364], [4.9725676, 45.8101327], [4.9724296, 45.8100139], [4.972247, 45.8100074], [4.9720748, 45.8100167], [4.9719354, 45.810084], [4.9719037, 45.8102691], [4.9717642, 45.8104336], [4.9717315, 45.8106075], [4.9715817, 45.8106822], [4.9715765, 45.810716], [4.971474, 45.810802], [4.971238, 45.8108393], [4.9710234, 45.810944], [4.9709161, 45.8110712], [4.9706806, 45.811159], [4.9704762, 45.8111983], [4.970348, 45.8112488], [4.9702724, 45.8113478], [4.9703266, 45.8114432], [4.9704702, 45.811543], [4.970707, 45.8117236], [4.9707564, 45.8117304], [4.9708069, 45.8116926], [4.9710121, 45.8116577], [4.9710557, 45.8116808], [4.9711221, 45.8116877], [4.9711356, 45.8117188], [4.9710706, 45.8118236], [4.9710558, 45.8121018], [4.9711079, 45.8121552], [4.9711344, 45.8122286], [4.9711887, 45.812238], [4.9712135, 45.812288], [4.9713395, 45.8123216], [4.9713673, 45.8122808], [4.9716355, 45.8121611], [4.9718173, 45.8121031], [4.9719788, 45.8121686], [4.972107, 45.8121031], [4.9722792, 45.8120714], [4.9725254, 45.8121031], [4.9727835, 45.8121536], [4.973041, 45.8122134], [4.9730732, 45.8123107], [4.9729439, 45.8124172], [4.9728259, 45.8125144], [4.9728908, 45.8125724], [4.973041, 45.8125649], [4.9732121, 45.8124546], [4.9734594, 45.8123705], [4.9737169, 45.8124079], [4.9738451, 45.8125219], [4.9739315, 45.8127294], [4.9739953, 45.8127809], [4.9741267, 45.8127986], [4.9742474, 45.8127892], [4.9743386, 45.8126827], [4.9743418, 45.8126051], [4.9744543, 45.8125686], [4.9745885, 45.8125714], [4.9746175, 45.8126453], [4.9747853, 45.8129276], [4.9748327, 45.8129613], [4.974902, 45.8129276], [4.9749167, 45.8127173], [4.9752291, 45.8126163], [4.9754657, 45.8125874], [4.9755724, 45.8125444], [4.9756179, 45.8124747], [4.9757681, 45.8124439], [4.9758915, 45.8124013], [4.9759655, 45.8123719], [4.9760002, 45.8122676], [4.9758964, 45.8121828], [4.9756382, 45.8121312], [4.9755617, 45.8120284], [4.9756215, 45.8119631], [4.975879, 45.8121454], [4.9759688, 45.8121319], [4.9755356, 45.811858], [4.9754749, 45.8117506], [4.97549, 45.811656], [4.975588, 45.8115854], [4.9757913, 45.811589], [4.9761209, 45.811792], [4.9764467, 45.8118739], [4.9765652, 45.8118692], [4.9767262, 45.8118629], [4.9770236, 45.811713], [4.9771873, 45.8115005], [4.9774549, 45.8114241], [4.9775793, 45.8112934], [4.9776858, 45.8111575], [4.977713, 45.8110362], [4.9776103, 45.8108995], [4.9772458, 45.8109202], [4.977074, 45.8108865], [4.9768203, 45.8108077], [4.9766088, 45.8107134], [4.9764348, 45.8105994], [4.9763537, 45.8104928], [4.9763592, 45.8103685], [4.9764384, 45.8102258], [4.976511, 45.8101448], [4.9766122, 45.8101035], [4.9769529, 45.810051], [4.9770891, 45.8100608], [4.9772098, 45.8100473], [4.9772798, 45.8099768], [4.9773835, 45.8098117], [4.9774453, 45.8096327], [4.977543, 45.8095015], [4.9776909, 45.80946], [4.9778499, 45.80944], [4.9779776, 45.8094367], [4.9783498, 45.8095333], [4.9785973, 45.8095425], [4.9787012, 45.8095241], [4.9792079, 45.8095577], [4.9794398, 45.8096385], [4.9799158, 45.809925], [4.9799971, 45.8100391], [4.9800088, 45.8101489], [4.9799888, 45.8102961], [4.980375, 45.8105088], [4.9804282, 45.8104938], [4.9805269, 45.8105457], [4.9805808, 45.8106191], [4.9806376, 45.8106723], [4.9807314, 45.8107152], [4.980851, 45.8107696], [4.9809942, 45.8107547], [4.982875, 45.8101176], [4.9830927, 45.8100204], [4.9832642, 45.8099748], [4.9834323, 45.809904], [4.983666, 45.809748], [4.9837698, 45.8096951], [4.9838446, 45.809592], [4.9839361, 45.8095629], [4.9841217, 45.8095525], [4.9841888, 45.8095572], [4.9842424, 45.8095254], [4.9842925, 45.8095171], [4.9844229, 45.809457], [4.9845124, 45.8094016], [4.9845569, 45.8093202], [4.9845146, 45.8092421], [4.9844354, 45.8091869], [4.9839886, 45.8088194], [4.9834477, 45.8083124], [4.9831795, 45.8080663], [4.9828899, 45.8078597], [4.9824289, 45.8074574], [4.9821332, 45.8071914], [4.9817592, 45.8069094], [4.9816243, 45.8067974], [4.9814279, 45.8066747], [4.9811458, 45.8064416], [4.9811261, 45.806379], [4.9809509, 45.8062317], [4.9809192, 45.806102], [4.9808695, 45.8060578], [4.9805418, 45.805987], [4.980433, 45.8059351], [4.9805243, 45.8058267], [4.9805819, 45.8057678], [4.9806073, 45.8057047], [4.9805758, 45.8056331], [4.9805617, 45.8055367], [4.9805525, 45.8055267], [4.9805437, 45.8055171], [4.9804974, 45.8054546], [4.9803644, 45.8055131], [4.9801457, 45.8053847], [4.9800213, 45.8053003], [4.9800005, 45.8052438], [4.9800058, 45.8051801], [4.9798829, 45.8050903], [4.9800002, 45.8049916], [4.9800454, 45.8049536], [4.9801723, 45.80485], [4.980153, 45.80464], [4.9800193, 45.8045244], [4.9798322, 45.8045365], [4.9797986, 45.8045636], [4.9798872, 45.8046179], [4.9798536, 45.8046487], [4.9797088, 45.8045552], [4.9795842, 45.8045425], [4.979457, 45.804271], [4.9790293, 45.8041928], [4.978664, 45.8038573], [4.9781795, 45.8036945], [4.9783463, 45.8033755], [4.9777132, 45.8029902], [4.9758386, 45.8013014], [4.9756262, 45.8012706], [4.9751381, 45.8010681], [4.9738839, 45.8010004], [4.9727652, 45.8010021], [4.9717687, 45.8009499], [4.9720226, 45.8011957], [4.9724024, 45.8012751], [4.9724487, 45.8013569], [4.9729469, 45.8014531], [4.972977, 45.8014984], [4.973073, 45.8015534], [4.9730408, 45.8015999], [4.9729181, 45.8016037], [4.9729649, 45.8017467], [4.9731012, 45.8018384], [4.9729878, 45.801858], [4.9728108, 45.8021142], [4.9728188, 45.802189], [4.9731648, 45.8022301], [4.9732239, 45.8021908], [4.9732359, 45.8018215], [4.9733215, 45.8018297], [4.9733603, 45.8022305], [4.9732695, 45.8022825], [4.9726923, 45.80231], [4.9745761, 45.8054617]]], [[[4.9726923, 45.80231], [4.9725243, 45.8023689], [4.9724809, 45.802447], [4.9724004, 45.8026453], [4.9724969, 45.8030107], [4.9727416, 45.8033949], [4.9727094, 45.8035804], [4.972923, 45.8038277], [4.9729997, 45.8041008], [4.9732273, 45.8042575], [4.9733818, 45.8047356], [4.973651, 45.805032], [4.9737382, 45.8051704], [4.9738455, 45.8051872], [4.9740096, 45.8053146], [4.9743538, 45.8054078], [4.974394, 45.8054546], [4.9745761, 45.8054617], [4.9726923, 45.80231]]]]}}, {"type": "Feature", "properties": {"name": "Lac des Allivoz"}, "geometry": {"type": "Polygon", "coordinates": [[[4.9734103, 45.7983873], [4.9733861, 45.7984846], [4.9733715, 45.7985435], [4.9734857, 45.7986839], [4.9736512, 45.7987899], [4.9741792, 45.7991856], [4.9743885, 45.7992877], [4.9749141, 45.7995441], [4.9750866, 45.7995795], [4.9752164, 45.7996568], [4.9759602, 45.8002275], [4.9762632, 45.8004244], [4.9768802, 45.8008578], [4.9771368, 45.800849], [4.9773646, 45.8009198], [4.9774398, 45.8009441], [4.9777052, 45.800964], [4.9778008, 45.8009772], [4.9779355, 45.8009768], [4.9780082, 45.8010304], [4.9780436, 45.801183], [4.9780173, 45.801392], [4.9778437, 45.8015035], [4.9778375, 45.801562], [4.9788211, 45.8023457], [4.9795856, 45.8032166], [4.9796935, 45.8034391], [4.9799575, 45.8035456], [4.9801385, 45.8035151], [4.9808167, 45.8030504], [4.9810695, 45.8028232], [4.9817066, 45.8023978], [4.9817827, 45.8022432], [4.9812936, 45.8019061], [4.9815503, 45.8016876], [4.9818205, 45.8016458], [4.9822639, 45.8013905], [4.9827557, 45.8011762], [4.9828699, 45.8009925], [4.9830192, 45.8009313], [4.9829181, 45.8008068], [4.9829694, 45.8006671], [4.9827118, 45.8006864], [4.9828374, 45.8008285], [4.9828803, 45.800938], [4.9826394, 45.8010261], [4.9825926, 45.8009589], [4.9826718, 45.8008234], [4.982028, 45.800485], [4.9815668, 45.8004147], [4.9813208, 45.8002443], [4.981129, 45.8002602], [4.9809066, 45.800126], [4.9805637, 45.8002003], [4.9803876, 45.8003054], [4.9800708, 45.8003406], [4.9798787, 45.8001853], [4.9796937, 45.7999928], [4.9796566, 45.7996578], [4.9796373, 45.7995573], [4.9796126, 45.7994291], [4.9796283, 45.7992329], [4.9796982, 45.7989903], [4.9798399, 45.7988801], [4.9800962, 45.7986907], [4.9800467, 45.7985772], [4.9800442, 45.7985021], [4.9801912, 45.7983964], [4.9802263, 45.7982617], [4.9801755, 45.7981789], [4.9801598, 45.7980495], [4.9803178, 45.7975405], [4.9802151, 45.7973401], [4.9796752, 45.7970749], [4.9792696, 45.796999], [4.9793051, 45.7968904], [4.9794285, 45.7968367], [4.9794198, 45.7967899], [4.9794801, 45.7967605], [4.9795063, 45.7965828], [4.9794419, 45.7966277], [4.979407, 45.7967249], [4.9793172, 45.796738], [4.9792434, 45.7966677], [4.9792654, 45.7965], [4.9790959, 45.7963939], [4.9787759, 45.7963496], [4.9785326, 45.7963285], [4.9782923, 45.7963768], [4.9781615, 45.7961943], [4.9778902, 45.7961982], [4.9767133, 45.7967003], [4.9766657, 45.7968503], [4.9767431, 45.7969918], [4.9768141, 45.7972715], [4.9767608, 45.7974143], [4.9766148, 45.7974961], [4.9762742, 45.7976065], [4.9761526, 45.7976753], [4.9759005, 45.7976996], [4.9756616, 45.7977681], [4.9756107, 45.7977328], [4.9756749, 45.79762], [4.9752926, 45.7976346], [4.9739682, 45.7975189], [4.9738272, 45.797562], [4.9737442, 45.79765], [4.9737868, 45.7978529], [4.9738041, 45.7979351], [4.9738995, 45.7980696], [4.9739451, 45.7982341], [4.9738806, 45.798329], [4.9737913, 45.798341], [4.9735751, 45.7983053], [4.9734868, 45.7983025], [4.9734103, 45.7983873]]]}}, {"type": "Feature", "properties": {"name": "Lac de la Tête d'Or"}, "geometry": {"type": "Polygon", "coordinates": [[[4.8564887, 45.7833963], [4.8565459, 45.7833674], [4.8569268, 45.7831836], [4.8571189, 45.7830576], [4.8571976, 45.782992], [4.8572576, 45.7829276], [4.8573959, 45.7827174], [4.8574213, 45.7826385], [4.8574244, 45.7825686], [4.8574024, 45.7824589], [4.8573438, 45.7822963], [4.8573139, 45.7821694], [4.857299, 45.7817653], [4.8572717, 45.7816566], [4.8572379, 45.7815914], [4.8571728, 45.7815153], [4.8571006, 45.7814616], [4.856957, 45.7813887], [4.8568035, 45.7813248], [4.8563573, 45.7811525], [4.8561602, 45.7810889], [4.8560727, 45.7810501], [4.8557343, 45.7808471], [4.855489, 45.7807339], [4.8553067, 45.7806625], [4.8547144, 45.7804523], [4.8546549, 45.7804312], [4.8542104, 45.7802875], [4.8540874, 45.7802377], [4.8539792, 45.7801806], [4.8539069, 45.780125], [4.8538081, 45.7800262], [4.8537717, 45.7799558], [4.853771, 45.7799064], [4.8537965, 45.7798598], [4.853845, 45.7798369], [4.8538946, 45.7798315], [4.8540038, 45.7798499], [4.8541951, 45.7795412], [4.8540484, 45.7794911], [4.8537727, 45.7793971], [4.8534345, 45.7792733], [4.8533234, 45.7792283], [4.8532408, 45.7791833], [4.8532267, 45.7791938], [4.8530855, 45.7791013], [4.8531061, 45.7790832], [4.8529854, 45.7789789], [4.8529244, 45.7789262], [4.8528736, 45.7788894], [4.8527318, 45.7787866], [4.8525786, 45.7787224], [4.8524729, 45.7786314], [4.8523927, 45.7785895], [4.8522168, 45.7784793], [4.8519729, 45.7783441], [4.8516988, 45.7781621], [4.8515738, 45.7781084], [4.8515353, 45.7781549], [4.8515237, 45.7781601], [4.8515079, 45.7781566], [4.8514274, 45.7781048], [4.8513425, 45.7780637], [4.8513361, 45.7780544], [4.8513401, 45.7780436], [4.8513734, 45.778016], [4.8514175, 45.7780001], [4.8513889, 45.7779661], [4.8513139, 45.7779583], [4.8511796, 45.7779581], [4.8505837, 45.7779831], [4.8505003, 45.7779789], [4.8503256, 45.77794], [4.8502332, 45.7779195], [4.8497933, 45.7778096], [4.8493183, 45.7777349], [4.8489006, 45.7776334], [4.8485946, 45.777597], [4.8485883, 45.7776362], [4.8485695, 45.7776359], [4.8485462, 45.7776671], [4.8485112, 45.777677], [4.8484848, 45.777675], [4.8484554, 45.7776607], [4.8484426, 45.7776433], [4.8484434, 45.7776185], [4.8484258, 45.7776073], [4.8479749, 45.777622], [4.8477701, 45.7776344], [4.8475101, 45.7776633], [4.8474016, 45.7776881], [4.84725, 45.7777263], [4.8471553, 45.7777352], [4.8470694, 45.7777236], [4.8469069, 45.7776754], [4.846823, 45.7776691], [4.846755, 45.7777014], [4.8467189, 45.777719], [4.8467197, 45.7777385], [4.8467244, 45.77783], [4.8467442, 45.777921], [4.8467871, 45.7779996], [4.846791, 45.7780782], [4.8468223, 45.7781499], [4.8468437, 45.7781936], [4.847184, 45.7786297], [4.8472173, 45.7786292], [4.8473481, 45.7787736], [4.8473524, 45.7787885], [4.8473408, 45.7788107], [4.8475198, 45.778987], [4.847639, 45.7790939], [4.8478265, 45.779245], [4.8480271, 45.7793886], [4.8481827, 45.7794872], [4.8485542, 45.7797042], [4.8485929, 45.7797459], [4.8486375, 45.7798171], [4.848641, 45.7798383], [4.8487695, 45.780058], [4.8488647, 45.7801187], [4.8489185, 45.7801539], [4.8490314, 45.7802084], [4.8491468, 45.7803112], [4.8492009, 45.7803422], [4.849262, 45.7803649], [4.8493059, 45.7803739], [4.8494746, 45.7803764], [4.8496666, 45.780342], [4.8498344, 45.7803009], [4.8498842, 45.7802804], [4.8499186, 45.7802783], [4.8499878, 45.7802999], [4.8500821, 45.7803531], [4.8501972, 45.7804587], [4.8502573, 45.7805026], [4.85031, 45.7805091], [4.8504205, 45.7804911], [4.8504559, 45.7804988], [4.850494, 45.780517], [4.8505085, 45.780531], [4.8505121, 45.780554], [4.8504551, 45.7806306], [4.8505418, 45.7807342], [4.8508403, 45.7812281], [4.8509571, 45.7813979], [4.8510116, 45.7814595], [4.8510943, 45.781527], [4.851158, 45.7815582], [4.8513738, 45.781624], [4.8515336, 45.7816624], [4.8516035, 45.7816883], [4.8520171, 45.7818922], [4.8523393, 45.7820689], [4.8525535, 45.7821575], [4.8528575, 45.7822446], [4.8530648, 45.782277], [4.8531915, 45.7823169], [4.8532673, 45.7823598], [4.8532774, 45.7823778], [4.8535068, 45.7825054], [4.8539358, 45.7828171], [4.854112, 45.7828986], [4.8542633, 45.782947], [4.8544295, 45.7829821], [4.8546447, 45.7830157], [4.8550024, 45.7830571], [4.8552313, 45.7830993], [4.8554976, 45.7831689], [4.8557812, 45.7832706], [4.8559094, 45.7833814], [4.855961, 45.7834565], [4.8559943, 45.7835474], [4.8560084, 45.7836623], [4.856037, 45.7837777], [4.8560743, 45.7838867], [4.8561429, 45.7840422], [4.8562269, 45.7841281], [4.8563188, 45.7842093], [4.8564215, 45.7842622], [4.8565401, 45.7843039], [4.8566207, 45.7843182], [4.8566917, 45.7843264], [4.8566709, 45.7843147], [4.856575, 45.7842953], [4.8564933, 45.7842679], [4.8564037, 45.7842322], [4.856312, 45.7841759], [4.8563061, 45.7840973], [4.8562303, 45.7840118], [4.8561502, 45.7839016], [4.8561083, 45.7838147], [4.8560966, 45.7837145], [4.8561152, 45.7836341], [4.8561476, 45.78359], [4.856184, 45.7835633], [4.8564887, 45.7833963]]]}}]}