{"type": "FeatureCollection", "features": [{"type": "Feature", "properties": {"name": "Lac de Mansigné"}, "geometry": {"type": "Polygon", "coordinates": [[[0.1287152, 47.7623265], [0.1285783, 47.7626139], [0.128558, 47.7627679], [0.1286387, 47.7628303], [0.1290463, 47.7630392], [0.1294389, 47.7632759], [0.1296709, 47.7633692], [0.1298791, 47.7633684], [0.1299779, 47.7633282], [0.1300729, 47.763213], [0.1301579, 47.7631725], [0.1302837, 47.7631515], [0.1302935, 47.7630815], [0.1302125, 47.7630285], [0.1303418, 47.762755], [0.1305611, 47.7619872], [0.1306545, 47.7615772], [0.1307669, 47.7613782], [0.1310431, 47.7609109], [0.1312347, 47.7606431], [0.1312967, 47.7604853], [0.1314894, 47.7601895], [0.1317305, 47.7598993], [0.1319651, 47.7597634], [0.1321258, 47.7595699], [0.1326301, 47.7587888], [0.1326687, 47.758696], [0.1325458, 47.7586469], [0.1325582, 47.7585161], [0.1326693, 47.7585135], [0.1326693, 47.7581813], [0.1325306, 47.7581787], [0.1325531, 47.7579733], [0.1322827, 47.7576016], [0.1320488, 47.7572192], [0.1319665, 47.7570642], [0.1318866, 47.7564488], [0.1317907, 47.7558182], [0.1317499, 47.7551999], [0.132182, 47.7548188], [0.132421, 47.7546774], [0.1327085, 47.7545705], [0.1328986, 47.7545367], [0.1331425, 47.754545], [0.1334599, 47.7545636], [0.1336693, 47.7546259], [0.1339355, 47.7546948], [0.1342586, 47.7547982], [0.1345695, 47.7549313], [0.1347879, 47.7550969], [0.1349439, 47.7552297], [0.1351269, 47.7553286], [0.1353017, 47.7553844], [0.1353913, 47.7553646], [0.1354303, 47.7552815], [0.1354289, 47.7549724], [0.1352969, 47.7548166], [0.1348284, 47.7545515], [0.1344022, 47.7543781], [0.1342056, 47.7543217], [0.1339395, 47.7543143], [0.1338938, 47.7542343], [0.1338267, 47.7540461], [0.1336692, 47.7536405], [0.1336226, 47.7534854], [0.1335794, 47.7534288], [0.1332963, 47.7531985], [0.1330134, 47.7530523], [0.1325089, 47.7529181], [0.1319392, 47.7528646], [0.1307605, 47.7528698], [0.1304797, 47.7531093], [0.1303379, 47.7532302], [0.1298272, 47.7536241], [0.1296035, 47.7537894], [0.1295162, 47.7537743], [0.1294658, 47.7537967], [0.1294127, 47.7538202], [0.1294492, 47.7538521], [0.1292842, 47.7539747], [0.1291945, 47.7543174], [0.1291693, 47.7547091], [0.1291092, 47.7548727], [0.1289686, 47.7550497], [0.1288105, 47.7552203], [0.1287238, 47.7553834], [0.1286835, 47.7556042], [0.1287425, 47.7558928], [0.1288733, 47.7561647], [0.1288473, 47.7564696], [0.1288324, 47.7568257], [0.1287538, 47.7570068], [0.1287583, 47.7577406], [0.1287438, 47.7582959], [0.1287942, 47.7595835], [0.1288222, 47.7599524], [0.1289228, 47.7604514], [0.1289064, 47.7610535], [0.1287747, 47.7615071], [0.1287709, 47.7620158], [0.1287152, 47.7623265]]]}}, {"type": "Feature", "properties": {"name": "Lac des Varennes"}, "geometry": {"type": "Polygon", "coordinates": [[[0.4857799, 47.7133422], [0.485619, 47.7134361], [0.485501, 47.7134288], [0.4852757, 47.7133061], [0.4848254, 47.7128387], [0.4845515, 47.7126546], [0.4840341, 47.712364], [0.4839188, 47.7122557], [0.4838541, 47.7121583], [0.4837847, 47.7121366], [0.4836372, 47.7121439], [0.4834303, 47.712106], [0.4833609, 47.7121096], [0.4833182, 47.7121475], [0.4829907, 47.7123568], [0.4827762, 47.7124922], [0.4826206, 47.7126221], [0.4824221, 47.7127791], [0.4822209, 47.7128657], [0.4821943, 47.7129091], [0.4821888, 47.7129758], [0.48224, 47.7131617], [0.4823309, 47.7133981], [0.4823819, 47.7137807], [0.4825296, 47.714425], [0.4827013, 47.7148996], [0.4827735, 47.7149917], [0.4831197, 47.7153201], [0.483719, 47.715847], [0.4839979, 47.7160871], [0.4843476, 47.7163767], [0.4847006, 47.7166483], [0.4848318, 47.7167503], [0.4849206, 47.7168098], [0.484993, 47.716845], [0.4850762, 47.7168495], [0.485214, 47.7168342], [0.4854839, 47.7167945], [0.4858027, 47.716762], [0.4861222, 47.7167105], [0.486252, 47.716688], [0.4863368, 47.7166772], [0.4863797, 47.7166808], [0.4864468, 47.7166763], [0.4864883, 47.7166591], [0.4865527, 47.7166528], [0.4867525, 47.7166519], [0.4869014, 47.716642], [0.4870808, 47.7166131], [0.4873762, 47.7165581], [0.4875438, 47.7165382], [0.4876441, 47.7165292], [0.4879083, 47.7165364], [0.4879998, 47.7165274], [0.488092, 47.7164994], [0.4881701, 47.7164507], [0.4882184, 47.7164155], [0.4882264, 47.7163812], [0.4882207, 47.7163271], [0.4882476, 47.7162441], [0.4883281, 47.7161665], [0.4883994, 47.7161394], [0.4885738, 47.7161195], [0.4887012, 47.7161168], [0.4888339, 47.7160916], [0.4889892, 47.7160627], [0.4891773, 47.716041], [0.4893392, 47.7160582], [0.489483, 47.7161078], [0.4896128, 47.7161575], [0.4896587, 47.7162026], [0.4896909, 47.7162432], [0.4897566, 47.7162793], [0.48983, 47.7162892], [0.4899833, 47.7162738], [0.4901666, 47.7162432], [0.4902649, 47.7162242], [0.4903078, 47.7162062], [0.4903547, 47.7161782], [0.490388, 47.7161719], [0.4904848, 47.7161592], [0.4906109, 47.7161096], [0.4907048, 47.7160925], [0.4908469, 47.7160419], [0.4910105, 47.7159707], [0.4911618, 47.715912], [0.4914759, 47.7157776], [0.4916891, 47.7157036], [0.492067, 47.7155655], [0.4926035, 47.7154284], [0.4938158, 47.7151469], [0.4958972, 47.7146199], [0.4967984, 47.7143961], [0.4970286, 47.7142759], [0.4970667, 47.714185], [0.4971153, 47.7140947], [0.4971716, 47.7140352], [0.4973403, 47.7139504], [0.4975548, 47.7137718], [0.497649, 47.7136562], [0.4976943, 47.7135642], [0.497697, 47.713492], [0.497649, 47.7134324], [0.4975908, 47.7133713], [0.4970452, 47.7129597], [0.4968387, 47.7128134], [0.4967344, 47.7127629], [0.4966053, 47.712743], [0.4963666, 47.712761], [0.4961467, 47.7128098], [0.4958573, 47.7128838], [0.4956588, 47.712965], [0.4955485, 47.7130462], [0.4955354, 47.7130986], [0.4955488, 47.7131563], [0.495527, 47.71316], [0.4954496, 47.7131888], [0.4953289, 47.7132718], [0.4953182, 47.7133512], [0.4953929, 47.7134957], [0.495468, 47.7136382], [0.4954386, 47.7137103], [0.4952964, 47.7138565], [0.4951975, 47.7139125], [0.4949561, 47.7139829], [0.4947466, 47.7140352], [0.4945132, 47.7140857], [0.4943925, 47.7141182], [0.4942507, 47.7141832], [0.4940599, 47.7143077], [0.4938832, 47.714434], [0.4936978, 47.7145189], [0.4933411, 47.7146614], [0.492464, 47.7148726], [0.4914233, 47.7151541], [0.4907581, 47.7153923], [0.4904174, 47.7156034], [0.4903615, 47.7156179], [0.4902944, 47.7156097], [0.4902324, 47.7155728], [0.4901201, 47.7154825], [0.4900232, 47.7154013], [0.4898569, 47.7152335], [0.4898062, 47.7151478], [0.4897429, 47.714998], [0.4897781, 47.7149095], [0.4898943, 47.7147678], [0.4899725, 47.7146434], [0.4900181, 47.7145486], [0.4900433, 47.714462], [0.4901187, 47.7143736], [0.4902203, 47.7143311], [0.4903038, 47.7143203], [0.4903373, 47.714323], [0.4904375, 47.7142707], [0.4907315, 47.7141359], [0.4911087, 47.7139574], [0.4914599, 47.7137334], [0.4915535, 47.7136511], [0.4916797, 47.7135895], [0.4927644, 47.7132628], [0.492875, 47.7132625], [0.493247, 47.7131627], [0.4934838, 47.713119], [0.4938323, 47.7130332], [0.4939338, 47.712965], [0.4940725, 47.7129285], [0.4941353, 47.7128982], [0.4941565, 47.7128604], [0.494176, 47.7127146], [0.4941558, 47.7126685], [0.4937839, 47.71218], [0.4935517, 47.7119486], [0.4934889, 47.7118876], [0.493395, 47.7118234], [0.4932609, 47.7117685], [0.493159, 47.7117667], [0.492979, 47.7118028], [0.4927563, 47.7118768], [0.4924884, 47.7119435], [0.4923728, 47.7119598], [0.4922923, 47.7119616], [0.4922229, 47.7119309], [0.4921421, 47.7118641], [0.4919896, 47.7116836], [0.4918873, 47.7115248], [0.4918662, 47.7114418], [0.491834, 47.7113841], [0.4917535, 47.7113425], [0.4917186, 47.7112812], [0.4916811, 47.7111819], [0.4915789, 47.7110556], [0.4915524, 47.7108787], [0.4914746, 47.7108282], [0.4913777, 47.7107668], [0.4913646, 47.7107091], [0.491378, 47.7106423], [0.4913002, 47.7105611], [0.4911658, 47.7104402], [0.4909945, 47.7103319], [0.4908117, 47.7102489], [0.4906455, 47.7102146], [0.4904362, 47.7102308], [0.4903132, 47.7102488], [0.4900929, 47.7103319], [0.4898998, 47.710368], [0.4897174, 47.7103752], [0.4895028, 47.7104185], [0.4893526, 47.7104041], [0.4890951, 47.7102741], [0.4889986, 47.710238], [0.4889074, 47.7102092], [0.4887223, 47.7102254], [0.4885158, 47.7102019], [0.4884139, 47.710155], [0.4882341, 47.7100341], [0.488092, 47.7100124], [0.4875716, 47.7100648], [0.4870674, 47.7101442], [0.4867509, 47.71022], [0.4866037, 47.7103102], [0.4863619, 47.710433], [0.486126, 47.7105015], [0.485678, 47.7105936], [0.4852569, 47.7106693], [0.4851469, 47.7107145], [0.4850396, 47.7107795], [0.4847955, 47.7108878], [0.4846588, 47.710904], [0.4844066, 47.7109455], [0.4841357, 47.7110286], [0.484077, 47.7110303], [0.4839614, 47.7109978], [0.483849, 47.7109834], [0.4837227, 47.7110068], [0.4835698, 47.7110682], [0.4835161, 47.7111964], [0.483484, 47.711357], [0.4834089, 47.7115014], [0.4834038, 47.7115871], [0.4834276, 47.7116268], [0.4834574, 47.7116629], [0.4835255, 47.7117062], [0.4835916, 47.7117179], [0.4836691, 47.7117179], [0.483834, 47.7116711], [0.4839201, 47.7116593], [0.4842135, 47.7117468], [0.4844174, 47.7118262], [0.4844952, 47.7118759], [0.4844968, 47.711939], [0.4844764, 47.7120176], [0.4844831, 47.7120834], [0.4845662, 47.7121232], [0.4846349, 47.7121303], [0.4847392, 47.7121006], [0.4849216, 47.7119923], [0.485104, 47.7119201], [0.4852649, 47.7118551], [0.48539, 47.7118506], [0.4855254, 47.711865], [0.4855868, 47.7118912], [0.4857022, 47.712004], [0.4860508, 47.7122973], [0.486193, 47.712476], [0.4862255, 47.7125986], [0.4862413, 47.7126709], [0.4862282, 47.7127557], [0.4862037, 47.7127846], [0.4860911, 47.7128008], [0.4860133, 47.7128116], [0.485855, 47.7128802], [0.4857477, 47.7129957], [0.485737, 47.7131256], [0.4857692, 47.7132267], [0.4857799, 47.7133422]]]}}, {"type": "Feature", "properties": {"name": "Plan d'eau de la Coudraie"}, "geometry": {"type": "Polygon", "coordinates": [[[0.6271378, 47.7498455], [0.6275157, 47.7494801], [0.6285484, 47.7494959], [0.6289827, 47.749705], [0.6295519, 47.7496932], [0.6295988, 47.7494012], [0.6293934, 47.7492], [0.6290179, 47.7491014], [0.6287362, 47.7491882], [0.6282844, 47.7488804], [0.6281377, 47.7482254], [0.6286365, 47.7474166], [0.6287773, 47.7467735], [0.6294932, 47.7471246], [0.6317934, 47.7477086], [0.6320516, 47.7484148], [0.6336562, 47.7487231], [0.6337559, 47.7490703], [0.6349589, 47.7489243], [0.6352405, 47.7492636], [0.6354694, 47.7491926], [0.6359799, 47.7493899], [0.636062, 47.7495122], [0.6365021, 47.7495161], [0.6368953, 47.7496818], [0.6370361, 47.7499146], [0.6374351, 47.7500133], [0.6372356, 47.7508576], [0.6367427, 47.7509759], [0.6365256, 47.7508457], [0.6361794, 47.750826], [0.6359799, 47.7509602], [0.6338205, 47.7508497], [0.6337735, 47.7505775], [0.6334273, 47.7505104], [0.6331985, 47.7508142], [0.6323417, 47.7507471], [0.6305142, 47.7506414], [0.6285876, 47.7503485], [0.6271378, 47.7498455]]]}}, {"type": "Feature", "properties": {"name": "Étang du Petit Port"}, "geometry": {"type": "Polygon", "coordinates": [[[0.4737204, 48.0602726], [0.4735706, 48.0605016], [0.473048, 48.0608639], [0.4728538, 48.060988], [0.4723509, 48.0616206], [0.4722695, 48.0618025], [0.4720691, 48.0619175], [0.4719165, 48.0618677], [0.4707223, 48.0613194], [0.4697998, 48.0607505], [0.4695062, 48.0606798], [0.469412, 48.060649], [0.4694026, 48.0605714], [0.4695943, 48.0603632], [0.4698645, 48.0600351], [0.4699962, 48.0599053], [0.4701974, 48.0597726], [0.4701732, 48.0596615], [0.470086, 48.0595556], [0.4699337, 48.0594969], [0.4696207, 48.0596227], [0.4692686, 48.0598052], [0.4689075, 48.0599013], [0.468726, 48.0599017], [0.4681438, 48.0598623], [0.4676271, 48.0597669], [0.4672315, 48.0595569], [0.4666558, 48.0587124], [0.4665848, 48.0585449], [0.466656, 48.0584403], [0.4668382, 48.0582917], [0.4671383, 48.0582275], [0.4673317, 48.0582539], [0.4676471, 48.0584157], [0.4678214, 48.0584948], [0.4679567, 48.0584955], [0.46805, 48.0584091], [0.4679902, 48.0582839], [0.4672277, 48.0577495], [0.4667941, 48.0579125], [0.4663593, 48.0579626], [0.4660745, 48.0578501], [0.4658416, 48.0576194], [0.4658103, 48.0573156], [0.4658454, 48.0572058], [0.4662691, 48.0567063], [0.4665255, 48.0564576], [0.466484, 48.0562266], [0.4662469, 48.0560156], [0.4661512, 48.0558808], [0.4661683, 48.0557352], [0.4663264, 48.0556059], [0.466917, 48.055473], [0.467345, 48.0552899], [0.4677058, 48.0553333], [0.4680526, 48.0555289], [0.4689887, 48.056222], [0.469149, 48.0565884], [0.4690835, 48.0569143], [0.4689263, 48.0571586], [0.4687521, 48.0573472], [0.4687562, 48.0574668], [0.4689131, 48.0574968], [0.469023, 48.0574085], [0.4691649, 48.0572059], [0.4693142, 48.056988], [0.4694015, 48.0568881], [0.4695252, 48.0568555], [0.4696859, 48.0568767], [0.4698394, 48.0569752], [0.4699252, 48.0571098], [0.4701115, 48.0574096], [0.470233, 48.0574211], [0.4704956, 48.0573141], [0.4707667, 48.0573045], [0.470873, 48.0573578], [0.4709917, 48.0575617], [0.471132, 48.0576621], [0.4712351, 48.057848], [0.4713607, 48.0579105], [0.4715543, 48.0579324], [0.4718128, 48.0579779], [0.4721192, 48.0581218], [0.4723525, 48.0582774], [0.4724876, 48.0583489], [0.4725864, 48.058486], [0.47256, 48.0587575], [0.4727696, 48.0589236], [0.4733924, 48.0597514], [0.4736571, 48.0598722], [0.4737204, 48.0600617], [0.4737697, 48.0602021], [0.4737204, 48.0602726]]]}}, {"type": "Feature", "properties": {"name": "Lac des oiseaux"}, "geometry": {"type": "MultiPolygon", "coordinates": [[[[-0.0378247, 47.7023866], [-0.0379642, 47.7022963], [-0.0380983, 47.7022416], [-0.0382646, 47.7022097], [-0.0384256, 47.70217], [-0.0385489, 47.7021297], [-0.0387525, 47.7020328], [-0.0388276, 47.7019714], [-0.0389993, 47.7019172], [-0.0391602, 47.7018414], [-0.0393211, 47.7017656], [-0.0394714, 47.7016898], [-0.0396591, 47.7016176], [-0.039761, 47.7015526], [-0.0399491, 47.7014438], [-0.0401151, 47.7013721], [-0.0402707, 47.701271], [-0.0403618, 47.7012024], [-0.0404265, 47.7011549], [-0.0404962, 47.7011116], [-0.0406193, 47.7010291], [-0.040732, 47.70091], [-0.0408339, 47.7008089], [-0.0409144, 47.7006717], [-0.0409788, 47.7005995], [-0.0409868, 47.7005065], [-0.0410257, 47.700382], [-0.0410378, 47.700224], [-0.0410391, 47.7001798], [-0.0410914, 47.7000652], [-0.0411182, 47.7000327], [-0.0411401, 47.6999575], [-0.0411733, 47.6998711], [-0.0412024, 47.699788], [-0.0401719, 47.6988108], [-0.0400347, 47.6987474], [-0.0399805, 47.6987379], [-0.0398536, 47.6987564], [-0.0397356, 47.698788], [-0.0396457, 47.6988024], [-0.0395867, 47.6987952], [-0.0395478, 47.6987419], [-0.0395183, 47.6986318], [-0.0393299, 47.6981638], [-0.0392729, 47.6981268], [-0.0391951, 47.6981128], [-0.0391489, 47.6980943], [-0.039055, 47.69806], [-0.0389645, 47.6980298], [-0.0388759, 47.6979892], [-0.0387292, 47.6976101], [-0.0385259, 47.6975252], [-0.0383596, 47.697296], [-0.0381652, 47.6971885], [-0.0380337, 47.6971595], [-0.037876, 47.6971615], [-0.0377419, 47.6971579], [-0.0375058, 47.697194], [-0.0369125, 47.697202], [-0.036513, 47.6972244], [-0.0363013, 47.6972654], [-0.0360673, 47.6973161], [-0.0358529, 47.6974003], [-0.0354938, 47.6974996], [-0.0352788, 47.6975716], [-0.034974, 47.6976669], [-0.0346833, 47.6977739], [-0.0346072, 47.6978], [-0.0345555, 47.6978624], [-0.0345489, 47.6979178], [-0.0345237, 47.6979644], [-0.034449, 47.6980181], [-0.0343484, 47.6980078], [-0.0342796, 47.6979939], [-0.0341582, 47.698024], [-0.0340658, 47.6980902], [-0.0338879, 47.6981767], [-0.0335092, 47.6983471], [-0.033299, 47.6984249], [-0.0331081, 47.698524], [-0.0330956, 47.6985518], [-0.0330576, 47.6986171], [-0.0328929, 47.6986941], [-0.0328307, 47.698726], [-0.032797, 47.6987881], [-0.0327812, 47.6988404], [-0.0327208, 47.6989123], [-0.0326681, 47.6989533], [-0.0325698, 47.698989], [-0.0324876, 47.6989814], [-0.0324332, 47.6989857], [-0.0323568, 47.6990025], [-0.0322544, 47.6990537], [-0.0320716, 47.6991341], [-0.0319289, 47.6991953], [-0.031738, 47.6992944], [-0.0315831, 47.6993864], [-0.0312682, 47.6995617], [-0.0311212, 47.699629], [-0.0310003, 47.6996713], [-0.0308985, 47.6997318], [-0.0308681, 47.699763], [-0.0308201, 47.6998039], [-0.0307804, 47.6998353], [-0.0307824, 47.6998814], [-0.0308176, 47.6999542], [-0.0308719, 47.7000514], [-0.0309445, 47.7001481], [-0.0310596, 47.7002838], [-0.0311973, 47.7004159], [-0.031292, 47.7004999], [-0.0313803, 47.7005441], [-0.0314444, 47.7005552], [-0.0315528, 47.7005405], [-0.0316613, 47.7005293], [-0.0317518, 47.7005181], [-0.0318518, 47.7005161], [-0.0319871, 47.700498], [-0.0321004, 47.7004895], [-0.0321589, 47.700473], [-0.0322218, 47.7004596], [-0.0323028, 47.7004364], [-0.0323469, 47.700411], [-0.0324365, 47.7003815], [-0.0325128, 47.7003615], [-0.0326484, 47.7003404], [-0.0327424, 47.7003109], [-0.0328095, 47.700285], [-0.0328938, 47.7002403], [-0.0329609, 47.7002174], [-0.0330239, 47.7002039], [-0.0331195, 47.7002051], [-0.033229, 47.7002151], [-0.0332888, 47.7002322], [-0.0333258, 47.7002468], [-0.0334296, 47.7002294], [-0.0335288, 47.700209], [-0.0337495, 47.7001677], [-0.0340408, 47.7000758], [-0.0341484, 47.7000399], [-0.0341967, 47.7000021], [-0.0342186, 47.6999862], [-0.0342549, 47.6999855], [-0.0342881, 47.7000155], [-0.034392, 47.7000994], [-0.0344335, 47.7001138], [-0.034485, 47.7001434], [-0.0345337, 47.7002191], [-0.03454, 47.700262], [-0.0344782, 47.7003001], [-0.034416, 47.7003351], [-0.0343406, 47.7003734], [-0.0342526, 47.7004397], [-0.0342248, 47.7005292], [-0.0342297, 47.7006395], [-0.0342524, 47.7007433], [-0.0342887, 47.7008409], [-0.0343709, 47.7009496], [-0.0344294, 47.7010404], [-0.0344829, 47.7011191], [-0.0345247, 47.701127], [-0.034569, 47.7011491], [-0.034577, 47.7011794], [-0.0345509, 47.7012155], [-0.0345039, 47.7012502], [-0.034447, 47.7012396], [-0.0343809, 47.701207], [-0.0378247, 47.7023866]]], [[[-0.0343809, 47.701207], [-0.0343101, 47.701172], [-0.0341228, 47.7009662], [-0.0338948, 47.7008001], [-0.0337682, 47.7006269], [-0.0336695, 47.7005629], [-0.0336041, 47.7003928], [-0.0335464, 47.7003576], [-0.0334045, 47.7003376], [-0.0331011, 47.7003675], [-0.0326671, 47.7004545], [-0.0325045, 47.7006635], [-0.0325173, 47.7007555], [-0.0326318, 47.7010237], [-0.0325975, 47.701148], [-0.0324836, 47.7012583], [-0.0323587, 47.7013375], [-0.0322596, 47.7014261], [-0.0322953, 47.7015147], [-0.0324615, 47.7017507], [-0.0326094, 47.701971], [-0.032704, 47.7021219], [-0.0328177, 47.7022738], [-0.0330204, 47.7025669], [-0.033174, 47.7028039], [-0.0333233, 47.7029563], [-0.0335855, 47.7030261], [-0.0337256, 47.7030721], [-0.0338151, 47.7031718], [-0.0337543, 47.7032202], [-0.0336088, 47.7033213], [-0.0334803, 47.7033946], [-0.0334649, 47.7034222], [-0.0334215, 47.7035001], [-0.0334038, 47.7036171], [-0.0333896, 47.7037032], [-0.0333877, 47.7037616], [-0.0334046, 47.7038349], [-0.0334435, 47.7038923], [-0.0334996, 47.7039249], [-0.0335455, 47.7039393], [-0.0336322, 47.7039437], [-0.0337547, 47.7039381], [-0.0338722, 47.7039235], [-0.0339758, 47.7039061], [-0.0340807, 47.70391], [-0.0341632, 47.7039267], [-0.0342189, 47.7039533], [-0.0342566, 47.7039832], [-0.0342956, 47.7040407], [-0.0343068, 47.7040865], [-0.0342996, 47.7041295], [-0.0342744, 47.7041761], [-0.0342588, 47.7042348], [-0.0342603, 47.7042684], [-0.03428, 47.7042987], [-0.034317, 47.7043132], [-0.0343907, 47.7043394], [-0.0344732, 47.7043531], [-0.0345003, 47.7043494], [-0.0345636, 47.704345], [-0.0346506, 47.7043556], [-0.0347061, 47.7043759], [-0.0347612, 47.7043902], [-0.0348686, 47.7043511], [-0.0349803, 47.704312], [-0.0351464, 47.7042596], [-0.0353569, 47.7041909], [-0.0354869, 47.7041514], [-0.0356119, 47.7040998], [-0.0356968, 47.7040674], [-0.0358035, 47.7040129], [-0.0358471, 47.7039752], [-0.0358825, 47.7039531], [-0.0361081, 47.703827], [-0.0362261, 47.7036682], [-0.0363227, 47.7036357], [-0.0364242, 47.7035285], [-0.0365587, 47.7033866], [-0.0366338, 47.7032963], [-0.036725, 47.7031916], [-0.0368699, 47.7031122], [-0.0370415, 47.7030431], [-0.037181, 47.7030075], [-0.037299, 47.7029317], [-0.0373741, 47.7028451], [-0.0374922, 47.7026898], [-0.0376424, 47.7025743], [-0.0377282, 47.7025021], [-0.0378247, 47.7023866], [-0.0343809, 47.701207]]], [[[-0.0370878, 47.6970714], [-0.0371947, 47.6970966], [-0.0375809, 47.6970924], [-0.0378681, 47.6970372], [-0.0381593, 47.6969423], [-0.0382705, 47.6968909], [-0.0383102, 47.6968593], [-0.0382996, 47.696829], [-0.0382534, 47.6968114], [-0.0381352, 47.6968138], [-0.0379505, 47.6968453], [-0.037775, 47.6968857], [-0.0374737, 47.6969563], [-0.0370878, 47.6970714]]]]}}, {"type": "Feature", "properties": {"name": "Grand Étang"}, "geometry": {"type": "Polygon", "coordinates": [[[-0.1263641, 48.2067972], [-0.1267945, 48.2066121], [-0.1271528, 48.2063839], [-0.1278732, 48.2057261], [-0.1285729, 48.2046946], [-0.1290544, 48.2043761], [-0.1298678, 48.203943], [-0.1301651, 48.203798], [-0.1303591, 48.2037034], [-0.1315438, 48.2033033], [-0.1315838, 48.2032898], [-0.1322355, 48.2029386], [-0.1326004, 48.2027367], [-0.132933, 48.2023545], [-0.1330706, 48.2022904], [-0.1332511, 48.2023596], [-0.133316, 48.2025182], [-0.133096, 48.2027463], [-0.1327406, 48.2029408], [-0.1323214, 48.2032088], [-0.131609, 48.2037107], [-0.1312663, 48.2041034], [-0.1306955, 48.2044793], [-0.1305432, 48.2046653], [-0.1304313, 48.2047914], [-0.1303553, 48.205047], [-0.1303457, 48.2058024], [-0.1302365, 48.2064813], [-0.1303645, 48.2067797], [-0.131394, 48.2076015], [-0.1327072, 48.2093086], [-0.1327564, 48.2093312], [-0.1332068, 48.2098248], [-0.1332467, 48.2098754], [-0.1333938, 48.2100103], [-0.1333236, 48.2100474], [-0.133613, 48.2103916], [-0.1330663, 48.2112543], [-0.1326259, 48.2120111], [-0.1325365, 48.2121252], [-0.1324443, 48.2122725], [-0.1322941, 48.2122473], [-0.1322609, 48.2121464], [-0.1323282, 48.2121133], [-0.1323313, 48.2120383], [-0.1320382, 48.2120886], [-0.1320144, 48.2121185], [-0.1316737, 48.2121733], [-0.1316613, 48.2121756], [-0.1316705, 48.2122178], [-0.131102, 48.2123186], [-0.1309931, 48.2123239], [-0.1308323, 48.2123317], [-0.1303392, 48.2123248], [-0.1298562, 48.2122684], [-0.1296338, 48.2122051], [-0.1294708, 48.2120606], [-0.1292594, 48.2117659], [-0.129175, 48.2115561], [-0.129054, 48.2114681], [-0.1288646, 48.2114486], [-0.1288566, 48.2114683], [-0.1288658, 48.2115137], [-0.1290778, 48.2119996], [-0.1280392, 48.212161], [-0.127946, 48.2120043], [-0.1277831, 48.2117123], [-0.1287219, 48.2114732], [-0.1287481, 48.2114318], [-0.1286712, 48.2114127], [-0.1281335, 48.2113844], [-0.1277012, 48.2113888], [-0.1268371, 48.211173], [-0.1266187, 48.2111053], [-0.1265615, 48.2110241], [-0.1265996, 48.2109253], [-0.1267764, 48.210815], [-0.1268469, 48.2105974], [-0.1267848, 48.2098774], [-0.1267942, 48.2094751], [-0.1267345, 48.209337], [-0.1266479, 48.2092247], [-0.1262824, 48.2090228], [-0.1259711, 48.2088207], [-0.1257788, 48.2086952], [-0.1255193, 48.2086433], [-0.1251914, 48.2086612], [-0.1248186, 48.2086616], [-0.1245745, 48.208638], [-0.1243572, 48.2085718], [-0.1240616, 48.2083367], [-0.1238637, 48.2082108], [-0.1236928, 48.208019], [-0.1235962, 48.2078085], [-0.1235123, 48.2075351], [-0.1235016, 48.207342], [-0.1234688, 48.2072562], [-0.1235257, 48.2071686], [-0.1235801, 48.2071239], [-0.1239119, 48.207115], [-0.1242111, 48.207089], [-0.1245852, 48.2070095], [-0.1248561, 48.2069059], [-0.1251479, 48.2067807], [-0.1254381, 48.2066842], [-0.1256467, 48.20666], [-0.1258251, 48.2066833], [-0.1260129, 48.2067405], [-0.1262642, 48.2068058], [-0.1263641, 48.2067972]]]}}, {"type": "Feature", "properties": {"name": "Lac de loisirs"}, "geometry": {"type": "MultiPolygon", "coordinates": [[[[-0.0447947, 47.6976721], [-0.0452007, 47.6978328], [-0.0454125, 47.6978736], [-0.0458501, 47.6978749], [-0.0460348, 47.6978691], [-0.0462587, 47.6977789], [-0.0471871, 47.6973581], [-0.0477439, 47.6969761], [-0.0479291, 47.6967666], [-0.0479887, 47.6967196], [-0.0493956, 47.6961695], [-0.0495511, 47.6961288], [-0.0500956, 47.6960016], [-0.0502686, 47.6959898], [-0.0512116, 47.6960213], [-0.0516379, 47.6960241], [-0.0527483, 47.6961424], [-0.0529709, 47.6961496], [-0.0532097, 47.6960991], [-0.0533934, 47.6960918], [-0.0540197, 47.6961424], [-0.0542968, 47.6961845], [-0.0546298, 47.6963461], [-0.0548592, 47.6966424], [-0.0549375, 47.6968546], [-0.0547182, 47.6976908], [-0.0543134, 47.6981169], [-0.0535998, 47.6983332], [-0.0518839, 47.698576], [-0.0513189, 47.6987681], [-0.050901, 47.6989448], [-0.0501613, 47.6993172], [-0.0499961, 47.6993715], [-0.0490629, 47.6992996], [-0.0487844, 47.6993005], [-0.0482454, 47.6995877], [-0.0479257, 47.6998882], [-0.0478055, 47.6999414], [-0.0473738, 47.7002885], [-0.0472248, 47.700487], [-0.0447947, 47.6976721]]], [[[-0.0472248, 47.700487], [-0.0472159, 47.700492], [-0.047196, 47.7004998], [-0.0471653, 47.7006599], [-0.0471023, 47.7006735], [-0.0466852, 47.700678], [-0.0461586, 47.70062], [-0.0456902, 47.7004598], [-0.045454, 47.700239], [-0.0453584, 47.7000421], [-0.0453199, 47.6998216], [-0.0472248, 47.700487]]], [[[-0.0453199, 47.6998216], [-0.0450236, 47.6994144], [-0.0449136, 47.6993404], [-0.0448114, 47.6993057], [-0.0444646, 47.6992197], [-0.0439568, 47.6991753], [-0.0431817, 47.6993103], [-0.0428148, 47.6993963], [-0.0426686, 47.6994306], [-0.041737, 47.6999295], [-0.0416788, 47.6999505], [-0.0416151, 47.6999528], [-0.0415628, 47.6999284], [-0.0409042, 47.6992295], [-0.040268, 47.6986724], [-0.0400722, 47.6985443], [-0.0453199, 47.6998216]]], [[[-0.0400722, 47.6985443], [-0.0397705, 47.6984269], [-0.0396752, 47.6983322], [-0.0395317, 47.6981029], [-0.0395009, 47.6979901], [-0.0393507, 47.6976408], [-0.039352, 47.6975015], [-0.0393882, 47.6974088], [-0.0394942, 47.6973185], [-0.0397736, 47.6972362], [-0.0402975, 47.6971468], [-0.041231, 47.6970913], [-0.0426771, 47.6969321], [-0.0434992, 47.6968597], [-0.0436986, 47.6969073], [-0.043939, 47.6969781], [-0.0444103, 47.6972128], [-0.0447947, 47.6976721], [-0.0400722, 47.6985443]]]]}}]}