{"type": "FeatureCollection", "features": [{"type": "Feature", "properties": {"name": "Lac de Montriond"}, "geometry": {"type": "Polygon", "coordinates": [[[6.7222688, 46.209282], [6.7222404, 46.2093462], [6.7222306, 46.209419], [6.7222277, 46.2094758], [6.7222352, 46.2095298], [6.7222554, 46.2095904], [6.7223198, 46.2096962], [6.7224967, 46.2098912], [6.7225524, 46.2099293], [6.7226266, 46.2099697], [6.722707, 46.2099951], [6.7227877, 46.2100173], [6.7228528, 46.2100276], [6.7229232, 46.2100419], [6.722985, 46.2100695], [6.7230267, 46.2101049], [6.7230633, 46.210147], [6.7230892, 46.2101996], [6.7231335, 46.2102972], [6.7231792, 46.210331], [6.7232433, 46.2103496], [6.7233224, 46.2103556], [6.7234204, 46.2103511], [6.7243052, 46.2101497], [6.7244764, 46.2101306], [6.7246451, 46.2101178], [6.7247873, 46.2101064], [6.7249268, 46.210106], [6.7250768, 46.2101195], [6.7252434, 46.2101438], [6.7253437, 46.2101514], [6.7254373, 46.210146], [6.7259498, 46.2100644], [6.726035, 46.2100562], [6.7261145, 46.2100522], [6.7262099, 46.2100535], [6.7263689, 46.2100555], [6.7269887, 46.2101107], [6.7270921, 46.2101155], [6.7271751, 46.2101131], [6.7279162, 46.2100896], [6.7280048, 46.2100907], [6.728087, 46.2100923], [6.728259, 46.2101011], [6.728795, 46.2101075], [6.7289249, 46.2101117], [6.7290383, 46.2101161], [6.729157, 46.2101315], [6.7294609, 46.210172], [6.7298224, 46.2101992], [6.7299036, 46.2102068], [6.7300893, 46.2102259], [6.7301495, 46.2102295], [6.7302188, 46.2102273], [6.7302871, 46.210218], [6.7303408, 46.2102059], [6.7303901, 46.2101999], [6.730445, 46.2102035], [6.7305524, 46.2102135], [6.7306036, 46.2102117], [6.7306614, 46.2102035], [6.731217, 46.2101054], [6.7313372, 46.21009], [6.7314346, 46.2100858], [6.7315278, 46.2100901], [6.7316182, 46.2100988], [6.731779, 46.2101329], [6.731923, 46.2101604], [6.7320001, 46.2101727], [6.7320816, 46.2101775], [6.7322592, 46.2101918], [6.7323086, 46.210201], [6.7323807, 46.2102164], [6.7324791, 46.2102402], [6.7326829, 46.2102825], [6.7328156, 46.2103004], [6.7329361, 46.21031], [6.7330258, 46.210314], [6.7331245, 46.2103211], [6.7332193, 46.2103364], [6.7332889, 46.2103404], [6.7333628, 46.2103384], [6.7334319, 46.2103489], [6.7334968, 46.2103495], [6.733786, 46.2103751], [6.7338345, 46.2103843], [6.7339878, 46.2104273], [6.7340827, 46.2104577], [6.7344589, 46.2104867], [6.7346655, 46.2104828], [6.7347612, 46.2104825], [6.7348222, 46.2104726], [6.7348962, 46.2104563], [6.7349629, 46.2104436], [6.7352462, 46.2104482], [6.7355283, 46.2104502], [6.735589, 46.2104401], [6.7356472, 46.2104207], [6.7357037, 46.2103971], [6.7357481, 46.2103644], [6.7358507, 46.210238], [6.7359101, 46.2101718], [6.7359448, 46.2101543], [6.7359872, 46.2101467], [6.7360539, 46.2101418], [6.7361123, 46.2101476], [6.736168, 46.2101719], [6.7362153, 46.2101991], [6.7362693, 46.2102267], [6.7363581, 46.2103348], [6.736389, 46.2103253], [6.7364191, 46.2103168], [6.7363944, 46.2102206], [6.7363738, 46.2101432], [6.7363408, 46.2100032], [6.7363185, 46.2099273], [6.7363086, 46.2098859], [6.7363029, 46.2098644], [6.7363067, 46.2098413], [6.7363117, 46.209813], [6.7363446, 46.2097886], [6.7364327, 46.2097247], [6.7364617, 46.209697], [6.7364928, 46.2096573], [6.7365011, 46.2096228], [6.736499, 46.209587], [6.7364949, 46.2095511], [6.7364855, 46.2095124], [6.7364679, 46.2094779], [6.7362742, 46.2092102], [6.7362357, 46.2091522], [6.7361196, 46.2089556], [6.7360927, 46.2089255], [6.7360616, 46.2088983], [6.7360242, 46.2088767], [6.7358796, 46.2088249], [6.7357506, 46.2087591], [6.7356801, 46.2087361], [6.7355533, 46.2086827], [6.73551, 46.2086586], [6.7354748, 46.2086342], [6.735409, 46.2085716], [6.7353794, 46.208551], [6.7353442, 46.2085338], [6.735255, 46.2084965], [6.7352156, 46.208485], [6.7347221, 46.2083708], [6.7346807, 46.2083645], [6.7346382, 46.2083609], [6.7346019, 46.2083609], [6.7345657, 46.2083618], [6.7343479, 46.208391], [6.7342992, 46.2083975], [6.7342515, 46.2084011], [6.734105, 46.2084192], [6.7338617, 46.2084778], [6.7338264, 46.2084899], [6.7338006, 46.2085022], [6.7337777, 46.2085187], [6.733757, 46.2085288], [6.7337384, 46.2085367], [6.7337197, 46.2085403], [6.7335486, 46.2085424], [6.7335084, 46.2085397], [6.7334678, 46.2085352], [6.7333133, 46.2085073], [6.7331827, 46.2084994], [6.7330915, 46.2084879], [6.7330396, 46.2084778], [6.7329878, 46.2084671], [6.7329432, 46.2084578], [6.7325278, 46.2083413], [6.7322937, 46.2082881], [6.7322361, 46.2082723], [6.7321937, 46.208259], [6.7321534, 46.2082418], [6.7320859, 46.2082095], [6.7319003, 46.2080976], [6.7317158, 46.2079606], [6.7317241, 46.2079405], [6.7314421, 46.2077081], [6.7314246, 46.2076981], [6.7314096, 46.207693], [6.7313892, 46.2076901], [6.7313695, 46.2076887], [6.7310024, 46.2076999], [6.7309388, 46.2077073], [6.7308833, 46.2077174], [6.730677, 46.207769], [6.7306283, 46.2077769], [6.7305723, 46.2077827], [6.7305195, 46.2077827], [6.7304635, 46.2077791], [6.7301218, 46.207734], [6.7298394, 46.2077131], [6.7293542, 46.2076858], [6.728472, 46.2076162], [6.7282408, 46.2076413], [6.7279081, 46.2076198], [6.7275006, 46.2076342], [6.7274687, 46.2076323], [6.7274374, 46.2076306], [6.7271907, 46.207599], [6.7269931, 46.2076333], [6.7269522, 46.2076377], [6.726918, 46.207637], [6.7268465, 46.2076327], [6.7266889, 46.2076148], [6.7266363, 46.2076035], [6.7263513, 46.207539], [6.7263116, 46.207533], [6.7262742, 46.2075287], [6.7261004, 46.2075123], [6.7260607, 46.2075115], [6.7260203, 46.2075108], [6.7255187, 46.2075187], [6.7254708, 46.207523], [6.7254107, 46.2075359], [6.7249587, 46.2076349], [6.7249141, 46.2076435], [6.7248571, 46.2076585], [6.724797, 46.2076808], [6.7247358, 46.2077167], [6.7247047, 46.2077296], [6.7246684, 46.2077418], [6.7246404, 46.2077489], [6.7246052, 46.2077561], [6.7245212, 46.2077676], [6.7245036, 46.2077719], [6.7244527, 46.2077945], [6.7243149, 46.2078343], [6.7242479, 46.207837], [6.7241366, 46.2078472], [6.7240609, 46.207858], [6.7240278, 46.2078623], [6.7239904, 46.2078652], [6.7237691, 46.2078579], [6.7237178, 46.207853], [6.7236089, 46.2078408], [6.7235219, 46.2078372], [6.7234949, 46.2078329], [6.7234721, 46.2078243], [6.7234016, 46.207792], [6.7228256, 46.2076198], [6.7227859, 46.2076134], [6.7227169, 46.2076064], [6.7226894, 46.2076076], [6.7226611, 46.2076126], [6.7226345, 46.2076184], [6.7224796, 46.2076751], [6.722396, 46.207726], [6.7223774, 46.2077504], [6.7223266, 46.2077992], [6.7222756, 46.2079182], [6.7222598, 46.2079455], [6.7222436, 46.2079656], [6.7222288, 46.207984], [6.7221752, 46.2080244], [6.722112, 46.208066], [6.7220062, 46.208122], [6.7219057, 46.2081701], [6.7216297, 46.2082777], [6.7215493, 46.2083014], [6.7214728, 46.2083089], [6.7213935, 46.2083107], [6.7211775, 46.208303], [6.7210435, 46.2082978], [6.7208112, 46.208302], [6.7207535, 46.208311], [6.7207267, 46.2083303], [6.7207036, 46.2083631], [6.7206908, 46.2084005], [6.7205879, 46.2086383], [6.7205563, 46.2086782], [6.7205175, 46.2087102], [6.7204727, 46.2087234], [6.7204506, 46.208734], [6.7204514, 46.2087699], [6.720452, 46.2087961], [6.7206069, 46.2088127], [6.7206866, 46.2088071], [6.7207561, 46.2088032], [6.7208321, 46.2087961], [6.7209244, 46.2087794], [6.7209837, 46.2087646], [6.7210547, 46.2087589], [6.7211207, 46.208756], [6.7211754, 46.2087625], [6.7212306, 46.208765], [6.7212881, 46.2087641], [6.7213635, 46.2087548], [6.7214387, 46.2087476], [6.7215349, 46.208744], [6.7216362, 46.20874], [6.721701, 46.2087448], [6.7217564, 46.208754], [6.7217913, 46.2087795], [6.72184, 46.2088475], [6.7218873, 46.2088973], [6.7219423, 46.2089494], [6.7221205, 46.2090651], [6.7222277, 46.2091468], [6.7222656, 46.2091905], [6.7222731, 46.2092355], [6.7222688, 46.209282]]]}}, {"type": "Feature", "properties": {"name": "Lac d'Annecy"}, "geometry": {"type": "MultiPolygon", "coordinates": [[[[6.193371, 45.8415675], [6.1937804, 45.8415664], [6.1940348, 45.8415287], [6.1942233, 45.8414597], [6.1943184, 45.8414761], [6.1943013, 45.8415729], [6.1943575, 45.8416436], [6.1946408, 45.8415575], [6.1948278, 45.8415198], [6.1954246, 45.8414462], [6.196239, 45.8412044], [6.1973097, 45.8409985], [6.1993339, 45.8405078], [6.1999701, 45.8403565], [6.2006641, 45.8403402], [6.2014953, 45.8403901], [6.2017525, 45.8404648], [6.2020496, 45.840508], [6.2022612, 45.8406469], [6.202671, 45.8408535], [6.2028344, 45.8411076], [6.203552, 45.8413347], [6.203772, 45.84136], [6.204301, 45.8415979], [6.2048125, 45.8418048], [6.2052688, 45.8417083], [6.2061931, 45.8420603], [6.2062672, 45.8420702], [6.207091, 45.8419967], [6.2073882, 45.8419837], [6.2079047, 45.8419784], [6.2079483, 45.8419651], [6.2089801, 45.8419271], [6.209173, 45.84192], [6.2095896, 45.8418722], [6.2103626, 45.8417193], [6.2106871, 45.8415995], [6.2107457, 45.8415555], [6.2108447, 45.8414755], [6.2109479, 45.8413359], [6.2111257, 45.8410123], [6.2110768, 45.8407917], [6.2109108, 45.8407947], [6.2107909, 45.8406975], [6.2105467, 45.8403095], [6.210553, 45.8402605], [6.21057, 45.8402451], [6.2105958, 45.8402217], [6.210615, 45.8402043], [6.2107735, 45.8401275], [6.2108279, 45.84001], [6.2108008, 45.8398722], [6.2107074, 45.8396919], [6.2106036, 45.839627], [6.2104521, 45.8395789], [6.2102501, 45.8395562], [6.2099792, 45.8395625], [6.2099609, 45.8395536], [6.2099567, 45.8395262], [6.2099541, 45.8395068], [6.2099988, 45.8394897], [6.2100753, 45.8393828], [6.2101374, 45.839228], [6.2102322, 45.8390048], [6.2102896, 45.8387869], [6.2104476, 45.8386415], [6.2108586, 45.8384012], [6.2109734, 45.838312], [6.2110599, 45.8382448], [6.2111666, 45.8380659], [6.211196, 45.8379884], [6.2112825, 45.8380041], [6.2113331, 45.8379654], [6.2114313, 45.8378867], [6.2116412, 45.8377263], [6.2117158, 45.8376728], [6.2117305, 45.8376631], [6.2117377, 45.8376576], [6.2119569, 45.8376189], [6.2119706, 45.8375892], [6.2122212, 45.8376385], [6.2123833, 45.8376446], [6.2124372, 45.8376457], [6.2124642, 45.8376712], [6.212584, 45.8376736], [6.2127342, 45.8376514], [6.2128309, 45.8376379], [6.2129348, 45.8376205], [6.2130951, 45.837552], [6.2131334, 45.8375109], [6.2132034, 45.8374358], [6.2132999, 45.8373401], [6.2134658, 45.8372029], [6.2135226, 45.8371638], [6.2135188, 45.8371163], [6.2136109, 45.8370272], [6.21407, 45.8367098], [6.2141823, 45.8367588], [6.2144306, 45.8367051], [6.2144203, 45.8366247], [6.2144654, 45.8366228], [6.2144801, 45.8366424], [6.2149928, 45.8365921], [6.2152877, 45.8365632], [6.2157096, 45.8365219], [6.2161694, 45.8364768], [6.2167529, 45.8363297], [6.216913, 45.8361551], [6.2169544, 45.83488], [6.2170809, 45.8343054], [6.2171398, 45.8336416], [6.2172047, 45.8335761], [6.2173494, 45.8333536], [6.2176072, 45.8332051], [6.2178868, 45.8330704], [6.2181392, 45.8329688], [6.2184589, 45.8328077], [6.2185994, 45.8327532], [6.2190328, 45.8325038], [6.2191554, 45.8323855], [6.2193513, 45.8322618], [6.2195098, 45.8320881], [6.2196251, 45.8319115], [6.2198292, 45.8315182], [6.2198644, 45.8313335], [6.2198586, 45.8310045], [6.2197797, 45.830738], [6.2197001, 45.8305603], [6.2195218, 45.8304385], [6.219492, 45.8304183], [6.2194626, 45.8303405], [6.2194545, 45.8303084], [6.2194344, 45.8302287], [6.219407, 45.8301205], [6.2192582, 45.829908], [6.2190458, 45.8294837], [6.2190048, 45.8294018], [6.2189807, 45.8293569], [6.218773, 45.8289686], [6.2187029, 45.8289487], [6.2181212, 45.8279514], [6.218131, 45.8279201], [6.2181849, 45.8276799], [6.2182024, 45.8276018], [6.2182308, 45.8274755], [6.2182403, 45.827433], [6.218333, 45.8272113], [6.2183408, 45.8271928], [6.218373, 45.8271919], [6.2184146, 45.827105], [6.2184294, 45.8269975], [6.2184628, 45.8268205], [6.2184937, 45.8267293], [6.2186321, 45.8265408], [6.218674, 45.8264881], [6.2187465, 45.8262524], [6.2187566, 45.8260826], [6.2187356, 45.8258996], [6.218908, 45.8255035], [6.218922, 45.8254675], [6.2189391, 45.8254503], [6.2191027, 45.8252854], [6.2191871, 45.8252004], [6.2194557, 45.8249569], [6.2196121, 45.8245459], [6.2196163, 45.8245348], [6.2196337, 45.8244892], [6.2198496, 45.8240123], [6.2200427, 45.823835], [6.2201071, 45.8237862], [6.2202871, 45.8236498], [6.2207749, 45.8234805], [6.2209605, 45.8234641], [6.2210706, 45.8234326], [6.2211277, 45.8234163], [6.2211585, 45.8234075], [6.2212678, 45.8233763], [6.2214975, 45.8232852], [6.221685, 45.8232372], [6.2219012, 45.8231723], [6.2220097, 45.8231676], [6.2220404, 45.8231704], [6.2220881, 45.8231747], [6.2221525, 45.8231713], [6.222161, 45.8231709], [6.2222628, 45.8232629], [6.222412, 45.8233436], [6.2226533, 45.8233793], [6.223255, 45.8233196], [6.2232956, 45.8233959], [6.2242138, 45.823287], [6.2249329, 45.8232018], [6.2254554, 45.823228], [6.2255488, 45.8232229], [6.2256619, 45.8232168], [6.2256626, 45.8232322], [6.2257136, 45.8232333], [6.225748, 45.8232341], [6.2262228, 45.8231623], [6.2263247, 45.8231469], [6.2263588, 45.8231417], [6.2265645, 45.8230822], [6.226595, 45.8230618], [6.2268148, 45.8229292], [6.2268709, 45.8228576], [6.2269467, 45.8227131], [6.2269599, 45.8225465], [6.2269454, 45.8224533], [6.2268601, 45.8224206], [6.226812, 45.8224021], [6.2268036, 45.8222908], [6.2267996, 45.8222373], [6.2267259, 45.8221379], [6.2267207, 45.8218317], [6.2266718, 45.821742], [6.2266535, 45.8216747], [6.226651, 45.8216196], [6.2266579, 45.8215441], [6.2266683, 45.8215077], [6.2266912, 45.8214523], [6.2267174, 45.8214126], [6.2268515, 45.8212596], [6.227062, 45.8209817], [6.2271656, 45.8208009], [6.2272733, 45.820721], [6.2273524, 45.8206948], [6.227565, 45.8205705], [6.2277232, 45.8204583], [6.2278979, 45.8203142], [6.2279446, 45.8201903], [6.2281471, 45.8200159], [6.2281769, 45.8199964], [6.2282292, 45.8199288], [6.2282381, 45.8198587], [6.2282774, 45.8197846], [6.2283182, 45.8197463], [6.2284229, 45.819667], [6.2285641, 45.8194223], [6.228635, 45.8192835], [6.2286785, 45.8191651], [6.2286946, 45.8190667], [6.2287062, 45.8188124], [6.2287116, 45.8186762], [6.2287304, 45.8186147], [6.2287819, 45.8185145], [6.2290616, 45.8180572], [6.2291767, 45.8178209], [6.2291408, 45.8175927], [6.2291032, 45.8174964], [6.2289808, 45.8172889], [6.2289771, 45.8171609], [6.2289651, 45.8170777], [6.2289329, 45.8168935], [6.2289302, 45.8168234], [6.2289558, 45.8167117], [6.2289554, 45.8163194], [6.2289356, 45.8162159], [6.2289273, 45.8161826], [6.2288953, 45.8161492], [6.2287601, 45.8160529], [6.2287623, 45.8160028], [6.2287931, 45.815979], [6.2289132, 45.8158863], [6.229133, 45.8157324], [6.2293913, 45.8154482], [6.2295067, 45.8153216], [6.2296186, 45.815187], [6.2297299, 45.814977], [6.2298362, 45.8147653], [6.2298789, 45.8147015], [6.229928, 45.8146419], [6.2302268, 45.814385], [6.2304176, 45.8141873], [6.2305541, 45.8140366], [6.2305999, 45.8139726], [6.2306261, 45.8139192], [6.2306254, 45.8138305], [6.2306388, 45.8137819], [6.2306475, 45.8137257], [6.2306425, 45.8136388], [6.2306221, 45.813556], [6.2305926, 45.8134934], [6.2304809, 45.8132456], [6.2304883, 45.8131789], [6.2305469, 45.8130383], [6.2305616, 45.8129613], [6.2305704, 45.812749], [6.2305422, 45.8126536], [6.2305637, 45.8125807], [6.2306527, 45.8124476], [6.2306877, 45.8123422], [6.2307796, 45.8121077], [6.2308198, 45.8120086], [6.2308989, 45.8118955], [6.2309378, 45.8118133], [6.2310036, 45.8116833], [6.2310695, 45.811479], [6.2310898, 45.8113434], [6.2310986, 45.8112326], [6.2311332, 45.8111082], [6.2311591, 45.810871], [6.2312034, 45.8106177], [6.2312522, 45.8104448], [6.2313201, 45.8102999], [6.2313978, 45.8101727], [6.2314461, 45.810054], [6.231548, 45.8097446], [6.2315789, 45.8096511], [6.2316095, 45.8095204], [6.231592, 45.8095037], [6.2315708, 45.8091295], [6.2315293, 45.8090117], [6.2315148, 45.8088717], [6.2315505, 45.8087556], [6.2315601, 45.8086097], [6.2315762, 45.8085527], [6.2315789, 45.8085317], [6.2316051, 45.8084852], [6.2316191, 45.8084611], [6.2316446, 45.8084294], [6.2317115, 45.8083517], [6.2317465, 45.8083246], [6.2317937, 45.8082878], [6.2318364, 45.8082629], [6.2318726, 45.8082227], [6.2318927, 45.8081853], [6.2319142, 45.8081675], [6.2319289, 45.8081498], [6.2319463, 45.8080572], [6.2319611, 45.8079759], [6.2319235, 45.8078581], [6.2319048, 45.8077226], [6.2319061, 45.8076777], [6.2319142, 45.8076412], [6.2319541, 45.807556], [6.232024, 45.807462], [6.2320569, 45.8073512], [6.2320709, 45.8073033], [6.2320774, 45.8072719], [6.2320748, 45.8072133], [6.2320705, 45.8071534], [6.232059, 45.8071017], [6.2320173, 45.8069988], [6.2319999, 45.8069322], [6.2319638, 45.8066989], [6.2318917, 45.8066865], [6.2320201, 45.8064156], [6.2320697, 45.8062193], [6.2321006, 45.8061576], [6.232117, 45.8060927], [6.2321757, 45.8060987], [6.2321918, 45.8060623], [6.2321971, 45.8060062], [6.2321945, 45.8059585], [6.232181, 45.8059061], [6.2321529, 45.8058482], [6.2321207, 45.8058014], [6.2320094, 45.8056808], [6.2319343, 45.8055939], [6.2318726, 45.8055041], [6.2316956, 45.8051779], [6.2316513, 45.8051152], [6.2316352, 45.8050713], [6.2315674, 45.8049239], [6.2315644, 45.804859], [6.2315248, 45.8047653], [6.2314337, 45.8046212], [6.2306837, 45.8038078], [6.2302646, 45.8033604], [6.2301697, 45.8032577], [6.2300997, 45.803162], [6.2299951, 45.8029892], [6.2299508, 45.8029402], [6.2298743, 45.8028831], [6.2298226, 45.8028332], [6.2297634, 45.8027373], [6.2297578, 45.8026764], [6.2297681, 45.8026549], [6.2297643, 45.8026367], [6.2297531, 45.8025883], [6.2296632, 45.8024621], [6.229423, 45.8020558], [6.2293929, 45.802001], [6.2293446, 45.8018907], [6.229271, 45.8017608], [6.2292397, 45.8017031], [6.2290084, 45.8014651], [6.228968, 45.8014146], [6.2289415, 45.8013568], [6.2289245, 45.8012802], [6.2289164, 45.801219], [6.2289144, 45.8011597], [6.2289242, 45.8011194], [6.2289503, 45.8010853], [6.2289753, 45.801062], [6.2289922, 45.8010145], [6.2290003, 45.8009579], [6.2290147, 45.8008127], [6.2290347, 45.8005243], [6.2290224, 45.8004541], [6.2290165, 45.8003752], [6.2290217, 45.8003015], [6.2290556, 45.8002285], [6.2290576, 45.8001658], [6.2290972, 45.800126], [6.2291251, 45.8000888], [6.2291415, 45.8000549], [6.2291649, 45.8000166], [6.2291783, 45.7999843], [6.2292024, 45.7999511], [6.2292313, 45.7999231], [6.2292594, 45.7999002], [6.2292843, 45.7998703], [6.2293159, 45.7998264], [6.2293345, 45.7997957], [6.2294275, 45.7996558], [6.2295057, 45.7995569], [6.2297412, 45.7993372], [6.2298583, 45.7992475], [6.2301084, 45.7990559], [6.2301768, 45.7990039], [6.2302274, 45.7989631], [6.2302549, 45.798983], [6.2304728, 45.7988459], [6.2304905, 45.7988175], [6.2304908, 45.7987922], [6.2303695, 45.7985273], [6.2302669, 45.7982779], [6.2302622, 45.7981317], [6.2302068, 45.7979898], [6.2298823, 45.7977064], [6.2294304, 45.7974196], [6.2287771, 45.7972303], [6.2273947, 45.7968658], [6.2265644, 45.7968723], [6.2264599, 45.7969026], [6.2263674, 45.7969942], [6.2263566, 45.7970859], [6.2262788, 45.7971176], [6.2261957, 45.797113], [6.2261488, 45.7970672], [6.2260804, 45.7970587], [6.2259664, 45.7970503], [6.2259181, 45.7969138], [6.2259356, 45.7968512], [6.2257381, 45.7968406], [6.2256548, 45.7968361], [6.2254311, 45.7969329], [6.2253811, 45.7969169], [6.2253564, 45.7967371], [6.2252824, 45.7965543], [6.2248114, 45.7960009], [6.2242714, 45.79568], [6.2241066, 45.7950818], [6.2236337, 45.7946544], [6.2231149, 45.7944915], [6.22276, 45.7943954], [6.222615, 45.7943562], [6.2224057, 45.7943256], [6.2222207, 45.7943097], [6.2219994, 45.7943761], [6.2217446, 45.7944752], [6.2215957, 45.7945725], [6.2215501, 45.7946351], [6.2215206, 45.7946576], [6.2214985, 45.7946505], [6.2214891, 45.7946253], [6.221404, 45.7946307], [6.2214053, 45.794665], [6.2213691, 45.7946641], [6.2212665, 45.7946052], [6.2212329, 45.7945374], [6.2213147, 45.7944345], [6.2212316, 45.794414], [6.2212095, 45.7943817], [6.2211096, 45.7943457], [6.2210875, 45.794298], [6.2210727, 45.7942662], [6.2211035, 45.7942335], [6.2211283, 45.7942277], [6.2209545, 45.7941227], [6.2209591, 45.7940328], [6.2210928, 45.7938178], [6.2209744, 45.7937298], [6.2207729, 45.7935584], [6.2206689, 45.7934698], [6.2205624, 45.7934219], [6.2203934, 45.793348], [6.2203968, 45.793333], [6.2203337, 45.7933059], [6.2202647, 45.7932348], [6.2201829, 45.7931722], [6.2199421, 45.7930796], [6.2198643, 45.7930807], [6.2197811, 45.7930535], [6.2195022, 45.7930137], [6.2193527, 45.7929945], [6.2193192, 45.7929796], [6.2192426, 45.7930025], [6.2192315, 45.7929992], [6.2192205, 45.7930032], [6.2192065, 45.7930019], [6.2191234, 45.7929979], [6.2190568, 45.7931156], [6.2187133, 45.793087], [6.2186192, 45.7931387], [6.2185789, 45.7931402], [6.2185855, 45.7930974], [6.2172064, 45.7929955], [6.2171337, 45.7930724], [6.2170413, 45.7930672], [6.2170269, 45.7931575], [6.2170091, 45.7931944], [6.2169877, 45.7931986], [6.2169615, 45.793189], [6.2169464, 45.7931752], [6.2169699, 45.793113], [6.2169733, 45.7930841], [6.2169753, 45.792999], [6.216936, 45.7929305], [6.216937, 45.7929064], [6.2169823, 45.7928295], [6.2169522, 45.7928203], [6.2169226, 45.7928112], [6.2168708, 45.7928774], [6.2165337, 45.7928617], [6.2157891, 45.7928549], [6.2157726, 45.7928548], [6.2152454, 45.792928], [6.2149024, 45.7931775], [6.214858, 45.7932334], [6.2149103, 45.7933475], [6.2149599, 45.7935411], [6.214917, 45.7937028], [6.2149133, 45.7937244], [6.2149173, 45.793837], [6.2148932, 45.7938667], [6.2148033, 45.7939114], [6.2146767, 45.7939607], [6.2145701, 45.794016], [6.2143558, 45.7940546], [6.2139507, 45.7941276], [6.2134774, 45.7954668], [6.2134383, 45.7955774], [6.2135011, 45.7956442], [6.2135341, 45.7956554], [6.2135251, 45.7956765], [6.2135161, 45.7956959], [6.2134495, 45.7956834], [6.2133552, 45.7957115], [6.2132486, 45.7957757], [6.2131807, 45.7958167], [6.2131491, 45.7961774], [6.2131189, 45.796523], [6.213095, 45.7967953], [6.2131041, 45.79685], [6.2131267, 45.7970266], [6.2132312, 45.7970573], [6.2132473, 45.7973165], [6.2131779, 45.79743], [6.2129595, 45.79753], [6.2129517, 45.7979224], [6.2130644, 45.7983184], [6.2130162, 45.7986793], [6.2129861, 45.7988661], [6.2128709, 45.7991261], [6.2128245, 45.7995886], [6.2127495, 45.8003348], [6.2127095, 45.8007706], [6.2126666, 45.800996], [6.2125563, 45.8014805], [6.2124963, 45.8024264], [6.21244, 45.8026695], [6.2124896, 45.8027565], [6.2123609, 45.803094], [6.2122589, 45.8033754], [6.2122093, 45.8036596], [6.2122241, 45.8036811], [6.2121275, 45.8042663], [6.2120967, 45.8047403], [6.2120605, 45.8047413], [6.2119411, 45.8053845], [6.211917, 45.8053821], [6.2118814, 45.8055995], [6.211872, 45.8056691], [6.2118868, 45.8057047], [6.2118988, 45.8058673], [6.2118465, 45.8060819], [6.2117627, 45.8063264], [6.2117513, 45.806324], [6.2116921, 45.8064882], [6.211636, 45.806511], [6.2115904, 45.8065652], [6.2115844, 45.8066246], [6.2115984, 45.8066596], [6.2116179, 45.8066732], [6.2116387, 45.8066821], [6.2115738, 45.8068462], [6.2109657, 45.8086877], [6.2110632, 45.8087133], [6.210867, 45.8098787], [6.2109344, 45.8099378], [6.2108855, 45.8103957], [6.2108213, 45.8105797], [6.193371, 45.8415675]]], [[[6.2108213, 45.8105797], [6.2107224, 45.8108629], [6.210597, 45.8109094], [6.2103161, 45.8118877], [6.2104932, 45.8124585], [6.2105508, 45.8126444], [6.2106224, 45.812875], [6.2107846, 45.8128827], [6.2107806, 45.8129546], [6.2107103, 45.8130554], [6.2107139, 45.8131696], [6.2106325, 45.8131681], [6.2106007, 45.8133262], [6.210518, 45.8135213], [6.2105122, 45.8135349], [6.2104524, 45.8136759], [6.2102805, 45.8136448], [6.2102266, 45.8137063], [6.2101586, 45.8136981], [6.2101636, 45.8137508], [6.2101388, 45.8137807], [6.2100824, 45.8137665], [6.2100232, 45.8138395], [6.2100145, 45.8138503], [6.2099153, 45.8139726], [6.2099067, 45.8139832], [6.2098852, 45.8140097], [6.2098444, 45.8140601], [6.2096506, 45.8142876], [6.2095634, 45.8144549], [6.2094885, 45.8144948], [6.2094549, 45.8145935], [6.2093017, 45.8148987], [6.2093716, 45.8149174], [6.209315, 45.8150143], [6.2092927, 45.8150093], [6.2092738, 45.8150371], [6.2092459, 45.8150296], [6.2091105, 45.8151887], [6.2087937, 45.81541], [6.2087072, 45.815368], [6.2085647, 45.8155003], [6.2085195, 45.8156365], [6.2084354, 45.8157433], [6.2084018, 45.8158324], [6.2083929, 45.8158917], [6.2083556, 45.8163103], [6.2083543, 45.8163254], [6.2082996, 45.8166484], [6.2082582, 45.8169049], [6.2081875, 45.8174579], [6.2108213, 45.8105797]]], [[[6.2081875, 45.8174579], [6.2080533, 45.8179703], [6.2080047, 45.8180985], [6.2078093, 45.8185327], [6.2077098, 45.8187067], [6.2076288, 45.8187952], [6.2075161, 45.8189552], [6.2071971, 45.8195522], [6.2071335, 45.8196711], [6.2070775, 45.819884], [6.206985, 45.8200895], [6.2069282, 45.8201409], [6.2069159, 45.8201986], [6.2069662, 45.8202371], [6.2069787, 45.8203176], [6.2069309, 45.8203947], [6.2069068, 45.8204329], [6.2069214, 45.8204873], [6.2069233, 45.8205449], [6.2068864, 45.8206301], [6.2068626, 45.8207866], [6.2068972, 45.8208356], [6.2068958, 45.8209204], [6.2070623, 45.8211631], [6.2071992, 45.8214078], [6.2071969, 45.8214285], [6.2072521, 45.8215054], [6.2072868, 45.8215429], [6.2073418, 45.8215927], [6.2073914, 45.8216266], [6.2074196, 45.8216357], [6.2076014, 45.8217305], [6.2078097, 45.8218416], [6.2078621, 45.8218785], [6.2079191, 45.8219205], [6.2079812, 45.8219804], [6.2080456, 45.8220421], [6.2082918, 45.822301], [6.2085505, 45.8225784], [6.2086999, 45.8227271], [6.2087524, 45.8227963], [6.2088035, 45.8228947], [6.2088445, 45.8229766], [6.2088769, 45.823059], [6.2088965, 45.8231473], [6.2089182, 45.8233067], [6.2089534, 45.8234735], [6.2089575, 45.8235824], [6.2089508, 45.8236647], [6.2089307, 45.8237334], [6.2088962, 45.8238178], [6.2087703, 45.824063], [6.2087019, 45.8241829], [6.208677, 45.8242569], [6.2086098, 45.8244967], [6.2085519, 45.8247326], [6.2084982, 45.8249672], [6.2084714, 45.8251958], [6.2084542, 45.8252023], [6.2084502, 45.825256], [6.208459, 45.8253406], [6.2084257, 45.8254792], [6.2083441, 45.8256736], [6.2082458, 45.8259193], [6.2082287, 45.8260222], [6.2081678, 45.8261553], [6.2081783, 45.8261836], [6.2081706, 45.8262337], [6.2080893, 45.8263033], [6.2080108, 45.8263907], [6.2079581, 45.826441], [6.2079581, 45.8264666], [6.2079481, 45.826478], [6.2079328, 45.8264887], [6.2079138, 45.8264965], [6.2078923, 45.8265019], [6.2078609, 45.8265011], [6.2078367, 45.8264921], [6.2075455, 45.826609], [6.2075478, 45.8266328], [6.2075221, 45.8266714], [6.2074811, 45.8267008], [6.2074292, 45.8267154], [6.2073837, 45.8267186], [6.2073661, 45.8267812], [6.2073518, 45.8268321], [6.2073266, 45.8269085], [6.2073195, 45.8269415], [6.2073215, 45.8269881], [6.2073118, 45.8269875], [6.2072245, 45.8269819], [6.2071666, 45.8269782], [6.2070998, 45.8272161], [6.2070869, 45.8272693], [6.207184, 45.8272843], [6.2071561, 45.8274453], [6.2071882, 45.8274503], [6.2071627, 45.82759], [6.2071372, 45.827737], [6.2071608, 45.8277387], [6.2071607, 45.8277988], [6.2071802, 45.8277984], [6.207178, 45.8279097], [6.2070569, 45.8279024], [6.2070188, 45.8280978], [6.2071219, 45.828121], [6.2071276, 45.8281316], [6.2071706, 45.8282803], [6.2071666, 45.8283799], [6.2072128, 45.8283846], [6.2071836, 45.8284696], [6.2070871, 45.8285648], [6.2070377, 45.8286293], [6.2070088, 45.828695], [6.2069606, 45.828795], [6.206842, 45.8287689], [6.2068205, 45.8288157], [6.2067849, 45.8288423], [6.2067396, 45.8288548], [6.2066988, 45.8288545], [6.2066466, 45.8290363], [6.2066053, 45.8291801], [6.2065534, 45.8293915], [6.2065027, 45.829616], [6.2064408, 45.8298365], [6.2064272, 45.8298752], [6.2064121, 45.8299124], [6.2063996, 45.8299603], [6.2062494, 45.8305855], [6.2062628, 45.8305925], [6.206242, 45.8306274], [6.2062682, 45.8306378], [6.2063554, 45.8307294], [6.2063929, 45.8307598], [6.2064687, 45.8307892], [6.2065131, 45.8308856], [6.2065416, 45.8309012], [6.2065721, 45.830955], [6.2065614, 45.8310462], [6.2065404, 45.8311199], [6.2065234, 45.8311596], [6.2064989, 45.8311943], [6.2064307, 45.831279], [6.2064948, 45.8313335], [6.2065324, 45.8314046], [6.2065043, 45.8315372], [6.2064936, 45.8316297], [6.2064747, 45.8317765], [6.2064962, 45.8317886], [6.20634, 45.8319208], [6.2063494, 45.8319353], [6.2062635, 45.8319844], [6.2062609, 45.8319979], [6.2061913, 45.8320419], [6.2061438, 45.8319869], [6.2060651, 45.8320012], [6.2060556, 45.8319825], [6.2058746, 45.8320213], [6.2058007, 45.8320607], [6.2057469, 45.8320738], [6.2056835, 45.8320583], [6.205629, 45.8320392], [6.2054681, 45.8320486], [6.205451, 45.8319705], [6.2054456, 45.8318577], [6.2054609, 45.8318568], [6.2054622, 45.8317816], [6.2054703, 45.8315578], [6.2055151, 45.8313905], [6.2055387, 45.8313232], [6.2056096, 45.8310959], [6.2056502, 45.831006], [6.2057275, 45.830899], [6.2057732, 45.8308523], [6.2058427, 45.8307971], [6.2059308, 45.8307439], [6.2059777, 45.8306194], [6.2060569, 45.8306276], [6.2061529, 45.8303598], [6.2060985, 45.8303481], [6.2059897, 45.8303679], [6.2057607, 45.8303853], [6.2053412, 45.8298393], [6.2051994, 45.8297128], [6.204998, 45.8298514], [6.2049026, 45.829771], [6.2048083, 45.8298284], [6.2046074, 45.8296793], [6.2045302, 45.8297223], [6.2044658, 45.8296721], [6.2044812, 45.8296534], [6.2044211, 45.8295852], [6.2045052, 45.8295459], [6.2044698, 45.8295193], [6.204447, 45.8295277], [6.2043739, 45.8294632], [6.2043947, 45.8294459], [6.2043397, 45.8294011], [6.2043169, 45.8294048], [6.2042623, 45.8293535], [6.2041627, 45.8292656], [6.2041895, 45.8292483], [6.2041652, 45.8292227], [6.2042793, 45.8291573], [6.2041298, 45.8290506], [6.2040956, 45.8290217], [6.2040152, 45.8290025], [6.2039611, 45.8289809], [6.2040058, 45.8289408], [6.2039555, 45.828917], [6.2039394, 45.8289287], [6.2038778, 45.8289245], [6.2038582, 45.8289395], [6.2037767, 45.8288886], [6.2035599, 45.828753], [6.2035639, 45.8287413], [6.2034707, 45.8287012], [6.2034062, 45.8287721], [6.2033725, 45.8287593], [6.2032703, 45.8287204], [6.2032374, 45.8287604], [6.2030356, 45.8286763], [6.2030204, 45.8286703], [6.2030503, 45.8286358], [6.2031085, 45.8285662], [6.2030008, 45.8285165], [6.2029105, 45.8284727], [6.2026861, 45.8283659], [6.2024931, 45.828271], [6.2023126, 45.8281928], [6.2019619, 45.8280998], [6.2019334, 45.8280971], [6.2017554, 45.8280801], [6.2016132, 45.8280888], [6.2014405, 45.82809], [6.2009443, 45.8283695], [6.2008825, 45.8283697], [6.2007648, 45.8283702], [6.200662, 45.8284446], [6.2007083, 45.8285937], [6.2006822, 45.8285969], [6.2006201, 45.8286045], [6.2003833, 45.8286335], [6.2003611, 45.8286295], [6.2003315, 45.828636], [6.2003134, 45.8286336], [6.2002966, 45.8286222], [6.2001307, 45.8284684], [6.2000361, 45.8284815], [6.2000079, 45.8285096], [6.199906, 45.8284694], [6.1998202, 45.8284558], [6.1997518, 45.8284404], [6.1996298, 45.8284372], [6.1993769, 45.828383], [6.1991624, 45.8283726], [6.1990332, 45.828392], [6.1990053, 45.828387], [6.1990008, 45.8283596], [6.19898, 45.8283442], [6.1989324, 45.8283236], [6.1988693, 45.8283077], [6.1988291, 45.8282703], [6.1987406, 45.8282601], [6.1987473, 45.8282229], [6.1986571, 45.8281914], [6.1986175, 45.8281778], [6.1983674, 45.8280923], [6.1980526, 45.8280105], [6.1979038, 45.8280087], [6.1976999, 45.8280218], [6.1974531, 45.8280666], [6.1974005, 45.8280601], [6.1973056, 45.8280474], [6.1971615, 45.8280241], [6.1970092, 45.8279904], [6.1968859, 45.8279657], [6.1966069, 45.827965], [6.1965023, 45.8279572], [6.1963015, 45.8278969], [6.196222, 45.8279087], [6.1959147, 45.8279022], [6.1957869, 45.8279651], [6.1956504, 45.8280324], [6.1954015, 45.8280013], [6.195353, 45.8279952], [6.1952336, 45.8280037], [6.1949893, 45.8280233], [6.194555, 45.8281674], [6.1938887, 45.828154], [6.193745, 45.8281897], [6.193674, 45.8282709], [6.1936042, 45.8283424], [6.1933087, 45.8284523], [6.1931521, 45.8285059], [6.1930447, 45.8285445], [6.1929988, 45.8285838], [6.1928569, 45.8286876], [6.1927345, 45.8287829], [6.1925527, 45.8289186], [6.1922852, 45.828953], [6.1922628, 45.828961], [6.1922044, 45.8289819], [6.1920588, 45.8290727], [6.1919464, 45.8291447], [6.1919036, 45.8291712], [6.191738, 45.8292861], [6.1915998, 45.8293969], [6.1915793, 45.8294133], [6.1913088, 45.8295546], [6.1912688, 45.8295755], [6.1910289, 45.829663], [6.1908947, 45.8297191], [6.1907614, 45.8297871], [6.1906473, 45.8298634], [6.1905917, 45.8299342], [6.1905184, 45.8300485], [6.1905256, 45.8301352], [6.1907927, 45.8301708], [6.190822, 45.8302382], [6.1906654, 45.8303326], [6.1905233, 45.8304412], [6.1904606, 45.8304957], [6.1903717, 45.8305439], [6.1902682, 45.8305393], [6.1901175, 45.830556], [6.1900556, 45.8305918], [6.1899513, 45.8306447], [6.189847, 45.8306429], [6.1898462, 45.8306955], [6.1898102, 45.8306932], [6.1897371, 45.8306934], [6.1896584, 45.8306824], [6.1895612, 45.8306426], [6.1894331, 45.8305354], [6.18917, 45.8304837], [6.189122, 45.8304661], [6.1890344, 45.8304768], [6.1889637, 45.8304765], [6.188849, 45.8304621], [6.1887993, 45.8304107], [6.1886756, 45.8303851], [6.1885925, 45.8304028], [6.1879997, 45.8303484], [6.1878589, 45.8303776], [6.1877288, 45.830429], [6.1876407, 45.8305158], [6.1869851, 45.8308463], [6.1866579, 45.8309514], [6.186297, 45.8311577], [6.1861678, 45.8313156], [6.1861271, 45.8313599], [6.1860899, 45.8314167], [6.1860612, 45.8315225], [6.185971, 45.8317996], [6.1859116, 45.8318754], [6.1858823, 45.8319345], [6.1858346, 45.832015], [6.1858315, 45.8320719], [6.1858299, 45.8321255], [6.1858038, 45.8321781], [6.1857545, 45.8321975], [6.1856913, 45.8322071], [6.1856066, 45.8322275], [6.1854001, 45.8323069], [6.1852538, 45.8323778], [6.1851305, 45.8324186], [6.1849103, 45.832498], [6.1847901, 45.8325538], [6.1847624, 45.832593], [6.1848299, 45.8326675], [6.1848005, 45.8327731], [6.1846267, 45.8328138], [6.1843575, 45.8329509], [6.1843902, 45.833055], [6.184317, 45.8331129], [6.1841947, 45.8330926], [6.1841515, 45.8331297], [6.1841348, 45.8331669], [6.1841317, 45.8332254], [6.1841568, 45.8332264], [6.1842617, 45.8332876], [6.184275, 45.8332954], [6.1842254, 45.833333], [6.1840075, 45.8334984], [6.183969, 45.8335692], [6.1839613, 45.8336315], [6.183949, 45.8337163], [6.1838616, 45.8338782], [6.1837709, 45.8340283], [6.1837487, 45.8340651], [6.1837163, 45.8341424], [6.1836547, 45.8342079], [6.1835823, 45.8342551], [6.1834714, 45.8343248], [6.1834206, 45.8343517], [6.1833389, 45.834371], [6.1832727, 45.8343731], [6.1831833, 45.8343871], [6.1831433, 45.8344214], [6.1831186, 45.8344612], [6.1831032, 45.8345191], [6.1830724, 45.8345556], [6.1830046, 45.8345706], [6.1829245, 45.8345642], [6.1827967, 45.8345728], [6.1826056, 45.8346629], [6.1824084, 45.8347692], [6.1823561, 45.8348304], [6.1822174, 45.8349066], [6.1820849, 45.8349538], [6.1819001, 45.8349935], [6.1816089, 45.8350461], [6.1815519, 45.8351019], [6.1815303, 45.8351578], [6.1814148, 45.8352554], [6.181168, 45.8353802], [6.1810694, 45.8354043], [6.180984, 45.8354284], [6.1808621, 45.8354418], [6.180747, 45.8354965], [6.1806968, 45.8355315], [6.1806798, 45.8355628], [6.1806812, 45.8355853], [6.1806807, 45.8356078], [6.1806692, 45.8356266], [6.1805447, 45.8357167], [6.1804812, 45.8357626], [6.180472, 45.8357894], [6.1804697, 45.835827], [6.1804628, 45.8358586], [6.1804327, 45.8358908], [6.1803919, 45.8359257], [6.1803796, 45.8359574], [6.1803857, 45.8359745], [6.180405, 45.8359933], [6.180415, 45.8360153], [6.1804204, 45.8360438], [6.1804296, 45.8360846], [6.1804227, 45.836106], [6.1803988, 45.8361114], [6.1803788, 45.8361076], [6.1803595, 45.8360813], [6.180338, 45.8360507], [6.1802995, 45.8360432], [6.1802476, 45.836063], [6.1800916, 45.8360743], [6.1797939, 45.8361866], [6.1798317, 45.836272], [6.1797999, 45.8363355], [6.1797804, 45.8363737], [6.1797326, 45.8363947], [6.1797008, 45.8364181], [6.1796627, 45.8364545], [6.1795743, 45.8365568], [6.179553, 45.8366], [6.1795424, 45.8366887], [6.1795477, 45.836812], [6.1795406, 45.8368798], [6.1795035, 45.8369489], [6.1794681, 45.8370068], [6.1794553, 45.8370876], [6.179446, 45.8371766], [6.1794137, 45.8372496], [6.179379, 45.8372958], [6.1793413, 45.8373226], [6.1792866, 45.8373323], [6.1792534, 45.8373376], [6.1792226, 45.8373521], [6.1791479, 45.8374047], [6.1790932, 45.8374729], [6.179027, 45.837658], [6.179007, 45.837716], [6.17897, 45.8377514], [6.1788783, 45.8378152], [6.178734, 45.8379714], [6.1786285, 45.8380231], [6.1785818, 45.838046], [6.1784298, 45.8381007], [6.1783413, 45.8381326], [6.1783185, 45.838142], [6.1779956, 45.8382612], [6.1779594, 45.83828], [6.1779787, 45.8383406], [6.1779686, 45.8383701], [6.1779079, 45.8384124], [6.1778657, 45.8384756], [6.1776321, 45.8388701], [6.1776178, 45.8389223], [6.1776059, 45.8389661], [6.1775233, 45.8392691], [6.1774918, 45.8393385], [6.1774144, 45.8394645], [6.1773671, 45.8395252], [6.1772265, 45.8397778], [6.1771612, 45.8398986], [6.1771447, 45.839929], [6.1771172, 45.8400261], [6.1770761, 45.8400839], [6.1770287, 45.8401506], [6.1769172, 45.8402671], [6.1767104, 45.8404781], [6.1766783, 45.840487], [6.1766497, 45.8404882], [6.17661, 45.8404825], [6.176575, 45.8405], [6.1765563, 45.8405114], [6.1765692, 45.8405264], [6.176575, 45.8405468], [6.1765779, 45.8405679], [6.1765546, 45.840594], [6.1764985, 45.8406094], [6.1763777, 45.8406249], [6.1762393, 45.8406395], [6.1758768, 45.8406773], [6.175756, 45.8407225], [6.1756404, 45.840777], [6.175533, 45.8408274], [6.1753462, 45.8409201], [6.1752505, 45.8410071], [6.1751255, 45.8412446], [6.1750982, 45.8413367], [6.1750942, 45.8413749], [6.175147, 45.8413905], [6.1751999, 45.8414124], [6.1752009, 45.8414415], [6.1751955, 45.8414606], [6.1751761, 45.8414746], [6.1751684, 45.8415002], [6.1751562, 45.8415123], [6.1751206, 45.8415137], [6.1750576, 45.8415116], [6.1750444, 45.8416395], [6.1750448, 45.841654], [6.1750504, 45.8418945], [6.1750518, 45.8419131], [6.1750622, 45.8419826], [6.1750829, 45.8420571], [6.1750986, 45.8421302], [6.1751199, 45.8421859], [6.1754972, 45.8421711], [6.1754939, 45.8421917], [6.1754671, 45.8422029], [6.1754286, 45.842209], [6.1753786, 45.8422169], [6.1752699, 45.84223], [6.1752431, 45.8422655], [6.1752324, 45.8423243], [6.1752176, 45.8423654], [6.1751801, 45.8424019], [6.1751345, 45.842428], [6.1751177, 45.8424813], [6.1750473, 45.8427405], [6.1750125, 45.8428118], [6.174843, 45.8430933], [6.17482, 45.8431707], [6.1748764, 45.8432428], [6.1750449, 45.8434451], [6.1750598, 45.8434526], [6.1750617, 45.8434577], [6.1750613, 45.8434751], [6.175049, 45.8434872], [6.1750224, 45.8434901], [6.1749943, 45.8434883], [6.1749654, 45.8434931], [6.1749492, 45.8435049], [6.1749284, 45.8435274], [6.1747076, 45.8438864], [6.1743794, 45.8441599], [6.1742782, 45.8443474], [6.1741977, 45.8444912], [6.1741816, 45.8444993], [6.1741642, 45.8445009], [6.1741427, 45.8444988], [6.1741256, 45.8444892], [6.1741032, 45.8444633], [6.1740317, 45.8444836], [6.1739453, 45.8445097], [6.1739499, 45.8445282], [6.1739459, 45.8445427], [6.1739248, 45.8445618], [6.173904, 45.84457], [6.1738713, 45.8445725], [6.1738219, 45.844554], [6.1736995, 45.8445142], [6.173621, 45.8444913], [6.173491, 45.8444352], [6.1734769, 45.8444577], [6.1734527, 45.8444577], [6.1733656, 45.8444231], [6.1731885, 45.8442949], [6.1731778, 45.8442872], [6.1732395, 45.8441573], [6.1731295, 45.8440882], [6.1729787, 45.8440293], [6.1727005, 45.8439591], [6.1726543, 45.8439569], [6.17241, 45.8439452], [6.1721727, 45.8439494], [6.171991, 45.8439775], [6.1719364, 45.8439922], [6.1718885, 45.8440051], [6.1719078, 45.8440737], [6.1718702, 45.8441578], [6.1718199, 45.8442096], [6.1717214, 45.8442535], [6.1715886, 45.8442489], [6.1714759, 45.8442115], [6.1714015, 45.8441489], [6.1713506, 45.8440505], [6.1712433, 45.8440069], [6.1710341, 45.8439621], [6.1708517, 45.8439591], [6.1706647, 45.843956], [6.1703447, 45.843934], [6.1700108, 45.8438994], [6.1697654, 45.8439415], [6.1694006, 45.8439583], [6.169382, 45.8439796], [6.1691009, 45.8439962], [6.1688863, 45.8440658], [6.1688092, 45.844129], [6.1688827, 45.8442198], [6.1688456, 45.8442419], [6.1687386, 45.8441643], [6.1686542, 45.8440763], [6.1685331, 45.8440468], [6.1684312, 45.8440073], [6.1681554, 45.8440161], [6.1681198, 45.8439465], [6.1678104, 45.8439601], [6.1677114, 45.8440007], [6.1676169, 45.844023], [6.1675574, 45.8440826], [6.1675355, 45.844256], [6.1673595, 45.8442828], [6.1672497, 45.8441368], [6.1671112, 45.8440635], [6.1669384, 45.8440695], [6.1668043, 45.844039], [6.1666072, 45.8440334], [6.1664521, 45.8440022], [6.1664009, 45.8439468], [6.1660463, 45.8439385], [6.1660037, 45.8440718], [6.1658463, 45.8440658], [6.1658379, 45.8439109], [6.1656861, 45.8438795], [6.1652613, 45.8439408], [6.1650574, 45.8439957], [6.1650434, 45.8441229], [6.1651449, 45.8442082], [6.1651715, 45.8442845], [6.1650642, 45.8443899], [6.1649559, 45.8444962], [6.1648719, 45.8445787], [6.164528, 45.8448064], [6.1643895, 45.8448762], [6.1643309, 45.8449315], [6.1641197, 45.8450668], [6.1641106, 45.8451167], [6.1642529, 45.8452603], [6.1642817, 45.8452532], [6.1643081, 45.8452924], [6.1642618, 45.8453192], [6.1642756, 45.8453364], [6.1642237, 45.8453615], [6.1641292, 45.8452691], [6.1639952, 45.8451164], [6.163945, 45.8450592], [6.1637839, 45.8449021], [6.1636033, 45.844847], [6.1633898, 45.8445321], [6.1631858, 45.8443585], [6.1630081, 45.8443659], [6.1627618, 45.8443307], [6.162499, 45.8443638], [6.1622444, 45.8444633], [6.162108, 45.8445142], [6.1618254, 45.8446195], [6.1613407, 45.8447601], [6.1610272, 45.8447813], [6.1606604, 45.8447874], [6.1602932, 45.8447661], [6.159848, 45.8448286], [6.1596216, 45.8447965], [6.1593706, 45.8448034], [6.15927, 45.8448806], [6.1594176, 45.8453793], [6.1593975, 45.8456387], [6.1593826, 45.8458116], [6.1594084, 45.8459847], [6.1595447, 45.8461011], [6.1595417, 45.8462022], [6.1594732, 45.8462124], [6.159368, 45.8462281], [6.159326, 45.846221], [6.1590736, 45.8462719], [6.1589188, 45.8461263], [6.1587178, 45.8460107], [6.1585656, 45.8459946], [6.1584301, 45.8460162], [6.1582919, 45.8460382], [6.1577891, 45.8460525], [6.1576962, 45.8460273], [6.1573633, 45.8459382], [6.1570664, 45.8459208], [6.1569452, 45.8458467], [6.1568189, 45.8458449], [6.1566466, 45.8458424], [6.2081875, 45.8174579]]], [[[6.1566466, 45.8458424], [6.1563094, 45.845965], [6.1557113, 45.8461986], [6.155533, 45.8462633], [6.15503, 45.8465285], [6.1548698, 45.8466963], [6.1542547, 45.8470141], [6.1541609, 45.8470982], [6.1539638, 45.8473149], [6.1537881, 45.8475046], [6.1536983, 45.8475868], [6.1536399, 45.8476797], [6.1535463, 45.8477929], [6.1537211, 45.8479754], [6.153705, 45.8480996], [6.1536931, 45.8481861], [6.153654, 45.848349], [6.1537291, 45.8484079], [6.1536754, 45.8485212], [6.1535296, 45.8488215], [6.1536534, 45.8489991], [6.1536755, 45.8490973], [6.153886, 45.8492029], [6.1539155, 45.849392], [6.1538985, 45.8495999], [6.1538954, 45.8496382], [6.153901, 45.8496656], [6.1539251, 45.849784], [6.1539571, 45.8499408], [6.1538572, 45.8505653], [6.153755, 45.8510802], [6.1535655, 45.8513616], [6.1535148, 45.8514531], [6.1533582, 45.8517354], [6.1533093, 45.8518235], [6.1531685, 45.8520267], [6.1528768, 45.8522835], [6.1527447, 45.8523691], [6.1521962, 45.8523508], [6.1516969, 45.8523611], [6.1514291, 45.8522985], [6.1511865, 45.8522984], [6.1510871, 45.8523079], [6.151067, 45.8523209], [6.1510143, 45.852333], [6.1509198, 45.8523515], [6.1506797, 45.8524403], [6.1505916, 45.8527763], [6.1505416, 45.8528644], [6.1503187, 45.8532849], [6.1501134, 45.8534855], [6.1499538, 45.8535706], [6.149669, 45.8537107], [6.1496374, 45.8537165], [6.1495234, 45.8536987], [6.1492565, 45.8537781], [6.1491854, 45.853879], [6.1491099, 45.8539193], [6.1490686, 45.8539413], [6.1490168, 45.8539327], [6.1489642, 45.8539126], [6.1488133, 45.8536977], [6.1487047, 45.8536189], [6.1485813, 45.8535736], [6.1483326, 45.8535561], [6.1483057, 45.8535633], [6.148043, 45.8536425], [6.1480113, 45.8536352], [6.1478856, 45.853692], [6.1478645, 45.8537015], [6.1477116, 45.8537739], [6.1474345, 45.8539102], [6.1468639, 45.8541785], [6.1468064, 45.8544983], [6.1468027, 45.8545129], [6.1467751, 45.8546213], [6.1467688, 45.8546459], [6.146766, 45.8547003], [6.1467596, 45.854826], [6.1467554, 45.8549091], [6.146805, 45.8551119], [6.1469015, 45.8553894], [6.1468995, 45.8554555], [6.146927, 45.8555724], [6.1469431, 45.855663], [6.1469642, 45.8558316], [6.1469391, 45.8559488], [6.1468586, 45.8561702], [6.1467956, 45.8561609], [6.1467607, 45.8562524], [6.1468235, 45.856261], [6.1466427, 45.8567204], [6.146555, 45.8568622], [6.146514, 45.8569314], [6.1461926, 45.857318], [6.1457217, 45.8575903], [6.1455345, 45.8576419], [6.1452166, 45.8577296], [6.1449851, 45.8577935], [6.1449375, 45.85778], [6.1448859, 45.8578033], [6.1447162, 45.8579089], [6.1445318, 45.8579705], [6.1441495, 45.8583153], [6.1440251, 45.8584434], [6.1439873, 45.8586593], [6.1440059, 45.858779], [6.1440683, 45.8590553], [6.14415, 45.859376], [6.1442038, 45.8594817], [6.1442457, 45.8595172], [6.144562, 45.8595765], [6.1446695, 45.8595967], [6.1451959, 45.8596939], [6.1452477, 45.8597029], [6.1453727, 45.8597262], [6.1454301, 45.8597368], [6.1454315, 45.859733], [6.1454889, 45.8597435], [6.1454874, 45.8597475], [6.1456101, 45.8597703], [6.1456583, 45.8597685], [6.1456553, 45.8597904], [6.1456522, 45.8598067], [6.1455953, 45.8597904], [6.1454794, 45.8597688], [6.1454773, 45.8597745], [6.1454198, 45.8597641], [6.1454221, 45.8597581], [6.1452684, 45.8597294], [6.145226, 45.85985], [6.1451963, 45.8599426], [6.1451655, 45.8599812], [6.1456502, 45.8603617], [6.145607, 45.8603795], [6.1451288, 45.8600037], [6.1449918, 45.8600809], [6.145378, 45.8603984], [6.1452694, 45.8604208], [6.1449952, 45.8602112], [6.1447927, 45.8602051], [6.1446654, 45.8602489], [6.1444084, 45.86015], [6.1443789, 45.8600201], [6.1440933, 45.8599086], [6.1437044, 45.8599987], [6.143636, 45.8600584], [6.1436346, 45.8601131], [6.143522, 45.860249], [6.1432381, 45.8604844], [6.1432618, 45.8606319], [6.1433055, 45.8608499], [6.1433597, 45.8610839], [6.1433979, 45.86126], [6.1434288, 45.8612609], [6.1434665, 45.8613884], [6.1434899, 45.8614678], [6.1434991, 45.8614988], [6.1435467, 45.8615346], [6.1437411, 45.8615784], [6.1438519, 45.8618236], [6.1439283, 45.8618124], [6.1440209, 45.8621021], [6.1442386, 45.8624624], [6.1442758, 45.8624996], [6.1444333, 45.8624946], [6.1443331, 45.8626769], [6.1442554, 45.8628219], [6.1442853, 45.8630782], [6.1442943, 45.8633505], [6.144281, 45.8635649], [6.1443233, 45.863652], [6.144289, 45.8636596], [6.1442729, 45.8637063], [6.1443065, 45.8637279], [6.1444487, 45.8637321], [6.1444964, 45.863696], [6.1446425, 45.8637292], [6.144546, 45.8637526], [6.144216, 45.8637465], [6.1442059, 45.8637862], [6.1440866, 45.863895], [6.1440973, 45.8641094], [6.1440919, 45.8644152], [6.1440765, 45.8646528], [6.1440618, 45.8646823], [6.1440514, 45.8648652], [6.1440473, 45.8649793], [6.1440343, 45.8650185], [6.1440283, 45.8651151], [6.1440328, 45.865171], [6.144041, 45.8652688], [6.1440665, 45.8653722], [6.1441885, 45.8657553], [6.1442026, 45.8657878], [6.1442736, 45.8659507], [6.1443302, 45.8660808], [6.1443969, 45.8662339], [6.1444835, 45.8664327], [6.1445078, 45.8664886], [6.1445081, 45.8666111], [6.1445271, 45.866677], [6.1445316, 45.8668782], [6.1445099, 45.8672667], [6.14451, 45.8673023], [6.1441871, 45.8677287], [6.1438729, 45.8678656], [6.1436893, 45.8679457], [6.1435491, 45.8680068], [6.143439, 45.8682165], [6.1432087, 45.8686551], [6.1432054, 45.8686729], [6.1431438, 45.8690075], [6.1432014, 45.8692675], [6.1434806, 45.869699], [6.1436796, 45.8699283], [6.1437036, 45.8699559], [6.1437473, 45.8700063], [6.1440048, 45.8708017], [6.1440231, 45.8708699], [6.14419, 45.8714934], [6.1441295, 45.8715263], [6.1441174, 45.8717756], [6.1440866, 45.871982], [6.1440276, 45.8722696], [6.1439793, 45.872489], [6.1439672, 45.8730007], [6.1439414, 45.8730996], [6.1438934, 45.8732659], [6.1437365, 45.8734835], [6.1436257, 45.8736068], [6.1435481, 45.8737034], [6.1435863, 45.8737122], [6.1435515, 45.8738962], [6.1434697, 45.8738896], [6.1434482, 45.8739111], [6.1433733, 45.8741211], [6.1433683, 45.874142], [6.1433503, 45.8742298], [6.1433181, 45.8744396], [6.1432645, 45.8745022], [6.1432423, 45.8745937], [6.1432363, 45.8747382], [6.1432484, 45.8750353], [6.1432435, 45.875104], [6.1432651, 45.875343], [6.14329, 45.8754529], [6.143294, 45.8754933], [6.1433679, 45.8756683], [6.1433409, 45.8757839], [6.1433369, 45.8758579], [6.1433268, 45.8759513], [6.143298, 45.8762799], [6.143306, 45.876406], [6.1433131, 45.8765234], [6.1433275, 45.8767477], [6.1433396, 45.8768724], [6.1433374, 45.8769078], [6.1432524, 45.8771697], [6.1432618, 45.8774741], [6.1432811, 45.8776534], [6.1432484, 45.8777523], [6.1432256, 45.878018], [6.1432434, 45.8785218], [6.1431562, 45.8785994], [6.1431042, 45.8785891], [6.1430656, 45.8786096], [6.1430579, 45.8786291], [6.1430003, 45.8786655], [6.1429768, 45.8786956], [6.1430418, 45.8788102], [6.1431173, 45.8789639], [6.1432087, 45.8791194], [6.1432041, 45.8793494], [6.1432008, 45.8794539], [6.143162, 45.8795974], [6.1431163, 45.8797326], [6.1430754, 45.879959], [6.1429865, 45.8803496], [6.1429614, 45.880472], [6.1429134, 45.8807324], [6.1429171, 45.8808409], [6.1429211, 45.8809585], [6.1428957, 45.8812087], [6.1429225, 45.8814145], [6.1429446, 45.8814229], [6.1429627, 45.8814421], [6.1429661, 45.8814682], [6.1429399, 45.881499], [6.1429527, 45.8815779], [6.1429721, 45.8815742], [6.1429869, 45.8816391], [6.1429574, 45.8816843], [6.1429589, 45.8817542], [6.1429782, 45.8817608], [6.1429741, 45.8817852], [6.1429835, 45.8817903], [6.1429895, 45.8818127], [6.1429741, 45.8818286], [6.142946, 45.8818393], [6.1429225, 45.8819257], [6.1429339, 45.8819411], [6.1429258, 45.8819598], [6.1429045, 45.8819735], [6.1428737, 45.8820825], [6.1427321, 45.8822002], [6.1425535, 45.8823278], [6.1424323, 45.8824206], [6.1422889, 45.8825305], [6.1422929, 45.882606], [6.1422985, 45.8827112], [6.1423023, 45.8827833], [6.1423081, 45.8828919], [6.1423305, 45.8833147], [6.142341, 45.883578], [6.1423473, 45.8835869], [6.1423994, 45.8835872], [6.1424004, 45.8836136], [6.1423514, 45.8836161], [6.1423531, 45.88364], [6.1422524, 45.883894], [6.1422971, 45.8840464], [6.1422794, 45.884065], [6.1423039, 45.8843726], [6.1422812, 45.8844178], [6.1423118, 45.8845431], [6.1424855, 45.8853282], [6.1425293, 45.8854294], [6.1426077, 45.8855949], [6.1427822, 45.8859635], [6.1428442, 45.885992], [6.1429656, 45.8861726], [6.1431208, 45.8865157], [6.1434658, 45.887439], [6.1434572, 45.8874979], [6.1435161, 45.8876868], [6.1435427, 45.8877037], [6.143603, 45.8877637], [6.1436385, 45.8878078], [6.1436597, 45.8878321], [6.1436883, 45.8878409], [6.1437582, 45.8879682], [6.1437717, 45.8880903], [6.1437498, 45.8881585], [6.1437284, 45.8882107], [6.1437956, 45.8887662], [6.1437826, 45.8888311], [6.143726, 45.8889307], [6.1437074, 45.8890301], [6.1437053, 45.8891626], [6.1437161, 45.889384], [6.1436264, 45.8897411], [6.1435415, 45.8899584], [6.1434801, 45.8900582], [6.1434297, 45.8900827], [6.1433982, 45.8901628], [6.1433431, 45.8902416], [6.1433688, 45.8902522], [6.1432939, 45.8903312], [6.1431879, 45.8903784], [6.1430298, 45.890462], [6.1429303, 45.8905115], [6.1427927, 45.8905546], [6.1425958, 45.8905803], [6.1424938, 45.8905948], [6.1423228, 45.8906226], [6.1421259, 45.890627], [6.1421215, 45.8906466], [6.1420481, 45.890656], [6.1419851, 45.8906476], [6.1419851, 45.8906233], [6.1418441, 45.8906301], [6.1415592, 45.8906414], [6.1413675, 45.8906862], [6.1411603, 45.8907484], [6.141167, 45.890768], [6.141112, 45.8907885], [6.1410463, 45.8907997], [6.1410342, 45.8907792], [6.1407025, 45.8908734], [6.1405305, 45.8909874], [6.1403154, 45.891101], [6.1393906, 45.8916248], [6.1392242, 45.8916367], [6.1392052, 45.891764], [6.1384801, 45.8923087], [6.1383151, 45.8922512], [6.1382795, 45.8922918], [6.1380951, 45.8924229], [6.1379339, 45.8925475], [6.1373949, 45.8929674], [6.137192, 45.8931255], [6.1369081, 45.8933352], [6.13688, 45.8933635], [6.1368666, 45.8933775], [6.1368425, 45.8933967], [6.1368127, 45.8934259], [6.1368665, 45.8934636], [6.1367043, 45.8936056], [6.1366721, 45.8936312], [6.1366647, 45.8936371], [6.1366541, 45.8936458], [6.136647, 45.8936517], [6.1366098, 45.8936814], [6.1364747, 45.8937995], [6.1364366, 45.8938253], [6.1364285, 45.8938308], [6.1364128, 45.8938445], [6.1363793, 45.893867], [6.1362361, 45.8940045], [6.1362293, 45.8940088], [6.1362011, 45.8940266], [6.1361952, 45.8940303], [6.1357568, 45.8943073], [6.1357151, 45.8943296], [6.1357069, 45.8943314], [6.1356594, 45.8943417], [6.1356202, 45.8943394], [6.1355913, 45.8943322], [6.1355796, 45.8943293], [6.1355255, 45.8943005], [6.1355397, 45.8942852], [6.1352685, 45.8941932], [6.1351944, 45.8941882], [6.1351323, 45.8941923], [6.1350686, 45.8942089], [6.1350222, 45.8942296], [6.1349464, 45.8942838], [6.1350236, 45.8943161], [6.1349867, 45.8943691], [6.134857, 45.8943226], [6.1348216, 45.8943778], [6.1347873, 45.8944312], [6.1348946, 45.8944706], [6.1348897, 45.8944769], [6.1348791, 45.8944903], [6.1346352, 45.8948093], [6.1346255, 45.8948216], [6.1340255, 45.8956096], [6.1341698, 45.8956585], [6.1341327, 45.8957006], [6.1345808, 45.8958685], [6.1354353, 45.8958477], [6.1354117, 45.8958679], [6.1342881, 45.8968212], [6.1334729, 45.8975201], [6.1333537, 45.8976052], [6.1332309, 45.8976863], [6.1331743, 45.8977165], [6.1331272, 45.8977417], [6.1330425, 45.8977879], [6.1329122, 45.8978451], [6.1328812, 45.8978587], [6.1327285, 45.8979163], [6.1327012, 45.8979247], [6.1326838, 45.8979301], [6.1324366, 45.8980007], [6.1322273, 45.8980483], [6.131938, 45.8980902], [6.1317425, 45.8981093], [6.1313617, 45.8981127], [6.1313205, 45.8983997], [6.1315875, 45.8984318], [6.1318761, 45.898505], [6.1321263, 45.8986222], [6.1323192, 45.8987807], [6.132435, 45.8989468], [6.1324402, 45.8989631], [6.132494, 45.8991302], [6.1325769, 45.8991191], [6.1325942, 45.8992043], [6.1325901, 45.8992666], [6.1325848, 45.8993343], [6.1325655, 45.8994089], [6.1324861, 45.8994032], [6.1324727, 45.899471], [6.1324309, 45.8995618], [6.1323958, 45.8996161], [6.1323082, 45.8997237], [6.1322039, 45.8998109], [6.1320722, 45.8999027], [6.1319623, 45.8999565], [6.1318805, 45.8999929], [6.1317652, 45.9000335], [6.1316197, 45.9000634], [6.1314681, 45.9000867], [6.1313977, 45.9000951], [6.1306838, 45.9001178], [6.1283369, 45.9001923], [6.1282119, 45.90022], [6.1281835, 45.9002383], [6.1281214, 45.9002782], [6.128, 45.9004386], [6.127869, 45.9006315], [6.127647, 45.9009584], [6.1278067, 45.9010021], [6.1279285, 45.9010377], [6.1281559, 45.9006983], [6.1282786, 45.9005151], [6.1283589, 45.9004459], [6.1285245, 45.9003978], [6.1312723, 45.9002953], [6.131389, 45.9002939], [6.1314332, 45.9002972], [6.1314882, 45.9003061], [6.1316801, 45.9003481], [6.1318658, 45.9004], [6.1320425, 45.9004815], [6.1320962, 45.9005134], [6.1322244, 45.9005894], [6.1322408, 45.9006047], [6.1323371, 45.9006943], [6.1324207, 45.9007956], [6.1324854, 45.9009094], [6.1325115, 45.9009961], [6.1325277, 45.90105], [6.1325251, 45.9011453], [6.1340503, 45.9015469], [6.1341769, 45.9015899], [6.1343025, 45.9016435], [6.1344109, 45.9016965], [6.1345193, 45.9017592], [6.1346251, 45.9018319], [6.1347105, 45.9019018], [6.1348174, 45.9020103], [6.1349568, 45.9021896], [6.1351212, 45.9025005], [6.1351526, 45.9025438], [6.1352327, 45.9026541], [6.1354371, 45.9028345], [6.1354723, 45.9028656], [6.1357667, 45.9030285], [6.1360816, 45.9031372], [6.1360326, 45.9031368], [6.1359948, 45.9031411], [6.1359714, 45.903168], [6.1359576, 45.9031967], [6.1359549, 45.9032186], [6.1359686, 45.9032483], [6.1359976, 45.9032673], [6.1406347, 45.9044911], [6.1407277, 45.9044478], [6.1411434, 45.9032887], [6.1412906, 45.903216], [6.1414803, 45.903159], [6.1421384, 45.9030353], [6.1421546, 45.9028598], [6.1421222, 45.9028289], [6.142145, 45.9027512], [6.1419167, 45.9027174], [6.1419143, 45.9027277], [6.1418919, 45.9027249], [6.141866, 45.9027183], [6.141855, 45.9027067], [6.1418538, 45.9027026], [6.1418496, 45.9026887], [6.1418587, 45.9026754], [6.1418761, 45.9026677], [6.1419317, 45.9026745], [6.1419291, 45.9026798], [6.1420407, 45.9026972], [6.1421621, 45.9027162], [6.1421688, 45.9027164], [6.1422154, 45.9027174], [6.1422789, 45.9027141], [6.1423509, 45.9027023], [6.1424427, 45.9026716], [6.1425145, 45.9026208], [6.1426715, 45.9024531], [6.1428822, 45.9023178], [6.1429021, 45.902305], [6.1431499, 45.9021916], [6.1433156, 45.9021277], [6.1433778, 45.9020968], [6.1434241, 45.9020621], [6.1434631, 45.9020288], [6.1434989, 45.9019796], [6.1435199, 45.9019244], [6.1435403, 45.901871], [6.1435505, 45.9018107], [6.1435648, 45.9017267], [6.1435818, 45.901606], [6.1435927, 45.9015859], [6.1436102, 45.9015714], [6.1436392, 45.9015537], [6.1436693, 45.9015455], [6.1437077, 45.9015443], [6.1437553, 45.9015613], [6.1437778, 45.9015817], [6.1437872, 45.9016128], [6.1437778, 45.9016443], [6.143754, 45.9016571], [6.1437977, 45.9016682], [6.143887, 45.901672], [6.1438837, 45.9016903], [6.14384, 45.901935], [6.1437609, 45.9019277], [6.1437999, 45.9016886], [6.1436435, 45.9016773], [6.1435802, 45.9020463], [6.1435121, 45.9024428], [6.1435384, 45.9025289], [6.1435995, 45.9026013], [6.1436749, 45.9026491], [6.1437785, 45.9026861], [6.1439181, 45.9026948], [6.1440184, 45.9026756], [6.1440796, 45.9026259], [6.1441757, 45.9024023], [6.1441599, 45.9023783], [6.144164, 45.9023411], [6.1442059, 45.9023182], [6.1442618, 45.9023229], [6.1443279, 45.9022752], [6.1444199, 45.9022263], [6.1445503, 45.9022087], [6.1446595, 45.9022126], [6.144891, 45.9022635], [6.1450786, 45.9023371], [6.1452224, 45.9024253], [6.1452329, 45.9024369], [6.1453008, 45.9025121], [6.1453407, 45.9025689], [6.1453703, 45.9026037], [6.1453809, 45.9026242], [6.1453738, 45.9026425], [6.1453548, 45.902651], [6.145319, 45.902646], [6.1452838, 45.9026286], [6.1452678, 45.902612], [6.1452456, 45.9025343], [6.1452308, 45.9025099], [6.1452, 45.9024973], [6.1451697, 45.9024987], [6.1451418, 45.9025173], [6.1451388, 45.9025494], [6.1451419, 45.9025896], [6.1451346, 45.9026165], [6.145133, 45.9026391], [6.1451355, 45.9026548], [6.1451524, 45.90266], [6.1452003, 45.9026444], [6.145247, 45.9026412], [6.1452783, 45.9026545], [6.1453549, 45.902923], [6.1456604, 45.9032844], [6.1460362, 45.9036176], [6.146046, 45.9036247], [6.1461409, 45.9036935], [6.1462425, 45.9038077], [6.1463629, 45.9039654], [6.1464048, 45.9040228], [6.1464513, 45.9041326], [6.1468477, 45.9042256], [6.1470442, 45.9041603], [6.1472167, 45.9041542], [6.147487, 45.9041951], [6.1476102, 45.9042139], [6.1477777, 45.9042228], [6.147818, 45.9042478], [6.1478316, 45.9042892], [6.1479267, 45.9043248], [6.1483667, 45.9043886], [6.1486061, 45.9043926], [6.1491097, 45.9044471], [6.1495342, 45.9045198], [6.1496333, 45.9045393], [6.1498383, 45.9045797], [6.1501719, 45.9046394], [6.1502095, 45.9046461], [6.1503057, 45.9046585], [6.1504142, 45.9046609], [6.1506422, 45.9045765], [6.1507803, 45.9045213], [6.1508367, 45.9044582], [6.1508652, 45.9043923], [6.1508873, 45.9043415], [6.1508866, 45.9042934], [6.1508764, 45.9042726], [6.1508612, 45.9042416], [6.1508055, 45.9042164], [6.150727, 45.9041767], [6.1506674, 45.9041576], [6.150603, 45.9041599], [6.1505748, 45.9041473], [6.1505735, 45.9041312], [6.1505835, 45.9040857], [6.1506037, 45.9040666], [6.150658, 45.9040638], [6.1509356, 45.904145], [6.1510201, 45.9041329], [6.1510724, 45.9041441], [6.1510315, 45.904243], [6.1512286, 45.9043293], [6.1511636, 45.9043643], [6.1512421, 45.904383], [6.151241, 45.9044199], [6.151333, 45.9044361], [6.1513445, 45.9044182], [6.151374, 45.9044062], [6.1513889, 45.9044322], [6.1513842, 45.9048684], [6.1514854, 45.9048943], [6.1515635, 45.9049509], [6.1516506, 45.9050292], [6.1518019, 45.9052664], [6.1541916, 45.9056315], [6.1544484, 45.9056681], [6.1549098, 45.905734], [6.1549647, 45.9057418], [6.155181, 45.9057727], [6.1552803, 45.9056314], [6.1553954, 45.9056128], [6.1554523, 45.9056018], [6.1554816, 45.905751], [6.1555189, 45.9058153], [6.1558471, 45.9058508], [6.1560097, 45.9058514], [6.1561217, 45.9058518], [6.1562629, 45.9058518], [6.156409, 45.9058384], [6.1566657, 45.9058146], [6.1568517, 45.9057867], [6.157035, 45.9057301], [6.1571628, 45.9056487], [6.1572467, 45.9055953], [6.1574687, 45.9054518], [6.1577067, 45.9053339], [6.1578388, 45.9052841], [6.1578473, 45.9052809], [6.1578831, 45.9052705], [6.1579264, 45.9052623], [6.1583322, 45.9052206], [6.1585681, 45.9050917], [6.1585841, 45.9050967], [6.1586025, 45.9051001], [6.1586336, 45.9051011], [6.158661, 45.905092], [6.1586953, 45.905064], [6.1587154, 45.9050547], [6.1590395, 45.9047824], [6.1591476, 45.9046737], [6.1591574, 45.9046639], [6.1591888, 45.9046324], [6.1593049, 45.9045157], [6.1594375, 45.9043219], [6.1594643, 45.9042792], [6.159475, 45.9042621], [6.1594786, 45.9042556], [6.1596136, 45.9040119], [6.1596009, 45.9039937], [6.1595921, 45.9039812], [6.1595724, 45.9039504], [6.1595508, 45.9039168], [6.1595833, 45.9038121], [6.1596501, 45.9037115], [6.1597409, 45.903631], [6.1597677, 45.9036078], [6.1598687, 45.9033541], [6.1599863, 45.9030508], [6.1601409, 45.9026906], [6.1603197, 45.9022665], [6.1604759, 45.9019499], [6.1607815, 45.9014722], [6.160912, 45.9012828], [6.1610153, 45.90109], [6.1610978, 45.9009001], [6.1611816, 45.9006122], [6.161195, 45.9005021], [6.1612713, 45.900297], [6.1613774, 45.9000093], [6.1615263, 45.899649], [6.1616349, 45.8993672], [6.1616403, 45.8992925], [6.1616155, 45.89924], [6.1625537, 45.8983612], [6.1630844, 45.8979189], [6.1632335, 45.8977385], [6.1634615, 45.8974436], [6.1636711, 45.8971651], [6.1637922, 45.897002], [6.1638217, 45.8969505], [6.1640258, 45.8965939], [6.1641212, 45.8964249], [6.1641746, 45.8963302], [6.1641806, 45.8963195], [6.1642148, 45.8962589], [6.1643225, 45.8961817], [6.1645848, 45.8958148], [6.164773, 45.8954988], [6.1651439, 45.8949955], [6.1652952, 45.8948114], [6.1653108, 45.8947043], [6.1655189, 45.8945504], [6.1655738, 45.8945948], [6.1657309, 45.8944929], [6.1657124, 45.8944755], [6.1659601, 45.8943122], [6.166183, 45.8941036], [6.1662378, 45.8939991], [6.1662725, 45.8935898], [6.1662657, 45.8934516], [6.1662383, 45.8928932], [6.1662079, 45.8928701], [6.1662525, 45.8925609], [6.1662895, 45.8923887], [6.1663901, 45.8920978], [6.1664467, 45.8919722], [6.1666305, 45.891788], [6.166669, 45.8917448], [6.1666958, 45.8917147], [6.166967, 45.8914105], [6.1673999, 45.8911364], [6.1682373, 45.8907158], [6.168206, 45.8906807], [6.1682622, 45.8905782], [6.1683672, 45.8905143], [6.16837, 45.890472], [6.1684524, 45.8904149], [6.1685022, 45.8903979], [6.1685629, 45.8903688], [6.1687526, 45.8903846], [6.1689626, 45.8903814], [6.1691064, 45.8903383], [6.1693172, 45.8902225], [6.1696078, 45.8901239], [6.1696325, 45.8901156], [6.1700363, 45.890005], [6.1703534, 45.8899278], [6.1704177, 45.8898977], [6.1705882, 45.8898174], [6.1706086, 45.889808], [6.1706685, 45.8897804], [6.1707725, 45.8896622], [6.1710056, 45.8895779], [6.1710912, 45.8895247], [6.1713144, 45.8892366], [6.1715883, 45.8887644], [6.1715972, 45.8887491], [6.1716137, 45.8887206], [6.1717291, 45.8885176], [6.1717995, 45.8883302], [6.1719594, 45.8879809], [6.1720682, 45.887575], [6.1720882, 45.8875297], [6.1721419, 45.8874081], [6.1721756, 45.8872203], [6.172185, 45.8871575], [6.1721839, 45.8871378], [6.1721827, 45.887118], [6.1721802, 45.8870755], [6.1721782, 45.8870404], [6.1722976, 45.8868124], [6.172304, 45.8868002], [6.1724382, 45.8865439], [6.1725232, 45.8863227], [6.1726475, 45.8860915], [6.1728021, 45.8858208], [6.1731193, 45.8851772], [6.1731369, 45.8850352], [6.173095, 45.885027], [6.1730994, 45.8849913], [6.1731465, 45.8849954], [6.1731727, 45.8847791], [6.1732198, 45.8846423], [6.1732248, 45.8846278], [6.1732808, 45.8845138], [6.1734979, 45.8842699], [6.1734291, 45.884252], [6.173473, 45.8841697], [6.173564, 45.8841916], [6.1736761, 45.8839601], [6.1736366, 45.8839506], [6.1736668, 45.88389], [6.1737074, 45.8838992], [6.1737596, 45.8837993], [6.1737996, 45.8836027], [6.1738085, 45.8833168], [6.1737624, 45.8832289], [6.1737669, 45.8829585], [6.1738744, 45.8827625], [6.1739201, 45.8826474], [6.1739316, 45.8824778], [6.1739674, 45.8824391], [6.1741743, 45.882207], [6.174161, 45.8821939], [6.1741916, 45.8821592], [6.1741746, 45.8821531], [6.1741739, 45.8820839], [6.1742225, 45.8820687], [6.1743059, 45.8818043], [6.1743195, 45.8817711], [6.174335, 45.8817465], [6.1744673, 45.8815938], [6.1745404, 45.8816232], [6.1745685, 45.8815905], [6.1744943, 45.8815574], [6.1745064, 45.8815403], [6.1745127, 45.8815313], [6.1745815, 45.8814342], [6.1747018, 45.8812445], [6.1747632, 45.881078], [6.1748185, 45.8807442], [6.1748505, 45.880451], [6.1748612, 45.8803533], [6.1748419, 45.8801376], [6.1748032, 45.8799177], [6.1748737, 45.8799221], [6.174824, 45.8797824], [6.1748189, 45.8797733], [6.1748176, 45.8797627], [6.1747673, 45.8796804], [6.1746833, 45.8795631], [6.1746283, 45.8795197], [6.1746075, 45.8795032], [6.17452, 45.8794129], [6.174364, 45.8793095], [6.1743317, 45.8792808], [6.1743263, 45.8792632], [6.1743193, 45.8792408], [6.1743203, 45.8792225], [6.1743211, 45.8792081], [6.1743328, 45.8791779], [6.1743966, 45.8791247], [6.1744294, 45.8791217], [6.1744627, 45.8791253], [6.1745219, 45.8791038], [6.1745768, 45.8790809], [6.1746861, 45.8789634], [6.1747096, 45.878915], [6.1747448, 45.8788675], [6.1747567, 45.8788514], [6.1746127, 45.8787569], [6.1746192, 45.8787483], [6.1746239, 45.878742], [6.1746353, 45.8787221], [6.1747982, 45.8787954], [6.17482, 45.878766], [6.1748663, 45.8787503], [6.1749007, 45.8787227], [6.1749888, 45.8786385], [6.1749682, 45.8785103], [6.1749864, 45.8784755], [6.174883, 45.8784185], [6.1748357, 45.8783537], [6.174936, 45.8783403], [6.1750269, 45.8783437], [6.1751838, 45.8782186], [6.1752558, 45.8781346], [6.1755256, 45.8778201], [6.175657, 45.8776111], [6.1757979, 45.8773869], [6.1759999, 45.8772462], [6.176033, 45.8772569], [6.1761707, 45.8771593], [6.1762452, 45.8770714], [6.1762851, 45.8770243], [6.1763371, 45.8769429], [6.1764072, 45.8768331], [6.1765037, 45.8766821], [6.1765266, 45.8766463], [6.1766408, 45.876356], [6.1766565, 45.8763084], [6.1766978, 45.8761828], [6.1772613, 45.8755602], [6.1773116, 45.8755759], [6.1774212, 45.8754345], [6.1775638, 45.8752505], [6.1776193, 45.8751789], [6.1777137, 45.8750572], [6.1777293, 45.8750367], [6.1776822, 45.875018], [6.1779067, 45.8746952], [6.1780672, 45.8744644], [6.1781371, 45.8743639], [6.1783095, 45.8741646], [6.178657, 45.8737628], [6.1788186, 45.8735758], [6.1789396, 45.8734359], [6.1791007, 45.8732496], [6.1791206, 45.8732266], [6.1806834, 45.8711366], [6.1812355, 45.8705198], [6.1816436, 45.8701721], [6.1817172, 45.8701094], [6.1818555, 45.8698892], [6.1823421, 45.8691146], [6.1825721, 45.8687484], [6.182729, 45.8684985], [6.1829085, 45.8682128], [6.1829925, 45.868079], [6.1829198, 45.868049], [6.1835918, 45.8674118], [6.1836645, 45.8674394], [6.1837281, 45.8673415], [6.1838472, 45.867158], [6.1839249, 45.8670384], [6.1841861, 45.8667996], [6.184219, 45.8667695], [6.1844094, 45.8665955], [6.184458, 45.8665511], [6.1846308, 45.8663398], [6.185, 45.8658884], [6.1853471, 45.865464], [6.1853577, 45.8654523], [6.1855904, 45.8651961], [6.1856103, 45.8651764], [6.1859042, 45.8648845], [6.1860174, 45.864694], [6.18622, 45.8643532], [6.1861025, 45.8643053], [6.1861682, 45.8641482], [6.1860958, 45.8639239], [6.1861585, 45.8639164], [6.1859971, 45.8634835], [6.1858218, 45.8635115], [6.1858027, 45.8634528], [6.1858281, 45.863418], [6.185766, 45.8632912], [6.1857077, 45.8631623], [6.1857058, 45.8630738], [6.1856886, 45.8622785], [6.1855609, 45.8619106], [6.185512, 45.8617699], [6.1853898, 45.8614179], [6.1852696, 45.8610717], [6.184827, 45.8605412], [6.1847954, 45.8603557], [6.1848357, 45.8601764], [6.1851635, 45.85956], [6.1850646, 45.8595291], [6.1850175, 45.8595066], [6.184997, 45.8594865], [6.1850321, 45.8594352], [6.1850872, 45.8594691], [6.1852011, 45.8594951], [6.1852283, 45.8594374], [6.1852454, 45.8594057], [6.1852738, 45.8593567], [6.1853872, 45.8591403], [6.1855363, 45.858874], [6.1855647, 45.8588643], [6.1855984, 45.8588542], [6.1856304, 45.8589165], [6.1857206, 45.8589318], [6.1857327, 45.8589328], [6.1859386, 45.8589491], [6.1864732, 45.8587546], [6.1867677, 45.8584693], [6.1871201, 45.8581281], [6.187256, 45.8579965], [6.1873027, 45.8579275], [6.1873845, 45.8578066], [6.1874249, 45.8577469], [6.1874638, 45.8576894], [6.1875072, 45.8576251], [6.1875448, 45.8575697], [6.1875776, 45.8575211], [6.1875859, 45.8575077], [6.187618, 45.8574559], [6.1876523, 45.8574005], [6.1876847, 45.8573482], [6.1877182, 45.8572941], [6.1877552, 45.8572345], [6.1877882, 45.8571812], [6.1878279, 45.8571171], [6.1878636, 45.8570595], [6.187921, 45.8569669], [6.1879094, 45.8569443], [6.1879634, 45.8568425], [6.1879779, 45.8566906], [6.1880049, 45.8565636], [6.188051, 45.8565066], [6.1879815, 45.8564576], [6.1880882, 45.8563663], [6.1882632, 45.856428], [6.1883094, 45.8563513], [6.1883495, 45.8562845], [6.1884114, 45.8561817], [6.1884472, 45.8561223], [6.1884719, 45.8560445], [6.1885104, 45.8559229], [6.1885316, 45.8558562], [6.1885481, 45.8558042], [6.1885541, 45.8557852], [6.1884663, 45.8557791], [6.1884504, 45.8555393], [6.188586, 45.8553012], [6.1886135, 45.855255], [6.1885507, 45.8550494], [6.1885012, 45.8549525], [6.1883485, 45.8548255], [6.1880764, 45.854407], [6.1880103, 45.8542187], [6.1880982, 45.8541275], [6.188049, 45.8539978], [6.1879292, 45.853847], [6.1875276, 45.8534885], [6.1874347, 45.8531226], [6.1874178, 45.8528607], [6.1875515, 45.8525952], [6.1877264, 45.8519856], [6.1878744, 45.8512975], [6.1880524, 45.8507372], [6.1882638, 45.8502188], [6.1882661, 45.850093], [6.1883192, 45.8499077], [6.1883766, 45.8497355], [6.1885669, 45.8494913], [6.1886532, 45.8494148], [6.188732, 45.8493282], [6.18879, 45.8492632], [6.1887944, 45.8492004], [6.1888118, 45.8491495], [6.1889267, 45.8490388], [6.1890397, 45.8489032], [6.1890784, 45.8487254], [6.1891435, 45.8485567], [6.1891835, 45.8482829], [6.1891838, 45.8481259], [6.1891262, 45.8478132], [6.1891166, 45.8475672], [6.189076, 45.847332], [6.1889681, 45.8471486], [6.1888342, 45.8466541], [6.1886408, 45.8461968], [6.1885631, 45.8460318], [6.1884347, 45.8457302], [6.1884045, 45.8456115], [6.188414, 45.8454736], [6.1884665, 45.8453562], [6.1885972, 45.8452174], [6.1888597, 45.8450581], [6.1889248, 45.8448975], [6.1888327, 45.8446251], [6.1888189, 45.8444364], [6.1889257, 45.8442378], [6.1889211, 45.8440398], [6.1888522, 45.8438243], [6.1888061, 45.8436558], [6.1888672, 45.8435071], [6.1891101, 45.8432889], [6.1893936, 45.8430685], [6.1897437, 45.8429064], [6.1898114, 45.8428314], [6.1901616, 45.8427415], [6.1902648, 45.8425756], [6.1904397, 45.8424797], [6.1905574, 45.8424384], [6.1906106, 45.8424153], [6.190727, 45.8423939], [6.1907823, 45.8423722], [6.1908848, 45.8423861], [6.1910017, 45.8423506], [6.19137, 45.8422192], [6.1917771, 45.8420666], [6.192065, 45.8420147], [6.192416, 45.8419116], [6.1929248, 45.8418097], [6.1930472, 45.8416513], [6.1932337, 45.8416049], [6.193371, 45.8415675], [6.1566466, 45.8458424]]]]}}]}