{"type": "FeatureCollection", "features": [{"type": "Feature", "properties": {"name": "lac Patin"}, "geometry": {"type": "Polygon", "coordinates": [[[1.0159168, 49.3155049], [1.0174983, 49.3160342], [1.0202923, 49.3168283], [1.0205143, 49.316928], [1.0249232, 49.318908], [1.0267698, 49.3195256], [1.0274949, 49.3197084], [1.0276168, 49.3196598], [1.0280653, 49.3186622], [1.0284327, 49.3175972], [1.0290204, 49.316677], [1.0284952, 49.3166354], [1.0282057, 49.3169623], [1.0280052, 49.3168886], [1.0280338, 49.3164952], [1.0271472, 49.3163973], [1.0268594, 49.3166091], [1.026534, 49.3162775], [1.0266746, 49.3161553], [1.0267843, 49.3159138], [1.0267959, 49.3156344], [1.0250172, 49.3152696], [1.0232312, 49.3152786], [1.0229132, 49.3160195], [1.0228017, 49.3162791], [1.02277, 49.316353], [1.0225884, 49.3163323], [1.0217071, 49.3162318], [1.020804, 49.3161289], [1.0210008, 49.3152961], [1.0197013, 49.3150943], [1.0186043, 49.3149311], [1.0167539, 49.3144712], [1.0166217, 49.3141894], [1.0160848, 49.3151915], [1.0159168, 49.3155049]]]}}, {"type": "Feature", "properties": {"name": "Tourbière de la Harelle"}, "geometry": {"type": "Polygon", "coordinates": [[[0.7911796, 49.4453387], [0.7913938, 49.4456522], [0.7911497, 49.4457516], [0.7911229, 49.4458179], [0.7912356, 49.4458545], [0.7913992, 49.4459156], [0.7914743, 49.4459923], [0.7915226, 49.4460307], [0.7916459, 49.4460359], [0.7917103, 49.446069], [0.791477, 49.4466218], [0.7915091, 49.4466776], [0.7915816, 49.4467195], [0.7917613, 49.4467491], [0.7919329, 49.4467631], [0.7920697, 49.4467212], [0.7921931, 49.446648], [0.7923138, 49.4466114], [0.7924721, 49.4466253], [0.7925901, 49.4466236], [0.792987, 49.4467892], [0.7933867, 49.4468607], [0.7936791, 49.4469968], [0.7937461, 49.4470874], [0.793671, 49.4471397], [0.793553, 49.4472304], [0.7933921, 49.4472548], [0.7932097, 49.4472025], [0.7929736, 49.4471293], [0.7928342, 49.4470979], [0.7927269, 49.4471084], [0.7926947, 49.4471816], [0.7926196, 49.4472688], [0.7924104, 49.4472862], [0.7921153, 49.4473037], [0.7919705, 49.4472444], [0.7917613, 49.4471363], [0.7916486, 49.4470421], [0.7914931, 49.4470351], [0.7912677, 49.4471677], [0.7908064, 49.4477989], [0.7906026, 49.4482384], [0.7906294, 49.4483186], [0.791139, 49.4485086], [0.7912114, 49.4485644], [0.7913241, 49.4485766], [0.791426, 49.4485958], [0.7913965, 49.4486185], [0.7912999, 49.4486185], [0.7912141, 49.4486516], [0.7912382, 49.4486795], [0.7913053, 49.4487127], [0.7912731, 49.4487493], [0.7911792, 49.4487964], [0.7912999, 49.4488557], [0.7913294, 49.4488801], [0.7913884, 49.4489237], [0.791367, 49.448976], [0.7913187, 49.4490039], [0.7912597, 49.4489899], [0.7911846, 49.4489463], [0.791021, 49.4488801], [0.7907957, 49.4488748], [0.7906696, 49.4490004], [0.7905757, 49.4491277], [0.7907528, 49.4491695], [0.7914287, 49.4493439], [0.7921743, 49.4494869], [0.7934833, 49.4497938], [0.7951677, 49.4502332], [0.7953313, 49.4503448], [0.7953474, 49.4504285], [0.7953407, 49.4505323], [0.7953514, 49.4505933], [0.7953782, 49.4506177], [0.7954372, 49.4506221], [0.7955942, 49.4507049], [0.7956518, 49.450772], [0.7956679, 49.4508261], [0.7958128, 49.4508827], [0.7963103, 49.4510388], [0.797528, 49.4513631], [0.7982039, 49.4515026], [0.798322, 49.4513387], [0.7984668, 49.4510737], [0.798617, 49.4510005], [0.7988691, 49.4509551], [0.7992178, 49.4509795], [0.7992554, 49.4510841], [0.7990086, 49.4517746], [0.7988852, 49.4524303], [0.7987432, 49.4528284], [0.7987555, 49.4530147], [0.799072, 49.4533425], [0.7988477, 49.453738], [0.7988369, 49.4539193], [0.7987136, 49.4541913], [0.798718, 49.454291], [0.799132, 49.4548748], [0.7991052, 49.4549445], [0.7987726, 49.4551747], [0.7990086, 49.4553804], [0.7993305, 49.4555478], [0.801043, 49.4549808], [0.8010739, 49.454948], [0.8008593, 49.454554], [0.8006877, 49.4544877], [0.8005106, 49.4538566], [0.8006179, 49.4538077], [0.8027422, 49.4535218], [0.8027437, 49.4530702], [0.8027451, 49.4526418], [0.8025277, 49.4525593], [0.8020341, 49.4525314], [0.8007467, 49.4526221], [0.8006501, 49.4525314], [0.8009934, 49.4513108], [0.8011436, 49.4512341], [0.8012724, 49.4511086], [0.8012938, 49.4510039], [0.801993, 49.4508334], [0.8022882, 49.4507345], [0.802555, 49.4506452], [0.8027959, 49.4505645], [0.8032482, 49.4504533], [0.8037722, 49.4502576], [0.8039925, 49.4502013], [0.8061862, 49.4496359], [0.8061055, 49.4495262], [0.8050882, 49.4497279], [0.8038544, 49.4501289], [0.8024587, 49.4504845], [0.8021163, 49.4505718], [0.8019179, 49.4504672], [0.8018749, 49.450394], [0.8019608, 49.4503068], [0.8019292, 49.4500715], [0.8015674, 49.4496299], [0.8012992, 49.4490126], [0.8010793, 49.4485069], [0.8009773, 49.448193], [0.8008754, 49.4481512], [0.8007252, 49.4481616], [0.8006179, 49.448193], [0.8005643, 49.4482558], [0.8004677, 49.4487336], [0.8004624, 49.4490963], [0.8004463, 49.4493579], [0.8005482, 49.449609], [0.800634, 49.4498182], [0.8006072, 49.4499507], [0.8004677, 49.4499647], [0.800221, 49.4499438], [0.80006, 49.4498252], [0.8001888, 49.4496229], [0.8002853, 49.4492463], [0.8003926, 49.4485627], [0.8004677, 49.4482907], [0.8006072, 49.4477675], [0.800693, 49.4469723], [0.8004784, 49.4468049], [0.7993948, 49.446512], [0.798043, 49.4461911], [0.7955003, 49.4455842], [0.7938802, 49.4452703], [0.7937515, 49.4453889], [0.7936871, 49.4454656], [0.7935208, 49.445504], [0.7928824, 49.4454133], [0.7926035, 49.4453784], [0.7925552, 49.4453872], [0.7925284, 49.4454377], [0.7927, 49.4454918], [0.7928154, 49.445518], [0.7929549, 49.4455354], [0.7929924, 49.4455947], [0.7929146, 49.4455929], [0.7928181, 49.4455685], [0.7927242, 49.4455511], [0.7926303, 49.4455459], [0.7925552, 49.445565], [0.7925928, 49.4457202], [0.7925498, 49.4457447], [0.7924506, 49.4457342], [0.792295, 49.4456958], [0.792295, 49.445633], [0.7922924, 49.4455685], [0.7923728, 49.4455511], [0.7924667, 49.4455232], [0.7924077, 49.4454883], [0.7922763, 49.4454639], [0.7920778, 49.4454412], [0.7918873, 49.4453732], [0.7917774, 49.4453104], [0.7916218, 49.4452564], [0.7914555, 49.445232], [0.7911796, 49.4453387]]]}}, {"type": "Feature", "properties": {"name": "Bassin de la Manche"}, "geometry": {"type": "Polygon", "coordinates": [[[0.1016562, 49.4839089], [0.1021971, 49.4839404], [0.1030584, 49.4840008], [0.1030572, 49.4840153], [0.1032953, 49.4840327], [0.1032972, 49.4840199], [0.1056178, 49.4841905], [0.1056451, 49.484162], [0.105928, 49.4841063], [0.105931, 49.4840961], [0.1059653, 49.4840882], [0.105981, 49.4840963], [0.1062095, 49.4840481], [0.107332, 49.4843873], [0.1074095, 49.4843042], [0.1075594, 49.4843515], [0.1074954, 49.4844458], [0.107589, 49.4844731], [0.1075947, 49.4844668], [0.1081352, 49.4846323], [0.1082963, 49.4844171], [0.1084303, 49.4844574], [0.1085695, 49.4845265], [0.1095763, 49.4848312], [0.1092681, 49.4852571], [0.1100988, 49.4855072], [0.1099978, 49.4856574], [0.1103772, 49.4859291], [0.1107004, 49.4860266], [0.1108293, 49.4858604], [0.1109633, 49.4859047], [0.1116886, 49.4861515], [0.111714, 49.4863601], [0.1117561, 49.4863724], [0.1117705, 49.4864426], [0.1120996, 49.4865037], [0.1123123, 49.486539], [0.1123394, 49.4865031], [0.1123619, 49.4864757], [0.1123789, 49.4864601], [0.1124145, 49.4864473], [0.1124389, 49.4864451], [0.1124913, 49.4864536], [0.1124818, 49.4864724], [0.112705, 49.4865087], [0.1127595, 49.4864317], [0.1132951, 49.4856754], [0.1137724, 49.4856285], [0.1137741, 49.4856417], [0.1133082, 49.4856882], [0.1127741, 49.4864358], [0.112738, 49.4864863], [0.1127852, 49.4864928], [0.1130228, 49.4865328], [0.113196, 49.4865824], [0.1131754, 49.4866087], [0.1136262, 49.4867355], [0.1137442, 49.4867687], [0.1137874, 49.4867123], [0.1138385, 49.4866457], [0.1139363, 49.4866741], [0.1141988, 49.4867504], [0.1142187, 49.4867418], [0.1142112, 49.4867301], [0.114244, 49.4867158], [0.1142548, 49.4867248], [0.114346, 49.4866785], [0.1143023, 49.4866417], [0.1143013, 49.4866317], [0.1143132, 49.4866227], [0.1143232, 49.4866128], [0.1143573, 49.4866128], [0.1144008, 49.4866492], [0.1145417, 49.4865751], [0.114505, 49.4865373], [0.1145079, 49.4865223], [0.1145131, 49.4865147], [0.1145243, 49.4865093], [0.1145542, 49.4865083], [0.1146017, 49.4865479], [0.1147289, 49.4864834], [0.114715, 49.4864303], [0.1146324, 49.4863603], [0.1146683, 49.4863418], [0.114743, 49.4863032], [0.1143169, 49.4859507], [0.1143086, 49.4859238], [0.1143085, 49.4858957], [0.1143213, 49.4858717], [0.1143565, 49.485849], [0.114431, 49.4858311], [0.1145966, 49.4858433], [0.1147203, 49.4858657], [0.1148611, 49.4859022], [0.1149556, 49.4857649], [0.1149199, 49.4857503], [0.1148988, 49.485727], [0.1148799, 49.4856933], [0.1148758, 49.4856081], [0.1149205, 49.4854747], [0.1149389, 49.4854752], [0.1150121, 49.4853664], [0.1149977, 49.4853589], [0.1150195, 49.4853177], [0.1150476, 49.4852836], [0.115102, 49.4852316], [0.115234, 49.4851057], [0.115267, 49.4850742], [0.1163325, 49.4843478], [0.1163174, 49.4843235], [0.1163347, 49.4843138], [0.1162972, 49.4842525], [0.1162781, 49.4842542], [0.1162677, 49.4842327], [0.1162295, 49.4841694], [0.1162294, 49.4841655], [0.1162305, 49.4841613], [0.1162341, 49.4841564], [0.1162394, 49.4841523], [0.1163094, 49.4841345], [0.1163047, 49.4841212], [0.1162235, 49.4841364], [0.1162131, 49.4841365], [0.1161888, 49.4841327], [0.1161666, 49.4841248], [0.1161487, 49.4841139], [0.1161313, 49.4840933], [0.116127, 49.4840782], [0.1161281, 49.4840638], [0.1161312, 49.4840562], [0.1161157, 49.4840529], [0.1161049, 49.4840481], [0.1160966, 49.4840412], [0.1160906, 49.484032], [0.1160893, 49.484022], [0.1160924, 49.4840122], [0.1161025, 49.4840016], [0.1160899, 49.4839956], [0.1160797, 49.4839881], [0.116069, 49.4839767], [0.1160618, 49.4839646], [0.1160601, 49.4839431], [0.1160679, 49.4839243], [0.1160789, 49.4839121], [0.1161015, 49.4838989], [0.1161172, 49.4838934], [0.1161102, 49.4838817], [0.1160469, 49.4838911], [0.1160418, 49.4838907], [0.1160369, 49.4838893], [0.1160322, 49.4838871], [0.1160293, 49.4838849], [0.1159852, 49.483814], [0.1157929, 49.4838039], [0.115791, 49.4837885], [0.1156802, 49.4837838], [0.1156785, 49.4837984], [0.1156373, 49.4837965], [0.1151626, 49.4837747], [0.1150589, 49.4838379], [0.1145894, 49.4837929], [0.1145934, 49.4837305], [0.1143886, 49.483715], [0.1139227, 49.4837865], [0.113558, 49.4838425], [0.1125526, 49.4839859], [0.1119458, 49.4840413], [0.1115113, 49.4840809], [0.1112742, 49.4840596], [0.1111051, 49.4839992], [0.1109776, 49.4836846], [0.111174, 49.4836505], [0.1126222, 49.4833994], [0.1127864, 49.4833709], [0.1127878, 49.4833343], [0.112816, 49.4833284], [0.112812, 49.4832187], [0.1127919, 49.4832128], [0.1127851, 49.4831413], [0.1127915, 49.4831204], [0.1128071, 49.4831072], [0.1128299, 49.4830988], [0.1128584, 49.4830987], [0.1128463, 49.4828312], [0.1128204, 49.4828274], [0.1128045, 49.4828181], [0.1127937, 49.4828074], [0.1127884, 49.4827929], [0.1127904, 49.4826995], [0.1128164, 49.4826996], [0.1128143, 49.4825913], [0.1128006, 49.48259], [0.1127964, 49.4824665], [0.1127602, 49.482471], [0.1118683, 49.4824129], [0.1118629, 49.4824225], [0.1118264, 49.4824205], [0.1118204, 49.4824098], [0.1113826, 49.4823813], [0.1113794, 49.4823941], [0.1113422, 49.4823921], [0.1113388, 49.4823785], [0.1109035, 49.4823501], [0.1109015, 49.4823608], [0.1108636, 49.4823596], [0.1108604, 49.4823473], [0.11026, 49.4823082], [0.110252, 49.4823208], [0.1102252, 49.4823186], [0.110224, 49.4823059], [0.1097785, 49.4822768], [0.1097712, 49.4822904], [0.1097464, 49.482289], [0.1097436, 49.4822746], [0.1093381, 49.4822482], [0.1093319, 49.4822584], [0.1092992, 49.482257], [0.1092902, 49.482245], [0.1084505, 49.4821903], [0.1084471, 49.4821996], [0.1084077, 49.482198], [0.1083997, 49.482187], [0.1080355, 49.4821633], [0.1080254, 49.4821738], [0.1079929, 49.4821712], [0.107987, 49.4821601], [0.1075616, 49.4821324], [0.1075534, 49.482141], [0.1075169, 49.4821382], [0.1075153, 49.4821294], [0.1070884, 49.4821016], [0.1070843, 49.4821087], [0.1070504, 49.4821063], [0.107049, 49.482099], [0.1067655, 49.4820806], [0.1067593, 49.4820911], [0.1067305, 49.4820891], [0.1067275, 49.4820781], [0.1059453, 49.4820256], [0.1059293, 49.482018], [0.1016562, 49.4839089]]]}}, {"type": "Feature", "properties": {"name": "Bassin René Coty"}, "geometry": {"type": "Polygon", "coordinates": [[[0.1603868, 49.4693262], [0.1603975, 49.4693028], [0.1604761, 49.4693211], [0.1605141, 49.46929], [0.1605534, 49.4692381], [0.1605976, 49.4691887], [0.1606148, 49.4691568], [0.1605645, 49.4691328], [0.1605817, 49.4690905], [0.1605853, 49.4690419], [0.1605976, 49.4690036], [0.1606173, 49.4689333], [0.160648, 49.4688599], [0.160675, 49.4687985], [0.1607228, 49.4687411], [0.160772, 49.4686828], [0.1608039, 49.4686214], [0.1608579, 49.4685528], [0.1608837, 49.4684825], [0.1609438, 49.46837], [0.1609672, 49.468295], [0.1609844, 49.4682424], [0.1609586, 49.4682001], [0.1608112, 49.4681275], [0.1606173, 49.4680413], [0.1604908, 49.4680174], [0.1603521, 49.4680198], [0.1601765, 49.4680317], [0.1600341, 49.4680206], [0.1599236, 49.4680214], [0.1597492, 49.4680262], [0.1596031, 49.4680541], [0.1594497, 49.4680964], [0.1593121, 49.4681506], [0.1591832, 49.4682025], [0.1590813, 49.4682551], [0.1590163, 49.4683038], [0.1589598, 49.4683605], [0.1589487, 49.4684243], [0.158945, 49.4684905], [0.1589242, 49.4685847], [0.1589401, 49.4686677], [0.1589365, 49.4687299], [0.1589205, 49.4687746], [0.1588984, 49.4688256], [0.1588763, 49.4688376], [0.1588542, 49.4688256], [0.1588566, 49.4688065], [0.1588088, 49.4687833], [0.1587633, 49.4687794], [0.1587142, 49.4687977], [0.1586516, 49.4687674], [0.1586185, 49.4687794], [0.1585767, 49.4687953], [0.1585743, 49.4688185], [0.1585325, 49.4688113], [0.1585166, 49.4688017], [0.1585104, 49.4688288], [0.1584916, 49.4688431], [0.1557559, 49.4681458], [0.1539564, 49.4676871], [0.1536833, 49.4676144], [0.1536298, 49.4676002], [0.153556, 49.4675805], [0.1529654, 49.4674232], [0.1529154, 49.4674099], [0.1528387, 49.4673895], [0.1518076, 49.4670826], [0.1489641, 49.4710625], [0.1490058, 49.4710691], [0.1490391, 49.4710828], [0.1580632, 49.4752739], [0.1580595, 49.4752805], [0.158055, 49.4752862], [0.1580504, 49.4752915], [0.158044, 49.4752976], [0.1580359, 49.4753036], [0.1580265, 49.475309], [0.158018, 49.4753132], [0.1580066, 49.4753175], [0.1579945, 49.475321], [0.1579833, 49.4753234], [0.15797, 49.4753248], [0.1579562, 49.4753251], [0.1579478, 49.4753219], [0.1579414, 49.4753199], [0.1579331, 49.4753184], [0.1579265, 49.4753178], [0.157918, 49.475318], [0.1579125, 49.4753185], [0.1579149, 49.4753142], [0.1579161, 49.4753094], [0.1579161, 49.4753057], [0.1579155, 49.4753009], [0.1579135, 49.4752963], [0.1579102, 49.4752919], [0.1579052, 49.4752875], [0.1578993, 49.4752834], [0.1578941, 49.4752811], [0.1578872, 49.4752784], [0.1578806, 49.4752772], [0.1578712, 49.4752764], [0.1578635, 49.4752766], [0.1578558, 49.4752776], [0.1578565, 49.4752753], [0.1578564, 49.4752733], [0.1578554, 49.4752713], [0.1578531, 49.475269], [0.1578502, 49.4752673], [0.1578471, 49.4752665], [0.1578432, 49.4752659], [0.1578393, 49.475266], [0.1578361, 49.4752668], [0.1578325, 49.4752677], [0.1578309, 49.4752617], [0.1578274, 49.4752567], [0.157822, 49.475252], [0.1578156, 49.4752477], [0.1578065, 49.4752433], [0.157797, 49.4752403], [0.157788, 49.475239], [0.1577771, 49.4752383], [0.1577678, 49.4752389], [0.1577569, 49.4752409], [0.1577579, 49.4752337], [0.1577482, 49.4752315], [0.1577384, 49.4752281], [0.1577314, 49.4752238], [0.157725, 49.4752182], [0.1577201, 49.4752117], [0.1577188, 49.4752064], [0.1577144, 49.4752182], [0.1576895, 49.475263], [0.157682, 49.475295], [0.1576229, 49.4754076], [0.1576062, 49.4755909], [0.1576197, 49.475655], [0.1578032, 49.4756501], [0.158001, 49.4756559], [0.1581771, 49.4756779], [0.1582689, 49.475719], [0.1583465, 49.4757641], [0.1584976, 49.4758624], [0.1592058, 49.4759533], [0.1613536, 49.4760957], [0.1615435, 49.4760287], [0.1617628, 49.475976], [0.1618022, 49.4758176], [0.1617698, 49.4758146], [0.1618024, 49.4756344], [0.1617852, 49.4755961], [0.161966, 49.4756089], [0.1686149, 49.4760788], [0.1688555, 49.4756371], [0.168945, 49.4756576], [0.1689724, 49.4756134], [0.1691885, 49.4752652], [0.1695298, 49.474705], [0.1700115, 49.4739229], [0.1699927, 49.4738925], [0.1701335, 49.4736577], [0.1701297, 49.4736097], [0.1701148, 49.4735595], [0.1700907, 49.4735057], [0.1700916, 49.4734467], [0.1701363, 49.4733777], [0.1702397, 49.4732271], [0.1682854, 49.4713693], [0.1605979, 49.4693777], [0.1603868, 49.4693262]]]}}, {"type": "Feature", "properties": {"name": "Bassin Marcel Despujols"}, "geometry": {"type": "Polygon", "coordinates": [[[0.180422, 49.4928019], [0.1804858, 49.4926533], [0.1804984, 49.4926556], [0.1805413, 49.4925519], [0.1803743, 49.492413], [0.1797409, 49.4922228], [0.1785208, 49.4906435], [0.1781596, 49.4904457], [0.1668145, 49.4871119], [0.1663984, 49.4876127], [0.1663525, 49.4876091], [0.1661424, 49.4878696], [0.1657304, 49.4878496], [0.1653809, 49.4879396], [0.1645544, 49.4876971], [0.1645167, 49.4876179], [0.163924, 49.487443], [0.1639221, 49.487422], [0.1638739, 49.4874112], [0.1638178, 49.48744], [0.1637473, 49.4874043], [0.1637396, 49.4873667], [0.1636744, 49.4873857], [0.1636197, 49.4874113], [0.1635754, 49.4874397], [0.163531, 49.4874797], [0.1635033, 49.4875201], [0.1635624, 49.4875231], [0.1635356, 49.4877322], [0.1635334, 49.4877408], [0.1633495, 49.488286], [0.171534, 49.4907009], [0.1717351, 49.4907487], [0.1718814, 49.4907781], [0.1719919, 49.4908325], [0.1722168, 49.4909036], [0.1722599, 49.4909958], [0.1722328, 49.4910797], [0.1801368, 49.4934221], [0.180422, 49.4928019]]]}}, {"type": "Feature", "properties": {"name": "Bassin Henry Deschênes"}, "geometry": {"type": "Polygon", "coordinates": [[[0.1849518, 49.4749932], [0.1848796, 49.4749379], [0.1848829, 49.4748362], [0.1849031, 49.4748132], [0.1849041, 49.4747674], [0.1849118, 49.4747551], [0.1844509, 49.4746402], [0.1844211, 49.4746156], [0.1844013, 49.4745868], [0.1796539, 49.4739961], [0.1795916, 49.4740378], [0.1794532, 49.4740825], [0.1793188, 49.4741038], [0.1790763, 49.4741204], [0.1789137, 49.474237], [0.1788345, 49.4742987], [0.1787829, 49.4743274], [0.1787372, 49.4743488], [0.1785867, 49.4743446], [0.1785538, 49.4743343], [0.1785054, 49.4743226], [0.1784731, 49.4743205], [0.1783015, 49.4742634], [0.1782267, 49.4743061], [0.1781835, 49.4743194], [0.1781385, 49.4743242], [0.1780938, 49.4743253], [0.178073, 49.4743248], [0.1780597, 49.4743203], [0.1780348, 49.4743046], [0.1779197, 49.4743152], [0.1776861, 49.4743525], [0.1776816, 49.4743834], [0.1776784, 49.4743899], [0.1776733, 49.4743945], [0.1776648, 49.4743983], [0.1776547, 49.4744004], [0.177644, 49.4743998], [0.1776343, 49.4743964], [0.1775213, 49.4743803], [0.177451, 49.4743748], [0.177332, 49.4743816], [0.1771867, 49.4744277], [0.1770438, 49.4744523], [0.1767554, 49.4745436], [0.1767773, 49.4745722], [0.1767813, 49.4745833], [0.1767815, 49.4745939], [0.1767782, 49.474603], [0.1767715, 49.4746127], [0.1767626, 49.4746199], [0.1767494, 49.4746254], [0.1766477, 49.4746539], [0.1765949, 49.4746488], [0.1765482, 49.4746729], [0.1765398, 49.4747006], [0.1762309, 49.4752294], [0.1762254, 49.4752371], [0.1762138, 49.475246], [0.1762016, 49.4752518], [0.1761882, 49.4752548], [0.1761738, 49.4752544], [0.1761571, 49.4752526], [0.1755434, 49.4762647], [0.1754762, 49.4762473], [0.1751982, 49.4768217], [0.1748396, 49.4774367], [0.1748106, 49.4774648], [0.1747403, 49.4776034], [0.1746567, 49.4777349], [0.175161, 49.4781623], [0.1748563, 49.4783128], [0.182558, 49.4847298], [0.1828531, 49.4845869], [0.1831573, 49.4850933], [0.1828409, 49.4851744], [0.1840846, 49.4873127], [0.1847409, 49.4875826], [0.1852625, 49.4875794], [0.1852894, 49.4875818], [0.1853115, 49.4875895], [0.1853296, 49.4876015], [0.1853429, 49.4876187], [0.1855231, 49.4879886], [0.185529, 49.4880042], [0.1861636, 49.4879865], [0.1861306, 49.4879764], [0.1860978, 49.4879593], [0.1860833, 49.4879396], [0.1860222, 49.4877919], [0.1860433, 49.4877566], [0.1861058, 49.4877366], [0.1865848, 49.4877315], [0.1864807, 49.4875332], [0.1864901, 49.4875284], [0.1864323, 49.487417], [0.1864162, 49.4874195], [0.1863323, 49.4872617], [0.1863196, 49.4872378], [0.1863152, 49.4871076], [0.1865985, 49.4867055], [0.1847681, 49.4832186], [0.1834609, 49.4807306], [0.1851746, 49.4794585], [0.1852521, 49.4794008], [0.1867576, 49.478284], [0.1849518, 49.4749932]]]}}, {"type": "Feature", "properties": {"name": "Bassin Théophile Ducrocq"}, "geometry": {"type": "Polygon", "coordinates": [[[0.1261558, 49.4707303], [0.1261235, 49.4706844], [0.1261205, 49.4706384], [0.1261437, 49.4705887], [0.1264999, 49.4702834], [0.1265802, 49.4702101], [0.1266298, 49.4701453], [0.1266624, 49.4700749], [0.1266854, 49.4699945], [0.1266884, 49.4699295], [0.1266736, 49.4698642], [0.1266393, 49.4697804], [0.1265658, 49.4697058], [0.1264919, 49.4696522], [0.1264138, 49.4696023], [0.1263161, 49.46956], [0.1262223, 49.469531], [0.1261307, 49.4695137], [0.1260354, 49.4695036], [0.1259083, 49.4695124], [0.1226886, 49.4699513], [0.1226518, 49.4699592], [0.1226296, 49.4699745], [0.1226143, 49.4699939], [0.1226125, 49.4700236], [0.1225877, 49.4703712], [0.122539, 49.4704119], [0.1225102, 49.470436], [0.122495, 49.4704488], [0.1222121, 49.4706855], [0.1221887, 49.4707051], [0.1221675, 49.4707228], [0.1216069, 49.4711919], [0.1215162, 49.4712678], [0.1211294, 49.4715915], [0.1210727, 49.4716163], [0.121149, 49.4718274], [0.1211583, 49.4718301], [0.1211676, 49.4718351], [0.1211726, 49.4718414], [0.1211753, 49.4718486], [0.1211741, 49.4718561], [0.12117, 49.4718626], [0.1211623, 49.4718684], [0.1211539, 49.4718717], [0.1211499, 49.4718641], [0.1211323, 49.4718662], [0.1211329, 49.471875], [0.1211233, 49.4718738], [0.1211155, 49.4718718], [0.1211081, 49.4718679], [0.1211015, 49.4718626], [0.1210973, 49.4718552], [0.1210964, 49.4718471], [0.1210995, 49.4718387], [0.1211055, 49.4718331], [0.1210265, 49.4716217], [0.1209971, 49.4716216], [0.1209646, 49.4716161], [0.1209366, 49.4716056], [0.1209146, 49.4715926], [0.1208929, 49.4715735], [0.1208808, 49.4715515], [0.1208781, 49.4715291], [0.120882, 49.4715093], [0.1209152, 49.4714665], [0.1209292, 49.4714303], [0.1210705, 49.4712512], [0.121109, 49.4711994], [0.1211292, 49.4711565], [0.1211373, 49.4711206], [0.1211408, 49.4710788], [0.1211333, 49.4710422], [0.1211216, 49.470994], [0.1211066, 49.4709494], [0.1210789, 49.4708838], [0.1210251, 49.4707929], [0.1209803, 49.4707347], [0.1209541, 49.4707077], [0.1208853, 49.4706722], [0.1208353, 49.4706551], [0.1207818, 49.4706422], [0.1207223, 49.4706333], [0.1206474, 49.4706304], [0.1205804, 49.4706355], [0.1204794, 49.4706583], [0.1199776, 49.4707784], [0.1197936, 49.4708271], [0.1182873, 49.4712184], [0.1176945, 49.471372], [0.1174646, 49.4714457], [0.1172832, 49.4715299], [0.1171591, 49.4716286], [0.1168679, 49.4719475], [0.1166539, 49.4721849], [0.1164879, 49.4724334], [0.116496, 49.4724848], [0.1164121, 49.4726245], [0.1162923, 49.4728051], [0.1161289, 49.4729934], [0.1156379, 49.4736645], [0.1155922, 49.473695], [0.1155135, 49.4737836], [0.1154859, 49.4738417], [0.1154478, 49.4738717], [0.1154241, 49.4739105], [0.1154074, 49.4739252], [0.1153807, 49.4739676], [0.115342, 49.4740234], [0.115291, 49.4741098], [0.1152391, 49.4741638], [0.1151676, 49.4742585], [0.115136, 49.4743516], [0.115089, 49.4744966], [0.1150397, 49.4746538], [0.1148817, 49.4747853], [0.1147493, 49.4748295], [0.1146661, 49.4749286], [0.1146085, 49.4749908], [0.1135152, 49.4756437], [0.1134537, 49.4756584], [0.1133967, 49.475662], [0.1133481, 49.4756532], [0.1132989, 49.4756401], [0.1129288, 49.4754071], [0.1129533, 49.4753849], [0.1133326, 49.4754314], [0.1137799, 49.4750784], [0.1138244, 49.4750694], [0.1138613, 49.475056], [0.1138819, 49.4750355], [0.1138886, 49.4750104], [0.113907, 49.4749823], [0.1139138, 49.4749555], [0.1139128, 49.4749266], [0.1140757, 49.4747902], [0.114198, 49.4746421], [0.1142542, 49.4745876], [0.1142941, 49.4745051], [0.1142857, 49.4744464], [0.1143354, 49.4743794], [0.1143359, 49.4743579], [0.1144537, 49.4742425], [0.1144975, 49.4741417], [0.1145736, 49.4740483], [0.1146552, 49.4739912], [0.1146784, 49.4739408], [0.1147431, 49.4738701], [0.1148357, 49.4737968], [0.1148891, 49.4737045], [0.1149332, 49.4735988], [0.1149278, 49.4734915], [0.1148919, 49.4734021], [0.1148134, 49.4733213], [0.1146978, 49.4732296], [0.1145607, 49.4731604], [0.1145106, 49.4731542], [0.1144609, 49.4731415], [0.114415, 49.4731074], [0.1143601, 49.4730978], [0.1142968, 49.4730584], [0.1140639, 49.4729875], [0.1139396, 49.4729564], [0.1138795, 49.47295], [0.1138359, 49.4729274], [0.113781, 49.4729034], [0.1137414, 49.4728972], [0.1136857, 49.4728742], [0.113628, 49.4728681], [0.1135991, 49.472855], [0.1135023, 49.4728429], [0.1133936, 49.4728353], [0.113269, 49.4728327], [0.1131719, 49.4728365], [0.1130612, 49.4728528], [0.1129684, 49.4728839], [0.1128941, 49.4729245], [0.1127905, 49.472999], [0.1126768, 49.4731187], [0.1126071, 49.473226], [0.1125283, 49.4733007], [0.112467, 49.4733994], [0.1123786, 49.4734859], [0.1123253, 49.4735709], [0.1122754, 49.4736334], [0.1122161, 49.4736826], [0.1122034, 49.473716], [0.1121811, 49.4737509], [0.1121495, 49.4737834], [0.1120834, 49.4738962], [0.1120246, 49.473961], [0.1119851, 49.4740309], [0.1119289, 49.4740942], [0.1118346, 49.4741502], [0.1117507, 49.474172], [0.1117014, 49.474191], [0.1117029, 49.4742028], [0.1116688, 49.4742548], [0.111601, 49.4743599], [0.1115481, 49.4744091], [0.1115413, 49.4744462], [0.11142, 49.4745861], [0.1113774, 49.4746488], [0.1113076, 49.4747545], [0.1112582, 49.4748471], [0.1111998, 49.4748888], [0.1111633, 49.474945], [0.1111438, 49.4749907], [0.1110758, 49.4750826], [0.1110134, 49.475112], [0.1109783, 49.4751383], [0.1108977, 49.4751633], [0.1108243, 49.4751588], [0.1107056, 49.4751836], [0.1106269, 49.4752135], [0.1105234, 49.4752651], [0.1104094, 49.4753071], [0.1103501, 49.475339], [0.1102474, 49.4753512], [0.1101669, 49.4753585], [0.1100911, 49.475382], [0.1100163, 49.4753987], [0.1099431, 49.4754182], [0.1098312, 49.475452], [0.1097348, 49.475481], [0.109658, 49.4755031], [0.1095359, 49.4755365], [0.1094125, 49.4755638], [0.1092999, 49.4756012], [0.1091786, 49.4756351], [0.1089162, 49.4756977], [0.1087224, 49.4757676], [0.108485, 49.4758484], [0.1081865, 49.4759464], [0.1078259, 49.4760634], [0.1076801, 49.4761029], [0.1075699, 49.4761335], [0.1074844, 49.476179], [0.1073824, 49.4762031], [0.1072511, 49.4762551], [0.1071081, 49.4762911], [0.1070196, 49.476332], [0.1069012, 49.4763559], [0.1067213, 49.4764296], [0.1065777, 49.4764687], [0.1059819, 49.4768118], [0.1058118, 49.476921], [0.1056505, 49.4770091], [0.1051371, 49.4772667], [0.1049771, 49.4773436], [0.1048821, 49.4773446], [0.1048279, 49.4773719], [0.1047514, 49.4774751], [0.103313, 49.4781898], [0.1032449, 49.4782296], [0.1031935, 49.4782709], [0.103153, 49.4783115], [0.1031228, 49.478352], [0.103102, 49.4783956], [0.1030861, 49.4784301], [0.1030751, 49.4784657], [0.1030663, 49.4784963], [0.1030647, 49.4785094], [0.1030671, 49.4785237], [0.1030741, 49.4785389], [0.1030846, 49.4785527], [0.1031184, 49.478586], [0.103612, 49.4790621], [0.103819, 49.4792617], [0.1038447, 49.4792492], [0.1038639, 49.4792675], [0.1038358, 49.4792792], [0.1038745, 49.4793161], [0.1038897, 49.4793121], [0.1040132, 49.4794159], [0.1054262, 49.4808236], [0.1054394, 49.4808195], [0.1054524, 49.4808182], [0.1054698, 49.4808206], [0.1054839, 49.480828], [0.1055225, 49.4808685], [0.1055128, 49.4808865], [0.1055588, 49.4809312], [0.1055382, 49.4809411], [0.1057187, 49.4811131], [0.1083277, 49.4805524], [0.1083295, 49.4805437], [0.1083777, 49.4805334], [0.1083859, 49.4805399], [0.1086562, 49.4804818], [0.1086598, 49.4804745], [0.1087107, 49.4804639], [0.1087186, 49.4804684], [0.1089759, 49.4804131], [0.1089781, 49.4804051], [0.1090374, 49.4803929], [0.1090443, 49.4803984], [0.1093102, 49.4803413], [0.1093151, 49.4803324], [0.1093654, 49.4803218], [0.109376, 49.4803271], [0.1096409, 49.4802702], [0.1096428, 49.4802614], [0.1096917, 49.4802508], [0.1097025, 49.4802569], [0.110295, 49.4801296], [0.1102966, 49.4801219], [0.1103402, 49.4801123], [0.1103479, 49.4801182], [0.1106258, 49.4800585], [0.110628, 49.480049], [0.1106775, 49.4800393], [0.1106873, 49.4800452], [0.1109572, 49.4799872], [0.1109576, 49.4799807], [0.1110075, 49.4799696], [0.1110143, 49.479975], [0.1112775, 49.4799184], [0.1112787, 49.4799121], [0.111329, 49.4799014], [0.1113379, 49.4799054], [0.1116014, 49.4798488], [0.1116038, 49.4798419], [0.111663, 49.4798295], [0.1116704, 49.4798339], [0.1119329, 49.4797775], [0.1119355, 49.47977], [0.1119837, 49.4797601], [0.1119948, 49.4797642], [0.1122533, 49.4797086], [0.1122573, 49.4797008], [0.1123088, 49.4796893], [0.1123218, 49.4796939], [0.1125946, 49.4796353], [0.1125967, 49.4796275], [0.1126473, 49.4796172], [0.1126594, 49.4796213], [0.1129135, 49.4795667], [0.1129164, 49.4795572], [0.1129767, 49.4795451], [0.1129893, 49.4795504], [0.1132652, 49.4794911], [0.1132658, 49.4794838], [0.113296, 49.4794781], [0.1133052, 49.4794825], [0.1135713, 49.4794253], [0.1208029, 49.4785263], [0.1269253, 49.4777652], [0.1342327, 49.4768568], [0.1342901, 49.4768496], [0.1342944, 49.4768196], [0.1343101, 49.4768158], [0.1343083, 49.4766691], [0.1342872, 49.4766657], [0.1342867, 49.4764663], [0.1342768, 49.4764644], [0.1342762, 49.4763829], [0.1342662, 49.4760251], [0.134266, 49.4760133], [0.1341503, 49.4760143], [0.1341326, 49.4760144], [0.1341315, 49.4760211], [0.1340346, 49.4760211], [0.1339881, 49.4760017], [0.1339802, 49.4756807], [0.1340103, 49.4756826], [0.1340108, 49.4756858], [0.1340637, 49.4756858], [0.1340637, 49.4756962], [0.1342853, 49.4756959], [0.1342877, 49.4756811], [0.1344842, 49.4756794], [0.1346786, 49.475515], [0.1345425, 49.475078], [0.1344795, 49.4748757], [0.1341882, 49.4739409], [0.1340807, 49.4737884], [0.1341289, 49.4737831], [0.1341153, 49.4737754], [0.1341025, 49.473771], [0.13409, 49.473768], [0.1340757, 49.4737666], [0.1340609, 49.4737669], [0.1340387, 49.473771], [0.1326906, 49.47395], [0.132593, 49.4739629], [0.1323632, 49.4739933], [0.1322827, 49.474004], [0.1318766, 49.4740578], [0.1318793, 49.4740666], [0.1318115, 49.4740755], [0.1318088, 49.4740668], [0.1307254, 49.4742103], [0.1307293, 49.474223], [0.1306413, 49.4742347], [0.1306374, 49.474222], [0.1300659, 49.4742977], [0.1299857, 49.4743083], [0.1288776, 49.4744551], [0.1287983, 49.4744656], [0.1284959, 49.4745056], [0.1284995, 49.4745173], [0.1284089, 49.4745293], [0.1284053, 49.4745176], [0.1280612, 49.4745632], [0.127976, 49.4745745], [0.1262614, 49.4748015], [0.1261056, 49.4748176], [0.1259809, 49.4748371], [0.1258375, 49.4748472], [0.1256106, 49.4748824], [0.1256038, 49.4748559], [0.1257006, 49.4748417], [0.1256837, 49.4747587], [0.1256467, 49.4746542], [0.125629, 49.4746068], [0.1256242, 49.4745526], [0.1256174, 49.4745138], [0.1256346, 49.4744758], [0.125665, 49.4744476], [0.1257216, 49.4744165], [0.1257958, 49.4743909], [0.1260198, 49.4743627], [0.1261653, 49.4743156], [0.1277321, 49.473706], [0.128044, 49.473585], [0.1282202, 49.4735248], [0.1290874, 49.4733926], [0.1291752, 49.473413], [0.1292483, 49.4734025], [0.130705, 49.473193], [0.1307919, 49.4731805], [0.1359786, 49.4724744], [0.1359901, 49.4724553], [0.1365992, 49.4723695], [0.1367701, 49.4723454], [0.1383507, 49.4721226], [0.1393787, 49.4718832], [0.1401404, 49.4718413], [0.1403619, 49.4718291], [0.1408365, 49.471803], [0.1410467, 49.4717914], [0.1415218, 49.4717653], [0.141737, 49.4717534], [0.1422116, 49.4717273], [0.1424242, 49.4717156], [0.1429033, 49.4716893], [0.1431118, 49.4716778], [0.1447209, 49.4715892], [0.1450789, 49.4714308], [0.1463092, 49.4713087], [0.1462772, 49.4711528], [0.1462696, 49.47112], [0.1462762, 49.4710879], [0.146295, 49.471047], [0.1462909, 49.4710268], [0.146321, 49.4710239], [0.1463238, 49.4710365], [0.1470469, 49.4709663], [0.1471, 49.471027], [0.1471082, 49.471055], [0.1471024, 49.471087], [0.1470964, 49.4711121], [0.1470934, 49.4711168], [0.1470953, 49.471122], [0.1471006, 49.4711262], [0.1471081, 49.4711276], [0.1472355, 49.4711159], [0.1472214, 49.4711423], [0.1472164, 49.47117], [0.1472202, 49.4711916], [0.1472271, 49.4712116], [0.1472468, 49.4712359], [0.1472651, 49.4712515], [0.1472882, 49.4712657], [0.1473204, 49.4712792], [0.1473624, 49.4712898], [0.1473934, 49.4712927], [0.1474249, 49.471293], [0.1474575, 49.4712888], [0.1475012, 49.4712754], [0.1475371, 49.471259], [0.1475543, 49.4712457], [0.1475712, 49.47123], [0.1475917, 49.4711935], [0.1477647, 49.4711777], [0.1477471, 49.4710856], [0.1478689, 49.4709661], [0.1479872, 49.4709557], [0.1480139, 49.4710634], [0.1480374, 49.4710618], [0.1480594, 49.471148], [0.1488804, 49.471065], [0.1489221, 49.4710601], [0.1489641, 49.4710625], [0.1518076, 49.4670826], [0.1506251, 49.4670954], [0.1403254, 49.4680715], [0.1396021, 49.4681256], [0.1374168, 49.4684417], [0.1370882, 49.4684665], [0.1367597, 49.4684292], [0.1360073, 49.4684445], [0.1356412, 49.4684885], [0.1355602, 49.4685906], [0.1353416, 49.4686314], [0.1352024, 49.468635], [0.1351144, 49.4686263], [0.1350522, 49.4685716], [0.1328996, 49.4688162], [0.1326544, 49.4689489], [0.130942, 49.4691583], [0.1308896, 49.4691744], [0.1308193, 49.4691961], [0.1300916, 49.4692966], [0.1300362, 49.4692984], [0.1299622, 49.4693007], [0.1277078, 49.4696257], [0.1265338, 49.4705959], [0.1265447, 49.4706037], [0.1264656, 49.4706595], [0.1264771, 49.4706869], [0.1264214, 49.4706939], [0.1263828, 49.4707233], [0.1263376, 49.4707418], [0.1262724, 49.4707522], [0.1262152, 49.4707487], [0.1261558, 49.4707303]]]}}, {"type": "Feature", "properties": {"name": "Bassin Bellot"}, "geometry": {"type": "Polygon", "coordinates": [[[0.1370776, 49.4792201], [0.1368884, 49.4792418], [0.1368337, 49.4790689], [0.1240761, 49.4806685], [0.1167549, 49.481574], [0.1167416, 49.4815728], [0.1167312, 49.4815759], [0.116725, 49.4815803], [0.116721, 49.4815854], [0.1167207, 49.4815935], [0.1167258, 49.4815998], [0.11705, 49.4824697], [0.1170332, 49.4824766], [0.1170632, 49.4825443], [0.1170823, 49.4825465], [0.1171373, 49.4826776], [0.117228, 49.4826816], [0.1172302, 49.4828081], [0.117225, 49.4828173], [0.1172183, 49.4828233], [0.1172093, 49.4828283], [0.1173708, 49.4831026], [0.1173884, 49.4831067], [0.1174027, 49.4831146], [0.1174116, 49.483122], [0.1174544, 49.4832312], [0.1173706, 49.483245], [0.1175065, 49.4835754], [0.1171744, 49.4836473], [0.1172181, 49.4839085], [0.1174557, 49.4838576], [0.1174591, 49.4838616], [0.1176511, 49.4838171], [0.117654, 49.4838229], [0.1177613, 49.4837991], [0.117761, 49.4837912], [0.1178696, 49.4837677], [0.1180481, 49.4837469], [0.1186251, 49.4837391], [0.119965, 49.483704], [0.1200255, 49.4837068], [0.1200719, 49.4837225], [0.1225646, 49.4828977], [0.1225654, 49.4828784], [0.1225753, 49.4828618], [0.1225922, 49.4828497], [0.1226146, 49.4828433], [0.1226394, 49.4828425], [0.1297187, 49.481945], [0.1295247, 49.4812297], [0.1295318, 49.4811735], [0.1295648, 49.4811169], [0.1296113, 49.4810685], [0.1296759, 49.4810241], [0.1297517, 49.4809926], [0.1298388, 49.4809704], [0.1307006, 49.4808675], [0.1307405, 49.4808683], [0.1307849, 49.4808826], [0.1308182, 49.4809022], [0.1308458, 49.4809332], [0.1310829, 49.4817424], [0.1311175, 49.4817583], [0.137661, 49.4809445], [0.1377399, 49.4807132], [0.1377569, 49.4806873], [0.1377781, 49.4806703], [0.1378658, 49.4803892], [0.1378602, 49.4803782], [0.1378598, 49.4803671], [0.1381814, 49.4794299], [0.1370776, 49.4792201]]]}}, {"type": "Feature", "properties": {"name": "Darse de l'Océan"}, "geometry": {"type": "Polygon", "coordinates": [[[0.1844013, 49.4745868], [0.1843882, 49.4745579], [0.1844166, 49.4745089], [0.1851419, 49.4733014], [0.185811, 49.4721874], [0.1862021, 49.4715363], [0.1875569, 49.469314], [0.188769, 49.4673257], [0.1899335, 49.4654154], [0.1903199, 49.4647815], [0.1927787, 49.4607475], [0.1929365, 49.4604847], [0.1929478, 49.4604701], [0.192741, 49.4604324], [0.1927246, 49.4603959], [0.1925633, 49.4603461], [0.1923597, 49.4603018], [0.1920033, 49.460254], [0.1916187, 49.4602202], [0.1915475, 49.4602228], [0.1914867, 49.4602301], [0.1913626, 49.4602463], [0.1913121, 49.4602726], [0.1912775, 49.4602886], [0.1912184, 49.4603074], [0.1911808, 49.4603423], [0.1911584, 49.4603671], [0.191066, 49.4603865], [0.1901756, 49.4606198], [0.1900751, 49.4606595], [0.1894519, 49.4606572], [0.1888879, 49.4606721], [0.1885875, 49.4607574], [0.1880981, 49.4608978], [0.1878965, 49.4610076], [0.1877565, 49.4611202], [0.187486, 49.4614109], [0.1873276, 49.4615601], [0.1870813, 49.4616624], [0.1868332, 49.4620008], [0.1867173, 49.4622658], [0.1865948, 49.4625964], [0.1865843, 49.4627551], [0.1865097, 49.4628822], [0.1863496, 49.4630182], [0.1862419, 49.4630696], [0.1861066, 49.4631043], [0.1860457, 49.4631892], [0.1860052, 49.4633377], [0.1857157, 49.4636493], [0.1855396, 49.4639036], [0.1855214, 49.4640856], [0.1854441, 49.4642005], [0.1854156, 49.4644474], [0.1850246, 49.4648571], [0.1848795, 49.464937], [0.1848634, 49.4650794], [0.1847822, 49.4652731], [0.1847194, 49.465355], [0.1846596, 49.4653648], [0.1845254, 49.4653648], [0.1844772, 49.4654326], [0.1845201, 49.465511], [0.1846428, 49.4655808], [0.1841987, 49.4662096], [0.1836667, 49.4669629], [0.1836404, 49.467049], [0.1836458, 49.4671462], [0.1835948, 49.4672505], [0.1834972, 49.4673416], [0.1833951, 49.4673723], [0.1832159, 49.4673797], [0.1830661, 49.4674773], [0.1829906, 49.4675889], [0.1829707, 49.4677225], [0.1830228, 49.4677911], [0.1829484, 49.4678548], [0.1829425, 49.4679416], [0.1829654, 49.4680583], [0.1830299, 49.4681402], [0.1830607, 49.468193], [0.1830541, 49.4682425], [0.1829315, 49.4683028], [0.1828833, 49.4683558], [0.1828073, 49.4685357], [0.1827898, 49.4685797], [0.1827408, 49.4686141], [0.1826386, 49.4686738], [0.182607, 49.4687572], [0.1826601, 49.4688232], [0.1826536, 49.4689491], [0.1826804, 49.4690321], [0.1825447, 49.469121], [0.18242, 49.4691589], [0.1823249, 49.4692845], [0.182131, 49.4696374], [0.1820497, 49.4697591], [0.1819607, 49.4699241], [0.1817544, 49.4702641], [0.1816605, 49.4704609], [0.1815264, 49.4706937], [0.1813384, 49.4709726], [0.1808946, 49.4716266], [0.1808045, 49.471847], [0.1806825, 49.4719873], [0.1805399, 49.4721383], [0.1804451, 49.472285], [0.1803756, 49.4724284], [0.1803626, 49.4725248], [0.1803747, 49.4726155], [0.1803802, 49.4727078], [0.1803445, 49.4728288], [0.1803249, 49.4729225], [0.1802569, 49.4730365], [0.1802228, 49.4730925], [0.1802681, 49.4731143], [0.1802246, 49.4731817], [0.1801881, 49.4732356], [0.1800943, 49.4733161], [0.1799965, 49.4734166], [0.1799248, 49.4735437], [0.1798781, 49.4736563], [0.1798049, 49.4737714], [0.1797327, 49.4739083], [0.1796539, 49.4739961], [0.1844013, 49.4745868]]]}}, {"type": "Feature", "properties": {"name": "Étang d'Incheville"}, "geometry": {"type": "Polygon", "coordinates": [[[1.5064168, 50.0138531], [1.5061097, 50.0136544], [1.5059935, 50.0135615], [1.5057174, 50.0134866], [1.5055574, 50.0133937], [1.5054387, 50.0132595], [1.5053329, 50.0131744], [1.5052529, 50.013097], [1.505289, 50.013035], [1.5051858, 50.0129499], [1.5052142, 50.0128621], [1.5051832, 50.0128079], [1.5050981, 50.012746], [1.5050103, 50.012635], [1.5048684, 50.0125808], [1.5048581, 50.0124854], [1.5049794, 50.0124647], [1.5049794, 50.0123305], [1.5048581, 50.0123099], [1.5048632, 50.0122505], [1.504951, 50.0122144], [1.5049484, 50.0120854], [1.5049252, 50.0119125], [1.505, 50.0119073], [1.5050232, 50.0117112], [1.50492, 50.011657], [1.5049613, 50.0116183], [1.50508, 50.0116338], [1.5050723, 50.0115176], [1.505129, 50.0114092], [1.5050232, 50.0113654], [1.50508, 50.011337], [1.5051858, 50.0113267], [1.5052142, 50.0112467], [1.5051626, 50.0111951], [1.5052194, 50.0111615], [1.5053303, 50.011146], [1.5053355, 50.0110609], [1.5054052, 50.0110222], [1.5054052, 50.0109654], [1.5054877, 50.0108157], [1.5057819, 50.0105086], [1.5057716, 50.0104157], [1.50596, 50.0103254], [1.5060684, 50.0102248], [1.5060271, 50.0101422], [1.5061148, 50.0101009], [1.5062026, 50.0101009], [1.5062516, 50.0099693], [1.506311, 50.0099022], [1.5063909, 50.0099022], [1.50644, 50.0098351], [1.5065226, 50.0097009], [1.5065742, 50.0096415], [1.5067058, 50.0096183], [1.5067806, 50.0095641], [1.5067755, 50.0094919], [1.5069096, 50.0093861], [1.5070387, 50.0092777], [1.5070387, 50.0091796], [1.507178, 50.0090764], [1.5072967, 50.0090764], [1.5073174, 50.0091125], [1.5073896, 50.0090428], [1.5073871, 50.0089628], [1.5075135, 50.0088054], [1.5076348, 50.0088003], [1.5077148, 50.0087125], [1.5077019, 50.0086661], [1.507609, 50.0086532], [1.5076658, 50.0086016], [1.5078309, 50.0084338], [1.5078412, 50.0083693], [1.5079548, 50.0082738], [1.5080529, 50.0082816], [1.5081122, 50.0082119], [1.5080709, 50.0081551], [1.5083909, 50.0079074], [1.5084399, 50.0079022], [1.5084967, 50.0078274], [1.508649, 50.0077035], [1.5086928, 50.0077267], [1.5087264, 50.007688], [1.5086825, 50.0076725], [1.5089225, 50.0074945], [1.5089973, 50.0074919], [1.5090309, 50.0074171], [1.5091935, 50.0073345], [1.5093096, 50.0073293], [1.509436, 50.0073371], [1.5095083, 50.0072803], [1.5095109, 50.0071745], [1.509596, 50.0071306], [1.5096244, 50.0070971], [1.5095135, 50.0070558], [1.5095419, 50.0069939], [1.5096451, 50.0069422], [1.5097302, 50.007079], [1.5099599, 50.0070429], [1.5100218, 50.0069913], [1.5099573, 50.0069422], [1.5100425, 50.0069242], [1.5100425, 50.0068648], [1.5099625, 50.0067951], [1.5101973, 50.0066842], [1.510396, 50.0065784], [1.5105483, 50.0064932], [1.5107676, 50.006439], [1.5108631, 50.0064674], [1.5109509, 50.0064571], [1.511036, 50.0063642], [1.5109509, 50.0062868], [1.5110205, 50.0061861], [1.5111212, 50.0062584], [1.5112063, 50.0062119], [1.5111754, 50.0061681], [1.5112863, 50.0060158], [1.5120812, 50.0056494], [1.5122592, 50.0056081], [1.5123186, 50.0056081], [1.5123263, 50.0055384], [1.5124399, 50.0054971], [1.5126231, 50.0054378], [1.5128347, 50.0054661], [1.5129276, 50.0054145], [1.5129534, 50.0053165], [1.5131057, 50.0052236], [1.513245, 50.0051978], [1.5134231, 50.0051539], [1.5135547, 50.0051823], [1.5139831, 50.0050507], [1.5140192, 50.0049268], [1.5141043, 50.0048623], [1.5141947, 50.0048803], [1.5143392, 50.0047823], [1.5144527, 50.0047074], [1.5146876, 50.0047074], [1.515023, 50.0046274], [1.515343, 50.0045216], [1.5154204, 50.0044158], [1.5157869, 50.0042713], [1.5160682, 50.0042816], [1.5163056, 50.0043229], [1.5164243, 50.0043462], [1.5164088, 50.0044184], [1.5163185, 50.0044958], [1.5162437, 50.0045991], [1.5163366, 50.0047203], [1.5161843, 50.0047978], [1.5160269, 50.004901], [1.5158101, 50.0049139], [1.5155314, 50.0048803], [1.5152966, 50.0048339], [1.5151521, 50.0049036], [1.5151598, 50.0050016], [1.5150901, 50.0051203], [1.5149895, 50.0052416], [1.5148811, 50.0053268], [1.5149405, 50.0053707], [1.5148501, 50.0054197], [1.5147521, 50.0055539], [1.5146669, 50.0056365], [1.5146618, 50.0057242], [1.5142979, 50.006261], [1.5142256, 50.0062842], [1.5141947, 50.0064055], [1.5141121, 50.0065319], [1.5140166, 50.0065474], [1.5140037, 50.0066377], [1.5139985, 50.0067461], [1.5138514, 50.0067461], [1.5138076, 50.0067951], [1.5138076, 50.0069371], [1.513805, 50.0070764], [1.5136734, 50.0072338], [1.5135366, 50.0074661], [1.5131005, 50.0081267], [1.5129766, 50.00831], [1.5128528, 50.0085861], [1.5127702, 50.008648], [1.5126747, 50.008679], [1.5127237, 50.0087564], [1.5127134, 50.0088312], [1.5125586, 50.0088854], [1.5125534, 50.0090196], [1.5124321, 50.0091099], [1.5122566, 50.0093267], [1.5120941, 50.0094635], [1.5119237, 50.009559], [1.511676, 50.0097344], [1.511436, 50.0098557], [1.5112244, 50.0100286], [1.5110205, 50.0101783], [1.5107367, 50.0103383], [1.5105354, 50.010488], [1.510267, 50.0106583], [1.5098206, 50.0109215], [1.5095444, 50.0110634], [1.5093328, 50.0111615], [1.5090515, 50.0113163], [1.5088167, 50.011448], [1.5085638, 50.011626], [1.5083135, 50.0117654], [1.5081251, 50.0119099], [1.5081303, 50.0119538], [1.5079806, 50.0120596], [1.5076193, 50.0123305], [1.5074, 50.0125886], [1.5072554, 50.0127331], [1.5072193, 50.0128415], [1.5071316, 50.0128802], [1.5070748, 50.0130144], [1.5069716, 50.0131279], [1.5069277, 50.0132053], [1.5068374, 50.0133834], [1.5067213, 50.0135305], [1.5066267, 50.0136579], [1.5065062, 50.0137363], [1.5064296, 50.0137655], [1.5064168, 50.0138531]]]}}, {"type": "Feature", "properties": {"name": "Bassin de Rouen-Quevilly"}, "geometry": {"type": "Polygon", "coordinates": [[[1.0399078, 49.4364429], [1.0436322, 49.4373614], [1.0482577, 49.4384412], [1.0527615, 49.439632], [1.0540625, 49.4397795], [1.0549754, 49.4394884], [1.0550714, 49.4392555], [1.049142, 49.437719], [1.0492811, 49.4374856], [1.0491742, 49.4374609], [1.0494922, 49.4369477], [1.0490263, 49.4368301], [1.0488897, 49.437047], [1.0452615, 49.4361165], [1.036474, 49.4338464], [1.0399078, 49.4364429]]]}}, {"type": "Feature", "properties": {"name": "Avant Port"}, "geometry": {"type": "MultiPolygon", "coordinates": [[[[0.0905682, 49.4866223], [0.090566, 49.4866084], [0.0905661, 49.4865864], [0.0905689, 49.4865689], [0.0905722, 49.4865602], [0.0905729, 49.4865583], [0.0905796, 49.486549], [0.0905862, 49.4865424], [0.0906063, 49.4865303], [0.0906161, 49.4865268], [0.0906425, 49.4865218], [0.0906699, 49.4865225], [0.090693, 49.4865281], [0.0907089, 49.4865354], [0.0907248, 49.4865478], [0.0907425, 49.4865801], [0.0909916, 49.4870245], [0.0909071, 49.4870455], [0.0914182, 49.4880006], [0.0926178, 49.4877466], [0.0926148, 49.4877347], [0.0926185, 49.487721], [0.092629, 49.4877112], [0.0926438, 49.4877045], [0.092661, 49.4877017], [0.0926805, 49.4877033], [0.0926936, 49.4877079], [0.0927045, 49.4877152], [0.0927101, 49.4877068], [0.0927185, 49.4877004], [0.0927274, 49.4876958], [0.0927377, 49.4876926], [0.0927513, 49.4876909], [0.0927652, 49.4876914], [0.0927772, 49.4876939], [0.092786, 49.4876981], [0.0971573, 49.4867029], [0.0971494, 49.4866906], [0.097598, 49.4865898], [0.0977043, 49.4865754], [0.1012645, 49.4849092], [0.1013185, 49.4848839], [0.1021608, 49.4839841], [0.1018087, 49.4839578], [0.101806, 49.4839555], [0.1018018, 49.4839535], [0.1017967, 49.483952], [0.1017903, 49.4839514], [0.1017834, 49.4839517], [0.1017769, 49.4839535], [0.1017723, 49.483956], [0.1017675, 49.4839606], [0.1017646, 49.4839649], [0.1017594, 49.4839684], [0.101749, 49.4839727], [0.1017357, 49.4839734], [0.1016526, 49.4839675], [0.1016373, 49.483963], [0.101626, 49.4839558], [0.1016203, 49.4839481], [0.1016176, 49.4839397], [0.1016198, 49.48393], [0.1016249, 49.4839225], [0.101634, 49.4839158], [0.1016454, 49.4839109], [0.1016562, 49.4839089], [0.0905682, 49.4866223]]], [[[0.1059293, 49.482018], [0.1059205, 49.4820098], [0.1059178, 49.4819996], [0.1060101, 49.4814382], [0.1057407, 49.481172], [0.1057222, 49.4811717], [0.1056845, 49.4811376], [0.1056862, 49.4811225], [0.1054126, 49.480855], [0.1054106, 49.480846], [0.1054121, 49.4808369], [0.1054179, 49.4808294], [0.1054262, 49.4808236], [0.1059293, 49.482018]]], [[[0.1040132, 49.4794159], [0.1039311, 49.4794503], [0.1038771, 49.4794013], [0.1038949, 49.4793916], [0.1035759, 49.479081], [0.0995116, 49.4790351], [0.0994304, 49.4790258], [0.099353, 49.4790089], [0.0992911, 49.4789802], [0.0992305, 49.478942], [0.0989578, 49.4786847], [0.0912215, 49.4820812], [0.091208, 49.482066], [0.0910173, 49.4821495], [0.0910258, 49.4821671], [0.0907794, 49.4822753], [0.0907741, 49.4822901], [0.0903884, 49.4824688], [0.0902083, 49.4829126], [0.0902252, 49.4829156], [0.090215, 49.4829406], [0.0902216, 49.4829463], [0.0900151, 49.4833936], [0.0900028, 49.483405], [0.0899491, 49.4835257], [0.0899498, 49.4835377], [0.0899342, 49.4835867], [0.0899809, 49.483595], [0.0900056, 49.4836002], [0.0900359, 49.4836098], [0.0900473, 49.4836233], [0.0897247, 49.4843852], [0.0897072, 49.4844281], [0.0897046, 49.4844312], [0.0896971, 49.484436], [0.0896871, 49.4844395], [0.089676, 49.4844399], [0.0896395, 49.4844339], [0.089637, 49.4844389], [0.0895107, 49.4844162], [0.0895022, 49.4844059], [0.1040132, 49.4794159]]]]}}, {"type": "Feature", "properties": {"name": "Lac de Caniel"}, "geometry": {"type": "Polygon", "coordinates": [[[0.6315214, 49.8008373], [0.6315093, 49.8008114], [0.6314906, 49.8007629], [0.6314912, 49.8007157], [0.6314946, 49.8006707], [0.6315006, 49.800633], [0.631508, 49.800559], [0.6315402, 49.8004846], [0.6315288, 49.8004058], [0.6315677, 49.800295], [0.6315335, 49.8002885], [0.6315529, 49.8002184], [0.6315596, 49.8001807], [0.631567, 49.800147], [0.631557, 49.8001111], [0.6315348, 49.8000721], [0.6315315, 49.8000448], [0.6315355, 49.7999981], [0.6315516, 49.7999176], [0.6315663, 49.7998561], [0.6316026, 49.7998007], [0.6316669, 49.7997341], [0.6317165, 49.7996735], [0.6317984, 49.7995497], [0.6318922, 49.7994562], [0.6319486, 49.7994103], [0.631962, 49.7993601], [0.6319875, 49.7993246], [0.6320076, 49.7992597], [0.632021, 49.7992277], [0.6320223, 49.7991948], [0.6320116, 49.7991506], [0.6320505, 49.799071], [0.63208, 49.7990165], [0.6320894, 49.7989645], [0.6321403, 49.7988927], [0.6321698, 49.7988373], [0.632202, 49.7987438], [0.6322396, 49.7986564], [0.6322557, 49.7985767], [0.6322812, 49.7985092], [0.6323187, 49.7984348], [0.6323402, 49.798375], [0.6323415, 49.7983153], [0.6323469, 49.7982426], [0.6323549, 49.7981526], [0.6323697, 49.7980729], [0.632363, 49.7980158], [0.6323589, 49.7979396], [0.6323858, 49.7978729], [0.6323938, 49.7977786], [0.6323643, 49.7969515], [0.6323549, 49.7968965], [0.6324139, 49.7968255], [0.6324957, 49.7967969], [0.6325472, 49.7967786], [0.6326406, 49.7967675], [0.6327733, 49.7967528], [0.6329088, 49.7967606], [0.6330402, 49.7967692], [0.6331676, 49.7967683], [0.6332628, 49.7967709], [0.63346, 49.7968056], [0.6336075, 49.7968393], [0.6337135, 49.7968904], [0.6339025, 49.7969311], [0.6340809, 49.7969657], [0.6342365, 49.7970055], [0.6344095, 49.7970557], [0.634447, 49.7971337], [0.6344967, 49.7971804], [0.6345677, 49.7972046], [0.6345865, 49.7972471], [0.6345624, 49.7972843], [0.6345302, 49.7973501], [0.6345235, 49.7973968], [0.6345449, 49.7974366], [0.6345771, 49.7974626], [0.6346254, 49.7974566], [0.6346938, 49.7974089], [0.6347488, 49.7973769], [0.6348172, 49.7973553], [0.6348775, 49.7973336], [0.63495, 49.7973302], [0.635021, 49.7973579], [0.6350747, 49.7973916], [0.6350961, 49.7974211], [0.6351069, 49.7974678], [0.6350532, 49.7974895], [0.6350666, 49.7975223], [0.6351082, 49.7975466], [0.6351618, 49.7975578], [0.6352316, 49.7975622], [0.635304, 49.7975821], [0.635355, 49.7976228], [0.6354027, 49.7976801], [0.6354274, 49.7977466], [0.6354046, 49.7978115], [0.6353791, 49.7978755], [0.6353389, 49.7979491], [0.6353603, 49.7980045], [0.6353992, 49.7980192], [0.6354341, 49.7980192], [0.635469, 49.7980019], [0.6354958, 49.7979483], [0.6355186, 49.7978946], [0.6355508, 49.7978262], [0.6355669, 49.7977829], [0.6356151, 49.7977543], [0.6356621, 49.79775], [0.6357345, 49.7977717], [0.6358217, 49.7977803], [0.6358914, 49.7977647], [0.6360054, 49.7977431], [0.6360872, 49.7977292], [0.6361127, 49.7977085], [0.6361368, 49.797679], [0.6362186, 49.7976652], [0.6362575, 49.7976842], [0.636334, 49.7977344], [0.6364346, 49.7978193], [0.6365016, 49.797866], [0.636562, 49.7979266], [0.6365955, 49.7980123], [0.6365848, 49.7980842], [0.6366089, 49.7981326], [0.6366143, 49.7981699], [0.6365767, 49.798188], [0.6365767, 49.7982192], [0.6366028, 49.7982409], [0.63668, 49.7982374], [0.6367779, 49.7982504], [0.6368677, 49.7982729], [0.6369039, 49.7982867], [0.636979, 49.7983465], [0.637089, 49.7985153], [0.6371628, 49.7985836], [0.6371909, 49.7986477], [0.6372929, 49.7988165], [0.6373183, 49.7989161], [0.6374189, 49.799026], [0.6374833, 49.7990745], [0.6375021, 49.7990866], [0.6375074, 49.7991091], [0.6374994, 49.7991238], [0.6374726, 49.7991403], [0.6374538, 49.7991489], [0.6374431, 49.7991783], [0.6374846, 49.7992571], [0.6374967, 49.7993091], [0.6374846, 49.7993809], [0.6374753, 49.7994372], [0.6374873, 49.7994926], [0.6375168, 49.7995428], [0.6375651, 49.7996077], [0.637612, 49.799657], [0.6376228, 49.7996839], [0.6376161, 49.7996977], [0.6375974, 49.7997128], [0.6375463, 49.7997306], [0.6374846, 49.799754], [0.63738, 49.7997921], [0.6373335, 49.7998129], [0.6373103, 49.7998535], [0.6373183, 49.7999228], [0.6373277, 49.7999548], [0.6373183, 49.7999894], [0.6373331, 49.8000293], [0.637368, 49.8000518], [0.6373948, 49.8000613], [0.6374323, 49.8000873], [0.637431, 49.8001262], [0.6374216, 49.8001513], [0.6374015, 49.800173], [0.6373613, 49.8002041], [0.6372982, 49.8002188], [0.637258, 49.8002197], [0.6372111, 49.8002344], [0.6371802, 49.8002552], [0.6371427, 49.8002803], [0.637093, 49.8003019], [0.6370367, 49.8003141], [0.6370032, 49.8003296], [0.6369536, 49.8003565], [0.6369013, 49.8003738], [0.6368315, 49.8003842], [0.6367551, 49.8003824], [0.6366612, 49.8003712], [0.6365807, 49.8003495], [0.6364734, 49.8003383], [0.6364185, 49.8003521], [0.6364091, 49.8003824], [0.6364252, 49.8004084], [0.6364815, 49.80043], [0.6365754, 49.8004577], [0.6366371, 49.8004794], [0.6367001, 49.8004777], [0.6367658, 49.8004725], [0.6368396, 49.8004664], [0.6368838, 49.8004681], [0.6369066, 49.8004846], [0.6369106, 49.8005054], [0.6369066, 49.8005365], [0.6369093, 49.8005634], [0.6368758, 49.8005867], [0.6368007, 49.8006066], [0.6367309, 49.8006326], [0.6366733, 49.8006594], [0.6365638, 49.8007266], [0.6365137, 49.8007694], [0.6364869, 49.8008213], [0.6364721, 49.8008784], [0.6364506, 49.800926], [0.6364265, 49.8009711], [0.6363876, 49.8010135], [0.6363447, 49.8010585], [0.6362991, 49.8010974], [0.6362776, 49.801145], [0.6362642, 49.8012013], [0.6362481, 49.8012481], [0.636216, 49.8012913], [0.636216, 49.8013277], [0.6361945, 49.8013995], [0.6362347, 49.8014316], [0.6363098, 49.8014567], [0.6363823, 49.8014939], [0.6364144, 49.8015285], [0.6364278, 49.8015657], [0.6364131, 49.8016099], [0.6363823, 49.8016462], [0.6363385, 49.8016813], [0.6362656, 49.8017354], [0.6362079, 49.8017821], [0.6361717, 49.8018081], [0.6361315, 49.8018271], [0.6360912, 49.8018427], [0.6360403, 49.8018592], [0.6360108, 49.8018583], [0.635996, 49.8018444], [0.6359947, 49.8018245], [0.6359611, 49.8018167], [0.6359021, 49.8017986], [0.6358592, 49.8017639], [0.6358056, 49.8017414], [0.6357104, 49.8016973], [0.6356755, 49.8016809], [0.6356071, 49.8016661], [0.6354676, 49.8016471], [0.6352919, 49.8016185], [0.6351538, 49.8015943], [0.6350452, 49.8015891], [0.6349231, 49.8015874], [0.6348293, 49.8015978], [0.6347354, 49.8016125], [0.634663, 49.8016298], [0.6345932, 49.8016532], [0.6345235, 49.8016886], [0.6344363, 49.8017311], [0.6343639, 49.8017769], [0.634211, 49.8019258], [0.6341949, 49.8019795], [0.6341815, 49.8020297], [0.6341372, 49.8020487], [0.6340809, 49.8021111], [0.6340286, 49.8021881], [0.6339799, 49.8022725], [0.633928, 49.8023231], [0.6338687, 49.802363], [0.6338024, 49.8024042], [0.6337604, 49.8025127], [0.633751, 49.802549], [0.6337255, 49.8026044], [0.6337012, 49.8026503], [0.6336853, 49.8027005], [0.6336866, 49.8027499], [0.6336692, 49.8027871], [0.6336679, 49.8028329], [0.6336303, 49.8028632], [0.6335981, 49.8028927], [0.6335887, 49.8029489], [0.6335793, 49.8030164], [0.6335659, 49.8031013], [0.6335411, 49.8031619], [0.633519, 49.8032025], [0.6335077, 49.8032158], [0.6334922, 49.8032341], [0.6334392, 49.803296], [0.6333767, 49.8033562], [0.6333131, 49.8034016], [0.6332112, 49.8034696], [0.633124, 49.8035198], [0.6330503, 49.8035566], [0.6328686, 49.8036297], [0.6328062, 49.8036587], [0.6327646, 49.8037002], [0.6327224, 49.8037275], [0.6326949, 49.8037444], [0.6326567, 49.8037634], [0.6326285, 49.8037937], [0.6325956, 49.8038201], [0.6325547, 49.80384], [0.6325313, 49.8038608], [0.6325018, 49.8038998], [0.6324736, 49.8039127], [0.6324361, 49.8039236], [0.6324019, 49.8039283], [0.6323368, 49.8039335], [0.6322704, 49.8039387], [0.632204, 49.8039435], [0.632137, 49.8039539], [0.6320827, 49.8039586], [0.6320641, 49.80395], [0.6320505, 49.8039426], [0.6320217, 49.8039365], [0.6319995, 49.8039365], [0.631962, 49.8039439], [0.6319278, 49.803953], [0.6318929, 49.8039616], [0.6318507, 49.8039634], [0.6318037, 49.8039629], [0.6317568, 49.8039582], [0.6316817, 49.8039534], [0.631569, 49.8039526], [0.6315013, 49.8039577], [0.631443, 49.8039625], [0.6314, 49.8039603], [0.6313417, 49.8039573], [0.6312914, 49.8039504], [0.6312452, 49.8039396], [0.6312143, 49.8039253], [0.6311969, 49.8038998], [0.6311893, 49.8038738], [0.6311902, 49.8038487], [0.6311982, 49.8038201], [0.631213, 49.8037903], [0.6312324, 49.8037742], [0.6312512, 49.8037639], [0.6312713, 49.8037448], [0.6312824, 49.803725], [0.6313021, 49.8037015], [0.6313397, 49.8036821], [0.6313665, 49.8036639], [0.6313732, 49.8036405], [0.6313504, 49.8036154], [0.6313208, 49.8035857], [0.6312893, 49.8035051], [0.631278, 49.8034458], [0.631282, 49.8033938], [0.6313035, 49.8033419], [0.6313384, 49.8032787], [0.6313692, 49.8032311], [0.6313974, 49.8031809], [0.6314175, 49.8031368], [0.6314416, 49.8031004], [0.6314577, 49.8030727], [0.6314926, 49.8030476], [0.6315382, 49.8030433], [0.6315824, 49.8030433], [0.631616, 49.803045], [0.6316361, 49.8030329], [0.6316482, 49.8030164], [0.6316468, 49.8029983], [0.6316361, 49.8029758], [0.6316294, 49.80295], [0.6316173, 49.8029351], [0.6315898, 49.80291], [0.6315503, 49.8028806], [0.6315064, 49.8028381], [0.6314845, 49.8027897], [0.6314671, 49.8027213], [0.6314591, 49.8026945], [0.6314805, 49.8026572], [0.6314765, 49.8026174], [0.631445, 49.802596], [0.6314108, 49.8025828], [0.6313893, 49.8025612], [0.6314, 49.8025144], [0.6314068, 49.8024633], [0.6314237, 49.8024081], [0.631455, 49.8023569], [0.6314926, 49.8022902], [0.6315154, 49.8022357], [0.6315422, 49.8022115], [0.6315677, 49.8022071], [0.6315798, 49.8021838], [0.631569, 49.8021517], [0.631557, 49.8021041], [0.6315958, 49.8020669], [0.6316294, 49.8020617], [0.6316455, 49.8020401], [0.6316482, 49.801912], [0.6316562, 49.8018877], [0.6317165, 49.8018678], [0.631807, 49.801868], [0.6320011, 49.8018622], [0.6320904, 49.8018637], [0.6321114, 49.8016023], [0.632145, 49.8015592], [0.6325185, 49.8015103], [0.6326701, 49.8014376], [0.6326962, 49.8014008], [0.6326218, 49.8011385], [0.6328055, 49.8011109], [0.6329195, 49.8010598], [0.6329504, 49.8010338], [0.6329618, 49.8010182], [0.6329577, 49.8009979], [0.632951, 49.8009589], [0.632946, 49.800937], [0.6329108, 49.8009135], [0.6328779, 49.800881], [0.6328672, 49.8008706], [0.6328431, 49.8008672], [0.6328142, 49.8008741], [0.6327814, 49.800881], [0.6327499, 49.8009005], [0.632723, 49.8009213], [0.6326929, 49.8009312], [0.6326419, 49.8009481], [0.6325621, 49.8009927], [0.6324293, 49.800991], [0.6322986, 49.8009875], [0.6321075, 49.8009862], [0.632017, 49.8009836], [0.6318942, 49.8009689], [0.6318084, 49.8009507], [0.6317642, 49.8009286], [0.6316917, 49.8008996], [0.6316086, 49.8008732], [0.6315335, 49.8008494], [0.6315214, 49.8008373]]]}}, {"type": "Feature", "properties": {"name": "Base de Loisirs de Bédanne"}, "geometry": {"type": "MultiPolygon", "coordinates": [[[[1.0778857, 49.3231518], [1.0781676, 49.3228004], [1.0784626, 49.3225137], [1.0788381, 49.3223773], [1.0791289, 49.3223517], [1.079219, 49.3224059], [1.0794667, 49.3224439], [1.079729, 49.3223489], [1.0800788, 49.3222824], [1.0801953, 49.3223774], [1.0805014, 49.3223679], [1.0807783, 49.3222919], [1.081128, 49.3223299], [1.0816235, 49.3224439], [1.0820898, 49.3226149], [1.0824687, 49.3227384], [1.0828039, 49.3228239], [1.0829933, 49.3229948], [1.0831682, 49.3232703], [1.0832556, 49.3235078], [1.083037, 49.3237262], [1.0830225, 49.3239067], [1.0826436, 49.3242296], [1.0823375, 49.3241536], [1.0816526, 49.3241726], [1.0813903, 49.3242961], [1.0812446, 49.3245146], [1.0813216, 49.3248409], [1.0818464, 49.3249908], [1.0826574, 49.3250717], [1.0778857, 49.3231518]]], [[[1.0778857, 49.3231518], [1.0778279, 49.3233986], [1.0775996, 49.323555], [1.0769603, 49.3234959], [1.0765938, 49.3235689], [1.0763299, 49.3234992], [1.0760089, 49.3236526], [1.0754268, 49.3232472], [1.075103, 49.3232109], [1.0747321, 49.3232481], [1.0740841, 49.3232549], [1.073946, 49.3232564], [1.0734463, 49.3232587], [1.0731915, 49.3233181], [1.0729903, 49.3234178], [1.0728106, 49.3234912], [1.0726459, 49.3235888], [1.0724035, 49.3238356], [1.0722957, 49.323937], [1.0722286, 49.3240734], [1.0721159, 49.3242255], [1.0720784, 49.3243461], [1.072301, 49.3245838], [1.0724298, 49.324701], [1.0725344, 49.3248111], [1.0725692, 49.3249108], [1.0725238, 49.3250052], [1.0721239, 49.3254716], [1.0719738, 49.3255261], [1.0718201, 49.3255111], [1.0714561, 49.3252779], [1.0712737, 49.3251642], [1.0710672, 49.3250786], [1.0709009, 49.325173], [1.0708473, 49.3252586], [1.0708714, 49.3253198], [1.070976, 49.3254037], [1.0711423, 49.3254807], [1.0716117, 49.32568], [1.0711155, 49.3262743], [1.071145, 49.3264404], [1.0712326, 49.3265738], [1.0734592, 49.3272888], [1.0754929, 49.327407], [1.0759946, 49.3271302], [1.0762728, 49.3271302], [1.0764297, 49.3272231], [1.0772715, 49.3272836], [1.0777137, 49.3272138], [1.0778564, 49.3272836], [1.0781587, 49.3272776], [1.0787124, 49.3271534], [1.0793971, 49.3272138], [1.0797914, 49.3271195], [1.079925, 49.3272417], [1.0803887, 49.327265], [1.0807239, 49.327172], [1.0810406, 49.3272778], [1.0826574, 49.3250717], [1.0778857, 49.3231518]]]]}}]}