{"type": "FeatureCollection", "features": [{"type": "Feature", "properties": {"name": "Bassin de Champfleuri"}, "geometry": {"type": "Polygon", "coordinates": [[[2.6076476, 48.8670632], [2.6315033, 48.8640782], [2.6322203, 48.8640105], [2.6330119, 48.8638815], [2.6341178, 48.8637452], [2.6344404, 48.8637158], [2.6345475, 48.8637115], [2.635054, 48.8636315], [2.6355836, 48.8635719], [2.6369069, 48.8634102], [2.6370785, 48.8633706], [2.6371815, 48.8632408], [2.6372502, 48.8631165], [2.6372272, 48.8630382], [2.6371588, 48.8628054], [2.6370876, 48.8625628], [2.6370183, 48.8623273], [2.636939, 48.8620571], [2.6369355, 48.8620453], [2.6369199, 48.8619922], [2.6368831, 48.8618861], [2.6368694, 48.8618467], [2.6368554, 48.8618065], [2.6367953, 48.8617331], [2.6366923, 48.8616767], [2.6357739, 48.8610104], [2.6357138, 48.8609313], [2.6357396, 48.8608297], [2.6358604, 48.8607258], [2.6360232, 48.8606186], [2.6361163, 48.8605683], [2.6367438, 48.8601069], [2.6368341, 48.8599029], [2.6368125, 48.8597229], [2.6367557, 48.859628], [2.6367009, 48.8595366], [2.636562, 48.8594102], [2.6363607, 48.8592997], [2.6360589, 48.8591778], [2.6357251, 48.8590889], [2.6354207, 48.8590676], [2.6351216, 48.8591074], [2.6333706, 48.8594914], [2.6329415, 48.8595366], [2.6318559, 48.8594511], [2.6314137, 48.859401], [2.6311476, 48.859401], [2.6304181, 48.8592599], [2.6291993, 48.8589041], [2.6286156, 48.8588025], [2.6283667, 48.8588251], [2.6281092, 48.8589098], [2.6277144, 48.8590961], [2.6267188, 48.8596213], [2.6261523, 48.8600222], [2.6260055, 48.8601714], [2.6260086, 48.8603337], [2.6260676, 48.8604735], [2.6260272, 48.8605123], [2.6257746, 48.8605643], [2.6233285, 48.8608523], [2.6196679, 48.8610322], [2.6190713, 48.861112], [2.6186773, 48.8612411], [2.6184027, 48.8613779], [2.6181443, 48.8615129], [2.6180756, 48.8616146], [2.6180954, 48.8617321], [2.6181637, 48.8618199], [2.6183747, 48.8618648], [2.6185594, 48.8618832], [2.6205819, 48.8618969], [2.6208308, 48.8619534], [2.6208909, 48.8620437], [2.620908, 48.8621566], [2.6208308, 48.8622639], [2.6206505, 48.862326], [2.6202386, 48.8623543], [2.6187966, 48.8624503], [2.6183245, 48.8625293], [2.6178868, 48.8626309], [2.6149342, 48.863636], [2.6147969, 48.8637659], [2.6147497, 48.8639034], [2.614784, 48.8640614], [2.6149128, 48.8641687], [2.6148956, 48.8642478], [2.6112882, 48.8648023], [2.611176, 48.8647979], [2.6111024, 48.8647553], [2.6109563, 48.8646047], [2.6106988, 48.8644339], [2.6105292, 48.8644142], [2.6102182, 48.864468], [2.608939, 48.8648181], [2.6086824, 48.8649565], [2.607217, 48.8656934], [2.6067245, 48.8659021], [2.6066807, 48.865994], [2.6066941, 48.8660848], [2.6073955, 48.8670773], [2.6076476, 48.8670632]]]}}, {"type": "Feature", "properties": {"name": "Grand Lac"}, "geometry": {"type": "Polygon", "coordinates": [[[2.7257359, 48.916627], [2.7255803, 48.9165296], [2.725575, 48.9164648], [2.7257004, 48.9163538], [2.7259243, 48.916211], [2.7261101, 48.9160669], [2.7262153, 48.9159686], [2.726377, 48.915858], [2.7264635, 48.9158179], [2.7264983, 48.9158007], [2.726509, 48.9157866], [2.7264782, 48.9157536], [2.7264842, 48.915717], [2.7265479, 48.9156227], [2.7265949, 48.9155786], [2.7266432, 48.9155187], [2.7266731, 48.9154145], [2.7267136, 48.9153539], [2.726724, 48.9152224], [2.7267015, 48.9150519], [2.7266988, 48.9149308], [2.7266411, 48.9146876], [2.7266277, 48.9145668], [2.7266331, 48.9144681], [2.7266626, 48.9143694], [2.7267686, 48.9142954], [2.7269179, 48.9142409], [2.7269872, 48.9142196], [2.7270502, 48.9142452], [2.7270931, 48.9143174], [2.7271494, 48.91438], [2.7272192, 48.9144285], [2.7274016, 48.9145007], [2.7275268, 48.9145732], [2.7277915, 48.9149331], [2.728052, 48.9149093], [2.7283782, 48.9147232], [2.7284983, 48.914475], [2.7283953, 48.9141478], [2.7282666, 48.9137812], [2.727734, 48.9131437], [2.7274925, 48.9129534], [2.7272967, 48.9128786], [2.7270864, 48.9128435], [2.7268933, 48.9128617], [2.7266717, 48.9128947], [2.7266016, 48.9129094], [2.7264735, 48.9129495], [2.7264286, 48.9129821], [2.7263797, 48.9130294], [2.7262931, 48.9131245], [2.7262529, 48.9131932], [2.726203, 48.9132129], [2.7261443, 48.9132003], [2.7261087, 48.9131888], [2.7260732, 48.913162], [2.7260598, 48.9131298], [2.726043, 48.9131104], [2.7260537, 48.9130615], [2.7260712, 48.9129729], [2.7260535, 48.9129183], [2.7261137, 48.9127815], [2.7262219, 48.912485], [2.7260792, 48.912337], [2.7259505, 48.9121766], [2.7258585, 48.9119757], [2.7258566, 48.9117641], [2.7259042, 48.9114932], [2.7258939, 48.911159], [2.7258963, 48.9108926], [2.7258779, 48.910577], [2.7257005, 48.9093794], [2.7247834, 48.9085782], [2.7248559, 48.908471], [2.7256632, 48.9080273], [2.7259521, 48.9079887], [2.7262496, 48.9081514], [2.7263625, 48.9079569], [2.7266154, 48.9078755], [2.7269547, 48.9075802], [2.7270762, 48.9072674], [2.7270775, 48.9066217], [2.7275571, 48.9062375], [2.727534, 48.9061397], [2.7272838, 48.9061887], [2.7266674, 48.9062733], [2.7261229, 48.9061709], [2.7256015, 48.9058648], [2.7250959, 48.9056633], [2.7246013, 48.9055815], [2.7239579, 48.9056982], [2.7230668, 48.905713], [2.7227165, 48.9056495], [2.7222965, 48.9054593], [2.7213558, 48.904914], [2.7209133, 48.9047821], [2.7203841, 48.9047176], [2.7199324, 48.9047841], [2.7191242, 48.9050309], [2.718238, 48.9055152], [2.7178843, 48.9058331], [2.7176866, 48.9061631], [2.7176472, 48.906746], [2.7177528, 48.9071551], [2.7180785, 48.9075703], [2.7178462, 48.9083212], [2.7179189, 48.9085639], [2.718141, 48.9088023], [2.718933, 48.9092451], [2.7192423, 48.909313], [2.7194955, 48.9095164], [2.7193133, 48.9098854], [2.7192028, 48.9105949], [2.7190883, 48.9109242], [2.7191774, 48.9112288], [2.7195188, 48.9114499], [2.7196167, 48.9120191], [2.7196827, 48.9127637], [2.7196985, 48.9136044], [2.7196908, 48.9137874], [2.7196663, 48.9143734], [2.7197178, 48.9146484], [2.719705, 48.9147469], [2.7196875, 48.9148818], [2.7196148, 48.9151237], [2.7197197, 48.9154303], [2.7202559, 48.9160963], [2.7203208, 48.916128], [2.7208107, 48.9163647], [2.7208626, 48.9163878], [2.7210605, 48.9166337], [2.7212309, 48.9169989], [2.7216213, 48.9172918], [2.7219671, 48.9175512], [2.722057, 48.9177401], [2.7225339, 48.9178798], [2.7225856, 48.9178949], [2.7231902, 48.9178816], [2.723857, 48.9177119], [2.7242427, 48.9175806], [2.7244651, 48.9175429], [2.7246617, 48.9177126], [2.7249621, 48.9182879], [2.7251338, 48.9187279], [2.7254342, 48.9190211], [2.7257726, 48.9191673], [2.7260757, 48.9192274], [2.7263689, 48.919206], [2.7266183, 48.9191269], [2.7271183, 48.9188311], [2.7275314, 48.9185442], [2.7277333, 48.9183179], [2.7277881, 48.9181637], [2.7276821, 48.9180523], [2.7274713, 48.9179877], [2.7269796, 48.9179842], [2.7264963, 48.9176863], [2.7257359, 48.916627]]]}}, {"type": "Feature", "properties": {"name": "Lac Sud"}, "geometry": {"type": "Polygon", "coordinates": [[[2.729597, 48.9091443], [2.7298287, 48.9094094], [2.7302407, 48.9095504], [2.7302725, 48.9095469], [2.7306527, 48.9095053], [2.7311848, 48.9092571], [2.7316311, 48.908975], [2.7322148, 48.9087719], [2.7331418, 48.9086027], [2.7332448, 48.9084109], [2.7335881, 48.9083545], [2.7336347, 48.908401], [2.7337168, 48.9084786], [2.7341202, 48.9084673], [2.7347039, 48.9087042], [2.7345151, 48.9090879], [2.7346009, 48.9095392], [2.7347897, 48.9100299], [2.7351502, 48.9104982], [2.7357768, 48.9109156], [2.7363347, 48.9111751], [2.7368325, 48.9113274], [2.7373646, 48.9114007], [2.7380513, 48.9106505], [2.7377251, 48.9105094], [2.7373217, 48.9103515], [2.7371758, 48.9101428], [2.73709, 48.9097648], [2.7345751, 48.9048962], [2.7342747, 48.9046141], [2.7340172, 48.9046367], [2.7339486, 48.9047665], [2.7339486, 48.9050091], [2.7339486, 48.9051614], [2.7337769, 48.9053024], [2.7335452, 48.9053137], [2.7331589, 48.9052742], [2.7317856, 48.9052911], [2.7300261, 48.9055563], [2.7294425, 48.9055901], [2.7289961, 48.9056861], [2.7286528, 48.9058948], [2.728464, 48.906363], [2.7284983, 48.906899], [2.7286459, 48.9072007], [2.729597, 48.9091443]]]}}, {"type": "Feature", "properties": {"name": "Pièce Michaud"}, "geometry": {"type": "Polygon", "coordinates": [[[3.2003501, 48.4304856], [3.2002498, 48.4308611], [3.2002928, 48.4311843], [3.2004719, 48.4314267], [3.2006653, 48.4316025], [3.2011452, 48.4318592], [3.2012706, 48.432404], [3.2015137, 48.4326292], [3.2022482, 48.432888], [3.2025166, 48.4331602], [3.2026331, 48.4332408], [3.2026838, 48.4333921], [3.2028864, 48.4335164], [3.2036056, 48.4337449], [3.2036867, 48.4339533], [3.2041324, 48.4341751], [3.2046085, 48.4343297], [3.2051657, 48.4342961], [3.2055507, 48.4341079], [3.2058039, 48.433792], [3.2054696, 48.4333081], [3.2054443, 48.4331266], [3.2056216, 48.4330392], [3.2059964, 48.4327838], [3.2061585, 48.432488], [3.2062814, 48.4321471], [3.2060774, 48.4319974], [3.2058039, 48.4319772], [3.2055912, 48.4321318], [3.2053269, 48.4318698], [3.2051758, 48.4316747], [3.2049023, 48.4307875], [3.2051353, 48.4305388], [3.2051556, 48.4302363], [3.2049428, 48.4299473], [3.2048111, 48.4290398], [3.2046088, 48.4286363], [3.2043452, 48.4284684], [3.2035145, 48.4283676], [3.2029269, 48.4284483], [3.2020557, 48.4285491], [3.2007084, 48.4284617], [3.2001107, 48.4284886], [3.1997865, 48.4286365], [3.1997055, 48.4288718], [3.2004146, 48.4297346], [3.2005077, 48.4301481], [3.2003501, 48.4304856]]]}}, {"type": "Feature", "properties": {"name": "Étangs de Villefermoy"}, "geometry": {"type": "Polygon", "coordinates": [[[2.930981, 48.5327644], [2.9314101, 48.5329776], [2.9315496, 48.5341072], [2.931217, 48.5352794], [2.9314423, 48.5354215], [2.9314101, 48.5356204], [2.9312814, 48.5356417], [2.931217, 48.5359685], [2.9304982, 48.537915], [2.9304767, 48.5389592], [2.9299939, 48.5393428], [2.9288138, 48.5397264], [2.9288138, 48.5404439], [2.9292318, 48.5412639], [2.929126, 48.5414421], [2.9289849, 48.5414218], [2.9285387, 48.5413286], [2.9276172, 48.5412018], [2.9275114, 48.5411873], [2.9269157, 48.5411061], [2.926504, 48.541036], [2.9253405, 48.5408986], [2.9251159, 48.5404912], [2.9243328, 48.5402165], [2.9231581, 48.5399638], [2.922988, 48.5397406], [2.922001, 48.5389308], [2.9222585, 48.538604], [2.9220331, 48.5381636], [2.9220331, 48.5378226], [2.922237, 48.5375598], [2.9225374, 48.5375953], [2.9246134, 48.5392185], [2.9251713, 48.5392363], [2.9256165, 48.5388633], [2.9257614, 48.5385081], [2.9264588, 48.5379362], [2.9278428, 48.5378298], [2.9284168, 48.537709], [2.9286207, 48.5374106], [2.9286207, 48.5370483], [2.9301227, 48.5351444], [2.930702, 48.5337449], [2.930981, 48.5327644]]]}}, {"type": "Feature", "properties": {"name": "Étang de la Sablière"}, "geometry": {"type": "Polygon", "coordinates": [[[2.9776624, 48.9930151], [2.9776141, 48.992825], [2.977531, 48.9927282], [2.977347, 48.992683], [2.977286, 48.992706], [2.977154, 48.992719], [2.977064, 48.992704], [2.977001, 48.992654], [2.976953, 48.992574], [2.976996, 48.99253], [2.976999, 48.992462], [2.977022, 48.992362], [2.977096, 48.992309], [2.977129, 48.992268], [2.977237, 48.992196], [2.977287, 48.992124], [2.977291, 48.992047], [2.977166, 48.991889], [2.977081, 48.991852], [2.977, 48.991843], [2.976962, 48.991815], [2.977204, 48.991845], [2.977378, 48.991822], [2.977472, 48.991819], [2.977644, 48.991905], [2.977714, 48.991911], [2.977775, 48.99187], [2.977945, 48.991822], [2.978015, 48.991819], [2.978082, 48.991803], [2.978161, 48.991799], [2.978213, 48.99179], [2.978261, 48.99179], [2.9782753, 48.9917866], [2.978345, 48.99177], [2.978529, 48.99176], [2.978525, 48.991804], [2.978601, 48.991803], [2.978615, 48.991791], [2.978771, 48.991802], [2.978795, 48.991824], [2.979023, 48.991849], [2.979203, 48.991853], [2.979429, 48.991847], [2.979617, 48.991871], [2.980092, 48.991992], [2.980311, 48.992055], [2.980514, 48.992064], [2.98074, 48.992063], [2.980959, 48.992135], [2.981472, 48.992242], [2.982285, 48.992331], [2.982881, 48.992431], [2.983318, 48.992523], [2.983491, 48.992581], [2.983523, 48.992685], [2.983465, 48.992849], [2.983466, 48.992938], [2.983483, 48.993101], [2.983382, 48.993403], [2.9833156, 48.9935564], [2.9832314, 48.9936838], [2.983184, 48.993781], [2.983238, 48.993919], [2.9832514, 48.9939816], [2.983175, 48.994236], [2.983192, 48.994375], [2.983141, 48.994523], [2.98314, 48.99456], [2.983118, 48.994589], [2.983108, 48.99467], [2.983115, 48.99475], [2.983105, 48.994849], [2.983095, 48.994962], [2.983097, 48.995075], [2.983093, 48.99524], [2.9831313, 48.9953245], [2.983172, 48.99556], [2.9831731, 48.9958932], [2.9830731, 48.9960762], [2.9828934, 48.9961549], [2.982558, 48.9962341], [2.9825183, 48.9961572], [2.9820884, 48.9960895], [2.9819451, 48.996175], [2.9817629, 48.9964935], [2.9811383, 48.996431], [2.9807356, 48.9962234], [2.9807503, 48.9959873], [2.9810889, 48.9957331], [2.981174, 48.9956241], [2.9809987, 48.9956201], [2.9807322, 48.9956093], [2.9803691, 48.9956353], [2.9801829, 48.9956705], [2.979883, 48.995619], [2.97988, 48.995758], [2.979842, 48.995828], [2.979743, 48.995883], [2.979722, 48.99596], [2.979717, 48.99604], [2.9798886, 48.9963659], [2.9800227, 48.996417], [2.9801622, 48.9964152], [2.9801917, 48.9965578], [2.9799852, 48.996556], [2.9798447, 48.9965258], [2.9796606, 48.9963096], [2.9795104, 48.9961829], [2.979489, 48.996034], [2.9793744, 48.9958951], [2.9793066, 48.995926], [2.9792066, 48.996062], [2.9790518, 48.9960929], [2.9788899, 48.9960999], [2.9787935, 48.9960982], [2.978697, 48.9961409], [2.9786986, 48.9961896], [2.9787254, 48.9962622], [2.9786715, 48.9962968], [2.978418, 48.9963014], [2.9782022, 48.9963032], [2.9781063, 48.9962277], [2.977897, 48.996158], [2.977526, 48.99623], [2.977206, 48.996197], [2.97708, 48.996011], [2.977094, 48.995743], [2.977181, 48.995637], [2.977216, 48.995532], [2.9771999, 48.9952835], [2.977134, 48.9951983], [2.9770329, 48.9953858], [2.9770093, 48.9956778], [2.9769267, 48.9956943], [2.9767846, 48.9955481], [2.9766844, 48.9945673], [2.9766459, 48.9939915], [2.9766181, 48.9935066], [2.9766351, 48.9932809], [2.9767062, 48.9931726], [2.9768349, 48.9931401], [2.9770012, 48.993331], [2.9769959, 48.993617], [2.9770763, 48.9939549], [2.9772051, 48.9939945], [2.9772769, 48.9938913], [2.9771997, 48.9938344], [2.977141, 48.993733], [2.9771422, 48.9936068], [2.9771059, 48.9933879], [2.9770141, 48.9932196], [2.976943, 48.993094], [2.977062, 48.99314], [2.977251, 48.993092], [2.9776624, 48.9930151]]]}}, {"type": "Feature", "properties": {"name": "Étang de Pierre Lorraine"}, "geometry": {"type": "Polygon", "coordinates": [[[2.964714, 49.003216], [2.964741, 49.003193], [2.964827, 49.003181], [2.964947, 49.003037], [2.965049, 49.002842], [2.965133, 49.002589], [2.965252, 49.002325], [2.965319, 49.002107], [2.965264, 49.001884], [2.965192, 49.001701], [2.965189, 49.001541], [2.965248, 49.001369], [2.965247, 49.001272], [2.965341, 49.001128], [2.965436, 49.001065], [2.965485, 49.000795], [2.965535, 49.000629], [2.965472, 49.000486], [2.965366, 49.000401], [2.965313, 49.000304], [2.965311, 49.000143], [2.965362, 49.000023], [2.965361, 48.999943], [2.96529, 48.99988], [2.965306, 48.999731], [2.965245, 48.999686], [2.965296, 48.999622], [2.965277, 48.999491], [2.965352, 48.999233], [2.965351, 48.999141], [2.965427, 48.998963], [2.965417, 48.998866], [2.965381, 48.998774], [2.965423, 48.998694], [2.965465, 48.998556], [2.965516, 48.998493], [2.965594, 48.998458], [2.965907, 48.998422], [2.965975, 48.99829], [2.965983, 48.998227], [2.966043, 48.998198], [2.966146, 48.99806], [2.966395, 48.997755], [2.966488, 48.997623], [2.966618, 48.997485], [2.966694, 48.99733], [2.966857, 48.997163], [2.967003, 48.996996], [2.967243, 48.99668], [2.967286, 48.996651], [2.967397, 48.996467], [2.967433, 48.9964277], [2.967183, 48.9963342], [2.9677972, 48.9958486], [2.968113, 48.996022], [2.968226, 48.996016], [2.968305, 48.996033], [2.968417, 48.995986], [2.968442, 48.9959], [2.968477, 48.995866], [2.96883, 48.995629], [2.969055, 48.995559], [2.969239, 48.995564], [2.969446, 48.995436], [2.969541, 48.995407], [2.969689, 48.995395], [2.969749, 48.995326], [2.969931, 48.995245], [2.970069, 48.995158], [2.970172, 48.995106], [2.970389, 48.994967], [2.970518, 48.994852], [2.970743, 48.994782], [2.970873, 48.994764], [2.971124, 48.994637], [2.971254, 48.994596], [2.971273, 48.994582], [2.971495, 48.994522], [2.971724, 48.994486], [2.972353, 48.994297], [2.972558, 48.994229], [2.972705, 48.994221], [2.97291, 48.994123], [2.973256, 48.993993], [2.973563, 48.993991], [2.973663, 48.994006], [2.973933, 48.993931], [2.974092, 48.99395], [2.97422, 48.993856], [2.974291, 48.993824], [2.974449, 48.993812], [2.974644, 48.993853], [2.974862, 48.993844], [2.975021, 48.993816], [2.975192, 48.993819], [2.975369, 48.993842], [2.975581, 48.993798], [2.975716, 48.993778], [2.975704, 48.993818], [2.975729, 48.993835], [2.975759, 48.993849], [2.975793, 48.993837], [2.975802, 48.993818], [2.975801, 48.993803], [2.975791, 48.993787], [2.97604, 48.993837], [2.97603, 48.993872], [2.976039, 48.993896], [2.976078, 48.993899], [2.97613, 48.993888], [2.976151, 48.993908], [2.976112, 48.993955], [2.976105, 48.993987], [2.976117, 48.994076], [2.976085, 48.994181], [2.976096, 48.994375], [2.976111, 48.994452], [2.97615, 48.994531], [2.976149, 48.99456], [2.976144, 48.994575], [2.976164, 48.994746], [2.976175, 48.995004], [2.97616, 48.995113], [2.97617, 48.995273], [2.976155, 48.995434], [2.976139, 48.995497], [2.976132, 48.995634], [2.976089, 48.995692], [2.975994, 48.995732], [2.975906, 48.995704], [2.975887, 48.995544], [2.97579, 48.995476], [2.975563, 48.995357], [2.975325, 48.995158], [2.975185, 48.995078], [2.975062, 48.99505], [2.974836, 48.99504], [2.974688, 48.995041], [2.974497, 48.995076], [2.974229, 48.995187], [2.973917, 48.995297], [2.973709, 48.99535], [2.973509, 48.995368], [2.97331, 48.995444], [2.973136, 48.99549], [2.972798, 48.995613], [2.972581, 48.995637], [2.972348, 48.995741], [2.972166, 48.995799], [2.971992, 48.995875], [2.971733, 48.996019], [2.971395, 48.996107], [2.971265, 48.996165], [2.971032, 48.996309], [2.97079, 48.996397], [2.970521, 48.996478], [2.970426, 48.996582], [2.970236, 48.996675], [2.969796, 48.996946], [2.969381, 48.997149], [2.969191, 48.997247], [2.969036, 48.99746], [2.968978, 48.997649], [2.968963, 48.997878], [2.968853, 48.998085], [2.968674, 48.998367], [2.968546, 48.998591], [2.968383, 48.998781], [2.968228, 48.998948], [2.96698, 49.000014], [2.966714, 49.000262], [2.966507, 49.000411], [2.966421, 49.000532], [2.966232, 49.000728], [2.966017, 49.000924], [2.965896, 49.001022], [2.965759, 49.001189], [2.965581, 49.001516], [2.965453, 49.00178], [2.965386, 49.001964], [2.965338, 49.002262], [2.965273, 49.002634], [2.965261, 49.003075], [2.965193, 49.003185], [2.965124, 49.003265], [2.964916, 49.003324], [2.964706, 49.003267], [2.964714, 49.003216]]]}}, {"type": "Feature", "properties": {"name": "Casier Pilote de Seine-Bassée"}, "geometry": {"type": "Polygon", "coordinates": [[[3.1151229, 48.4041246], [3.1149298, 48.4040676], [3.1148051, 48.4040534], [3.11462, 48.4040765], [3.1144805, 48.4041317], [3.1127639, 48.405079], [3.1114979, 48.4060334], [3.1050888, 48.4109298], [3.1025138, 48.4128917], [3.1016529, 48.4135647], [3.1014892, 48.4138531], [3.1015241, 48.4142732], [3.1016153, 48.4145581], [3.1020123, 48.4155408], [3.102141, 48.415758], [3.1032407, 48.4166561], [3.1046998, 48.4178017], [3.1049252, 48.4179619], [3.1052041, 48.4181123], [3.1058559, 48.4184087], [3.1063816, 48.4186152], [3.1073646, 48.4189694], [3.1082726, 48.4192436], [3.1089525, 48.4194287], [3.1097411, 48.4196441], [3.1110667, 48.4199845], [3.1131924, 48.4205235], [3.1138864, 48.4206694], [3.1144805, 48.4208047], [3.1166424, 48.4213352], [3.1181645, 48.4217027], [3.118422, 48.4217419], [3.1187332, 48.4217739], [3.1192173, 48.4218264], [3.1199093, 48.4218514], [3.1208333, 48.4218158], [3.1215991, 48.4217294], [3.1225204, 48.4215497], [3.1237851, 48.4210397], [3.1267905, 48.4198194], [3.1306744, 48.4182382], [3.1309493, 48.4180829], [3.1311531, 48.417912], [3.1312846, 48.4177402], [3.1314012, 48.4174705], [3.1317526, 48.4168279], [3.1321563, 48.4162013], [3.1323132, 48.4160464], [3.1325023, 48.4159129], [3.1328228, 48.415798], [3.1332748, 48.415669], [3.1340298, 48.4154856], [3.1344751, 48.4153628], [3.1348076, 48.4152435], [3.1352663, 48.4150592], [3.1360106, 48.4147699], [3.1368233, 48.4144993], [3.1373236, 48.4143676], [3.1377621, 48.4142813], [3.1382301, 48.4142225], [3.1385332, 48.4142198], [3.1387505, 48.4142581], [3.1389745, 48.4143213], [3.139185, 48.4143551], [3.139405, 48.414372], [3.1396879, 48.4143694], [3.1398609, 48.4143542], [3.1402338, 48.4142839], [3.1404081, 48.414235], [3.140616, 48.4141451], [3.14086, 48.4140178], [3.1411135, 48.4138638], [3.1413884, 48.4136501], [3.1416164, 48.4134347], [3.1418726, 48.4131757], [3.14224, 48.4127181], [3.1423514, 48.412549], [3.1424506, 48.4123567], [3.1424962, 48.4121707], [3.1425096, 48.4120416], [3.1424855, 48.4118404], [3.1424385, 48.4116553], [3.1423755, 48.41152], [3.1422803, 48.4113722], [3.1421569, 48.4112164], [3.1420255, 48.4110846], [3.1418645, 48.4109814], [3.1417304, 48.4109146], [3.1410143, 48.4106511], [3.1389007, 48.4098659], [3.1371827, 48.4092179], [3.1365699, 48.4089739], [3.1364733, 48.408949], [3.1363311, 48.4089268], [3.1353977, 48.4088635], [3.1352395, 48.4088164], [3.1343691, 48.4084376], [3.1342752, 48.4083997], [3.1341632, 48.4083668], [3.1322461, 48.4079096], [3.1319068, 48.4078433], [3.1296538, 48.4074294], [3.1270574, 48.4069557], [3.1246877, 48.4064821], [3.1217332, 48.405882], [3.1195566, 48.405444], [3.1193843, 48.4054316], [3.1190698, 48.4054396], [3.1186406, 48.4055402], [3.1183523, 48.4056417], [3.1181538, 48.4056916], [3.1180586, 48.4057156], [3.117903, 48.4057316], [3.1177394, 48.4057352], [3.117498, 48.405728], [3.1172512, 48.4056666], [3.1170045, 48.4055669], [3.1167684, 48.4053479], [3.1165391, 48.4050149], [3.1163125, 48.4047772], [3.1160738, 48.4046436], [3.1151229, 48.4041246]]]}}, {"type": "Feature", "properties": {"name": "Étang d'Armainvilliers"}, "geometry": {"type": "Polygon", "coordinates": [[[2.7397878, 48.7635133], [2.7397749, 48.763414], [2.7399029, 48.7633112], [2.7399031, 48.763232], [2.7398764, 48.7632162], [2.73986, 48.7632032], [2.7398282, 48.7631675], [2.7398072, 48.7631461], [2.7397932, 48.7631127], [2.7397916, 48.7630767], [2.7397971, 48.763023], [2.7398042, 48.7629558], [2.7398011, 48.7629136], [2.7397911, 48.7628551], [2.7397745, 48.7627974], [2.7397535, 48.7627341], [2.7397374, 48.7626945], [2.7397307, 48.7626599], [2.7397547, 48.7625496], [2.7397587, 48.7624744], [2.7397536, 48.7624592], [2.7397448, 48.7624005], [2.7397389, 48.7623166], [2.7397413, 48.7622923], [2.7397345, 48.7621986], [2.7397257, 48.762123], [2.7397121, 48.7620345], [2.7396886, 48.7619294], [2.7396603, 48.7618645], [2.7396459, 48.7618123], [2.7396325, 48.7617894], [2.7396037, 48.7617504], [2.7395625, 48.761654], [2.7395517, 48.7615537], [2.7395576, 48.7614847], [2.7395564, 48.761473], [2.7395466, 48.7614602], [2.7395129, 48.7614106], [2.7394948, 48.7613874], [2.7394852, 48.7613657], [2.7394907, 48.7613274], [2.7394846, 48.7613149], [2.7394959, 48.761292], [2.739495, 48.7612846], [2.7395082, 48.7612698], [2.7395099, 48.7612414], [2.7395283, 48.7612141], [2.7395364, 48.7611679], [2.7395647, 48.7611063], [2.7395698, 48.7610795], [2.7395665, 48.7610527], [2.7395545, 48.7610177], [2.739549, 48.7609821], [2.7395506, 48.7609432], [2.7395522, 48.760906], [2.7395451, 48.7608685], [2.7395307, 48.76081], [2.7395286, 48.7607818], [2.739516, 48.7607652], [2.7395199, 48.7607572], [2.7395014, 48.7607261], [2.7394837, 48.760694], [2.7394814, 48.7606779], [2.7394673, 48.7606762], [2.7394566, 48.7606657], [2.7394684, 48.7606567], [2.7394531, 48.7606315], [2.7394417, 48.7606034], [2.7394305, 48.7605975], [2.7394318, 48.7605791], [2.7394481, 48.760571], [2.7394601, 48.7605616], [2.7394666, 48.7605483], [2.7394686, 48.760524], [2.7394601, 48.7604926], [2.7394618, 48.7604676], [2.7394876, 48.7604649], [2.7394801, 48.7604187], [2.7394606, 48.7604147], [2.7394502, 48.7604083], [2.7394101, 48.7603281], [2.7393911, 48.7602711], [2.7393747, 48.7602428], [2.7393713, 48.7601738], [2.7393827, 48.7600327], [2.7394053, 48.7599047], [2.7394518, 48.7597082], [2.7394922, 48.7595872], [2.73954, 48.759467], [2.7395954, 48.7593316], [2.7396343, 48.7592487], [2.7396491, 48.7592308], [2.7396789, 48.7591175], [2.7397031, 48.7590728], [2.7397496, 48.7590098], [2.7397649, 48.7589609], [2.7397809, 48.7588759], [2.7398058, 48.758857], [2.7398531, 48.7588493], [2.7398941, 48.7588569], [2.7399413, 48.7588658], [2.7399659, 48.7588677], [2.740006, 48.7588593], [2.7400392, 48.7588425], [2.7400584, 48.7588234], [2.7400766, 48.7588111], [2.7401058, 48.7588021], [2.7401622, 48.7587916], [2.7403488, 48.7587682], [2.7403769, 48.7587646], [2.7403943, 48.7587586], [2.7404188, 48.7587268], [2.7404259, 48.7586985], [2.7404342, 48.7586893], [2.740431, 48.758665], [2.7404359, 48.7586501], [2.7404324, 48.7586358], [2.740437, 48.7586211], [2.7404455, 48.7586116], [2.7404481, 48.7585953], [2.7404393, 48.7585716], [2.7404127, 48.7585372], [2.7403899, 48.7585287], [2.7403613, 48.7585253], [2.7403225, 48.7585265], [2.7403036, 48.7585354], [2.740283, 48.7585349], [2.7402742, 48.7585293], [2.7402445, 48.7585302], [2.7402034, 48.758544], [2.7401899, 48.7585455], [2.7401743, 48.7585531], [2.7401541, 48.7585543], [2.7401426, 48.7585508], [2.7401236, 48.7585404], [2.7400938, 48.7585261], [2.7400753, 48.7585122], [2.7400611, 48.7584922], [2.740055, 48.7584791], [2.7400357, 48.7583548], [2.7400403, 48.7582498], [2.7400488, 48.758203], [2.7400582, 48.7581563], [2.7400852, 48.7580807], [2.7401064, 48.7580304], [2.7401351, 48.7579755], [2.7401583, 48.7579426], [2.7402173, 48.7578476], [2.7402484, 48.7578103], [2.7403184, 48.7577371], [2.7403474, 48.7577113], [2.7403634, 48.7576935], [2.7403779, 48.7576698], [2.7404135, 48.7575981], [2.7404392, 48.7575411], [2.7404775, 48.7574571], [2.7405033, 48.7573884], [2.7405158, 48.7573387], [2.7405312, 48.7572807], [2.7405438, 48.7572381], [2.7405541, 48.7572109], [2.7405741, 48.7571906], [2.7405969, 48.7571691], [2.7406254, 48.7571332], [2.7408614, 48.7566481], [2.7409299, 48.7565561], [2.7410166, 48.7565077], [2.741075, 48.7565098], [2.7411116, 48.756544], [2.741136, 48.7566252], [2.741156, 48.7567662], [2.7411919, 48.7569139], [2.7412006, 48.7569499], [2.74122, 48.7569946], [2.7412632, 48.7570521], [2.7413013, 48.7570983], [2.7413058, 48.7571156], [2.7413199, 48.7571354], [2.7413245, 48.7571529], [2.7413191, 48.7571861], [2.7413249, 48.7572036], [2.741339, 48.7572186], [2.7413607, 48.7572387], [2.7413632, 48.7572745], [2.7413508, 48.7573108], [2.7413068, 48.7573498], [2.741267, 48.7573975], [2.741234, 48.7574415], [2.74119, 48.7574951], [2.7411815, 48.7575201], [2.7411442, 48.7575834], [2.7411257, 48.7576031], [2.7411212, 48.7576258], [2.7411078, 48.7576423], [2.7410899, 48.7576514], [2.7410394, 48.757664], [2.7409729, 48.7576915], [2.7409062, 48.7577175], [2.7408603, 48.7577458], [2.7408324, 48.7577698], [2.740832, 48.7577924], [2.7408031, 48.7578178], [2.7407772, 48.7578281], [2.7407677, 48.7578433], [2.7407275, 48.7578755], [2.7407329, 48.7579021], [2.7407044, 48.7579412], [2.7406742, 48.757953], [2.7406655, 48.7579655], [2.7406122, 48.7580277], [2.7405605, 48.7581155], [2.7405467, 48.7581554], [2.7405443, 48.7581845], [2.7405519, 48.7582113], [2.7405729, 48.7582556], [2.7406082, 48.7583434], [2.7406161, 48.7583865], [2.7406757, 48.7584927], [2.7407203, 48.7585593], [2.7407694, 48.7585943], [2.7408175, 48.7586108], [2.7408589, 48.7586133], [2.7409247, 48.7586045], [2.7409792, 48.7585967], [2.7414522, 48.7585055], [2.7415048, 48.7584943], [2.7415293, 48.7584802], [2.7415602, 48.7584815], [2.7416127, 48.7584629], [2.7416459, 48.7584586], [2.7416734, 48.7584375], [2.7417064, 48.7584253], [2.7417133, 48.7583888], [2.7416972, 48.758374], [2.7417074, 48.7583586], [2.7416913, 48.7582984], [2.7416616, 48.7582359], [2.7416473, 48.7582127], [2.7415734, 48.7581672], [2.7414947, 48.7581212], [2.7414168, 48.7580493], [2.7413851, 48.7579892], [2.741343, 48.7579761], [2.7413304, 48.7579506], [2.741304, 48.7579471], [2.7412932, 48.7579337], [2.7412282, 48.7578977], [2.7412057, 48.7578322], [2.7412184, 48.757766], [2.7413095, 48.7575629], [2.7413399, 48.7574985], [2.7413545, 48.757474], [2.7413811, 48.757454], [2.7413986, 48.7574387], [2.7414119, 48.7574078], [2.7414176, 48.7573803], [2.7414191, 48.7573459], [2.7414228, 48.7572954], [2.7414328, 48.7571779], [2.7414371, 48.7571017], [2.7414286, 48.7570568], [2.7414278, 48.7570127], [2.7414341, 48.7569789], [2.7414332, 48.7569593], [2.7414475, 48.7569324], [2.7414643, 48.7568954], [2.7414726, 48.7568499], [2.741465, 48.7568198], [2.7414662, 48.7567901], [2.741475, 48.7567673], [2.741502, 48.7566676], [2.7415154, 48.7566084], [2.7415309, 48.7565647], [2.7415596, 48.7565165], [2.7416261, 48.7564132], [2.7417332, 48.7562588], [2.7417969, 48.7561572], [2.7418581, 48.7560521], [2.7418941, 48.7559923], [2.7419438, 48.7559282], [2.7419748, 48.7559056], [2.7420164, 48.7558828], [2.7420373, 48.7558653], [2.7420577, 48.7558331], [2.7420689, 48.7557976], [2.7420988, 48.7557376], [2.7421486, 48.755654], [2.7421739, 48.7556084], [2.7422071, 48.7555597], [2.7422641, 48.7554852], [2.7423191, 48.7554244], [2.7423461, 48.7553863], [2.7423855, 48.7553161], [2.7423991, 48.7552878], [2.7424181, 48.7552535], [2.7424285, 48.7552344], [2.7424407, 48.7552176], [2.7424497, 48.7551926], [2.7424749, 48.7551466], [2.7424973, 48.7551036], [2.7425209, 48.7550632], [2.7425334, 48.755043], [2.7425469, 48.7550191], [2.7425614, 48.7550054], [2.7425783, 48.7549765], [2.7426115, 48.754941], [2.7426327, 48.7549145], [2.7426403, 48.7548955], [2.7426622, 48.7548711], [2.7426788, 48.7548424], [2.742695, 48.7548274], [2.7427265, 48.7547867], [2.742769, 48.7547432], [2.7428647, 48.7546461], [2.7429239, 48.7546041], [2.7430512, 48.7545409], [2.7431363, 48.7544947], [2.7432983, 48.7543243], [2.7438542, 48.7535923], [2.7440698, 48.7530276], [2.7441134, 48.7525096], [2.7439482, 48.7521461], [2.7436112, 48.7518957], [2.743073, 48.751737], [2.7418516, 48.751514], [2.7401947, 48.7513145], [2.7388746, 48.7512126], [2.7378785, 48.7512174], [2.7341404, 48.7516228], [2.7340137, 48.7516432], [2.733934, 48.7518208], [2.7339869, 48.7518949], [2.7337834, 48.7522379], [2.7337202, 48.7524558], [2.7337292, 48.7528815], [2.7338784, 48.7534085], [2.7338066, 48.7536764], [2.73382, 48.7539249], [2.733858, 48.7541741], [2.7337724, 48.7545245], [2.7337511, 48.7547447], [2.7337652, 48.7547898], [2.733759, 48.754807], [2.7337638, 48.7548246], [2.7337826, 48.7548484], [2.733789, 48.7548746], [2.7337904, 48.7549326], [2.7337954, 48.7550359], [2.7337978, 48.7551152], [2.733809, 48.7551845], [2.7338034, 48.755231], [2.7338187, 48.7552741], [2.7338195, 48.7553106], [2.733836, 48.7553519], [2.7338472, 48.7553881], [2.7338584, 48.7554139], [2.7339421, 48.7555971], [2.7339573, 48.7556407], [2.7339683, 48.7556745], [2.7339684, 48.7557123], [2.733969, 48.7557444], [2.7339763, 48.7557745], [2.7339711, 48.7558019], [2.7339825, 48.7558495], [2.7339857, 48.7559366], [2.7339822, 48.7560008], [2.7339793, 48.7560858], [2.7339816, 48.756122], [2.7339766, 48.7561617], [2.7339821, 48.7562163], [2.7339911, 48.7562544], [2.7339907, 48.7563059], [2.7339956, 48.756335], [2.7340031, 48.7563659], [2.7340064, 48.7564119], [2.7340087, 48.7564497], [2.7340175, 48.7565162], [2.7340381, 48.7565699], [2.7340485, 48.7566193], [2.7340509, 48.7566727], [2.7340542, 48.756702], [2.7340513, 48.7567407], [2.7340285, 48.7567942], [2.7340054, 48.7568615], [2.7339821, 48.7569053], [2.7339679, 48.7569484], [2.733929, 48.7571324], [2.7339058, 48.7571664], [2.7338969, 48.757197], [2.7338987, 48.7572324], [2.7339056, 48.757269], [2.7339207, 48.7573033], [2.7339367, 48.7573291], [2.7339768, 48.7573757], [2.7341948, 48.7574832], [2.7342482, 48.7575074], [2.7342809, 48.7575294], [2.7343059, 48.7575574], [2.7343321, 48.757654], [2.7343264, 48.7577456], [2.7343207, 48.7577903], [2.7343119, 48.7578348], [2.7342998, 48.7578856], [2.7343236, 48.7581212], [2.7343314, 48.7581776], [2.7343373, 48.758234], [2.7343385, 48.758286], [2.7343335, 48.7583285], [2.7343174, 48.7583812], [2.7343045, 48.758403], [2.7342821, 48.7584924], [2.734262, 48.7585385], [2.7342449, 48.7585731], [2.7341832, 48.7587316], [2.7341594, 48.7587788], [2.7341285, 48.7588542], [2.7340807, 48.758961], [2.7340299, 48.7590808], [2.7339854, 48.7591722], [2.7339675, 48.7592209], [2.7339209, 48.7593305], [2.7338832, 48.759425], [2.7338645, 48.7594707], [2.7338049, 48.7595889], [2.7337611, 48.7596676], [2.7337334, 48.7596996], [2.7337122, 48.7597393], [2.733669, 48.7597757], [2.7336417, 48.7598107], [2.7336139, 48.7598301], [2.7335565, 48.7599194], [2.7335416, 48.75996], [2.7335168, 48.7599992], [2.733498, 48.7600624], [2.7334835, 48.7600936], [2.7334826, 48.7601271], [2.7334957, 48.7601925], [2.7334909, 48.7602071], [2.7334747, 48.7602257], [2.7334654, 48.7602519], [2.7334414, 48.7602739], [2.7334112, 48.7603149], [2.7333923, 48.7603652], [2.7333835, 48.7603763], [2.7333844, 48.7604179], [2.7333776, 48.7604376], [2.7333802, 48.7604545], [2.7333706, 48.7604642], [2.733365, 48.7604922], [2.7333141, 48.7606377], [2.7332996, 48.7606699], [2.7332882, 48.7606876], [2.733287, 48.7607061], [2.7332728, 48.760735], [2.7332406, 48.7608417], [2.7332384, 48.7608626], [2.7332173, 48.7608962], [2.7332139, 48.7609129], [2.7331994, 48.7609234], [2.7331931, 48.7609404], [2.733192, 48.7609702], [2.733181, 48.7610228], [2.7331757, 48.7610395], [2.733177, 48.7610587], [2.733195, 48.7611021], [2.7331982, 48.7611241], [2.7332081, 48.7611455], [2.7332098, 48.76117], [2.733206, 48.7611926], [2.733192, 48.7612033], [2.7331877, 48.7612136], [2.7331947, 48.7612269], [2.7331934, 48.7612469], [2.7331681, 48.7612699], [2.7331549, 48.7612861], [2.7331361, 48.7613], [2.7331393, 48.7613213], [2.7331288, 48.7613443], [2.7330992, 48.7613809], [2.7330793, 48.7614155], [2.7330723, 48.7614523], [2.7330707, 48.7614764], [2.7330807, 48.7614856], [2.7330855, 48.7615089], [2.7330831, 48.7615248], [2.7331034, 48.7615527], [2.7331077, 48.7615714], [2.7331272, 48.7615859], [2.7331378, 48.7616104], [2.7331397, 48.7616476], [2.7331256, 48.7616678], [2.7331282, 48.7616877], [2.7331213, 48.7617124], [2.7330833, 48.7618136], [2.7330924, 48.7618485], [2.7331069, 48.7618786], [2.7332325, 48.7620611], [2.7332785, 48.7621112], [2.7334241, 48.7622467], [2.7334984, 48.7623248], [2.733775, 48.762526], [2.7338383, 48.7625539], [2.7338614, 48.7625596], [2.7339313, 48.7625927], [2.7340711, 48.7626446], [2.7342229, 48.7626753], [2.7343087, 48.7626966], [2.7343854, 48.7627163], [2.7344242, 48.7627237], [2.734779, 48.7627639], [2.734898, 48.7627638], [2.7349843, 48.762759], [2.7350504, 48.7627555], [2.7351113, 48.7627578], [2.7351845, 48.7627617], [2.7352399, 48.7627685], [2.7353318, 48.7627848], [2.7354844, 48.7628241], [2.7355597, 48.7628467], [2.7356222, 48.7628647], [2.7357247, 48.7628905], [2.7358185, 48.7629116], [2.7359127, 48.7629303], [2.7361811, 48.762983], [2.7363335, 48.7630003], [2.7364182, 48.7630131], [2.7365175, 48.7630294], [2.7366794, 48.7630616], [2.7368687, 48.7630999], [2.736975, 48.7631188], [2.7371256, 48.7631414], [2.7371939, 48.7631506], [2.7372695, 48.763162], [2.7373645, 48.7631796], [2.7374384, 48.7631963], [2.7375595, 48.7632289], [2.737602, 48.7632391], [2.7376932, 48.7632589], [2.7377646, 48.7632695], [2.7379947, 48.7632962], [2.7381309, 48.7633128], [2.7382238, 48.7633269], [2.738346, 48.7633498], [2.7384872, 48.7633735], [2.7385615, 48.7633847], [2.7386309, 48.7633927], [2.7388043, 48.763408], [2.7388886, 48.763412], [2.7389688, 48.7634131], [2.738992, 48.7634148], [2.7390103, 48.7634204], [2.7390526, 48.763432], [2.7390811, 48.7634364], [2.7391493, 48.7634424], [2.739177, 48.763448], [2.7392388, 48.7634523], [2.7392557, 48.7634604], [2.7392746, 48.7634629], [2.7392893, 48.7634681], [2.7393219, 48.763502], [2.7393457, 48.7635227], [2.739372, 48.7635328], [2.7394371, 48.7635415], [2.7395953, 48.7634956], [2.7397053, 48.7634903], [2.7397878, 48.7635133]]]}}, {"type": "Feature", "properties": {"name": "Étang de Vincennes"}, "geometry": {"type": "MultiPolygon", "coordinates": [[[[2.7432995, 48.786343], [2.7448549, 48.7840258], [2.745029, 48.7837685], [2.7451116, 48.7836088], [2.7451348, 48.7833937], [2.745123, 48.783282], [2.7450943, 48.7831738], [2.744872, 48.7827276], [2.7445346, 48.7820643], [2.7465007, 48.7819343], [2.7477773, 48.781851], [2.7477871, 48.7820355], [2.7478079, 48.7822594], [2.7478349, 48.7823849], [2.7478632, 48.7830866], [2.747879, 48.7833639], [2.7479168, 48.783588], [2.7479231, 48.7837978], [2.7479284, 48.7846943], [2.7479172, 48.7850001], [2.7478216, 48.7851112], [2.747756, 48.7851605], [2.7475872, 48.785281], [2.7472042, 48.7854794], [2.7466302, 48.7857457], [2.7459031, 48.7860562], [2.7458318, 48.7860624], [2.7456978, 48.7861171], [2.7449103, 48.7864271], [2.7440705, 48.7867721], [2.7424547, 48.7874393], [2.7410413, 48.7880287], [2.740653, 48.7880675], [2.740846, 48.7878641], [2.7410318, 48.7877089], [2.7412238, 48.7875853], [2.7426367, 48.7868338], [2.7430417, 48.7866166], [2.7431231, 48.7865543], [2.7431962, 48.7864857], [2.7432995, 48.786343]]], [[[2.7477605, 48.7817091], [2.7467745, 48.7817715], [2.7444626, 48.7819268], [2.7443482, 48.7817046], [2.7430594, 48.7792214], [2.7420949, 48.7773761], [2.7430247, 48.7773518], [2.7462765, 48.7772723], [2.7463008, 48.7772723], [2.7462333, 48.7775757], [2.7461618, 48.7777593], [2.745994, 48.7781786], [2.7459717, 48.7782527], [2.7459885, 48.7783043], [2.7461511, 48.7784369], [2.746287, 48.7785516], [2.7467598, 48.778858], [2.7476984, 48.7795388], [2.7477665, 48.7795873], [2.7478052, 48.7796422], [2.7478099, 48.7796825], [2.7477976, 48.7797131], [2.7477168, 48.7797935], [2.7474716, 48.7800878], [2.7474149, 48.7802158], [2.7474241, 48.7803157], [2.7474455, 48.780435], [2.7475804, 48.7807464], [2.7476596, 48.7809858], [2.7477505, 48.7812821], [2.7477447, 48.7814546], [2.7477605, 48.7817091]]]]}}, {"type": "Feature", "properties": {"name": "Étang des Pâtis"}, "geometry": {"type": "Polygon", "coordinates": [[[2.9947606, 48.9953289], [2.9949579, 48.9954059], [2.995443, 48.995642], [2.995768, 48.996007], [2.996076, 48.996316], [2.9963, 48.996648], [2.996591, 48.996957], [2.99683, 48.9972], [2.997103, 48.99742], [2.997358, 48.997597], [2.9975108, 48.997784], [2.9976, 48.998006], [2.9976994, 48.99816], [2.997705, 48.998316], [2.9975979, 48.9985115], [2.9973478, 48.9987018], [2.9969043, 48.9989817], [2.9964289, 48.9992003], [2.996115, 48.999214], [2.995821, 48.9992212], [2.9953669, 48.9989952], [2.9951708, 48.998904], [2.9949106, 48.9988412], [2.994754, 48.9987803], [2.9947096, 48.9986987], [2.9945803, 48.9987021], [2.9945058, 48.998668], [2.994419, 48.9986614], [2.9943605, 48.9986237], [2.9943172, 48.9985914], [2.9942205, 48.9985687], [2.9942008, 48.9985525], [2.994114, 48.998481], [2.993622, 48.998306], [2.99313, 48.998087], [2.992587, 48.997891], [2.99253, 48.997864], [2.99253, 48.997854], [2.992467, 48.997845], [2.992442, 48.997814], [2.992461, 48.997757], [2.992523, 48.997725], [2.99262, 48.9976279], [2.9925768, 48.9975717], [2.9925254, 48.9975517], [2.9924642, 48.9975501], [2.9924126, 48.9975637], [2.9923208, 48.997598], [2.9922614, 48.997604], [2.992223, 48.997577], [2.992143, 48.997545], [2.992056, 48.997521], [2.991921, 48.99747], [2.991721, 48.9974794], [2.991603, 48.997401], [2.991473, 48.997365], [2.991341, 48.997311], [2.991179, 48.997254], [2.990943, 48.997203], [2.990853, 48.997176], [2.990736, 48.997144], [2.990629, 48.997133], [2.990502, 48.997107], [2.990326, 48.997079], [2.990171, 48.997049], [2.990047, 48.997022], [2.989933, 48.996999], [2.989768, 48.996963], [2.989741, 48.996962], [2.9895208, 48.9971251], [2.9893775, 48.9971764], [2.9889049, 48.99714], [2.9882458, 48.9970933], [2.9875275, 48.9970565], [2.9871148, 48.9970085], [2.9867315, 48.9968511], [2.9865374, 48.996744], [2.9863896, 48.9966624], [2.9862367, 48.9965684], [2.986309, 48.996493], [2.986242, 48.996505], [2.9862283, 48.9965043], [2.986143, 48.9965], [2.986105, 48.996507], [2.986054, 48.996533], [2.985977, 48.996549], [2.985763, 48.996533], [2.985756, 48.996507], [2.98576, 48.996439], [2.985755, 48.996284], [2.985763, 48.99614], [2.986094, 48.994507], [2.986103, 48.994511], [2.986124, 48.994338], [2.98607, 48.994279], [2.985965, 48.99423], [2.985573, 48.994163], [2.985038, 48.994117], [2.984249, 48.994111], [2.983722, 48.994109], [2.983563, 48.994066], [2.983501, 48.993937], [2.983507, 48.993729], [2.983564, 48.993556], [2.983698, 48.993427], [2.983771, 48.993297], [2.9838, 48.993169], [2.983836, 48.99303], [2.983818, 48.992881], [2.98381, 48.992753], [2.983891, 48.992663], [2.983989, 48.992643], [2.98423, 48.992701], [2.984569, 48.992778], [2.9848215, 48.9928334], [2.985195, 48.992913], [2.985527, 48.992946], [2.985685, 48.992975], [2.985904, 48.993033], [2.986107, 48.993022], [2.986286, 48.992981], [2.986512, 48.99295], [2.986783, 48.992978], [2.987265, 48.993015], [2.987528, 48.993048], [2.987664, 48.993053], [2.987942, 48.993071], [2.988206, 48.993094], [2.988432, 48.993137], [2.988725, 48.99319], [2.989073, 48.993287], [2.989428, 48.993394], [2.989895, 48.9935], [2.990137, 48.993583], [2.990484, 48.99367], [2.990689, 48.993832], [2.990902, 48.993965], [2.991249, 48.994101], [2.99165, 48.994223], [2.992495, 48.994455], [2.992502, 48.994471], [2.9925096, 48.9945228], [2.9926746, 48.99465], [2.992985, 48.99478], [2.993408, 48.99491], [2.993955, 48.9951123], [2.9942172, 48.9952386], [2.9942027, 48.995337], [2.9943254, 48.9953472], [2.9944442, 48.9952801], [2.9947606, 48.9953289]]]}}, {"type": "Feature", "properties": {"name": "Espace naturel régional de Précy-sur-Marne"}, "geometry": {"type": "MultiPolygon", "coordinates": [[[[2.7630607, 48.9260251], [2.7635098, 48.9259275], [2.7639245, 48.925928], [2.7642676, 48.9261312], [2.7630607, 48.9260251]]], [[[2.7642676, 48.9261312], [2.7646213, 48.9263336], [2.7648829, 48.926395], [2.7672595, 48.9268378], [2.7677916, 48.9268265], [2.7680663, 48.926928], [2.7682379, 48.9273228], [2.769637, 48.9277739], [2.7700232, 48.9278698], [2.7702635, 48.9281686], [2.770624, 48.928225], [2.7708644, 48.9280784], [2.7712077, 48.9278303], [2.7712077, 48.9276724], [2.7709845, 48.9275145], [2.7713278, 48.927334], [2.7716969, 48.9272494], [2.7718686, 48.9269957], [2.7716712, 48.9264318], [2.7713107, 48.9258678], [2.7707957, 48.9254731], [2.770109, 48.9251629], [2.7694224, 48.925146], [2.7689932, 48.9249937], [2.7686499, 48.9246159], [2.7682894, 48.9244862], [2.7676629, 48.9245256], [2.7674483, 48.9244298], [2.7674054, 48.9241873], [2.7677916, 48.9236402], [2.7677487, 48.9234428], [2.7670878, 48.9230932], [2.7666654, 48.9229847], [2.7650591, 48.9228143], [2.7643757, 48.9228184], [2.7639229, 48.9227877], [2.7634157, 48.9227093], [2.7600447, 48.9224022], [2.7598273, 48.922394], [2.7596826, 48.9224405], [2.7596114, 48.9225788], [2.7595948, 48.9227661], [2.7596109, 48.9245321], [2.7595538, 48.9247121], [2.7593748, 48.9247541], [2.7593274, 48.9248416], [2.7591703, 48.924896], [2.7592092, 48.9249731], [2.7593492, 48.9250408], [2.7592797, 48.9251966], [2.7593795, 48.9253262], [2.7597179, 48.925344], [2.7598921, 48.9252972], [2.7605118, 48.9253471], [2.7607645, 48.9253966], [2.7611141, 48.9254307], [2.7614058, 48.9255673], [2.7616145, 48.925631], [2.7623156, 48.9258791], [2.7627345, 48.9260306], [2.7630607, 48.9260251], [2.7642676, 48.9261312]]]]}}]}