{"type": "FeatureCollection", "features": [{"type": "Feature", "properties": {"name": "Étang de Hollande"}, "geometry": {"type": "Polygon", "coordinates": [[[1.7941993, 48.7320353], [1.7954971, 48.7317494], [1.7956995, 48.7317015], [1.7959019, 48.7316535], [1.7963995, 48.7314226], [1.7969119, 48.7311501], [1.7970445, 48.7311347], [1.7972458, 48.7311114], [1.7975331, 48.7309806], [1.7978749, 48.7308249], [1.7980315, 48.730643], [1.798177, 48.730624], [1.7984355, 48.7305109], [1.7984436, 48.7304801], [1.798863, 48.7303011], [1.8003064, 48.7299047], [1.8010672, 48.7296957], [1.8027046, 48.7291754], [1.8020254, 48.7282107], [1.8021595, 48.7281611], [1.802826, 48.7291442], [1.8045799, 48.7287643], [1.805342, 48.7285405], [1.8058984, 48.7282847], [1.8072455, 48.7274765], [1.808269, 48.7264782], [1.8087249, 48.726248], [1.8091397, 48.7261939], [1.8093149, 48.7262622], [1.8093686, 48.7262675], [1.8094464, 48.7262454], [1.8095309, 48.7262118], [1.8094262, 48.7261419], [1.8085706, 48.7255925], [1.8072038, 48.7247756], [1.8051298, 48.7256255], [1.8041798, 48.7259261], [1.803976, 48.7260411], [1.8038124, 48.7260676], [1.8036273, 48.7260747], [1.8031043, 48.7262481], [1.8021655, 48.7268178], [1.8014506, 48.7271458], [1.801621, 48.727407], [1.8021353, 48.7281209], [1.8021065, 48.7281324], [1.8020032, 48.7281774], [1.8013085, 48.7272048], [1.8008566, 48.7273256], [1.7982656, 48.7282669], [1.7973965, 48.7286349], [1.7965865, 48.7290913], [1.7952477, 48.7295501], [1.7935851, 48.7302599], [1.7939016, 48.731202], [1.7941993, 48.7320353]]]}}, {"type": "Feature", "properties": {"name": "Étang de la Galiotte"}, "geometry": {"type": "Polygon", "coordinates": [[[2.0184013, 48.9325435], [2.0182869, 48.9326354], [2.0178782, 48.9327248], [2.0177417, 48.9325415], [2.0168147, 48.93222], [2.016527, 48.9319799], [2.0163384, 48.9320413], [2.0163187, 48.9320725], [2.016353, 48.9322022], [2.0162248, 48.9322983], [2.0158949, 48.9323767], [2.0156361, 48.9321238], [2.0155946, 48.932116], [2.0154194, 48.9321896], [2.0151818, 48.9322965], [2.015098, 48.9323632], [2.015055, 48.9324142], [2.0150444, 48.9324668], [2.0150765, 48.9325148], [2.0151523, 48.932613], [2.0153339, 48.9326677], [2.0154407, 48.9327711], [2.0155747, 48.9328339], [2.0158897, 48.9328777], [2.0162886, 48.9329319], [2.0173284, 48.9328507], [2.0180233, 48.9329764], [2.0189372, 48.9330999], [2.0191787, 48.9331856], [2.0195065, 48.9332442], [2.0196759, 48.9332955], [2.0197874, 48.9332881], [2.020001, 48.9333344], [2.0204077, 48.9333477], [2.0207476, 48.9332397], [2.0217066, 48.9334783], [2.0220882, 48.9335401], [2.0222678, 48.9335349], [2.0228584, 48.9336399], [2.0231315, 48.93377], [2.0242686, 48.9339296], [2.0244692, 48.9340834], [2.0245316, 48.934079], [2.0245977, 48.9341091], [2.0245923, 48.9343219], [2.0248589, 48.9343674], [2.025082, 48.9342828], [2.0254117, 48.9340633], [2.0255077, 48.933974], [2.0257102, 48.9339246], [2.0258161, 48.9339563], [2.0260133, 48.9343246], [2.0259985, 48.9344039], [2.0259288, 48.9344488], [2.0258659, 48.9345314], [2.0258229, 48.9346303], [2.0258974, 48.9346944], [2.0260726, 48.9347639], [2.0262533, 48.9347545], [2.0263134, 48.9348459], [2.0263723, 48.9348494], [2.0264169, 48.9349138], [2.0264579, 48.934956], [2.026506, 48.9350755], [2.0266006, 48.9351447], [2.0266915, 48.9351283], [2.026893, 48.9353541], [2.02705, 48.9354505], [2.0272141, 48.935461], [2.027436, 48.9355984], [2.0275084, 48.9357504], [2.0276973, 48.9359886], [2.0279472, 48.9361113], [2.0282663, 48.9361435], [2.0285234, 48.9361074], [2.0287409, 48.9362003], [2.028864, 48.9362057], [2.0293821, 48.9360871], [2.0294965, 48.9359767], [2.0296442, 48.935834], [2.029943, 48.9357445], [2.030075, 48.9357469], [2.0302355, 48.935686], [2.0303843, 48.935587], [2.0307902, 48.9352946], [2.030899, 48.9351236], [2.0308982, 48.9351201], [2.0308743, 48.9350159], [2.0299894, 48.9345084], [2.0299419, 48.9344111], [2.0299412, 48.9343175], [2.0300153, 48.9341658], [2.0304362, 48.9339748], [2.0304767, 48.933917], [2.0304658, 48.9338189], [2.0303739, 48.933719], [2.0288818, 48.9330157], [2.0285554, 48.9328177], [2.0281393, 48.9326722], [2.0279093, 48.9326979], [2.0278379, 48.9327388], [2.0278385, 48.9327593], [2.0277292, 48.9328068], [2.0277276, 48.932822], [2.0275887, 48.9328401], [2.0274486, 48.9328], [2.0274043, 48.9327657], [2.0273611, 48.9326714], [2.0273457, 48.9326185], [2.0272169, 48.9325517], [2.0270286, 48.9325295], [2.0269484, 48.9325447], [2.0269252, 48.9325576], [2.0266648, 48.9324322], [2.0265596, 48.9323432], [2.0261957, 48.932267], [2.0256446, 48.9321018], [2.0254448, 48.9320526], [2.0252437, 48.9320266], [2.0251807, 48.9320388], [2.0251598, 48.9321033], [2.0251421, 48.9322457], [2.0250414, 48.9322913], [2.0248182, 48.932219], [2.0247559, 48.9320838], [2.0248377, 48.931928], [2.0247522, 48.9318794], [2.0243377, 48.9318519], [2.0241461, 48.9318931], [2.0241554, 48.9320183], [2.0240033, 48.9321609], [2.0238428, 48.9322047], [2.0229899, 48.9319716], [2.02269, 48.9318428], [2.022589, 48.9317878], [2.0224566, 48.931813], [2.0223994, 48.9318612], [2.0211578, 48.9320058], [2.0198937, 48.9323306], [2.0195931, 48.9323394], [2.019412, 48.932257], [2.0191995, 48.9323897], [2.0188999, 48.932479], [2.0184013, 48.9325435]]]}}, {"type": "Feature", "properties": {"name": "Étang de la Grosse-Pierre"}, "geometry": {"type": "Polygon", "coordinates": [[[1.9633229, 49.0001196], [1.9629484, 49.0001448], [1.961971, 48.9994789], [1.9617456, 48.9993556], [1.9623616, 48.998972], [1.9631557, 48.9984775], [1.9639997, 48.9971183], [1.9640998, 48.9969571], [1.9639711, 48.9965629], [1.9649059, 48.9961545], [1.9650776, 48.994465], [1.9664509, 48.9918181], [1.9673836, 48.9908494], [1.9678671, 48.9906635], [1.9683808, 48.9905065], [1.9696936, 48.9904703], [1.9706414, 48.9905977], [1.9711083, 48.9911524], [1.9716812, 48.9917107], [1.9725878, 48.9920715], [1.9723008, 48.9923953], [1.9719225, 48.9927036], [1.9718447, 48.992906], [1.9718984, 48.9931031], [1.9721693, 48.9933777], [1.9724187, 48.9935536], [1.9726118, 48.993617], [1.973269, 48.9937032], [1.973784, 48.9936804], [1.973902, 48.9938405], [1.9737317, 48.9940816], [1.9735372, 48.9941811], [1.9732301, 48.994313], [1.9731188, 48.9944072], [1.9731161, 48.9944459], [1.9731684, 48.9944503], [1.9732127, 48.9944266], [1.9733226, 48.994475], [1.9736673, 48.9943025], [1.9739892, 48.9941186], [1.9748092, 48.9937421], [1.975286, 48.9936223], [1.9755194, 48.9936372], [1.9757943, 48.9937816], [1.9759351, 48.9938141], [1.976025, 48.9938924], [1.9759901, 48.9940429], [1.975852, 48.9941459], [1.9755127, 48.9942418], [1.9753182, 48.9943482], [1.9751801, 48.9944802], [1.9746302, 48.9947398], [1.973646, 48.9952008], [1.9716671, 48.996264], [1.9706137, 48.9965205], [1.968425, 48.997506], [1.9674379, 48.9982944], [1.9659788, 48.9990546], [1.9656355, 48.9990827], [1.9633229, 49.0001196]]]}}, {"type": "Feature", "properties": {"name": "Étang de Gallardon"}, "geometry": {"type": "Polygon", "coordinates": [[[1.9790191, 48.9904827], [1.9777376, 48.9902693], [1.9770413, 48.9894128], [1.9773656, 48.9885838], [1.9794971, 48.9878474], [1.9808379, 48.9863382], [1.9807591, 48.9861377], [1.9814069, 48.9857238], [1.9828016, 48.9849748], [1.9832327, 48.9844954], [1.9839386, 48.9839935], [1.9841546, 48.9831655], [1.9846792, 48.9822671], [1.9858948, 48.9808846], [1.9866786, 48.9803866], [1.9869367, 48.980385], [1.98693, 48.9805144], [1.9871243, 48.9805463], [1.9880126, 48.981047], [1.9884627, 48.9813131], [1.9891235, 48.9816059], [1.9893461, 48.9816886], [1.9894508, 48.9816781], [1.9894695, 48.9816429], [1.9894722, 48.9815725], [1.9894105, 48.9815056], [1.9890913, 48.9813542], [1.989012, 48.9812883], [1.9889951, 48.9811478], [1.98995, 48.9802984], [1.9912156, 48.9792729], [1.9914771, 48.9792369], [1.9942315, 48.9798369], [1.9943565, 48.9799054], [1.9944008, 48.980033], [1.9943351, 48.9801413], [1.9937007, 48.9807777], [1.9934223, 48.9813513], [1.9933024, 48.9815672], [1.9926104, 48.9821516], [1.9922966, 48.9823206], [1.9918084, 48.9825706], [1.991559, 48.9826375], [1.9913954, 48.9826234], [1.9912264, 48.9825142], [1.9903278, 48.9819949], [1.990191, 48.981958], [1.9900972, 48.9819914], [1.9900703, 48.9820865], [1.990191, 48.9821815], [1.9913149, 48.9828505], [1.9914302, 48.9830036], [1.9914161, 48.9831993], [1.9900114, 48.9844115], [1.9894256, 48.9842745], [1.9851887, 48.9872545], [1.9846094, 48.9875502], [1.9845155, 48.9876241], [1.9848347, 48.988212], [1.9850278, 48.9885412], [1.9849715, 48.9886908], [1.9848642, 48.9887136], [1.9846576, 48.9885429], [1.9842258, 48.9880254], [1.9841078, 48.9878811], [1.983979, 48.9879022], [1.9830483, 48.9884285], [1.9829437, 48.9884391], [1.9825762, 48.9881258], [1.9824824, 48.9880747], [1.9824046, 48.9881381], [1.9823965, 48.9883511], [1.9823268, 48.9884813], [1.9821256, 48.9886397], [1.9820264, 48.9887312], [1.9820154, 48.9889882], [1.9818923, 48.9891906], [1.9816509, 48.9893754], [1.9804549, 48.9900446], [1.9790191, 48.9904827]]]}}, {"type": "Feature", "properties": {"name": "L'Hérubé"}, "geometry": {"type": "Polygon", "coordinates": [[[1.8324006, 48.9733816], [1.8321153, 48.9732733], [1.8320037, 48.9732683], [1.8319163, 48.9732173], [1.8317623, 48.9730975], [1.8316577, 48.9728695], [1.831592, 48.9727207], [1.8313909, 48.9725534], [1.8313774, 48.9724337], [1.8313117, 48.9723756], [1.8312058, 48.972314], [1.8311428, 48.9722462], [1.8311991, 48.9722031], [1.8312192, 48.972159], [1.8312058, 48.9720499], [1.8312339, 48.9719865], [1.8312353, 48.9719293], [1.831179, 48.9718844], [1.8310046, 48.9718694], [1.8306932, 48.9718722], [1.8305674, 48.9719161], [1.8303609, 48.9718316], [1.8300846, 48.9717823], [1.829851, 48.9717383], [1.8297024, 48.9715807], [1.8296447, 48.9715745], [1.8295656, 48.9715763], [1.829461, 48.9715041], [1.8293926, 48.9714557], [1.8293175, 48.9713738], [1.829292, 48.9713342], [1.8292397, 48.9713245], [1.8292451, 48.9713518], [1.8292572, 48.9714134], [1.829343, 48.9714953], [1.8294127, 48.9715446], [1.8294838, 48.9716264], [1.8294784, 48.9716713], [1.8294331, 48.9717931], [1.82928, 48.9718333], [1.8291526, 48.9718421], [1.8288186, 48.9718844], [1.8286885, 48.9719601], [1.828533, 48.9720745], [1.8284713, 48.9721274], [1.8283774, 48.9722242], [1.8282795, 48.972255], [1.8282379, 48.9722154], [1.8282258, 48.9721485], [1.8283774, 48.9720446], [1.8284565, 48.9719795], [1.8284485, 48.971946], [1.8284163, 48.9719055], [1.8284847, 48.9717849], [1.8286, 48.9716185], [1.8286885, 48.9713843], [1.8287194, 48.9712901], [1.8286939, 48.9712488], [1.8285638, 48.9711695], [1.8285008, 48.9711117], [1.8284029, 48.9710929], [1.8282419, 48.9711528], [1.8279764, 48.9711783], [1.8278262, 48.9711616], [1.8276961, 48.9710357], [1.8276639, 48.970938], [1.8277068, 48.9708825], [1.8278624, 48.9707971], [1.8279617, 48.9707681], [1.8280314, 48.9706924], [1.8280917, 48.9703825], [1.8281776, 48.9701923], [1.8281548, 48.9700841], [1.8280743, 48.9699714], [1.827963, 48.9698877], [1.8277793, 48.9698059], [1.8276693, 48.9697926], [1.8275499, 48.9697064], [1.8274212, 48.969658], [1.8273287, 48.9696166], [1.8272844, 48.9696289], [1.8272147, 48.9696166], [1.827212, 48.969577], [1.8272428, 48.9695382], [1.8273032, 48.9694828], [1.8273568, 48.969422], [1.8272924, 48.9693128], [1.8271396, 48.9691597], [1.8269867, 48.969091], [1.8268391, 48.969069], [1.8266951, 48.969045], [1.8265334, 48.9690787], [1.826355, 48.9691773], [1.8261552, 48.9691139], [1.8260787, 48.969135], [1.8260479, 48.9691764], [1.8259326, 48.9692873], [1.8259835, 48.9694634], [1.8260238, 48.9696219], [1.8260586, 48.9697381], [1.826005, 48.9698261], [1.8259755, 48.9699529], [1.8259862, 48.9701888], [1.8260211, 48.9702997], [1.8260935, 48.9703684], [1.8262142, 48.9704124], [1.8261766, 48.971041], [1.8258682, 48.9713315], [1.8257877, 48.9714319], [1.8256228, 48.971578], [1.8255356, 48.9716124], [1.8254444, 48.9716185], [1.8253452, 48.9716168], [1.8252097, 48.9716669], [1.8251064, 48.9716396], [1.8250501, 48.9715939], [1.8250622, 48.9715639], [1.8250555, 48.9715402], [1.8249992, 48.9715402], [1.8249227, 48.9715569], [1.8248637, 48.9715622], [1.8248034, 48.9715525], [1.8246719, 48.9715234], [1.8246102, 48.9715261], [1.8245606, 48.9715331], [1.8245217, 48.9715446], [1.8245123, 48.9715727], [1.8245338, 48.9716036], [1.8245579, 48.9716264], [1.8245257, 48.9716308], [1.8244855, 48.9715947], [1.8243943, 48.9715719], [1.8241851, 48.9715657], [1.823945, 48.9713905], [1.8237146, 48.9712191], [1.8236648, 48.9711854], [1.8235964, 48.9711792], [1.8235373, 48.9712012], [1.8234985, 48.9712488], [1.8234394, 48.9713192], [1.8233071, 48.971391], [1.8232504, 48.9714521], [1.8232383, 48.9715296], [1.8232061, 48.9716775], [1.8231753, 48.9717787], [1.8231873, 48.9718914], [1.8231664, 48.972021], [1.8232168, 48.972086], [1.8232664, 48.9721036], [1.8234006, 48.9721546], [1.8235575, 48.9722348], [1.8235776, 48.972299], [1.8235762, 48.9723862], [1.8236366, 48.9724099], [1.8237104, 48.9724187], [1.8237492, 48.9724346], [1.8238042, 48.9724566], [1.8238324, 48.9725094], [1.8238311, 48.9725948], [1.8238606, 48.9726564], [1.8238445, 48.9727031], [1.8237761, 48.9727339], [1.8236554, 48.9727269], [1.8235414, 48.9726996], [1.8234234, 48.9727172], [1.823363, 48.9727867], [1.8233389, 48.9728431], [1.8233273, 48.972955], [1.8233067, 48.9731433], [1.8233375, 48.9732207], [1.8233858, 48.9733026], [1.8233939, 48.9734003], [1.8234582, 48.973461], [1.8235038, 48.9736591], [1.823587, 48.9737648], [1.8236567, 48.9738343], [1.8238096, 48.9739681], [1.823815, 48.9739928], [1.8237559, 48.9740121], [1.8237023, 48.974042], [1.8236339, 48.9740341], [1.8235427, 48.9740447], [1.8234971, 48.9740465], [1.8234301, 48.974057], [1.8233804, 48.974079], [1.8234314, 48.9741081], [1.8234797, 48.974116], [1.823591, 48.9741142], [1.8236366, 48.9741134], [1.8236339, 48.9741283], [1.8236232, 48.9741415], [1.8236554, 48.9741398], [1.8236835, 48.9741336], [1.8237063, 48.9741565], [1.8237559, 48.9741732], [1.8237908, 48.9741908], [1.8238096, 48.9742234], [1.8238552, 48.9742296], [1.8238901, 48.9742199], [1.8239652, 48.9741952], [1.8240818, 48.9741627], [1.824173, 48.974175], [1.824275, 48.9742348], [1.8243782, 48.974263], [1.8244882, 48.9743], [1.8245579, 48.9743246], [1.8246236, 48.9743581], [1.824692, 48.9743906], [1.8247966, 48.9744144], [1.8248624, 48.9744584], [1.824857, 48.9744813], [1.824798, 48.9745139], [1.8246706, 48.9745535], [1.8245848, 48.9745914], [1.8245727, 48.9746477], [1.8246156, 48.974675], [1.8246438, 48.974697], [1.8247229, 48.9747181], [1.8248396, 48.9747375], [1.8248972, 48.9747304], [1.8249361, 48.9747428], [1.8249455, 48.9747331], [1.8249321, 48.9747014], [1.8249696, 48.9746899], [1.8250246, 48.9747287], [1.8250689, 48.974741], [1.8251078, 48.974726], [1.8251708, 48.9747216], [1.8252043, 48.9747419], [1.8252768, 48.9748202], [1.8253398, 48.9749215], [1.8254256, 48.9749523], [1.8254712, 48.9749831], [1.8255651, 48.9749664], [1.825608, 48.9749787], [1.8256724, 48.9749901], [1.8258293, 48.9749813], [1.826009, 48.9750024], [1.8261525, 48.9750121], [1.826288, 48.9749936], [1.8265079, 48.9749294], [1.8266956, 48.9748264], [1.8268593, 48.9747419], [1.8270014, 48.9747357], [1.8272106, 48.9747577], [1.8272898, 48.9747472], [1.8274373, 48.9746741], [1.8276029, 48.9745024], [1.8275996, 48.9744496], [1.8275573, 48.9743845], [1.8276123, 48.9742753], [1.8276572, 48.9742185], [1.8276894, 48.9742216], [1.8277055, 48.9742428], [1.8277001, 48.9743053], [1.8277565, 48.9744162], [1.827853, 48.9745412], [1.8279308, 48.974682], [1.8279657, 48.9747524], [1.8277296, 48.9750764], [1.8278638, 48.9751116], [1.828022, 48.9751591], [1.8284163, 48.9752806], [1.8288267, 48.9753775], [1.8295884, 48.9756028], [1.8299317, 48.9756908], [1.8301356, 48.9757137], [1.8304414, 48.9758387], [1.8306157, 48.9759039], [1.8308544, 48.9759637], [1.8310261, 48.975969], [1.8311682, 48.9759637], [1.8313479, 48.9759655], [1.8316296, 48.9760377], [1.8317503, 48.9760817], [1.8317825, 48.976145], [1.8317771, 48.9762454], [1.8319648, 48.9762965], [1.8321526, 48.976344], [1.8322867, 48.9763616], [1.832343, 48.9763229], [1.8323565, 48.9762542], [1.832335, 48.9761803], [1.8324074, 48.9761028], [1.8324369, 48.9759391], [1.8324074, 48.9756292], [1.8323833, 48.9754514], [1.8324503, 48.9749003], [1.8325844, 48.9743017], [1.8325818, 48.9741327], [1.8326676, 48.9738422], [1.8327802, 48.9736979], [1.8327937, 48.9736063], [1.8328392, 48.9734619], [1.8326773, 48.9733248], [1.8325194, 48.9732877], [1.8324006, 48.9733816]]]}}, {"type": "Feature", "properties": {"name": "Étang de la Tour"}, "geometry": {"type": "Polygon", "coordinates": [[[1.8767222, 48.6608744], [1.8765821, 48.6609861], [1.8766561, 48.6611957], [1.8763689, 48.6615113], [1.8761159, 48.6616496], [1.8759741, 48.6618454], [1.8759023, 48.6617369], [1.8757139, 48.6616374], [1.8760942, 48.66084], [1.8762938, 48.6603211], [1.876937, 48.6598725], [1.8771676, 48.6597198], [1.8777411, 48.6596526], [1.8781418, 48.6594742], [1.8782416, 48.6593052], [1.8792823, 48.6586929], [1.8798047, 48.6585073], [1.8804224, 48.6583557], [1.8810532, 48.6582008], [1.8813122, 48.6580136], [1.8820296, 48.6574951], [1.8825031, 48.6571528], [1.8828727, 48.6568857], [1.8829634, 48.6566873], [1.8826986, 48.6564685], [1.8824014, 48.6564752], [1.88216, 48.6563953], [1.8818931, 48.6562489], [1.8824429, 48.6558472], [1.882559, 48.6544216], [1.8825696, 48.6542915], [1.8838831, 48.6542939], [1.884386, 48.6542948], [1.8851607, 48.6557514], [1.8852012, 48.6570077], [1.8849109, 48.6579957], [1.8848026, 48.6582995], [1.884563, 48.658626], [1.8842961, 48.6588341], [1.8839728, 48.6589141], [1.883266, 48.6590801], [1.8828705, 48.6590726], [1.8823735, 48.6590735], [1.8817024, 48.659164], [1.8811775, 48.6592547], [1.880434, 48.6594607], [1.880277, 48.6597055], [1.8803821, 48.6604062], [1.8800188, 48.6609375], [1.8795929, 48.6611075], [1.8795594, 48.6612156], [1.8795983, 48.6613226], [1.8795366, 48.6613858], [1.8795119, 48.6615148], [1.879406, 48.6615722], [1.8792909, 48.6615428], [1.8791799, 48.6615718], [1.8790621, 48.6615217], [1.878883, 48.6615568], [1.8787923, 48.6616055], [1.8785594, 48.6615687], [1.8785211, 48.6614005], [1.8786171, 48.6611922], [1.8790299, 48.6610372], [1.8790232, 48.6607633], [1.8790747, 48.6604357], [1.8789178, 48.6602764], [1.8786209, 48.660165], [1.8783559, 48.6602032], [1.8767222, 48.6608744]]]}}, {"type": "Feature", "properties": {"name": "Lac de Moisson-Lavacourt"}, "geometry": {"type": "Polygon", "coordinates": [[[1.6694867, 49.049672], [1.6692895, 49.0496369], [1.6665753, 49.0487937], [1.6660446, 49.0488045], [1.6657205, 49.0491569], [1.667846, 49.0504205], [1.6691106, 49.0510687], [1.6693376, 49.0510581], [1.6695483, 49.0512015], [1.669751, 49.0518125], [1.6698321, 49.0525669], [1.6701563, 49.0531194], [1.6708697, 49.0535126], [1.6728477, 49.054591], [1.67348, 49.0548407], [1.673997, 49.0551137], [1.6746473, 49.055457], [1.6753202, 49.0557226], [1.6756699, 49.055999], [1.6758309, 49.0561263], [1.6762767, 49.0563547], [1.6770469, 49.0567532], [1.6774927, 49.0568488], [1.6777521, 49.0570613], [1.6780196, 49.0571569], [1.6782385, 49.0573588], [1.678579, 49.0575128], [1.6790249, 49.0576297], [1.679495, 49.058044], [1.680103, 49.0583043], [1.6803462, 49.0583681], [1.6804354, 49.0585168], [1.6807759, 49.0586974], [1.6808407, 49.0588302], [1.6811731, 49.0590533], [1.6814001, 49.0593189], [1.6816919, 49.0594889], [1.6819047, 49.0595411], [1.6820709, 49.0596261], [1.682383, 49.0596846], [1.6825127, 49.0598386], [1.682691, 49.059982], [1.6828625, 49.0600736], [1.6829545, 49.0601228], [1.682918, 49.0601653], [1.6831896, 49.0603486], [1.683299, 49.0605265], [1.6834895, 49.0607602], [1.6836598, 49.060893], [1.6838219, 49.060978], [1.6838422, 49.0611321], [1.6840164, 49.0612755], [1.6840043, 49.0613286], [1.6841137, 49.0613923], [1.6842475, 49.0614348], [1.684361, 49.061565], [1.684515, 49.0617535], [1.6846366, 49.0618306], [1.6848288, 49.0619041], [1.6856823, 49.0619634], [1.6867808, 49.0620191], [1.6877576, 49.0620802], [1.6891276, 49.0621785], [1.6899018, 49.0621971], [1.6902806, 49.062177], [1.6905625, 49.0620005], [1.6907601, 49.0617966], [1.6907773, 49.0611427], [1.6907608, 49.0608084], [1.6906634, 49.0599348], [1.69053, 49.0596474], [1.6902585, 49.0592437], [1.6901733, 49.0589807], [1.6900031, 49.0587151], [1.6898531, 49.0583565], [1.6895654, 49.0578545], [1.6894818, 49.0577017], [1.6893131, 49.057417], [1.6891965, 49.0571985], [1.6890952, 49.0569807], [1.6888155, 49.0566327], [1.6887142, 49.0564149], [1.6886469, 49.0561958], [1.6883048, 49.0556685], [1.68809, 49.055456], [1.6875955, 49.0550018], [1.686643, 49.0544015], [1.6856377, 49.0538995], [1.6844704, 49.053347], [1.6837895, 49.0530255], [1.6829464, 49.0525076], [1.6826667, 49.0523694], [1.6824924, 49.0522154], [1.6824235, 49.0520639], [1.6824478, 49.0519656], [1.6825492, 49.05187], [1.6825492, 49.0517691], [1.6824316, 49.0517239], [1.6822573, 49.0517372], [1.6819371, 49.051777], [1.681625, 49.0517213], [1.6814743, 49.0516134], [1.6808225, 49.0513148], [1.6803482, 49.0511793], [1.679951, 49.0511103], [1.6796014, 49.0509713], [1.678881, 49.0507809], [1.6779811, 49.0506401], [1.6770854, 49.0504249], [1.6764075, 49.0502888], [1.6762261, 49.050308], [1.6760275, 49.050393], [1.6757659, 49.0504491], [1.6755451, 49.050393], [1.6751763, 49.0503054], [1.6746858, 49.05013], [1.6744994, 49.0501593], [1.6741913, 49.0500743], [1.6741467, 49.0500185], [1.6738697, 49.049984], [1.6734455, 49.0498724], [1.6731821, 49.0498219], [1.6731253, 49.0497581], [1.6728416, 49.0496519], [1.6726389, 49.0496067], [1.6723625, 49.0495532], [1.6719093, 49.0494633], [1.6713784, 49.0493251], [1.6711773, 49.0492838], [1.6709771, 49.0493464], [1.6706326, 49.0493889], [1.6703613, 49.0494223], [1.6698908, 49.0496253], [1.6697958, 49.0496502], [1.6697084, 49.0496731], [1.6694867, 49.049672]]]}}, {"type": "Feature", "properties": {"name": "Étang des Grésillons"}, "geometry": {"type": "Polygon", "coordinates": [[[2.0056598, 48.9507765], [2.0053353, 48.9507606], [2.0047747, 48.95081], [2.0047076, 48.9507871], [2.0045088, 48.9507728], [2.0043317, 48.9507869], [2.0042674, 48.9508327], [2.0043429, 48.9509174], [2.0044206, 48.9509385], [2.0044823, 48.9509843], [2.0045065, 48.9510231], [2.0044931, 48.951046], [2.0044341, 48.951053], [2.0043509, 48.9510513], [2.0042651, 48.9510442], [2.0041873, 48.951039], [2.0041471, 48.951053], [2.0041068, 48.9510936], [2.0041095, 48.9511499], [2.0040451, 48.9511992], [2.0039455, 48.9512484], [2.003962, 48.9512891], [2.0040156, 48.9513578], [2.0040237, 48.9514793], [2.0040505, 48.9515832], [2.004034, 48.9517662], [2.0040317, 48.9519091], [2.0040639, 48.952057], [2.0041632, 48.9521645], [2.0041524, 48.9522297], [2.004072, 48.9524005], [2.0040666, 48.952707], [2.0041041, 48.9528444], [2.0041792, 48.9529923], [2.0043241, 48.9531403], [2.0043858, 48.9531614], [2.0044341, 48.9532019], [2.0044877, 48.9532125], [2.0045601, 48.9532037], [2.0046647, 48.9532266], [2.0047211, 48.9532477], [2.0047184, 48.9532882], [2.0046352, 48.9533146], [2.0045253, 48.953327], [2.0044605, 48.9533814], [2.0043854, 48.9534959], [2.0043344, 48.9535804], [2.0042513, 48.9537636], [2.0042405, 48.9538939], [2.0041037, 48.954285], [2.0040639, 48.9547501], [2.0039723, 48.9553717], [2.0039647, 48.9557135], [2.0040022, 48.9559302], [2.0040371, 48.9560464], [2.0041283, 48.9562208], [2.0042275, 48.9568636], [2.0042597, 48.957156], [2.0042946, 48.9573427], [2.004308, 48.9574765], [2.0042222, 48.9580383], [2.0041095, 48.9584751], [2.0040992, 48.9586528], [2.0040988, 48.95866], [2.0041444, 48.958808], [2.0042678, 48.9589154], [2.0044072, 48.9589594], [2.0047797, 48.9590244], [2.0050103, 48.9590737], [2.005118, 48.9590774], [2.0053406, 48.9590105], [2.0053943, 48.9589805], [2.0056303, 48.9589471], [2.0059441, 48.9589224], [2.0061775, 48.9589577], [2.006317, 48.9589999], [2.0065419, 48.9590526], [2.0069258, 48.9591567], [2.0070278, 48.959176], [2.0071205, 48.9592372], [2.0075718, 48.9593661], [2.0077784, 48.9593995], [2.007942, 48.9594259], [2.0080094, 48.9594631], [2.0081462, 48.9595054], [2.0083041, 48.9595034], [2.0084462, 48.9594858], [2.0087198, 48.9594066], [2.0088057, 48.9593749], [2.0088624, 48.9593152], [2.0088785, 48.9592183], [2.0088114, 48.9588238], [2.0087926, 48.9587375], [2.0087417, 48.9586723], [2.008621, 48.9585966], [2.0085995, 48.9585455], [2.0086237, 48.9584645], [2.0086049, 48.9584029], [2.0085808, 48.9583236], [2.0085968, 48.9582673], [2.0086854, 48.958151], [2.0087605, 48.9580683], [2.0087953, 48.9580154], [2.0088409, 48.9579239], [2.008849, 48.9573796], [2.0087953, 48.9570521], [2.0088302, 48.9569446], [2.0088275, 48.9568566], [2.0087766, 48.9566417], [2.008747, 48.9565043], [2.0086934, 48.9564409], [2.0086639, 48.9563898], [2.0086478, 48.95633], [2.0086371, 48.9562895], [2.0086451, 48.9562313], [2.008688, 48.9561996], [2.0087605, 48.9561785], [2.008798, 48.9561626], [2.0088195, 48.9561151], [2.0088731, 48.9559495], [2.0089375, 48.9558685], [2.0089724, 48.9558051], [2.0089831, 48.9557118], [2.0089616, 48.9556642], [2.0089107, 48.9556396], [2.0088382, 48.9556308], [2.0087175, 48.9556184], [2.0086237, 48.9556114], [2.0085405, 48.9555902], [2.0085003, 48.9555691], [2.0084493, 48.955518], [2.008452, 48.9554652], [2.008562, 48.9554194], [2.0086398, 48.9553877], [2.008731, 48.9553683], [2.0088673, 48.9553734], [2.0089746, 48.9553787], [2.0090578, 48.9553629], [2.009149, 48.9553259], [2.009195, 48.9552838], [2.0091977, 48.9552591], [2.0092728, 48.955076], [2.0093586, 48.9549051], [2.0094712, 48.954699], [2.0095168, 48.954581], [2.0095571, 48.9544067], [2.0095678, 48.954301], [2.009549, 48.9542605], [2.0095034, 48.9542253], [2.0094686, 48.9541865], [2.0094605, 48.9541231], [2.0094981, 48.9540614], [2.0095544, 48.9540139], [2.0096908, 48.9539785], [2.0097739, 48.953938], [2.0098602, 48.953873], [2.0099326, 48.9537391], [2.0100426, 48.9534591], [2.0102813, 48.9529553], [2.0103188, 48.9528444], [2.0103027, 48.9527493], [2.010241, 48.9526541], [2.0101284, 48.9524569], [2.0100506, 48.9522437], [2.0099219, 48.9521486], [2.0095383, 48.9518774], [2.0092325, 48.9517418], [2.0091199, 48.9516819], [2.0087846, 48.9515339], [2.0085754, 48.951467], [2.0083206, 48.9514053], [2.007878, 48.9513613], [2.0076527, 48.9513613], [2.0075669, 48.9513331], [2.0074971, 48.9512679], [2.0074435, 48.951194], [2.0074006, 48.9511341], [2.0073255, 48.9511235], [2.0070438, 48.95112], [2.0067819, 48.9510916], [2.0067515, 48.9510883], [2.0065932, 48.9510724], [2.0064859, 48.951009], [2.0063867, 48.9509385], [2.0062848, 48.9509033], [2.0061614, 48.9508928], [2.0059867, 48.9508732], [2.0059334, 48.9509174], [2.0059146, 48.9509579], [2.0058851, 48.950972], [2.0058476, 48.9509474], [2.0058208, 48.950891], [2.005764, 48.950808], [2.0056598, 48.9507765]]]}}, {"type": "Feature", "properties": {"name": "Étang de Saint-Hubert"}, "geometry": {"type": "Polygon", "coordinates": [[[1.8576121, 48.7101151], [1.8575767, 48.7101322], [1.8575588, 48.7101165], [1.8575564, 48.7101143], [1.8575298, 48.7100903], [1.8575119, 48.7100736], [1.8575482, 48.7100561], [1.8556218, 48.7082767], [1.8549243, 48.708313], [1.8540587, 48.7085432], [1.8533611, 48.7087594], [1.8531061, 48.7087213], [1.8524223, 48.709438], [1.8510998, 48.7096926], [1.8500609, 48.7097487], [1.8494669, 48.7099294], [1.8481906, 48.7106369], [1.8469591, 48.7113718], [1.8466145, 48.7112266], [1.846087, 48.7113404], [1.8451152, 48.7118359], [1.8442166, 48.7120233], [1.8438445, 48.7125175], [1.8434286, 48.7125191], [1.8432153, 48.7127717], [1.8434411, 48.7131568], [1.8441661, 48.7141228], [1.8444717, 48.714516], [1.8448788, 48.7146168], [1.8454589, 48.7143754], [1.8456546, 48.7144477], [1.8464682, 48.7139531], [1.8477761, 48.7138086], [1.8502882, 48.713016], [1.8531519, 48.7122234], [1.8553538, 48.7113917], [1.8575746, 48.7110329], [1.8583067, 48.7107567], [1.8576121, 48.7101151]]]}}, {"type": "Feature", "properties": {"name": "Étang des Noës"}, "geometry": {"type": "Polygon", "coordinates": [[[1.9666885, 48.7544163], [1.9665494, 48.7538466], [1.9665192, 48.7537245], [1.9664912, 48.7536116], [1.9659518, 48.7512664], [1.9656918, 48.7510118], [1.9652732, 48.7509155], [1.9648179, 48.7509978], [1.9632611, 48.7513948], [1.9620567, 48.7515498], [1.9617777, 48.7519662], [1.9615721, 48.7525568], [1.9615133, 48.7527602], [1.9611315, 48.7527021], [1.9607055, 48.7527215], [1.9601768, 48.7527892], [1.9600686, 48.7530029], [1.9599617, 48.7534119], [1.9599911, 48.7535329], [1.9599177, 48.7537314], [1.9593816, 48.7537701], [1.9589851, 48.753683], [1.9587134, 48.7537217], [1.958493, 48.7538524], [1.9583168, 48.754172], [1.9583241, 48.7545109], [1.9584857, 48.7547142], [1.958493, 48.754903], [1.9586252, 48.7549708], [1.9588823, 48.7551838], [1.9577508, 48.755654], [1.9578365, 48.7557424], [1.9589552, 48.7553059], [1.9592437, 48.755299], [1.9595112, 48.7553301], [1.9603212, 48.7554807], [1.9604458, 48.7556793], [1.9607055, 48.7557477], [1.9610274, 48.755823], [1.9614117, 48.7557683], [1.9615051, 48.7555423], [1.9617828, 48.7553649], [1.9618323, 48.755265], [1.9619989, 48.7552278], [1.9621268, 48.7552834], [1.962339, 48.7556139], [1.9625031, 48.7558208], [1.9626632, 48.7559754], [1.9629723, 48.7560363], [1.9632379, 48.7560105], [1.963416, 48.7559292], [1.96355, 48.7557714], [1.9634954, 48.7556446], [1.9627861, 48.7550033], [1.9625258, 48.7549007], [1.9626978, 48.7548402], [1.9628292, 48.754862], [1.9630774, 48.755017], [1.9633241, 48.7551914], [1.9638084, 48.7555213], [1.9642365, 48.75566], [1.9648636, 48.7558481], [1.9653109, 48.7558486], [1.9656617, 48.7557881], [1.9659248, 48.7560414], [1.9664998, 48.7557638], [1.966595, 48.7557124], [1.9666438, 48.7556919], [1.9665314, 48.7555725], [1.9665722, 48.7554776], [1.9668772, 48.7551887], [1.9666885, 48.7544163]]]}}, {"type": "Feature", "properties": {"name": "Canaux du Château"}, "geometry": {"type": "Polygon", "coordinates": [[[1.8144123, 48.6459501], [1.8151178, 48.6465857], [1.8153518, 48.6467966], [1.8163832, 48.6477258], [1.8164979, 48.6478305], [1.8164563, 48.6478685], [1.8164196, 48.6479021], [1.8163309, 48.6479346], [1.8162539, 48.6479395], [1.8162303, 48.647959], [1.8161887, 48.6479522], [1.8161452, 48.6479453], [1.816147, 48.6479291], [1.8138436, 48.645876], [1.8079437, 48.6446825], [1.8078981, 48.6446465], [1.8078973, 48.6445948], [1.8134237, 48.6420194], [1.813355, 48.641957], [1.8134553, 48.6419062], [1.8134142, 48.6418555], [1.8133897, 48.6418125], [1.8133835, 48.6417415], [1.8133958, 48.6416843], [1.8134127, 48.6416506], [1.8134352, 48.6416182], [1.8134982, 48.6415674], [1.8135755, 48.6415305], [1.8136569, 48.6415084], [1.8137443, 48.6414991], [1.8138424, 48.641502], [1.8139455, 48.641523], [1.8140324, 48.6415684], [1.814084, 48.641612], [1.8141902, 48.6415638], [1.8142578, 48.641625], [1.8177115, 48.6399589], [1.8177914, 48.6399761], [1.8210588, 48.6424591], [1.8214876, 48.6422472], [1.8217544, 48.6424783], [1.8180942, 48.6442123], [1.8173925, 48.6445409], [1.81702, 48.6447154], [1.8170047, 48.6447024], [1.8168852, 48.6447604], [1.816899, 48.6447714], [1.8158111, 48.645286], [1.8144123, 48.6459501]]]}}, {"type": "Feature", "properties": {"name": "Étang de Pourras"}, "geometry": {"type": "Polygon", "coordinates": [[[1.8422849, 48.7127532], [1.8412449, 48.7132848], [1.8401903, 48.7137535], [1.839396, 48.7139874], [1.838437, 48.7144658], [1.836868, 48.7150447], [1.8368568, 48.7152651], [1.8364765, 48.7152536], [1.8367223, 48.7154659], [1.8366476, 48.7157124], [1.8358681, 48.71596], [1.8354592, 48.7159989], [1.8351133, 48.7159754], [1.8351777, 48.715848], [1.8350322, 48.7158031], [1.834733, 48.7158905], [1.8343469, 48.715794], [1.834042, 48.7159145], [1.8338379, 48.7159098], [1.8337794, 48.7160179], [1.8335395, 48.7159947], [1.8332459, 48.7161573], [1.8333882, 48.716273], [1.8332431, 48.7164951], [1.8331073, 48.7166281], [1.8332068, 48.716713], [1.8334233, 48.7166358], [1.8334901, 48.7167382], [1.8327914, 48.7169639], [1.8322019, 48.7173676], [1.8319664, 48.7174696], [1.8317273, 48.7173878], [1.8316085, 48.7175869], [1.8312943, 48.7176425], [1.8309936, 48.7177494], [1.8308992, 48.7177017], [1.830873, 48.7176004], [1.8307682, 48.7176078], [1.8307569, 48.7174966], [1.8306796, 48.7174263], [1.8305065, 48.7175119], [1.8305099, 48.7177196], [1.8305846, 48.7179398], [1.8308448, 48.7184843], [1.8311184, 48.7185418], [1.8313974, 48.7184905], [1.8314168, 48.7182878], [1.831232, 48.7181513], [1.8311605, 48.7179427], [1.8314259, 48.7178063], [1.8316823, 48.7178289], [1.8318096, 48.71774], [1.8319796, 48.7176983], [1.8320156, 48.7177622], [1.8318546, 48.717908], [1.8319781, 48.7179777], [1.832701, 48.7178096], [1.8329786, 48.7178479], [1.83316, 48.7177823], [1.8332857, 48.7179298], [1.8331262, 48.7181103], [1.8333481, 48.7182265], [1.8337918, 48.7180041], [1.8337628, 48.7178527], [1.8338731, 48.7177886], [1.8340961, 48.7178518], [1.8342964, 48.717787], [1.8342599, 48.7176047], [1.8347557, 48.7174135], [1.8353013, 48.7174387], [1.835913, 48.7172474], [1.8364319, 48.7172273], [1.8371007, 48.7170377], [1.8374902, 48.7170277], [1.8375501, 48.7169116], [1.8375163, 48.7168313], [1.83764, 48.7167708], [1.8379283, 48.7168152], [1.8383041, 48.7167351], [1.8387371, 48.716541], [1.8388569, 48.7163903], [1.839134, 48.7163483], [1.8395883, 48.7162221], [1.8404616, 48.716103], [1.8424734, 48.7155446], [1.8436363, 48.7151868], [1.8443157, 48.7148387], [1.8443522, 48.7147207], [1.8440639, 48.7143251], [1.8432366, 48.7132365], [1.8427251, 48.7128176], [1.8422849, 48.7127532]]]}}, {"type": "Feature", "properties": {"name": "Étang du Rouillard"}, "geometry": {"type": "Polygon", "coordinates": [[[1.9462338, 49.0039761], [1.9463856, 49.004121], [1.9471298, 49.0042968], [1.9479308, 49.0044023], [1.9490941, 49.0046811], [1.9499679, 49.0044644], [1.9504388, 49.0044295], [1.9508193, 49.0040941], [1.9512157, 49.0036896], [1.9526483, 49.0031838], [1.9534409, 49.0027822], [1.9535455, 49.0027953], [1.9536852, 49.0028129], [1.9539769, 49.0028362], [1.9545558, 49.0029879], [1.9548582, 49.0030394], [1.9549729, 49.0030346], [1.9550856, 49.0029158], [1.9551286, 49.0026855], [1.954977, 49.0023011], [1.9548284, 49.0022081], [1.9546426, 49.0021724], [1.9546328, 49.0021043], [1.9546538, 49.0020645], [1.9547049, 49.0020081], [1.9547105, 49.0018829], [1.9547118, 49.0018545], [1.9547125, 49.001838], [1.9547136, 49.0018143], [1.9548609, 49.0016124], [1.9549744, 49.0013951], [1.9550217, 49.0011655], [1.9549712, 49.0009607], [1.954841, 49.0007116], [1.9546307, 49.0005449], [1.9543973, 49.0004145], [1.9541405, 49.0003566], [1.9539147, 49.0004478], [1.9535669, 49.0004754], [1.9531177, 49.0005224], [1.9529274, 49.000632], [1.9526926, 49.0006258], [1.9525169, 49.0004863], [1.9523395, 49.0002195], [1.9520785, 49.0001688], [1.9518254, 49.0002375], [1.9513523, 49.0003107], [1.950001, 49.000513], [1.949354, 49.0006232], [1.9488683, 49.0006062], [1.9481369, 49.0007379], [1.9469596, 49.0007291], [1.9466162, 49.000691], [1.9457832, 49.0007806], [1.9457089, 49.0008587], [1.9457768, 49.0012645], [1.9459104, 49.0013813], [1.9463685, 49.0019072], [1.9467226, 49.0020097], [1.9468511, 49.0022471], [1.947085, 49.0023099], [1.9472622, 49.0024444], [1.9474973, 49.0025019], [1.947616, 49.0026013], [1.947589, 49.0029888], [1.9477111, 49.0030664], [1.9478432, 49.003047], [1.9479075, 49.0033849], [1.9477468, 49.0033989], [1.9469419, 49.0034693], [1.9462716, 49.0034314], [1.9462027, 49.0037238], [1.9462338, 49.0039761]]]}}, {"type": "Feature", "properties": {"name": "Étang de Saint-Quentin"}, "geometry": {"type": "MultiPolygon", "coordinates": [[[[2.0037902, 48.7821733], [2.0033886, 48.7821831], [2.0038257, 48.7836283], [2.0046952, 48.7838002], [2.004921, 48.7840191], [2.0049889, 48.7842614], [2.0049165, 48.7843706], [2.0047482, 48.78444], [2.0037902, 48.7821733]]], [[[2.0069301, 48.7845657], [2.0065533, 48.7843938], [2.0060573, 48.7839807], [2.0037902, 48.7821733], [2.0069301, 48.7845657]]], [[[2.0115754, 48.7855983], [2.0107075, 48.7857275], [2.0104404, 48.7858758], [2.0099205, 48.7864067], [2.0093016, 48.7861166], [2.0077421, 48.7850395], [2.0074249, 48.7850425], [2.0072267, 48.785231], [2.0069998, 48.7851904], [2.0072136, 48.7846951], [2.0069301, 48.7845657], [2.0115754, 48.7855983]]], [[[1.9981133, 48.7891515], [1.9982481, 48.7900105], [1.9991466, 48.7906683], [1.9994149, 48.7906924], [1.9995242, 48.7905199], [1.9998749, 48.7906159], [2.0000308, 48.7907367], [2.0000068, 48.7909909], [1.9998089, 48.7911785], [1.9992418, 48.791228], [1.9990414, 48.7909745], [1.9989435, 48.791009], [1.9990596, 48.7913345], [1.9994104, 48.791324], [1.9998021, 48.7916121], [1.9997565, 48.7918912], [2.0000985, 48.7918476], [2.0003623, 48.7914936], [2.0014714, 48.7914321], [2.0018523, 48.7915264], [2.0019055, 48.7911221], [2.0025349, 48.791072], [2.0027535, 48.7914291], [2.0029721, 48.7914186], [2.0032887, 48.7916451], [2.0035096, 48.7915581], [2.0033228, 48.7912812], [2.0036618, 48.7909983], [2.0045599, 48.7909629], [2.0054951, 48.791132], [2.0058446, 48.7909765], [2.006399, 48.7909193], [2.0064658, 48.7912742], [2.0067619, 48.7913476], [2.0067393, 48.7911247], [2.0074944, 48.7905775], [2.0076747, 48.7903443], [2.0083226, 48.7898955], [2.0087567, 48.7897371], [2.0090369, 48.7895331], [2.0093468, 48.7892472], [2.00959, 48.7892816], [2.0102338, 48.7890319], [2.011021, 48.7890342], [2.0113773, 48.7889186], [2.0129835, 48.788965], [2.0135878, 48.7892604], [2.0140687, 48.7892757], [2.0142321, 48.7892196], [2.0149003, 48.789449], [2.0149977, 48.7894214], [2.0153776, 48.7895999], [2.0155916, 48.7896672], [2.0157632, 48.7896875], [2.0158759, 48.7897272], [2.0159979, 48.7897467], [2.0162956, 48.7897564], [2.01671, 48.7898094], [2.0169072, 48.7897891], [2.0180258, 48.7896231], [2.018301, 48.7895814], [2.0183824, 48.7895514], [2.0184311, 48.7894827], [2.0188172, 48.7894567], [2.0188545, 48.7894701], [2.0191248, 48.7894616], [2.0196443, 48.7893823], [2.0197543, 48.7893623], [2.0198053, 48.7893305], [2.0198308, 48.7892174], [2.0198053, 48.7890681], [2.0198187, 48.7890443], [2.0198737, 48.7890319], [2.0199287, 48.789031], [2.0199475, 48.7890557], [2.0199662, 48.7891088], [2.0200132, 48.7894498], [2.0200588, 48.7894869], [2.0201688, 48.7894869], [2.0206408, 48.7894896], [2.0214605, 48.7894579], [2.021589, 48.7894153], [2.0216265, 48.7893623], [2.0215763, 48.7889268], [2.0217043, 48.7889233], [2.0217875, 48.7895092], [2.0219046, 48.7895498], [2.0222902, 48.7895237], [2.0224366, 48.7891958], [2.0225766, 48.789091], [2.02266, 48.7891064], [2.0228488, 48.7888716], [2.0233143, 48.7887892], [2.0239464, 48.7887218], [2.024104, 48.7887533], [2.0243003, 48.7887005], [2.0244421, 48.7886403], [2.0249289, 48.7885491], [2.025538, 48.7884948], [2.0270222, 48.7882319], [2.0281494, 48.7878821], [2.0282241, 48.7878052], [2.0284373, 48.7877781], [2.0293764, 48.7877519], [2.0297815, 48.7875858], [2.0307259, 48.7874868], [2.0320496, 48.7871036], [2.0321657, 48.78707], [2.032443, 48.786951], [2.0325093, 48.7867402], [2.0327072, 48.7866838], [2.0321213, 48.7857501], [2.0320855, 48.7857595], [2.0320568, 48.7857121], [2.0320328, 48.7856726], [2.0320685, 48.7856632], [2.0306229, 48.7834132], [2.0305728, 48.7833792], [2.0300405, 48.7835292], [2.0298944, 48.7835606], [2.0297174, 48.783572], [2.029582, 48.7836268], [2.029468, 48.7836489], [2.0291729, 48.7836684], [2.0288048, 48.7837141], [2.0285775, 48.7837117], [2.0285305, 48.7837064], [2.0284809, 48.783694], [2.0284621, 48.7837178], [2.0284219, 48.7837514], [2.0282315, 48.7837921], [2.0280826, 48.7838133], [2.028092, 48.7838725], [2.0280357, 48.7839202], [2.0279364, 48.7839441], [2.027797, 48.7839476], [2.0276615, 48.7839193], [2.0276079, 48.7838566], [2.0275998, 48.7838027], [2.0275824, 48.7837691], [2.0274831, 48.7838203], [2.0271398, 48.7838742], [2.0268729, 48.7839803], [2.0266624, 48.7840457], [2.0265739, 48.7841075], [2.0264491, 48.7841482], [2.0262587, 48.7841544], [2.0261353, 48.7841243], [2.0260522, 48.7841013], [2.0259932, 48.7841234], [2.0258577, 48.7841897], [2.0257571, 48.7842083], [2.0256713, 48.784256], [2.0255747, 48.7842666], [2.0253588, 48.7842586], [2.0251845, 48.7842259], [2.0250021, 48.7842542], [2.0248787, 48.7842383], [2.0247915, 48.7842684], [2.024754, 48.7842843], [2.0246896, 48.784271], [2.0246226, 48.7842312], [2.0246091, 48.7841111], [2.0245719, 48.7839628], [2.0244549, 48.7840209], [2.0244764, 48.7841013], [2.024526, 48.784271], [2.0245354, 48.7843514], [2.0244335, 48.7843965], [2.0239932, 48.7845185], [2.0233083, 48.784636], [2.0230937, 48.7846165], [2.022973, 48.7846315], [2.0223755, 48.7848453], [2.0221926, 48.7848054], [2.0220758, 48.7847296], [2.0219953, 48.7846863], [2.021644, 48.7847358], [2.0215008, 48.7846385], [2.0214106, 48.7846006], [2.0213489, 48.7846139], [2.0212886, 48.7847075], [2.0212416, 48.7847517], [2.0211615, 48.784756], [2.021098, 48.7847455], [2.0210324, 48.7847579], [2.0209533, 48.7847765], [2.0208326, 48.7847994], [2.0206824, 48.7848091], [2.0205952, 48.784856], [2.0206207, 48.784909], [2.0206757, 48.7849435], [2.0207132, 48.7850177], [2.0207266, 48.7850575], [2.0206864, 48.7851007], [2.0206341, 48.7851414], [2.0205764, 48.7852183], [2.0206046, 48.7852306], [2.0206395, 48.7852465], [2.0206851, 48.7852474], [2.0207508, 48.7852218], [2.0208527, 48.7851979], [2.0209399, 48.7851661], [2.0210338, 48.7851131], [2.0211115, 48.7851043], [2.0211706, 48.7851255], [2.0212027, 48.7851635], [2.0211598, 48.78519], [2.021137, 48.7852342], [2.0210445, 48.7852625], [2.0209385, 48.7852943], [2.0208232, 48.7853217], [2.0207763, 48.7853473], [2.020677, 48.7853826], [2.0205536, 48.7854242], [2.0204303, 48.7854648], [2.0203203, 48.7854772], [2.0203042, 48.7854542], [2.0203766, 48.7853959], [2.0204195, 48.7853393], [2.0204571, 48.7852951], [2.0204155, 48.7852837], [2.0203408, 48.7853049], [2.0200997, 48.7853003], [2.0198214, 48.7854153], [2.0197383, 48.7855055], [2.0197865, 48.7855355], [2.0198348, 48.7855479], [2.0197812, 48.785592], [2.0197114, 48.7856044], [2.0196494, 48.7855655], [2.0195232, 48.7856042], [2.0194942, 48.7855408], [2.0194539, 48.7855337], [2.0193547, 48.7855178], [2.0191266, 48.7855397], [2.0189432, 48.7855271], [2.0189624, 48.7856215], [2.0187143, 48.785641], [2.0185326, 48.7857496], [2.0180784, 48.7856548], [2.0180662, 48.7855559], [2.017612, 48.7855708], [2.0174466, 48.785505], [2.0174551, 48.7854405], [2.017359, 48.785412], [2.0171841, 48.7854622], [2.0170642, 48.7854084], [2.0169677, 48.785319], [2.0170052, 48.7852401], [2.0166907, 48.7852189], [2.0170784, 48.7855003], [2.0170034, 48.7856098], [2.0168266, 48.7856969], [2.0164133, 48.7856453], [2.0154076, 48.7857558], [2.0148196, 48.7860537], [2.014278, 48.7860791], [2.0138689, 48.7859383], [2.0138975, 48.78585], [2.0140941, 48.7857723], [2.0141245, 48.7856581], [2.0140549, 48.7855418], [2.0139828, 48.785494], [2.0137982, 48.7854386], [2.013758, 48.7853687], [2.0137818, 48.7852628], [2.0137543, 48.7851929], [2.0136465, 48.7851712], [2.0135366, 48.7852087], [2.0132279, 48.7853314], [2.012632, 48.7853687], [2.0120385, 48.7853782], [2.0115754, 48.7855983], [1.9981133, 48.7891515]]], [[[2.0047482, 48.78444], [2.0048113, 48.7846328], [2.0050733, 48.7847525], [2.0051055, 48.7851938], [2.0042089, 48.7858929], [2.0042955, 48.7861962], [2.0040329, 48.7862167], [2.0039756, 48.7863251], [2.0041439, 48.7863515], [2.0044193, 48.7865935], [2.0041906, 48.7870291], [2.0034242, 48.7870535], [2.0033694, 48.7874242], [2.0030556, 48.7876049], [2.0027317, 48.7875852], [2.0027191, 48.7873775], [2.0028935, 48.7871922], [2.0010778, 48.7872373], [2.0003973, 48.7873507], [2.0002305, 48.7876726], [2.0002318, 48.7877461], [2.0001782, 48.7878713], [1.9997204, 48.7878616], [1.9994483, 48.7879528], [1.9991604, 48.7885772], [1.999282, 48.788766], [1.9990191, 48.788882], [1.9988681, 48.7892285], [1.9986685, 48.7892863], [1.9981133, 48.7891515], [2.0047482, 48.78444]]]]}}, {"type": "Feature", "properties": {"name": "Grand Canal"}, "geometry": {"type": "MultiPolygon", "coordinates": [[[[2.107684, 48.807582], [2.1075993, 48.8076501], [2.1075321, 48.8077349], [2.1074886, 48.8078174], [2.1074675, 48.8079024], [2.1011732, 48.8095657], [2.1010249, 48.8093209], [2.1006604, 48.8094167], [2.1005775, 48.8093375], [2.1004741, 48.8092883], [2.100371, 48.8092628], [2.1002718, 48.8092543], [2.1001321, 48.8092673], [2.107684, 48.807582]]], [[[2.1082687, 48.8085502], [2.1083009, 48.8086067], [2.1086342, 48.8085194], [2.1085633, 48.8083999], [2.1085753, 48.8083907], [2.108615, 48.8083803], [2.1086288, 48.8083834], [2.1087003, 48.8085032], [2.1090378, 48.8084206], [2.1090056, 48.8083665], [2.1090816, 48.8083025], [2.1091469, 48.8082248], [2.1091879, 48.8081649], [2.1092173, 48.8080887], [2.109228, 48.8080381], [2.1093257, 48.8080143], [2.1091684, 48.8077507], [2.1090144, 48.8074927], [2.1089144, 48.8075208], [2.1088003, 48.8074649], [2.1086806, 48.8074243], [2.1085463, 48.8073968], [2.1084169, 48.8073854], [2.1083848, 48.8073289], [2.1076518, 48.8075234], [2.107684, 48.807582], [2.1082687, 48.8085502]]], [[[2.1010388, 48.8107745], [2.1010898, 48.8107573], [2.1011384, 48.8107353], [2.1012139, 48.8106763], [2.1012562, 48.8106226], [2.1012801, 48.8105693], [2.1012853, 48.8104994], [2.1012654, 48.8104333], [2.1016393, 48.8103351], [2.1014897, 48.8100882], [2.1077786, 48.8084194], [2.1078859, 48.8084734], [2.1080111, 48.808514], [2.1081381, 48.8085391], [2.1082687, 48.8085502], [2.1010388, 48.8107745]]], [[[2.1025037, 48.8141042], [2.1025671, 48.8140803], [2.1026477, 48.8140295], [2.1026826, 48.8139959], [2.102706, 48.8139554], [2.1027224, 48.8139154], [2.102732, 48.813874], [2.102724, 48.8138284], [2.1027088, 48.8137853], [2.1028327, 48.8137547], [2.1010388, 48.8107745], [2.1025037, 48.8141042]]], [[[2.1000517, 48.8110341], [2.1018477, 48.8140122], [2.1019714, 48.8139798], [2.1020221, 48.814037], [2.1020885, 48.8140776], [2.1021227, 48.8140924], [2.1021654, 48.8141069], [2.1022535, 48.8141259], [2.1023655, 48.8141295], [2.1023977, 48.8141253], [2.1000517, 48.8110341]]], [[[2.0991532, 48.8095362], [2.0990535, 48.8095758], [2.0989814, 48.8096284], [2.0989366, 48.8096874], [2.0989112, 48.8097464], [2.0989097, 48.8098034], [2.0989234, 48.8098731], [2.0985487, 48.8099715], [2.0986992, 48.81022], [2.0924703, 48.8118669], [2.0923762, 48.8117024], [2.0914893, 48.8116676], [2.0912425, 48.8117371], [2.0911439, 48.8115709], [2.0886861, 48.8122217], [2.0887839, 48.8123845], [2.0886302, 48.812431], [2.0884972, 48.8124952], [2.0883883, 48.8125647], [2.0883008, 48.8126385], [2.088218, 48.8127289], [2.0881658, 48.8128192], [2.088127, 48.8129177], [2.0881127, 48.8130184], [2.0878665, 48.8130811], [2.0881764, 48.8136004], [2.0884241, 48.8135352], [2.0885271, 48.8135972], [2.0886446, 48.8136482], [2.0887691, 48.8136877], [2.088902, 48.8137142], [2.0890632, 48.8137358], [2.0892347, 48.8137379], [2.0894037, 48.8137231], [2.089576, 48.8136884], [2.0896711, 48.8138516], [2.0921328, 48.8132], [2.092032, 48.8130347], [2.0922892, 48.8129708], [2.0928814, 48.812548], [2.0927818, 48.8123816], [2.0990147, 48.8107407], [2.0991631, 48.8109857], [2.0995331, 48.8108885], [2.0996011, 48.810953], [2.0996799, 48.8109994], [2.0997638, 48.8110297], [2.0998608, 48.8110469], [2.0999475, 48.8110484], [2.1000517, 48.8110341], [2.0991532, 48.8095362]]], [[[2.1001321, 48.8092673], [2.0977455, 48.805278], [2.0976275, 48.8053063], [2.0975688, 48.8052471], [2.0974987, 48.8052003], [2.097415, 48.8051645], [2.0973163, 48.8051456], [2.0972059, 48.8051419], [2.097105, 48.8051618], [2.0970028, 48.8051989], [2.0969303, 48.8052519], [2.0968849, 48.8053091], [2.0968599, 48.8053719], [2.096855, 48.8054389], [2.0968769, 48.805506], [2.096753, 48.8055371], [2.0991532, 48.8095362], [2.1001321, 48.8092673]]]]}}]}