{"type": "FeatureCollection", "features": [{"type": "Feature", "properties": {"name": "Étang de la Madoire"}, "geometry": {"type": "Polygon", "coordinates": [[[-0.4251625, 46.8420073], [-0.4251216, 46.8419796], [-0.4250786, 46.8419341], [-0.4250468, 46.8419085], [-0.4250109, 46.8418908], [-0.4249468, 46.8418296], [-0.4249376, 46.8418267], [-0.424915, 46.8418265], [-0.4248566, 46.8418108], [-0.4248391, 46.8418012], [-0.4248218, 46.8417706], [-0.424811, 46.8417367], [-0.4245754, 46.841613], [-0.4245274, 46.8415576], [-0.4244677, 46.841473], [-0.4244535, 46.841416], [-0.424293, 46.8410828], [-0.424222, 46.8410202], [-0.4241869, 46.8409079], [-0.4241461, 46.8408383], [-0.4241433, 46.8407842], [-0.4241803, 46.8406019], [-0.4241245, 46.8404839], [-0.4240934, 46.8404048], [-0.424086, 46.84035], [-0.4240899, 46.8403143], [-0.4240817, 46.8402207], [-0.4241216, 46.8400516], [-0.4242002, 46.8399326], [-0.4242872, 46.8398685], [-0.4243019, 46.8398457], [-0.4242642, 46.8397932], [-0.4242565, 46.8397747], [-0.4242692, 46.8397589], [-0.4242651, 46.8397451], [-0.4242219, 46.839695], [-0.4242068, 46.8396651], [-0.4242043, 46.8396171], [-0.4242534, 46.8395834], [-0.4243808, 46.8395121], [-0.4244142, 46.8395036], [-0.4244482, 46.8395051], [-0.4244694, 46.8394782], [-0.4244956, 46.8394388], [-0.4246208, 46.8393467], [-0.4246704, 46.8393013], [-0.4248059, 46.8392337], [-0.4248814, 46.8391645], [-0.4249206, 46.8391364], [-0.4249816, 46.8391148], [-0.4250408, 46.8391025], [-0.4251298, 46.8390988], [-0.4251531, 46.8390897], [-0.4251918, 46.8390508], [-0.4252295, 46.8389724], [-0.4252947, 46.8389662], [-0.4268996, 46.8389236], [-0.4275248, 46.838893], [-0.4279741, 46.8388899], [-0.4281692, 46.8389061], [-0.428264, 46.8389271], [-0.4284563, 46.8389782], [-0.4287161, 46.8390673], [-0.4290219, 46.8391273], [-0.4291906, 46.8391356], [-0.4292898, 46.8391325], [-0.4294478, 46.8391085], [-0.4295365, 46.8390754], [-0.4296035, 46.8390396], [-0.4297118, 46.8389494], [-0.4299322, 46.8386659], [-0.4299767, 46.8386315], [-0.4300308, 46.8386077], [-0.430279, 46.8385591], [-0.4304534, 46.8385456], [-0.4306349, 46.838518], [-0.4306958, 46.838494], [-0.430798, 46.8384396], [-0.4308279, 46.8384056], [-0.430951, 46.8383173], [-0.4310343, 46.8382464], [-0.4310726, 46.8382214], [-0.4311793, 46.8381886], [-0.4312281, 46.8381928], [-0.431333, 46.8382353], [-0.4313662, 46.8382647], [-0.4314196, 46.8382936], [-0.4314991, 46.838325], [-0.4316374, 46.8383565], [-0.4316941, 46.8383614], [-0.4318576, 46.8383566], [-0.4319394, 46.8383446], [-0.4319962, 46.8383277], [-0.432032, 46.8383005], [-0.4321815, 46.8382868], [-0.4322128, 46.8382806], [-0.4322593, 46.8382625], [-0.4323402, 46.8381869], [-0.4323795, 46.8381619], [-0.4326449, 46.8381167], [-0.4329483, 46.8380877], [-0.4330611, 46.8380408], [-0.4330937, 46.8380168], [-0.433118, 46.8379844], [-0.4333151, 46.8379742], [-0.4334283, 46.8379567], [-0.4334523, 46.8379399], [-0.4334811, 46.8379291], [-0.4335442, 46.8379268], [-0.4336148, 46.8379375], [-0.4336701, 46.8379369], [-0.4337117, 46.8379328], [-0.433786, 46.8379062], [-0.4338733, 46.8378925], [-0.4340165, 46.8378882], [-0.4340981, 46.8378932], [-0.4341232, 46.8378981], [-0.4341725, 46.8378899], [-0.4342097, 46.837889], [-0.4342701, 46.8378999], [-0.4344727, 46.8379516], [-0.434504, 46.837947], [-0.434552, 46.8379133], [-0.434597, 46.8378874], [-0.4347004, 46.8378353], [-0.4347113, 46.8379148], [-0.4347023, 46.8379592], [-0.4346672, 46.8379794], [-0.43467, 46.8380119], [-0.4346871, 46.8380363], [-0.4347996, 46.8380723], [-0.4348438, 46.8380968], [-0.4348665, 46.8381226], [-0.4349043, 46.8381752], [-0.4348996, 46.8382606], [-0.4348898, 46.8382895], [-0.4348919, 46.838353], [-0.434883, 46.8383989], [-0.4348494, 46.8384927], [-0.434798, 46.8385901], [-0.4347272, 46.8386638], [-0.4346994, 46.838804], [-0.4346826, 46.8388277], [-0.4345397, 46.8388823], [-0.4344892, 46.8389114], [-0.4343901, 46.8389386], [-0.4343656, 46.8389663], [-0.4343488, 46.8390357], [-0.4343237, 46.8390518], [-0.4342778, 46.8390599], [-0.4342591, 46.8390487], [-0.4342382, 46.8390593], [-0.4342144, 46.8391234], [-0.4341753, 46.8391964], [-0.4341798, 46.8392847], [-0.4342219, 46.8393348], [-0.4342337, 46.8394105], [-0.4342772, 46.8394869], [-0.4342664, 46.8395189], [-0.4342485, 46.8395442], [-0.4342443, 46.8395729], [-0.4342068, 46.8396785], [-0.4342168, 46.8397193], [-0.4342157, 46.8397635], [-0.434199, 46.8397902], [-0.4342108, 46.839821], [-0.4342374, 46.8398335], [-0.4342944, 46.8398437], [-0.4346398, 46.83984], [-0.4346795, 46.8398437], [-0.4348307, 46.8398408], [-0.4351684, 46.839842], [-0.435375, 46.83984], [-0.4355965, 46.839844], [-0.4356934, 46.8397076], [-0.4359206, 46.8396447], [-0.436372, 46.8394625], [-0.4368336, 46.8392816], [-0.43701, 46.8394393], [-0.4370703, 46.8395355], [-0.437083, 46.839584], [-0.437017, 46.8398599], [-0.436894, 46.8399056], [-0.4367466, 46.8399827], [-0.436704, 46.83999], [-0.4366252, 46.8399725], [-0.4365614, 46.8399834], [-0.4364212, 46.8400456], [-0.4363899, 46.8400743], [-0.4363309, 46.8401571], [-0.4362674, 46.8402168], [-0.4361343, 46.8403091], [-0.4360959, 46.8403302], [-0.435952, 46.8403864], [-0.4350112, 46.8406936], [-0.4346043, 46.8408197], [-0.4344637, 46.8408533], [-0.4342828, 46.8409367], [-0.4342207, 46.8409591], [-0.4340893, 46.841039], [-0.4339461, 46.8411099], [-0.4338729, 46.8411365], [-0.4337631, 46.8411973], [-0.4336656, 46.8412345], [-0.433561, 46.8412866], [-0.4335062, 46.8412965], [-0.4333899, 46.8412978], [-0.4333229, 46.8413126], [-0.4331884, 46.8413546], [-0.4330364, 46.8414078], [-0.4329812, 46.8414309], [-0.4329235, 46.8414524], [-0.432856, 46.8414564], [-0.4327405, 46.8414731], [-0.4326742, 46.8414786], [-0.4325731, 46.8414903], [-0.4324816, 46.8414902], [-0.4321973, 46.8414305], [-0.4320266, 46.8413819], [-0.4319686, 46.8413748], [-0.4318655, 46.841368], [-0.4316261, 46.8413257], [-0.4315115, 46.8413145], [-0.4313595, 46.8413236], [-0.4312948, 46.8413391], [-0.4312037, 46.8413692], [-0.4310648, 46.8414361], [-0.4309682, 46.8414896], [-0.4309311, 46.8415153], [-0.4308578, 46.8416054], [-0.4308043, 46.8416842], [-0.4308012, 46.8417347], [-0.4307869, 46.8417862], [-0.4307697, 46.8418246], [-0.430743, 46.8418547], [-0.4306589, 46.8418877], [-0.4306026, 46.8419146], [-0.4302612, 46.8421275], [-0.4292473, 46.8423729], [-0.4291512, 46.8423961], [-0.4286942, 46.8424916], [-0.4285192, 46.8424268], [-0.4283867, 46.8423975], [-0.4283507, 46.8423782], [-0.4280808, 46.8423151], [-0.4280228, 46.8422976], [-0.4276959, 46.8421828], [-0.4273235, 46.8421712], [-0.4271359, 46.8421472], [-0.4268727, 46.8420342], [-0.4268131, 46.8420178], [-0.4267135, 46.8420124], [-0.4262136, 46.8420222], [-0.4260467, 46.842027], [-0.4258746, 46.8420397], [-0.4257945, 46.8420641], [-0.425582, 46.8420824], [-0.4255027, 46.8420773], [-0.4254334, 46.8420247], [-0.4253733, 46.84202], [-0.425286, 46.8419926], [-0.4252496, 46.8419881], [-0.4252036, 46.8419939], [-0.4251625, 46.8420073]]]}}, {"type": "Feature", "properties": {"name": "Étang des Châteliers"}, "geometry": {"type": "Polygon", "coordinates": [[[-0.1347956, 46.4917958], [-0.1347956, 46.4915892], [-0.1348049, 46.4911965], [-0.1348101, 46.4909765], [-0.1348897, 46.4906266], [-0.1352182, 46.4904797], [-0.1355634, 46.4904602], [-0.1360405, 46.4902479], [-0.1366962, 46.4902437], [-0.1386112, 46.4891153], [-0.1391036, 46.488527], [-0.1402497, 46.4881257], [-0.1404244, 46.4875789], [-0.1408884, 46.4871412], [-0.1415393, 46.4868546], [-0.142369, 46.4862695], [-0.1434258, 46.4861901], [-0.1444389, 46.4857346], [-0.145043, 46.4855095], [-0.1445634, 46.4858946], [-0.1441231, 46.4863397], [-0.1428491, 46.486613], [-0.1422268, 46.4872465], [-0.1422262, 46.4876145], [-0.1423046, 46.487782], [-0.1420337, 46.4878226], [-0.1419061, 46.4881803], [-0.1410421, 46.4890176], [-0.1399469, 46.4902049], [-0.1392978, 46.4904043], [-0.1394098, 46.4906508], [-0.1399577, 46.4909952], [-0.1406684, 46.4911651], [-0.1416197, 46.4909814], [-0.143596, 46.4910377], [-0.1441575, 46.4908653], [-0.144791, 46.490757], [-0.145416, 46.4908752], [-0.1457164, 46.4909638], [-0.1454106, 46.4910321], [-0.1452899, 46.49113], [-0.1449063, 46.490986], [-0.1444415, 46.49128], [-0.1435136, 46.491561], [-0.141726, 46.4920131], [-0.1400598, 46.4922378], [-0.1376851, 46.4917142], [-0.1365606, 46.4919387], [-0.1351763, 46.4922714], [-0.1347671, 46.4922844], [-0.1347956, 46.4917958]]]}}, {"type": "Feature", "properties": {"name": "Étang de Beaurepaire"}, "geometry": {"type": "Polygon", "coordinates": [[[-0.4780612, 47.0701533], [-0.478601, 47.0701555], [-0.4788815, 47.0701416], [-0.4790461, 47.0700895], [-0.4791937, 47.0699999], [-0.4793571, 47.0698415], [-0.4794585, 47.0696771], [-0.4796411, 47.0694229], [-0.4797345, 47.069359], [-0.4798748, 47.0692934], [-0.4803963, 47.069128], [-0.4805265, 47.0690228], [-0.480679, 47.0689604], [-0.4808918, 47.0688618], [-0.4809938, 47.0687748], [-0.4810795, 47.0686674], [-0.4814182, 47.0683249], [-0.4816019, 47.0680532], [-0.48167, 47.0678821], [-0.4816723, 47.0676849], [-0.48168, 47.0676032], [-0.4817626, 47.0675333], [-0.4819358, 47.0674942], [-0.4822952, 47.0674861], [-0.4824415, 47.0674626], [-0.4825543, 47.0673906], [-0.4826445, 47.0671869], [-0.4827311, 47.0671553], [-0.4829279, 47.0666445], [-0.482996, 47.0666071], [-0.4830952, 47.0665945], [-0.4833415, 47.0665922], [-0.4835111, 47.0665689], [-0.4835966, 47.0665247], [-0.4837229, 47.0664056], [-0.4841006, 47.0660545], [-0.4841887, 47.0659153], [-0.4842625, 47.0656986], [-0.4843291, 47.0654561], [-0.4844405, 47.0649683], [-0.4844645, 47.0646612], [-0.484532, 47.0641982], [-0.4845014, 47.0639836], [-0.4844004, 47.0637594], [-0.484223, 47.0635622], [-0.4838245, 47.063398], [-0.4836772, 47.0633569], [-0.4835939, 47.0632966], [-0.4835617, 47.0632261], [-0.483624, 47.063101], [-0.4836737, 47.0629792], [-0.4836637, 47.0628676], [-0.4835747, 47.0626641], [-0.4833701, 47.0623994], [-0.4832786, 47.0622444], [-0.4832711, 47.0620633], [-0.4833036, 47.0618686], [-0.4833445, 47.0616688], [-0.4833418, 47.0614585], [-0.4833068, 47.0612732], [-0.4832309, 47.0610445], [-0.4830199, 47.0606792], [-0.4828401, 47.0600561], [-0.4827838, 47.0596445], [-0.4826738, 47.0592187], [-0.4819657, 47.0582978], [-0.4823681, 47.0575982], [-0.4826775, 47.057677], [-0.4830826, 47.0579257], [-0.4833665, 47.0582539], [-0.4835448, 47.0587426], [-0.4836958, 47.0589354], [-0.4840556, 47.0598381], [-0.4844603, 47.0605384], [-0.4847763, 47.0608247], [-0.4851857, 47.0610336], [-0.485804, 47.0613526], [-0.4861534, 47.0617351], [-0.4863862, 47.0623444], [-0.486416, 47.0627175], [-0.4867729, 47.063487], [-0.4870482, 47.064591], [-0.4869782, 47.0649964], [-0.4871389, 47.0651982], [-0.4871679, 47.0653495], [-0.4869887, 47.0655307], [-0.4862234, 47.0661516], [-0.4860398, 47.0662367], [-0.4856611, 47.0663128], [-0.4855087, 47.0664182], [-0.4854459, 47.0665411], [-0.4854566, 47.066716], [-0.4851398, 47.0670061], [-0.4847702, 47.0671302], [-0.4844398, 47.0674063], [-0.4842277, 47.0677228], [-0.4833335, 47.0683594], [-0.483078, 47.0686096], [-0.4825236, 47.0696986], [-0.4825488, 47.0699035], [-0.4825493, 47.070093], [-0.4822446, 47.0704894], [-0.4819824, 47.0707232], [-0.4818602, 47.0710794], [-0.4817275, 47.0711369], [-0.4810775, 47.0712623], [-0.4802874, 47.0716452], [-0.4800845, 47.0718346], [-0.4797903, 47.0720164], [-0.4795475, 47.0724274], [-0.4784081, 47.072892], [-0.4780836, 47.072993], [-0.4778197, 47.0730845], [-0.4776388, 47.0733889], [-0.4775464, 47.0734545], [-0.4774494, 47.0734709], [-0.4772465, 47.0734133], [-0.4764326, 47.0730589], [-0.4760931, 47.0729396], [-0.4755631, 47.072867], [-0.4754282, 47.07288], [-0.4752965, 47.0729626], [-0.4751203, 47.0735926], [-0.4749746, 47.0736744], [-0.4748407, 47.0736494], [-0.4746865, 47.0735283], [-0.4741491, 47.073308], [-0.4735719, 47.0730847], [-0.4729243, 47.0730638], [-0.4725724, 47.073088], [-0.4725052, 47.0728971], [-0.4723768, 47.0725727], [-0.472363, 47.0725367], [-0.4721504, 47.0721946], [-0.472449, 47.0719521], [-0.4726443, 47.0718619], [-0.4730343, 47.0717307], [-0.4731431, 47.0717173], [-0.4733181, 47.0717456], [-0.4735238, 47.0717794], [-0.4737417, 47.0717743], [-0.4739247, 47.0717498], [-0.4740943, 47.0717147], [-0.4743492, 47.0716267], [-0.4744334, 47.0715989], [-0.4745411, 47.0715739], [-0.4746513, 47.0715765], [-0.4747993, 47.0715912], [-0.4750053, 47.0716038], [-0.4752084, 47.0715844], [-0.4754146, 47.0715471], [-0.4756795, 47.0714754], [-0.4759648, 47.0713629], [-0.476083, 47.0713478], [-0.476216, 47.0713625], [-0.476364, 47.0713998], [-0.4765735, 47.0714893], [-0.4767334, 47.0715956], [-0.4768343, 47.0716363], [-0.4769793, 47.0716479], [-0.4771356, 47.0716377], [-0.4772603, 47.0716173], [-0.4774274, 47.0715453], [-0.4776644, 47.0713843], [-0.4779121, 47.0711869], [-0.4781342, 47.0709733], [-0.47823, 47.0708606], [-0.4782646, 47.0707883], [-0.4782433, 47.0707223], [-0.4781609, 47.0706006], [-0.4779873, 47.0702963], [-0.477967, 47.0702424], [-0.4779886, 47.0701937], [-0.4780612, 47.0701533]]]}}, {"type": "Feature", "properties": {"name": "Étang Neuf"}, "geometry": {"type": "Polygon", "coordinates": [[[-0.4306892, 47.066686], [-0.4305007, 47.0667986], [-0.429584, 47.0670146], [-0.4290613, 47.0669299], [-0.428233, 47.0669849], [-0.427731, 47.0668688], [-0.4272564, 47.066738], [-0.4265058, 47.0665311], [-0.4267662, 47.0662422], [-0.4267096, 47.0659686], [-0.4264199, 47.0657797], [-0.4258946, 47.0655173], [-0.42575, 47.0652382], [-0.4256502, 47.0650456], [-0.4249067, 47.0644576], [-0.4248804, 47.0639975], [-0.4245631, 47.0631428], [-0.4246557, 47.0627491], [-0.4249073, 47.0624711], [-0.4256549, 47.062109], [-0.4261151, 47.0617185], [-0.4261029, 47.0610863], [-0.4259856, 47.0605984], [-0.4263923, 47.0603232], [-0.4268417, 47.0602813], [-0.4266822, 47.0606298], [-0.4265469, 47.061043], [-0.4267077, 47.0615078], [-0.4271361, 47.0619937], [-0.427741, 47.062227], [-0.4279342, 47.0625229], [-0.4278726, 47.062723], [-0.4277471, 47.0628488], [-0.427442, 47.063086], [-0.4277502, 47.0636707], [-0.4285849, 47.0645719], [-0.4288027, 47.0650048], [-0.4298577, 47.0652048], [-0.4305671, 47.0648876], [-0.4316568, 47.0648268], [-0.4322094, 47.0646824], [-0.4323296, 47.0648674], [-0.4325508, 47.0650943], [-0.4326409, 47.0652612], [-0.4325278, 47.0654609], [-0.43193, 47.065703], [-0.4313313, 47.0660044], [-0.4309234, 47.0665499], [-0.4306892, 47.066686]]]}}, {"type": "Feature", "properties": {"name": "Lac du Cébron"}, "geometry": {"type": "Polygon", "coordinates": [[[-0.2184065, 46.7666782], [-0.2179033, 46.7669221], [-0.2173358, 46.7670941], [-0.2167251, 46.7675153], [-0.2166286, 46.7681478], [-0.2163971, 46.768359], [-0.2159458, 46.7684772], [-0.2157565, 46.768942], [-0.2155747, 46.7689481], [-0.2152241, 46.7695265], [-0.2140054, 46.7691657], [-0.2129265, 46.7690772], [-0.212648, 46.7688512], [-0.2126237, 46.7687715], [-0.2125633, 46.768661], [-0.2124382, 46.7685194], [-0.2122729, 46.7682409], [-0.2120681, 46.7680931], [-0.2117515, 46.7679264], [-0.2112893, 46.7677731], [-0.2109329, 46.7677616], [-0.2103453, 46.7678613], [-0.2101599, 46.7677917], [-0.2093229, 46.767828], [-0.2089956, 46.7677367], [-0.2081671, 46.7676137], [-0.2077568, 46.7676645], [-0.207409, 46.7677334], [-0.2071846, 46.7676834], [-0.20697, 46.7676983], [-0.2067718, 46.7678308], [-0.2065928, 46.7680538], [-0.2061498, 46.7683959], [-0.2060613, 46.7687498], [-0.2060056, 46.7688283], [-0.205804, 46.7688325], [-0.2056256, 46.7687139], [-0.2054498, 46.7687086], [-0.2053042, 46.7687896], [-0.2049973, 46.7688697], [-0.2046749, 46.768895], [-0.2042782, 46.7689619], [-0.2039587, 46.768966], [-0.2036383, 46.7689455], [-0.2031225, 46.7689854], [-0.2027879, 46.7690203], [-0.2020821, 46.7691078], [-0.2018967, 46.7692621], [-0.2017222, 46.7694812], [-0.2015698, 46.7698178], [-0.2015085, 46.7701142], [-0.2015472, 46.7705314], [-0.2015961, 46.7707063], [-0.2016795, 46.7708868], [-0.2016597, 46.7710235], [-0.2017474, 46.7711687], [-0.2019782, 46.7712966], [-0.2019954, 46.7713883], [-0.201925, 46.7714457], [-0.2015855, 46.7714561], [-0.2013545, 46.771517], [-0.2010184, 46.7718591], [-0.2008151, 46.7719578], [-0.2006474, 46.7721312], [-0.2002679, 46.7724086], [-0.1999567, 46.7725626], [-0.1995778, 46.7727114], [-0.1993359, 46.7727228], [-0.1990162, 46.772709], [-0.198743, 46.7726505], [-0.1981435, 46.7724729], [-0.197845, 46.7724034], [-0.197488, 46.772394], [-0.1972303, 46.7724689], [-0.1969111, 46.7726113], [-0.1966462, 46.7728654], [-0.1963888, 46.77317], [-0.196363, 46.7734056], [-0.1964635, 46.7735629], [-0.1966804, 46.773746], [-0.1969108, 46.7738911], [-0.1970106, 46.7741611], [-0.1970434, 46.7743728], [-0.1970188, 46.7744984], [-0.1970055, 46.7746933], [-0.196936, 46.7749108], [-0.1968873, 46.7751167], [-0.1969693, 46.7752777], [-0.1969971, 46.7753976], [-0.197083, 46.7755251], [-0.197218, 46.7755486], [-0.1974015, 46.7756142], [-0.1975762, 46.7757429], [-0.1977583, 46.7759545], [-0.1978174, 46.7760855], [-0.1978918, 46.7761901], [-0.1980044, 46.7762761], [-0.198088, 46.7765224], [-0.1980399, 46.7765699], [-0.197922, 46.7766863], [-0.1977712, 46.7766853], [-0.1975717, 46.7765694], [-0.1975233, 46.7764376], [-0.1974465, 46.7763881], [-0.1971889, 46.7762661], [-0.1970645, 46.776215], [-0.1969465, 46.7761928], [-0.1967144, 46.7761752], [-0.1965915, 46.7761385], [-0.1964543, 46.7761192], [-0.1962237, 46.7759664], [-0.1961173, 46.7758717], [-0.1958168, 46.7756512], [-0.195714, 46.775484], [-0.1956939, 46.77546], [-0.1956581, 46.775426], [-0.1956695, 46.7752564], [-0.1956168, 46.7752312], [-0.1955891, 46.7752507], [-0.195576, 46.7753279], [-0.1955458, 46.7753776], [-0.1954877, 46.7753438], [-0.1954204, 46.7752243], [-0.1954353, 46.77515], [-0.1954775, 46.7751342], [-0.1955336, 46.7750793], [-0.1955344, 46.7750024], [-0.1955016, 46.7749638], [-0.1954102, 46.7749471], [-0.1954131, 46.7748203], [-0.1954763, 46.7747365], [-0.1956141, 46.7746389], [-0.1957436, 46.774606], [-0.1958701, 46.7745366], [-0.1959211, 46.7744653], [-0.1959126, 46.7742593], [-0.1958639, 46.774216], [-0.1957871, 46.7741654], [-0.195664, 46.7741038], [-0.19558, 46.7741084], [-0.1955117, 46.7740796], [-0.1954764, 46.7740076], [-0.1953959, 46.7739335], [-0.1952446, 46.7738462], [-0.1950661, 46.7737749], [-0.1948829, 46.7737222], [-0.1948185, 46.7737179], [-0.1946035, 46.7737823], [-0.1942337, 46.7738718], [-0.1942289, 46.7738596], [-0.1942143, 46.7738327], [-0.194185, 46.7738142], [-0.1941434, 46.7738089], [-0.1940964, 46.7738168], [-0.194051, 46.7738269], [-0.1940297, 46.7737815], [-0.1940548, 46.7737755], [-0.194043, 46.7737514], [-0.1940201, 46.7737565], [-0.1939947, 46.773708], [-0.1940177, 46.773701], [-0.1940048, 46.7736771], [-0.1939832, 46.7736829], [-0.1939574, 46.7736346], [-0.1939804, 46.7736278], [-0.1939683, 46.7736059], [-0.1939402, 46.7736133], [-0.1939148, 46.7735643], [-0.1944208, 46.7734451], [-0.1945572, 46.7733348], [-0.1945549, 46.7733076], [-0.1945079, 46.7733018], [-0.1943383, 46.7733422], [-0.1943418, 46.7733647], [-0.1943699, 46.7733862], [-0.1943598, 46.7734179], [-0.1943309, 46.7734325], [-0.1939924, 46.7735112], [-0.1939418, 46.7734017], [-0.1938, 46.7731003], [-0.1936016, 46.7727087], [-0.1934903, 46.7725474], [-0.1929759, 46.772217], [-0.1932296, 46.7719919], [-0.1934961, 46.7717061], [-0.1936263, 46.7714131], [-0.193601, 46.7711243], [-0.193437, 46.7709144], [-0.1931444, 46.7707085], [-0.1929396, 46.7706824], [-0.1927373, 46.770727], [-0.1924335, 46.7707188], [-0.192199, 46.7706546], [-0.1919857, 46.7704193], [-0.1918341, 46.7703638], [-0.1917764, 46.7702749], [-0.1917274, 46.7700126], [-0.1915869, 46.7698559], [-0.1913313, 46.7697421], [-0.1911144, 46.7696885], [-0.1908864, 46.7697389], [-0.1907658, 46.7696885], [-0.1907943, 46.769268], [-0.1908946, 46.7690482], [-0.1909623, 46.7688247], [-0.1911232, 46.7686263], [-0.1912155, 46.7684463], [-0.1913354, 46.7681833], [-0.1916518, 46.7679345], [-0.1917809, 46.7677498], [-0.1917783, 46.7676999], [-0.1915781, 46.7674102], [-0.1915418, 46.7673104], [-0.1915402, 46.7672208], [-0.1916336, 46.7669206], [-0.1916373, 46.7667404], [-0.1915311, 46.7665725], [-0.1912405, 46.7664233], [-0.1909626, 46.7663265], [-0.1906114, 46.7661798], [-0.1900349, 46.7659932], [-0.189716, 46.7658327], [-0.1892013, 46.7656594], [-0.188738, 46.7654045], [-0.1882664, 46.7653149], [-0.1878775, 46.7651969], [-0.1874868, 46.7649034], [-0.1873912, 46.7647937], [-0.1871778, 46.7645537], [-0.1871762, 46.764202], [-0.1873784, 46.7637628], [-0.18791, 46.763409], [-0.1883343, 46.7631588], [-0.1886071, 46.7630431], [-0.1887511, 46.7628857], [-0.1889131, 46.7624639], [-0.189089, 46.7622035], [-0.1895788, 46.7620308], [-0.1897529, 46.7619231], [-0.1901326, 46.7618126], [-0.1905975, 46.7618358], [-0.1909989, 46.7620256], [-0.1911449, 46.7620756], [-0.1910806, 46.7622409], [-0.1913783, 46.7621436], [-0.1916143, 46.7621178], [-0.1919911, 46.7621248], [-0.1921964, 46.762195], [-0.1923519, 46.7623496], [-0.1928455, 46.7626378], [-0.1928726, 46.7627407], [-0.193431, 46.7628762], [-0.1938003, 46.7630714], [-0.1943151, 46.7632252], [-0.1960323, 46.763568], [-0.1975714, 46.7638762], [-0.198069, 46.7641063], [-0.1987352, 46.7642437], [-0.19921, 46.7642614], [-0.1997233, 46.7641044], [-0.2001135, 46.7638989], [-0.2001524, 46.7638066], [-0.1999746, 46.7636178], [-0.1997902, 46.763411], [-0.1995564, 46.7632217], [-0.1993053, 46.7630184], [-0.1986138, 46.7622701], [-0.1982877, 46.7620117], [-0.1983524, 46.7618497], [-0.1983645, 46.7614505], [-0.1984868, 46.7612151], [-0.1987324, 46.7608144], [-0.1990053, 46.7601565], [-0.1991741, 46.7593819], [-0.1994379, 46.7590071], [-0.1993257, 46.7587663], [-0.1989287, 46.7585734], [-0.1990253, 46.758487], [-0.1996057, 46.7585311], [-0.2003422, 46.7587921], [-0.2007092, 46.7588773], [-0.201075, 46.7589007], [-0.2013803, 46.7589758], [-0.201676, 46.7588332], [-0.2026707, 46.758788], [-0.2035078, 46.7585745], [-0.2044079, 46.7582213], [-0.2051594, 46.7576803], [-0.2053714, 46.7573073], [-0.2052895, 46.7568808], [-0.2048276, 46.7558865], [-0.2046955, 46.7554624], [-0.2043334, 46.7549754], [-0.2042707, 46.7544404], [-0.2048772, 46.7540404], [-0.2051395, 46.7535477], [-0.2053464, 46.7532452], [-0.2060084, 46.7529019], [-0.2066564, 46.7523032], [-0.2070713, 46.7518013], [-0.2071926, 46.7514287], [-0.2072127, 46.751312], [-0.207257, 46.7512752], [-0.2073871, 46.7512587], [-0.207489, 46.7512743], [-0.2076754, 46.7513487], [-0.2078605, 46.7514406], [-0.2080227, 46.7515233], [-0.2081542, 46.7515867], [-0.2082588, 46.7516253], [-0.208362, 46.7516161], [-0.208476, 46.7515665], [-0.2085659, 46.7515013], [-0.2086718, 46.7514544], [-0.2087215, 46.7513846], [-0.2087148, 46.7513138], [-0.2086879, 46.7512587], [-0.2087308, 46.7512284], [-0.208814, 46.751233], [-0.2089387, 46.7512008], [-0.2089924, 46.7511558], [-0.2091527, 46.7511036], [-0.2100223, 46.750734], [-0.2102838, 46.7502947], [-0.2110845, 46.7496773], [-0.2120688, 46.748996], [-0.2125812, 46.7485029], [-0.2129307, 46.7478769], [-0.2134354, 46.7468473], [-0.2140516, 46.7465741], [-0.2149922, 46.7461195], [-0.2158471, 46.7456736], [-0.2161083, 46.7452417], [-0.2164669, 46.745313], [-0.2169543, 46.7447352], [-0.2170119, 46.7440685], [-0.2172807, 46.7436312], [-0.217711, 46.7432398], [-0.218359, 46.7429472], [-0.2199385, 46.7426472], [-0.2216014, 46.742167], [-0.2221942, 46.7416068], [-0.2231074, 46.7411518], [-0.2231407, 46.7406999], [-0.222729, 46.7402498], [-0.2222337, 46.7398232], [-0.2216885, 46.7394343], [-0.2214565, 46.7392329], [-0.2214211, 46.7390015], [-0.2207163, 46.7378533], [-0.2207324, 46.7373993], [-0.2208531, 46.7373092], [-0.2212983, 46.7377265], [-0.2216685, 46.7381566], [-0.2218133, 46.7384875], [-0.2220252, 46.738936], [-0.2221982, 46.7392443], [-0.2231705, 46.7398367], [-0.2236844, 46.7402946], [-0.2239372, 46.7405759], [-0.2241361, 46.7410591], [-0.2242112, 46.741434], [-0.2241068, 46.7421851], [-0.2239269, 46.7424781], [-0.2238572, 46.7427501], [-0.2234066, 46.7428641], [-0.2231614, 46.742842], [-0.2227238, 46.7430454], [-0.2217597, 46.7432684], [-0.2204186, 46.7435405], [-0.2200887, 46.7435349], [-0.2198814, 46.7434963], [-0.2197158, 46.7435331], [-0.2195174, 46.7435331], [-0.219386, 46.7435155], [-0.2190292, 46.7436287], [-0.2189273, 46.7437537], [-0.2186095, 46.7441845], [-0.2184391, 46.744691], [-0.2183104, 46.744805], [-0.2185464, 46.7451763], [-0.2180475, 46.7453527], [-0.217786, 46.7455716], [-0.2176774, 46.7457791], [-0.2172059, 46.7462645], [-0.2168345, 46.746626], [-0.2164757, 46.7465658], [-0.215846, 46.7467181], [-0.2153009, 46.7469958], [-0.2147859, 46.7473524], [-0.2146787, 46.7476428], [-0.2144136, 46.7478941], [-0.2143139, 46.748264], [-0.2140617, 46.7485286], [-0.2139009, 46.7488852], [-0.2135146, 46.7490506], [-0.2128421, 46.7494812], [-0.2126777, 46.7498188], [-0.2128319, 46.7500771], [-0.2130371, 46.7502378], [-0.2132464, 46.7502746], [-0.213622, 46.7503125], [-0.2138, 46.7506273], [-0.2151454, 46.7515095], [-0.216401, 46.7518399], [-0.217216, 46.75198], [-0.2179509, 46.7524211], [-0.2185571, 46.7532379], [-0.2187234, 46.7534538], [-0.2189071, 46.7535733], [-0.2189031, 46.7536394], [-0.2189286, 46.7536854], [-0.2189957, 46.7537221], [-0.2192277, 46.7537543], [-0.2194208, 46.7537479], [-0.2197225, 46.753712], [-0.2201436, 46.7536293], [-0.2205567, 46.7535007], [-0.220591, 46.7535733], [-0.2205804, 46.7536635], [-0.2204817, 46.753777], [-0.220267, 46.753883], [-0.219394, 46.7540823], [-0.2189648, 46.7540198], [-0.2184042, 46.753814], [-0.2180756, 46.7532902], [-0.2178786, 46.7531614], [-0.2171141, 46.7527445], [-0.2163872, 46.7525938], [-0.2161476, 46.7526021], [-0.2158052, 46.7528786], [-0.2156979, 46.7531028], [-0.2154952, 46.7531589], [-0.2141342, 46.7530348], [-0.2135146, 46.7531561], [-0.2126166, 46.7530509], [-0.2125463, 46.7531249], [-0.212675, 46.7533307], [-0.2125114, 46.7533491], [-0.2120528, 46.7530404], [-0.2114895, 46.7530532], [-0.2112401, 46.7531359], [-0.2112106, 46.7531855], [-0.2113286, 46.7533381], [-0.2112535, 46.7533767], [-0.2110925, 46.7533032], [-0.2104381, 46.7533289], [-0.2102128, 46.7534189], [-0.2097997, 46.7534281], [-0.2093571, 46.7535145], [-0.2085525, 46.7538361], [-0.2080938, 46.7538177], [-0.2076399, 46.7539053], [-0.2072999, 46.7539757], [-0.2065247, 46.7539041], [-0.2062535, 46.7539981], [-0.2060068, 46.7543774], [-0.2056792, 46.7549913], [-0.2059266, 46.7557086], [-0.206236, 46.7561062], [-0.2065676, 46.756565], [-0.2069194, 46.7569997], [-0.2069539, 46.7573275], [-0.2068654, 46.757616], [-0.2069823, 46.7582593], [-0.2066293, 46.7584356], [-0.2062649, 46.7589103], [-0.2051853, 46.759374], [-0.2045211, 46.7596318], [-0.2041107, 46.7595693], [-0.203291, 46.7597379], [-0.2034026, 46.7599552], [-0.2032819, 46.7600158], [-0.2027581, 46.7599149], [-0.2024478, 46.760104], [-0.202437, 46.7602069], [-0.2021903, 46.7603135], [-0.2020615, 46.7604807], [-0.2017638, 46.7606222], [-0.2015787, 46.7606571], [-0.2015472, 46.760813], [-0.2013078, 46.7609566], [-0.2011067, 46.7611238], [-0.2010002, 46.7614492], [-0.2012741, 46.7618597], [-0.2016887, 46.7625074], [-0.2019315, 46.7631138], [-0.202134, 46.7632405], [-0.202494, 46.763498], [-0.2029467, 46.7640765], [-0.2030628, 46.7645175], [-0.2031103, 46.7648298], [-0.2031123, 46.7651677], [-0.2026784, 46.7656124], [-0.2024907, 46.7659909], [-0.2021765, 46.7661219], [-0.2017611, 46.7660368], [-0.2014956, 46.7660901], [-0.2010691, 46.7660809], [-0.2009296, 46.7661122], [-0.2006822, 46.7662117], [-0.2007365, 46.766566], [-0.2008956, 46.7669729], [-0.2022439, 46.7679365], [-0.2026473, 46.7681012], [-0.2031344, 46.7681221], [-0.2036484, 46.7681266], [-0.2045263, 46.7679469], [-0.2053229, 46.7675803], [-0.2055752, 46.7673964], [-0.20582, 46.7671215], [-0.2058973, 46.7667835], [-0.2061707, 46.766599], [-0.2066387, 46.7664149], [-0.2076398, 46.7661463], [-0.2081099, 46.7659578], [-0.208346, 46.7658127], [-0.2084559, 46.7658954], [-0.2084881, 46.7659891], [-0.2086571, 46.7659762], [-0.2089575, 46.7657943], [-0.2092204, 46.7657815], [-0.2092928, 46.765967], [-0.2090406, 46.7662401], [-0.2091046, 46.7666809], [-0.2091774, 46.7667846], [-0.2094322, 46.7668563], [-0.210194, 46.7670143], [-0.2114761, 46.7671374], [-0.2116209, 46.7670087], [-0.2123003, 46.7670889], [-0.2128735, 46.7673854], [-0.2132204, 46.7676979], [-0.2132437, 46.7678631], [-0.2132142, 46.7680266], [-0.2134287, 46.7681809], [-0.21373, 46.7681703], [-0.2141476, 46.7680964], [-0.2145652, 46.7679971], [-0.2148101, 46.7678777], [-0.2149415, 46.7677069], [-0.2150032, 46.7675893], [-0.2151879, 46.7675227], [-0.2154353, 46.7675812], [-0.215604, 46.767367], [-0.2156469, 46.7672017], [-0.2157385, 46.7670968], [-0.2167028, 46.7664154], [-0.2171208, 46.7662215], [-0.2173622, 46.7661296], [-0.2176304, 46.7660782], [-0.2178597, 46.7660405], [-0.2180368, 46.765979], [-0.2183506, 46.7659193], [-0.2185906, 46.7658467], [-0.2187543, 46.7657897], [-0.2188736, 46.7657879], [-0.2190493, 46.7658127], [-0.2191713, 46.7658485], [-0.2192451, 46.7659202], [-0.2193631, 46.7659872], [-0.2195777, 46.766092], [-0.2197185, 46.7661737], [-0.2198191, 46.7662086], [-0.2199854, 46.766272], [-0.2200276, 46.7662964], [-0.2202275, 46.7663377], [-0.2203086, 46.7663712], [-0.2203844, 46.7664259], [-0.2204151, 46.7664984], [-0.2203099, 46.7664227], [-0.2202483, 46.7663992], [-0.220204, 46.7664218], [-0.2200055, 46.7663662], [-0.219972, 46.7663602], [-0.2199291, 46.7663363], [-0.2198352, 46.766306], [-0.2197427, 46.7662886], [-0.2197038, 46.7662807], [-0.2196582, 46.7662592], [-0.2196065, 46.7662293], [-0.2195683, 46.7662288], [-0.2194999, 46.7662224], [-0.2194463, 46.7662086], [-0.2193732, 46.7662095], [-0.2193356, 46.7662371], [-0.2193913, 46.7662987], [-0.2193712, 46.7663115], [-0.2192853, 46.7663078], [-0.219233, 46.7663547], [-0.2191298, 46.7664181], [-0.2190077, 46.7664879], [-0.2188991, 46.7665256], [-0.2187127, 46.7665632], [-0.2185893, 46.7666431], [-0.2184065, 46.7666782]]]}}, {"type": "Feature", "properties": {"name": "Étang de Juigny"}, "geometry": {"type": "Polygon", "coordinates": [[[-0.3206173, 46.9698017], [-0.3205468, 46.9698504], [-0.3204746, 46.9700056], [-0.3203206, 46.9701626], [-0.3201224, 46.9702342], [-0.3198742, 46.9702695], [-0.319614, 46.9702269], [-0.3191038, 46.9703042], [-0.3189104, 46.9703275], [-0.318658, 46.9703245], [-0.3184681, 46.9703209], [-0.3183154, 46.9703938], [-0.3182888, 46.9705319], [-0.3181383, 46.9706359], [-0.3178471, 46.9707572], [-0.3176489, 46.9707555], [-0.3174981, 46.9707298], [-0.3173533, 46.970786], [-0.3171872, 46.9710115], [-0.3171028, 46.9711753], [-0.317026, 46.971327], [-0.3169722, 46.9714773], [-0.3169876, 46.9716106], [-0.3170234, 46.9717557], [-0.3170719, 46.9718802], [-0.3172503, 46.9719661], [-0.317396, 46.9719487], [-0.317501, 46.971897], [-0.3176204, 46.9718264], [-0.3177184, 46.9717186], [-0.318067, 46.9716123], [-0.3183604, 46.9715906], [-0.3186668, 46.9716277], [-0.3189541, 46.9717053], [-0.3192063, 46.9718248], [-0.3196817, 46.9720803], [-0.3198128, 46.9722339], [-0.3201012, 46.9724724], [-0.3204001, 46.9727988], [-0.320625, 46.9730527], [-0.3206163, 46.9731612], [-0.3206112, 46.9732243], [-0.3206554, 46.9733159], [-0.3206963, 46.9734298], [-0.3207141, 46.9734728], [-0.3209895, 46.9734761], [-0.3210295, 46.9734766], [-0.3210953, 46.9734774], [-0.3213768, 46.9734808], [-0.3218392, 46.9734864], [-0.321933, 46.9734464], [-0.3219983, 46.9733577], [-0.3220916, 46.9731994], [-0.3222137, 46.9730233], [-0.3225188, 46.9727982], [-0.3228628, 46.9725815], [-0.3231103, 46.9723322], [-0.3232398, 46.9721576], [-0.3233361, 46.972077], [-0.3236143, 46.9720012], [-0.3239356, 46.971974], [-0.3242991, 46.9719821], [-0.3246467, 46.9720679], [-0.3249339, 46.9721769], [-0.3251402, 46.9722319], [-0.3253693, 46.9722101], [-0.3256739, 46.9721395], [-0.3259755, 46.9721061], [-0.3262979, 46.9720532], [-0.3266425, 46.9719962], [-0.3269297, 46.9719714], [-0.3272595, 46.9719811], [-0.3275887, 46.9720309], [-0.3277522, 46.9720212], [-0.3278496, 46.9719582], [-0.327841, 46.97182], [-0.3279316, 46.9717084], [-0.3279352, 46.9715855], [-0.3281033, 46.971481], [-0.3282507, 46.9713836], [-0.3284084, 46.9713549], [-0.3285768, 46.9712179], [-0.3286653, 46.9710839], [-0.3287781, 46.9709288], [-0.3290199, 46.9708154], [-0.3291641, 46.9706918], [-0.329339, 46.9704732], [-0.3294225, 46.9702892], [-0.3293238, 46.9701855], [-0.3293902, 46.970114], [-0.3296999, 46.9700377], [-0.3301671, 46.969947], [-0.3304972, 46.9698528], [-0.3308787, 46.9696886], [-0.3312709, 46.9696629], [-0.3316718, 46.9697139], [-0.3323237, 46.9696613], [-0.3330044, 46.9696364], [-0.3334604, 46.9695789], [-0.3336617, 46.969483], [-0.3339401, 46.969349], [-0.3337655, 46.9691277], [-0.3334349, 46.9690348], [-0.3331546, 46.9689755], [-0.3327824, 46.9689418], [-0.3323435, 46.9688828], [-0.3321374, 46.9688011], [-0.3319647, 46.9687045], [-0.3316897, 46.9686344], [-0.3313674, 46.9686997], [-0.331246, 46.9687922], [-0.3308445, 46.9689227], [-0.33052, 46.9689196], [-0.330259, 46.9688048], [-0.3300367, 46.9686992], [-0.3298097, 46.9686746], [-0.3296232, 46.9686209], [-0.3295403, 46.9686536], [-0.329437, 46.9687949], [-0.3293415, 46.9688999], [-0.3291658, 46.9690803], [-0.3289847, 46.9692036], [-0.3287943, 46.9693963], [-0.3285684, 46.9695836], [-0.3282771, 46.9697473], [-0.327665, 46.9700466], [-0.3271726, 46.9703643], [-0.3268478, 46.970588], [-0.3263385, 46.9707356], [-0.3256455, 46.9707392], [-0.3252033, 46.9707566], [-0.3245233, 46.970805], [-0.3240318, 46.970868], [-0.3236323, 46.9708406], [-0.3229793, 46.9707423], [-0.3226975, 46.9706691], [-0.3224341, 46.9705606], [-0.3221334, 46.9704812], [-0.3218352, 46.9704475], [-0.321499, 46.9703703], [-0.3214306, 46.9702609], [-0.321183, 46.9699847], [-0.3211638, 46.969799], [-0.3211081, 46.9697671], [-0.3206173, 46.9698017]]]}}, {"type": "Feature", "properties": {"name": "Étang des Mottes"}, "geometry": {"type": "Polygon", "coordinates": [[[-0.46283, 46.720487], [-0.462608, 46.720408], [-0.462454, 46.720255], [-0.46246, 46.720151], [-0.462464, 46.720109], [-0.462475, 46.720068], [-0.462481, 46.720051], [-0.462647, 46.719944], [-0.462933, 46.719824], [-0.463072, 46.719808], [-0.463127, 46.719792], [-0.463372, 46.719621], [-0.463349, 46.719501], [-0.463377, 46.719293], [-0.463393, 46.719297], [-0.463536, 46.719008], [-0.463322, 46.718923], [-0.462791, 46.718652], [-0.462781, 46.718663], [-0.462359, 46.718637], [-0.462052, 46.718644], [-0.461995, 46.71856], [-0.461658, 46.718566], [-0.461672, 46.718749], [-0.461635, 46.718995], [-0.461485, 46.719468], [-0.461303, 46.719746], [-0.461196, 46.719891], [-0.461124, 46.719937], [-0.460912, 46.71994], [-0.460432, 46.719919], [-0.460337, 46.71991], [-0.460243, 46.719892], [-0.459869, 46.719747], [-0.45968, 46.719707], [-0.459172, 46.719728], [-0.458751, 46.719712], [-0.458598, 46.719718], [-0.458573, 46.719718], [-0.458473, 46.719712], [-0.458214, 46.719728], [-0.457955, 46.719739], [-0.457702, 46.719747], [-0.457289, 46.719661], [-0.457189, 46.719613], [-0.456867, 46.719476], [-0.456075, 46.719064], [-0.455978, 46.719026], [-0.455904, 46.718966], [-0.455872, 46.718952], [-0.455753, 46.718897], [-0.455753, 46.718836], [-0.455672, 46.718739], [-0.455576, 46.718812], [-0.454945, 46.718798], [-0.454315, 46.718753], [-0.454209, 46.718788], [-0.454011, 46.71897], [-0.454189, 46.719043], [-0.454211, 46.719052], [-0.454244, 46.719062], [-0.45428, 46.719068], [-0.45436, 46.719079], [-0.454487, 46.719095], [-0.454615, 46.719106], [-0.454741, 46.719113], [-0.455229, 46.719117], [-0.455549, 46.719235], [-0.455601, 46.719272], [-0.455854, 46.719447], [-0.456076, 46.719698], [-0.456123, 46.719746], [-0.456354, 46.719948], [-0.456407, 46.720048], [-0.456441, 46.720134], [-0.456453, 46.720168], [-0.456437, 46.720224], [-0.456441, 46.720228], [-0.456468, 46.720258], [-0.4565, 46.720285], [-0.456537, 46.720309], [-0.456674, 46.72034], [-0.456872, 46.720331], [-0.456879, 46.720331], [-0.456886, 46.720332], [-0.456996, 46.720344], [-0.457106, 46.720351], [-0.457217, 46.720354], [-0.458035, 46.720326], [-0.458108, 46.720329], [-0.458542, 46.720348], [-0.458975, 46.720372], [-0.459136, 46.720404], [-0.459236, 46.720454], [-0.459469, 46.720688], [-0.459481, 46.720714], [-0.459498, 46.720763], [-0.459508, 46.720812], [-0.459525, 46.720913], [-0.459707, 46.720958], [-0.45998, 46.720971], [-0.460095, 46.720979], [-0.460509, 46.720939], [-0.460923, 46.720971], [-0.460963, 46.720974], [-0.46105, 46.720985], [-0.461136, 46.721001], [-0.46118, 46.721018], [-0.461392, 46.72112], [-0.461399, 46.721126], [-0.461438, 46.721154], [-0.461481, 46.721179], [-0.462285, 46.721585], [-0.462525, 46.721798], [-0.462473, 46.721919], [-0.462267, 46.722133], [-0.462081, 46.722414], [-0.462026, 46.722531], [-0.461938, 46.72281], [-0.461905, 46.722896], [-0.461697, 46.723214], [-0.461555, 46.723521], [-0.461373, 46.723685], [-0.461324, 46.723793], [-0.46133, 46.723872], [-0.461278, 46.724006], [-0.46125, 46.724052], [-0.461267, 46.724078], [-0.461278, 46.724106], [-0.461281, 46.724127], [-0.461281, 46.724165], [-0.461274, 46.724203], [-0.46126, 46.72424], [-0.46126, 46.724242], [-0.461232, 46.724287], [-0.461197, 46.724331], [-0.461157, 46.724372], [-0.461155, 46.724374], [-0.461038, 46.72433], [-0.460897, 46.724476], [-0.460882, 46.724492], [-0.461338, 46.724697], [-0.461912, 46.724221], [-0.462138, 46.723821], [-0.46217, 46.723789], [-0.462352, 46.72361], [-0.462541, 46.723434], [-0.462564, 46.723402], [-0.462712, 46.72316], [-0.462994, 46.722891], [-0.463062, 46.722832], [-0.463156, 46.722759], [-0.463176, 46.722745], [-0.463201, 46.722735], [-0.463229, 46.722728], [-0.463298, 46.72272], [-0.463656, 46.722718], [-0.463938, 46.722826], [-0.464329, 46.723123], [-0.464322, 46.723175], [-0.46467, 46.723195], [-0.464641, 46.723147], [-0.464832, 46.723067], [-0.465305, 46.723062], [-0.465592, 46.722896], [-0.465741, 46.722786], [-0.466439, 46.722453], [-0.466643, 46.722359], [-0.466694, 46.722355], [-0.466763, 46.722377], [-0.466778, 46.722393], [-0.466787, 46.722537], [-0.466796, 46.72259], [-0.46684, 46.722649], [-0.466943, 46.722676], [-0.467048, 46.722677], [-0.467456, 46.722513], [-0.467722, 46.722344], [-0.467454, 46.721112], [-0.467431, 46.72102], [-0.467313, 46.720713], [-0.467261, 46.720803], [-0.467217, 46.720825], [-0.467164, 46.720832], [-0.466875, 46.720842], [-0.466632, 46.720638], [-0.466486, 46.720626], [-0.466388, 46.720631], [-0.466361, 46.720661], [-0.466339, 46.720693], [-0.466327, 46.720717], [-0.466302, 46.720787], [-0.466283, 46.720858], [-0.466271, 46.720926], [-0.466198, 46.720919], [-0.466214, 46.720973], [-0.46609, 46.72116], [-0.46599, 46.721229], [-0.465489, 46.721396], [-0.465322, 46.72136], [-0.465273, 46.721336], [-0.465229, 46.721309], [-0.465214, 46.721298], [-0.465173, 46.721258], [-0.465092, 46.721151], [-0.46472, 46.721163], [-0.464282, 46.721244], [-0.464098, 46.721189], [-0.463854, 46.72107], [-0.46379, 46.721034], [-0.463594, 46.72083], [-0.463444, 46.720756], [-0.463289, 46.720665], [-0.463249, 46.720644], [-0.46283, 46.720487]]]}}, {"type": "Feature", "properties": {"name": "Lac de la Touche Poupard"}, "geometry": {"type": "Polygon", "coordinates": [[[-0.2025581, 46.4685073], [-0.2026105, 46.468642], [-0.2025917, 46.4687397], [-0.2025212, 46.4688097], [-0.202408, 46.4688502], [-0.2019087, 46.468992], [-0.2015991, 46.4690305], [-0.201273, 46.469186], [-0.2010426, 46.4693071], [-0.2007948, 46.4694805], [-0.2006469, 46.4696175], [-0.200648, 46.4697384], [-0.2007205, 46.4697999], [-0.2008457, 46.4699165], [-0.2010105, 46.4701028], [-0.2013176, 46.4704472], [-0.2014795, 46.470699], [-0.2016817, 46.4709458], [-0.2018423, 46.4712111], [-0.2018765, 46.4714637], [-0.2019584, 46.4715851], [-0.202052, 46.47159], [-0.2021606, 46.4715884], [-0.2023137, 46.4715118], [-0.2026231, 46.4714263], [-0.203173, 46.47124], [-0.203231, 46.4712495], [-0.2032712, 46.4712642], [-0.20329, 46.471299], [-0.2032739, 46.4713769], [-0.2031542, 46.4715244], [-0.2027096, 46.4719883], [-0.2025631, 46.4721288], [-0.2023351, 46.4722691], [-0.2022225, 46.4723615], [-0.2021466, 46.4724327], [-0.202071, 46.472523], [-0.2021047, 46.4727439], [-0.202012, 46.472843], [-0.201894, 46.473045], [-0.201887, 46.473126], [-0.201901, 46.473189], [-0.2019972, 46.4733165], [-0.202091, 46.4733516], [-0.2021827, 46.4733894], [-0.2023375, 46.4734074], [-0.2026087, 46.4734569], [-0.20297, 46.473441], [-0.203105, 46.473448], [-0.2034616, 46.4735253], [-0.2035662, 46.4735264], [-0.2037621, 46.4735179], [-0.2040464, 46.4734902], [-0.2041483, 46.4735086], [-0.2043678, 46.4735634], [-0.2047384, 46.473662], [-0.2049113, 46.473767], [-0.205016, 46.473835], [-0.205207, 46.473993], [-0.205382, 46.474091], [-0.205592, 46.4741864], [-0.205714, 46.474227], [-0.205868, 46.474244], [-0.2059856, 46.4742346], [-0.20608, 46.474212], [-0.206301, 46.474121], [-0.2064094, 46.4741182], [-0.206445, 46.474137], [-0.2065121, 46.4741644], [-0.2065009, 46.4743188], [-0.2066179, 46.4744583], [-0.206624, 46.4745301], [-0.2064577, 46.4746133], [-0.2062243, 46.4747001], [-0.206025, 46.4747682], [-0.2059722, 46.4748312], [-0.2058998, 46.4749605], [-0.2058595, 46.4750658], [-0.2058566, 46.4751829], [-0.205888, 46.475235], [-0.20605, 46.4753337], [-0.206286, 46.4754463], [-0.2066106, 46.4755258], [-0.2067706, 46.4755624], [-0.2067849, 46.4756421], [-0.2067232, 46.4757382], [-0.2066186, 46.4758158], [-0.2062448, 46.4759709], [-0.2062055, 46.4760725], [-0.2062511, 46.4761409], [-0.2062458, 46.4762738], [-0.2062404, 46.4764198], [-0.2064315, 46.4767628], [-0.206539, 46.4770964], [-0.206607, 46.477347], [-0.206712, 46.477482], [-0.2069217, 46.4776352], [-0.207171, 46.477743], [-0.207309, 46.477767], [-0.207375, 46.4777755], [-0.2076459, 46.477746], [-0.2077425, 46.4777608], [-0.2078202, 46.4777922], [-0.2078588, 46.4778503], [-0.2078471, 46.4779122], [-0.2078616, 46.4779685], [-0.2079275, 46.4780193], [-0.207951, 46.478053], [-0.2078766, 46.478084], [-0.2076647, 46.4781597], [-0.2075064, 46.4782595], [-0.207292, 46.47834], [-0.207254, 46.478503], [-0.2073804, 46.4787268], [-0.2074581, 46.4788228], [-0.2076084, 46.478935], [-0.2077237, 46.4789872], [-0.2078819, 46.4789539], [-0.208021, 46.478899], [-0.2082279, 46.4787619], [-0.208423, 46.478676], [-0.2087134, 46.4786289], [-0.2089374, 46.4785432], [-0.2091065, 46.478504], [-0.209305, 46.4784817], [-0.2095798, 46.4784146], [-0.2099741, 46.4781911], [-0.2101331, 46.4780362], [-0.2103201, 46.4779787], [-0.2107668, 46.4779272], [-0.2108719, 46.4779656], [-0.2108811, 46.4780203], [-0.210508, 46.478213], [-0.210345, 46.47833], [-0.2101932, 46.4784629], [-0.210085, 46.478576], [-0.209994, 46.478707], [-0.2099065, 46.4787525], [-0.2098131, 46.4788117], [-0.209671, 46.4788505], [-0.209397, 46.4789445], [-0.2090836, 46.4790962], [-0.2089334, 46.4791978], [-0.2087343, 46.4793359], [-0.208458, 46.479525], [-0.2083317, 46.4796668], [-0.2082011, 46.4799052], [-0.20815, 46.480098], [-0.2081367, 46.4801988], [-0.2082906, 46.4803019], [-0.2084427, 46.4806626], [-0.2084264, 46.4809709], [-0.2085203, 46.4811796], [-0.2087322, 46.4813569], [-0.2088542, 46.4814557], [-0.2090717, 46.4816442], [-0.2092902, 46.4817757], [-0.2094963, 46.4818209], [-0.2096227, 46.4818223], [-0.210164, 46.48162], [-0.2102706, 46.4815442], [-0.2104713, 46.4815369], [-0.2106384, 46.4815687], [-0.2106458, 46.481649], [-0.2106111, 46.4818408], [-0.2105423, 46.4820067], [-0.2105589, 46.4821922], [-0.2107277, 46.4823559], [-0.2112125, 46.4826451], [-0.2114664, 46.4827454], [-0.2117195, 46.4828318], [-0.2118202, 46.4828611], [-0.2119736, 46.4828695], [-0.2120917, 46.4828649], [-0.212321, 46.482764], [-0.2125865, 46.4827217], [-0.212949, 46.482698], [-0.2130726, 46.4826769], [-0.2137059, 46.4824435], [-0.2140495, 46.4822389], [-0.2140859, 46.4820707], [-0.2142602, 46.4820227], [-0.2143674, 46.4820747], [-0.2149199, 46.4819804], [-0.2151509, 46.4819182], [-0.2152835, 46.4818417], [-0.2154169, 46.4817698], [-0.2159147, 46.4820549], [-0.2158172, 46.4821926], [-0.2155657, 46.4823184], [-0.2153548, 46.4823794], [-0.215116, 46.482468], [-0.21483, 46.48259], [-0.2145002, 46.4827832], [-0.2143957, 46.4828769], [-0.214098, 46.483087], [-0.2138515, 46.4832474], [-0.2135477, 46.4834755], [-0.21347, 46.4836245], [-0.2134328, 46.4837024], [-0.2134769, 46.4837795], [-0.2135146, 46.4839001], [-0.2137278, 46.4841346], [-0.2139608, 46.4843234], [-0.214199, 46.4844445], [-0.2143669, 46.4844711], [-0.2144413, 46.4845769], [-0.2143903, 46.4847033], [-0.214262, 46.484908], [-0.214327, 46.4852429], [-0.214375, 46.4853969], [-0.2144541, 46.4858143], [-0.2145231, 46.4858992], [-0.2146599, 46.4859805], [-0.2150332, 46.4859863], [-0.2150811, 46.4859624], [-0.2152218, 46.4859639], [-0.2152638, 46.4859936], [-0.2152781, 46.4860989], [-0.215197, 46.48628], [-0.2150937, 46.4863828], [-0.2151138, 46.4864803], [-0.215633, 46.486682], [-0.215662, 46.486725], [-0.2157848, 46.4868264], [-0.2158441, 46.4869519], [-0.2157864, 46.4869713], [-0.2155262, 46.4869094], [-0.21516, 46.486976], [-0.2150786, 46.487104], [-0.214891, 46.4873173], [-0.214611, 46.487627], [-0.2145365, 46.4876952], [-0.2144886, 46.4877871], [-0.2144683, 46.4879093], [-0.2145521, 46.4879496], [-0.2146594, 46.4879578], [-0.214853, 46.4879381], [-0.2154787, 46.4878773], [-0.2155826, 46.4878854], [-0.215717, 46.487908], [-0.2159889, 46.4879925], [-0.2164371, 46.4881205], [-0.216613, 46.4882109], [-0.2166131, 46.4882114], [-0.2169533, 46.4883812], [-0.2171838, 46.488469], [-0.217399, 46.488655], [-0.217706, 46.488952], [-0.217935, 46.489105], [-0.218107, 46.4892388], [-0.2181897, 46.4892548], [-0.218294, 46.48923], [-0.2184696, 46.4890051], [-0.2185806, 46.488924], [-0.2186403, 46.4888591], [-0.2188146, 46.4888125], [-0.2188468, 46.4888836], [-0.2188481, 46.4889817], [-0.2187912, 46.4890631], [-0.2187502, 46.4891957], [-0.2188099, 46.489263], [-0.21904, 46.489276], [-0.219161, 46.489299], [-0.2194633, 46.4893325], [-0.2203315, 46.489572], [-0.2212024, 46.4894761], [-0.22147, 46.489487], [-0.2216484, 46.4895087], [-0.2216902, 46.4895401], [-0.2215827, 46.4896001], [-0.2211854, 46.4897303], [-0.2206013, 46.4898801], [-0.2201481, 46.4899261], [-0.2199831, 46.4899235], [-0.2196448, 46.4898688], [-0.2194047, 46.4898143], [-0.2189545, 46.4897922], [-0.2188003, 46.4898152], [-0.2185276, 46.4899334], [-0.2182908, 46.4900767], [-0.2183247, 46.4902393], [-0.2184382, 46.4904269], [-0.2187301, 46.4906933], [-0.218993, 46.4909952], [-0.2191203, 46.4910974], [-0.2193798, 46.4912569], [-0.2195469, 46.4913516], [-0.2197628, 46.4914329], [-0.2202684, 46.4915197], [-0.2204427, 46.4915492], [-0.2205957, 46.4915948], [-0.2209778, 46.4915787], [-0.2214687, 46.4915704], [-0.2217856, 46.4915271], [-0.222071, 46.491476], [-0.2222814, 46.4914246], [-0.223022, 46.49121], [-0.223248, 46.491153], [-0.2233167, 46.4911476], [-0.2235286, 46.4911605], [-0.22369, 46.491188], [-0.2238572, 46.4912353], [-0.2244245, 46.4914901], [-0.2246755, 46.4916311], [-0.224758, 46.4917791], [-0.2245096, 46.491863], [-0.2245428, 46.491919], [-0.2235684, 46.4922585], [-0.2235283, 46.4922156], [-0.2234284, 46.4922331], [-0.2232683, 46.4922064], [-0.2231158, 46.4921991], [-0.2226602, 46.4923291], [-0.2222181, 46.4924296], [-0.2217117, 46.4925983], [-0.22092, 46.4928442], [-0.220778, 46.4928436], [-0.2204698, 46.4930029], [-0.2202178, 46.4930365], [-0.2199752, 46.4929414], [-0.2193687, 46.4928418], [-0.2186126, 46.4924979], [-0.2183596, 46.4922981], [-0.2176451, 46.4915962], [-0.2174368, 46.4914937], [-0.2173847, 46.4912324], [-0.217087, 46.4909762], [-0.2170423, 46.4908686], [-0.2168488, 46.4907712], [-0.2166777, 46.4905561], [-0.2160228, 46.4898336], [-0.2157772, 46.4896543], [-0.2154348, 46.4895262], [-0.2151372, 46.4893725], [-0.214832, 46.48927], [-0.2145343, 46.4891829], [-0.2141548, 46.4891316], [-0.2135371, 46.4890855], [-0.2132245, 46.4890394], [-0.2130065, 46.4888944], [-0.2128612, 46.4887647], [-0.2126952, 46.488673], [-0.2123965, 46.4886293], [-0.2120641, 46.4886409], [-0.2118624, 46.4886404], [-0.21168, 46.4885566], [-0.2117402, 46.4884729], [-0.2121767, 46.4882482], [-0.2126868, 46.487798], [-0.212895, 46.4876899], [-0.2131201, 46.4874552], [-0.2132196, 46.4871498], [-0.2131526, 46.4869385], [-0.2129905, 46.4867476], [-0.2127367, 46.4866453], [-0.2122226, 46.4865978], [-0.2118122, 46.4865795], [-0.2113608, 46.4866583], [-0.2106575, 46.4868102], [-0.21037, 46.4868606], [-0.2102256, 46.4868334], [-0.2105005, 46.4866287], [-0.2112825, 46.4862924], [-0.2122606, 46.4859821], [-0.2125161, 46.4856942], [-0.212559, 46.4854387], [-0.2123909, 46.4853348], [-0.2123767, 46.4852624], [-0.2123453, 46.4851907], [-0.2123426, 46.4851218], [-0.2123118, 46.484995], [-0.212217, 46.4848172], [-0.2121459, 46.4847262], [-0.2120412, 46.4846553], [-0.2116725, 46.4845096], [-0.2115102, 46.4842958], [-0.2114228, 46.4841739], [-0.2111904, 46.4840895], [-0.2111853, 46.4839803], [-0.2110412, 46.4839517], [-0.2108751, 46.4840692], [-0.2105509, 46.4840369], [-0.2101502, 46.4840249], [-0.2095548, 46.4842629], [-0.2094819, 46.4842713], [-0.2094631, 46.4842131], [-0.2096245, 46.4839511], [-0.2098872, 46.4836722], [-0.2099072, 46.4835296], [-0.2098217, 46.4833881], [-0.209664, 46.4833121], [-0.2094819, 46.4832814], [-0.2093786, 46.4832038], [-0.2092546, 46.4831181], [-0.209132, 46.4831423], [-0.2088679, 46.4831832], [-0.2087727, 46.4831061], [-0.2087447, 46.4829477], [-0.2086596, 46.4828725], [-0.2082286, 46.4825769], [-0.2075218, 46.48221], [-0.2072872, 46.4820671], [-0.2070065, 46.4818038], [-0.2069002, 46.4816081], [-0.2066883, 46.4814289], [-0.2065841, 46.481264], [-0.2063382, 46.4812871], [-0.2060296, 46.4813602], [-0.2058783, 46.4815277], [-0.2051969, 46.4817819], [-0.2048953, 46.4819239], [-0.2044876, 46.4822499], [-0.2043696, 46.482284], [-0.2041523, 46.4823293], [-0.2041362, 46.4822683], [-0.2043091, 46.4821002], [-0.2044728, 46.4819008], [-0.2045842, 46.481624], [-0.2053911, 46.4809519], [-0.2057013, 46.4806079], [-0.2061092, 46.480388], [-0.2062102, 46.4802296], [-0.2062137, 46.4799406], [-0.2060585, 46.4795823], [-0.2059655, 46.4794573], [-0.2058287, 46.4793677], [-0.2056877, 46.4792145], [-0.2055619, 46.4791258], [-0.2053534, 46.4787921], [-0.2051018, 46.4785104], [-0.2049424, 46.4784106], [-0.2043802, 46.4784438], [-0.2039136, 46.4786002], [-0.2037427, 46.4785889], [-0.2035301, 46.4784111], [-0.2035517, 46.4782427], [-0.2039014, 46.4779763], [-0.2040716, 46.4778661], [-0.2042085, 46.4777162], [-0.2042948, 46.4775173], [-0.2042905, 46.4773695], [-0.2041577, 46.4770866], [-0.2037483, 46.4767591], [-0.2036296, 46.4766322], [-0.203608, 46.4764547], [-0.2036293, 46.4763154], [-0.2035944, 46.4758555], [-0.2036492, 46.4753937], [-0.203535, 46.475323], [-0.2033937, 46.4753266], [-0.2031342, 46.4755], [-0.2026578, 46.4757466], [-0.2023447, 46.4757937], [-0.2020472, 46.4757676], [-0.2018759, 46.475733], [-0.2019565, 46.4756751], [-0.2021272, 46.475461], [-0.2024305, 46.4752875], [-0.2023477, 46.4751645], [-0.2022678, 46.4748717], [-0.202193, 46.47481], [-0.2017222, 46.4748506], [-0.2015489, 46.4749047], [-0.2013601, 46.4750196], [-0.201211, 46.4750202], [-0.2011399, 46.4749651], [-0.201156, 46.4749057], [-0.2012687, 46.47472], [-0.2012676, 46.4746013], [-0.2011771, 46.4744953], [-0.2009253, 46.474381], [-0.200456, 46.4742707], [-0.2000783, 46.4742667], [-0.1999295, 46.474247], [-0.1997807, 46.4741012], [-0.1995274, 46.4739119], [-0.1992485, 46.4736519], [-0.1991512, 46.4734785], [-0.1990097, 46.4731018], [-0.1989967, 46.4729424], [-0.1990825, 46.4727572], [-0.1993724, 46.4724114], [-0.1995503, 46.4722686], [-0.1997451, 46.4720819], [-0.1996891, 46.47189], [-0.1995175, 46.4718013], [-0.1992605, 46.4716676], [-0.1990441, 46.4716956], [-0.1984163, 46.4719908], [-0.1982071, 46.4721367], [-0.197978, 46.4723078], [-0.1978926, 46.4724284], [-0.1975125, 46.4724456], [-0.1971357, 46.4725333], [-0.1970337, 46.4725028], [-0.197023, 46.4724345], [-0.1972015, 46.4722939], [-0.1974211, 46.4721521], [-0.1977338, 46.4719385], [-0.1978711, 46.4716859], [-0.19788, 46.4714536], [-0.1978401, 46.4712766], [-0.1977366, 46.4711989], [-0.1975758, 46.4711442], [-0.1972521, 46.471212], [-0.1970721, 46.4711818], [-0.1969925, 46.4710739], [-0.1970441, 46.4709427], [-0.1971721, 46.4708382], [-0.197273, 46.4707062], [-0.1972616, 46.4705643], [-0.1971986, 46.4704657], [-0.1969643, 46.4704121], [-0.1964893, 46.4706092], [-0.1963256, 46.4706454], [-0.1962649, 46.4705854], [-0.1963243, 46.4704579], [-0.1963538, 46.470168], [-0.1961781, 46.4700644], [-0.1960276, 46.4700312], [-0.1957106, 46.4699612], [-0.1947434, 46.4697641], [-0.1943515, 46.4695666], [-0.1941155, 46.469549], [-0.1937032, 46.4697607], [-0.1935992, 46.4697707], [-0.1935663, 46.4697104], [-0.1936684, 46.4693556], [-0.1934345, 46.4692245], [-0.1930305, 46.4690271], [-0.1927355, 46.4688498], [-0.1925925, 46.4687712], [-0.1919563, 46.4689088], [-0.1917086, 46.4691895], [-0.1912777, 46.4700422], [-0.1907379, 46.4707156], [-0.1904719, 46.4714059], [-0.1903025, 46.471793], [-0.1900144, 46.4723181], [-0.1896055, 46.4729128], [-0.1894872, 46.4730322], [-0.1894116, 46.4729744], [-0.1894688, 46.472812], [-0.1895441, 46.4726572], [-0.1895799, 46.4724289], [-0.1896885, 46.4720863], [-0.1897381, 46.4719136], [-0.1898251, 46.4718026], [-0.1898781, 46.4716386], [-0.1898567, 46.4711941], [-0.1899766, 46.4708882], [-0.1901505, 46.4705609], [-0.1902732, 46.4703267], [-0.1901928, 46.4702824], [-0.1902876, 46.4700665], [-0.1904055, 46.4699503], [-0.1903997, 46.4698585], [-0.1902974, 46.4697568], [-0.1902646, 46.4696848], [-0.1904982, 46.469599], [-0.1906257, 46.4694992], [-0.1906316, 46.4693935], [-0.1907107, 46.4689952], [-0.1908373, 46.4688032], [-0.1907369, 46.4686423], [-0.1904968, 46.4685734], [-0.1901554, 46.4684483], [-0.1897912, 46.4682938], [-0.1894432, 46.4681269], [-0.1884855, 46.4678688], [-0.188157, 46.467739], [-0.1878904, 46.4675953], [-0.1875308, 46.4674386], [-0.1873402, 46.4675197], [-0.1869811, 46.467623], [-0.1867067, 46.467629], [-0.1864739, 46.4676277], [-0.186385, 46.4675803], [-0.1863839, 46.4674954], [-0.1866624, 46.4674125], [-0.1870149, 46.4672888], [-0.1874099, 46.4671437], [-0.1874945, 46.4670569], [-0.1875253, 46.4669008], [-0.1875426, 46.4666933], [-0.1873582, 46.46655], [-0.1872974, 46.4664272], [-0.1874149, 46.4664383], [-0.1877131, 46.4665466], [-0.1879474, 46.4667264], [-0.1881713, 46.4667801], [-0.1883148, 46.4668695], [-0.188228, 46.4670572], [-0.1882729, 46.4672401], [-0.1884177, 46.4673518], [-0.188731, 46.4674291], [-0.1895463, 46.4674633], [-0.1897609, 46.4674559], [-0.1899654, 46.4673324], [-0.1901087, 46.4672649], [-0.1902994, 46.4675585], [-0.1904509, 46.4675771], [-0.1906925, 46.46743], [-0.1909883, 46.4673133], [-0.1910672, 46.4674162], [-0.1910313, 46.4677031], [-0.1910661, 46.4678149], [-0.1912509, 46.4679399], [-0.191518, 46.4679377], [-0.1918137, 46.4679067], [-0.1922692, 46.4677145], [-0.1926991, 46.4677913], [-0.1928814, 46.4679464], [-0.1930654, 46.4679299], [-0.1932741, 46.4679306], [-0.19353, 46.4680807], [-0.1937633, 46.4681969], [-0.1941262, 46.4682706], [-0.1944621, 46.4682819], [-0.1950068, 46.4685453], [-0.1953371, 46.4686131], [-0.1954936, 46.4687009], [-0.1958178, 46.4687738], [-0.1960673, 46.4687409], [-0.1964038, 46.4685583], [-0.1965362, 46.4685487], [-0.1966255, 46.4686656], [-0.1967534, 46.4688516], [-0.196838, 46.4688649], [-0.1971802, 46.4689153], [-0.1974871, 46.4689205], [-0.1977123, 46.4688433], [-0.1979171, 46.4686874], [-0.1981334, 46.468411], [-0.1982822, 46.4683013], [-0.1985014, 46.468124], [-0.1987088, 46.4679732], [-0.1989368, 46.4678838], [-0.1989753, 46.4677589], [-0.1989757, 46.4677109], [-0.19892, 46.4676105], [-0.1988595, 46.4675041], [-0.1986785, 46.4674879], [-0.1984433, 46.4674756], [-0.1980583, 46.4674439], [-0.1977713, 46.4673377], [-0.1977546, 46.4672845], [-0.1978406, 46.4672241], [-0.1980127, 46.4671215], [-0.1983655, 46.4669968], [-0.1985791, 46.4668283], [-0.1986346, 46.4666294], [-0.1986055, 46.4664066], [-0.1985013, 46.4661903], [-0.1980966, 46.4660263], [-0.1980959, 46.4658911], [-0.1983158, 46.4656993], [-0.1985534, 46.4652004], [-0.1985502, 46.4650326], [-0.1987685, 46.4647779], [-0.1989591, 46.4645378], [-0.1989408, 46.4643097], [-0.1988454, 46.4641974], [-0.1986172, 46.4641585], [-0.1984433, 46.4641585], [-0.1978115, 46.4640474], [-0.1976495, 46.4640023], [-0.1977595, 46.4638312], [-0.1980551, 46.4636556], [-0.1982347, 46.4635957], [-0.1983104, 46.4635038], [-0.1983078, 46.4633545], [-0.1982697, 46.4632189], [-0.1982466, 46.4630629], [-0.1983442, 46.4629842], [-0.1985471, 46.4630085], [-0.1986488, 46.463048], [-0.1987745, 46.4630062], [-0.1988879, 46.4628405], [-0.1989062, 46.4626214], [-0.1988888, 46.4625413], [-0.1988314, 46.4624626], [-0.1987329, 46.4624021], [-0.1987489, 46.4623432], [-0.1988886, 46.46231], [-0.1990293, 46.4621841], [-0.1993478, 46.4621052], [-0.1996984, 46.4622049], [-0.2001247, 46.4625664], [-0.2004137, 46.4626525], [-0.200692, 46.4626241], [-0.200932, 46.462397], [-0.2010984, 46.4621737], [-0.2014641, 46.4617249], [-0.2014741, 46.4616787], [-0.2014233, 46.4615845], [-0.2014456, 46.4615153], [-0.2016018, 46.4613151], [-0.2017173, 46.461164], [-0.2017887, 46.4610333], [-0.2018225, 46.4606736], [-0.2017517, 46.46056], [-0.2016511, 46.4604846], [-0.2014688, 46.4601766], [-0.2014207, 46.4601058], [-0.2013492, 46.4600665], [-0.201749, 46.4599993], [-0.2021319, 46.459936], [-0.2021416, 46.4599652], [-0.2021772, 46.4599792], [-0.2022336, 46.4599678], [-0.2022669, 46.459961], [-0.2022879, 46.4599515], [-0.2022984, 46.4599388], [-0.2022855, 46.4599024], [-0.202679, 46.4598423], [-0.2030687, 46.4597729], [-0.2033927, 46.459713], [-0.2034375, 46.4598025], [-0.2035629, 46.459901], [-0.2037513, 46.4601018], [-0.203866, 46.460223], [-0.203987, 46.460317], [-0.204101, 46.460424], [-0.2043316, 46.4608249], [-0.2045329, 46.4610323], [-0.2044871, 46.4612048], [-0.204655, 46.461336], [-0.2048385, 46.4614267], [-0.2048323, 46.4614931], [-0.204443, 46.461863], [-0.2043035, 46.4618974], [-0.2040947, 46.4619624], [-0.2039849, 46.4621607], [-0.2039002, 46.4622882], [-0.2038309, 46.4624152], [-0.2037615, 46.4625477], [-0.2037674, 46.4627845], [-0.203805, 46.4630931], [-0.2039096, 46.463215], [-0.2037969, 46.4634885], [-0.203821, 46.463637], [-0.2039575, 46.463785], [-0.2039446, 46.4638955], [-0.203846, 46.463942], [-0.2037417, 46.4639695], [-0.203686, 46.463982], [-0.2030383, 46.4637745], [-0.2029238, 46.46375], [-0.2028384, 46.4637527], [-0.2026955, 46.4637863], [-0.20261, 46.463896], [-0.2025368, 46.464012], [-0.2024956, 46.4641228], [-0.2024386, 46.4644371], [-0.2023944, 46.4647011], [-0.2023231, 46.4648744], [-0.2023317, 46.4649452], [-0.2024773, 46.4651363], [-0.2024932, 46.4653158], [-0.2024478, 46.4653859], [-0.2023003, 46.4654764], [-0.201948, 46.465545], [-0.2016932, 46.4655742], [-0.201534, 46.4656256], [-0.2013803, 46.4656944], [-0.2011776, 46.4658009], [-0.2011174, 46.4659346], [-0.2010691, 46.4660491], [-0.201113, 46.466154], [-0.201285, 46.466285], [-0.201577, 46.466405], [-0.2018604, 46.4665516], [-0.2021017, 46.4666015], [-0.2024961, 46.4666828], [-0.202805, 46.466751], [-0.203009, 46.466802], [-0.2036856, 46.4669433], [-0.203985, 46.467105], [-0.2040517, 46.4671964], [-0.2040601, 46.4672726], [-0.2040099, 46.4673226], [-0.2038427, 46.4673747], [-0.2036054, 46.4674134], [-0.2033788, 46.4674622], [-0.2031103, 46.4675252], [-0.202931, 46.467569], [-0.2028709, 46.4675812], [-0.2027911, 46.4676342], [-0.2028072, 46.4677654], [-0.2027589, 46.4682069], [-0.2025581, 46.4685073]]]}}]}