{"type": "FeatureCollection", "features": [{"type": "Feature", "properties": {"name": "Lac du Tordre"}, "geometry": {"type": "Polygon", "coordinates": [[[1.4645218, 44.0042258], [1.4646344, 44.0043786], [1.4644395, 44.0046256], [1.464226, 44.0048311], [1.464203, 44.0050933], [1.4641988, 44.0053832], [1.4640038, 44.0056303], [1.4636905, 44.006125], [1.4635324, 44.006469], [1.4633146, 44.0069644], [1.4637681, 44.0086524], [1.4636454, 44.00919], [1.4636605, 44.0094663], [1.4635398, 44.0098658], [1.463492, 44.0105144], [1.4623819, 44.0118453], [1.4614809, 44.0132606], [1.4613781, 44.0137431], [1.461546, 44.0140343], [1.4611543, 44.0146527], [1.4609513, 44.0154382], [1.4606823, 44.015519], [1.4601545, 44.0162744], [1.4591639, 44.0172747], [1.4591584, 44.0176475], [1.4595331, 44.0181889], [1.4602562, 44.0184568], [1.4608232, 44.0185249], [1.4610689, 44.018783], [1.4610338, 44.019015], [1.4608396, 44.019098], [1.460282, 44.0192569], [1.4598587, 44.0194618], [1.4596828, 44.0197089], [1.4598013, 44.0207698], [1.4600429, 44.0212444], [1.4603231, 44.0217022], [1.4602757, 44.0223232], [1.4598713, 44.0227936], [1.4594854, 44.0229893], [1.4579586, 44.0225033], [1.4563482, 44.021981], [1.4553998, 44.0216933], [1.454401, 44.0213507], [1.4548052, 44.0207915], [1.4555422, 44.0194854], [1.4555483, 44.0190321], [1.4555337, 44.0184498], [1.4555442, 44.0177422], [1.4556758, 44.016932], [1.4558606, 44.0157597], [1.4564038, 44.0146075], [1.4566519, 44.014067], [1.4567217, 44.0139149], [1.4568879, 44.0137704], [1.4570684, 44.0134528], [1.4570173, 44.0129649], [1.4573392, 44.0120245], [1.4576495, 44.0118609], [1.4578877, 44.011305], [1.4579679, 44.010736], [1.4580763, 44.0098739], [1.4594297, 44.0089177], [1.4596009, 44.0086601], [1.4598751, 44.0079028], [1.4601448, 44.0074561], [1.4604691, 44.0065438], [1.4610285, 44.0059095], [1.4623374, 44.0047114], [1.4633015, 44.0042009], [1.4642484, 44.0040729], [1.4645218, 44.0042258]]]}}, {"type": "Feature", "properties": {"name": "Lac du Gouyre"}, "geometry": {"type": "Polygon", "coordinates": [[[1.6132354, 44.0423748], [1.6131648, 44.0424382], [1.6129402, 44.0424669], [1.6128147, 44.0425357], [1.6126217, 44.0426935], [1.6124294, 44.0428654], [1.612269, 44.0430271], [1.6118976, 44.0431152], [1.6115376, 44.0432357], [1.6115699, 44.0432965], [1.6114857, 44.0433824], [1.6111149, 44.043487], [1.6108557, 44.0436601], [1.6107278, 44.0437138], [1.6105315, 44.0437667], [1.6104131, 44.0438287], [1.6101961, 44.0438429], [1.6100165, 44.0440096], [1.6096631, 44.0441795], [1.6094534, 44.0442138], [1.6092861, 44.0442665], [1.6090856, 44.0443667], [1.6088996, 44.0444479], [1.6087341, 44.0444943], [1.6085695, 44.0446199], [1.6084283, 44.0447878], [1.6081869, 44.0451052], [1.6080637, 44.0453675], [1.6079925, 44.0458216], [1.6077449, 44.0465584], [1.6076741, 44.0467285], [1.6077227, 44.0468743], [1.6077551, 44.0470147], [1.6076652, 44.047217], [1.6074782, 44.0476799], [1.6070828, 44.0480831], [1.6068245, 44.0482072], [1.606594, 44.048481], [1.6064885, 44.0488217], [1.6066433, 44.0488851], [1.6066082, 44.0490036], [1.6063821, 44.0490277], [1.6061329, 44.0490578], [1.6058951, 44.0491553], [1.6058617, 44.0493485], [1.6059888, 44.0495893], [1.6059499, 44.0498537], [1.6058254, 44.0500564], [1.6056972, 44.0501592], [1.6055888, 44.0504462], [1.6055937, 44.0507475], [1.605661, 44.0509377], [1.6057465, 44.051109], [1.6057761, 44.0513464], [1.6056134, 44.0516406], [1.6055859, 44.0518829], [1.6056651, 44.0521106], [1.6058359, 44.0520856], [1.605945, 44.052157], [1.6058766, 44.0522646], [1.6056965, 44.0523236], [1.6057731, 44.052502], [1.6056965, 44.0528223], [1.605739, 44.0531891], [1.6060172, 44.0534563], [1.6062508, 44.0538297], [1.6063938, 44.0540678], [1.606526, 44.0541024], [1.6066797, 44.0540853], [1.6070108, 44.0539444], [1.6072524, 44.0537743], [1.6075415, 44.0536431], [1.6076107, 44.0536117], [1.6077751, 44.0536361], [1.607764, 44.0538601], [1.6071203, 44.0544754], [1.6066459, 44.0548764], [1.6063223, 44.0550866], [1.6063673, 44.0551865], [1.6033054, 44.055835], [1.6031586, 44.0557936], [1.6032033, 44.0555242], [1.6031549, 44.0551848], [1.6029165, 44.0547838], [1.6028549, 44.0543302], [1.602859, 44.0539804], [1.60279, 44.0537536], [1.6027859, 44.0534938], [1.6028204, 44.0532227], [1.6027673, 44.0529797], [1.6026148, 44.05253], [1.6025048, 44.0523066], [1.602496, 44.0520453], [1.6023893, 44.0517435], [1.602379, 44.0513538], [1.6023857, 44.0510738], [1.6023013, 44.0509029], [1.6022723, 44.0507726], [1.6022811, 44.0504545], [1.6022809, 44.0502305], [1.6023033, 44.0500016], [1.6023361, 44.0496427], [1.6024253, 44.0493478], [1.6026149, 44.0489011], [1.6027184, 44.048749], [1.6028161, 44.0485347], [1.6030148, 44.0482703], [1.6031612, 44.0480849], [1.603246, 44.0479288], [1.6033018, 44.047593], [1.6034018, 44.0472917], [1.6035563, 44.0470215], [1.603897, 44.0467177], [1.6041253, 44.0464345], [1.6042119, 44.0462221], [1.6041875, 44.0459664], [1.6042186, 44.0457904], [1.604338, 44.0456413], [1.6044548, 44.0456727], [1.6045315, 44.0455423], [1.6049266, 44.0452847], [1.6052823, 44.0450441], [1.6054435, 44.0448909], [1.605483, 44.044681], [1.6056902, 44.0443825], [1.6059793, 44.0440189], [1.6062986, 44.043514], [1.6064344, 44.043202], [1.6066139, 44.0430671], [1.6068311, 44.0429358], [1.607049, 44.0428694], [1.6072652, 44.0429182], [1.6075267, 44.0429395], [1.6082218, 44.0426545], [1.6084384, 44.0424095], [1.6092825, 44.0421065], [1.6096344, 44.0420535], [1.6098889, 44.0420548], [1.6099827, 44.0419381], [1.6104015, 44.0418994], [1.6108966, 44.0416412], [1.6110465, 44.0414708], [1.6112749, 44.0415234], [1.6116131, 44.0414031], [1.6118502, 44.0414144], [1.6118677, 44.0413041], [1.6121309, 44.0412039], [1.6122801, 44.0412074], [1.6132354, 44.0423748]]]}}, {"type": "Feature", "properties": {"name": "Lac de Vigueron"}, "geometry": {"type": "Polygon", "coordinates": [[[1.0709675, 43.8805304], [1.0704989, 43.8797449], [1.0698726, 43.8792997], [1.0683598, 43.8776431], [1.066942, 43.8768908], [1.0653516, 43.8755831], [1.0646721, 43.8749991], [1.0630426, 43.8738374], [1.0628804, 43.873348], [1.0624353, 43.8728617], [1.062246, 43.8726687], [1.0619794, 43.8726062], [1.0619013, 43.8724512], [1.0615425, 43.8723356], [1.0616374, 43.8727381], [1.061597, 43.8732572], [1.0622858, 43.8739963], [1.0627149, 43.8743883], [1.0627277, 43.8746486], [1.0630746, 43.8752511], [1.0636292, 43.8758662], [1.0640362, 43.8763177], [1.0641391, 43.876496], [1.0643931, 43.8769363], [1.0652927, 43.8776385], [1.0660189, 43.8783529], [1.0660869, 43.8787761], [1.0666558, 43.8791195], [1.0671905, 43.8797907], [1.0671498, 43.8801444], [1.0664154, 43.8804317], [1.0659259, 43.8806325], [1.0658486, 43.8806835], [1.0658129, 43.8807508], [1.0658114, 43.8808142], [1.0658588, 43.8808484], [1.0664925, 43.8810492], [1.0672903, 43.8813021], [1.0677974, 43.8812675], [1.0683486, 43.8812329], [1.068513, 43.8813039], [1.0689027, 43.881581], [1.0698064, 43.881124], [1.0709675, 43.8805304]]]}}, {"type": "Feature", "properties": {"name": "Retenue de Bouillac-Lagraulet"}, "geometry": {"type": "Polygon", "coordinates": [[[1.0738372, 43.8100974], [1.0738968, 43.8105209], [1.0741551, 43.8115194], [1.0743079, 43.8119027], [1.0744725, 43.812345], [1.0745134, 43.8126195], [1.0745671, 43.812898], [1.0746624, 43.813058], [1.074753, 43.8131684], [1.0752285, 43.8137048], [1.0753868, 43.8139835], [1.0755048, 43.8142255], [1.0755933, 43.8144093], [1.075655, 43.8144519], [1.0756899, 43.8144829], [1.0756791, 43.8145177], [1.075706, 43.8145893], [1.0757811, 43.8146706], [1.0759178, 43.8147906], [1.0759983, 43.8148622], [1.0761914, 43.8150229], [1.0763629, 43.8151341], [1.0764357, 43.8151578], [1.0767567, 43.8152538], [1.0768508, 43.8153078], [1.0769354, 43.8153952], [1.0770408, 43.8155619], [1.077284, 43.815713], [1.0777632, 43.8158919], [1.0780663, 43.8159964], [1.0782353, 43.8160544], [1.0783533, 43.8160815], [1.0784418, 43.8160873], [1.0785384, 43.8160854], [1.0786188, 43.8160544], [1.0810463, 43.8147505], [1.0814392, 43.8145394], [1.0814766, 43.8142091], [1.081505, 43.8140308], [1.0816819, 43.8134447], [1.0818323, 43.8130335], [1.0819013, 43.8128317], [1.0819491, 43.8126415], [1.0819757, 43.8124474], [1.0820235, 43.8122328], [1.0820818, 43.8119825], [1.0821526, 43.8117297], [1.0821579, 43.811625], [1.0821049, 43.8115062], [1.0820217, 43.8113658], [1.0819881, 43.8112917], [1.0819403, 43.8111295], [1.0818642, 43.8109699], [1.081781, 43.8108256], [1.0816872, 43.8106979], [1.0815156, 43.8105319], [1.0814696, 43.8105166], [1.0814377, 43.8104808], [1.0814395, 43.8103825], [1.0814218, 43.810302], [1.0813528, 43.8102522], [1.0812342, 43.810228], [1.0810484, 43.8102152], [1.0807954, 43.8101845], [1.0806396, 43.8101501], [1.0804927, 43.8100964], [1.0802946, 43.8100249], [1.0801742, 43.8099892], [1.0800698, 43.8099802], [1.0799583, 43.8099853], [1.0798847, 43.8100195], [1.0798115, 43.810016], [1.0797318, 43.8100122], [1.0796646, 43.8099866], [1.0795124, 43.8099036], [1.079346, 43.8098398], [1.0791602, 43.809804], [1.0789497, 43.809767], [1.0788187, 43.809735], [1.0787178, 43.8097069], [1.0785798, 43.809684], [1.07844, 43.8096635], [1.078217, 43.8096367], [1.0780985, 43.8095907], [1.0780065, 43.8095678], [1.0778384, 43.8095895], [1.0776968, 43.8096061], [1.0775729, 43.8096073], [1.0774243, 43.8095882], [1.0769894, 43.809502], [1.0767969, 43.8094789], [1.0767226, 43.809452], [1.0766412, 43.8094418], [1.0765385, 43.8094495], [1.0764536, 43.809475], [1.0763793, 43.8095057], [1.0763262, 43.8095261], [1.0762554, 43.8095363], [1.0761581, 43.8095402], [1.0760625, 43.8095325], [1.0759687, 43.8095389], [1.0758732, 43.8095555], [1.0757581, 43.8095542], [1.0756767, 43.8095465], [1.0756148, 43.8095261], [1.0755316, 43.8095248], [1.0754343, 43.8095299], [1.0753423, 43.8095248], [1.0752361, 43.8094891], [1.0751582, 43.8094648], [1.0750698, 43.8094623], [1.0749477, 43.8094789], [1.0748539, 43.809484], [1.0747654, 43.8094827], [1.074638, 43.8094814], [1.0744876, 43.8094699], [1.0744416, 43.8094546], [1.0743725, 43.8094278], [1.0743018, 43.8093895], [1.0742274, 43.8093397], [1.0741814, 43.8093014], [1.0741213, 43.809263], [1.0740841, 43.8092503], [1.0740345, 43.8092477], [1.0739815, 43.8092196], [1.0739142, 43.8091647], [1.0738204, 43.8090613], [1.0737072, 43.8089285], [1.0736293, 43.8088314], [1.0735674, 43.808751], [1.0734895, 43.8086794], [1.0733763, 43.8086207], [1.0731185, 43.808228], [1.0729103, 43.8079125], [1.0728842, 43.8079208], [1.072855, 43.8079301], [1.073089, 43.808304], [1.0732137, 43.8085119], [1.0732931, 43.8086462], [1.073355, 43.8087267], [1.0734205, 43.8088161], [1.0734402, 43.8088926], [1.0734364, 43.8089476], [1.0734152, 43.809014], [1.07344, 43.8090626], [1.0734842, 43.8090715], [1.0735585, 43.8091277], [1.0736647, 43.8092311], [1.0737178, 43.8092848], [1.0737797, 43.809332], [1.0738116, 43.8093767], [1.0738187, 43.8094201], [1.073762, 43.8094967], [1.0737302, 43.8095402], [1.0736895, 43.8095631], [1.0736806, 43.8095951], [1.0737089, 43.8096181], [1.0737514, 43.8096155], [1.073808, 43.8095887], [1.0738594, 43.8095861], [1.0739054, 43.8096015], [1.0740045, 43.809664], [1.0740725, 43.809694], [1.0741434, 43.809734], [1.0741742, 43.8097629], [1.0742173, 43.809794], [1.0742882, 43.8098096], [1.0743221, 43.8098096], [1.0743621, 43.809814], [1.0744022, 43.8098207], [1.0744423, 43.8098274], [1.0738372, 43.8100974]]]}}]}