{"type": "FeatureCollection", "features": [{"type": "Feature", "properties": {"name": "Étang des Verrières"}, "geometry": {"type": "Polygon", "coordinates": [[[0.6972112, 46.1407712], [0.696101, 46.140887], [0.6958676, 46.1407627], [0.6957021, 46.1399581], [0.6957525, 46.1393324], [0.6949782, 46.1393212], [0.694285, 46.1392452], [0.694091, 46.1393852], [0.6946661, 46.1397122], [0.6946885, 46.1400203], [0.6944136, 46.1402251], [0.6929897, 46.1402593], [0.6929025, 46.1405328], [0.6926917, 46.1407056], [0.6920261, 46.1407618], [0.6920366, 46.1409378], [0.6923121, 46.1412385], [0.6925945, 46.141836], [0.6932548, 46.142483], [0.6932446, 46.1428235], [0.6930562, 46.1433043], [0.6945722, 46.1438868], [0.6945334, 46.1436005], [0.6950832, 46.1431909], [0.6957671, 46.143035], [0.6962612, 46.1429223], [0.697505, 46.1430942], [0.6981805, 46.1432287], [0.6986451, 46.1430338], [0.6989839, 46.142808], [0.6994455, 46.1427047], [0.6996569, 46.14251], [0.6997105, 46.142302], [0.7000348, 46.1420319], [0.6999193, 46.1416676], [0.6998643, 46.1413921], [0.7003683, 46.1403994], [0.7002491, 46.1401559], [0.6996832, 46.1400488], [0.699276, 46.139922], [0.6986024, 46.1402419], [0.6978627, 46.1406598], [0.6972112, 46.1407712]]]}}, {"type": "Feature", "properties": {"name": "Lac de Villedon"}, "geometry": {"type": "Polygon", "coordinates": [[[0.8225453, 46.1493519], [0.8227461, 46.1492972], [0.8228402, 46.1491547], [0.8226988, 46.1489891], [0.8222666, 46.1488606], [0.8217539, 46.1487926], [0.8205376, 46.1489373], [0.819879, 46.1488005], [0.8192471, 46.1485961], [0.8186065, 46.1485653], [0.8174311, 46.1483741], [0.8173071, 46.1482949], [0.8170039, 46.1478167], [0.8167947, 46.1476548], [0.8166612, 46.1476687], [0.8159136, 46.1483658], [0.815473, 46.1483445], [0.8151947, 46.1481583], [0.8147028, 46.1479966], [0.813826, 46.1480439], [0.8129702, 46.1478344], [0.8124199, 46.1479343], [0.8118603, 46.1477425], [0.8115338, 46.1477444], [0.8110764, 46.1476965], [0.8106802, 46.1476699], [0.8102881, 46.1475272], [0.8101234, 46.1471832], [0.8097773, 46.1470698], [0.8090864, 46.1472735], [0.8083672, 46.1463946], [0.8077026, 46.146056], [0.8071098, 46.1460145], [0.8070291, 46.1460687], [0.8063372, 46.1460824], [0.8058171, 46.1459607], [0.8054659, 46.1458747], [0.8054364, 46.1459239], [0.805193, 46.1463303], [0.8050028, 46.1466999], [0.804877, 46.1469445], [0.804908, 46.1470216], [0.805353, 46.1471937], [0.8056682, 46.1472395], [0.8059213, 46.147215], [0.8060784, 46.1471447], [0.8063428, 46.1472239], [0.8065991, 46.1474667], [0.8069495, 46.1477382], [0.8069479, 46.1478571], [0.8070943, 46.148047], [0.8075495, 46.1489953], [0.8078904, 46.1493067], [0.8084168, 46.1495458], [0.8089006, 46.1494693], [0.8097649, 46.149652], [0.8104212, 46.1496267], [0.8114341, 46.1495457], [0.8121001, 46.1494712], [0.8128323, 46.1495272], [0.8135023, 46.1495911], [0.8140798, 46.1499321], [0.8141521, 46.150238], [0.8143577, 46.1508741], [0.8144902, 46.1508681], [0.8149179, 46.1507106], [0.8150982, 46.1507345], [0.8154544, 46.1506767], [0.8159733, 46.1502476], [0.8163087, 46.1501929], [0.8175354, 46.1501248], [0.8176886, 46.1499192], [0.8180836, 46.1498533], [0.8183126, 46.1500589], [0.8185919, 46.1501384], [0.819495, 46.1500092], [0.8196976, 46.1501004], [0.8203148, 46.1502301], [0.8206063, 46.1502625], [0.8211528, 46.1505644], [0.821549, 46.1504752], [0.8217547, 46.1499586], [0.8220277, 46.1497124], [0.8224199, 46.1496244], [0.8225453, 46.1493519]]]}}, {"type": "Feature", "properties": {"name": "Étang de Beaufour"}, "geometry": {"type": "Polygon", "coordinates": [[[0.826147, 46.367974], [0.8243716, 46.3677012], [0.8238512, 46.3682454], [0.8221457, 46.368488], [0.8206272, 46.3682083], [0.8191867, 46.3689151], [0.81846, 46.3685193], [0.8171933, 46.368667], [0.817135, 46.3698925], [0.8167913, 46.3709442], [0.8166867, 46.3714269], [0.8169119, 46.3718873], [0.817531, 46.3721148], [0.818713, 46.3724421], [0.8206025, 46.3718097], [0.8216076, 46.3718707], [0.8221141, 46.3713437], [0.8225965, 46.3705337], [0.8247594, 46.3701953], [0.8252821, 46.3702119], [0.8257002, 46.3696349], [0.8265203, 46.3689192], [0.8273083, 46.3685031], [0.8275415, 46.3683533], [0.8293497, 46.3677271], [0.829972, 46.3674088], [0.829103, 46.3669202], [0.8271557, 46.3675124], [0.826147, 46.367974]]]}}, {"type": "Feature", "properties": {"name": "Lac de Saint Cyr"}, "geometry": {"type": "Polygon", "coordinates": [[[0.4595396, 46.7210512], [0.459042, 46.7211131], [0.4584779, 46.7212511], [0.4579798, 46.7214845], [0.4575169, 46.7217977], [0.4573743, 46.7219469], [0.456735, 46.7226155], [0.4561825, 46.7232407], [0.4561176, 46.7234067], [0.4561028, 46.7234569], [0.456128, 46.7234994], [0.45626, 46.7235474], [0.456338, 46.7235858], [0.456364, 46.7236159], [0.4563855, 46.7236694], [0.4564419, 46.723804], [0.4564844, 46.7239565], [0.4565243, 46.7240249], [0.4565992, 46.7240902], [0.4568627, 46.724306], [0.4569306, 46.7244387], [0.4570691, 46.7245761], [0.4572282, 46.7246496], [0.4575532, 46.7248198], [0.4576797, 46.7249058], [0.4578257, 46.724973], [0.4580176, 46.7250237], [0.4583016, 46.7251279], [0.4583776, 46.7251416], [0.4585455, 46.7251512], [0.4587378, 46.7252399], [0.4597051, 46.7253751], [0.4606752, 46.7253692], [0.4609162, 46.7254549], [0.4611629, 46.7254696], [0.4613702, 46.725755], [0.4614973, 46.7258309], [0.4616747, 46.7260437], [0.4621349, 46.7263347], [0.4623646, 46.7263393], [0.4621832, 46.7262669], [0.4621126, 46.7262196], [0.4620795, 46.7261772], [0.4622699, 46.7261586], [0.4624101, 46.7260929], [0.4625496, 46.726218], [0.4626703, 46.7263926], [0.4627696, 46.7264699], [0.4628527, 46.7264588], [0.4626837, 46.7262419], [0.4626489, 46.7261361], [0.4626878, 46.7260847], [0.4627642, 46.7260874], [0.4628876, 46.7262327], [0.4631018, 46.7265275], [0.4631692, 46.7266758], [0.4630303, 46.726722], [0.4630083, 46.7268532], [0.4629144, 46.7269767], [0.4633217, 46.72731], [0.4637556, 46.7274255], [0.4642492, 46.7274274], [0.4648211, 46.727585], [0.4654041, 46.7280106], [0.4657562, 46.7283849], [0.46642, 46.7283636], [0.4667797, 46.728446], [0.4670195, 46.7285908], [0.4671662, 46.7288096], [0.4673694, 46.7292487], [0.4675323, 46.7294243], [0.4677568, 46.7295482], [0.4681271, 46.7296548], [0.4686248, 46.7297111], [0.4690397, 46.7298471], [0.4691844, 46.7299906], [0.469276, 46.7301421], [0.469245, 46.7303813], [0.4704402, 46.7305844], [0.4712175, 46.7308551], [0.4721569, 46.7310775], [0.4729318, 46.7312191], [0.4737817, 46.7312715], [0.473931, 46.73111], [0.4740038, 46.7309622], [0.4740241, 46.7308298], [0.473619, 46.7306051], [0.473359, 46.7303124], [0.4733088, 46.7299193], [0.4734113, 46.7296997], [0.4734681, 46.7294701], [0.4733156, 46.7292132], [0.473154, 46.7290105], [0.4731357, 46.7285574], [0.4732247, 46.7277843], [0.4732166, 46.7273959], [0.4731393, 46.7270773], [0.4729448, 46.7268738], [0.4727096, 46.7266966], [0.4719937, 46.7265222], [0.4714658, 46.7262145], [0.4711333, 46.7259192], [0.4702802, 46.7253027], [0.4699913, 46.7251469], [0.4697247, 46.7250776], [0.4692828, 46.725095], [0.4691063, 46.7250684], [0.4687954, 46.7248969], [0.4685107, 46.7247398], [0.4684707, 46.7246705], [0.4684633, 46.7246132], [0.4685248, 46.724438], [0.4685061, 46.7242851], [0.4683175, 46.7241442], [0.468113, 46.724021], [0.4676644, 46.7237903], [0.4674916, 46.7237606], [0.4671391, 46.7237374], [0.4670145, 46.7237592], [0.4663592, 46.7242368], [0.4659577, 46.7242734], [0.4654731, 46.7242571], [0.4652738, 46.724232], [0.4646969, 46.724021], [0.4639577, 46.7238024], [0.4637738, 46.7237001], [0.4636501, 46.7235582], [0.4636234, 46.7234001], [0.4643087, 46.7229333], [0.4644651, 46.7228755], [0.4646827, 46.722834], [0.4648248, 46.722852], [0.4649569, 46.7229087], [0.4649761, 46.7229592], [0.4649949, 46.7230746], [0.4650477, 46.7230999], [0.4651777, 46.7230861], [0.4652879, 46.7230366], [0.465584, 46.7227595], [0.4655529, 46.7226198], [0.4654589, 46.7225547], [0.4651932, 46.7225041], [0.4649444, 46.7224017], [0.4648224, 46.7222286], [0.4646306, 46.722106], [0.4644339, 46.722], [0.4641361, 46.7219066], [0.4639319, 46.7217823], [0.4637536, 46.7217056], [0.4635461, 46.7216378], [0.463182, 46.7214378], [0.4621034, 46.7212283], [0.4617534, 46.7212103], [0.4607631, 46.7210848], [0.4603151, 46.7210412], [0.4595396, 46.7210512]]]}}]}