{"type": "FeatureCollection", "features": [{"type": "Feature", "properties": {"name": "Étang de la Pouge"}, "geometry": {"type": "Polygon", "coordinates": [[[0.9299729, 45.7820088], [0.9298863, 45.7825599], [0.930111, 45.7831726], [0.9305763, 45.783114], [0.9309936, 45.7835502], [0.9311855, 45.7845244], [0.9310183, 45.7848039], [0.9311081, 45.7849984], [0.9315345, 45.7850907], [0.9322528, 45.7851582], [0.9328909, 45.7854697], [0.9334519, 45.7857165], [0.9337381, 45.7857178], [0.9344027, 45.7863284], [0.9345085, 45.7865209], [0.9345468, 45.7866747], [0.93459, 45.7867579], [0.9347627, 45.7870294], [0.9346717, 45.7871275], [0.9347996, 45.7875004], [0.9347831, 45.7877854], [0.9346104, 45.7883941], [0.9344542, 45.7884917], [0.9343748, 45.7886947], [0.9342219, 45.7887352], [0.9341932, 45.7889458], [0.9344378, 45.7892201], [0.9347332, 45.7894264], [0.9348084, 45.7895522], [0.9348255, 45.789891], [0.9348495, 45.7900683], [0.9349502, 45.7902555], [0.9352011, 45.7904981], [0.9353915, 45.7906185], [0.9354808, 45.7908382], [0.9352259, 45.7918056], [0.9353702, 45.7923067], [0.9350314, 45.792404], [0.9347497, 45.7923392], [0.9338296, 45.7920674], [0.9335553, 45.7918629], [0.933393, 45.7920902], [0.9333559, 45.7921422], [0.9335983, 45.7923341], [0.9337466, 45.7924516], [0.9340541, 45.792695], [0.9342574, 45.7928859], [0.9346158, 45.7932227], [0.9348447, 45.7934377], [0.935399, 45.7939728], [0.9357572, 45.7943186], [0.9361128, 45.7946619], [0.9361972, 45.7947434], [0.9361878, 45.795023], [0.9361753, 45.795394], [0.9361709, 45.7955258], [0.9361323, 45.7956227], [0.9360939, 45.7957192], [0.9360687, 45.7957826], [0.936017, 45.7958197], [0.9359711, 45.7958526], [0.9359458, 45.7959701], [0.9359223, 45.7960796], [0.9358838, 45.7962034], [0.9358507, 45.7963101], [0.9358747, 45.7964095], [0.935884, 45.7964478], [0.9358924, 45.7964825], [0.9358986, 45.7965081], [0.9360191, 45.7965461], [0.9362488, 45.7966185], [0.93644, 45.7966787], [0.9365915, 45.7967265], [0.9366757, 45.796753], [0.9367159, 45.7967502], [0.9367655, 45.7967483], [0.9368192, 45.7967558], [0.9368902, 45.7967792], [0.9369318, 45.7968091], [0.9369666, 45.796847], [0.937026, 45.7968282], [0.9371337, 45.7967942], [0.9372413, 45.7967889], [0.9373802, 45.796782], [0.9374354, 45.7967793], [0.9377596, 45.7965898], [0.9377925, 45.796451], [0.9377296, 45.7962108], [0.9377596, 45.7960836], [0.9378369, 45.7959589], [0.937797, 45.7958068], [0.937408, 45.7955301], [0.9374011, 45.794992], [0.9374853, 45.7944255], [0.9377646, 45.7935279], [0.9374604, 45.7925479], [0.9373407, 45.7924507], [0.9371961, 45.7920393], [0.9371594, 45.7910691], [0.9374604, 45.7898426], [0.9377046, 45.7891168], [0.9379067, 45.7887006], [0.9380289, 45.7880723], [0.9379334, 45.7875399], [0.9379296, 45.7875129], [0.9379238, 45.7874724], [0.937896, 45.7873212], [0.9378736, 45.7872489], [0.9378173, 45.7870676], [0.937767, 45.7869054], [0.9373631, 45.786651], [0.936993, 45.7861628], [0.9369268, 45.7855739], [0.9369293, 45.7852223], [0.9367647, 45.7850428], [0.9364605, 45.7849904], [0.9361392, 45.7850602], [0.9359793, 45.7849879], [0.9357873, 45.7850578], [0.9355155, 45.7849381], [0.9351236, 45.7845867], [0.9346902, 45.7846339], [0.9343261, 45.7844843], [0.9339297, 45.7840454], [0.9320382, 45.7835617], [0.9316482, 45.7832725], [0.9312393, 45.7831079], [0.9307905, 45.7826965], [0.9305645, 45.7824195], [0.9304848, 45.7821452], [0.9303002, 45.7819682], [0.9302354, 45.782043], [0.9302828, 45.7822599], [0.9299729, 45.7820088]]]}}, {"type": "Feature", "properties": {"name": "Étang de Cieux"}, "geometry": {"type": "Polygon", "coordinates": [[[1.0502973, 45.9864212], [1.051248, 45.985431], [1.0514357, 45.9852381], [1.0514665, 45.9852027], [1.0517335, 45.9852929], [1.0526304, 45.9854805], [1.0530666, 45.985789], [1.0550702, 45.9857047], [1.0553727, 45.9856593], [1.0556436, 45.9857789], [1.0557751, 45.9859381], [1.0558169, 45.9862225], [1.0558105, 45.9865095], [1.0569408, 45.9880042], [1.0568354, 45.9885434], [1.0571951, 45.9888743], [1.059118, 45.9891518], [1.0597467, 45.9890924], [1.0601694, 45.9889809], [1.0611326, 45.9889126], [1.0615502, 45.9886382], [1.0616971, 45.9887207], [1.0619373, 45.9888555], [1.0618488, 45.9893292], [1.0611455, 45.9895421], [1.0603977, 45.9899563], [1.0598183, 45.9905776], [1.0599602, 45.9910549], [1.060369, 45.9912351], [1.060778, 45.9918424], [1.0608325, 45.9922278], [1.0606002, 45.9924314], [1.0605707, 45.992942], [1.0606705, 45.993259], [1.0607936, 45.9933818], [1.0606962, 45.9936095], [1.060623, 45.9939106], [1.0601378, 45.9940225], [1.0597078, 45.9939529], [1.0594211, 45.9936628], [1.0589348, 45.9930551], [1.0579228, 45.9922988], [1.0568813, 45.9919389], [1.0563226, 45.992052], [1.0562556, 45.992325], [1.0562902, 45.9925466], [1.0559578, 45.9929987], [1.0554555, 45.9934044], [1.0547755, 45.9935849], [1.054506, 45.9928207], [1.0540095, 45.9926187], [1.0534754, 45.9924013], [1.0529766, 45.9919445], [1.0533491, 45.9915716], [1.0539939, 45.991294], [1.0547313, 45.9904293], [1.0543681, 45.9900253], [1.054319, 45.9894164], [1.0538048, 45.9890916], [1.0528376, 45.9890551], [1.0530586, 45.9886315], [1.0530509, 45.9882018], [1.0520072, 45.9875752], [1.0512849, 45.9874789], [1.0511162, 45.9872215], [1.0511977, 45.9868607], [1.0505675, 45.9866949], [1.050392, 45.9865622], [1.0502973, 45.9864212]]]}}, {"type": "Feature", "properties": {"name": "Lac de Saint-Pardoux"}, "geometry": {"type": "Polygon", "coordinates": [[[1.2796803, 46.0430448], [1.2801314, 46.0430844], [1.2801462, 46.0429464], [1.2801367, 46.0427686], [1.280201, 46.042617], [1.2804061, 46.0424834], [1.2803642, 46.0424229], [1.2805379, 46.0422788], [1.2806386, 46.0422356], [1.2805356, 46.0420688], [1.2804915, 46.041943], [1.2803715, 46.0418802], [1.280068, 46.0419185], [1.2790291, 46.0422631], [1.2789995, 46.0421063], [1.2787161, 46.0414865], [1.2782383, 46.0407276], [1.2778702, 46.039632], [1.2782554, 46.0391383], [1.2785677, 46.0389812], [1.2793954, 46.0388605], [1.2802431, 46.0389398], [1.2810006, 46.0391599], [1.2809901, 46.0388064], [1.2801646, 46.0380967], [1.2797141, 46.037404], [1.279063, 46.0371235], [1.2778146, 46.0373528], [1.2773023, 46.0368837], [1.2771372, 46.0366131], [1.2771713, 46.0362029], [1.2776364, 46.0355249], [1.2783449, 46.0352195], [1.2787677, 46.0350944], [1.2791673, 46.0351119], [1.2798217, 46.0355404], [1.2798937, 46.034846], [1.2802214, 46.0345569], [1.2806584, 46.0343953], [1.2814534, 46.0342662], [1.2819938, 46.0339815], [1.2825455, 46.0339536], [1.2829666, 46.0340266], [1.2840091, 46.0338896], [1.2845838, 46.0337728], [1.2848641, 46.0337886], [1.2851416, 46.0340414], [1.2850239, 46.0346541], [1.2849468, 46.0350103], [1.2856659, 46.0357675], [1.2856104, 46.0358778], [1.2850532, 46.0361871], [1.2851094, 46.0366095], [1.2853215, 46.036676], [1.2862, 46.0362928], [1.2869852, 46.0364616], [1.2872125, 46.0366384], [1.287308, 46.0366368], [1.2874711, 46.0366341], [1.2876417, 46.0368259], [1.287584, 46.036945], [1.2876475, 46.0371417], [1.28839, 46.0372944], [1.2887371, 46.0375101], [1.2889168, 46.0375154], [1.289348, 46.0379503], [1.289316, 46.0381316], [1.2889029, 46.0385279], [1.2889973, 46.0386758], [1.2898283, 46.0386968], [1.2904603, 46.0384602], [1.2908334, 46.038504], [1.2911042, 46.0384462], [1.291293, 46.0383366], [1.2915144, 46.038001], [1.2922904, 46.0378468], [1.2929412, 46.0375892], [1.2933412, 46.0376397], [1.2936023, 46.0377658], [1.2937443, 46.0380075], [1.2937137, 46.03826], [1.2938081, 46.0383723], [1.2937979, 46.0384998], [1.2937035, 46.0385814], [1.2935646, 46.0390989], [1.2936244, 46.039691], [1.293405, 46.0397701], [1.2935504, 46.0398364], [1.2937496, 46.0397699], [1.2942289, 46.039663], [1.2943922, 46.0395711], [1.2948182, 46.0394206], [1.2949049, 46.0393084], [1.2950789, 46.0392843], [1.2952527, 46.0393062], [1.2956064, 46.0395788], [1.2957594, 46.0399129], [1.2958104, 46.0400099], [1.295966, 46.0400303], [1.2960808, 46.039991], [1.2962084, 46.0398951], [1.296364, 46.0396502], [1.2963996, 46.0394883], [1.2963946, 46.0392217], [1.2960757, 46.038936], [1.2960804, 46.0388409], [1.2958385, 46.0386095], [1.2955184, 46.0384596], [1.2951804, 46.0382473], [1.2949976, 46.0376732], [1.2950477, 46.0370203], [1.2951268, 46.0369413], [1.2954636, 46.0369934], [1.2959048, 46.0371275], [1.2960706, 46.0370688], [1.2962707, 46.0371664], [1.2969965, 46.0377422], [1.2973766, 46.0381886], [1.2978101, 46.0384195], [1.297897, 46.0385891], [1.2980449, 46.0386044], [1.2982235, 46.0386784], [1.2983626, 46.0389301], [1.2983408, 46.0392344], [1.2981632, 46.0397628], [1.2980092, 46.0398645], [1.29805, 46.0402981], [1.297775, 46.0407714], [1.2970928, 46.0416612], [1.2969455, 46.041752], [1.2969098, 46.0419459], [1.2971164, 46.0420979], [1.2973154, 46.0421958], [1.2975894, 46.0420808], [1.297823, 46.0420046], [1.298237, 46.0420195], [1.2984518, 46.0418314], [1.2986243, 46.0413707], [1.299265, 46.0401139], [1.299759, 46.0404154], [1.2998432, 46.0405812], [1.3001544, 46.040895], [1.3004433, 46.0414436], [1.3005957, 46.0418209], [1.3004782, 46.0421945], [1.3005039, 46.042729], [1.300662, 46.0429892], [1.3006206, 46.0431747], [1.3007921, 46.0432825], [1.3011365, 46.0432723], [1.3012589, 46.0431703], [1.3017562, 46.0430565], [1.3019221, 46.0429586], [1.3020292, 46.0428234], [1.3021593, 46.0428183], [1.3023175, 46.0427264], [1.3023787, 46.0426423], [1.3028559, 46.0422957], [1.3031286, 46.042357], [1.3052181, 46.0429933], [1.3056437, 46.0432851], [1.3061411, 46.0435733], [1.3068681, 46.0441906], [1.3070058, 46.0442569], [1.3071742, 46.0444737], [1.3072685, 46.0446829], [1.3072864, 46.0447569], [1.3074063, 46.044864], [1.3074573, 46.0447696], [1.3075058, 46.0447084], [1.3077276, 46.0446448], [1.3078535, 46.0446641], [1.3083788, 46.0448516], [1.3086638, 46.0450298], [1.3089316, 46.0453818], [1.3090719, 46.0454252], [1.3092361, 46.0455173], [1.3092224, 46.0462644], [1.3094758, 46.046767], [1.3094903, 46.047175], [1.3091074, 46.048289], [1.3089291, 46.0484427], [1.3083373, 46.0486953], [1.308152, 46.048665], [1.3080491, 46.0488662], [1.3081919, 46.0490753], [1.3084036, 46.0492182], [1.3087242, 46.0491678], [1.309378, 46.0492105], [1.3094055, 46.0492993], [1.3090923, 46.0494682], [1.3088668, 46.0497502], [1.3089036, 46.049838], [1.3086817, 46.0500523], [1.3086, 46.0504094], [1.3088101, 46.0505219], [1.3091663, 46.0505114], [1.3099035, 46.0502002], [1.3103779, 46.0502155], [1.3106585, 46.0501008], [1.3110309, 46.0500596], [1.3112631, 46.0501365], [1.3114518, 46.0503099], [1.3115326, 46.0504598], [1.3116508, 46.0505063], [1.3117962, 46.0504732], [1.3120359, 46.05044], [1.3123216, 46.0504681], [1.3126002, 46.0504532], [1.3134618, 46.0501263], [1.3139567, 46.0496901], [1.3141897, 46.0496761], [1.3142535, 46.0496455], [1.3143566, 46.0496577], [1.3144152, 46.0497082], [1.3143936, 46.0497398], [1.3145144, 46.0498074], [1.3146308, 46.0498119], [1.3146804, 46.0498543], [1.3147922, 46.049829], [1.3149843, 46.0499481], [1.3152972, 46.0500193], [1.3150841, 46.0497591], [1.3148261, 46.0495571], [1.3147355, 46.049143], [1.3148665, 46.0490588], [1.3149459, 46.0489019], [1.3149982, 46.0488081], [1.3149425, 46.0487267], [1.3148846, 46.0486422], [1.3147818, 46.0487197], [1.3146844, 46.0486872], [1.3146519, 46.0486133], [1.314504, 46.048588], [1.3140999, 46.0486731], [1.3136563, 46.048579], [1.3132937, 46.0483951], [1.312951, 46.0484816], [1.312491, 46.0483511], [1.3122494, 46.0481642], [1.3120988, 46.0478968], [1.3116794, 46.0474986], [1.3110516, 46.0471306], [1.3107091, 46.046687], [1.310553, 46.0463393], [1.3105179, 46.0460827], [1.3101746, 46.0454731], [1.3101157, 46.044697], [1.3101788, 46.0445514], [1.3097693, 46.0443187], [1.3093422, 46.044201], [1.3084364, 46.0436712], [1.3077222, 46.0430796], [1.3072929, 46.0426143], [1.3068799, 46.0425602], [1.3063139, 46.0421347], [1.305556, 46.0412327], [1.3052339, 46.041134], [1.3050037, 46.0407287], [1.3050649, 46.0403307], [1.304917, 46.0402542], [1.3044732, 46.0406419], [1.3040854, 46.0407134], [1.3034716, 46.0404677], [1.303301, 46.0397732], [1.3030348, 46.0393721], [1.3031019, 46.0392435], [1.3027884, 46.0391506], [1.3022509, 46.0384247], [1.3022468, 46.0382257], [1.3023017, 46.0380722], [1.302243, 46.0379688], [1.3020165, 46.0379464], [1.3017851, 46.0380162], [1.3013406, 46.0380565], [1.3009206, 46.0378626], [1.3005805, 46.0375422], [1.3005692, 46.0373726], [1.3006083, 46.0370958], [1.3005529, 46.0369172], [1.3001924, 46.0368265], [1.2998359, 46.0368657], [1.2994739, 46.0368057], [1.2993109, 46.0365223], [1.299239, 46.0362055], [1.2992018, 46.0360415], [1.2984278, 46.0360243], [1.2979293, 46.0357443], [1.2977118, 46.0357031], [1.2975608, 46.0357786], [1.2973959, 46.0361784], [1.2974211, 46.036472], [1.2975785, 46.0367398], [1.2975077, 46.0368773], [1.2973232, 46.0370115], [1.2971222, 46.0369651], [1.2966299, 46.0366006], [1.2962382, 46.0364462], [1.2957528, 46.0364914], [1.2953902, 46.0363543], [1.2950734, 46.0361696], [1.294961, 46.0359521], [1.2948347, 46.0357826], [1.2946958, 46.0357609], [1.2946092, 46.0354399], [1.2944379, 46.0356617], [1.2944866, 46.0358006], [1.294382, 46.0358601], [1.2942413, 46.0358583], [1.2941565, 46.035705], [1.2941311, 46.035529], [1.2941475, 46.0352198], [1.2942207, 46.0350587], [1.2943874, 46.0346769], [1.2946886, 46.0342188], [1.294887, 46.0341557], [1.295006, 46.0339338], [1.2948996, 46.0338112], [1.2947373, 46.0337967], [1.2947752, 46.0337029], [1.2947066, 46.0336254], [1.2944631, 46.0336164], [1.2941709, 46.0337967], [1.2937543, 46.0341881], [1.2933753, 46.0344073], [1.293013, 46.0343595], [1.2927064, 46.0340366], [1.2925106, 46.0336852], [1.2922212, 46.033243], [1.2921953, 46.0329847], [1.2922573, 46.0327614], [1.2922753, 46.0326334], [1.2921346, 46.0325215], [1.2919759, 46.0321644], [1.2920805, 46.0315061], [1.292279, 46.0308732], [1.2926757, 46.0304419], [1.2929823, 46.0302868], [1.293244, 46.0302543], [1.2936479, 46.0302651], [1.2940501, 46.0305303], [1.2940664, 46.0305351], [1.294387, 46.030629], [1.2947229, 46.030634], [1.2953921, 46.0305623], [1.2958712, 46.0305377], [1.2967381, 46.0307229], [1.2971752, 46.0306636], [1.2975678, 46.0303228], [1.2977333, 46.0302462], [1.297888, 46.0302413], [1.2980216, 46.0303095], [1.2981237, 46.0303616], [1.2983048, 46.0305376], [1.2983405, 46.0306269], [1.2985037, 46.030785], [1.2987078, 46.0308309], [1.2991771, 46.0311851], [1.2992562, 46.0312824], [1.2991976, 46.0313691], [1.2994195, 46.0313742], [1.2999486, 46.0319405], [1.3001031, 46.0319201], [1.3002036, 46.0319911], [1.3002568, 46.0321182], [1.3004625, 46.0322138], [1.3006335, 46.0321994], [1.3004092, 46.0316625], [1.3002451, 46.0315149], [1.3000328, 46.031436], [1.2997771, 46.0309567], [1.2996082, 46.0303455], [1.2997175, 46.0301288], [1.300026, 46.0300061], [1.3004055, 46.0300224], [1.3011767, 46.0300079], [1.3013512, 46.0296719], [1.3014797, 46.0295895], [1.3015699, 46.0294308], [1.3013768, 46.0294008], [1.3008953, 46.0296705], [1.3002935, 46.0295978], [1.300026, 46.0294217], [1.299824, 46.0292107], [1.2999346, 46.029075], [1.3000188, 46.0286534], [1.3003417, 46.0282464], [1.3009277, 46.0278126], [1.3016808, 46.0275674], [1.3019036, 46.0273908], [1.3020976, 46.0270879], [1.3020663, 46.0268344], [1.301719, 46.0266388], [1.3015882, 46.0266252], [1.3014419, 46.0267757], [1.3012885, 46.0268028], [1.3011641, 46.0268244], [1.3010126, 46.0269705], [1.3002027, 46.0275243], [1.3000549, 46.0278351], [1.2998667, 46.0279998], [1.2996416, 46.028091], [1.2991576, 46.0280993], [1.2987315, 46.0280248], [1.2985408, 46.0279717], [1.298349, 46.0279182], [1.2983439, 46.0278162], [1.2982258, 46.0276973], [1.2983669, 46.0275432], [1.2989057, 46.027263], [1.2988533, 46.0271324], [1.2985375, 46.0270975], [1.2983513, 46.0268825], [1.2984606, 46.0263733], [1.2984986, 46.025081], [1.2987061, 46.0249338], [1.2986885, 46.024834], [1.2984332, 46.0249669], [1.297866, 46.0248952], [1.2976218, 46.0243725], [1.2972443, 46.0244449], [1.2973465, 46.0249134], [1.2974588, 46.0250537], [1.2975519, 46.0252952], [1.2976524, 46.0257857], [1.2976311, 46.026319], [1.2972091, 46.026474], [1.2971246, 46.0268749], [1.2970538, 46.0269463], [1.2969294, 46.0270718], [1.2961298, 46.0272142], [1.2954403, 46.0272034], [1.2952396, 46.0271708], [1.2951325, 46.0270152], [1.2950534, 46.0268749], [1.2950508, 46.0265816], [1.2950944, 46.0262358], [1.2956408, 46.0258392], [1.2959972, 46.0252271], [1.2961502, 46.0251506], [1.2964525, 46.0246405], [1.2959903, 46.024186], [1.2955211, 46.0237152], [1.295561, 46.0235385], [1.2953493, 46.0233115], [1.2951427, 46.0233089], [1.2950177, 46.0234492], [1.2949463, 46.023615], [1.2949896, 46.0237273], [1.2949692, 46.0239594], [1.295045, 46.0241847], [1.2950636, 46.02424], [1.2948863, 46.0247424], [1.294647, 46.0248672], [1.2942907, 46.0249389], [1.2941173, 46.0250996], [1.294102, 46.0254184], [1.2942627, 46.0256021], [1.2942742, 46.0260669], [1.2941708, 46.0265357], [1.2939744, 46.0267652], [1.2938622, 46.0271326], [1.2934955, 46.0274878], [1.293426, 46.0277167], [1.2935, 46.0280202], [1.2936103, 46.0282797], [1.2934845, 46.0284272], [1.2931115, 46.0285044], [1.2927449, 46.02851], [1.2924934, 46.0287081], [1.2924508, 46.0287323], [1.2923706, 46.029198], [1.2923352, 46.0291877], [1.2921906, 46.029318], [1.2922118, 46.0293415], [1.2919868, 46.0294607], [1.2919664, 46.02944], [1.2916086, 46.0294725], [1.2915915, 46.0294895], [1.2912986, 46.0292727], [1.2912473, 46.0292084], [1.291041, 46.0289972], [1.2910668, 46.0289791], [1.2908711, 46.0285938], [1.2910503, 46.0281259], [1.291217, 46.0279284], [1.2914695, 46.0274718], [1.2914362, 46.0273411], [1.2905625, 46.0267441], [1.2900723, 46.0263345], [1.289901, 46.0260161], [1.2898747, 46.0259829], [1.2897546, 46.0259373], [1.289531, 46.0259388], [1.2891463, 46.0259395], [1.2891714, 46.0261758], [1.2890514, 46.0263622], [1.2887224, 46.0265918], [1.2884418, 46.0266224], [1.2884226, 46.0269768], [1.2882403, 46.0272575], [1.2879601, 46.0275808], [1.2874913, 46.027773], [1.287146, 46.0277958], [1.286845, 46.0276402], [1.2865338, 46.0279259], [1.2867098, 46.0281988], [1.286771, 46.0285533], [1.2867509, 46.0291798], [1.2866023, 46.0297939], [1.2859981, 46.0301017], [1.2858884, 46.0303185], [1.2859548, 46.0303848], [1.2857556, 46.0306972], [1.2854242, 46.0308797], [1.2853757, 46.0309715], [1.2848235, 46.0312264], [1.2845748, 46.0313082], [1.284358, 46.031451], [1.2840085, 46.0315199], [1.2843172, 46.0316296], [1.2842285, 46.0318825], [1.284261, 46.0320505], [1.2841637, 46.0322915], [1.2839524, 46.0324484], [1.2836514, 46.0325708], [1.2830423, 46.0326295], [1.2829959, 46.0325759], [1.2831661, 46.032254], [1.2833848, 46.0319331], [1.2833145, 46.0317039], [1.2832049, 46.0315015], [1.2829024, 46.0314018], [1.2825621, 46.0314095], [1.2820724, 46.0318747], [1.2820838, 46.0319111], [1.2821536, 46.0319586], [1.282222, 46.0320052], [1.2822268, 46.0320682], [1.2819628, 46.0323763], [1.2817202, 46.0325421], [1.2812033, 46.0331096], [1.2810155, 46.0334242], [1.280428, 46.0335158], [1.2799547, 46.0334641], [1.2793587, 46.0332434], [1.2786136, 46.0331753], [1.2773907, 46.0331544], [1.2766603, 46.0333817], [1.2761989, 46.0332454], [1.2759137, 46.0328964], [1.2758741, 46.0326028], [1.2759894, 46.0323024], [1.2762583, 46.0320649], [1.2765442, 46.0319743], [1.2773014, 46.031515], [1.2773351, 46.0308583], [1.2772048, 46.0306435], [1.2769717, 46.0305252], [1.2764895, 46.0304025], [1.2759998, 46.0304898], [1.2760103, 46.0307133], [1.2758287, 46.0308321], [1.2756082, 46.0316117], [1.2751407, 46.0315935], [1.2750133, 46.031658], [1.2748822, 46.0317646], [1.2748997, 46.0323024], [1.2746762, 46.0323513], [1.2739812, 46.0319183], [1.2736144, 46.0318798], [1.2729257, 46.0319741], [1.2725294, 46.0321039], [1.2724566, 46.0323039], [1.2725949, 46.0324521], [1.2726331, 46.0326077], [1.2726122, 46.0326904], [1.2727319, 46.033004], [1.2728921, 46.0332263], [1.2731135, 46.0333263], [1.2731653, 46.0333189], [1.2732814, 46.0333819], [1.2732789, 46.0334486], [1.2733382, 46.0334819], [1.2734345, 46.033519], [1.2735516, 46.0336973], [1.2735543, 46.0337462], [1.2735988, 46.0338079], [1.273613, 46.0339062], [1.2734926, 46.0339474], [1.2733401, 46.0339536], [1.2726313, 46.0335721], [1.27244, 46.0335266], [1.2722202, 46.0336304], [1.2719683, 46.0336699], [1.270801, 46.033441], [1.2701645, 46.033373], [1.2696827, 46.033273], [1.2692919, 46.0332449], [1.2690022, 46.0332726], [1.2685183, 46.0335958], [1.2683758, 46.0339016], [1.2680589, 46.0340058], [1.2677083, 46.033902], [1.267316, 46.0338977], [1.267002, 46.0340058], [1.2668019, 46.0340156], [1.2664883, 46.0341366], [1.266548, 46.0341976], [1.2662932, 46.0343145], [1.2662808, 46.0344725], [1.2662759, 46.0346454], [1.2664142, 46.0347689], [1.2667351, 46.0348669], [1.2669797, 46.034964], [1.267244, 46.0348726], [1.2675528, 46.0348695], [1.2679578, 46.0347115], [1.2684913, 46.0346028], [1.2685903, 46.0346705], [1.2689015, 46.0345226], [1.2691013, 46.0345608], [1.269325, 46.034783], [1.2694075, 46.0349461], [1.2695557, 46.0351214], [1.2695828, 46.0352992], [1.2697822, 46.0358987], [1.2700496, 46.0362179], [1.2702927, 46.0366368], [1.2703435, 46.0369613], [1.2703138, 46.0374675], [1.270465, 46.0381153], [1.2706448, 46.0383368], [1.2708805, 46.0385117], [1.2708239, 46.0389858], [1.2706299, 46.0391617], [1.2699316, 46.0394222], [1.2699287, 46.0396938], [1.270299, 46.040026], [1.2702832, 46.0402416], [1.2701064, 46.0407175], [1.269896, 46.041017], [1.2701698, 46.0413723], [1.2707682, 46.0415671], [1.2714227, 46.0416337], [1.2715264, 46.0415671], [1.2716913, 46.0415946], [1.2717215, 46.0416362], [1.2719512, 46.0416733], [1.2719907, 46.0417152], [1.2722253, 46.0417251], [1.2726649, 46.0418733], [1.273065, 46.0419177], [1.2736687, 46.0420401], [1.2738056, 46.0422285], [1.2738305, 46.0426487], [1.2738757, 46.0430282], [1.274009, 46.0433073], [1.273978, 46.0436087], [1.2737596, 46.0438432], [1.2736756, 46.0439766], [1.2734608, 46.0443272], [1.2730364, 46.0447649], [1.2726384, 46.0448039], [1.2721335, 46.0446153], [1.2714357, 46.0441], [1.271214, 46.0440755], [1.2704647, 46.0444519], [1.2702725, 46.0447347], [1.2701808, 46.0450228], [1.2704158, 46.0457028], [1.2708455, 46.0461449], [1.2709753, 46.0464654], [1.271006, 46.0468783], [1.2709223, 46.0472835], [1.2704203, 46.0477575], [1.2698799, 46.0479872], [1.2693383, 46.0483555], [1.2691143, 46.0487478], [1.2687187, 46.0490987], [1.2678899, 46.049555], [1.2675809, 46.0496616], [1.2674801, 46.0498288], [1.2673641, 46.0500347], [1.2668325, 46.0499954], [1.2666252, 46.0500199], [1.266638, 46.0501395], [1.266749, 46.0506015], [1.2664991, 46.0511586], [1.266693, 46.0514526], [1.2666128, 46.0516103], [1.2666861, 46.0520589], [1.2670076, 46.0524316], [1.2674768, 46.0528218], [1.2675274, 46.0528595], [1.2675077, 46.0529497], [1.2690418, 46.0538229], [1.2691258, 46.0537584], [1.2693499, 46.0535341], [1.269443, 46.0532879], [1.2694899, 46.0529593], [1.2693556, 46.0523876], [1.2691548, 46.0522793], [1.2689365, 46.0518794], [1.2688671, 46.0517211], [1.2689592, 46.0515633], [1.2692578, 46.0514847], [1.2693402, 46.0515572], [1.2694077, 46.0514967], [1.26965, 46.0512888], [1.269918, 46.0510257], [1.2702331, 46.0508521], [1.2704174, 46.0507664], [1.2705182, 46.0504976], [1.2706017, 46.0501049], [1.2704398, 46.0499197], [1.270578, 46.0495918], [1.2709133, 46.0492949], [1.271096, 46.0488504], [1.2715419, 46.0486488], [1.2717438, 46.0485938], [1.2719142, 46.0484912], [1.2722059, 46.0485191], [1.2732139, 46.0489262], [1.273329, 46.0490529], [1.2734599, 46.0490665], [1.2735315, 46.0491356], [1.2736747, 46.049248], [1.2738192, 46.0492529], [1.2738945, 46.049369], [1.2741254, 46.0493604], [1.2741649, 46.0494061], [1.2742538, 46.0494011], [1.274308, 46.0494828], [1.274733, 46.0498041], [1.2749215, 46.0498268], [1.2749619, 46.0497368], [1.2748592, 46.0496711], [1.2744747, 46.0495306], [1.2743502, 46.0494147], [1.2744131, 46.0493616], [1.2745885, 46.0493814], [1.2746578, 46.0493332], [1.2747211, 46.0491333], [1.2740952, 46.04843], [1.274231, 46.0482621], [1.2745054, 46.0482179], [1.2747496, 46.0484004], [1.2749526, 46.0484981], [1.2751349, 46.0486449], [1.2751835, 46.048665], [1.2753346, 46.0487277], [1.275493, 46.0489042], [1.2757264, 46.0490054], [1.2759525, 46.0491656], [1.2763136, 46.0492604], [1.2767511, 46.0492755], [1.2770622, 46.0492121], [1.2771868, 46.0491085], [1.2771704, 46.048928], [1.2772334, 46.0488353], [1.2773179, 46.0487003], [1.2778851, 46.0476083], [1.2781851, 46.0470689], [1.2785135, 46.0469496], [1.2786494, 46.046876], [1.2787908, 46.0468185], [1.2790559, 46.0467106], [1.2792771, 46.0467219], [1.2793274, 46.0467324], [1.2794626, 46.0467608], [1.279653, 46.0468182], [1.279784, 46.0469302], [1.2802036, 46.0471426], [1.280391, 46.0473308], [1.2805348, 46.0477051], [1.2806509, 46.0478137], [1.2808954, 46.0481175], [1.2809103, 46.0482614], [1.2811263, 46.0485015], [1.2813477, 46.0486409], [1.281472, 46.0487806], [1.2815321, 46.0489684], [1.2815195, 46.0490266], [1.2816337, 46.0491784], [1.2818612, 46.049393], [1.2820441, 46.0497174], [1.2821603, 46.0498464], [1.2824125, 46.0499508], [1.2825771, 46.0499464], [1.2828359, 46.0498831], [1.2830644, 46.0499337], [1.2833217, 46.0500945], [1.2834529, 46.0503417], [1.2838039, 46.0506273], [1.2839559, 46.0508343], [1.2840587, 46.0508886], [1.2841642, 46.0508916], [1.2842451, 46.050831], [1.2843622, 46.0503018], [1.2844772, 46.0502873], [1.2846261, 46.0503376], [1.2848357, 46.0505192], [1.2852004, 46.0507251], [1.2853659, 46.0507422], [1.2854599, 46.0506933], [1.285576, 46.0506192], [1.2856463, 46.0504281], [1.2858782, 46.0501765], [1.2862752, 46.050092], [1.2870316, 46.0502059], [1.2871217, 46.0501847], [1.2871464, 46.0500932], [1.2870063, 46.0500439], [1.2869204, 46.0499626], [1.2864136, 46.049584], [1.2862343, 46.0493599], [1.2862108, 46.0491198], [1.2865459, 46.0489172], [1.2867036, 46.0486937], [1.2866077, 46.0484602], [1.2863999, 46.0484708], [1.2861132, 46.048598], [1.2853765, 46.0489147], [1.2848557, 46.0488338], [1.2842791, 46.0489462], [1.2841165, 46.0489443], [1.2837262, 46.0489398], [1.2835714, 46.0484583], [1.2837716, 46.0480961], [1.2840934, 46.0477312], [1.2844082, 46.0472327], [1.2843934, 46.0469382], [1.2843834, 46.046739], [1.2845476, 46.0465731], [1.2846157, 46.046367], [1.284593, 46.0461627], [1.284484, 46.0460537], [1.2837435, 46.046181], [1.2833549, 46.0457681], [1.2829138, 46.0454351], [1.2827053, 46.0452651], [1.2818548, 46.0448862], [1.2818225, 46.0447512], [1.2821127, 46.0444137], [1.2819631, 46.0440847], [1.2820663, 46.0438475], [1.282459, 46.0436551], [1.2831995, 46.0437337], [1.2835278, 46.043821], [1.2839783, 46.0438035], [1.284257, 46.0437367], [1.2844498, 46.0437511], [1.2846209, 46.0436725], [1.2846925, 46.0435835], [1.2846454, 46.0435311], [1.2844812, 46.0434403], [1.2844061, 46.0433372], [1.2842531, 46.0431088], [1.2840412, 46.0430718], [1.2834963, 46.0430788], [1.2825053, 46.0429263], [1.2819396, 46.0430171], [1.2813076, 46.0428207], [1.2810263, 46.0428477], [1.2807898, 46.0427705], [1.2806156, 46.0424798], [1.2804624, 46.0425299], [1.2803089, 46.0426075], [1.2801986, 46.042707], [1.2802042, 46.0430547], [1.2801992, 46.0431614], [1.2802754, 46.0432758], [1.2803767, 46.0436413], [1.2803068, 46.0438609], [1.2798951, 46.0441426], [1.279412, 46.0442253], [1.2790777, 46.044192], [1.278786, 46.0439519], [1.2787418, 46.0436684], [1.2789042, 46.0434034], [1.2792724, 46.043084], [1.2796803, 46.0430448]]]}}, {"type": "Feature", "properties": {"name": "Étang de Sagnat"}, "geometry": {"type": "Polygon", "coordinates": [[[1.3510366, 46.1024976], [1.3519865, 46.1023111], [1.3521175, 46.1022854], [1.3528029, 46.1021088], [1.3533855, 46.1019722], [1.3533799, 46.1017519], [1.3534107, 46.1015643], [1.3534639, 46.1014777], [1.3534747, 46.1014063], [1.3533962, 46.1013255], [1.3530061, 46.101102], [1.3529302, 46.1010249], [1.3528408, 46.1009179], [1.3526338, 46.1006695], [1.3524124, 46.1005073], [1.3524118, 46.100455], [1.3524068, 46.1000425], [1.3524488, 46.0996291], [1.3525204, 46.0995047], [1.3527032, 46.0992973], [1.3527392, 46.099232], [1.3528135, 46.0991482], [1.3528251, 46.0988997], [1.3523053, 46.0982227], [1.352323, 46.098047], [1.3524477, 46.0977563], [1.3525725, 46.097561], [1.3526912, 46.0974597], [1.3528753, 46.0973478], [1.3529207, 46.0972692], [1.3528272, 46.0972005], [1.3527196, 46.0971573], [1.3524193, 46.0971632], [1.3522069, 46.0971396], [1.3520455, 46.0971749], [1.3517764, 46.0973733], [1.3516836, 46.0974284], [1.3516801, 46.097336], [1.3517622, 46.0970728], [1.3516235, 46.0970041], [1.3515781, 46.0968273], [1.3515102, 46.0963893], [1.3513435, 46.0958839], [1.3512385, 46.0956246], [1.3512131, 46.0953648], [1.3512334, 46.0948738], [1.3512479, 46.0944762], [1.3513867, 46.0941984], [1.3514767, 46.0941361], [1.3516958, 46.094056], [1.3517076, 46.0940026], [1.3516277, 46.0939595], [1.3511214, 46.0937686], [1.3508934, 46.0938117], [1.3506269, 46.0938096], [1.3503265, 46.0937581], [1.3501074, 46.0935528], [1.349906, 46.0932776], [1.3497224, 46.0931215], [1.3493879, 46.0929922], [1.3490865, 46.092953], [1.3489112, 46.0928167], [1.3487749, 46.0925942], [1.348784, 46.0924661], [1.3488294, 46.0922897], [1.3487234, 46.0921171], [1.3484147, 46.0919664], [1.3480695, 46.0918278], [1.3477305, 46.0917964], [1.3474459, 46.0918719], [1.3471704, 46.0918992], [1.3470476, 46.0920339], [1.3469948, 46.0922037], [1.3473611, 46.092359], [1.3478576, 46.0926173], [1.3479787, 46.0928251], [1.3479913, 46.0930084], [1.3480302, 46.0931821], [1.3481876, 46.0934781], [1.3486114, 46.0939946], [1.3486599, 46.0941688], [1.3487368, 46.0944414], [1.3489921, 46.0948827], [1.3492676, 46.0952734], [1.3492336, 46.0956877], [1.3492366, 46.0961385], [1.3493605, 46.0965807], [1.3498341, 46.0976666], [1.3498619, 46.0978448], [1.3497629, 46.0980058], [1.3497165, 46.098111], [1.3499703, 46.0982076], [1.3500663, 46.0982698], [1.3501436, 46.098493], [1.3501032, 46.0987257], [1.3494475, 46.0991409], [1.3489848, 46.0994526], [1.3490898, 46.0997909], [1.3494383, 46.100053], [1.3500097, 46.1003271], [1.3502479, 46.1004313], [1.3505187, 46.1006809], [1.3505264, 46.1008607], [1.3507389, 46.101191], [1.3508415, 46.1014858], [1.3509602, 46.1017009], [1.3510314, 46.1019347], [1.3510014, 46.1021425], [1.3510366, 46.1024976]]]}}, {"type": "Feature", "properties": {"name": "Étang de la Crouzille"}, "geometry": {"type": "Polygon", "coordinates": [[[1.3403815, 45.9840529], [1.3403562, 45.9840118], [1.3403781, 45.9839601], [1.3404251, 45.9839211], [1.3405682, 45.98387], [1.34063, 45.983882], [1.3407272, 45.9839479], [1.3408338, 45.984021], [1.3411045, 45.9839937], [1.3412712, 45.9837439], [1.3414644, 45.9833166], [1.3415603, 45.9829962], [1.3416667, 45.9828068], [1.3418038, 45.9826339], [1.3420502, 45.9823938], [1.3420965, 45.9823555], [1.342251, 45.9826405], [1.3423116, 45.9828475], [1.3422763, 45.9830877], [1.3422302, 45.9831588], [1.3421264, 45.9832604], [1.3420774, 45.9833056], [1.3420086, 45.9834135], [1.3420206, 45.9834418], [1.3420943, 45.9834964], [1.3420852, 45.9835841], [1.3421419, 45.9836504], [1.3423106, 45.9837024], [1.342361, 45.9837431], [1.3423747, 45.9838052], [1.3423429, 45.983921], [1.3421826, 45.9840413], [1.3420107, 45.9843373], [1.3419421, 45.9846687], [1.3419815, 45.9849494], [1.3420828, 45.9852708], [1.342098, 45.9853769], [1.3421675, 45.9855197], [1.3424054, 45.9856941], [1.3426145, 45.9858364], [1.3430139, 45.9861258], [1.3430571, 45.9862338], [1.3430985, 45.986405], [1.3429707, 45.9863751], [1.3428025, 45.986281], [1.3426895, 45.9862411], [1.3424186, 45.9861942], [1.3422524, 45.9862739], [1.3421015, 45.986293], [1.3418926, 45.9862553], [1.3417737, 45.9862198], [1.3415398, 45.9861703], [1.341339, 45.9861111], [1.3411254, 45.9860776], [1.3409792, 45.986072], [1.3406752, 45.9860897], [1.3403537, 45.9861744], [1.3402911, 45.9861803], [1.3401608, 45.9861707], [1.3400077, 45.986188], [1.3397775, 45.9861547], [1.3396924, 45.9861594], [1.339661, 45.9861896], [1.3396629, 45.9862255], [1.3398304, 45.986498], [1.3398547, 45.986579], [1.3399214, 45.9867187], [1.3401216, 45.9869098], [1.3401099, 45.9869887], [1.3400937, 45.9870316], [1.3400321, 45.9870699], [1.3399747, 45.9870745], [1.3398927, 45.987039], [1.33985, 45.9869862], [1.3397672, 45.9869357], [1.3396332, 45.9867797], [1.3395121, 45.9867694], [1.3394573, 45.9867367], [1.3393494, 45.9867284], [1.3393021, 45.9867188], [1.3392427, 45.9867211], [1.3391091, 45.9867484], [1.3389656, 45.986737], [1.3388548, 45.9867489], [1.3387095, 45.9867677], [1.3386062, 45.9868102], [1.338503, 45.9868782], [1.3383143, 45.9870329], [1.3381765, 45.9871278], [1.3380148, 45.9872184], [1.3379481, 45.9872484], [1.3379351, 45.9873091], [1.3380225, 45.9874291], [1.3381422, 45.9876427], [1.3381564, 45.9876807], [1.3381344, 45.9877081], [1.3380685, 45.9877075], [1.3375848, 45.9875113], [1.3375151, 45.9875115], [1.3370151, 45.9877416], [1.3369197, 45.9877692], [1.3368029, 45.9878215], [1.3367231, 45.9879143], [1.3366747, 45.9879956], [1.3365416, 45.9880615], [1.3364634, 45.9883336], [1.3365282, 45.9884774], [1.3366584, 45.9885661], [1.3368101, 45.9886091], [1.3369875, 45.9885814], [1.3370835, 45.988521], [1.3371553, 45.9885388], [1.3371834, 45.9885764], [1.3371702, 45.9886208], [1.337146, 45.9887096], [1.3370001, 45.9887976], [1.3369679, 45.9889248], [1.3367895, 45.9891554], [1.3364822, 45.9894123], [1.3364738, 45.9896351], [1.3364724, 45.9897097], [1.3364892, 45.9898985], [1.3365157, 45.9900251], [1.3366604, 45.9901927], [1.3367739, 45.9905659], [1.3368634, 45.9906322], [1.3370247, 45.9906837], [1.3370882, 45.990811], [1.3371881, 45.9908486], [1.3373179, 45.9908724], [1.3375343, 45.9909364], [1.3376247, 45.9909521], [1.3380208, 45.9909903], [1.3381492, 45.9909984], [1.338339, 45.9910265], [1.3384098, 45.9909686], [1.3385132, 45.9909761], [1.338731, 45.9911411], [1.3387107, 45.9911708], [1.3386746, 45.9912555], [1.3386845, 45.9913264], [1.3386236, 45.9913917], [1.3384233, 45.9914309], [1.3382024, 45.9914852], [1.3380855, 45.9915271], [1.3380079, 45.9915356], [1.3377894, 45.9915877], [1.3376845, 45.9916465], [1.337596, 45.99171], [1.3373853, 45.9919678], [1.3373705, 45.9921457], [1.3373885, 45.9922446], [1.3375275, 45.99235], [1.3377022, 45.9924423], [1.3379043, 45.9925174], [1.3381773, 45.9929079], [1.338307, 45.9930302], [1.3384251, 45.9932646], [1.3384739, 45.9934086], [1.3387321, 45.9937679], [1.3386522, 45.9939781], [1.3384885, 45.9943984], [1.3381176, 45.9951444], [1.3380266, 45.995368], [1.3380883, 45.9954721], [1.3384103, 45.9955601], [1.3388414, 45.9957501], [1.3390111, 45.9958345], [1.3392393, 45.9961839], [1.3392951, 45.9965197], [1.3393689, 45.9966524], [1.3393685, 45.9967903], [1.3395446, 45.9972188], [1.3396203, 45.9976713], [1.3396316, 45.998119], [1.3395913, 45.998356], [1.3395991, 45.9984953], [1.3397698, 45.9991079], [1.3397456, 45.9991179], [1.3397237, 45.9991269], [1.3396268, 45.9990096], [1.3395472, 45.9988567], [1.3394549, 45.9988001], [1.3393356, 45.998413], [1.3391114, 45.9980543], [1.3388917, 45.9977662], [1.3388201, 45.9974611], [1.3387929, 45.9971514], [1.3387826, 45.9968436], [1.3384211, 45.9965053], [1.338206, 45.9964184], [1.3379011, 45.9962491], [1.3375233, 45.9960681], [1.3371008, 45.995847], [1.3369488, 45.9956844], [1.3367448, 45.9954363], [1.3367052, 45.9952404], [1.3367812, 45.9950866], [1.3368698, 45.9949909], [1.3369585, 45.9947974], [1.3369976, 45.9946066], [1.3369944, 45.9944577], [1.3370217, 45.9943166], [1.3368287, 45.9940521], [1.3366463, 45.9939398], [1.3365569, 45.9938713], [1.3364962, 45.9938038], [1.3364215, 45.9935243], [1.3363172, 45.9934262], [1.3362208, 45.9934464], [1.3361471, 45.9934748], [1.3360185, 45.9935666], [1.335974, 45.9936547], [1.335904, 45.9937211], [1.3356787, 45.9937623], [1.3356195, 45.9937627], [1.3355052, 45.9937158], [1.3353692, 45.9935871], [1.3353039, 45.9934624], [1.3352818, 45.9933429], [1.3353212, 45.9932374], [1.3353735, 45.9931856], [1.3354024, 45.9931017], [1.3354741, 45.9930587], [1.3355099, 45.9930062], [1.3355108, 45.9929407], [1.3354236, 45.9928757], [1.3353348, 45.992827], [1.3351943, 45.9927847], [1.3350007, 45.9927066], [1.3347916, 45.9926831], [1.3343786, 45.9926538], [1.3341009, 45.9926082], [1.3338781, 45.9924771], [1.3337096, 45.9924438], [1.3335632, 45.9923735], [1.3333638, 45.9922003], [1.3333292, 45.9921097], [1.3333212, 45.9919953], [1.3334109, 45.9919059], [1.3335933, 45.9918631], [1.3339923, 45.9918295], [1.3340964, 45.9917474], [1.334194, 45.991575], [1.3341951, 45.9914209], [1.3341593, 45.9912339], [1.3340291, 45.9911473], [1.3339351, 45.9909411], [1.3339281, 45.9906169], [1.3338501, 45.9904429], [1.3337582, 45.9903323], [1.3337303, 45.9902104], [1.3336777, 45.9901141], [1.3336954, 45.9900013], [1.3336132, 45.9899635], [1.3335091, 45.9899601], [1.333507, 45.9900225], [1.3334372, 45.9901213], [1.3333748, 45.990185], [1.3332648, 45.990291], [1.333163, 45.9903249], [1.333064, 45.9903327], [1.3328425, 45.9903159], [1.3327983, 45.9902839], [1.3327033, 45.9900414], [1.3326628, 45.9899221], [1.3325712, 45.9898213], [1.3324922, 45.9897906], [1.3322453, 45.9897779], [1.332201, 45.9897945], [1.3321894, 45.9899226], [1.3321528, 45.9900245], [1.332106, 45.990082], [1.332085, 45.990129], [1.3321104, 45.9902132], [1.332145, 45.990257], [1.3321844, 45.9902967], [1.332291, 45.990352], [1.3323769, 45.9904393], [1.3323435, 45.9905527], [1.3323408, 45.9906068], [1.332325, 45.9906353], [1.3321827, 45.9907171], [1.3320382, 45.9907508], [1.3318875, 45.9907408], [1.3317635, 45.9907177], [1.3316801, 45.9906105], [1.3312069, 45.9900186], [1.3311728, 45.989947], [1.3312029, 45.9897551], [1.3311983, 45.9895316], [1.3311329, 45.9892382], [1.3310852, 45.9891882], [1.3310374, 45.9891573], [1.3309994, 45.9891491], [1.33095, 45.9891319], [1.3308652, 45.9891209], [1.3308014, 45.9891155], [1.3306685, 45.989086], [1.3305765, 45.9891175], [1.3304586, 45.9890713], [1.3303531, 45.9890129], [1.3302471, 45.9889264], [1.3300492, 45.9888021], [1.3298602, 45.9887063], [1.3297861, 45.9885948], [1.3299619, 45.9883344], [1.3302083, 45.9880067], [1.3302514, 45.9879407], [1.3302993, 45.9879535], [1.3303747, 45.9878643], [1.3304117, 45.9878703], [1.3304789, 45.9878202], [1.3305491, 45.9877385], [1.3306213, 45.9876685], [1.330684, 45.9875159], [1.3307911, 45.9874261], [1.3313315, 45.9871632], [1.3315299, 45.9871317], [1.3318613, 45.9871209], [1.3320117, 45.9870958], [1.3322474, 45.9870956], [1.3325081, 45.9871646], [1.3326413, 45.9871795], [1.3328135, 45.9871444], [1.3328587, 45.9869999], [1.3328533, 45.9868123], [1.3329897, 45.9865738], [1.3330151, 45.986403], [1.3329806, 45.986181], [1.3330414, 45.9861231], [1.3330408, 45.9860809], [1.3332434, 45.9859977], [1.3333838, 45.9859759], [1.3334874, 45.9859895], [1.3335165, 45.9860231], [1.3335457, 45.9861371], [1.3334267, 45.9862547], [1.3334024, 45.9863245], [1.3334012, 45.9863923], [1.3334566, 45.986425], [1.3335039, 45.9864484], [1.3335728, 45.9865593], [1.3336049, 45.9866055], [1.3339673, 45.986743], [1.3341853, 45.9867675], [1.3342792, 45.9868383], [1.3343516, 45.9868719], [1.3344085, 45.9868595], [1.3346663, 45.9867994], [1.334946, 45.9867237], [1.3365835, 45.9866905], [1.3366779, 45.9866683], [1.3368242, 45.9865699], [1.3369916, 45.9864117], [1.3374414, 45.9860353], [1.3375561, 45.9860396], [1.3377615, 45.9860922], [1.3377733, 45.9859669], [1.3378836, 45.9857566], [1.3381456, 45.9856427], [1.3387225, 45.9854774], [1.339182, 45.9854568], [1.3396443, 45.985163], [1.3402257, 45.9847273], [1.3403776, 45.9846995], [1.3404936, 45.9845676], [1.3406197, 45.9843965], [1.3405778, 45.9842233], [1.3404406, 45.9840958], [1.3403815, 45.9840529]]]}}, {"type": "Feature", "properties": {"name": "Étang de Murat"}, "geometry": {"type": "Polygon", "coordinates": [[[1.2107335, 46.3171806], [1.2111018, 46.3170631], [1.2116259, 46.3169068], [1.2120406, 46.316763], [1.212166, 46.3163606], [1.2116088, 46.3165166], [1.2113674, 46.3163554], [1.2109946, 46.3163647], [1.2104127, 46.3167493], [1.2097995, 46.3166634], [1.2091368, 46.316646], [1.208443, 46.3167442], [1.2079675, 46.3170531], [1.2069317, 46.3170989], [1.2059735, 46.3170816], [1.2051603, 46.3169162], [1.2047718, 46.3165469], [1.2043827, 46.3159075], [1.2045881, 46.3151159], [1.2047289, 46.3144713], [1.2045293, 46.3138716], [1.2044618, 46.3137788], [1.2039103, 46.3130207], [1.2037909, 46.3128566], [1.2037821, 46.3126521], [1.2042398, 46.3122159], [1.204499, 46.3121664], [1.2053136, 46.312011], [1.2068565, 46.3113144], [1.2069742, 46.3112038], [1.2071483, 46.3110402], [1.2069283, 46.311031], [1.2063923, 46.3112734], [1.2059687, 46.3113486], [1.2043549, 46.3114917], [1.2039317, 46.3113665], [1.2036999, 46.3113541], [1.2034629, 46.3117702], [1.2028814, 46.3119812], [1.2024401, 46.3120193], [1.2023605, 46.3121203], [1.2023847, 46.312578], [1.2021774, 46.3128899], [1.2021164, 46.3132838], [1.2017572, 46.3139835], [1.201098, 46.3145378], [1.2007504, 46.3147152], [1.2002536, 46.3149688], [1.1997485, 46.3153407], [1.1995103, 46.3156903], [1.1995788, 46.3158492], [1.1999678, 46.3162573], [1.200204, 46.3162361], [1.2004452, 46.3161093], [1.2007492, 46.3161323], [1.2011624, 46.3162557], [1.2016041, 46.3165629], [1.2019075, 46.31699], [1.2022076, 46.317365], [1.2024276, 46.3177689], [1.2026244, 46.3180637], [1.2029245, 46.3182927], [1.2031357, 46.3183431], [1.2038196, 46.3184098], [1.2044174, 46.3184682], [1.2048121, 46.3186488], [1.2052037, 46.318697], [1.2060537, 46.3187604], [1.207432, 46.3190491], [1.2076951, 46.3190637], [1.2078912, 46.3189304], [1.208366, 46.3188581], [1.208653, 46.318558], [1.2091626, 46.3185321], [1.2099012, 46.3181736], [1.2105078, 46.3178207], [1.2106566, 46.3173558], [1.2107335, 46.3171806]]]}}, {"type": "Feature", "properties": {"name": "Le Grand Étang"}, "geometry": {"type": "Polygon", "coordinates": [[[1.0179887, 46.3040732], [1.0183453, 46.3034115], [1.0185041, 46.3027897], [1.017494, 46.3018699], [1.0168056, 46.30139], [1.016612, 46.302264], [1.0162955, 46.3028871], [1.0157297, 46.3028593], [1.0145689, 46.3017725], [1.0132239, 46.3011096], [1.0126275, 46.3011558], [1.0121456, 46.301071], [1.0113378, 46.3013747], [1.0101027, 46.3027302], [1.0096634, 46.3029531], [1.0084242, 46.3025632], [1.0079591, 46.3026654], [1.0076487, 46.3026057], [1.0075724, 46.3025102], [1.0073759, 46.3024781], [1.0072907, 46.3025279], [1.0077305, 46.3033773], [1.0080632, 46.3042281], [1.0086448, 46.3045496], [1.0087845, 46.3048441], [1.0087757, 46.3050218], [1.0088993, 46.3050469], [1.0091574, 46.305062], [1.0091356, 46.3052126], [1.0093719, 46.3052327], [1.0098453, 46.3051565], [1.0104226, 46.3053809], [1.0105535, 46.3055165], [1.010808, 46.3056773], [1.0113194, 46.3058812], [1.0117241, 46.3058129], [1.0118808, 46.3056387], [1.0125412, 46.3055178], [1.0130591, 46.3056107], [1.0136437, 46.3056898], [1.0138455, 46.3058832], [1.0142099, 46.3060732], [1.0145029, 46.3060101], [1.0152181, 46.3057467], [1.0158948, 46.3055144], [1.0168668, 46.3049564], [1.0176705, 46.3043552], [1.0179887, 46.3040732]]]}}, {"type": "Feature", "properties": {"name": "Étang d'Heru"}, "geometry": {"type": "Polygon", "coordinates": [[[1.2472951, 46.3109744], [1.2475692, 46.3109087], [1.2475858, 46.3107011], [1.2471404, 46.3104701], [1.2466227, 46.3102835], [1.2459679, 46.3103757], [1.2455146, 46.3103473], [1.2450726, 46.3102107], [1.2442102, 46.3098391], [1.2429107, 46.3095958], [1.2424018, 46.3093956], [1.2420281, 46.3092175], [1.2417032, 46.3091412], [1.2412043, 46.3088836], [1.2405115, 46.308574], [1.2396465, 46.3081293], [1.2387811, 46.3077452], [1.2386483, 46.30769], [1.2376541, 46.3074601], [1.2372052, 46.3073575], [1.2367798, 46.3072063], [1.2362877, 46.3069907], [1.2359431, 46.3069078], [1.235382, 46.3076706], [1.2353319, 46.308176], [1.2355311, 46.3086455], [1.2358855, 46.3087447], [1.2362627, 46.3093729], [1.2363937, 46.309504], [1.2375454, 46.3097794], [1.2379651, 46.3095509], [1.2386186, 46.309886], [1.238969, 46.3103664], [1.2397371, 46.310792], [1.240339, 46.3109774], [1.2409852, 46.3112383], [1.2411855, 46.3111792], [1.2425665, 46.3110535], [1.2428941, 46.3110884], [1.2434627, 46.3109976], [1.2440152, 46.3111254], [1.2447161, 46.311113], [1.2456691, 46.3112948], [1.2464185, 46.3110532], [1.2472951, 46.3109744]]]}}, {"type": "Feature", "properties": {"name": "Étang de Pierre Millier"}, "geometry": {"type": "Polygon", "coordinates": [[[1.3998805, 46.0352544], [1.3999734, 46.0350759], [1.3999315, 46.0349199], [1.4001624, 46.0347998], [1.399309, 46.0343641], [1.3990876, 46.0341016], [1.3988246, 46.0337531], [1.3988263, 46.0335504], [1.3988099, 46.0334078], [1.3987317, 46.0333275], [1.3985128, 46.0333058], [1.398354, 46.0333546], [1.3969554, 46.0335077], [1.3966239, 46.0334067], [1.3964614, 46.0331463], [1.3964514, 46.0329775], [1.396505, 46.0325024], [1.3966645, 46.0323244], [1.3968647, 46.032205], [1.3970547, 46.0319077], [1.397148, 46.0316955], [1.3972886, 46.031568], [1.3975402, 46.031356], [1.3977247, 46.0311432], [1.3982314, 46.0307828], [1.3985785, 46.0304593], [1.3988912, 46.0302899], [1.3990288, 46.0301032], [1.3990347, 46.0299111], [1.3988475, 46.0297471], [1.3985021, 46.0297013], [1.3982148, 46.0294197], [1.3978214, 46.0291919], [1.3979155, 46.029556], [1.3979749, 46.0297905], [1.3979391, 46.0298923], [1.3977341, 46.0300576], [1.3973776, 46.0301271], [1.3972306, 46.0300728], [1.3970805, 46.0298274], [1.3968209, 46.0298361], [1.3967022, 46.0299372], [1.3965426, 46.0300381], [1.3965426, 46.0302226], [1.396543, 46.0304088], [1.3964675, 46.0305982], [1.3963674, 46.0306894], [1.3960297, 46.030798], [1.3959424, 46.0309086], [1.3958164, 46.0309828], [1.3957044, 46.0310868], [1.3955324, 46.0310911], [1.3952916, 46.0310629], [1.3951884, 46.0310368], [1.3950727, 46.0310933], [1.395032, 46.0311584], [1.3950508, 46.03128], [1.3949601, 46.0313213], [1.3947474, 46.0313908], [1.3946192, 46.0313951], [1.3944941, 46.0313452], [1.394319, 46.0313886], [1.3938285, 46.0315497], [1.3936247, 46.0316253], [1.393484, 46.0317512], [1.3933923, 46.031932], [1.3932525, 46.032053], [1.3931368, 46.0320421], [1.3929242, 46.0319205], [1.3927334, 46.031838], [1.3925551, 46.0319574], [1.3923826, 46.0321072], [1.392233, 46.032155], [1.3921392, 46.0322788], [1.3922111, 46.0323743], [1.3922017, 46.0324416], [1.3920145, 46.0326377], [1.3918014, 46.0327803], [1.3916047, 46.0328013], [1.3915106, 46.032763], [1.3913198, 46.0323765], [1.3910227, 46.03232], [1.3907967, 46.0324135], [1.3902315, 46.0324677], [1.3899312, 46.0325241], [1.3897375, 46.0326085], [1.3896091, 46.032713], [1.3896122, 46.0328172], [1.389616, 46.0329282], [1.3895935, 46.0330648], [1.3894812, 46.0331583], [1.3892536, 46.0333128], [1.3890346, 46.0333345], [1.3889346, 46.03334], [1.388882, 46.0334527], [1.3889439, 46.0334742], [1.3889959, 46.0335138], [1.3890323, 46.0335663], [1.3890456, 46.0336247], [1.3890456, 46.0336799], [1.3890323, 46.0337229], [1.3889925, 46.033772], [1.3889483, 46.033815], [1.3888643, 46.0338611], [1.3889085, 46.0338642], [1.3890058, 46.0339071], [1.3890766, 46.0339655], [1.3891164, 46.0340177], [1.3891252, 46.0340852], [1.3891075, 46.0341528], [1.3890589, 46.0342203], [1.3889527, 46.0342971], [1.389081, 46.0343493], [1.3891827, 46.0344015], [1.3892269, 46.0344537], [1.3892402, 46.034555], [1.3892225, 46.0346287], [1.3891606, 46.034684], [1.3890677, 46.0347484], [1.3891871, 46.0347761], [1.3893198, 46.0348406], [1.3893773, 46.0348866], [1.3894127, 46.0349603], [1.3894127, 46.0350463], [1.3893729, 46.0351108], [1.3892933, 46.0351752], [1.3893817, 46.0354209], [1.3893994, 46.0355345], [1.3894871, 46.0355442], [1.3895434, 46.0354356], [1.3896216, 46.0353575], [1.3898812, 46.0354291], [1.3901095, 46.0355377], [1.3902002, 46.0356289], [1.3902627, 46.0357439], [1.390244, 46.0358612], [1.3901807, 46.035946], [1.38986, 46.0360892], [1.3897586, 46.0361859], [1.3895532, 46.0362806], [1.3893261, 46.036337], [1.3897797, 46.0373329], [1.3899062, 46.0372984], [1.3900094, 46.0371855], [1.3905443, 46.0370244], [1.3907447, 46.0369684], [1.3908726, 46.0369489], [1.3910133, 46.0369706], [1.3911134, 46.0370574], [1.3912479, 46.0373527], [1.3912655, 46.037478], [1.3913855, 46.0375112], [1.391528, 46.0374928], [1.3917701, 46.0372745], [1.391914, 46.0371508], [1.3917858, 46.0369185], [1.3916316, 46.036689], [1.391882, 46.0364504], [1.392086, 46.0363844], [1.3922737, 46.0364235], [1.3924576, 46.0363698], [1.3926583, 46.0363605], [1.392827, 46.0362118], [1.3929509, 46.0361493], [1.3930805, 46.036126], [1.3934058, 46.0361977], [1.3936621, 46.0363911], [1.3938164, 46.0367273], [1.3940072, 46.0377318], [1.3940965, 46.0380522], [1.3942304, 46.0382743], [1.3945444, 46.0382807], [1.3946229, 46.0381863], [1.3946161, 46.0379063], [1.3948786, 46.0376803], [1.394942, 46.0376222], [1.3952776, 46.0373981], [1.3958014, 46.0371942], [1.3971119, 46.0364272], [1.3975621, 46.0362606], [1.3977708, 46.0362818], [1.3979061, 46.0363431], [1.3980249, 46.0364864], [1.3981451, 46.0365714], [1.3982542, 46.0365625], [1.3984753, 46.0364995], [1.3985852, 46.0364601], [1.3987183, 46.0363511], [1.398844, 46.0361688], [1.3987479, 46.0359814], [1.3986916, 46.0358879], [1.3987076, 46.0358191], [1.3992134, 46.035427], [1.3998805, 46.0352544]]]}}, {"type": "Feature", "properties": {"name": "Étang de Gouillet"}, "geometry": {"type": "Polygon", "coordinates": [[[1.3633911, 46.0149168], [1.364365, 46.0147612], [1.3649508, 46.0144712], [1.3651321, 46.0144568], [1.3654416, 46.0144687], [1.3657158, 46.0145706], [1.3661857, 46.0148144], [1.3664197, 46.0149576], [1.3665664, 46.0151286], [1.3665839, 46.0152984], [1.3666119, 46.0154683], [1.3668616, 46.0155835], [1.3670293, 46.0155568], [1.3671446, 46.0156405], [1.3672337, 46.0156781], [1.3673629, 46.0156369], [1.3672442, 46.015615], [1.3671673, 46.0155617], [1.3671271, 46.0154367], [1.366942, 46.0153397], [1.3669245, 46.0152026], [1.3669367, 46.014994], [1.3668337, 46.0148472], [1.366542, 46.0146422], [1.3661202, 46.0143817], [1.3661141, 46.0142662], [1.3659935, 46.0140939], [1.3655692, 46.0140084], [1.3654468, 46.0137979], [1.3649123, 46.013673], [1.3646521, 46.0134273], [1.3643621, 46.0131041], [1.36417, 46.0127936], [1.3642766, 46.0125533], [1.3645325, 46.012341], [1.3650259, 46.0120378], [1.3650162, 46.0119169], [1.3648564, 46.011413], [1.3652119, 46.0108501], [1.3656936, 46.0100145], [1.3657892, 46.0097329], [1.3660791, 46.0095363], [1.3661857, 46.0092149], [1.3660906, 46.0091968], [1.3659273, 46.0091657], [1.3653123, 46.00913], [1.3646608, 46.009705], [1.3645625, 46.0098275], [1.3645141, 46.0099916], [1.3643943, 46.0101477], [1.3640444, 46.0104256], [1.3638103, 46.0105704], [1.3634867, 46.0108353], [1.3632562, 46.0109525], [1.3630126, 46.0112317], [1.3626713, 46.0114855], [1.3622504, 46.0117454], [1.3617631, 46.0120402], [1.3614103, 46.0122501], [1.3610295, 46.0124297], [1.3607465, 46.0126601], [1.3604845, 46.0127535], [1.3600548, 46.0128044], [1.3595741, 46.0129888], [1.3589708, 46.0130432], [1.3583572, 46.0128468], [1.3579274, 46.0126261], [1.3577981, 46.0124078], [1.3575501, 46.0122792], [1.3572897, 46.0122086], [1.3571396, 46.0121627], [1.3569615, 46.0121506], [1.3568112, 46.0122015], [1.3565702, 46.0123981], [1.3564748, 46.0125688], [1.3562939, 46.0127722], [1.3562017, 46.0129257], [1.3561541, 46.0131268], [1.3561249, 46.0138113], [1.3560961, 46.0139981], [1.3561895, 46.0140212], [1.3564287, 46.0139605], [1.3566995, 46.0139035], [1.3569388, 46.0140005], [1.3573929, 46.0140624], [1.3576353, 46.0142645], [1.3575169, 46.0147441], [1.3575068, 46.015231], [1.3574313, 46.0153081], [1.357096, 46.0158261], [1.3571396, 46.0159316], [1.3570179, 46.0160187], [1.3568759, 46.0160275], [1.3566907, 46.0159911], [1.3563562, 46.0160254], [1.3562244, 46.0161827], [1.3563605, 46.0164957], [1.3570232, 46.0169921], [1.3576462, 46.0180264], [1.3578317, 46.0181459], [1.3582911, 46.0181653], [1.3585809, 46.0179411], [1.3588288, 46.0175186], [1.3590004, 46.0171915], [1.3594555, 46.0159377], [1.3597282, 46.0155204], [1.3599413, 46.0152972], [1.3602385, 46.0151686], [1.3604705, 46.0150874], [1.3607762, 46.0151128], [1.3610766, 46.0151614], [1.3613788, 46.0151286], [1.3613875, 46.0150231], [1.3615413, 46.0150085], [1.3619919, 46.0150243], [1.3627325, 46.0149066], [1.3633911, 46.0149168]]]}}, {"type": "Feature", "properties": {"name": "Plan d'eau de Jonas"}, "geometry": {"type": "Polygon", "coordinates": [[[1.409833, 45.9759136], [1.4099593, 45.9759049], [1.4103901, 45.975844], [1.4105304, 45.9757226], [1.4108575, 45.9753524], [1.4112372, 45.9751047], [1.4113631, 45.9747647], [1.4113192, 45.9742344], [1.4113631, 45.9739125], [1.4114133, 45.9738209], [1.4115893, 45.97348], [1.4114704, 45.9733578], [1.4111433, 45.9731557], [1.4109328, 45.9729046], [1.4107873, 45.9725872], [1.4107297, 45.9721752], [1.4105861, 45.9718934], [1.4105995, 45.971754], [1.4106261, 45.971589], [1.4107378, 45.9714993], [1.410849, 45.9714982], [1.4111289, 45.9714916], [1.4114171, 45.9714133], [1.4115316, 45.9713412], [1.4116141, 45.9713099], [1.411735, 45.9713303], [1.4119715, 45.9713273], [1.4120409, 45.971237], [1.4120229, 45.9710026], [1.4119026, 45.9707607], [1.411765, 45.9707852], [1.411766, 45.9707185], [1.4116838, 45.970643], [1.4114925, 45.9706063], [1.411361, 45.9705674], [1.4109502, 45.9705293], [1.4106683, 45.9705368], [1.4103742, 45.970526], [1.4098786, 45.9705965], [1.4095368, 45.9707009], [1.4090384, 45.9706102], [1.4088538, 45.9705157], [1.4086578, 45.9704303], [1.4083822, 45.9702474], [1.4082367, 45.9701524], [1.406978, 45.9696691], [1.4069408, 45.9696652], [1.4067629, 45.9696466], [1.4056727, 45.9704891], [1.4046191, 45.9708127], [1.4038923, 45.9710968], [1.4032891, 45.971577], [1.4024321, 45.9718754], [1.4023922, 45.9719624], [1.4025817, 45.9720342], [1.4029949, 45.9720538], [1.402501, 45.9721928], [1.4030223, 45.9721646], [1.4019257, 45.9723816], [1.4017801, 45.9724818], [1.4022469, 45.972561], [1.4021869, 45.972676], [1.4027632, 45.9726341], [1.4042408, 45.9728902], [1.4045353, 45.9727651], [1.404782, 45.9725583], [1.405061, 45.9724897], [1.4053497, 45.9724851], [1.4058444, 45.9721793], [1.4060095, 45.9719115], [1.4063309, 45.9716816], [1.4068849, 45.9715255], [1.407206, 45.9714489], [1.4074865, 45.9715855], [1.4075214, 45.9717975], [1.4074651, 45.9720283], [1.4078059, 45.9727251], [1.4080385, 45.9729171], [1.4080511, 45.9730877], [1.4078482, 45.9732848], [1.4076133, 45.9734865], [1.4075759, 45.9738189], [1.4076168, 45.9739452], [1.4079953, 45.9741622], [1.4083152, 45.9743941], [1.4083936, 45.9748792], [1.4085465, 45.9753056], [1.4086193, 45.9754981], [1.4088867, 45.97564], [1.4092565, 45.9758158], [1.4095698, 45.9759038], [1.409833, 45.9759136]]]}}, {"type": "Feature", "properties": {"name": "Plan d'Eau de Forge Neuve"}, "geometry": {"type": "Polygon", "coordinates": [[[1.4324992, 45.5521238], [1.4325657, 45.5518909], [1.4325957, 45.5511479], [1.4325179, 45.550894], [1.4310524, 45.5499221], [1.4300809, 45.5486903], [1.4297923, 45.5481358], [1.429774, 45.5475182], [1.4304323, 45.5471929], [1.4322578, 45.5470926], [1.4327434, 45.547137], [1.4332366, 45.5474715], [1.4333494, 45.5474578], [1.433481, 45.5471727], [1.4336303, 45.5472842], [1.4336745, 45.5472751], [1.433611, 45.5471523], [1.4334261, 45.5469073], [1.4332223, 45.5466511], [1.4329293, 45.5464457], [1.4323169, 45.5463803], [1.4309699, 45.5467473], [1.4305959, 45.5467851], [1.4302992, 45.5466396], [1.4298111, 45.5464411], [1.4296523, 45.5460767], [1.4294704, 45.5457844], [1.428816, 45.5457453], [1.4279374, 45.5453674], [1.4276075, 45.5452569], [1.4270152, 45.5450676], [1.4268681, 45.5450067], [1.4268133, 45.544984], [1.4264575, 45.545133], [1.4263591, 45.545257], [1.426373, 45.5453938], [1.4266466, 45.5457607], [1.4269888, 45.5461034], [1.4255662, 45.5463746], [1.4253115, 45.5464059], [1.4252061, 45.5465165], [1.4252948, 45.5466962], [1.4259759, 45.5468473], [1.4265743, 45.5474786], [1.4270882, 45.5476934], [1.427521, 45.548223], [1.4278072, 45.5485008], [1.4278657, 45.5490135], [1.4277815, 45.5493189], [1.4285274, 45.549936], [1.4300691, 45.5508263], [1.4299618, 45.551365], [1.4303749, 45.5515769], [1.4311473, 45.5518151], [1.4315507, 45.5522959], [1.4319413, 45.5525183], [1.432349, 45.5523312], [1.4324992, 45.5521238]]]}}, {"type": "Feature", "properties": {"name": "Étang de la Mazelle"}, "geometry": {"type": "Polygon", "coordinates": [[[1.3067371, 45.9248928], [1.3069019, 45.9249799], [1.3070337, 45.9250624], [1.307172, 45.9251541], [1.3073236, 45.9252595], [1.3072511, 45.9251128], [1.3070996, 45.9250028], [1.3069744, 45.9248699], [1.3068755, 45.9247232], [1.3068755, 45.9245812], [1.3069085, 45.9244666], [1.3070205, 45.9243886], [1.3071852, 45.924352], [1.3073302, 45.9243382], [1.3075015, 45.9243703], [1.3076201, 45.9244436], [1.3077849, 45.9244986], [1.3079232, 45.9245353], [1.3080418, 45.9245307], [1.3081868, 45.9244941], [1.308345, 45.9244849], [1.3085229, 45.9244391], [1.3087008, 45.9244391], [1.3087667, 45.9243061], [1.3086349, 45.9241915], [1.3085492, 45.9240724], [1.308457, 45.9239257], [1.3083647, 45.9238248], [1.3081868, 45.9237653], [1.3080221, 45.9237148], [1.3078507, 45.9236782], [1.3076926, 45.9236048], [1.3075608, 45.923504], [1.3073302, 45.923394], [1.3072379, 45.9233069], [1.3070996, 45.9231556], [1.3069282, 45.9230181], [1.3067437, 45.9228714], [1.3065658, 45.9227018], [1.3063813, 45.9225414], [1.3061639, 45.9223351], [1.3060255, 45.922193], [1.3056697, 45.9219868], [1.30536, 45.9217713], [1.3051293, 45.921533], [1.3050437, 45.9214092], [1.3050041, 45.9212854], [1.3050305, 45.9211525], [1.30507, 45.92107], [1.3051754, 45.9209737], [1.3053204, 45.9209371], [1.3056104, 45.920882], [1.3057092, 45.9207491], [1.3058542, 45.9206391], [1.3060453, 45.9205703], [1.3062561, 45.9205337], [1.3065395, 45.9204282], [1.3067899, 45.9202586], [1.3068623, 45.9201349], [1.3068953, 45.9199928], [1.3069151, 45.9198644], [1.3068821, 45.9197085], [1.3068294, 45.9195848], [1.3067306, 45.9194931], [1.3066119, 45.9193785], [1.3065329, 45.9192456], [1.306546, 45.9190805], [1.3066317, 45.9189934], [1.3068016, 45.9189138], [1.3069298, 45.9189179], [1.30706, 45.9188802], [1.3072554, 45.91885], [1.3072337, 45.9187745], [1.3070666, 45.9186817], [1.3069744, 45.9186542], [1.3069019, 45.918613], [1.3067995, 45.9185782], [1.3067344, 45.9185102], [1.3067344, 45.9184045], [1.3057977, 45.9185545], [1.3049905, 45.9186837], [1.305049, 45.9188416], [1.3050639, 45.9188913], [1.3050662, 45.9189353], [1.3050415, 45.918989], [1.3049807, 45.9190347], [1.3048901, 45.9190735], [1.3047805, 45.9191165], [1.3046581, 45.9191682], [1.3045131, 45.9192552], [1.3043168, 45.9195382], [1.3043072, 45.9196141], [1.3042593, 45.919705], [1.3041174, 45.9198784], [1.3039155, 45.9200869], [1.30382, 45.9201682], [1.3036723, 45.9202658], [1.303409, 45.9204326], [1.3033569, 45.9204762], [1.3033163, 45.9205418], [1.3032649, 45.9206514], [1.3032139, 45.9207445], [1.3031481, 45.9208205], [1.3030832, 45.9208839], [1.3029912, 45.9209465], [1.302932, 45.9209826], [1.302842, 45.9210213], [1.3027715, 45.9210367], [1.3027037, 45.9210453], [1.3026494, 45.9210328], [1.3025832, 45.9210125], [1.3025263, 45.9210338], [1.3024742, 45.9210685], [1.3024077, 45.9211151], [1.3023644, 45.9211653], [1.3023196, 45.9212415], [1.3022869, 45.9213028], [1.3022831, 45.9214077], [1.3022663, 45.9214743], [1.3022312, 45.9215374], [1.3021719, 45.921582], [1.3020849, 45.9216199], [1.3019674, 45.9216489], [1.3018836, 45.9216825], [1.3017131, 45.921739], [1.3013924, 45.9217873], [1.3017508, 45.9225395], [1.3020953, 45.9225082], [1.3022524, 45.92255], [1.3023621, 45.9226531], [1.3025313, 45.9227656], [1.3027359, 45.9228338], [1.3029833, 45.9228756], [1.3030828, 45.9229274], [1.3032141, 45.9229699], [1.3033535, 45.9230102], [1.3035064, 45.9230316], [1.3036038, 45.9230479], [1.3036996, 45.9230708], [1.3037653, 45.9231001], [1.303904, 45.923185], [1.3039766, 45.9232638], [1.3040018, 45.9233487], [1.3040212, 45.9234491], [1.3040174, 45.9234797], [1.3040057, 45.9235055], [1.3039348, 45.9235771], [1.3037702, 45.9237599], [1.3036926, 45.9238653], [1.3036836, 45.9240764], [1.303682, 45.9240921], [1.303674, 45.9241046], [1.303626, 45.9241436], [1.3034867, 45.9242693], [1.3034545, 45.9244037], [1.3035369, 45.924512], [1.3034991, 45.9246873], [1.3034608, 45.9247145], [1.3033242, 45.9248034], [1.3033261, 45.9249416], [1.3032783, 45.9250291], [1.3033229, 45.9250753], [1.3033608, 45.9251204], [1.3033906, 45.9251752], [1.3034038, 45.9252253], [1.3033892, 45.9252767], [1.303392, 45.9253345], [1.3033793, 45.9253893], [1.3033895, 45.9254475], [1.303385, 45.925466], [1.3033763, 45.925478], [1.3033018, 45.9255095], [1.303272, 45.9255347], [1.303261, 45.9255622], [1.3032369, 45.9255843], [1.3032986, 45.9257146], [1.3034866, 45.9261114], [1.3035955, 45.9261069], [1.3040568, 45.9258955], [1.3041738, 45.9258626], [1.3045887, 45.9257859], [1.3050172, 45.9257236], [1.3053465, 45.9256733], [1.3056285, 45.9255834], [1.3058029, 45.9255762], [1.3058854, 45.9255708], [1.3059262, 45.9255554], [1.3059392, 45.925513], [1.3059406, 45.9254623], [1.305808, 45.9253099], [1.3058212, 45.9251954], [1.3058344, 45.9250716], [1.3058673, 45.9250212], [1.3059662, 45.9249066], [1.3060255, 45.9248241], [1.3061046, 45.924737], [1.3061639, 45.9247003], [1.3062495, 45.9246682], [1.3064011, 45.9246957], [1.3065197, 45.9247737], [1.3067371, 45.9248928]]]}}, {"type": "Feature", "properties": {"name": "Étang de Tricherie"}, "geometry": {"type": "Polygon", "coordinates": [[[1.2438705, 46.0069266], [1.2438286, 46.0068784], [1.2437921, 46.0068472], [1.2437017, 46.0067825], [1.2435815, 46.0067227], [1.2435153, 46.0067105], [1.2434489, 46.0067137], [1.2433948, 46.0067432], [1.243326, 46.0067548], [1.2431735, 46.0067591], [1.2428732, 46.0067597], [1.2426749, 46.0067559], [1.2425916, 46.0067749], [1.2425126, 46.006787], [1.2424085, 46.0068], [1.2423461, 46.0068186], [1.2422866, 46.0068306], [1.2422409, 46.0068306], [1.24208, 46.0068159], [1.2418197, 46.0067955], [1.2417742, 46.0067676], [1.241599, 46.0066954], [1.2415721, 46.0066939], [1.2415479, 46.0066921], [1.2414458, 46.0067], [1.2413994, 46.0067003], [1.2413284, 46.0066469], [1.2412984, 46.0066261], [1.2412462, 46.0066197], [1.2411799, 46.0066194], [1.2408715, 46.006665], [1.2408651, 46.0066656], [1.240445, 46.006715], [1.240346, 46.0067313], [1.2400756, 46.0067596], [1.2399968, 46.0067668], [1.2398794, 46.0067622], [1.239622, 46.0067456], [1.2394893, 46.0067481], [1.2393586, 46.0067513], [1.2392482, 46.0067633], [1.2389989, 46.0067388], [1.2388623, 46.0067612], [1.2387267, 46.0067849], [1.2385621, 46.0068163], [1.2383945, 46.0068032], [1.2382829, 46.0067557], [1.2382378, 46.006703], [1.2382198, 46.0066573], [1.2382193, 46.0066129], [1.2382495, 46.0065226], [1.2382936, 46.0064412], [1.2383638, 46.0063525], [1.2384132, 46.0062831], [1.2385213, 46.0061813], [1.2386016, 46.0060789], [1.2386997, 46.0059738], [1.2387391, 46.0059109], [1.2387602, 46.0058599], [1.2388141, 46.0057776], [1.2388228, 46.005682], [1.2388438, 46.0056205], [1.2388529, 46.0055689], [1.238832, 46.0054981], [1.2387883, 46.0054104], [1.2387312, 46.0051933], [1.2386732, 46.0050035], [1.2386684, 46.0049674], [1.2386399, 46.0047546], [1.2386592, 46.0046533], [1.2387262, 46.0045031], [1.2387427, 46.0044297], [1.2387755, 46.0043296], [1.238844, 46.0041745], [1.2388583, 46.0040905], [1.2388778, 46.0040053], [1.2389143, 46.0039192], [1.2389622, 46.003825], [1.2390532, 46.0036357], [1.2390933, 46.0035514], [1.2391481, 46.003474], [1.2391828, 46.0033946], [1.2392127, 46.0033154], [1.2392227, 46.0031531], [1.2392551, 46.0029451], [1.2392625, 46.0028432], [1.2392548, 46.0027303], [1.2392372, 46.002648], [1.2392123, 46.0025735], [1.2392127, 46.0025232], [1.2392126, 46.0024677], [1.2392709, 46.0023778], [1.2393059, 46.0023008], [1.2393396, 46.002265], [1.2393678, 46.0022004], [1.2394127, 46.0021316], [1.2394438, 46.0020961], [1.239482, 46.002023], [1.2395328, 46.0019435], [1.2395612, 46.0018765], [1.2396145, 46.0017635], [1.239755, 46.0014761], [1.2398546, 46.0012876], [1.2400368, 46.0010068], [1.2401632, 46.0008236], [1.240241, 46.0007295], [1.2402893, 46.0006474], [1.240349, 46.0004283], [1.2404017, 46.0003376], [1.2404402, 46.0001622], [1.2404384, 46.0000399], [1.2404831, 45.999976], [1.2408313, 45.9997026], [1.240847, 45.9996568], [1.2408367, 45.9995567], [1.2408332, 45.9994529], [1.2408669, 45.9993581], [1.2408993, 45.999259], [1.2409379, 45.9990773], [1.2410562, 45.9987239], [1.2412088, 45.9982624], [1.2412094, 45.9981308], [1.2411908, 45.9980568], [1.2413798, 45.9977387], [1.2413943, 45.9976698], [1.24141, 45.9975404], [1.2414094, 45.9973951], [1.2414447, 45.9971411], [1.2414799, 45.9969523], [1.241482, 45.9967574], [1.2414605, 45.9966677], [1.2414481, 45.9965973], [1.2414832, 45.9963509], [1.2415122, 45.9963112], [1.2414032, 45.9962533], [1.2413352, 45.9962141], [1.2412728, 45.9961632], [1.2411459, 45.996023], [1.2411078, 45.9959389], [1.2410454, 45.9958391], [1.240992, 45.9957429], [1.2408815, 45.9956043], [1.2407937, 45.9954447], [1.2406414, 45.9953502], [1.2404398, 45.995228], [1.2403782, 45.9951523], [1.2403626, 45.9951224], [1.240356, 45.995059], [1.2403647, 45.9949977], [1.240378, 45.9949438], [1.2404183, 45.9948424], [1.2404522, 45.9947895], [1.2404994, 45.9947291], [1.2405494, 45.9946866], [1.2405946, 45.9946537], [1.2407477, 45.9945342], [1.2407935, 45.994493], [1.2408393, 45.9944427], [1.2408628, 45.9943973], [1.2408748, 45.9943507], [1.2408695, 45.9943181], [1.2408524, 45.9942899], [1.2408032, 45.9942469], [1.240664, 45.9941648], [1.2406205, 45.9940942], [1.2405289, 45.9939507], [1.2404541, 45.9938545], [1.2404196, 45.9938082], [1.2404007, 45.9937314], [1.2404355, 45.9935444], [1.2404006, 45.9934632], [1.2403531, 45.9933699], [1.2403252, 45.993329], [1.2402833, 45.9932689], [1.2402364, 45.9929881], [1.2401887, 45.9928773], [1.2401505, 45.9927947], [1.2400981, 45.9927118], [1.240084, 45.9926243], [1.2401164, 45.9924533], [1.2401133, 45.9924434], [1.2400868, 45.992348], [1.2400518, 45.9922713], [1.24003, 45.9921694], [1.2399658, 45.9920915], [1.2399475, 45.9920539], [1.2398853, 45.992011], [1.2398427, 45.9919978], [1.2398167, 45.992003], [1.2397995, 45.9920006], [1.2398112, 45.9919512], [1.2397834, 45.9919482], [1.239759, 45.9919455], [1.2397416, 45.9920343], [1.239696, 45.9920905], [1.239655, 45.992157], [1.2395515, 45.9923516], [1.2395146, 45.9924038], [1.2394596, 45.9924767], [1.2394395, 45.9925305], [1.2394282, 45.9925911], [1.2394408, 45.9926922], [1.2394345, 45.9927585], [1.2394189, 45.9928379], [1.2393889, 45.9929359], [1.2393577, 45.9930332], [1.2393437, 45.9931207], [1.2393436, 45.9931699], [1.2393451, 45.9932782], [1.2393182, 45.9934773], [1.2393379, 45.9936466], [1.2393254, 45.9936981], [1.2392995, 45.9937484], [1.2392503, 45.9938105], [1.2391524, 45.9939116], [1.2391001, 45.9939908], [1.2390401, 45.9940657], [1.2389772, 45.9942453], [1.2389776, 45.9943253], [1.2389984, 45.9944028], [1.2390336, 45.9945312], [1.2390523, 45.9946261], [1.2390642, 45.9946626], [1.2391239, 45.994848], [1.2391355, 45.9949065], [1.2391201, 45.9950135], [1.2391048, 45.9951418], [1.2391312, 45.9955721], [1.2391397, 45.99567], [1.2391365, 45.9957709], [1.2391303, 45.995848], [1.2391581, 45.9960109], [1.2391417, 45.9961133], [1.2391807, 45.9963004], [1.2391963, 45.9963272], [1.2392449, 45.9963762], [1.2393249, 45.9965084], [1.2393485, 45.9966051], [1.2393663, 45.9967032], [1.2393952, 45.9967822], [1.2394297, 45.9969832], [1.2394529, 45.9971341], [1.2394555, 45.9972411], [1.2394419, 45.9972831], [1.2393487, 45.9974224], [1.2392861, 45.9974864], [1.2392774, 45.997524], [1.2393074, 45.9975926], [1.2393504, 45.9976872], [1.2394209, 45.9978032], [1.2394985, 45.9979151], [1.2395094, 45.9979499], [1.2395203, 45.997985], [1.2395107, 45.9980851], [1.2393885, 45.9983388], [1.2392165, 45.9987113], [1.2392134, 45.998881], [1.2392403, 45.999011], [1.239248, 45.9991005], [1.2392328, 45.9991544], [1.2391993, 45.999206], [1.2391142, 45.9992581], [1.2390932, 45.9993287], [1.2390618, 45.999375], [1.2389557, 45.9994991], [1.2388509, 45.9997123], [1.2388023, 45.999802], [1.2386348, 45.9999968], [1.2385747, 46.0000531], [1.2383851, 46.0001654], [1.2381713, 46.0002945], [1.2380624, 46.0003417], [1.2379833, 46.0003814], [1.2379141, 46.000402], [1.2378228, 46.0004138], [1.2377069, 46.0004204], [1.2375415, 46.0003973], [1.23744, 46.0003643], [1.2373674, 46.0003401], [1.2373464, 46.0003286], [1.2373316, 46.0003095], [1.2373255, 46.0002804], [1.2372151, 46.0002784], [1.2371271, 46.0003381], [1.2370621, 46.000428], [1.2370132, 46.0004464], [1.2369707, 46.0005132], [1.2369611, 46.0006276], [1.236956, 46.0007173], [1.2372556, 46.0009489], [1.2373302, 46.0010503], [1.2373411, 46.0011553], [1.2373363, 46.0012002], [1.237311, 46.0013144], [1.2372694, 46.0014318], [1.2372156, 46.0015239], [1.2371739, 46.0015879], [1.2370893, 46.0016693], [1.2369706, 46.0017426], [1.2367838, 46.0018592], [1.2367218, 46.0019134], [1.2366941, 46.0019615], [1.2367022, 46.0020116], [1.2367498, 46.0020808], [1.2367572, 46.0021197], [1.236743, 46.0022263], [1.2367426, 46.0022854], [1.2367682, 46.0023629], [1.2367473, 46.0025491], [1.2367354, 46.0026055], [1.2366744, 46.0027824], [1.2365872, 46.0028865], [1.2365289, 46.0028835], [1.2364899, 46.0029563], [1.236461, 46.0030777], [1.236398, 46.0032098], [1.2363107, 46.0035769], [1.2362681, 46.0035878], [1.2363544, 46.0037582], [1.2363726, 46.0037979], [1.236394, 46.003844], [1.2364192, 46.0038986], [1.236468, 46.0039989], [1.2365753, 46.0042509], [1.2366268, 46.0043038], [1.236693, 46.0043533], [1.2368046, 46.0044211], [1.2368394, 46.0044688], [1.2368644, 46.0045188], [1.2368541, 46.0045483], [1.2368094, 46.0046346], [1.2368202, 46.0046731], [1.2368887, 46.004815], [1.2370496, 46.0049477], [1.2370805, 46.0049859], [1.2370934, 46.0050284], [1.2370984, 46.0051315], [1.2371187, 46.0052223], [1.237146, 46.0053512], [1.2371498, 46.0054225], [1.2371597, 46.0054866], [1.2371797, 46.005541], [1.2372061, 46.0056539], [1.2372277, 46.0057507], [1.2372199, 46.0058089], [1.2372021, 46.0058603], [1.237219, 46.0059293], [1.2372607, 46.0060205], [1.2372717, 46.0060751], [1.2372412, 46.0061155], [1.2372097, 46.006129], [1.237123, 46.0061483], [1.2370756, 46.0061549], [1.2370008, 46.006153], [1.2369704, 46.0061662], [1.2369492, 46.0062109], [1.2369414, 46.0062778], [1.2369317, 46.0063004], [1.2368937, 46.0063068], [1.2368575, 46.0063251], [1.2367677, 46.0064065], [1.2366735, 46.0065084], [1.2366028, 46.00666], [1.2369027, 46.0069898], [1.2370956, 46.0072103], [1.2371552, 46.0072776], [1.2372769, 46.0074192], [1.2371444, 46.0074531], [1.237171, 46.0074739], [1.2371713, 46.0075031], [1.2372183, 46.0075182], [1.2374891, 46.0075629], [1.2376809, 46.0075592], [1.2383832, 46.007394], [1.2386283, 46.0073492], [1.2388221, 46.0073428], [1.2392319, 46.0073348], [1.2396559, 46.007327], [1.2397419, 46.0072941], [1.2398325, 46.0072728], [1.2399557, 46.007246], [1.2400805, 46.0072312], [1.2402651, 46.0072173], [1.2403429, 46.0071979], [1.2405566, 46.0071515], [1.2406562, 46.007114], [1.240774, 46.0070725], [1.2408779, 46.0070426], [1.2410361, 46.0070241], [1.2410995, 46.0070205], [1.2412419, 46.0070493], [1.2413257, 46.007074], [1.2413874, 46.0071004], [1.2414695, 46.0071446], [1.2415981, 46.007199], [1.241644, 46.0072252], [1.2416569, 46.0072327], [1.2418082, 46.0072903], [1.2418897, 46.0073289], [1.2420885, 46.0074224], [1.2421948, 46.0074701], [1.2422579, 46.0074778], [1.2423132, 46.007502], [1.242385, 46.007516], [1.2424326, 46.0075381], [1.2425202, 46.0075974], [1.2426967, 46.007722], [1.2427421, 46.0077423], [1.2430796, 46.0077953], [1.2431845, 46.0078161], [1.2435771, 46.0079053], [1.2437409, 46.0079092], [1.2438113, 46.0078967], [1.2438871, 46.0078807], [1.2440041, 46.0078748], [1.2440747, 46.007878], [1.2441232, 46.0078966], [1.2442216, 46.0079449], [1.2443002, 46.0079793], [1.2443893, 46.0079929], [1.2444973, 46.0080102], [1.2445661, 46.0080137], [1.2446331, 46.0080004], [1.2447794, 46.0079702], [1.2448837, 46.007939], [1.2449698, 46.0079267], [1.2451759, 46.0079096], [1.2453043, 46.0078854], [1.2454065, 46.00786], [1.2455053, 46.0078263], [1.2456168, 46.0077808], [1.2456884, 46.0077425], [1.2457529, 46.0076914], [1.2457964, 46.0076526], [1.2458285, 46.0075745], [1.2458363, 46.0075394], [1.2458329, 46.0075166], [1.2458041, 46.0074809], [1.2457576, 46.0074487], [1.2456386, 46.0073893], [1.2456113, 46.0073634], [1.2455956, 46.0073261], [1.2456098, 46.0072914], [1.2456319, 46.0072687], [1.2456686, 46.0072553], [1.2457269, 46.0072597], [1.2457878, 46.0072732], [1.2458466, 46.0073097], [1.2459357, 46.0073813], [1.246015, 46.0074541], [1.2460677, 46.007479], [1.2461471, 46.0075015], [1.2461964, 46.0075061], [1.2462684, 46.0074915], [1.2463217, 46.0074735], [1.2463876, 46.0074637], [1.2464279, 46.0074667], [1.2464594, 46.0074766], [1.2465209, 46.0074248], [1.2465051, 46.0074176], [1.2463321, 46.0073357], [1.246301, 46.0073251], [1.2461396, 46.0073023], [1.2460285, 46.0072626], [1.2459063, 46.007209], [1.245841, 46.0071895], [1.2457507, 46.0071685], [1.2456882, 46.0071679], [1.2456201, 46.0071805], [1.2455651, 46.007202], [1.2454882, 46.0072651], [1.2454604, 46.0073768], [1.2453719, 46.0074624], [1.2452505, 46.0074797], [1.244959, 46.0074742], [1.244699, 46.0074692], [1.2444609, 46.0074107], [1.2443107, 46.0073546], [1.2442254, 46.0073145], [1.2440742, 46.0072203], [1.244004, 46.0071546], [1.2439563, 46.0071005], [1.2439094, 46.0070222], [1.2438705, 46.0069266]]]}}, {"type": "Feature", "properties": {"name": "Lac de Lavaud"}, "geometry": {"type": "MultiPolygon", "coordinates": [[[[0.7176706, 45.7942443], [0.7176653, 45.7938459], [0.7178745, 45.7936365], [0.7181346, 45.7935579], [0.7182822, 45.7937973], [0.7179603, 45.7942667], [0.7177028, 45.7945192], [0.7176706, 45.7942443]]], [[[0.6996632, 45.8240604], [0.6999849, 45.8241706], [0.7006325, 45.8243844], [0.7011516, 45.824534], [0.7016135, 45.8245502], [0.7017728, 45.8244684], [0.701866, 45.8244205], [0.7016932, 45.8242978], [0.700621, 45.8240984], [0.7000386, 45.8238104], [0.6998755, 45.8237246], [0.6997351, 45.8236014], [0.6997191, 45.8234641], [0.6997995, 45.8233643], [0.7001152, 45.823189], [0.7004402, 45.8227267], [0.700329, 45.822667], [0.7002119, 45.8226042], [0.699819, 45.822898], [0.6993287, 45.8231427], [0.6989973, 45.8232775], [0.6985469, 45.8233468], [0.6979541, 45.823364], [0.6976247, 45.8234262], [0.6974234, 45.8234063], [0.6970328, 45.8234498], [0.696641, 45.8234918], [0.6963225, 45.8235118], [0.6958657, 45.8234525], [0.6956183, 45.8234189], [0.6954841, 45.8233763], [0.6953895, 45.8232753], [0.6952483, 45.8230724], [0.6952031, 45.8229674], [0.6951572, 45.8227023], [0.6951536, 45.8223429], [0.6952342, 45.8222651], [0.6957107, 45.8220169], [0.6957177, 45.8218435], [0.6953317, 45.8216899], [0.6949011, 45.8216345], [0.6945126, 45.8217133], [0.694219, 45.8217509], [0.6939662, 45.8217927], [0.6937047, 45.8218437], [0.6934479, 45.8218132], [0.6930118, 45.8214329], [0.6932314, 45.8213475], [0.6933111, 45.8211073], [0.6932481, 45.8208968], [0.6930521, 45.8207425], [0.6928591, 45.8205861], [0.6927652, 45.8205052], [0.6926675, 45.8204373], [0.6925866, 45.8203413], [0.6924727, 45.8201982], [0.6923792, 45.8200339], [0.6923438, 45.8199163], [0.6923272, 45.8197349], [0.6923265, 45.8195668], [0.6924068, 45.8194558], [0.6925759, 45.8193696], [0.6929596, 45.8193588], [0.6930361, 45.8191786], [0.6929826, 45.8189201], [0.6927196, 45.8186534], [0.6924123, 45.8182486], [0.6923579, 45.8178443], [0.6921373, 45.817462], [0.6920742, 45.817258], [0.692087, 45.8171221], [0.6921203, 45.8169103], [0.6922272, 45.8166445], [0.6925475, 45.8159328], [0.6926074, 45.8155179], [0.6926608, 45.8151434], [0.6927714, 45.8144071], [0.6928164, 45.8142811], [0.6931104, 45.8139839], [0.693448, 45.8137625], [0.6939036, 45.8136038], [0.6940602, 45.8136133], [0.6945322, 45.813911], [0.6946123, 45.8139615], [0.694591, 45.8140459], [0.6951751, 45.8144328], [0.6955715, 45.8148046], [0.6960977, 45.8152166], [0.6963869, 45.815409], [0.6972346, 45.8158523], [0.6971022, 45.8155275], [0.6970991, 45.8153349], [0.6966401, 45.8147582], [0.6961175, 45.8141769], [0.6956742, 45.8139325], [0.6953231, 45.8137147], [0.6950398, 45.8135479], [0.6948661, 45.8134457], [0.6946152, 45.8132469], [0.6945615, 45.8131389], [0.694581, 45.8130337], [0.6946733, 45.8129187], [0.6947652, 45.8128386], [0.6949089, 45.8128017], [0.6953457, 45.8127065], [0.6955623, 45.8125607], [0.6958274, 45.8124249], [0.6962483, 45.8125487], [0.6967006, 45.8124975], [0.6967014, 45.8124148], [0.6968891, 45.8123077], [0.6969188, 45.812072], [0.6970849, 45.8119346], [0.6970964, 45.8116642], [0.6971268, 45.811471], [0.6972939, 45.8113499], [0.6975222, 45.8113022], [0.6977465, 45.8112534], [0.6979767, 45.81121], [0.6983664, 45.8111772], [0.6987513, 45.8110562], [0.6987683, 45.8109837], [0.6982481, 45.8107853], [0.697772, 45.8106765], [0.6975153, 45.8106389], [0.6975259, 45.8104809], [0.6975674, 45.810349], [0.6976126, 45.8101925], [0.6976676, 45.8100589], [0.6976093, 45.8099321], [0.697559, 45.8097821], [0.6975209, 45.8096622], [0.6974576, 45.8095318], [0.6974098, 45.8094015], [0.6973571, 45.809213], [0.6973862, 45.8090729], [0.697389, 45.8089395], [0.6974324, 45.8087638], [0.697488, 45.8087078], [0.6977125, 45.8085006], [0.6980383, 45.8082176], [0.6980073, 45.8080428], [0.6985559, 45.8076354], [0.6985979, 45.8074322], [0.6987418, 45.8072265], [0.6988901, 45.8070787], [0.6991087, 45.8068628], [0.6993542, 45.8066051], [0.6995671, 45.8063882], [0.6996544, 45.8061851], [0.6997579, 45.8059172], [0.6998473, 45.8057438], [0.6999381, 45.8055564], [0.6999755, 45.8053798], [0.7000959, 45.805303], [0.7005, 45.8051722], [0.7009038, 45.8052123], [0.7010382, 45.8054835], [0.7012331, 45.805787], [0.7013982, 45.8059506], [0.7016535, 45.8058953], [0.7016838, 45.8056817], [0.7017157, 45.8053834], [0.7018251, 45.8050643], [0.7019225, 45.8047942], [0.7021387, 45.8045187], [0.7024641, 45.8042569], [0.7028023, 45.8040559], [0.7031092, 45.8039043], [0.703296, 45.803859], [0.7036564, 45.8038456], [0.7039362, 45.8038465], [0.7042508, 45.8039911], [0.7045735, 45.8038358], [0.7048052, 45.8035607], [0.7051113, 45.8033018], [0.7054458, 45.8031597], [0.7057817, 45.8030845], [0.7058048, 45.8029725], [0.706161, 45.8029995], [0.7065781, 45.803048], [0.7066077, 45.8030903], [0.707036, 45.8032658], [0.707202, 45.8031487], [0.7073429, 45.803144], [0.707659, 45.8031789], [0.7077598, 45.8032595], [0.7078824, 45.8033176], [0.7079728, 45.8034394], [0.708057, 45.8035436], [0.7081329, 45.8035436], [0.7081693, 45.8035501], [0.708226, 45.8035602], [0.7082705, 45.8034911], [0.7083131, 45.8033573], [0.7083848, 45.8032977], [0.7084605, 45.8032629], [0.7086131, 45.8032706], [0.7087245, 45.8033035], [0.7088595, 45.8033219], [0.7092485, 45.8033524], [0.7095725, 45.8034035], [0.7098756, 45.8034511], [0.7101548, 45.8035184], [0.7102576, 45.8035614], [0.7103529, 45.8036013], [0.7104525, 45.8036531], [0.7105502, 45.8037015], [0.7106853, 45.80382], [0.7107552, 45.8039094], [0.71111, 45.8040921], [0.7112331, 45.8041908], [0.7113174, 45.8042293], [0.7113773, 45.8043208], [0.7114368, 45.8043909], [0.7115268, 45.8044592], [0.7116326, 45.8045551], [0.7117661, 45.8046578], [0.7118299, 45.8046768], [0.7121565, 45.8049429], [0.7123986, 45.8051126], [0.712811, 45.8053105], [0.713136, 45.8054504], [0.713339, 45.8055306], [0.7135047, 45.8056935], [0.7135215, 45.805844], [0.7134685, 45.806072], [0.7133993, 45.8062835], [0.7136501, 45.8063088], [0.7137579, 45.8062613], [0.7139091, 45.8060978], [0.7141436, 45.8059769], [0.7145764, 45.8059904], [0.7149118, 45.8061652], [0.7154826, 45.8062138], [0.7161627, 45.8062602], [0.7167683, 45.8064259], [0.7176331, 45.8065746], [0.7180099, 45.8067804], [0.7181218, 45.8069096], [0.7181486, 45.8072059], [0.7182612, 45.807247], [0.7184998, 45.807137], [0.7186242, 45.8068702], [0.718901, 45.8066432], [0.719115, 45.8065624], [0.7194951, 45.8065052], [0.7198089, 45.8063977], [0.720074, 45.8063136], [0.7205346, 45.8061797], [0.7209136, 45.8061363], [0.7213269, 45.806032], [0.7219061, 45.8058368], [0.7224542, 45.805735], [0.7230966, 45.8056719], [0.723874, 45.8056326], [0.7244945, 45.8055353], [0.7254855, 45.8051834], [0.7256234, 45.8051301], [0.7258316, 45.80503], [0.7258937, 45.8048928], [0.7255233, 45.8047931], [0.7258626, 45.8046598], [0.7257515, 45.8046122], [0.7249475, 45.8046441], [0.7244962, 45.8047739], [0.7242297, 45.8049419], [0.7238654, 45.8050684], [0.7228096, 45.805025], [0.7220641, 45.8050432], [0.7218167, 45.8051109], [0.7214255, 45.8052605], [0.7212865, 45.8053597], [0.7210008, 45.8054302], [0.7205885, 45.8054276], [0.7200679, 45.8055195], [0.7195862, 45.8055753], [0.7192692, 45.8055593], [0.7190122, 45.8054495], [0.7187924, 45.8055098], [0.7185754, 45.8055254], [0.7182948, 45.8055071], [0.7176764, 45.8055444], [0.7174288, 45.805581], [0.7171455, 45.805568], [0.7168956, 45.8054252], [0.7166107, 45.8052534], [0.7163861, 45.80518], [0.7160967, 45.8050954], [0.7158379, 45.8049766], [0.7156206, 45.8047852], [0.715318, 45.8046802], [0.7149316, 45.8045815], [0.7145445, 45.8044741], [0.7142023, 45.8044083], [0.7138955, 45.8042781], [0.7136446, 45.8041962], [0.7133469, 45.8040223], [0.7130948, 45.8037587], [0.712907, 45.8035081], [0.7128587, 45.8033922], [0.7127461, 45.8032838], [0.7127165, 45.8029352], [0.7126948, 45.8027062], [0.7127007, 45.8024955], [0.7127259, 45.8022228], [0.7128951, 45.802018], [0.7130793, 45.8017038], [0.713155, 45.801607], [0.7133695, 45.8014486], [0.7136312, 45.8013522], [0.713945, 45.8012119], [0.7140431, 45.8010863], [0.7142081, 45.8008195], [0.7144404, 45.8004973], [0.7146665, 45.8002097], [0.7148007, 45.8000788], [0.714983, 45.799946], [0.7152647, 45.7998357], [0.7154192, 45.7997759], [0.715211, 45.799658], [0.7153881, 45.7995814], [0.7154065, 45.7994353], [0.7153022, 45.7993327], [0.7151762, 45.7993214], [0.7150286, 45.7992859], [0.7154176, 45.7986987], [0.7155409, 45.7984781], [0.7157877, 45.7978367], [0.7163107, 45.7974365], [0.7164368, 45.7973355], [0.7164878, 45.7972532], [0.7164975, 45.7972357], [0.7166877, 45.7968929], [0.7167077, 45.7968568], [0.7169732, 45.796666], [0.7172763, 45.7965856], [0.7173353, 45.7964659], [0.7170403, 45.7962621], [0.7168874, 45.7961331], [0.7168906, 45.7961152], [0.7169357, 45.7958619], [0.7169598, 45.7956319], [0.7170537, 45.7954636], [0.7171825, 45.7953065], [0.7173058, 45.7951924], [0.7174911, 45.7949636], [0.7175315, 45.7948483], [0.7175173, 45.7946208], [0.7174626, 45.7943271], [0.7174546, 45.794034], [0.7171449, 45.7941246], [0.7168338, 45.7941844], [0.7165575, 45.794248], [0.7163054, 45.7942181], [0.7160801, 45.7941919], [0.7158521, 45.7941021], [0.7155839, 45.7939563], [0.7153211, 45.7937868], [0.7152444, 45.7936301], [0.7149696, 45.7934176], [0.7148167, 45.7933541], [0.7146558, 45.7933354], [0.7143795, 45.7929108], [0.714055, 45.7931558], [0.7139504, 45.7933447], [0.713776, 45.7933466], [0.7135186, 45.7934457], [0.7135507, 45.7936327], [0.7136232, 45.7938179], [0.7136661, 45.7940217], [0.7137707, 45.7941059], [0.7138646, 45.7941788], [0.7141167, 45.794276], [0.7142615, 45.7943733], [0.7145566, 45.7946351], [0.7147497, 45.7947324], [0.7149909, 45.794993], [0.7149829, 45.7950979], [0.7150319, 45.795205], [0.7148673, 45.7954797], [0.7147434, 45.7958281], [0.7146531, 45.7960699], [0.7144417, 45.7962858], [0.7143143, 45.7965088], [0.7141889, 45.796573], [0.7138736, 45.7969313], [0.7136355, 45.7970664], [0.7135013, 45.7971439], [0.7132503, 45.7970659], [0.7129877, 45.7972952], [0.7130178, 45.7974324], [0.7129526, 45.7976385], [0.7132369, 45.7979938], [0.7130942, 45.7982587], [0.7129341, 45.7986264], [0.7127528, 45.7988818], [0.7124702, 45.7990515], [0.712216, 45.7991684], [0.7120639, 45.7993546], [0.7119014, 45.7996482], [0.7118416, 45.7998741], [0.7117469, 45.8000686], [0.7116273, 45.800291], [0.711413, 45.8005151], [0.7110217, 45.8007305], [0.7106405, 45.800866], [0.710471, 45.8010398], [0.7101246, 45.8013316], [0.7098156, 45.8015123], [0.7093247, 45.8017347], [0.7092176, 45.8017312], [0.7090132, 45.8017677], [0.7087192, 45.801752], [0.7083977, 45.8016287], [0.7080763, 45.8014689], [0.7076701, 45.8014984], [0.7073951, 45.8014695], [0.7070102, 45.8013342], [0.707037, 45.8012334], [0.7069767, 45.8012144], [0.7068485, 45.8012404], [0.7067534, 45.8012439], [0.7061559, 45.801193], [0.7059941, 45.8011141], [0.7059921, 45.8010702], [0.705837, 45.8010918], [0.7057052, 45.8010731], [0.7055385, 45.8010123], [0.7052736, 45.800936], [0.7052195, 45.8008911], [0.705143, 45.8008745], [0.7050553, 45.8008821], [0.7049006, 45.8009619], [0.7048317, 45.8009409], [0.7040616, 45.8011011], [0.7039463, 45.8010869], [0.703846, 45.8010199], [0.7035148, 45.8006539], [0.7034658, 45.8006622], [0.7033189, 45.8012501], [0.7032822, 45.801313], [0.7031997, 45.8013544], [0.7031129, 45.8013827], [0.7026124, 45.8014002], [0.7020552, 45.8014995], [0.7019122, 45.801508], [0.7016362, 45.8016251], [0.701297, 45.8016463], [0.7012079, 45.8016945], [0.7010403, 45.8018121], [0.7008999, 45.801824], [0.7007272, 45.8019108], [0.7005426, 45.8019115], [0.7001899, 45.8018836], [0.7000084, 45.8018154], [0.6997316, 45.8017207], [0.6995841, 45.8015508], [0.6994303, 45.8012258], [0.6993384, 45.8011101], [0.6993852, 45.8006863], [0.6993675, 45.80036], [0.6992986, 45.8003077], [0.6992509, 45.8001201], [0.6992756, 45.80004], [0.6993384, 45.7999408], [0.6993201, 45.799841], [0.6992572, 45.7997798], [0.6991853, 45.7997515], [0.6990679, 45.7997367], [0.6989982, 45.7997741], [0.6989257, 45.7999146], [0.6988764, 45.8000534], [0.6988125, 45.8003481], [0.6987767, 45.8007647], [0.6987678, 45.8009137], [0.6987116, 45.8012362], [0.6987644, 45.8015781], [0.6987839, 45.8017422], [0.6988758, 45.8017557], [0.6988772, 45.8018472], [0.6987335, 45.801927], [0.6986022, 45.8020265], [0.6985365, 45.8020926], [0.6985299, 45.8021537], [0.6985623, 45.8021984], [0.6987747, 45.8023769], [0.6988822, 45.8024203], [0.6989854, 45.8025256], [0.6990484, 45.8026428], [0.6990962, 45.8027585], [0.6991217, 45.8027995], [0.6991817, 45.8029051], [0.6991596, 45.8030308], [0.699041, 45.8031194], [0.6990808, 45.8032384], [0.6989851, 45.8033748], [0.6988293, 45.8034612], [0.6985179, 45.8035072], [0.6982911, 45.8036369], [0.698229, 45.8038063], [0.6981297, 45.8038839], [0.6980033, 45.8041043], [0.6978922, 45.8041324], [0.6978037, 45.8042294], [0.6976995, 45.8042552], [0.697613, 45.8043201], [0.6975445, 45.8044521], [0.6975051, 45.804486], [0.6973082, 45.8045881], [0.697116, 45.8047942], [0.6970181, 45.8050135], [0.6969961, 45.8052238], [0.6968702, 45.805483], [0.6967397, 45.8055319], [0.6967406, 45.8055558], [0.6966494, 45.8055769], [0.6965873, 45.8055748], [0.6962317, 45.8057046], [0.6961433, 45.8057867], [0.6959758, 45.806029], [0.695951, 45.8061308], [0.695744, 45.8062715], [0.6957566, 45.8063199], [0.6955272, 45.8064417], [0.6953553, 45.8065274], [0.6950618, 45.8065354], [0.6946597, 45.806695], [0.6945007, 45.8069415], [0.6943584, 45.8071673], [0.6942468, 45.80725], [0.6941586, 45.8073536], [0.6940569, 45.8074265], [0.6937829, 45.8074976], [0.6934144, 45.8075206], [0.6932554, 45.8075158], [0.693108, 45.8074095], [0.6929961, 45.807379], [0.6928085, 45.8073816], [0.6926148, 45.8074105], [0.6922643, 45.8075228], [0.6922002, 45.8075336], [0.6919918, 45.8075226], [0.6917454, 45.8074558], [0.6915308, 45.8074273], [0.6912151, 45.8072723], [0.6911442, 45.8071138], [0.6910261, 45.8067824], [0.6909555, 45.8065765], [0.6908584, 45.8063357], [0.6908643, 45.8061424], [0.6908214, 45.8058468], [0.6907111, 45.8055871], [0.6906604, 45.8053083], [0.6905062, 45.8050039], [0.6900221, 45.8045069], [0.6899089, 45.8045993], [0.6898558, 45.8047534], [0.6898593, 45.8049435], [0.6898367, 45.8051428], [0.6897211, 45.8053268], [0.6895237, 45.8054617], [0.6893818, 45.8054391], [0.6890628, 45.8054637], [0.6885199, 45.8054339], [0.6880408, 45.8054132], [0.6873109, 45.8053036], [0.6871815, 45.805384], [0.6868925, 45.8054743], [0.6870238, 45.8057228], [0.6874082, 45.8057798], [0.687589, 45.8059186], [0.6879366, 45.8060398], [0.6883705, 45.8062575], [0.6886522, 45.8064168], [0.6889586, 45.806475], [0.6895177, 45.806584], [0.6897616, 45.8066454], [0.6900028, 45.8067506], [0.690183, 45.8069653], [0.6904351, 45.8073465], [0.6906539, 45.8079921], [0.6909673, 45.8086098], [0.6910946, 45.8089164], [0.6910921, 45.8093182], [0.691345, 45.8095917], [0.6915879, 45.8098805], [0.6918043, 45.8101102], [0.6916871, 45.8102732], [0.6915745, 45.8104778], [0.6914073, 45.8107643], [0.6911723, 45.8108588], [0.6907553, 45.8108983], [0.6902326, 45.810828], [0.6896538, 45.8107091], [0.6890248, 45.8105905], [0.6886983, 45.8106233], [0.6884502, 45.8106511], [0.6886317, 45.8108071], [0.6888668, 45.8109479], [0.6896349, 45.8111893], [0.6899467, 45.8114066], [0.6903364, 45.8118489], [0.6905145, 45.8123456], [0.690559, 45.8127414], [0.6905097, 45.8130311], [0.6903585, 45.8138201], [0.6903251, 45.8142546], [0.6901915, 45.8145728], [0.690053, 45.8148172], [0.6897462, 45.8151859], [0.6896348, 45.8155195], [0.6894258, 45.8160292], [0.6893098, 45.8163668], [0.6892259, 45.8167503], [0.6892778, 45.8169299], [0.6884894, 45.8172349], [0.6884324, 45.8174207], [0.6885211, 45.8177826], [0.6884108, 45.8180549], [0.6880387, 45.8183418], [0.6878643, 45.8185752], [0.6876617, 45.8188026], [0.687999, 45.8190668], [0.6879594, 45.8190919], [0.6875339, 45.8193614], [0.6870639, 45.8194555], [0.686449, 45.8196482], [0.6858634, 45.8198856], [0.6853484, 45.8197807], [0.6851116, 45.820073], [0.685306, 45.8203017], [0.6852762, 45.8205336], [0.6850012, 45.8207154], [0.6847929, 45.8209423], [0.6845788, 45.8212701], [0.6846489, 45.8213697], [0.6848299, 45.8214453], [0.684902, 45.8216387], [0.6849739, 45.8219938], [0.6850834, 45.8223936], [0.684829, 45.8225588], [0.6844617, 45.8227905], [0.6841122, 45.8229656], [0.6838411, 45.8230938], [0.6835134, 45.823204], [0.6832517, 45.8233477], [0.6837511, 45.8233886], [0.6839946, 45.8235213], [0.6841514, 45.8237126], [0.6842822, 45.8239495], [0.6843887, 45.8241616], [0.6843283, 45.8244079], [0.684176, 45.8245694], [0.6841497, 45.8250568], [0.6840364, 45.8255702], [0.6854456, 45.8259772], [0.6867201, 45.8262959], [0.6874483, 45.8264855], [0.6874873, 45.8263898], [0.6875752, 45.8261725], [0.6877307, 45.8261354], [0.6882785, 45.826104], [0.6883526, 45.8260701], [0.6885452, 45.8261539], [0.6888928, 45.8261543], [0.6890136, 45.8260985], [0.6891647, 45.8259063], [0.6894238, 45.8253668], [0.6895455, 45.8252235], [0.6898123, 45.8251367], [0.6899696, 45.8251615], [0.690058, 45.8252889], [0.6902383, 45.8253955], [0.6904047, 45.8253911], [0.6913553, 45.8249144], [0.6913838, 45.8248181], [0.6914588, 45.8245999], [0.6916094, 45.8245255], [0.6921339, 45.8244826], [0.6930532, 45.824624], [0.6940431, 45.8245], [0.6943334, 45.824644], [0.6947152, 45.8246447], [0.6950583, 45.8245188], [0.6955655, 45.8245906], [0.6958535, 45.8246801], [0.6961303, 45.8248406], [0.6964458, 45.8250117], [0.6966192, 45.8251465], [0.6966536, 45.8252833], [0.6966358, 45.8254466], [0.6965424, 45.8256699], [0.6965236, 45.8257557], [0.6966276, 45.8257474], [0.6968255, 45.8256593], [0.69703, 45.825646], [0.6971843, 45.8256722], [0.697313, 45.8257136], [0.6974414, 45.8258133], [0.6975475, 45.8258387], [0.6975616, 45.8257252], [0.6974088, 45.8255272], [0.6973649, 45.8254335], [0.6973526, 45.8252838], [0.6972893, 45.8251245], [0.6972226, 45.8250499], [0.6970272, 45.8246578], [0.6969753, 45.8244488], [0.6970905, 45.8243371], [0.6973587, 45.824286], [0.6978485, 45.8241658], [0.6980288, 45.8241647], [0.6985252, 45.8240653], [0.6988615, 45.8240111], [0.6993736, 45.8239002], [0.6996632, 45.8240604]]]]}}, {"type": "Feature", "properties": {"name": "Étang de Ballerand"}, "geometry": {"type": "Polygon", "coordinates": [[[0.7858159, 45.5963365], [0.7855632, 45.5964165], [0.7855214, 45.5965272], [0.7854331, 45.5966342], [0.7854839, 45.5967749], [0.7854715, 45.5969292], [0.7852697, 45.5973153], [0.7850403, 45.5976824], [0.7846901, 45.5980377], [0.7846375, 45.5984655], [0.784561, 45.5985681], [0.7845473, 45.5986532], [0.7845435, 45.598722], [0.7844242, 45.5989035], [0.7844284, 45.5989671], [0.7845368, 45.5991294], [0.7844459, 45.5991848], [0.7843849, 45.5991606], [0.7842921, 45.5992036], [0.7842736, 45.5992781], [0.7842963, 45.5994026], [0.7842658, 45.5996301], [0.7842042, 45.5998408], [0.7840191, 45.5999785], [0.7836089, 45.6002187], [0.7835166, 45.6003164], [0.7832565, 45.6010735], [0.7832343, 45.6011212], [0.7833285, 45.6015163], [0.7835164, 45.6018428], [0.7837731, 45.6021428], [0.7841155, 45.6019377], [0.7846817, 45.6017035], [0.7848014, 45.6012203], [0.7853125, 45.6008653], [0.7857841, 45.600527], [0.7860324, 45.6003976], [0.7861465, 45.6001855], [0.786228, 45.5999086], [0.7865167, 45.5997753], [0.7868712, 45.5997739], [0.7872179, 45.5999908], [0.7876159, 45.6000032], [0.7879259, 45.6000691], [0.7879389, 45.6002373], [0.7878894, 45.6004072], [0.787946, 45.6005823], [0.7880503, 45.6006881], [0.7884608, 45.6010455], [0.7885598, 45.6011714], [0.7886713, 45.6011643], [0.7887721, 45.6010865], [0.7887863, 45.600883], [0.7886412, 45.6007539], [0.7885952, 45.6006761], [0.7885757, 45.6004652], [0.7886553, 45.6003379], [0.7889022, 45.6002815], [0.7888847, 45.6003265], [0.7888046, 45.6003941], [0.7888322, 45.6005192], [0.7889076, 45.6005747], [0.7890448, 45.6004191], [0.7891149, 45.6002215], [0.7890448, 45.6000338], [0.7889723, 45.5998712], [0.7890413, 45.5997169], [0.7898093, 45.5994769], [0.7906148, 45.5997055], [0.7908761, 45.5996661], [0.7909187, 45.5994459], [0.7910136, 45.5991901], [0.790886, 45.5989219], [0.790731, 45.5982876], [0.7908428, 45.5979346], [0.790207, 45.5974684], [0.7896876, 45.5969558], [0.7887572, 45.5970896], [0.7880501, 45.5969757], [0.7878863, 45.5970032], [0.7877262, 45.5970758], [0.7876361, 45.5971996], [0.7873866, 45.5973427], [0.7868893, 45.5973059], [0.7865362, 45.5973532], [0.7864115, 45.5972934], [0.7863314, 45.5971859], [0.7863457, 45.5970952], [0.7863232, 45.5969826], [0.7862399, 45.5968777], [0.7859685, 45.5965891], [0.7858892, 45.5963671], [0.7858159, 45.5963365]]]}}, {"type": "Feature", "properties": {"name": "Lac du Pont à l'Age"}, "geometry": {"type": "Polygon", "coordinates": [[[1.4742547, 46.0978232], [1.4739725, 46.0970577], [1.4750741, 46.0960946], [1.4752683, 46.0962056], [1.4754995, 46.0965023], [1.4754584, 46.0966301], [1.4756816, 46.0970047], [1.4758908, 46.0970123], [1.4762966, 46.0973791], [1.4768127, 46.0974159], [1.4778298, 46.0971992], [1.479843, 46.0960563], [1.4805278, 46.0955935], [1.4814349, 46.0949109], [1.4817552, 46.094888], [1.4821106, 46.0952526], [1.4820317, 46.0954685], [1.4817281, 46.0955827], [1.4815529, 46.0955331], [1.4811638, 46.0958584], [1.4814027, 46.0964774], [1.4821996, 46.09717], [1.4827253, 46.0973835], [1.4829512, 46.0974236], [1.4833692, 46.0973793], [1.4840207, 46.0974564], [1.48448, 46.0975279], [1.4850884, 46.097446], [1.4856999, 46.0975669], [1.4858214, 46.0977148], [1.4861384, 46.0977843], [1.4867878, 46.0978039], [1.4869857, 46.0978234], [1.4873657, 46.0979296], [1.4875722, 46.0980674], [1.4877388, 46.0980542], [1.4881155, 46.0981136], [1.4883124, 46.0980905], [1.4885058, 46.0979493], [1.4887411, 46.0978586], [1.4891605, 46.0978352], [1.4893264, 46.0977851], [1.4892898, 46.097677], [1.4886514, 46.0977196], [1.4883483, 46.0979183], [1.4879307, 46.0978303], [1.487812, 46.0976301], [1.4877071, 46.0976074], [1.4874933, 46.0976525], [1.4872297, 46.0975987], [1.4869386, 46.0974296], [1.4866663, 46.0973713], [1.4861594, 46.0970709], [1.4853864, 46.0968663], [1.4849245, 46.0969643], [1.4845012, 46.0969502], [1.4839715, 46.0971012], [1.4830118, 46.0970076], [1.4827471, 46.0968261], [1.4826419, 46.0966801], [1.4826116, 46.0964889], [1.4826685, 46.0962713], [1.4824681, 46.09593], [1.4827076, 46.0954002], [1.4826303, 46.094905], [1.4824919, 46.094604], [1.4822815, 46.0942977], [1.4821766, 46.094155], [1.4815806, 46.0938646], [1.4814176, 46.0938751], [1.4805954, 46.0939279], [1.4802781, 46.0939812], [1.479754, 46.0943523], [1.4791095, 46.0951127], [1.4782595, 46.0960695], [1.4779631, 46.0961885], [1.4777815, 46.0962516], [1.4773014, 46.0962363], [1.4768183, 46.0958405], [1.4766488, 46.095282], [1.4769363, 46.0949239], [1.4765922, 46.0942731], [1.4763977, 46.0939403], [1.4761431, 46.0936635], [1.475503, 46.0934007], [1.4751124, 46.0934042], [1.4748783, 46.0935103], [1.4744387, 46.0938216], [1.4740023, 46.0938017], [1.4739218, 46.0938959], [1.474054, 46.0942679], [1.4735203, 46.0952923], [1.4733958, 46.0959973], [1.4729567, 46.0960925], [1.4729483, 46.096141], [1.4729133, 46.0963431], [1.4720814, 46.0965695], [1.472222, 46.0970277], [1.4723509, 46.097448], [1.4731735, 46.0971897], [1.4735911, 46.0972217], [1.4741224, 46.097847], [1.4742102, 46.0978312], [1.4742547, 46.0978232]]]}}]}