{"type": "FeatureCollection", "features": [{"type": "Feature", "properties": {"name": "Lac du Crescent"}, "geometry": {"type": "Polygon", "coordinates": [[[3.926103, 47.3824666], [3.926862, 47.3823851], [3.9270571, 47.3824242], [3.9271563, 47.3824296], [3.9272475, 47.3823951], [3.9277571, 47.381952], [3.9287539, 47.381409], [3.9296615, 47.3811765], [3.9302006, 47.380944], [3.9313325, 47.3806861], [3.9315817, 47.3805207], [3.9322177, 47.3803428], [3.9324265, 47.3800488], [3.9331175, 47.3797219], [3.9338867, 47.3794778], [3.934421, 47.3796776], [3.9352731, 47.3803332], [3.9361936, 47.3802177], [3.9366898, 47.3805352], [3.9370807, 47.380521], [3.9374659, 47.3803045], [3.9382589, 47.3799885], [3.9383867, 47.3797453], [3.9380454, 47.3794527], [3.9380783, 47.379333], [3.938266, 47.3793021], [3.9385024, 47.379335], [3.9384602, 47.3791182], [3.9380626, 47.3791875], [3.9377632, 47.379238], [3.937421, 47.3791854], [3.9365655, 47.3788354], [3.935223, 47.3785906], [3.9339726, 47.3787564], [3.9330326, 47.3787652], [3.9326119, 47.3787664], [3.9322877, 47.3788834], [3.9317697, 47.3790279], [3.9315256, 47.3792222], [3.9314157, 47.3795019], [3.931483, 47.3799189], [3.9312628, 47.3801467], [3.9308229, 47.3801848], [3.93056, 47.3801703], [3.9303777, 47.3803247], [3.9277901, 47.3811585], [3.927277, 47.381478], [3.9268264, 47.3814562], [3.9263302, 47.3815978], [3.9260831, 47.3815668], [3.9257233, 47.3813755], [3.9254799, 47.3810221], [3.9251018, 47.3807442], [3.9247638, 47.3805517], [3.9241469, 47.3801921], [3.9238465, 47.3800886], [3.9237231, 47.3801122], [3.9233476, 47.3800777], [3.922274, 47.3797082], [3.9216201, 47.3798825], [3.9207137, 47.3801957], [3.92066, 47.3802956], [3.9204145, 47.3803926], [3.9201366, 47.3802885], [3.9192583, 47.3801465], [3.9183284, 47.3802536], [3.9174165, 47.3805916], [3.9173931, 47.3807642], [3.9171329, 47.3809694], [3.9169934, 47.3812437], [3.9165925, 47.3814425], [3.9163631, 47.3814216], [3.914568, 47.3816947], [3.9142066, 47.3816214], [3.913735, 47.3816196], [3.9131498, 47.3813554], [3.9130774, 47.3813962], [3.9126429, 47.3811129], [3.9123009, 47.3810984], [3.9118735, 47.3813753], [3.9118355, 47.3813999], [3.9115888, 47.3814253], [3.9112186, 47.3813054], [3.9105427, 47.3807787], [3.910317, 47.3804897], [3.9102799, 47.3801939], [3.910414, 47.379976], [3.9107519, 47.3796817], [3.911165, 47.3796745], [3.9111972, 47.3797762], [3.9112616, 47.3798706], [3.9114064, 47.3799651], [3.9118946, 47.3802375], [3.9119589, 47.3802629], [3.9121252, 47.3802629], [3.9123452, 47.3801903], [3.9125168, 47.3800413], [3.912769, 47.3799178], [3.9129406, 47.3798706], [3.9130211, 47.379798], [3.9126939, 47.3794057], [3.912431, 47.3791223], [3.9122003, 47.3788426], [3.9120769, 47.3786065], [3.912136, 47.3783268], [3.9122164, 47.3779672], [3.9122111, 47.3777892], [3.9122701, 47.3776221], [3.912136, 47.3774405], [3.9117229, 47.3769828], [3.9109719, 47.3763144], [3.9105213, 47.3760019], [3.9102048, 47.3756241], [3.9100438, 47.3751519], [3.9100009, 47.3748322], [3.9103389, 47.3738441], [3.9104998, 47.372242], [3.9106232, 47.3720422], [3.9107251, 47.3718968], [3.9106983, 47.3717697], [3.9105481, 47.3715771], [3.9104783, 47.3712138], [3.9105213, 47.3709849], [3.9107927, 47.3706971], [3.9112776, 47.370331], [3.9114654, 47.3701239], [3.9115405, 47.369935], [3.9115244, 47.3695935], [3.9113206, 47.3690739], [3.9113045, 47.3684854], [3.9113796, 47.3681257], [3.9115341, 47.3667242], [3.9115834, 47.3664761], [3.9120137, 47.3661421], [3.9122701, 47.365873], [3.9125329, 47.3658185], [3.9128011, 47.3658076], [3.9128709, 47.3657495], [3.9126617, 47.3655896], [3.9122271, 47.364783], [3.9118355, 47.3641725], [3.911547, 47.3637448], [3.9113254, 47.3629912], [3.9116789, 47.3610214], [3.9121773, 47.3607278], [3.9127577, 47.360206], [3.9132571, 47.3598739], [3.9135886, 47.3594614], [3.9136541, 47.3585839], [3.9134502, 47.3583077], [3.9134878, 47.3580316], [3.9137936, 47.357799], [3.913994, 47.3574224], [3.9141948, 47.3569878], [3.913814, 47.356346], [3.9134555, 47.356094], [3.9129234, 47.3558042], [3.9127545, 47.3554378], [3.9122609, 47.355153], [3.9120062, 47.3551548], [3.9118345, 47.3552703], [3.9117165, 47.3554429], [3.9115341, 47.35571], [3.911341, 47.3560306], [3.9110086, 47.3564512], [3.9107935, 47.3566765], [3.9107394, 47.3568055], [3.9105408, 47.3572828], [3.9101751, 47.3581559], [3.9098655, 47.3591071], [3.9098657, 47.3598471], [3.9100386, 47.3598933], [3.9101402, 47.36012], [3.9105292, 47.360275], [3.9107262, 47.3604785], [3.9110238, 47.3615969], [3.9108378, 47.3617199], [3.9106312, 47.3617533], [3.9104354, 47.3617417], [3.9102584, 47.361927], [3.9101887, 47.3621886], [3.9101994, 47.3623739], [3.9101618, 47.3625338], [3.9098775, 47.3628245], [3.9096844, 47.3631988], [3.9095503, 47.3636893], [3.9094484, 47.363791], [3.9088851, 47.3639473], [3.9084721, 47.3641616], [3.908295, 47.3644814], [3.9080107, 47.3647721], [3.9078981, 47.3648956], [3.9079088, 47.3650373], [3.9080644, 47.3652263], [3.9081019, 47.3653752], [3.9081609, 47.3656041], [3.9080365, 47.3663064], [3.9078498, 47.3664725], [3.9077479, 47.3665415], [3.9080697, 47.3667377], [3.9083862, 47.3668249], [3.9087939, 47.3671919], [3.909148, 47.367617], [3.9092231, 47.3678931], [3.9092338, 47.3682819], [3.9091855, 47.3688087], [3.9091158, 47.3690085], [3.9088207, 47.3693464], [3.9085793, 47.3697969], [3.9084399, 47.3702111], [3.9085042, 47.3703673], [3.9085311, 47.3704981], [3.9084667, 47.3707197], [3.9082575, 47.3708578], [3.9080322, 47.3710067], [3.9080536, 47.3711593], [3.9083326, 47.3712647], [3.9087295, 47.3712756], [3.9089817, 47.371272], [3.9091533, 47.3713591], [3.9093304, 47.3716062], [3.9094484, 47.3719295], [3.9093561, 47.3728017], [3.909001, 47.3736794], [3.9075135, 47.3737096], [3.9056619, 47.3733186], [3.9061814, 47.3745508], [3.9063497, 47.3749315], [3.9066546, 47.3753094], [3.9067264, 47.3756567], [3.9070666, 47.3760184], [3.9078653, 47.3764924], [3.9090502, 47.3767774], [3.9091931, 47.3771978], [3.9096497, 47.3779574], [3.9097788, 47.3782683], [3.9102941, 47.3785645], [3.9100663, 47.3787324], [3.9095865, 47.3787914], [3.909254, 47.3786446], [3.9087874, 47.3787687], [3.908193, 47.3789388], [3.907692, 47.3797778], [3.9077939, 47.380991], [3.907827, 47.3813841], [3.9081, 47.3821161], [3.908041, 47.3821809], [3.908041, 47.3823177], [3.9080876, 47.3824054], [3.908098, 47.3824423], [3.9080514, 47.3824843], [3.9080669, 47.3827913], [3.9082068, 47.3831088], [3.9082579, 47.3832477], [3.9084392, 47.3833531], [3.9084728, 47.3834738], [3.9085656, 47.3836371], [3.9085311, 47.3837077], [3.9085787, 47.3838324], [3.9085213, 47.3839299], [3.9084426, 47.3840475], [3.9083355, 47.3841652], [3.9082548, 47.3840307], [3.9080848, 47.3837051], [3.9076634, 47.3831855], [3.9072719, 47.3830711], [3.9069036, 47.3831038], [3.9064446, 47.3831024], [3.9061895, 47.3831575], [3.9060508, 47.3829493], [3.9059665, 47.3828963], [3.9056556, 47.3821477], [3.9048994, 47.3821481], [3.9050815, 47.3829372], [3.9055297, 47.3833183], [3.9058279, 47.3837035], [3.9059158, 47.3839106], [3.9061491, 47.3841722], [3.9061741, 47.3841987], [3.9064831, 47.3845274], [3.9067975, 47.385051], [3.9068208, 47.3853856], [3.9069808, 47.3856531], [3.907628, 47.3861551], [3.9078468, 47.3867912], [3.9079104, 47.3870402], [3.9079574, 47.3872052], [3.9081433, 47.3872358], [3.9082276, 47.3872651], [3.9085256, 47.3873774], [3.9088108, 47.3872774], [3.9089998, 47.387234], [3.9092598, 47.3872251], [3.9094659, 47.387285], [3.9095074, 47.3873874], [3.9097116, 47.3875786], [3.9102065, 47.3877489], [3.9104918, 47.3877869], [3.9110175, 47.3876979], [3.9113329, 47.3876748], [3.9119831, 47.3878069], [3.9121848, 47.3879215], [3.9123008, 47.3879776], [3.9124221, 47.3879574], [3.9126218, 47.3877572], [3.9124711, 47.387295], [3.9121756, 47.3869625], [3.9120117, 47.3864313], [3.9119575, 47.3861276], [3.9120131, 47.3860276], [3.9120348, 47.3858386], [3.9121636, 47.3853311], [3.9129564, 47.3847771], [3.9122777, 47.3845473], [3.9118704, 47.3841671], [3.9121265, 47.3832918], [3.9132091, 47.3826087], [3.9164984, 47.3826609], [3.917942, 47.3821033], [3.9193364, 47.3814679], [3.9197966, 47.381209], [3.9210122, 47.3809499], [3.9220797, 47.3805948], [3.9226999, 47.380812], [3.9235144, 47.3816832], [3.9238044, 47.3818921], [3.924548, 47.3822786], [3.926103, 47.3824666]]]}}, {"type": "Feature", "properties": {"name": "Étang des Blondeaux"}, "geometry": {"type": "Polygon", "coordinates": [[[2.9452586, 47.6679704], [2.9447758, 47.6677789], [2.9442018, 47.667107], [2.9442179, 47.6667277], [2.9442286, 47.6664134], [2.9440302, 47.6661533], [2.9439229, 47.6657522], [2.9441482, 47.6655716], [2.9446739, 47.6646034], [2.9448885, 47.6637508], [2.9452532, 47.6633172], [2.9455376, 47.6624935], [2.9451406, 47.6622261], [2.9448025, 47.6631113], [2.9434647, 47.6643685], [2.9408222, 47.6660665], [2.9391754, 47.6666482], [2.938301, 47.6665073], [2.9380006, 47.6666265], [2.9379469, 47.6684689], [2.9378718, 47.6690325], [2.9380006, 47.6692095], [2.9389179, 47.6692962], [2.9392612, 47.6691733], [2.9405165, 47.6694262], [2.9412675, 47.6695201], [2.9415089, 47.6693142], [2.9420721, 47.6690505], [2.9428768, 47.668729], [2.9436064, 47.6681727], [2.9438478, 47.6679993], [2.9444003, 47.6678512], [2.9452586, 47.6679704]]]}}, {"type": "Feature", "properties": {"name": "Étang des Barres"}, "geometry": {"type": "Polygon", "coordinates": [[[3.2003849, 47.6448205], [3.2008376, 47.6443362], [3.2014999, 47.6431602], [3.201745, 47.6428008], [3.2009322, 47.6420852], [3.2003253, 47.6411836], [3.1999941, 47.6402692], [3.2000531, 47.639143], [3.1990443, 47.6379344], [3.1987081, 47.637509], [3.1985533, 47.6372987], [3.1974634, 47.6368233], [3.1970735, 47.6372445], [3.1967936, 47.638191], [3.1967394, 47.6390054], [3.195947, 47.6396904], [3.1966039, 47.6400408], [3.197169, 47.6407225], [3.1976498, 47.6414453], [3.1981603, 47.6422533], [3.1981049, 47.6425074], [3.1979601, 47.6427059], [3.1977806, 47.6428482], [3.1974382, 47.6429632], [3.196601, 47.6429912], [3.1963186, 47.6430502], [3.1959453, 47.6430685], [3.1945009, 47.6430492], [3.1937952, 47.6432547], [3.193689, 47.6433188], [3.1937041, 47.6434487], [3.1938332, 47.643562], [3.1942021, 47.6435438], [3.1950002, 47.643562], [3.1961021, 47.6437844], [3.1971304, 47.6439662], [3.1981027, 47.6442235], [3.1989923, 47.6443056], [3.199432, 47.6444617], [3.1995888, 47.6446023], [3.1999673, 47.6448128], [3.2001107, 47.6448742], [3.2003849, 47.6448205]]]}}, {"type": "Feature", "properties": {"name": "Étang de Moutiers"}, "geometry": {"type": "Polygon", "coordinates": [[[3.1651305, 47.6191025], [3.1647622, 47.6195043], [3.1643641, 47.6196722], [3.1635744, 47.6196988], [3.1626426, 47.619585], [3.1619393, 47.6195546], [3.1615305, 47.6195919], [3.1610111, 47.6195804], [3.1597955, 47.6196435], [3.1592079, 47.6195574], [3.1586035, 47.6193858], [3.1564933, 47.6197011], [3.1558835, 47.6200771], [3.1558201, 47.6201162], [3.1550225, 47.6202662], [3.1545369, 47.6203314], [3.1541687, 47.6203805], [3.15384, 47.6202811], [3.1532549, 47.6203512], [3.1529678, 47.6204701], [3.152911, 47.6205466], [3.1526295, 47.6205818], [3.1524044, 47.6206875], [3.1522967, 47.6214054], [3.1522922, 47.6217489], [3.1522178, 47.6225902], [3.1527041, 47.6228684], [3.1529775, 47.6228411], [3.1535447, 47.622675], [3.154311, 47.6226341], [3.1546283, 47.6226545], [3.1548916, 47.6225772], [3.1552191, 47.6225954], [3.1554588, 47.622584], [3.1557626, 47.6222791], [3.1562892, 47.6220607], [3.1569712, 47.621667], [3.1574775, 47.6215009], [3.1579434, 47.621485], [3.1587131, 47.6216079], [3.159628, 47.6216739], [3.1606036, 47.621576], [3.1609614, 47.6216329], [3.1613294, 47.621683], [3.1616906, 47.6215874], [3.1619269, 47.6212848], [3.1622105, 47.6210686], [3.1625346, 47.6209935], [3.162987, 47.6210367], [3.1638517, 47.6211353], [3.1647762, 47.6213143], [3.1654243, 47.6213462], [3.1660387, 47.6213143], [3.1665789, 47.6213985], [3.1669131, 47.6214076], [3.167038, 47.6212097], [3.1670481, 47.6208547], [3.1667544, 47.6205043], [3.1666531, 47.6199582], [3.1665856, 47.6195713], [3.1668097, 47.6190012], [3.1668023, 47.6183287], [3.1667859, 47.6173938], [3.1668315, 47.617056], [3.1657885, 47.6175802], [3.1654931, 47.6185168], [3.1653765, 47.6188008], [3.1651305, 47.6191025]]]}}, {"type": "Feature", "properties": {"name": "Étang du Haut"}, "geometry": {"type": "Polygon", "coordinates": [[[3.9496798, 47.4362235], [3.9510152, 47.4359002], [3.9512126, 47.4351248], [3.9523126, 47.434526], [3.9536328, 47.4333389], [3.9533901, 47.431743], [3.9530835, 47.4301355], [3.9536701, 47.4289378], [3.9541438, 47.4282201], [3.9535853, 47.4278077], [3.953533, 47.4274724], [3.9527908, 47.4268723], [3.9528192, 47.4274201], [3.9526402, 47.4273124], [3.9524524, 47.4273947], [3.9525049, 47.4275803], [3.9528871, 47.4279792], [3.952786, 47.4284435], [3.9521471, 47.4290496], [3.9517735, 47.4293016], [3.9522091, 47.4302009], [3.9519301, 47.4306499], [3.9511386, 47.430702], [3.9507728, 47.4310535], [3.9497578, 47.4311447], [3.9487868, 47.4308942], [3.9484226, 47.4312581], [3.9487855, 47.431486], [3.9492109, 47.4319202], [3.9495545, 47.432406], [3.9486962, 47.4331533], [3.9477735, 47.4336726], [3.9467696, 47.4338105], [3.9464815, 47.4339912], [3.9467223, 47.4342468], [3.9472861, 47.4344587], [3.948256, 47.434898], [3.9490299, 47.4356899], [3.9496798, 47.4362235]]]}}, {"type": "Feature", "properties": {"name": "Étang de Galetas"}, "geometry": {"type": "Polygon", "coordinates": [[[3.0414259, 48.1083611], [3.0418021, 48.1081597], [3.0419054, 48.107776], [3.0416781, 48.1074559], [3.0414177, 48.1072757], [3.0407251, 48.1069107], [3.0402575, 48.1068893], [3.0389364, 48.1072132], [3.0388809, 48.1070864], [3.0404211, 48.106657], [3.040237, 48.1060579], [3.0398863, 48.1061457], [3.0397314, 48.1062882], [3.0395268, 48.1061223], [3.0386792, 48.1057339], [3.038273, 48.1053241], [3.0382672, 48.1050918], [3.0387319, 48.1047815], [3.0392696, 48.1043541], [3.039373, 48.1042154], [3.0395853, 48.1039306], [3.0398424, 48.1032631], [3.0397577, 48.1027576], [3.0396057, 48.1023946], [3.0388429, 48.1021507], [3.0382993, 48.1023868], [3.0376885, 48.1020706], [3.0372852, 48.1021097], [3.0368701, 48.1023107], [3.0364318, 48.1022268], [3.0359641, 48.1024571], [3.0357069, 48.102664], [3.0358034, 48.1032085], [3.0356193, 48.1034115], [3.0351546, 48.103673], [3.0346577, 48.1037179], [3.0342515, 48.1037881], [3.0342778, 48.1041765], [3.0345437, 48.1043971], [3.0350757, 48.104803], [3.0354614, 48.1051016], [3.0357332, 48.1052109], [3.0358092, 48.1054802], [3.0356339, 48.1058842], [3.0355813, 48.1062238], [3.0360898, 48.1063838], [3.036347, 48.106579], [3.0367649, 48.1070415], [3.0374401, 48.1073654], [3.0381181, 48.1073049], [3.0384776, 48.1071956], [3.0387026, 48.1071664], [3.0387698, 48.1072659], [3.0386559, 48.1073088], [3.038273, 48.1073928], [3.037481, 48.1075489], [3.0372384, 48.1077226], [3.0369724, 48.1078455], [3.0366802, 48.1080992], [3.0366773, 48.1083431], [3.0368731, 48.1085188], [3.0372968, 48.1087003], [3.0374839, 48.1088915], [3.0372589, 48.1089637], [3.0371478, 48.1091959], [3.0372589, 48.1094887], [3.0371215, 48.1097931], [3.0369783, 48.1101463], [3.036572, 48.1103571], [3.0356982, 48.1105561], [3.0353504, 48.1106654], [3.0352159, 48.1107747], [3.0351107, 48.1110635], [3.0352949, 48.1113464], [3.0351487, 48.1115669], [3.0348155, 48.1118343], [3.0343918, 48.1118928], [3.0340352, 48.1120899], [3.0336874, 48.112004], [3.0334908, 48.1119974], [3.0328778, 48.1120645], [3.0325365, 48.1126679], [3.0324137, 48.1126914], [3.0323699, 48.1128104], [3.0324283, 48.1129548], [3.0321297, 48.1136119], [3.0322431, 48.1137123], [3.0325534, 48.1138539], [3.0328691, 48.1141524], [3.0330152, 48.1141895], [3.0332636, 48.1141427], [3.0333484, 48.1142344], [3.0333659, 48.1145232], [3.033816, 48.1150266], [3.0344181, 48.1155398], [3.0350704, 48.1160381], [3.0352749, 48.116138], [3.036117, 48.1165349], [3.0367926, 48.1166372], [3.0375862, 48.1166593], [3.0385782, 48.11672], [3.0395329, 48.1168635], [3.0408762, 48.1169794], [3.0411862, 48.1164303], [3.0409423, 48.1158066], [3.0402521, 48.1153375], [3.0402108, 48.1149402], [3.0404216, 48.1145373], [3.0403182, 48.1140268], [3.040186, 48.113726], [3.0404836, 48.113072], [3.0410622, 48.1118936], [3.040744, 48.1117749], [3.0408184, 48.1116038], [3.0412069, 48.1116949], [3.0414135, 48.1113499], [3.0416078, 48.1112644], [3.0416698, 48.1108974], [3.0416202, 48.1106655], [3.0412151, 48.1105607], [3.0415635, 48.109603], [3.0409258, 48.1091587], [3.040868, 48.1088496], [3.0414259, 48.1083611]]]}}, {"type": "Feature", "properties": {"name": "Lac du Bourdon"}, "geometry": {"type": "Polygon", "coordinates": [[[3.1145086, 47.6056857], [3.1151202, 47.6047941], [3.1151524, 47.6046531], [3.1151636, 47.6045319], [3.1151176, 47.6044445], [3.1148521, 47.6043921], [3.1145934, 47.6042434], [3.1142758, 47.6039442], [3.1140905, 47.6037381], [3.1138253, 47.6033134], [3.1136195, 47.6031099], [3.1134631, 47.6028227], [3.1133916, 47.6025837], [3.1133829, 47.6023952], [3.1134492, 47.6021766], [3.1136096, 47.6021043], [3.1137668, 47.6020487], [3.1137925, 47.6019276], [3.1135511, 47.601895], [3.1134278, 47.6018661], [3.1134063, 47.6017757], [3.1134707, 47.6016816], [3.1135511, 47.6016093], [3.1135672, 47.6014899], [3.1139019, 47.6008907], [3.1137975, 47.6007293], [3.1136156, 47.6007714], [3.1134196, 47.600884], [3.1131564, 47.6010745], [3.1128361, 47.6014283], [3.1125589, 47.6016553], [3.1124101, 47.6016673], [3.11229, 47.6016537], [3.1120964, 47.6015132], [3.111818, 47.6013005], [3.1114725, 47.6009718], [3.1112469, 47.6010341], [3.1113382, 47.6012194], [3.1113635, 47.6014082], [3.1114321, 47.6016188], [3.1114877, 47.601836], [3.1117618, 47.6019889], [3.1118539, 47.6021543], [3.1118542, 47.6022606], [3.1116907, 47.6024447], [3.1114844, 47.6025716], [3.1116365, 47.6028623], [3.1114496, 47.6031407], [3.111161, 47.6034149], [3.110628, 47.6036315], [3.1102753, 47.6037299], [3.109776, 47.6035682], [3.1090683, 47.6035249], [3.1088107, 47.6035133], [3.1083262, 47.6034148], [3.1078513, 47.6034591], [3.1073397, 47.6032287], [3.1068438, 47.603186], [3.1064972, 47.6032175], [3.1060115, 47.6031582], [3.1054888, 47.6031188], [3.1050316, 47.60316], [3.1044185, 47.6033089], [3.1044702, 47.6035956], [3.1044448, 47.6038275], [3.1044694, 47.6040131], [3.1044292, 47.6041846], [3.1042988, 47.6043605], [3.1041177, 47.6044296], [3.1039677, 47.6045063], [3.1038123, 47.6045512], [3.1036276, 47.6046425], [3.1031388, 47.6045318], [3.1029671, 47.6044595], [3.1027257, 47.6044089], [3.1025809, 47.6043329], [3.1023547, 47.6042638], [3.1018889, 47.6040074], [3.1016099, 47.6037759], [3.1015295, 47.6036602], [3.1014919, 47.6035661], [3.1014651, 47.6034395], [3.1014544, 47.6033527], [3.1012879, 47.6032261], [3.1009662, 47.6029476], [3.1007516, 47.6026727], [3.1006443, 47.6024304], [3.1004995, 47.6022025], [3.1002313, 47.6021084], [3.1000439, 47.6019264], [3.099829, 47.6016563], [3.0996144, 47.6014465], [3.0993515, 47.601262], [3.0988991, 47.6014004], [3.0986581, 47.6015216], [3.0987024, 47.601584], [3.0988365, 47.6015333], [3.0989492, 47.6015767], [3.0990672, 47.6016455], [3.0991906, 47.6018408], [3.0990994, 47.6018516], [3.0989921, 47.6018408], [3.0989814, 47.6018769], [3.0991423, 47.6019493], [3.0992361, 47.6021097], [3.0993462, 47.6025027], [3.0993515, 47.6027993], [3.0995876, 47.6031863], [3.0996738, 47.6035505], [3.0998182, 47.604105], [3.0999792, 47.6043727], [3.1001186, 47.6048357], [3.1002742, 47.6050274], [3.1002919, 47.6054334], [3.1001991, 47.6056892], [3.1001748, 47.6059474], [3.1001758, 47.6061468], [3.1001347, 47.6062499], [3.0999577, 47.6063511], [3.0996197, 47.6064054], [3.0993462, 47.6063475], [3.0988841, 47.6063035], [3.0984771, 47.6061775], [3.0981821, 47.6060545], [3.0979497, 47.6058966], [3.0977958, 47.6058375], [3.0974954, 47.6060871], [3.0971843, 47.6063258], [3.0969619, 47.6063969], [3.0967927, 47.6063547], [3.0966157, 47.6062499], [3.0963099, 47.6062535], [3.0959344, 47.6063547], [3.095228, 47.6064664], [3.0948883, 47.6063511], [3.0946898, 47.6062245], [3.0940668, 47.6059257], [3.0939764, 47.6058592], [3.0935896, 47.6057763], [3.093279, 47.6058701], [3.0930966, 47.605899], [3.0930215, 47.6059533], [3.0928659, 47.6058484], [3.0928284, 47.6059243], [3.0929089, 47.6061847], [3.0926889, 47.6065211], [3.092646, 47.6066658], [3.0926138, 47.6067019], [3.092367, 47.6068213], [3.0921425, 47.6071031], [3.0918521, 47.6075193], [3.0911265, 47.6080639], [3.0908757, 47.6081776], [3.090747, 47.6083078], [3.0904466, 47.6084199], [3.090055, 47.6085103], [3.0897653, 47.6085392], [3.0893952, 47.6087867], [3.0894381, 47.6089913], [3.0896044, 47.6091758], [3.0898565, 47.6092987], [3.089878, 47.6094615], [3.0898805, 47.6095997], [3.0901296, 47.6098467], [3.0902196, 47.6100455], [3.0902052, 47.6103945], [3.0900646, 47.6106675], [3.0900013, 47.6108141], [3.0899048, 47.6108538], [3.0896097, 47.6108575], [3.089599, 47.6109081], [3.0898994, 47.6109443], [3.0896687, 47.6112336], [3.0892879, 47.6115157], [3.0888868, 47.6117886], [3.0883944, 47.6121231], [3.0880478, 47.6124493], [3.0876785, 47.6129152], [3.0874801, 47.6132588], [3.087346, 47.6133781], [3.0873299, 47.6135083], [3.0872088, 47.6136575], [3.0869651, 47.6137976], [3.0869114, 47.6139061], [3.0866271, 47.6142677], [3.0866271, 47.6143364], [3.0864516, 47.614471], [3.0863321, 47.6147197], [3.0860692, 47.615132], [3.0861336, 47.6153779], [3.0861014, 47.6155261], [3.0860927, 47.6157365], [3.08637, 47.6162059], [3.0862784, 47.6162992], [3.0864522, 47.6165168], [3.0865104, 47.616577], [3.0865854, 47.6165803], [3.0866475, 47.616609], [3.0866565, 47.6166347], [3.0866498, 47.6166801], [3.0866221, 47.6167037], [3.086546, 47.6167305], [3.0866102, 47.6170247], [3.0870264, 47.6170368], [3.087244, 47.6170499], [3.0896654, 47.6171959], [3.0901905, 47.6172114], [3.0902506, 47.6169834], [3.09035, 47.6167556], [3.0904198, 47.6166688], [3.0905217, 47.6166074], [3.0906612, 47.6164916], [3.0906719, 47.6163687], [3.09057, 47.6162602], [3.0904949, 47.6161843], [3.0905807, 47.6159456], [3.0906182, 47.615678], [3.0906075, 47.6154466], [3.0907202, 47.6151935], [3.0907691, 47.6149579], [3.0910152, 47.6144955], [3.0912184, 47.6140109], [3.0912995, 47.6138916], [3.0913612, 47.6138518], [3.0914068, 47.6137867], [3.0915463, 47.613794], [3.0916536, 47.6137289], [3.091734, 47.6136023], [3.0920345, 47.6133528], [3.0922973, 47.6130562], [3.092823, 47.6125933], [3.0928606, 47.6125246], [3.0930161, 47.6123944], [3.0932254, 47.6121304], [3.0934219, 47.611682], [3.0936652, 47.6114035], [3.0939174, 47.6111251], [3.0938691, 47.6110781], [3.09403, 47.610767], [3.0942929, 47.6103548], [3.0943894, 47.6100618], [3.0947435, 47.6097942], [3.0951244, 47.6095049], [3.0955106, 47.6092192], [3.0957413, 47.6089118], [3.0960136, 47.6087588], [3.0964082, 47.6085301], [3.0967927, 47.6084307], [3.0971682, 47.6083765], [3.0975866, 47.6083801], [3.0976671, 47.6084705], [3.0978817, 47.6085356], [3.0981338, 47.6085356], [3.0983162, 47.6084995], [3.0984074, 47.6084127], [3.0989867, 47.6084271], [3.099255, 47.6084958], [3.0996895, 47.608485], [3.1004673, 47.6084416], [3.1008267, 47.6084127], [3.101331, 47.608362], [3.1014758, 47.6084127], [3.1020188, 47.6084121], [3.1024682, 47.6084235], [3.102715, 47.6083873], [3.1029135, 47.6083331], [3.1030208, 47.6082101], [3.1036591, 47.6079859], [3.1041741, 47.6079642], [3.1044906, 47.6078846], [3.1047374, 47.6077906], [3.1049155, 47.6077859], [3.1048822, 47.6077183], [3.1050217, 47.6075519], [3.1051823, 47.6073437], [3.1055528, 47.6070238], [3.1060839, 47.606749], [3.1063735, 47.6066405], [3.106631, 47.6066043], [3.1067651, 47.6066296], [3.1068981, 47.6066875], [3.1070441, 47.6067671], [3.1074893, 47.6068032], [3.1077897, 47.6068068], [3.1084281, 47.6067128], [3.1089699, 47.606579], [3.1094159, 47.6064612], [3.1096512, 47.6063547], [3.1098443, 47.6062499], [3.1100535, 47.6061739], [3.1103325, 47.6061196], [3.1105632, 47.6061233], [3.110885, 47.6061992], [3.1112069, 47.6063005], [3.1114644, 47.6064018], [3.1116199, 47.6064307], [3.1118506, 47.6064162], [3.1120223, 47.6064813], [3.112343, 47.6065231], [3.1126445, 47.606532], [3.1128602, 47.6066248], [3.1130866, 47.606627], [3.1134173, 47.6066421], [3.1136374, 47.6066676], [3.1137877, 47.6067208], [3.1140726, 47.6062699], [3.1143105, 47.6059608], [3.1144697, 47.6060212], [3.1144394, 47.6060746], [3.1144364, 47.6060802], [3.1138381, 47.6069859], [3.1137735, 47.6071606], [3.1138472, 47.6071451], [3.1139707, 47.6072088], [3.1141528, 47.6073134], [3.1143111, 47.6074076], [3.1144864, 47.6074966], [3.1145837, 47.607567], [3.1147648, 47.6076819], [3.1148884, 47.6078237], [3.1150175, 47.6078867], [3.1151523, 47.6079841], [3.1153835, 47.6080639], [3.1156908, 47.6080702], [3.1161664, 47.6080655], [3.1165066, 47.6080586], [3.1167247, 47.6081214], [3.1169675, 47.6081677], [3.1171874, 47.6082324], [3.1175131, 47.6082518], [3.1177856, 47.6082653], [3.1178763, 47.6082244], [3.11827, 47.6082494], [3.1187763, 47.6083101], [3.1190834, 47.6083241], [3.1195318, 47.6083188], [3.1199042, 47.6082805], [3.1201015, 47.6081953], [3.1202003, 47.6080618], [3.120337, 47.6078858], [3.120375, 47.6077861], [3.1203683, 47.607682], [3.1203183, 47.6069027], [3.1201654, 47.6068918], [3.1198597, 47.6068828], [3.1195673, 47.6068321], [3.1194911, 47.6067686], [3.1194396, 47.6066048], [3.1192592, 47.6065709], [3.1192462, 47.606342], [3.1195222, 47.6063174], [3.1194738, 47.6061128], [3.1194097, 47.6059322], [3.119313, 47.6057058], [3.1191918, 47.6053783], [3.1191858, 47.6052338], [3.1191328, 47.6049352], [3.1190818, 47.6047869], [3.1190259, 47.6046559], [3.1190389, 47.6043077], [3.1190443, 47.6040617], [3.1191274, 47.6038772], [3.1192293, 47.6037724], [3.1192749, 47.603691], [3.1193393, 47.6035083], [3.1194546, 47.6033673], [3.1194922, 47.6033275], [3.119511, 47.603266], [3.1195432, 47.6032407], [3.1195271, 47.6032027], [3.1194704, 47.603126], [3.1194654, 47.6029151], [3.1195378, 47.6026728], [3.1196156, 47.60234], [3.119688, 47.6021881], [3.1197229, 47.6021121], [3.1197309, 47.601906], [3.1198329, 47.6017136], [3.119916, 47.6015225], [3.119916, 47.6014394], [3.1198865, 47.6014086], [3.1199213, 47.6011102], [3.1199321, 47.6007738], [3.1199509, 47.6005477], [3.1200179, 47.6004555], [3.1199857, 47.6003614], [3.1199535, 47.6001426], [3.1199482, 47.6000033], [3.1199133, 47.5998894], [3.1198757, 47.5998008], [3.1198597, 47.5997194], [3.1199348, 47.5995711], [3.1199267, 47.5994915], [3.1199669, 47.5993721], [3.1200634, 47.5991471], [3.1201011, 47.5990809], [3.1204176, 47.5984804], [3.1204846, 47.5982272], [3.1203934, 47.5980011], [3.1202647, 47.5979143], [3.1201976, 47.5978347], [3.120144, 47.5977913], [3.1201171, 47.5977063], [3.1201708, 47.5975942], [3.1202191, 47.5974151], [3.1202405, 47.5973591], [3.1202754, 47.5973301], [3.1202915, 47.5973012], [3.1203559, 47.5973066], [3.1203881, 47.5973084], [3.1204122, 47.5973012], [3.1204229, 47.5972903], [3.1204283, 47.5972505], [3.1204129, 47.5972296], [3.1203934, 47.5972144], [3.1203693, 47.5972089], [3.1203049, 47.5972216], [3.1202486, 47.5972578], [3.120168, 47.597362], [3.1201011, 47.5974513], [3.1200394, 47.5974531], [3.1200018, 47.5973934], [3.1199991, 47.5972813], [3.1199643, 47.5972288], [3.1198542, 47.5971558], [3.119771, 47.5971431], [3.1196342, 47.5972046], [3.1195538, 47.5974162], [3.1194518, 47.5976405], [3.1193177, 47.5977906], [3.1192024, 47.5980276], [3.1191702, 47.5981505], [3.1191917, 47.5982265], [3.119189, 47.5982862], [3.1190414, 47.5984472], [3.118961, 47.5985973], [3.1189583, 47.5986733], [3.1190227, 47.5987619], [3.1190549, 47.5988035], [3.1190522, 47.598836], [3.1190012, 47.5988867], [3.1189395, 47.598959], [3.1189556, 47.599073], [3.1189422, 47.5991815], [3.1189181, 47.5992086], [3.1189154, 47.5992701], [3.1189351, 47.599431], [3.1189047, 47.5995342], [3.1189556, 47.5996933], [3.1189423, 47.5997863], [3.1189182, 47.5998568], [3.1188754, 47.599939], [3.1188418, 47.6002251], [3.1187786, 47.6004765], [3.1187704, 47.6005796], [3.1187813, 47.6007062], [3.1187787, 47.6007702], [3.118741, 47.6008418], [3.1185426, 47.6009847], [3.1181858, 47.6012017], [3.1178363, 47.6012669], [3.1176164, 47.6015141], [3.1174269, 47.6018158], [3.1171447, 47.6020974], [3.1168063, 47.6021666], [3.1164329, 47.6022394], [3.1158561, 47.6022067], [3.1158494, 47.6022879], [3.1168029, 47.6024806], [3.1169412, 47.6027226], [3.1168634, 47.6031501], [3.1169079, 47.6033261], [3.1169636, 47.6035912], [3.1169803, 47.6037553], [3.1168274, 47.603974], [3.1167407, 47.6043412], [3.1167924, 47.6044703], [3.1167485, 47.6046264], [3.1164955, 47.60487], [3.1163699, 47.6048868], [3.1162023, 47.6048168], [3.1161606, 47.6047698], [3.1160913, 47.6047093], [3.1159353, 47.6046125], [3.1156709, 47.6045166], [3.1155265, 47.6044716], [3.1153452, 47.6044729], [3.115304, 47.6047269], [3.1149619, 47.605268], [3.1146427, 47.6057182], [3.1145086, 47.6056857]]]}}]}