{"type": "FeatureCollection", "features": [{"type": "Feature", "properties": {"name": "Étang de Saclay"}, "geometry": {"type": "Polygon", "coordinates": [[[2.1656978, 48.7430104], [2.1660327, 48.7430134], [2.1663103, 48.7430398], [2.166675, 48.7430416], [2.1668923, 48.7430239], [2.1670693, 48.7429868], [2.1673402, 48.7429762], [2.1673966, 48.7429899], [2.1673241, 48.7430646], [2.1675333, 48.7431371], [2.1675464, 48.7431403], [2.1677479, 48.7431902], [2.1679465, 48.7432255], [2.1680041, 48.7432052], [2.1679947, 48.7431601], [2.1680192, 48.7431434], [2.1680309, 48.7431354], [2.1680564, 48.7431513], [2.1680966, 48.7431106], [2.1681797, 48.7431398], [2.1683326, 48.7431583], [2.1685445, 48.7431495], [2.1687886, 48.7431212], [2.1688382, 48.7430849], [2.1688677, 48.7431035], [2.1689147, 48.7430628], [2.1689522, 48.7430699], [2.1690086, 48.7430292], [2.1691024, 48.7429974], [2.1693116, 48.7429868], [2.1694501, 48.7430097], [2.1695222, 48.7430956], [2.1698039, 48.743342], [2.1698856, 48.7433441], [2.1698946, 48.7433401], [2.1699607, 48.7433105], [2.17006, 48.7432521], [2.1701163, 48.743207], [2.1701123, 48.7431026], [2.1701565, 48.7431053], [2.1701995, 48.7431256], [2.1702665, 48.7430628], [2.1703278, 48.7430621], [2.1703376, 48.743062], [2.1704113, 48.7430788], [2.1704435, 48.7430982], [2.1704569, 48.7430832], [2.1704878, 48.7430858], [2.1704878, 48.7430655], [2.1705257, 48.7430375], [2.170532, 48.7430328], [2.1705964, 48.7430805], [2.1706299, 48.743062], [2.1706916, 48.7430726], [2.1707976, 48.7431283], [2.1708553, 48.7431362], [2.1709907, 48.7431168], [2.1711114, 48.7430717], [2.1711972, 48.7430009], [2.1710645, 48.7428842], [2.1711168, 48.7428347], [2.1711624, 48.7428179], [2.1711516, 48.742786], [2.1712267, 48.7427931], [2.1712562, 48.7428232], [2.1712925, 48.7428011], [2.1713367, 48.7427904], [2.1713997, 48.7427878], [2.1714319, 48.7428267], [2.1714963, 48.7428302], [2.1714913, 48.7428113], [2.1714896, 48.7428046], [2.1715206, 48.7427868], [2.1715701, 48.7428196], [2.1716049, 48.7428656], [2.1716841, 48.7428957], [2.1717525, 48.742962], [2.1718986, 48.7430451], [2.1718946, 48.7430991], [2.1719643, 48.7431203], [2.171959, 48.74313], [2.1719094, 48.7431309], [2.172116, 48.7432615], [2.1725344, 48.7431423], [2.1725103, 48.7428218], [2.172545, 48.7428187], [2.172592, 48.7428338], [2.1726175, 48.7428143], [2.172588, 48.7427621], [2.1725947, 48.7427294], [2.1726456, 48.7427047], [2.1726859, 48.7427338], [2.1726912, 48.7427515], [2.1727073, 48.7427515], [2.1726993, 48.7426834], [2.1727341, 48.7426604], [2.1727931, 48.7426657], [2.1728213, 48.7426896], [2.1728227, 48.7427082], [2.1728092, 48.7427197], [2.1728481, 48.7427374], [2.1729568, 48.7426879], [2.1730587, 48.7426737], [2.1731244, 48.7426419], [2.1731512, 48.7425994], [2.1730962, 48.7425198], [2.173178, 48.7424694], [2.1732679, 48.7425278], [2.173351, 48.7425517], [2.1734999, 48.7424508], [2.1735138, 48.7424532], [2.1736515, 48.7424765], [2.1737815, 48.7424668], [2.1740699, 48.7423491], [2.1741986, 48.7422775], [2.1744253, 48.7421961], [2.174723, 48.7421422], [2.1750207, 48.7420529], [2.1751803, 48.7419733], [2.1753587, 48.7419193], [2.1754968, 48.7418539], [2.1759367, 48.7417672], [2.1759903, 48.7417769], [2.1759997, 48.7418008], [2.1760882, 48.7417424], [2.1761633, 48.7417354], [2.1762277, 48.7417522], [2.1762854, 48.7417389], [2.1763672, 48.7416947], [2.1764625, 48.7416633], [2.1765201, 48.7416761], [2.1765952, 48.7417195], [2.1766716, 48.7417893], [2.176787, 48.7418477], [2.1769236, 48.7419828], [2.1769262, 48.7418368], [2.1769372, 48.7417769], [2.1769479, 48.741662], [2.1769211, 48.7415134], [2.1769184, 48.7414161], [2.1768942, 48.7412711], [2.1769331, 48.7412145], [2.1770043, 48.7411744], [2.1770215, 48.7411647], [2.1762722, 48.7394751], [2.1760118, 48.7393625], [2.1756081, 48.7391228], [2.1756041, 48.7390724], [2.1755558, 48.7390494], [2.1753801, 48.7389539], [2.175329, 48.7389687], [2.1752011, 48.7388225], [2.1751434, 48.7388075], [2.1751441, 48.7387571], [2.1750764, 48.7386832], [2.1750442, 48.7385833], [2.1748676, 48.7385525], [2.1747465, 48.7384944], [2.1745748, 48.7384767], [2.1745453, 48.73844], [2.174485, 48.7384475], [2.1743555, 48.7383387], [2.1742952, 48.738329], [2.1741917, 48.7382775], [2.1741664, 48.7382344], [2.1741886, 48.7381773], [2.1741376, 48.7381097], [2.1741242, 48.7380544], [2.1741477, 48.7379894], [2.1742865, 48.7379053], [2.1742952, 48.7378266], [2.1742657, 48.7377727], [2.1742342, 48.7377638], [2.1742281, 48.7377395], [2.1741812, 48.7376869], [2.1741108, 48.7376895], [2.1740826, 48.7376431], [2.174035, 48.737625], [2.1740203, 48.7376807], [2.1739452, 48.737701], [2.1738479, 48.7376842], [2.1738124, 48.7377598], [2.1737715, 48.7377811], [2.1737634, 48.7378111], [2.1737722, 48.7378589], [2.1739237, 48.7379743], [2.1739157, 48.7380398], [2.1739807, 48.7380814], [2.1739914, 48.7381331], [2.1739418, 48.7381773], [2.1738693, 48.7382041], [2.1737728, 48.7382003], [2.1737695, 48.738138], [2.1737339, 48.738149], [2.1736266, 48.7381508], [2.1735469, 48.7381654], [2.1734682, 48.7381978], [2.1733645, 48.7381804], [2.1733021, 48.7381499], [2.1732853, 48.7381043], [2.1732632, 48.7380867], [2.1732391, 48.7381273], [2.1729896, 48.7382569], [2.1727978, 48.7382874], [2.1726845, 48.7383104], [2.1725169, 48.7383958], [2.1723778, 48.7384431], [2.1723264, 48.7385656], [2.1722648, 48.7386691], [2.1722413, 48.7387934], [2.1720904, 48.7388522], [2.1720287, 48.7389119], [2.1720716, 48.7389211], [2.1720502, 48.7389521], [2.1719067, 48.7389468], [2.1718364, 48.7389735], [2.1717625, 48.7390432], [2.1717223, 48.739114], [2.1717115, 48.7391997], [2.1717551, 48.7394633], [2.1718007, 48.7394987], [2.1718249, 48.7395571], [2.1718969, 48.7395934], [2.1717015, 48.7397729], [2.1715794, 48.7399245], [2.1715593, 48.7399281], [2.1715271, 48.7400714], [2.1714876, 48.7400775], [2.1714879, 48.74016], [2.1714071, 48.7402084], [2.1713662, 48.7402434], [2.1712971, 48.7402235], [2.1712536, 48.7402558], [2.1712509, 48.7404008], [2.1711818, 48.7405136], [2.1711919, 48.7406219], [2.1711526, 48.7406769], [2.171041, 48.7407046], [2.1708908, 48.7407121], [2.1706983, 48.7407325], [2.1704751, 48.7407289], [2.1703329, 48.7407121], [2.1702571, 48.7406896], [2.1702088, 48.7406874], [2.1701525, 48.740648], [2.1701337, 48.7405971], [2.1700573, 48.7406228], [2.1699735, 48.7405835], [2.1698581, 48.7405206], [2.1698427, 48.7405423], [2.1697676, 48.7405702], [2.1697059, 48.7405114], [2.1696268, 48.7405105], [2.1695732, 48.740491], [2.1694592, 48.7405237], [2.1693948, 48.740499], [2.1692742, 48.7405023], [2.1690917, 48.740552], [2.169022, 48.7405467], [2.1689053, 48.7405706], [2.1688047, 48.7405733], [2.1688195, 48.7406104], [2.168798, 48.7406201], [2.1687678, 48.7405963], [2.1687242, 48.7406069], [2.1686679, 48.7405945], [2.1686022, 48.7405918], [2.1685633, 48.7405741], [2.1684989, 48.7406537], [2.1684131, 48.7406582], [2.168401, 48.7407059], [2.1683501, 48.7407369], [2.1682937, 48.7407307], [2.1682575, 48.7407563], [2.1681337, 48.7407793], [2.168102, 48.7408032], [2.1680309, 48.740828], [2.168, 48.7408492], [2.1678954, 48.7408589], [2.1676876, 48.7408589], [2.1676272, 48.7408669], [2.1674475, 48.7409164], [2.167237, 48.7409421], [2.1671069, 48.7409695], [2.1670452, 48.7409483], [2.1669168, 48.740973], [2.1669178, 48.7409491], [2.1668212, 48.7409138], [2.1667153, 48.7409058], [2.1666361, 48.7409253], [2.1665972, 48.7408952], [2.1665087, 48.7408687], [2.1663183, 48.7408474], [2.166215, 48.740889], [2.1659763, 48.7409235], [2.1656719, 48.7410597], [2.1656947, 48.7411172], [2.1656437, 48.741134], [2.1655579, 48.7411296], [2.1653232, 48.7413123], [2.165154, 48.7412768], [2.1650255, 48.7414621], [2.1650308, 48.7414922], [2.1649477, 48.7415081], [2.1649772, 48.741547], [2.1649826, 48.7416514], [2.1649504, 48.7416973], [2.1648631, 48.7416944], [2.1648914, 48.7419052], [2.1649168, 48.7421431], [2.1649806, 48.7421401], [2.1649852, 48.7422191], [2.1649249, 48.7422218], [2.1649879, 48.7426313], [2.1650872, 48.7428806], [2.1652025, 48.7429532], [2.1656978, 48.7430104]]]}}, {"type": "Feature", "properties": {"name": "Étang Vieux"}, "geometry": {"type": "Polygon", "coordinates": [[[2.1648166, 48.7438327], [2.1646808, 48.742228], [2.1645675, 48.7422315], [2.1645668, 48.7421616], [2.1646734, 48.7421559], [2.1646399, 48.7419048], [2.1644585, 48.7404244], [2.1642871, 48.7403721], [2.1642034, 48.7404207], [2.1640116, 48.7405675], [2.163816, 48.7407026], [2.1637583, 48.7407077], [2.1636656, 48.7406148], [2.1635087, 48.7405547], [2.1633866, 48.7405512], [2.1632002, 48.7405273], [2.1631251, 48.7404963], [2.1629629, 48.7404848], [2.1628878, 48.7404477], [2.1627711, 48.7404636], [2.1626973, 48.7404282], [2.1626088, 48.7404326], [2.162421, 48.7403398], [2.1623594, 48.7403477], [2.1621045, 48.7403539], [2.1619034, 48.7403362], [2.1614085, 48.7402328], [2.161324, 48.7402513], [2.1612154, 48.7402416], [2.1611658, 48.740193], [2.1609563, 48.7402267], [2.1609271, 48.7402106], [2.1609362, 48.7401203], [2.1608922, 48.7401204], [2.1607769, 48.740193], [2.1606655, 48.7402487], [2.1605636, 48.7402328], [2.1604496, 48.7402434], [2.1603464, 48.740277], [2.1602967, 48.7402743], [2.1602178, 48.7403078], [2.1601546, 48.7403221], [2.1600956, 48.7403504], [2.1600205, 48.7403451], [2.1599735, 48.7403743], [2.159881, 48.7403981], [2.1598303, 48.7404529], [2.1597496, 48.7404795], [2.1596624, 48.7404786], [2.1595484, 48.7405025], [2.159444, 48.7405045], [2.1593785, 48.7404442], [2.15942, 48.7403675], [2.1598361, 48.7400563], [2.15983, 48.7399993], [2.1597886, 48.7399415], [2.1595947, 48.7397635], [2.1594657, 48.739721], [2.1594116, 48.7396667], [2.1593459, 48.7396207], [2.1592534, 48.7396048], [2.1591943, 48.7395597], [2.1591267, 48.7394208], [2.1591072, 48.7395217], [2.1590441, 48.7395862], [2.1589396, 48.7396635], [2.158446, 48.739856], [2.158231, 48.7399579], [2.1580383, 48.7399993], [2.1578129, 48.7400724], [2.1576668, 48.7400859], [2.1574165, 48.7400541], [2.157263, 48.7400591], [2.1570573, 48.740184], [2.157062, 48.7402133], [2.1571921, 48.740223], [2.1572936, 48.7402621], [2.1573052, 48.7403606], [2.1572578, 48.740453], [2.1571965, 48.7405122], [2.1571398, 48.7405264], [2.1565765, 48.7401708], [2.1569078, 48.7404309], [2.1569991, 48.7404869], [2.1570419, 48.7405626], [2.157003, 48.7406156], [2.1569239, 48.7405936], [2.156778, 48.7404408], [2.1565577, 48.7403318], [2.1563912, 48.7402241], [2.1561231, 48.7401758], [2.1559046, 48.7402168], [2.1557155, 48.7402045], [2.1556132, 48.7401884], [2.1555144, 48.7402407], [2.1553883, 48.7402726], [2.1552258, 48.7402305], [2.1551469, 48.7402681], [2.1550329, 48.7402876], [2.1550906, 48.7403928], [2.1547848, 48.7405653], [2.1546336, 48.7406269], [2.1545313, 48.7405662], [2.1544522, 48.7405644], [2.1543377, 48.7406173], [2.1542644, 48.7406865], [2.1543127, 48.7408182], [2.1542591, 48.7408748], [2.1542183, 48.7408971], [2.1542279, 48.7408624], [2.1541062, 48.7408572], [2.1539372, 48.7409208], [2.1538168, 48.741017], [2.1537414, 48.7411543], [2.1537002, 48.7412626], [2.1536784, 48.7414065], [2.1537759, 48.7416222], [2.1539596, 48.7418108], [2.1541852, 48.7419617], [2.1545356, 48.742118], [2.1549296, 48.7422634], [2.1552931, 48.7423021], [2.1556723, 48.7422965], [2.1557368, 48.7423086], [2.155686, 48.7423907], [2.1556371, 48.7424048], [2.1555354, 48.7424466], [2.1554894, 48.7424207], [2.1553293, 48.7425004], [2.155218, 48.7425278], [2.1551603, 48.742557], [2.1550959, 48.7425411], [2.154998, 48.7425349], [2.1549672, 48.74258], [2.1549028, 48.7425977], [2.1548639, 48.7426525], [2.1547657, 48.7426816], [2.1546648, 48.7426468], [2.1546145, 48.7426932], [2.1545616, 48.7426896], [2.1544898, 48.7427188], [2.1544522, 48.742756], [2.1543691, 48.7427648], [2.1539956, 48.7428602], [2.1540049, 48.7428725], [2.154014, 48.7428873], [2.1543811, 48.7428126], [2.1544763, 48.7428072], [2.1545555, 48.7427683], [2.1547768, 48.742702], [2.1548659, 48.7427231], [2.1549444, 48.7426861], [2.1551281, 48.7426392], [2.1551998, 48.7425762], [2.1552475, 48.7425888], [2.1553264, 48.7425893], [2.1554355, 48.7425888], [2.155498, 48.7425516], [2.1555631, 48.7424719], [2.1556994, 48.7424845], [2.1558067, 48.7424668], [2.1559677, 48.7424208], [2.1560776, 48.7424385], [2.1561903, 48.7423659], [2.1562412, 48.742373], [2.1563567, 48.7423221], [2.1564711, 48.7424272], [2.1561339, 48.7426419], [2.1560628, 48.7426768], [2.1559262, 48.7426599], [2.155863, 48.742626], [2.1557718, 48.7426242], [2.1557021, 48.7426666], [2.1556511, 48.7427197], [2.1557558, 48.7428594], [2.155914, 48.7429107], [2.1560257, 48.7429016], [2.1561044, 48.7429373], [2.1561688, 48.7429974], [2.1563217, 48.7430416], [2.1563968, 48.7431141], [2.1564928, 48.7431164], [2.1565443, 48.743054], [2.1566035, 48.7430047], [2.1567406, 48.7429841], [2.1568233, 48.7429939], [2.1569161, 48.7430435], [2.1571071, 48.7430218], [2.1572183, 48.7431121], [2.1572685, 48.743192], [2.1572686, 48.7432821], [2.1571988, 48.743314], [2.1571266, 48.7433868], [2.1573906, 48.7436483], [2.1575421, 48.74375], [2.1576729, 48.7438645], [2.1577513, 48.7439596], [2.157919, 48.744086], [2.1580061, 48.7442105], [2.1581402, 48.7442267], [2.1584039, 48.7443655], [2.1585478, 48.7445326], [2.1586633, 48.7445468], [2.1588229, 48.7445194], [2.1589704, 48.7445878], [2.1591026, 48.7446304], [2.1593539, 48.7446936], [2.1596208, 48.7447245], [2.1599942, 48.7447174], [2.1603759, 48.7446697], [2.1607275, 48.7446126], [2.1609117, 48.7445225], [2.1610759, 48.7444592], [2.1613201, 48.7444508], [2.1615922, 48.7443858], [2.1617066, 48.7443447], [2.161782, 48.7443739], [2.1618189, 48.7443423], [2.1617854, 48.7443231], [2.1617663, 48.7442766], [2.1618524, 48.7442558], [2.1619543, 48.7442877], [2.1620643, 48.744262], [2.1621662, 48.7442594], [2.1622105, 48.7443054], [2.1623191, 48.7442647], [2.1623875, 48.7443001], [2.1625189, 48.744247], [2.1626556, 48.744234], [2.1627107, 48.7442311], [2.1628006, 48.7442594], [2.1629427, 48.7442275], [2.1631037, 48.744247], [2.1632539, 48.7442375], [2.1633927, 48.7442379], [2.1634089, 48.7441879], [2.1634963, 48.7441714], [2.163652, 48.7442027], [2.1637011, 48.7441831], [2.1637484, 48.7441957], [2.1638012, 48.7441604], [2.1639057, 48.7441846], [2.1639859, 48.7442079], [2.1641239, 48.7441376], [2.1641806, 48.74413], [2.1642389, 48.7441287], [2.164305, 48.7441793], [2.1643691, 48.7441654], [2.1643154, 48.7441296], [2.1643456, 48.7439962], [2.1643827, 48.7439649], [2.1644756, 48.7439408], [2.1645926, 48.7439297], [2.1647428, 48.7438899], [2.1648166, 48.7438327]]]}}, {"type": "Feature", "properties": {"name": "Étang Laveyssière"}, "geometry": {"type": "Polygon", "coordinates": [[[2.3981055, 48.6882592], [2.3980861, 48.688257], [2.3980258, 48.6882464], [2.3979993, 48.6882267], [2.3980804, 48.6878887], [2.397992, 48.6877748], [2.3979248, 48.6877561], [2.3977609, 48.687783], [2.3976369, 48.6878063], [2.3975727, 48.6879575], [2.3975255, 48.6881647], [2.3974135, 48.6884838], [2.3971957, 48.6887973], [2.3970281, 48.689039], [2.3969795, 48.6890638], [2.3969403, 48.6890584], [2.3969103, 48.6890298], [2.3969125, 48.6889729], [2.3969441, 48.6889018], [2.3970294, 48.688783], [2.3971078, 48.6886166], [2.3971322, 48.6884955], [2.3971349, 48.6883591], [2.3972024, 48.6882769], [2.3972216, 48.6882208], [2.3972439, 48.6881244], [2.3971082, 48.6881109], [2.3970602, 48.6881143], [2.3970416, 48.6881038], [2.3970442, 48.6880856], [2.3973436, 48.6880358], [2.3974071, 48.6879444], [2.397326, 48.6878487], [2.3972556, 48.6877671], [2.3963835, 48.6878865], [2.3960513, 48.6882205], [2.3956432, 48.6884269], [2.3954714, 48.6884912], [2.3954236, 48.6884934], [2.3950811, 48.688579], [2.3947975, 48.6888629], [2.3947393, 48.6892874], [2.3947336, 48.689313], [2.394672, 48.6895882], [2.3944802, 48.6898596], [2.3943608, 48.6899524], [2.3940598, 48.6901019], [2.3939067, 48.690207], [2.3938699, 48.6902537], [2.3938272, 48.6902727], [2.3937635, 48.6902466], [2.393698, 48.6901956], [2.3933467, 48.6902902], [2.3933005, 48.6902959], [2.3932071, 48.6902977], [2.3931586, 48.6902986], [2.3931119, 48.6903014], [2.3930582, 48.6903139], [2.3930063, 48.6903319], [2.392957, 48.6903619], [2.3929172, 48.6903919], [2.3928688, 48.6904602], [2.3928532, 48.6904822], [2.3928356, 48.6904879], [2.3928413, 48.6905026], [2.3928584, 48.6905182], [2.3928476, 48.6905476], [2.3928314, 48.6905896], [2.3927984, 48.6906235], [2.3927773, 48.6906258], [2.3927303, 48.6906765], [2.3926099, 48.6909486], [2.3926187, 48.6909621], [2.3926143, 48.6909716], [2.3926188, 48.6909813], [2.3926298, 48.6909937], [2.3927318, 48.6910562], [2.3928173, 48.6910791], [2.3928718, 48.6910809], [2.3929528, 48.6910713], [2.3930642, 48.6910358], [2.3931477, 48.6910138], [2.3932011, 48.6910336], [2.3932503, 48.6910675], [2.3933489, 48.6911548], [2.3934781, 48.6914429], [2.393508, 48.6915073], [2.3935247, 48.6915634], [2.393804, 48.6918248], [2.3944752, 48.6924368], [2.3947706, 48.6927016], [2.3951439, 48.6930277], [2.3952621, 48.6930702], [2.3953426, 48.6930891], [2.3954215, 48.6930941], [2.3954565, 48.6930962], [2.3954931, 48.6930878], [2.3955766, 48.6930738], [2.3957111, 48.6930274], [2.3957636, 48.693018], [2.3960652, 48.6929935], [2.3961432, 48.6929894], [2.3961621, 48.6929893], [2.3961959, 48.6929832], [2.3962066, 48.6929848], [2.3963937, 48.6929517], [2.396398, 48.6929487], [2.3964239, 48.692931], [2.3964233, 48.6929179], [2.3964223, 48.6928897], [2.3964005, 48.692862], [2.3963716, 48.692857], [2.3963186, 48.6928471], [2.3960558, 48.6927432], [2.3958216, 48.6924321], [2.3947165, 48.6909546], [2.3947281, 48.6909123], [2.3947414, 48.6908639], [2.3947635, 48.6907831], [2.3950247, 48.6907097], [2.3953356, 48.6906622], [2.3955316, 48.6906465], [2.395725, 48.6907168], [2.3960139, 48.6909195], [2.3962145, 48.691084], [2.3966383, 48.6916662], [2.3968757, 48.6921607], [2.3971064, 48.6925537], [2.3970195, 48.69266], [2.3968918, 48.6927449], [2.3966826, 48.6928122], [2.396649, 48.6928203], [2.3965646, 48.6928406], [2.3965474, 48.6929114], [2.3966601, 48.6929185], [2.3970729, 48.6928462], [2.3970948, 48.6928385], [2.3971189, 48.6928414], [2.3971549, 48.6928408], [2.3971871, 48.6928265], [2.3972162, 48.6928309], [2.3972388, 48.6928456], [2.3972953, 48.6928885], [2.3973053, 48.6929096], [2.3973082, 48.6929249], [2.3972606, 48.6929473], [2.3971923, 48.6929496], [2.3971384, 48.6929692], [2.397099, 48.692995], [2.3970906, 48.693029], [2.3970956, 48.6930775], [2.3971093, 48.6931813], [2.3971283, 48.6932301], [2.3971733, 48.6933398], [2.3972039, 48.6934029], [2.3971975, 48.6934757], [2.3971975, 48.6934987], [2.3972324, 48.6936487], [2.3972997, 48.6937967], [2.3973414, 48.6939288], [2.3974336, 48.6941845], [2.3975159, 48.6944446], [2.3975452, 48.6944826], [2.3975792, 48.6945116], [2.3976008, 48.6945131], [2.3976224, 48.6945077], [2.3976385, 48.694498], [2.397644, 48.6944838], [2.3976388, 48.6944529], [2.3976143, 48.6944135], [2.397534, 48.6942191], [2.3974627, 48.6939856], [2.3973984, 48.6938135], [2.397336, 48.693673], [2.3972872, 48.6935012], [2.3972799, 48.6934756], [2.3972597, 48.6934051], [2.3972577, 48.6933981], [2.3972505, 48.6933428], [2.3972394, 48.6932584], [2.3972407, 48.6931895], [2.3972403, 48.6931369], [2.3972066, 48.6930959], [2.3971961, 48.693067], [2.3972151, 48.6930323], [2.3972572, 48.6929847], [2.3972852, 48.6929664], [2.3973212, 48.6929649], [2.3973534, 48.6929835], [2.397362, 48.6929992], [2.3974723, 48.6930769], [2.3978915, 48.6931745], [2.3990187, 48.6931325], [2.3991754, 48.6931009], [2.3991998, 48.6930906], [2.399246, 48.6930885], [2.3992901, 48.6930913], [2.3994276, 48.6930875], [2.3995043, 48.6930745], [2.3995613, 48.6930772], [2.3996198, 48.693098], [2.3996662, 48.6931134], [2.3997813, 48.6931305], [2.4004589, 48.6931538], [2.4006367, 48.6931538], [2.4008535, 48.6931528], [2.4009639, 48.6931523], [2.4012325, 48.693133], [2.4015965, 48.693069], [2.401889, 48.6928544], [2.4021743, 48.6927183], [2.402308, 48.6926528], [2.4024379, 48.6925381], [2.4024094, 48.6923685], [2.4020848, 48.69213], [2.4020172, 48.6920259], [2.4020178, 48.6919177], [2.402021, 48.6918493], [2.4019968, 48.6918209], [2.4019548, 48.6917896], [2.4019141, 48.6917521], [2.4018805, 48.6916822], [2.4017827, 48.6915722], [2.401723, 48.6914797], [2.4015048, 48.6913734], [2.4014841, 48.6913608], [2.4014572, 48.6913565], [2.4013016, 48.6912461], [2.4010918, 48.6910578], [2.4010381, 48.6910062], [2.4010048, 48.6909459], [2.4009532, 48.6908165], [2.4009862, 48.6905905], [2.4008841, 48.6904523], [2.4008712, 48.6904365], [2.4008158, 48.6903972], [2.4007781, 48.6902973], [2.4007787, 48.6902569], [2.4007944, 48.690223], [2.4007021, 48.6900616], [2.4005035, 48.6898771], [2.4004026, 48.6898029], [2.4001956, 48.6896774], [2.4001682, 48.6896807], [2.400077, 48.6895889], [2.4000629, 48.6895625], [2.3999219, 48.6893496], [2.3998447, 48.689157], [2.399701, 48.6890447], [2.3995055, 48.6888778], [2.3993459, 48.6888226], [2.3991065, 48.688783], [2.3988834, 48.6888453], [2.3987299, 48.6888321], [2.398713, 48.688769], [2.3986587, 48.6886555], [2.3985, 48.6887568], [2.3983704, 48.6888942], [2.3982744, 48.688978], [2.3981744, 48.6890439], [2.3980853, 48.6890928], [2.3980129, 48.6891132], [2.3978362, 48.6891364], [2.397758, 48.6891617], [2.3975828, 48.6891879], [2.3975487, 48.6891986], [2.3974848, 48.6892042], [2.3974551, 48.6891871], [2.3978935, 48.6887609], [2.3980521, 48.6884894], [2.3980032, 48.6884038], [2.3979887, 48.6883136], [2.3979901, 48.6882908], [2.3979996, 48.688272], [2.3980815, 48.6882751], [2.3981, 48.6882763], [2.3981292, 48.6882782], [2.3981577, 48.6882855], [2.398199, 48.6883094], [2.3982385, 48.6883451], [2.3979735, 48.6887265], [2.3979268, 48.6888347], [2.3978945, 48.6889455], [2.3978894, 48.6889754], [2.397888, 48.6890046], [2.3978971, 48.6890731], [2.397913, 48.6890812], [2.397944, 48.6890846], [2.3980236, 48.6890715], [2.3981045, 48.689036], [2.3981927, 48.6889811], [2.3982793, 48.6889131], [2.3984056, 48.688781], [2.3985413, 48.6886567], [2.3985691, 48.6886097], [2.3985795, 48.6885682], [2.3985745, 48.6885243], [2.3985448, 48.6883535], [2.3984202, 48.6881413], [2.398414, 48.688122], [2.3984014, 48.6881126], [2.3983835, 48.6881105], [2.3983465, 48.6881048], [2.3983118, 48.6881192], [2.3982923, 48.6881387], [2.39824, 48.688199], [2.3981858, 48.6882518], [2.3981423, 48.688262], [2.3981055, 48.6882592]]]}}, {"type": "Feature", "properties": {"name": "Étang de Saulx-les-Chartreux"}, "geometry": {"type": "Polygon", "coordinates": [[[2.2737514, 48.6972632], [2.2732794, 48.6989769], [2.273097, 48.6992318], [2.2730326, 48.6994584], [2.2730548, 48.6995482], [2.273164, 48.6995783], [2.273267, 48.6996639], [2.2732699, 48.6997278], [2.2731315, 48.6998081], [2.2731342, 48.6999395], [2.2731769, 48.6999996], [2.2732123, 48.700029], [2.2733088, 48.7000463], [2.273446, 48.7000479], [2.2736211, 48.7000292], [2.273831, 48.6999167], [2.2741256, 48.6999199], [2.2742571, 48.6999899], [2.2744994, 48.7001512], [2.274953, 48.7001382], [2.2758435, 48.6999824], [2.2764873, 48.6997133], [2.2768521, 48.6994868], [2.2770666, 48.6992743], [2.277131, 48.6987007], [2.2772276, 48.6985095], [2.2775065, 48.6983821], [2.2801136, 48.697851], [2.2809666, 48.6976598], [2.2816023, 48.6974421], [2.2830105, 48.6970508], [2.282753, 48.697265], [2.2826055, 48.6974722], [2.2826531, 48.6976196], [2.2829622, 48.6977483], [2.2829998, 48.6977023], [2.2829327, 48.6975837], [2.2828469, 48.6974562], [2.2829488, 48.6972739], [2.2831017, 48.6971624], [2.283166, 48.6969959], [2.2833537, 48.6969445], [2.2835149, 48.6969245], [2.28352, 48.6968756], [2.2835253, 48.6968438], [2.283446, 48.6968314], [2.2832089, 48.6967091], [2.2830131, 48.6966064], [2.2802102, 48.6962045], [2.2791373, 48.6960806], [2.2787725, 48.6961089], [2.2785258, 48.6962364], [2.2782468, 48.6964488], [2.2781288, 48.6965126], [2.2773456, 48.696371], [2.2765731, 48.6963001], [2.2758435, 48.6963851], [2.2749209, 48.6965763], [2.2742449, 48.696803], [2.2738802, 48.6970508], [2.2737514, 48.6972632]]]}}, {"type": "Feature", "properties": {"name": "L'Orme de Mazières"}, "geometry": {"type": "Polygon", "coordinates": [[[2.3914611, 48.6780502], [2.3915864, 48.6781175], [2.3916541, 48.6781538], [2.392142, 48.6783546], [2.3924588, 48.6783775], [2.3930255, 48.6781673], [2.3939843, 48.6779344], [2.3945474, 48.677951], [2.3959369, 48.6782556], [2.3964708, 48.6783797], [2.396655, 48.6784407], [2.3980378, 48.6785361], [2.3985349, 48.6785956], [2.3988449, 48.6787508], [2.3990034, 48.6788929], [2.3995929, 48.6790248], [2.4000445, 48.6790167], [2.4003281, 48.6788773], [2.4005714, 48.6785539], [2.4007036, 48.6785282], [2.4009442, 48.6786117], [2.4012767, 48.6787696], [2.4016534, 48.6788901], [2.4023718, 48.6788863], [2.4025482, 48.6788241], [2.4038792, 48.6779244], [2.4048372, 48.6770464], [2.4042518, 48.6767084], [2.4042725, 48.6763958], [2.4045278, 48.6762891], [2.4042262, 48.6758761], [2.4043823, 48.6755332], [2.4047063, 48.6756466], [2.404923, 48.6756182], [2.4048872, 48.6754528], [2.4044119, 48.6750364], [2.4041055, 48.6747985], [2.4039788, 48.6747001], [2.4034828, 48.6744682], [2.4029116, 48.6742701], [2.4026174, 48.6743867], [2.4021329, 48.6746277], [2.4020519, 48.6747711], [2.4019262, 48.6749939], [2.4019241, 48.6750336], [2.4019156, 48.6751958], [2.4014549, 48.675332], [2.4010959, 48.6754044], [2.4003914, 48.6752795], [2.3999191, 48.6750968], [2.3989749, 48.674683], [2.3983569, 48.67436], [2.397566, 48.6742272], [2.3971507, 48.6741335], [2.3970977, 48.6740913], [2.3967844, 48.6743266], [2.3968792, 48.6743372], [2.3971985, 48.6743646], [2.3975739, 48.6744609], [2.3982412, 48.6746068], [2.3985634, 48.6747771], [2.3984739, 48.6751753], [2.3988331, 48.6754184], [2.3987944, 48.6757236], [2.3987263, 48.6762143], [2.3985114, 48.6762983], [2.3979707, 48.676253], [2.3974557, 48.6763096], [2.396812, 48.676457], [2.3960223, 48.676525], [2.3956104, 48.6765647], [2.3955074, 48.6764967], [2.3955245, 48.6762983], [2.3959193, 48.6758846], [2.396194, 48.6754652], [2.396493, 48.6751856], [2.3961679, 48.6751028], [2.3957948, 48.6753094], [2.3952417, 48.6756199], [2.3949319, 48.6758067], [2.3948687, 48.6759184], [2.3947296, 48.6761642], [2.3946425, 48.6763282], [2.3946872, 48.6764953], [2.3945603, 48.6768114], [2.3942264, 48.6770289], [2.3938687, 48.6772981], [2.3936485, 48.6774227], [2.393582, 48.6774603], [2.3932071, 48.6775622], [2.3926004, 48.6777594], [2.3920237, 48.6780179], [2.391743, 48.6779114], [2.3915305, 48.6779919], [2.3914611, 48.6780502]]]}}, {"type": "Feature", "properties": {"name": "Étang des Noues de Seine"}, "geometry": {"type": "Polygon", "coordinates": [[[2.38763, 48.6681694], [2.3875449, 48.6682063], [2.3874504, 48.6682171], [2.3873878, 48.668196], [2.3872682, 48.6681537], [2.3870407, 48.6680483], [2.3866883, 48.6678798], [2.3864299, 48.6677269], [2.3864132, 48.6676908], [2.3863253, 48.6676278], [2.386254, 48.667618], [2.3861806, 48.6675399], [2.3860501, 48.6674578], [2.3858251, 48.6673827], [2.385651, 48.6673629], [2.385491, 48.6673506], [2.3852078, 48.6673643], [2.3849874, 48.6673839], [2.3847926, 48.6674132], [2.3846259, 48.6674842], [2.3843872, 48.6675909], [2.3842639, 48.6676262], [2.3841888, 48.6676883], [2.384125, 48.66776], [2.3840475, 48.6677861], [2.3840272, 48.6678087], [2.3838984, 48.6678212], [2.3838617, 48.6678751], [2.3838434, 48.668067], [2.3838565, 48.6681546], [2.3838436, 48.6683157], [2.3837923, 48.6683808], [2.3837127, 48.6684421], [2.3835706, 48.6685119], [2.3832699, 48.6685778], [2.3832693, 48.6686552], [2.3830721, 48.6687518], [2.3827223, 48.6687266], [2.3827136, 48.6687316], [2.3825028, 48.6687265], [2.3820617, 48.6686949], [2.3800933, 48.6689569], [2.3796746, 48.6690376], [2.3794574, 48.6691164], [2.3793096, 48.669183], [2.3789552, 48.6693288], [2.3788781, 48.6693777], [2.3788574, 48.6693989], [2.3787789, 48.6694599], [2.37873, 48.6695217], [2.3787071, 48.6695605], [2.3787161, 48.6696267], [2.3787381, 48.6697222], [2.3787506, 48.6698657], [2.3788752, 48.6700688], [2.3789244, 48.670168], [2.3789787, 48.6702605], [2.3790168, 48.6703559], [2.3790703, 48.6704497], [2.379136, 48.6705045], [2.3792036, 48.6705304], [2.3792896, 48.6705584], [2.3793668, 48.6705799], [2.3794385, 48.6705927], [2.3795196, 48.6706009], [2.3796413, 48.67058], [2.3798526, 48.6705489], [2.3803297, 48.6704887], [2.3806248, 48.6704532], [2.3809458, 48.6704411], [2.3812162, 48.6704422], [2.3813499, 48.6704797], [2.3815757, 48.6704944], [2.3816382, 48.6705424], [2.3816596, 48.6705243], [2.3816984, 48.6705301], [2.3818885, 48.6705997], [2.3823162, 48.6707513], [2.3828607, 48.6711073], [2.3834245, 48.6714646], [2.3834021, 48.6714845], [2.3841968, 48.6719069], [2.3845381, 48.6721043], [2.3850258, 48.6723604], [2.3852769, 48.6724859], [2.3853372, 48.672515], [2.3854073, 48.6725376], [2.3854774, 48.6725473], [2.3855263, 48.6725527], [2.3855915, 48.6725505], [2.3856583, 48.6725386], [2.3857055, 48.6725105], [2.3858424, 48.6724185], [2.3859725, 48.6722881], [2.3859744, 48.6722845], [2.3860523, 48.6722243], [2.3861191, 48.6721768], [2.3861891, 48.6721315], [2.3862629, 48.6720766], [2.3863409, 48.6720417], [2.3864392, 48.6720393], [2.3865211, 48.6720403], [2.3866981, 48.6719071], [2.3866133, 48.6718771], [2.3866268, 48.6717506], [2.3867202, 48.6716234], [2.3868663, 48.6714975], [2.3870417, 48.6713971], [2.3871828, 48.6713345], [2.3874151, 48.6712808], [2.3874725, 48.6712769], [2.3875344, 48.6712589], [2.3876087, 48.6712579], [2.3877704, 48.6712504], [2.3880574, 48.6712364], [2.3882912, 48.6712348], [2.3883739, 48.6712508], [2.3884585, 48.6712836], [2.3885451, 48.6713305], [2.3886212, 48.6713619], [2.3890317, 48.6715354], [2.38919, 48.6716014], [2.3892863, 48.6715456], [2.3893847, 48.6714884], [2.3894616, 48.6714607], [2.3895398, 48.6714949], [2.3895601, 48.6715766], [2.3895726, 48.6715978], [2.3896042, 48.6716205], [2.389704, 48.6716685], [2.3898704, 48.6717486], [2.3905478, 48.6711754], [2.3903497, 48.670609], [2.3904006, 48.6705994], [2.3902555, 48.6701816], [2.3902468, 48.6701557], [2.3901592, 48.6699032], [2.3899356, 48.6696625], [2.3898801, 48.6696008], [2.3894518, 48.6692277], [2.3890299, 48.6689434], [2.3889955, 48.6688868], [2.3890041, 48.6688357], [2.389047, 48.6687677], [2.3890642, 48.6687167], [2.3890213, 48.668643], [2.3889183, 48.6685353], [2.3877587, 48.6681119], [2.3877053, 48.6681431], [2.38763, 48.6681694]]]}}, {"type": "Feature", "properties": {"name": "Étang de la Justice"}, "geometry": {"type": "MultiPolygon", "coordinates": [[[[2.3859869, 48.666767], [2.385893, 48.6666959], [2.3858182, 48.6666415], [2.385786, 48.6666129], [2.3857051, 48.6665664], [2.3856257, 48.6665189], [2.3855758, 48.6664804], [2.3855257, 48.6664615], [2.3855037, 48.6664457], [2.3854597, 48.6664091], [2.3854022, 48.6663882], [2.3853551, 48.6663634], [2.3853302, 48.6663408], [2.3852963, 48.6663298], [2.3852082, 48.6662695], [2.3851495, 48.666224], [2.3850921, 48.6661943], [2.3849875, 48.6661525], [2.3848993, 48.6661011], [2.3848243, 48.6660555], [2.3846862, 48.6659646], [2.3846025, 48.6659082], [2.3845467, 48.6658736], [2.3844408, 48.6658161], [2.3843512, 48.6657578], [2.3842835, 48.6657211], [2.3842424, 48.6656915], [2.3841925, 48.665652], [2.3841614, 48.6656333], [2.3840735, 48.6655807], [2.3840074, 48.6655352], [2.3839575, 48.6654977], [2.383903, 48.665448], [2.3838741, 48.6654168], [2.383733, 48.6654465], [2.3837039, 48.6654061], [2.3837043, 48.6653786], [2.3837253, 48.6653562], [2.3838759, 48.6653864], [2.3839716, 48.6653143], [2.3840388, 48.6652647], [2.3841058, 48.6652366], [2.3841832, 48.6652056], [2.3842682, 48.6651541], [2.384361, 48.6650732], [2.3844401, 48.6650246], [2.3846102, 48.6649225], [2.3846823, 48.6648757], [2.3846968, 48.6648518], [2.3848393, 48.6647796], [2.3850691, 48.6646476], [2.3851923, 48.6645752], [2.3853762, 48.6644715], [2.3855585, 48.6643614], [2.3855916, 48.6643517], [2.3856, 48.6643365], [2.3857009, 48.6642782], [2.3857274, 48.6642534], [2.3859082, 48.6641281], [2.3860255, 48.6640459], [2.3860688, 48.6640056], [2.3861306, 48.6639596], [2.3861835, 48.6639246], [2.3862716, 48.6638706], [2.386306, 48.6638447], [2.3863211, 48.6638257], [2.3864254, 48.6637347], [2.3865699, 48.6636434], [2.3866193, 48.6636072], [2.3867012, 48.6635625], [2.3867779, 48.6635061], [2.3868378, 48.6634728], [2.3868686, 48.6634516], [2.3869752, 48.663389], [2.3870994, 48.6633155], [2.3872131, 48.6632397], [2.3873832, 48.66313], [2.3873904, 48.6631126], [2.3874513, 48.6630637], [2.387501, 48.6630049], [2.3875901, 48.6629359], [2.3877148, 48.6628225], [2.3878632, 48.6626982], [2.3879728, 48.6626009], [2.3880312, 48.6625456], [2.3881251, 48.6624447], [2.3881879, 48.6623813], [2.3882155, 48.662345], [2.3882949, 48.6622869], [2.3884025, 48.6622081], [2.3885242, 48.6621248], [2.3886043, 48.6620818], [2.3886544, 48.6620531], [2.3886897, 48.6620324], [2.3887221, 48.6620216], [2.3887501, 48.6620241], [2.388791, 48.6620359], [2.3889474, 48.6621201], [2.3892, 48.6622703], [2.3892564, 48.6623088], [2.3894026, 48.6624376], [2.3895842, 48.6626037], [2.3898323, 48.6628372], [2.3899187, 48.6629182], [2.3901257, 48.6630803], [2.3904241, 48.6633413], [2.3906306, 48.6634344], [2.3909395, 48.6635343], [2.3911272, 48.663634], [2.391386, 48.6637928], [2.3914017, 48.6638536], [2.3914486, 48.6639151], [2.3915203, 48.6639489], [2.3917787, 48.6641883], [2.3918004, 48.6642298], [2.3918077, 48.664266], [2.3918225, 48.6642841], [2.3918482, 48.6642915], [2.3918672, 48.664305], [2.3918747, 48.6643182], [2.391876, 48.6643391], [2.3919166, 48.66439], [2.3920271, 48.6644908], [2.3922127, 48.6646658], [2.3923097, 48.6647562], [2.392535, 48.6649751], [2.3925963, 48.6649813], [2.3926495, 48.6649773], [2.3859869, 48.666767]]], [[[2.3926495, 48.6649773], [2.3927799, 48.6651051], [2.3927099, 48.6652061], [2.3926987, 48.6652627], [2.392741, 48.6653263], [2.3928642, 48.6654573], [2.3933374, 48.6659163], [2.3936909, 48.6663089], [2.3938581, 48.6664507], [2.3939546, 48.6665266], [2.3940565, 48.6666025], [2.3941366, 48.6666336], [2.394198, 48.6666838], [2.3942274, 48.6667103], [2.3942422, 48.6667374], [2.394231, 48.6668], [2.3942042, 48.6668541], [2.3941032, 48.6669661], [2.3938436, 48.6671413], [2.3940148, 48.6672546], [2.3939803, 48.6672743], [2.3939759, 48.6673226], [2.3939856, 48.6673666], [2.3940388, 48.6673952], [2.3941176, 48.6674264], [2.3940811, 48.6674724], [2.3939515, 48.6675522], [2.3938666, 48.6676084], [2.3937766, 48.6676491], [2.3937274, 48.6676912], [2.3936657, 48.6677751], [2.3935648, 48.6678646], [2.3934522, 48.667954], [2.393374, 48.6680249], [2.3931691, 48.6681749], [2.393031, 48.6682551], [2.3929425, 48.6683059], [2.3928225, 48.6683592], [2.3926576, 48.6684164], [2.3925263, 48.6684648], [2.3923593, 48.6685278], [2.3922268, 48.6685694], [2.3920817, 48.6686325], [2.3919667, 48.66871], [2.3918841, 48.6687848], [2.391829, 48.6688329], [2.3918018, 48.6688496], [2.3917729, 48.6688703], [2.3917541, 48.6688997], [2.3917037, 48.6689314], [2.3916157, 48.6690051], [2.3915494, 48.6690811], [2.3914294, 48.6692186], [2.3912943, 48.669323], [2.3911741, 48.6693803], [2.3909661, 48.6694306], [2.3907954, 48.6694335], [2.3906066, 48.6694276], [2.3905287, 48.6694217], [2.3904545, 48.6694346], [2.3903585, 48.6693866], [2.3902864, 48.6693533], [2.3901945, 48.6693231], [2.3901001, 48.6692754], [2.3900372, 48.6692401], [2.3899742, 48.6692101], [2.3899006, 48.6691887], [2.3898718, 48.6691746], [2.3898353, 48.6691394], [2.3897909, 48.6691025], [2.3897516, 48.6690778], [2.3897043, 48.6690584], [2.3896466, 48.6690353], [2.3896073, 48.6690107], [2.3895787, 48.6689756], [2.3895632, 48.6689493], [2.3895477, 48.6689195], [2.3895454, 48.6688932], [2.3895457, 48.6688653], [2.3895276, 48.6688425], [2.3895305, 48.6688163], [2.3895206, 48.6687603], [2.3895032, 48.6686763], [2.3894958, 48.6686309], [2.3894856, 48.6686029], [2.3894991, 48.6685785], [2.3895099, 48.6685558], [2.3895211, 48.6685052], [2.3895217, 48.6684563], [2.3895061, 48.6684352], [2.389488, 48.6684106], [2.3894724, 48.6683844], [2.3894754, 48.6683564], [2.3894891, 48.6683198], [2.3894816, 48.6682813], [2.3894581, 48.6682637], [2.38944, 48.6682339], [2.3894325, 48.6681989], [2.389409, 48.6681813], [2.3893775, 48.6681602], [2.3893076, 48.6681475], [2.3892285, 48.6681465], [2.3891811, 48.6681873], [2.389121, 48.668227], [2.3890695, 48.6682837], [2.3889408, 48.6683687], [2.3889183, 48.6684616], [2.3889183, 48.6685353], [2.3877587, 48.6681119], [2.3877795, 48.6680515], [2.3877637, 48.6679994], [2.387722, 48.6679713], [2.3875916, 48.6679105], [2.3871754, 48.6676738], [2.3871047, 48.6676352], [2.3870507, 48.6675741], [2.3870093, 48.667569], [2.3869712, 48.6675344], [2.3868938, 48.6674506], [2.386869, 48.6674191], [2.3868293, 48.6673934], [2.3867619, 48.6673381], [2.3867118, 48.6673163], [2.386668, 48.6672611], [2.3865664, 48.6672194], [2.386515, 48.6671838], [2.3864621, 48.6671433], [2.3864447, 48.6671196], [2.3864137, 48.6671048], [2.3863947, 48.667087], [2.3863652, 48.6670761], [2.3863432, 48.6670573], [2.3862799, 48.6670334], [2.3862507, 48.666998], [2.3862053, 48.6669526], [2.3861352, 48.6668718], [2.3860852, 48.6668421], [2.3860684, 48.6668307], [2.3860412, 48.6668124], [2.3859869, 48.666767], [2.3926495, 48.6649773]]]]}}, {"type": "Feature", "properties": {"name": "Étang de Trevoix"}, "geometry": {"type": "MultiPolygon", "coordinates": [[[[2.2021451, 48.5808164], [2.2022422, 48.580692], [2.2025381, 48.5807095], [2.2020982, 48.5816677], [2.2017656, 48.5826613], [2.202066, 48.5828033], [2.2033472, 48.5828568], [2.2051307, 48.5831226], [2.2051899, 48.5828034], [2.2049039, 48.5822431], [2.2056764, 48.5822715], [2.2055905, 48.5827896], [2.206877, 48.5829562], [2.2071622, 48.5830872], [2.2071891, 48.5838542], [2.2081225, 48.5837548], [2.2086482, 48.5836129], [2.2102199, 48.5837338], [2.2110935, 48.5840688], [2.211753, 48.5841241], [2.212164, 48.5838221], [2.2123724, 48.5836689], [2.2125415, 48.5835244], [2.2127581, 48.5833468], [2.2128731, 48.5829236], [2.2112768, 48.5828818], [2.2096003, 48.5821863], [2.2091055, 48.5815186], [2.2083898, 48.5810954], [2.207015, 48.5809787], [2.2054408, 48.580895], [2.2039676, 48.5805889], [2.2029298, 48.5803835], [2.2026616, 48.5806177], [2.2022968, 48.580568], [2.2021819, 48.5805592], [2.2021451, 48.5808164]]], [[[2.2021819, 48.5805592], [2.2021601, 48.5805157], [2.2021177, 48.5804869], [2.2020484, 48.5804701], [2.2018953, 48.580465], [2.2016973, 48.5804514], [2.2016076, 48.5804359], [2.2015568, 48.5804152], [2.201484, 48.5803713], [2.201427, 48.5803573], [2.201333, 48.5803553], [2.2011981, 48.5803598], [2.2008821, 48.5803128], [2.2007962, 48.5803122], [2.2006307, 48.5803124], [2.2005368, 48.5803064], [2.2004098, 48.5802938], [2.2002022, 48.580288], [2.2000911, 48.5802862], [2.2000158, 48.58029], [2.1999046, 48.5802914], [2.1997477, 48.5802894], [2.1994907, 48.5803321], [2.1993967, 48.5803258], [2.1991183, 48.5803281], [2.1990376, 48.5803328], [2.1989591, 48.5803375], [2.198582, 48.5803527], [2.1985561, 48.580378], [2.1985579, 48.5804238], [2.1985981, 48.5804698], [2.1986433, 48.5805159], [2.1987802, 48.5805812], [2.1989066, 48.5806652], [2.1989769, 48.5807419], [2.1989837, 48.5807928], [2.1989545, 48.5808655], [2.1989, 48.580916], [2.198823, 48.5809425], [2.1987201, 48.5809463], [2.1986072, 48.5809441], [2.1984043, 48.5809385], [2.198284, 48.5809342], [2.198251, 48.5809263], [2.1982245, 48.5809208], [2.1981944, 48.580904], [2.1981675, 48.5808815], [2.1981554, 48.5808551], [2.1981612, 48.5808204], [2.1981724, 48.5807719], [2.1982023, 48.5807123], [2.1982513, 48.5806822], [2.1982908, 48.5806112], [2.1983254, 48.5805183], [2.1983236, 48.5804742], [2.1982942, 48.5803926], [2.1981649, 48.5803358], [2.1980833, 48.5803267], [2.1979402, 48.5803274], [2.1978301, 48.5803453], [2.1977151, 48.5803462], [2.1976461, 48.5803508], [2.1975485, 48.5803857], [2.1974966, 48.5804328], [2.1974413, 48.5805358], [2.1974251, 48.580595], [2.1974362, 48.5806638], [2.1974619, 48.5807909], [2.1974633, 48.5809124], [2.1974481, 48.5810414], [2.1974252, 48.5811486], [2.1974013, 48.5812114], [2.1974039, 48.5812548], [2.1973981, 48.5812785], [2.1973916, 48.5813046], [2.197375, 48.5813196], [2.1973703, 48.5814107], [2.1973485, 48.5814442], [2.197307, 48.5814851], [2.1972607, 48.5815206], [2.1972097, 48.5815365], [2.1969116, 48.5815735], [2.1967629, 48.5815681], [2.1967385, 48.5815603], [2.1966332, 48.5816041], [2.1965261, 48.5815567], [2.1964331, 48.5815397], [2.1963728, 48.5815317], [2.1963056, 48.5815421], [2.1962469, 48.5815297], [2.1960521, 48.5814877], [2.1958753, 48.5814631], [2.1957559, 48.5814612], [2.1956954, 48.5814673], [2.1956415, 48.5814615], [2.1956005, 48.5814688], [2.1955445, 48.5814934], [2.1954946, 48.5815494], [2.1954861, 48.5815721], [2.1955075, 48.5816212], [2.1954916, 48.5816516], [2.1955112, 48.5817076], [2.1955386, 48.5817502], [2.1955913, 48.5818065], [2.1956387, 48.5818797], [2.1956049, 48.5819201], [2.1956869, 48.5820597], [2.1956734, 48.5821071], [2.1957205, 48.5821938], [2.1959642, 48.5822905], [2.1962633, 48.5823848], [2.1963361, 48.5824235], [2.1965048, 48.5824564], [2.1966545, 48.582485], [2.1968839, 48.5825142], [2.1972176, 48.5826119], [2.1972783, 48.5826081], [2.1974026, 48.582628], [2.1976377, 48.5827017], [2.198045, 48.5827914], [2.1983408, 48.5828613], [2.1986333, 48.5829417], [2.1989291, 48.5830158], [2.199031, 48.5830313], [2.199069, 48.5830549], [2.1991805, 48.5830705], [2.1993397, 48.5830992], [2.1994422, 48.5830766], [2.1995005, 48.5830262], [2.1995432, 48.5829523], [2.1995991, 48.5828489], [2.1996555, 48.5827158], [2.1997016, 48.5826272], [2.1997254, 48.5825362], [2.199808, 48.5823631], [2.199838, 48.5822849], [2.1998742, 48.5822131], [2.1999753, 48.5820825], [2.2000973, 48.5820367], [2.2002415, 48.5820059], [2.2004651, 48.5820012], [2.2005829, 48.5820253], [2.2007699, 48.5821113], [2.200857, 48.5821702], [2.2008693, 48.5821932], [2.2008588, 48.582222], [2.2006368, 48.5824992], [2.2005113, 48.5826011], [2.2002651, 48.5833274], [2.2004816, 48.5833645], [2.2005508, 48.5833702], [2.2006422, 48.5833787], [2.2007414, 48.5833941], [2.2008482, 48.583399], [2.20093, 48.5833911], [2.2010269, 48.583402], [2.2011011, 48.5833957], [2.2011989, 48.5833523], [2.2012456, 48.5833069], [2.2012672, 48.5832291], [2.201279, 48.5831292], [2.2012497, 48.5827273], [2.2012641, 48.5826611], [2.2013245, 48.5824796], [2.2013185, 48.5824602], [2.2013324, 48.5824429], [2.2013694, 48.5824175], [2.2013969, 48.5824024], [2.2014117, 48.5823893], [2.2014184, 48.5823637], [2.2014216, 48.5822922], [2.2014119, 48.5822609], [2.2014041, 48.5822324], [2.2014335, 48.5821851], [2.2014853, 48.5821367], [2.2014904, 48.5820743], [2.2015316, 48.5820556], [2.2015857, 48.5819095], [2.2015953, 48.5818809], [2.2016169, 48.5818437], [2.2017158, 48.5816536], [2.2018199, 48.5814764], [2.2018565, 48.5814365], [2.2019148, 48.5813729], [2.2019218, 48.5813383], [2.2019323, 48.5812993], [2.201946, 48.5812582], [2.2019724, 48.5812443], [2.2019972, 48.5812227], [2.2020109, 48.5811838], [2.2020051, 48.5811403], [2.2020535, 48.5810745], [2.2020708, 48.5809829], [2.2021451, 48.5808164], [2.2021819, 48.5805592]]]]}}, {"type": "Feature", "properties": {"name": "Fosse Montalbot"}, "geometry": {"type": "Polygon", "coordinates": [[[2.428878, 48.714574], [2.428841, 48.714534], [2.428804, 48.714493], [2.428762, 48.714457], [2.428757, 48.714428], [2.428748, 48.71436], [2.428755, 48.714304], [2.428767, 48.714272], [2.428763, 48.714242], [2.428636, 48.71413], [2.428505, 48.71397], [2.428434, 48.713891], [2.428308, 48.713779], [2.428226, 48.713697], [2.428172, 48.713635], [2.428134, 48.713566], [2.428127, 48.713502], [2.428116, 48.713458], [2.428134, 48.71341], [2.428179, 48.713367], [2.428218, 48.71333], [2.428268, 48.713289], [2.428311, 48.713243], [2.428394, 48.713238], [2.428497, 48.713238], [2.428587, 48.713233], [2.428676, 48.713213], [2.428764, 48.71316], [2.428823, 48.713108], [2.428881, 48.713057], [2.428912, 48.713022], [2.428918, 48.713015], [2.428939, 48.712986], [2.428991, 48.712881], [2.428981, 48.712859], [2.42896, 48.712846], [2.428671, 48.712772], [2.42862, 48.712779], [2.428592, 48.712776], [2.428528, 48.712765], [2.428491, 48.71276], [2.42844, 48.712754], [2.42841, 48.712743], [2.428386, 48.712731], [2.428372, 48.712728], [2.428358, 48.712741], [2.428327, 48.71274], [2.428304, 48.712728], [2.428284, 48.712712], [2.428243, 48.712704], [2.428221, 48.712691], [2.428174, 48.71269], [2.428136, 48.712693], [2.428084, 48.712678], [2.427937, 48.712652], [2.4279, 48.712642], [2.427851, 48.71263], [2.427795, 48.712611], [2.427734, 48.712591], [2.427688, 48.712582], [2.427632, 48.712584], [2.427548, 48.712581], [2.427342, 48.712532], [2.427239, 48.712513], [2.427117, 48.712489], [2.427062, 48.712476], [2.427001, 48.712454], [2.426959, 48.712454], [2.426919, 48.712452], [2.426879, 48.71244], [2.426857, 48.71243], [2.426822, 48.712421], [2.426735, 48.712401], [2.426674, 48.712387], [2.426627, 48.712386], [2.426605, 48.712381], [2.426567, 48.712372], [2.42653, 48.712357], [2.426346, 48.712308], [2.426306, 48.712311], [2.426243, 48.712303], [2.426193, 48.712297], [2.426135, 48.712284], [2.426093, 48.712266], [2.426049, 48.712266], [2.425961, 48.712231], [2.42592, 48.712227], [2.425841, 48.712212], [2.425723, 48.712185], [2.4256, 48.71217], [2.425445, 48.712138], [2.425309, 48.712119], [2.425247, 48.712109], [2.425182, 48.712092], [2.425024, 48.712067], [2.424899, 48.712038], [2.424784, 48.712015], [2.42467, 48.712001], [2.424513, 48.711976], [2.4245, 48.711974], [2.424468, 48.711961], [2.424443, 48.711949], [2.424396, 48.711933], [2.42435, 48.711916], [2.424332, 48.7119], [2.424295, 48.711903], [2.424251, 48.711898], [2.424217, 48.711892], [2.424145, 48.711879], [2.424075, 48.711865], [2.423982, 48.711866], [2.423904, 48.711859], [2.423857, 48.711847], [2.423763, 48.711818], [2.423721, 48.711807], [2.423698, 48.711804], [2.423688, 48.711799], [2.423672, 48.711792], [2.423638, 48.711777], [2.423594, 48.711762], [2.42355, 48.711734], [2.423518, 48.711711], [2.42348, 48.711691], [2.423444, 48.711671], [2.423369, 48.711638], [2.423339, 48.711622], [2.42331, 48.711602], [2.4233, 48.711592], [2.423266, 48.711581], [2.423243, 48.71157], [2.423215, 48.711536], [2.423176, 48.711508], [2.423147, 48.711478], [2.423134, 48.711457], [2.423122, 48.711441], [2.423103, 48.711417], [2.423084, 48.711381], [2.423075, 48.711353], [2.423061, 48.711317], [2.423039, 48.711295], [2.423016, 48.711282], [2.422987, 48.711266], [2.422977, 48.711243], [2.422945, 48.711208], [2.422906, 48.711186], [2.422881, 48.711174], [2.422872, 48.711171], [2.422843, 48.711165], [2.422801, 48.711159], [2.422749, 48.711155], [2.422693, 48.711151], [2.422627, 48.711147], [2.422584, 48.711149], [2.422558, 48.711141], [2.422529, 48.711128], [2.422489, 48.71112], [2.422432, 48.711105], [2.422401, 48.711095], [2.422374, 48.711084], [2.422315, 48.711083], [2.422333, 48.711058], [2.422271, 48.711036], [2.422259, 48.711049], [2.422248, 48.711047], [2.422212, 48.711044], [2.42219, 48.711036], [2.422164, 48.711022], [2.422112, 48.711013], [2.42207, 48.711004], [2.422036, 48.710989], [2.422011, 48.710977], [2.421899, 48.710947], [2.421889, 48.71095], [2.421878, 48.710951], [2.421854, 48.710944], [2.421828, 48.710936], [2.421787, 48.710933], [2.421745, 48.710942], [2.421698, 48.710937], [2.421638, 48.710925], [2.421581, 48.710912], [2.421509, 48.710901], [2.421443, 48.710888], [2.421395, 48.710877], [2.421358, 48.710864], [2.42124, 48.710865], [2.421171, 48.710865], [2.421044, 48.710855], [2.420826, 48.710802], [2.420747, 48.710768], [2.420631, 48.710752], [2.420508, 48.71074], [2.420377, 48.710693], [2.420322, 48.710695], [2.420256, 48.71068], [2.420075, 48.710619], [2.419944, 48.710587], [2.419745, 48.710572], [2.419691, 48.71057], [2.419652, 48.710556], [2.419511, 48.710514], [2.419397, 48.710489], [2.419309, 48.710451], [2.419175, 48.710393], [2.418977, 48.710306], [2.418719, 48.71018], [2.41853, 48.710085], [2.418326, 48.709977], [2.418186, 48.709882], [2.418094, 48.709831], [2.41803, 48.709796], [2.417903, 48.709747], [2.417859, 48.709719], [2.417825, 48.709688], [2.417807, 48.709646], [2.417829, 48.709571], [2.417864, 48.709514], [2.417947, 48.709418], [2.41803, 48.70934], [2.41816, 48.709261], [2.418439, 48.709219], [2.418678, 48.709212], [2.418994, 48.709232], [2.419358, 48.709232], [2.419672, 48.709211], [2.420043, 48.709211], [2.420323, 48.709228], [2.420381, 48.709228], [2.420697, 48.70922], [2.420874, 48.709217], [2.421052, 48.709207], [2.421162, 48.709193], [2.421328, 48.709159], [2.421506, 48.709142], [2.421706, 48.709132], [2.421917, 48.70915], [2.422084, 48.709161], [2.422257, 48.709153], [2.422377, 48.709163], [2.422482, 48.709169], [2.422573, 48.709185], [2.422733, 48.709189], [2.422905, 48.709183], [2.423041, 48.709196], [2.423281, 48.709194], [2.423485, 48.709216], [2.423606, 48.709214], [2.423759, 48.709212], [2.423891, 48.709191], [2.424158, 48.709152], [2.424238, 48.709142], [2.424318, 48.709119], [2.424339, 48.709103], [2.424346, 48.709096], [2.424428, 48.709078], [2.424523, 48.709063], [2.424595, 48.709042], [2.42464, 48.709042], [2.424681, 48.70903], [2.42476, 48.709019], [2.424838, 48.709026], [2.424898, 48.709038], [2.424971, 48.709061], [2.425046, 48.709078], [2.425106, 48.709078], [2.425145, 48.70908], [2.425212, 48.70908], [2.425274, 48.709084], [2.425331, 48.709094], [2.425407, 48.709102], [2.425435, 48.709091], [2.425467, 48.709054], [2.425473, 48.709023], [2.425482, 48.709003], [2.425511, 48.708991], [2.425539, 48.708968], [2.425555, 48.708941], [2.425603, 48.708908], [2.425648, 48.708892], [2.425705, 48.70888], [2.425821, 48.708892], [2.42591, 48.708912], [2.426004, 48.708936], [2.426078, 48.708957], [2.426158, 48.708986], [2.426241, 48.709023], [2.426307, 48.709055], [2.426396, 48.709098], [2.426444, 48.709117], [2.426472, 48.709135], [2.426527, 48.709157], [2.426584, 48.709168], [2.42662, 48.709181], [2.426672, 48.709213], [2.426705, 48.709228], [2.426763, 48.709266], [2.426983, 48.709373], [2.427086, 48.709432], [2.427135, 48.709479], [2.427202, 48.709549], [2.427438, 48.709685], [2.427491, 48.709715], [2.427565, 48.709782], [2.427614, 48.709853], [2.427687, 48.709927], [2.427806, 48.710007], [2.427935, 48.710108], [2.427985, 48.710159], [2.428061, 48.710234], [2.428129, 48.710298], [2.428195, 48.710373], [2.428241, 48.71049], [2.428253, 48.710506], [2.428279, 48.710524], [2.428317, 48.710543], [2.428368, 48.71057], [2.42851, 48.710672], [2.42858, 48.710741], [2.428654, 48.710828], [2.4286693, 48.7108484], [2.428708, 48.7109], [2.428791, 48.710979], [2.4288255, 48.7110158], [2.428884, 48.711078], [2.428927, 48.711123], [2.428961, 48.711178], [2.42899, 48.71125], [2.429012, 48.711272], [2.429, 48.711327], [2.429023, 48.711373], [2.42907, 48.711405], [2.429129, 48.711435], [2.429185, 48.711464], [2.42927, 48.711504], [2.429344, 48.711537], [2.429374, 48.711559], [2.429422, 48.711611], [2.429455, 48.711674], [2.429494, 48.711748], [2.429534, 48.711811], [2.429619, 48.711899], [2.429658, 48.711938], [2.429685, 48.711988], [2.429689, 48.712022], [2.429712, 48.71207], [2.429736, 48.712089], [2.429753, 48.712104], [2.42983, 48.712145], [2.42992, 48.71217], [2.430004, 48.712202], [2.430082, 48.712233], [2.430172, 48.712275], [2.430227, 48.712306], [2.430397, 48.712429], [2.430465, 48.712483], [2.43055, 48.712566], [2.430591, 48.712617], [2.430654, 48.712699], [2.430738, 48.71276], [2.430892, 48.712854], [2.430985, 48.712934], [2.431059, 48.713012], [2.431195, 48.713138], [2.431229, 48.713189], [2.431247, 48.713236], [2.431263, 48.713272], [2.431253, 48.71329], [2.431223, 48.713314], [2.431152, 48.713305], [2.431028, 48.713274], [2.43093, 48.713254], [2.430774, 48.713224], [2.430595, 48.713184], [2.430423, 48.713143], [2.430286, 48.713124], [2.430144, 48.713107], [2.430024, 48.713092], [2.429911, 48.713062], [2.429886, 48.713054], [2.429837, 48.713062], [2.429798, 48.713054], [2.429761, 48.71304], [2.429729, 48.713031], [2.429694, 48.713018], [2.429548, 48.712983], [2.429488, 48.712955], [2.429471, 48.712938], [2.429368, 48.712932], [2.429281, 48.712919], [2.429226, 48.712907], [2.429158, 48.712902], [2.429118, 48.712902], [2.429081, 48.71292], [2.429065, 48.712962], [2.429046, 48.713015], [2.429039, 48.713036], [2.429038, 48.71304], [2.429057, 48.713116], [2.429103, 48.713171], [2.429162, 48.713236], [2.429229, 48.7133], [2.429332, 48.713423], [2.42932, 48.713447], [2.429324, 48.713457], [2.429417, 48.713527], [2.429464, 48.713545], [2.429504, 48.713555], [2.429524, 48.71355], [2.429558, 48.713551], [2.429636, 48.713568], [2.429709, 48.713577], [2.429755, 48.713591], [2.429817, 48.713629], [2.429923, 48.713655], [2.430075, 48.713702], [2.43015, 48.713746], [2.430192, 48.713795], [2.430153, 48.713818], [2.430098, 48.713834], [2.430041, 48.713861], [2.42999, 48.713881], [2.429954, 48.71391], [2.429917, 48.713949], [2.429893, 48.713978], [2.429881, 48.714024], [2.429887, 48.714075], [2.429896, 48.714103], [2.429951, 48.714164], [2.430011, 48.714226], [2.43006, 48.71426], [2.430121, 48.714284], [2.430167, 48.714302], [2.430296, 48.714377], [2.43038, 48.714425], [2.4304, 48.714437], [2.430601, 48.714523], [2.430708, 48.714573], [2.430754, 48.714628], [2.430753, 48.714668], [2.430714, 48.714738], [2.43069, 48.714812], [2.430663, 48.714897], [2.430651, 48.714949], [2.430655, 48.714961], [2.43067, 48.715018], [2.430679, 48.71506], [2.430683, 48.715073], [2.430688, 48.715112], [2.430685, 48.715153], [2.43068, 48.715189], [2.430652, 48.715237], [2.430638, 48.71526], [2.430616, 48.715287], [2.430584, 48.715317], [2.430534, 48.715345], [2.43051, 48.715362], [2.430479, 48.715387], [2.430432, 48.7154], [2.430379, 48.715395], [2.430332, 48.715381], [2.430285, 48.715358], [2.430209, 48.715314], [2.430136, 48.715263], [2.430088, 48.715241], [2.430048, 48.71523], [2.429985, 48.7152], [2.429939, 48.715173], [2.429851, 48.715106], [2.429743, 48.715038], [2.429701, 48.71499], [2.429691, 48.714963], [2.42966, 48.714926], [2.429613, 48.714904], [2.42958, 48.714893], [2.429541, 48.714879], [2.429502, 48.714862], [2.429453, 48.714847], [2.429408, 48.714831], [2.429368, 48.714818], [2.429331, 48.714806], [2.429272, 48.714805], [2.429211, 48.714808], [2.429188, 48.714802], [2.429156, 48.714792], [2.4291, 48.714759], [2.429035, 48.714712], [2.428968, 48.714657], [2.428924, 48.714621], [2.428886, 48.714584], [2.428878, 48.714574]]]}}, {"type": "Feature", "properties": {"name": "Marais de Fontenay"}, "geometry": {"type": "Polygon", "coordinates": [[[2.3997504, 48.5542435], [2.3997197, 48.5542189], [2.3997446, 48.5541433], [2.3992135, 48.5538874], [2.39919, 48.5538571], [2.3990722, 48.5537835], [2.3990138, 48.5537608], [2.3989194, 48.5537681], [2.3988703, 48.5536721], [2.398778, 48.5536574], [2.3986955, 48.5536355], [2.3986425, 48.5535933], [2.3986326, 48.5535446], [2.3985799, 48.5535142], [2.3985312, 48.5535071], [2.3984952, 48.5535025], [2.3984705, 48.553505], [2.3984888, 48.5535288], [2.3985647, 48.553562], [2.3985893, 48.553589], [2.3986403, 48.5536255], [2.3987033, 48.5536684], [2.398794, 48.5537474], [2.3989034, 48.5537882], [2.3990132, 48.5538164], [2.3992398, 48.5539391], [2.3993535, 48.5540154], [2.3994334, 48.5540379], [2.399464, 48.5541002], [2.3995283, 48.5541174], [2.3996732, 48.5542063], [2.3997246, 48.5542533], [2.3997322, 48.5542813], [2.3996776, 48.5543305], [2.3991798, 48.5547736], [2.3989137, 48.5546714], [2.398682, 48.5548702], [2.3987078, 48.5552679], [2.3984846, 48.5556201], [2.3980125, 48.5557792], [2.3981327, 48.5559667], [2.3978323, 48.5560916], [2.3978065, 48.5561939], [2.3974632, 48.5560746], [2.397755, 48.5557337], [2.397549, 48.5556201], [2.3971456, 48.5560803], [2.397652, 48.5562905], [2.3974546, 48.5564893], [2.3976263, 48.5565461], [2.39724, 48.5568529], [2.3968452, 48.5567506], [2.3971371, 48.5564211], [2.3972915, 48.5564666], [2.3974289, 48.5563359], [2.3970598, 48.5561825], [2.3963989, 48.5569438], [2.3966564, 48.5570631], [2.3963646, 48.5570574], [2.3957294, 48.5568927], [2.3958067, 48.5571313], [2.3955749, 48.5573528], [2.3954891, 48.5577959], [2.3958668, 48.55758], [2.3961414, 48.5576993], [2.3959783, 48.5579266], [2.3957638, 48.5578925], [2.3955663, 48.5581595], [2.3954119, 48.5584151], [2.3957037, 48.5585458], [2.3960728, 48.5583981], [2.3962101, 48.5585344], [2.3964762, 48.5582731], [2.3966221, 48.558347], [2.3963903, 48.5587219], [2.3966736, 48.5587844], [2.3969225, 48.5584208], [2.3974117, 48.55808], [2.3974203, 48.5578527], [2.3977379, 48.5575232], [2.3979095, 48.5576482], [2.3976692, 48.5578698], [2.3975662, 48.5581368], [2.39718, 48.5586367], [2.3976177, 48.5582674], [2.3977894, 48.5583072], [2.3981069, 48.5578527], [2.3985361, 48.5576085], [2.3991541, 48.5574096], [2.3994287, 48.5571085], [2.400081, 48.5570006], [2.3997549, 48.5572278], [2.3997721, 48.5574892], [2.4004158, 48.556904], [2.4006819, 48.5569892], [2.4000295, 48.5575062], [2.4001583, 48.5576482], [2.3999094, 48.5578755], [2.3997034, 48.5578357], [2.3991541, 48.5584606], [2.3988279, 48.5588582], [2.3989996, 48.5589548], [2.3995661, 48.5584492], [2.40007, 48.5578427], [2.400096, 48.5578266], [2.4001047, 48.5578235], [2.4001267, 48.5578226], [2.4001486, 48.5578292], [2.4001613, 48.5578381], [2.400166, 48.5578504], [2.4001646, 48.5578645], [2.4001552, 48.5578753], [2.4000912, 48.5579605], [2.3998606, 48.5582393], [2.3999387, 48.5584487], [2.3996996, 48.5585126], [2.3997425, 48.5586529], [2.4000108, 48.5586919], [2.4000778, 48.5588215], [2.399772, 48.5590115], [2.3995226, 48.5595565], [2.3999088, 48.5597606], [2.4002569, 48.5600333], [2.4003086, 48.560103], [2.4003219, 48.5601454], [2.4003187, 48.5602013], [2.400043, 48.560513], [2.399797, 48.561055], [2.399843, 48.561155], [2.400891, 48.5617255], [2.402601, 48.562799], [2.403715, 48.561961], [2.403807, 48.56189], [2.406696, 48.559736], [2.407263, 48.559311], [2.406945, 48.559121], [2.406814, 48.559023], [2.406767, 48.558987], [2.4066959, 48.5587121], [2.4065056, 48.558547], [2.4063936, 48.5585099], [2.4062837, 48.5585077], [2.4062311, 48.5585046], [2.4062004, 48.5584985], [2.4061471, 48.5584808], [2.4061138, 48.5584641], [2.406101, 48.5584355], [2.405971, 48.558385], [2.405638, 48.55825], [2.405063, 48.55791], [2.4048125, 48.5578033], [2.404605, 48.557715], [2.40446, 48.557624], [2.404305, 48.557552], [2.404145, 48.557479], [2.403874, 48.557317], [2.4038058, 48.5572396], [2.4037869, 48.5571354], [2.4038356, 48.5569966], [2.4035003, 48.5568173], [2.4028539, 48.557183], [2.4029076, 48.5570214], [2.4030068, 48.5569291], [2.4032777, 48.5566735], [2.4032089, 48.5566283], [2.4029236, 48.5565723], [2.4022155, 48.556709], [2.401773, 48.5572913], [2.4014028, 48.5572078], [2.4013948, 48.5570587], [2.4018239, 48.5565936], [2.4018052, 48.5564374], [2.4011883, 48.5569628], [2.4011561, 48.5571173], [2.4010676, 48.5572558], [2.4006196, 48.5574528], [2.4004346, 48.5575877], [2.4003524, 48.5576862], [2.4003212, 48.5576987], [2.4003012, 48.5576978], [2.4002812, 48.5576925], [2.4002613, 48.5576802], [2.4002599, 48.5576643], [2.4002724, 48.5576412], [2.4003165, 48.5575895], [2.4010767, 48.5568472], [2.4016432, 48.5562678], [2.401317, 48.5562678], [2.4009222, 48.5567734], [2.400596, 48.5566768], [2.4002012, 48.5566881], [2.3999008, 48.5568188], [2.3992657, 48.5566484], [2.3992056, 48.5567222], [2.3993601, 48.5568188], [2.3990167, 48.557279], [2.3986906, 48.5571597], [2.3990339, 48.5567336], [2.3990425, 48.5566427], [2.3986734, 48.5569665], [2.3982357, 48.5568813], [2.3985704, 48.5564155], [2.3987593, 48.5565973], [2.3991884, 48.5565404], [2.3994116, 48.5562905], [2.3988365, 48.556086], [2.3990511, 48.5557451], [2.3989996, 48.5555519], [2.3993257, 48.5554042], [2.3995615, 48.5553435], [2.4005617, 48.5556769], [2.4009823, 48.5556031], [2.4006389, 48.5555235], [2.3995471, 48.5552294], [2.3996197, 48.5550763], [2.3998126, 48.5549391], [2.3998013, 48.5548846], [2.3995157, 48.5547326], [2.3999095, 48.5543718], [2.399932, 48.5543195], [2.3998952, 48.5542823], [2.3997504, 48.5542435]]]}}]}