{"type": "FeatureCollection", "features": [{"type": "Feature", "properties": {"name": "Lac de Créteil"}, "geometry": {"type": "MultiPolygon", "coordinates": [[[[2.44819, 48.7828071], [2.4484733, 48.782698], [2.4488785, 48.7825794], [2.4488466, 48.7825382], [2.4488324, 48.7825135], [2.4488229, 48.7824878], [2.4488332, 48.782466], [2.4488836, 48.7824088], [2.4489762, 48.7823169], [2.4490025, 48.7822835], [2.4490197, 48.7822597], [2.4490164, 48.7822492], [2.449064, 48.7822109], [2.4491179, 48.7821761], [2.4491802, 48.7821094], [2.4495294, 48.7819486], [2.4495919, 48.7819322], [2.450279, 48.7817278], [2.4504402, 48.7816329], [2.4505494, 48.781544], [2.4505678, 48.7815243], [2.450652, 48.7813828], [2.4507177, 48.7812993], [2.4507932, 48.7812417], [2.45084, 48.7812127], [2.4510512, 48.781134], [2.4511287, 48.7811241], [2.4512053, 48.7811077], [2.4512621, 48.7811097], [2.4513455, 48.7811301], [2.4514937, 48.7811031], [2.4518054, 48.7807221], [2.4518754, 48.780641], [2.4518919, 48.7806472], [2.4525492, 48.7808949], [2.4532615, 48.7811634], [2.4534409, 48.781102], [2.4535936, 48.781097], [2.4537011, 48.7796329], [2.4534882, 48.7794777], [2.4534905, 48.7794364], [2.4534475, 48.7794228], [2.4533925, 48.7794118], [2.453345, 48.7794084], [2.4532975, 48.7794087], [2.4532372, 48.7794157], [2.4531862, 48.7794293], [2.4531851, 48.7794676], [2.4522176, 48.779435], [2.4522236, 48.7793511], [2.4523637, 48.7773703], [2.4523372, 48.7772839], [2.4523298, 48.7771941], [2.4523323, 48.7770534], [2.4522945, 48.776786], [2.452322, 48.7765564], [2.4523478, 48.7764257], [2.4523557, 48.7763124], [2.4523405, 48.7761238], [2.4523524, 48.7761141], [2.4523573, 48.7760745], [2.4523775, 48.7760552], [2.4524113, 48.7760475], [2.4524185, 48.7759691], [2.4523697, 48.7759567], [2.4523521, 48.7759438], [2.4523498, 48.7759232], [2.4523575, 48.7759], [2.4537125, 48.7746293], [2.4536871, 48.7746069], [2.4536753, 48.7745759], [2.4536855, 48.7745436], [2.4537134, 48.7745173], [2.4537547, 48.7745009], [2.4538032, 48.7744969], [2.4538437, 48.774506], [2.44819, 48.7828071]]], [[[2.4575861, 48.7705125], [2.4575344, 48.7705014], [2.4574144, 48.7705151], [2.4573521, 48.7705328], [2.4573004, 48.7705417], [2.4570785, 48.7705509], [2.4569537, 48.7705593], [2.4568552, 48.7705851], [2.4567117, 48.7706376], [2.4566406, 48.7706787], [2.4565575, 48.7707246], [2.4564844, 48.7707878], [2.4564475, 48.7708249], [2.4563677, 48.7708448], [2.4562651, 48.7708749], [2.4561189, 48.7709001], [2.4559954, 48.7709412], [2.4558784, 48.7710498], [2.4558614, 48.7710804], [2.4558286, 48.771095], [2.4557622, 48.7711069], [2.455598, 48.7712206], [2.4555384, 48.7712695], [2.4554453, 48.7713004], [2.4552479, 48.7713146], [2.4551191, 48.7712801], [2.4550641, 48.7712633], [2.4550306, 48.7712828], [2.4549139, 48.7712717], [2.4547161, 48.771262], [2.4544895, 48.7713071], [2.4543782, 48.7712846], [2.4543279, 48.7712859], [2.4542166, 48.7713022], [2.4541153, 48.7713354], [2.4540603, 48.7713729], [2.4539549, 48.7714678], [2.4538713, 48.7715867], [2.453769, 48.7717002], [2.453658, 48.7717561], [2.4535567, 48.7717968], [2.453495, 48.7718166], [2.4534823, 48.7718295], [2.4534541, 48.7718277], [2.4534219, 48.7717822], [2.4532664, 48.771521], [2.4532161, 48.7714591], [2.4531417, 48.7714344], [2.4530766, 48.7714295], [2.4530124, 48.7714433], [2.452827, 48.7714846], [2.4525911, 48.7715356], [2.4523906, 48.7715882], [2.452274, 48.7716195], [2.4521419, 48.7716416], [2.452107, 48.7716629], [2.4518844, 48.7717017], [2.4515524, 48.7717804], [2.4513855, 48.7718379], [2.4512467, 48.7718971], [2.4511971, 48.7719346], [2.4511567, 48.7719877], [2.4511427, 48.7720562], [2.4511602, 48.7720951], [2.4512192, 48.772126], [2.451341, 48.7722088], [2.4513902, 48.7722564], [2.4514164, 48.7722606], [2.451421, 48.7723081], [2.4513904, 48.7723472], [2.4508437, 48.772499], [2.4507149, 48.7725233], [2.4506131, 48.7725295], [2.4505193, 48.7725016], [2.4504529, 48.7724919], [2.4504025, 48.7724659], [2.4502932, 48.7724646], [2.4502263, 48.7724915], [2.4500646, 48.7725718], [2.4499813, 48.7725999], [2.4499787, 48.7726572], [2.4500171, 48.7727257], [2.4499862, 48.7727436], [2.4499485, 48.772742], [2.4498573, 48.7727058], [2.449815, 48.772689], [2.4497399, 48.7726965], [2.4496239, 48.7727549], [2.4494345, 48.7728719], [2.449392, 48.7729172], [2.4493867, 48.773012], [2.4493068, 48.7731064], [2.4491684, 48.7731683], [2.4490131, 48.7731988], [2.4489148, 48.7732169], [2.4488339, 48.773238], [2.4487574, 48.7732901], [2.4486964, 48.7734015], [2.4486516, 48.7734592], [2.4486267, 48.7734913], [2.4485852, 48.7735563], [2.4485221, 48.7736094], [2.4484239, 48.7736907], [2.4482993, 48.7738284], [2.4482885, 48.7738776], [2.4481662, 48.7739789], [2.4480593, 48.7741163], [2.4478731, 48.7742892], [2.4477887, 48.7743725], [2.4477446, 48.7744646], [2.4476514, 48.7746127], [2.4476473, 48.7747008], [2.4476934, 48.7747918], [2.4478037, 48.7748921], [2.4479542, 48.7749768], [2.4483171, 48.7750241], [2.4483628, 48.7750068], [2.4484595, 48.7749958], [2.4485301, 48.7750121], [2.4486114, 48.7750319], [2.4486668, 48.7750659], [2.4487008, 48.7751193], [2.4487064, 48.7751708], [2.4486985, 48.7752151], [2.4486799, 48.7752523], [2.4486463, 48.7752746], [2.4485765, 48.7752801], [2.4484379, 48.7755335], [2.4484257, 48.7756936], [2.4484216, 48.7758385], [2.4484459, 48.7759083], [2.4484735, 48.7761214], [2.4484615, 48.7761712], [2.4486571, 48.7762021], [2.4486896, 48.776207], [2.4487961, 48.7764098], [2.4487801, 48.7764314], [2.4487614, 48.7764489], [2.448769, 48.7764795], [2.4487986, 48.7765211], [2.4487858, 48.7766516], [2.4487539, 48.7766947], [2.4485419, 48.7768108], [2.4485261, 48.7768439], [2.4485182, 48.7768604], [2.4484937, 48.7768898], [2.448491, 48.7768993], [2.4485129, 48.7769139], [2.4485534, 48.7769587], [2.4486065, 48.7769982], [2.4486819, 48.7770292], [2.4487468, 48.7770396], [2.4488015, 48.7770411], [2.4488466, 48.7770309], [2.4488903, 48.7770053], [2.4489924, 48.7769456], [2.4490619, 48.7769374], [2.4491007, 48.7769329], [2.449216, 48.7769691], [2.4493074, 48.7770707], [2.4493402, 48.777171], [2.4492098, 48.777441], [2.449088, 48.7776386], [2.4491409, 48.777708], [2.4491899, 48.7777619], [2.4492687, 48.7777888], [2.4492438, 48.7778031], [2.4491053, 48.7778059], [2.4489535, 48.7778198], [2.4488042, 48.7778765], [2.4486994, 48.7779389], [2.4485968, 48.7780086], [2.4485811, 48.7780327], [2.4485028, 48.7781534], [2.4483879, 48.7783315], [2.4483091, 48.7784635], [2.4482769, 48.7785413], [2.4482866, 48.7786083], [2.4483279, 48.77871], [2.4483992, 48.778796], [2.4484485, 48.7788334], [2.4484978, 48.778886], [2.44856, 48.7789795], [2.4485929, 48.7790314], [2.4486041, 48.7790673], [2.4485922, 48.7790869], [2.4486272, 48.7791717], [2.4486263, 48.7792514], [2.44856, 48.7793409], [2.4484834, 48.7793868], [2.4483903, 48.779398], [2.4481771, 48.7794209], [2.4481024, 48.7794499], [2.4480189, 48.7795122], [2.4479738, 48.7795704], [2.4479502, 48.7796284], [2.447936, 48.7797099], [2.4479424, 48.7797764], [2.4481064, 48.7799877], [2.4482106, 48.7801293], [2.4483258, 48.7802718], [2.4483423, 48.7802945], [2.4483849, 48.7803552], [2.4484344, 48.7804484], [2.4484522, 48.7805211], [2.4484542, 48.7805778], [2.4484238, 48.7806526], [2.4484093, 48.780676], [2.4483466, 48.7807387], [2.4482749, 48.7808246], [2.4481837, 48.7809687], [2.4481407, 48.7810663], [2.4481222, 48.7811459], [2.448112, 48.7813006], [2.448124, 48.7814438], [2.448125, 48.7815895], [2.4481076, 48.7816756], [2.4480963, 48.7817071], [2.4480691, 48.7817653], [2.4480214, 48.7818303], [2.4479832, 48.7818582], [2.4479352, 48.7818788], [2.4479098, 48.7818897], [2.4477907, 48.7819289], [2.4476675, 48.7819805], [2.447574, 48.7820262], [2.4475184, 48.7820549], [2.4474903, 48.7820757], [2.4474728, 48.7820937], [2.4474488, 48.7821236], [2.4474226, 48.7821723], [2.4474143, 48.7822], [2.447413, 48.7822365], [2.447414, 48.7822754], [2.4474186, 48.782318], [2.4474833, 48.7824042], [2.4475028, 48.7823976], [2.4478029, 48.7827343], [2.4480437, 48.782642], [2.44819, 48.7828071], [2.4575861, 48.7705125]]], [[[2.4538437, 48.774506], [2.454938, 48.7734768], [2.4553032, 48.7734861], [2.455357, 48.7734876], [2.4553888, 48.7735117], [2.4554317, 48.7735396], [2.455502, 48.7735698], [2.4555466, 48.7735859], [2.4556248, 48.7736052], [2.4555987, 48.7736275], [2.4555949, 48.7736308], [2.4555673, 48.7736544], [2.4557178, 48.7736843], [2.4558421, 48.7736924], [2.4559623, 48.7736889], [2.4561134, 48.7736203], [2.4562924, 48.773626], [2.4563779, 48.7735961], [2.4564661, 48.773553], [2.4565437, 48.7735063], [2.4566221, 48.7734358], [2.456559, 48.7734086], [2.456613, 48.7733636], [2.45666, 48.77331], [2.4566993, 48.7732336], [2.456713, 48.7731365], [2.4566984, 48.7730362], [2.4566518, 48.7729394], [2.4565732, 48.7728543], [2.4564861, 48.7727817], [2.4563551, 48.7727149], [2.4561836, 48.7726615], [2.456081, 48.7726443], [2.4559765, 48.7726357], [2.4557956, 48.7726505], [2.4556072, 48.7726922], [2.4554957, 48.7727386], [2.4553347, 48.7728522], [2.4553304, 48.7728724], [2.455324, 48.772903], [2.4553117, 48.7729215], [2.4552853, 48.7729415], [2.4552101, 48.7729407], [2.4550989, 48.7729301], [2.4549959, 48.7728933], [2.4549491, 48.7728588], [2.4549257, 48.7728213], [2.4549069, 48.7727861], [2.4549091, 48.7727494], [2.4549272, 48.7727067], [2.4549687, 48.7726655], [2.455086, 48.7726053], [2.4553302, 48.7725178], [2.455604, 48.7723556], [2.4560511, 48.7722301], [2.456137, 48.772221], [2.4562883, 48.772205], [2.4564743, 48.7720307], [2.4570102, 48.7715287], [2.4569906, 48.7715195], [2.4570817, 48.7714346], [2.4572099, 48.7714945], [2.457195, 48.7715085], [2.4576203, 48.7717037], [2.4576595, 48.7717152], [2.4577024, 48.7717203], [2.4577367, 48.7717192], [2.4577951, 48.7717061], [2.4578055, 48.7717066], [2.4578534, 48.7716964], [2.4579013, 48.7716761], [2.4579366, 48.771654], [2.4579371, 48.7716452], [2.457961, 48.7716295], [2.4579805, 48.77161], [2.4579936, 48.7715878], [2.4579933, 48.7715705], [2.4579872, 48.7715515], [2.457804, 48.7712276], [2.4577801, 48.7712336], [2.457724, 48.7711369], [2.4578707, 48.7710998], [2.4578805, 48.771117], [2.4581681, 48.7710454], [2.4581092, 48.7709424], [2.4578648, 48.7710032], [2.4538437, 48.774506]]]]}}]}