{"type": "FeatureCollection", "features": [{"type": "Feature", "properties": {"name": "Lac d'Enghien"}, "geometry": {"type": "MultiPolygon", "coordinates": [[[[2.2950969, 48.9698848], [2.2950592, 48.9698756], [2.2949667, 48.9698627], [2.2948165, 48.9698376], [2.2946229, 48.9698424], [2.294463, 48.9699161], [2.2944402, 48.969965], [2.2943897, 48.9700063], [2.2943104, 48.9700332], [2.2941484, 48.9701234], [2.2941611, 48.9701369], [2.2939885, 48.9702596], [2.2938926, 48.970357], [2.293863, 48.9703525], [2.2937685, 48.9704286], [2.2934395, 48.9706561], [2.2934746, 48.9707492], [2.2934243, 48.9708021], [2.293504, 48.9708464], [2.2935268, 48.9708591], [2.2935869, 48.9708323], [2.2936323, 48.9708968], [2.2937644, 48.9708939], [2.2938666, 48.9708994], [2.2942411, 48.9710533], [2.2951481, 48.9714436], [2.295392, 48.9713862], [2.2957134, 48.9713581], [2.2960579, 48.9713748], [2.296619, 48.9716964], [2.2971461, 48.9722192], [2.2973845, 48.9728354], [2.2973913, 48.9734439], [2.2973773, 48.9740523], [2.2972775, 48.9745697], [2.297094, 48.9747243], [2.2974191, 48.9748465], [2.2977621, 48.9749218], [2.2981984, 48.9750116], [2.2988432, 48.9751051], [2.2989294, 48.9751504], [2.2989918, 48.9751612], [2.2990819, 48.9751406], [2.2991852, 48.9751535], [2.2993139, 48.9750531], [2.2994051, 48.9750672], [2.2993542, 48.9751694], [2.3003491, 48.9752746], [2.3012504, 48.9745923], [2.3013347, 48.9745081], [2.3013631, 48.9744797], [2.3013993, 48.9744436], [2.3014345, 48.9743943], [2.3014216, 48.9743715], [2.3014194, 48.9743582], [2.3014208, 48.9743449], [2.3014286, 48.974327], [2.3014381, 48.9743152], [2.3014507, 48.9743047], [2.3014686, 48.9742945], [2.3015037, 48.9742835], [2.3015264, 48.9742808], [2.3015494, 48.9742812], [2.3015699, 48.9742841], [2.3015893, 48.9742894], [2.3016907, 48.9741528], [2.3020507, 48.973609], [2.3022366, 48.9732276], [2.3023138, 48.9729444], [2.3023275, 48.9728237], [2.3023747, 48.9725863], [2.3023821, 48.9722732], [2.3023848, 48.9722575], [2.302417, 48.9720666], [2.3023473, 48.9717835], [2.3024505, 48.9704184], [2.3025372, 48.9702797], [2.3028354, 48.9699848], [2.3027292, 48.9699504], [2.3029485, 48.9697197], [2.3029161, 48.9697084], [2.3030101, 48.9695884], [2.3030542, 48.9696074], [2.3031865, 48.969462], [2.3031634, 48.969441], [2.3031501, 48.9694154], [2.3031562, 48.9693888], [2.3031843, 48.9693657], [2.3032242, 48.9693521], [2.3032844, 48.9693514], [2.3032994, 48.969334], [2.3033548, 48.96927], [2.3035112, 48.9692454], [2.3038401, 48.9689174], [2.3037806, 48.9688894], [2.3040422, 48.9686243], [2.3039864, 48.9685901], [2.303952, 48.9685527], [2.3039523, 48.9685496], [2.303957, 48.9685025], [2.3040106, 48.968437], [2.3034657, 48.9679326], [2.3032475, 48.9678272], [2.3030018, 48.9676887], [2.3027966, 48.9675216], [2.3026594, 48.9673714], [2.3025744, 48.9672594], [2.302555, 48.9672339], [2.3022856, 48.9670684], [2.3017179, 48.9667197], [2.3010035, 48.9671203], [2.3004685, 48.9674379], [2.2991157, 48.9682361], [2.2988024, 48.9685279], [2.2979874, 48.969131], [2.2979911, 48.9691434], [2.297991, 48.9691544], [2.2979832, 48.9691658], [2.2979685, 48.9691777], [2.2979458, 48.9691857], [2.2979248, 48.9691871], [2.2979081, 48.9691832], [2.2973632, 48.9695831], [2.2972845, 48.9696627], [2.2970765, 48.9697849], [2.2970265, 48.9697999], [2.2969179, 48.9698142], [2.2966768, 48.969835], [2.2966756, 48.9698238], [2.2964575, 48.9698418], [2.2964151, 48.9698683], [2.2963927, 48.9698823], [2.296402, 48.9699171], [2.2965797, 48.9699398], [2.2965865, 48.9699291], [2.2966221, 48.9699363], [2.2966523, 48.9700029], [2.296487, 48.9700825], [2.2962843, 48.9701383], [2.2961524, 48.9701609], [2.2959766, 48.9701684], [2.2956269, 48.9701632], [2.295325, 48.9701493], [2.2950116, 48.9701114], [2.2949409, 48.9700913], [2.2948931, 48.9700648], [2.2948741, 48.9700082], [2.2949716, 48.9699567], [2.2950642, 48.9699246], [2.2950969, 48.9698848]]], [[[2.2950642, 48.9699246], [2.2951182, 48.9699309], [2.2951543, 48.9699245], [2.2951489, 48.9699074], [2.2951339, 48.9698938], [2.2950969, 48.9698848], [2.2950642, 48.9699246]]]]}}, {"type": "Feature", "properties": {"name": "Étang de la Folie"}, "geometry": {"type": "MultiPolygon", "coordinates": [[[[2.050392, 49.0286535], [2.0502873, 49.0286595], [2.0502021, 49.0286652], [2.0501596, 49.0286664], [2.0501196, 49.0286599], [2.0500834, 49.0286424], [2.0500559, 49.0286169], [2.050053, 49.0285965], [2.050066, 49.0285654], [2.0500742, 49.0285323], [2.0500714, 49.0285091], [2.0500489, 49.0284759], [2.04996, 49.0283997], [2.0499236, 49.0283482], [2.0499057, 49.0282796], [2.0498796, 49.0281926], [2.0498659, 49.0281679], [2.0498434, 49.0281394], [2.0498088, 49.0280952], [2.0497676, 49.0280541], [2.0497084, 49.0280078], [2.0495477, 49.0278923], [2.0494544, 49.0278369], [2.0493747, 49.0277982], [2.0493104, 49.0277744], [2.050392, 49.0286535]]], [[[2.0508826, 49.0287016], [2.0508123, 49.0286679], [2.0507773, 49.0286955], [2.0507037, 49.0286665], [2.0506331, 49.0286474], [2.0505783, 49.0286463], [2.0505152, 49.0286466], [2.0504684, 49.0286463], [2.050392, 49.0286535], [2.0508826, 49.0287016]]], [[[2.0515217, 49.0285565], [2.0514985, 49.0285071], [2.0514449, 49.0285162], [2.0513483, 49.0285373], [2.051275, 49.0285641], [2.051218, 49.0285984], [2.0511851, 49.0286331], [2.051167, 49.0286731], [2.051153, 49.0286951], [2.0511188, 49.028714], [2.051043, 49.0287364], [2.0510041, 49.0287439], [2.0509712, 49.0287413], [2.0509487, 49.0287333], [2.0508826, 49.0287016], [2.0515217, 49.0285565]]], [[[2.052404, 49.0290444], [2.0523519, 49.0290253], [2.0523395, 49.0290162], [2.0523657, 49.0286767], [2.0522417, 49.02868], [2.0522332, 49.0286331], [2.0522104, 49.0285944], [2.0521695, 49.0285452], [2.052142, 49.0285214], [2.0520941, 49.0285054], [2.0519395, 49.028493], [2.0517586, 49.0284697], [2.051649, 49.028468], [2.0516706, 49.0285313], [2.0515217, 49.0285565], [2.052404, 49.0290444]]], [[[2.043621, 49.0313228], [2.043964, 49.0317195], [2.044035, 49.0318118], [2.0440752, 49.0318925], [2.0441343, 49.032073], [2.0441719, 49.0321842], [2.0442644, 49.0323069], [2.044597, 49.032655], [2.0446522, 49.0327097], [2.0447136, 49.0327588], [2.0447904, 49.0327894], [2.0448947, 49.0327984], [2.0450154, 49.0328063], [2.0450944, 49.0327971], [2.045183, 49.032772], [2.0452461, 49.0327412], [2.0453343, 49.0326698], [2.0454486, 49.0325812], [2.0456565, 49.0324425], [2.0458147, 49.0323623], [2.045871, 49.0322788], [2.0459931, 49.0321926], [2.046112, 49.0321339], [2.0466782, 49.0318706], [2.0477352, 49.0314606], [2.0481452, 49.0312789], [2.0491804, 49.0308418], [2.0499909, 49.0305219], [2.050353, 49.0303865], [2.0504354, 49.0303502], [2.0504717, 49.0303188], [2.0504925, 49.0302766], [2.0505052, 49.0302449], [2.0505186, 49.0302229], [2.0505293, 49.0302014], [2.0505454, 49.0301869], [2.0505723, 49.0301798], [2.0505993, 49.0301792], [2.0506909, 49.0301944], [2.0507701, 49.0302199], [2.050834, 49.030228], [2.0508916, 49.0302247], [2.0509907, 49.0302062], [2.0510684, 49.0301716], [2.0522418, 49.0294349], [2.0522788, 49.0294021], [2.0523035, 49.0293526], [2.0523653, 49.0292249], [2.0524095, 49.029165], [2.0524518, 49.0291207], [2.0524625, 49.0291027], [2.0524668, 49.0290826], [2.0524632, 49.0290688], [2.0524451, 49.0290595], [2.052404, 49.0290444], [2.043621, 49.0313228]]], [[[2.0435808, 49.0338527], [2.0436528, 49.0337207], [2.0437427, 49.0334895], [2.0437869, 49.0333637], [2.0438146, 49.0332948], [2.0438446, 49.0332644], [2.0440659, 49.0331725], [2.0441864, 49.0331181], [2.0442355, 49.0330912], [2.0442469, 49.0330762], [2.0442483, 49.0330512], [2.0442396, 49.0330243], [2.0442226, 49.033014], [2.0441879, 49.0330081], [2.0441577, 49.0330054], [2.0441055, 49.0330125], [2.0440552, 49.0330186], [2.044025, 49.0330199], [2.0439653, 49.0330133], [2.0439203, 49.0330152], [2.0438869, 49.0330239], [2.0438567, 49.0330406], [2.0438272, 49.0330762], [2.0437728, 49.0331102], [2.0437219, 49.0331285], [2.0436776, 49.0331404], [2.0436124, 49.0331517], [2.0434993, 49.033165], [2.0433906, 49.033169], [2.0432986, 49.0331601], [2.0432264, 49.033136], [2.0431399, 49.0331], [2.0430628, 49.0330427], [2.0430024, 49.0329852], [2.0429575, 49.0329166], [2.0429052, 49.0328234], [2.042882, 49.0327511], [2.0428676, 49.0326559], [2.0428435, 49.032433], [2.0428341, 49.0323543], [2.0428142, 49.032313], [2.0427811, 49.0322844], [2.0426926, 49.032244], [2.0421479, 49.0320689], [2.0419521, 49.0320071], [2.041734, 49.0319571], [2.0411389, 49.0318353], [2.0410632, 49.031832], [2.0409411, 49.0318347], [2.0408658, 49.0318349], [2.0408137, 49.0318237], [2.0407467, 49.0318048], [2.0407024, 49.031778], [2.0406749, 49.0317459], [2.0406662, 49.0317019], [2.0406635, 49.0316588], [2.0406742, 49.0316237], [2.0407065, 49.031608], [2.0408244, 49.0316056], [2.0410001, 49.0315995], [2.0411863, 49.0315811], [2.0413401, 49.0315498], [2.0414655, 49.0315228], [2.0415607, 49.0314953], [2.0416211, 49.0314747], [2.0417216, 49.0314258], [2.0422487, 49.0311304], [2.0423251, 49.031097], [2.042362, 49.0310912], [2.0424049, 49.0310942], [2.0424968, 49.0311242], [2.0426162, 49.0311761], [2.04271, 49.0312025], [2.0428616, 49.031235], [2.0430507, 49.0312579], [2.0432813, 49.0312799], [2.043445, 49.0312913], [2.0435643, 49.0313054], [2.043621, 49.0313228], [2.0435808, 49.0338527]]], [[[2.0406128, 49.0340968], [2.0405153, 49.0340302], [2.0404469, 49.0339603], [2.0404315, 49.0339339], [2.0404281, 49.0339111], [2.0404375, 49.0338834], [2.040459, 49.0338653], [2.0404925, 49.0338539], [2.0405437, 49.0338418], [2.0406883, 49.0338253], [2.0408338, 49.0337937], [2.0409069, 49.0337664], [2.0409378, 49.0337502], [2.0409592, 49.0337313], [2.0409713, 49.0336917], [2.0409773, 49.0336253], [2.0409673, 49.0335616], [2.0409401, 49.0335173], [2.0409083, 49.0334864], [2.0407232, 49.0333822], [2.0406477, 49.0333669], [2.0405589, 49.0333607], [2.0404221, 49.0333567], [2.0403504, 49.0333585], [2.0402931, 49.0333654], [2.0401137, 49.0334051], [2.040052, 49.0334147], [2.0400169, 49.0334148], [2.0399909, 49.0334103], [2.0399567, 49.0334002], [2.0399225, 49.0333804], [2.0399112, 49.0333643], [2.0399051, 49.0333444], [2.0399091, 49.0333264], [2.040001, 49.033238], [2.0400598, 49.0331944], [2.0401217, 49.0331633], [2.0401901, 49.0331408], [2.0402632, 49.0331294], [2.0403758, 49.0331193], [2.0404442, 49.0331232], [2.0405247, 49.0331488], [2.0406722, 49.0332204], [2.0409659, 49.0333721], [2.0410375, 49.0334162], [2.0413978, 49.0336618], [2.0416083, 49.033799], [2.0417324, 49.0338842], [2.0417652, 49.0339199], [2.0417867, 49.033955], [2.0418054, 49.0339995], [2.0418202, 49.0340386], [2.041829, 49.0340721], [2.0418397, 49.0341058], [2.0418591, 49.0341291], [2.0418799, 49.034141], [2.0419483, 49.0341691], [2.0420542, 49.0342104], [2.0421964, 49.0342544], [2.0422862, 49.0342799], [2.0424834, 49.0343335], [2.0426349, 49.0343669], [2.0427328, 49.0343819], [2.0427918, 49.0343793], [2.0428393, 49.0343703], [2.0428964, 49.0343467], [2.0434597, 49.0339695], [2.0435308, 49.0339115], [2.0435808, 49.0338527], [2.0406128, 49.0340968]]], [[[2.0407185, 49.0341392], [2.0406642, 49.0341252], [2.0406246, 49.0341049], [2.0406128, 49.0340968], [2.0407185, 49.0341392]]], [[[2.0411091, 49.0342864], [2.0409237, 49.0342017], [2.0408265, 49.0341682], [2.0407674, 49.0341515], [2.0407185, 49.0341392], [2.0411091, 49.0342864]]], [[[2.0429869, 49.0351666], [2.0429313, 49.0351288], [2.0428817, 49.0351051], [2.0428099, 49.0350734], [2.0427617, 49.0350444], [2.0427147, 49.035007], [2.0426779, 49.034956], [2.0426443, 49.0348932], [2.0426222, 49.0347745], [2.0426165, 49.0347197], [2.0426249, 49.0346747], [2.0426564, 49.0345995], [2.0426732, 49.0345516], [2.0426747, 49.0345187], [2.0426524, 49.0344769], [2.0426057, 49.0344383], [2.042529, 49.0344048], [2.04192, 49.0342167], [2.0418564, 49.0342078], [2.041778, 49.0342078], [2.0416861, 49.0342307], [2.0415453, 49.0342887], [2.041476, 49.0343183], [2.0414078, 49.0343406], [2.0413488, 49.0343467], [2.0412777, 49.0343406], [2.0411847, 49.0343186], [2.0429869, 49.0351666]]], [[[2.0430309, 49.0352759], [2.0430091, 49.0352066], [2.0430031, 49.0351868], [2.0429869, 49.0351666], [2.0430309, 49.0352759]]], [[[2.0424791, 49.036032], [2.0425015, 49.0360054], [2.0425521, 49.0359128], [2.042588, 49.0358348], [2.0426115, 49.0357944], [2.0426511, 49.0357514], [2.0427711, 49.0356766], [2.0429957, 49.0355394], [2.043056, 49.0354954], [2.0430738, 49.0354655], [2.0430782, 49.035426], [2.0430309, 49.0352759], [2.0424791, 49.036032]]], [[[2.0440957, 49.0368034], [2.0440599, 49.0367813], [2.0439881, 49.0367443], [2.0438822, 49.0367021], [2.0437782, 49.0366694], [2.0436595, 49.0366485], [2.0434624, 49.0366292], [2.04319, 49.0366028], [2.0430011, 49.036587], [2.0427747, 49.0365665], [2.0426296, 49.0365448], [2.0424633, 49.0364999], [2.0423506, 49.0364621], [2.0422541, 49.0364217], [2.0422068, 49.0363948], [2.0421588, 49.0363584], [2.0421293, 49.0363329], [2.0421179, 49.0363144], [2.0421199, 49.0362964], [2.0421335, 49.0362817], [2.042303, 49.0361909], [2.0423789, 49.0361397], [2.0424087, 49.0361095], [2.0440957, 49.0368034]]], [[[2.0444317, 49.037102], [2.0443502, 49.0369995], [2.0442959, 49.0369501], [2.0441946, 49.0368692], [2.0444317, 49.037102]]], [[[2.0464896, 49.0382254], [2.04615, 49.0382055], [2.0460065, 49.0381902], [2.0457899, 49.0381573], [2.0456819, 49.038133], [2.045584, 49.0381005], [2.0454501, 49.0380502], [2.0453245, 49.0379937], [2.0451958, 49.0379154], [2.0450576, 49.0378086], [2.0449927, 49.0377507], [2.0448109, 49.0376178], [2.0447559, 49.0375695], [2.0447271, 49.0375339], [2.0446925, 49.0374851], [2.0446385, 49.0374055], [2.04455, 49.0372745], [2.0444489, 49.0371393], [2.0464896, 49.0382254]]], [[[2.0533672, 49.0353271], [2.0533725, 49.0353312], [2.0534402, 49.0353372], [2.0535375, 49.0353471], [2.0536695, 49.0353794], [2.05375, 49.0354115], [2.0538234, 49.0354449], [2.0538747, 49.0354827], [2.0539116, 49.0355139], [2.05398, 49.0355754], [2.0540224, 49.0356299], [2.0541285, 49.0357914], [2.0542496, 49.0360291], [2.0543066, 49.0361421], [2.0543247, 49.0362045], [2.0543324, 49.036265], [2.0543481, 49.0363777], [2.0543388, 49.0364793], [2.0543301, 49.0365327], [2.0542891, 49.0365931], [2.0542637, 49.0366318], [2.0542529, 49.0366793], [2.0542476, 49.03674], [2.0542395, 49.0367901], [2.0542274, 49.0368305], [2.0542113, 49.0368824], [2.0542034, 49.0369518], [2.054206, 49.0370512], [2.0542261, 49.0372103], [2.0542677, 49.0374486], [2.0542851, 49.0375453], [2.0542709, 49.0375884], [2.0541899, 49.0377211], [2.0540692, 49.0378679], [2.0539497, 49.0380002], [2.0537929, 49.0381414], [2.0537151, 49.0382029], [2.0536337, 49.0382463], [2.0535059, 49.0382812], [2.053353, 49.0383128], [2.0532051, 49.038321], [2.0530258, 49.0383084], [2.0529279, 49.0383023], [2.0528146, 49.0383103], [2.0527267, 49.0383321], [2.0526396, 49.0383691], [2.052532, 49.038419], [2.0524049, 49.0384948], [2.0523626, 49.0385273], [2.0522688, 49.0386021], [2.0521621, 49.03869], [2.0520381, 49.0387814], [2.0519248, 49.038864], [2.0518014, 49.0389432], [2.0517303, 49.0389757], [2.0516659, 49.0390126], [2.0515131, 49.0391268], [2.0514111, 49.0392126], [2.0512958, 49.0393098], [2.0511159, 49.0394984], [2.0510752, 49.0395089], [2.0510188, 49.0395159], [2.0509625, 49.0395142], [2.0508824, 49.0395021], [2.0506688, 49.0394531], [2.0505749, 49.0394342], [2.0505435, 49.03943], [2.0505059, 49.0394355], [2.0504603, 49.0394588], [2.0503919, 49.0395001], [2.050332, 49.0395368], [2.0502873, 49.0395652], [2.050239, 49.0395858], [2.0501988, 49.0395977], [2.0501435, 49.0396057], [2.0500841, 49.039603], [2.0499764, 49.0395914], [2.0498762, 49.0395687], [2.0498186, 49.039552], [2.0497897, 49.0395313], [2.0497696, 49.0395102], [2.0497503, 49.0394696], [2.0497374, 49.0392869], [2.0497188, 49.0391959], [2.0497032, 49.0391638], [2.0496777, 49.0391295], [2.0496456, 49.0391056], [2.0495751, 49.0390768], [2.0490038, 49.0389133], [2.0487007, 49.038835], [2.0484245, 49.0387594], [2.0478512, 49.0385633], [2.047183, 49.0383583], [2.0469211, 49.0382882], [2.0466489, 49.0382416], [2.0465559, 49.0382321], [2.0533672, 49.0353271]]], [[[2.0532934, 49.0352114], [2.0533081, 49.035244], [2.0533437, 49.035309], [2.0533672, 49.0353271], [2.0532934, 49.0352114]]], [[[2.0552754, 49.0332777], [2.0552266, 49.0333809], [2.0551624, 49.0334939], [2.0551381, 49.0335189], [2.0551065, 49.0335418], [2.055014, 49.0335976], [2.0548846, 49.0336851], [2.0547458, 49.0337576], [2.0546291, 49.0337972], [2.05452, 49.0338278], [2.0544145, 49.0338412], [2.0543066, 49.0338482], [2.0541698, 49.0338658], [2.0540176, 49.0339133], [2.0538965, 49.0339676], [2.0537832, 49.034033], [2.0537218, 49.034112], [2.0536374, 49.0341986], [2.0535803, 49.0342625], [2.0533618, 49.0345929], [2.0532169, 49.0347969], [2.0531888, 49.0348554], [2.0531741, 49.0349012], [2.053178, 49.0349516], [2.0532064, 49.0349936], [2.0532337, 49.0350475], [2.0532525, 49.0351161], [2.0532759, 49.0351728], [2.0532934, 49.0352114], [2.0552754, 49.0332777]]], [[[2.0552877, 49.0329828], [2.0553043, 49.0330309], [2.0553064, 49.033089], [2.0553036, 49.0332025], [2.0552754, 49.0332777], [2.0552877, 49.0329828]]], [[[2.0553962, 49.031494], [2.055309, 49.0315608], [2.0551434, 49.0317173], [2.0550721, 49.0317975], [2.0547387, 49.0322157], [2.0547223, 49.0322471], [2.0547143, 49.0322901], [2.0547304, 49.0323724], [2.0547486, 49.0324128], [2.0547845, 49.032457], [2.0551924, 49.0328845], [2.0552319, 49.0329338], [2.0552877, 49.0329828], [2.0553962, 49.031494]]], [[[2.0569229, 49.0305095], [2.0569807, 49.0305817], [2.0570102, 49.0306327], [2.0570278, 49.0306894], [2.0570263, 49.0307307], [2.0570055, 49.0307743], [2.0569599, 49.0308231], [2.056921, 49.0308574], [2.0568563, 49.0308955], [2.0567232, 49.0309523], [2.0565982, 49.0310142], [2.0564952, 49.0310772], [2.0563766, 49.0311572], [2.056274, 49.0312385], [2.0562183, 49.0312709], [2.0561425, 49.0312988], [2.056052, 49.0313177], [2.0559809, 49.0313269], [2.0558783, 49.0313317], [2.0558073, 49.0313427], [2.0556752, 49.0313691], [2.0555907, 49.0313964], [2.0555511, 49.0314122], [2.0555226, 49.0314275], [2.0553962, 49.031494], [2.0569229, 49.0305095]]], [[[2.0561298, 49.0298521], [2.0561533, 49.0298684], [2.0561734, 49.0298822], [2.0562124, 49.0299139], [2.056282, 49.0299824], [2.0563933, 49.0300664], [2.0564818, 49.0301337], [2.0566005, 49.0302053], [2.0566689, 49.0302445], [2.0567337, 49.0303091], [2.0569229, 49.0305095], [2.0561298, 49.0298521]]], [[[2.0560265, 49.0295329], [2.0560255, 49.0295656], [2.0560195, 49.0296039], [2.0560087, 49.0296498], [2.0560091, 49.0296747], [2.0560212, 49.0297088], [2.0560373, 49.0297362], [2.0561006, 49.0298242], [2.0560265, 49.0295329]]], [[[2.0560064, 49.0294742], [2.0560057, 49.0294896], [2.0560094, 49.0295001], [2.0560141, 49.0295078], [2.0560249, 49.0295162], [2.0560265, 49.0295329], [2.0560064, 49.0294742]]], [[[2.0557596, 49.0292379], [2.0558066, 49.0292824], [2.0558874, 49.0293394], [2.055933, 49.0293797], [2.0559836, 49.0294373], [2.0560035, 49.0294643], [2.0560064, 49.0294742], [2.0557596, 49.0292379]]], [[[2.0553989, 49.0290068], [2.055421, 49.0290164], [2.0554344, 49.0290222], [2.0554531, 49.0290338], [2.0553989, 49.0290068]]], [[[2.053925, 49.0284038], [2.0540316, 49.0283992], [2.0541229, 49.0284009], [2.0541782, 49.0284035], [2.0542234, 49.0284128], [2.0542647, 49.0284274], [2.0542974, 49.0284471], [2.0552078, 49.0289558], [2.0552212, 49.0289607], [2.0552393, 49.0289651], [2.0553358, 49.028981], [2.0553771, 49.0289974], [2.0553989, 49.0290068], [2.053925, 49.0284038]]], [[[2.0537939, 49.0284043], [2.0538018, 49.0284089], [2.0538069, 49.0284194], [2.0538168, 49.0284283], [2.0538304, 49.0284348], [2.0538464, 49.0284382], [2.0538631, 49.0284382], [2.0538791, 49.0284348], [2.0538927, 49.0284283], [2.0539026, 49.0284194], [2.0539078, 49.028409], [2.0539156, 49.0284051], [2.053925, 49.0284038], [2.0537939, 49.0284043]]], [[[2.0530124, 49.0284588], [2.0530456, 49.0284612], [2.0530738, 49.0284583], [2.0530981, 49.0284527], [2.0531214, 49.0284427], [2.0531344, 49.028435], [2.0531519, 49.0284223], [2.0531646, 49.0284078], [2.0531763, 49.0284006], [2.0531981, 49.028397], [2.0532367, 49.0283968], [2.0532741, 49.0283996], [2.0533118, 49.0284082], [2.0533435, 49.0284207], [2.0533654, 49.0284276], [2.0533859, 49.0284311], [2.053408, 49.0284298], [2.0534352, 49.0284208], [2.0534623, 49.0284117], [2.0534965, 49.0284012], [2.0535219, 49.0283964], [2.0535549, 49.0283944], [2.0536176, 49.0283942], [2.0537812, 49.0284012], [2.0537939, 49.0284043], [2.0530124, 49.0284588]]], [[[2.0529018, 49.0283122], [2.052891, 49.0283447], [2.0528897, 49.0283768], [2.0528938, 49.0284006], [2.0529111, 49.0284243], [2.0529346, 49.0284397], [2.052975, 49.0284525], [2.0530124, 49.0284588], [2.0529018, 49.0283122]]], [[[2.0525388, 49.0277202], [2.0525423, 49.0277338], [2.052539, 49.0277472], [2.0525239, 49.02777], [2.0525155, 49.0277911], [2.0525149, 49.0277994], [2.0525208, 49.0278156], [2.0525377, 49.0278349], [2.0526229, 49.0279066], [2.0526419, 49.0279147], [2.0526701, 49.0279226], [2.0526848, 49.0279292], [2.0526915, 49.0279373], [2.0526936, 49.0279461], [2.0526919, 49.0279576], [2.0526942, 49.0279721], [2.0527029, 49.0279879], [2.0529586, 49.0281885], [2.0529655, 49.0282005], [2.0529658, 49.0282189], [2.0529517, 49.0282383], [2.0529185, 49.0282787], [2.0529018, 49.0283122], [2.0525388, 49.0277202]]], [[[2.0523429, 49.0275043], [2.0523586, 49.0275194], [2.0524001, 49.0275713], [2.0525388, 49.0277202], [2.0523429, 49.0275043]]], [[[2.0517152, 49.0272282], [2.0517132, 49.0272512], [2.0517112, 49.0272811], [2.0517202, 49.0273141], [2.0517528, 49.027342], [2.0517615, 49.0273747], [2.0517819, 49.0274075], [2.0518074, 49.0274321], [2.0518309, 49.0274519], [2.0518587, 49.0274649], [2.0518882, 49.0274715], [2.0519271, 49.0274766], [2.051968, 49.027479], [2.0520566, 49.027483], [2.0521839, 49.0274856], [2.0522584, 49.0274849], [2.0522949, 49.0274886], [2.0523224, 49.0274952], [2.0523429, 49.0275043], [2.0517152, 49.0272282]]], [[[2.0517016, 49.0271647], [2.0516921, 49.0271822], [2.0516591, 49.0272082], [2.0516889, 49.0272275], [2.0516961, 49.0272229], [2.0517152, 49.0272282], [2.0517016, 49.0271647]]], [[[2.0513923, 49.0270301], [2.0515767, 49.0271057], [2.051682, 49.0271461], [2.0517019, 49.0271611], [2.0517016, 49.0271647], [2.0513923, 49.0270301]]], [[[2.0502524, 49.0272178], [2.0503047, 49.0272007], [2.0503362, 49.0271839], [2.0503588, 49.027167], [2.0503815, 49.0271263], [2.0504053, 49.0270727], [2.0504355, 49.0270123], [2.0504713, 49.0269552], [2.0504868, 49.0269287], [2.050519, 49.0268916], [2.0505642, 49.0268502], [2.0505987, 49.0268243], [2.0506547, 49.0267927], [2.050699, 49.0267772], [2.050764, 49.0267612], [2.0508079, 49.0267583], [2.0508693, 49.0267671], [2.0509192, 49.0267909], [2.0510343, 49.026852], [2.0512559, 49.0269627], [2.051309, 49.0269889], [2.0502524, 49.0272178]]], [[[2.04935, 49.0270396], [2.0494759, 49.0270494], [2.0496556, 49.0270943], [2.0498045, 49.0271461], [2.0499466, 49.0271971], [2.0499973, 49.0272101], [2.0500553, 49.02722], [2.0500985, 49.0272233], [2.0501398, 49.0272244], [2.0501944, 49.0272242], [2.04935, 49.0270396]]]]}}]}