{"type":"FeatureCollection","features":[{"type":"Feature","properties":{"name":"La Brague"},"geometry":{"type":"LineString","coordinates":[[7.0630,43.6305],[7.0660,43.6279],[7.0659,43.6265],[7.0681,43.6255],[7.0718,43.6265],[7.0787,43.6239],[7.0802,43.6249]]}},{"type":"Feature","properties":{"name":"La Brague"},"geometry":{"type":"LineString","coordinates":[[7.0053,43.6395],[7.0054,43.6395]]}},{"type":"Feature","properties":{"name":"La Brague"},"geometry":{"type":"LineString","coordinates":[[7.0175,43.6388],[7.0246,43.6395],[7.0294,43.6365],[7.0378,43.6353],[7.0395,43.6323],[7.0452,43.6348],[7.0489,43.6347]]}},{"type":"Feature","properties":{"name":"La Brague"},"geometry":{"type":"LineString","coordinates":[[7.1113,43.6126],[7.1271,43.6079]]}},{"type":"Feature","properties":{"name":"La Brague"},"geometry":{"type":"LineString","coordinates":[[7.1111,43.6129],[7.1113,43.6126]]}},{"type":"Feature","properties":{"name":"La Brague"},"geometry":{"type":"LineString","coordinates":[[6.9883,43.6415],[6.9923,43.6399],[6.9977,43.6400],[6.9990,43.6410],[7.0025,43.6401],[7.0033,43.6409],[7.0053,43.6395]]}},{"type":"Feature","properties":{"name":"La Brague"},"geometry":{"type":"LineString","coordinates":[[7.0802,43.6249],[7.0802,43.6249]]}},{"type":"Feature","properties":{"name":"La Brague"},"geometry":{"type":"LineString","coordinates":[[7.0802,43.6249],[7.0818,43.6257],[7.0790,43.6276],[7.0799,43.6290],[7.0839,43.6287],[7.0853,43.6305],[7.0867,43.6305],[7.0871,43.6268],[7.0899,43.6255],[7.0961,43.6248],[7.0965,43.6233],[7.0992,43.6231],[7.1044,43.6172],[7.1106,43.6153],[7.1111,43.6129]]}},{"type":"Feature","properties":{"name":"La Brague"},"geometry":{"type":"LineString","coordinates":[[7.0553,43.6324],[7.0582,43.6325],[7.0601,43.6308],[7.0632,43.6319],[7.0630,43.6305]]}},{"type":"Feature","properties":{"name":"La Brague"},"geometry":{"type":"LineString","coordinates":[[7.0496,43.6347],[7.0520,43.6347],[7.0553,43.6324]]}},{"type":"Feature","properties":{"name":"La Brague"},"geometry":{"type":"LineString","coordinates":[[7.0489,43.6347],[7.0496,43.6347]]}},{"type":"Feature","properties":{"name":"La Brague"},"geometry":{"type":"LineString","coordinates":[[7.0054,43.6395],[7.0099,43.6398],[7.0133,43.6375],[7.0175,43.6388]]}},{"type":"Feature","properties":{"name":"La Galange"},"geometry":{"type":"LineString","coordinates":[[6.6646,43.9288],[6.6692,43.9306],[6.6723,43.9337],[6.6781,43.9359],[6.6876,43.9374],[6.6889,43.9406],[6.6877,43.9414],[6.6898,43.9444],[6.6885,43.9452],[6.6889,43.9472],[6.6878,43.9476],[6.6867,43.9512],[6.6849,43.9518],[6.6842,43.9555]]}},{"type":"Feature","properties":{"name":"Le Monar"},"geometry":{"type":"LineString","coordinates":[[7.2094,44.0208],[7.2058,44.0189],[7.2065,44.0173],[7.2050,44.0158],[7.2002,44.0154],[7.2001,44.0142],[7.1981,44.0134],[7.1971,44.0115],[7.1913,44.0089],[7.1887,44.0057],[7.1851,44.0050],[7.1769,43.9990],[7.1733,43.9979],[7.1734,43.9971],[7.1589,43.9928],[7.1529,43.9931],[7.1501,43.9916],[7.1499,43.9905],[7.1483,43.9900],[7.1493,43.9887],[7.1485,43.9855],[7.1467,43.9851],[7.1439,43.9819],[7.1444,43.9800],[7.1426,43.9773],[7.1431,43.9757],[7.1397,43.9744]]}},{"type":"Feature","properties":{"name":"La Banquière"},"geometry":{"type":"LineString","coordinates":[[7.2788,43.7733],[7.2786,43.7708],[7.2809,43.7687],[7.2798,43.7665],[7.2821,43.7637],[7.2775,43.7602],[7.2789,43.7579],[7.2781,43.7575],[7.2803,43.7549]]}},{"type":"Feature","properties":{"name":"La Banquière"},"geometry":{"type":"LineString","coordinates":[[7.2803,43.7549],[7.2766,43.7526],[7.2834,43.7509]]}},{"type":"Feature","properties":{"name":"La Banquière"},"geometry":{"type":"LineString","coordinates":[[7.2839,43.7505],[7.2868,43.7481],[7.2884,43.7442],[7.2873,43.7383],[7.2881,43.7349],[7.2852,43.7335],[7.2847,43.7311]]}},{"type":"Feature","properties":{"name":"La Banquière"},"geometry":{"type":"LineString","coordinates":[[7.2834,43.7509],[7.2839,43.7505]]}},{"type":"Feature","properties":{"name":"La Lévensa"},"geometry":{"type":"LineString","coordinates":[[7.6398,44.0679],[7.6357,44.0651],[7.6328,44.0644],[7.6273,44.0638],[7.6235,44.0648],[7.6222,44.0637],[7.6150,44.0637],[7.6025,44.0610],[7.5996,44.0620],[7.5932,44.0605],[7.5883,44.0581]]}},{"type":"Feature","properties":{"name":"La Lévensa"},"geometry":{"type":"LineString","coordinates":[[7.6117,44.0629],[7.6107,44.0625]]}},{"type":"Feature","properties":{"name":"Roia"},"geometry":{"type":"LineString","coordinates":[[7.5730,43.8625],[7.5733,43.8617],[7.5768,43.8609],[7.5766,43.8593],[7.5779,43.8584],[7.5754,43.8560],[7.5716,43.8556],[7.5718,43.8540],[7.5732,43.8533],[7.5728,43.8516],[7.5753,43.8500],[7.5778,43.8504],[7.5803,43.8483],[7.5870,43.8456],[7.5901,43.8430],[7.5896,43.8417],[7.5834,43.8395],[7.5815,43.8375],[7.5803,43.8358],[7.5801,43.8328],[7.5839,43.8271],[7.5841,43.8224],[7.5871,43.8208],[7.5906,43.8168],[7.5911,43.8078],[7.6059,43.7911],[7.6064,43.7881]]}},{"type":"Feature","properties":{"name":"Roia"},"geometry":{"type":"LineString","coordinates":[[7.5326,43.8904],[7.5351,43.8900],[7.5372,43.8862],[7.5396,43.8854],[7.5391,43.8840],[7.5407,43.8830],[7.5349,43.8814],[7.5368,43.8779],[7.5395,43.8784],[7.5405,43.8805],[7.5413,43.8804],[7.5411,43.8769],[7.5379,43.8762],[7.5398,43.8742],[7.5400,43.8719],[7.5413,43.8713],[7.5432,43.8735],[7.5456,43.8718]]}},{"type":"Feature","properties":{"name":"Roia"},"geometry":{"type":"LineString","coordinates":[[7.5456,43.8718],[7.5485,43.8713],[7.5503,43.8688],[7.5536,43.8678],[7.5558,43.8704],[7.5575,43.8708],[7.5600,43.8685],[7.5656,43.8678],[7.5641,43.8657],[7.5645,43.8648],[7.5657,43.8651],[7.5662,43.8666],[7.5676,43.8665],[7.5698,43.8645],[7.5727,43.8646],[7.5730,43.8625]]}},{"type":"Feature","properties":{"name":"La Gironde"},"geometry":{"type":"LineString","coordinates":[[6.8024,43.8254],[6.8086,43.8257],[6.8136,43.8270],[6.8217,43.8269],[6.8247,43.8292],[6.8300,43.8309],[6.8299,43.8318],[6.8345,43.8320],[6.8349,43.8327],[6.8394,43.8321],[6.8448,43.8347],[6.8460,43.8341],[6.8577,43.8369],[6.8637,43.8417],[6.8674,43.8425],[6.8677,43.8437],[6.8694,43.8427],[6.8701,43.8438],[6.8735,43.8445],[6.8739,43.8459],[6.8755,43.8454],[6.8774,43.8470],[6.8795,43.8461],[6.8804,43.8474],[6.8861,43.8474],[6.8917,43.8489],[6.8934,43.8468],[6.8962,43.8465],[6.8994,43.8489],[6.9002,43.8485],[6.9009,43.8496],[6.9051,43.8505],[6.9069,43.8519],[6.9138,43.8532]]}},{"type":"Feature","properties":{"name":"Le Loup"},"geometry":{"type":"LineString","coordinates":[[6.9841,43.7731],[6.9837,43.7715]]}},{"type":"Feature","properties":{"name":"Le Loup"},"geometry":{"type":"LineString","coordinates":[[6.9767,43.7792],[6.9794,43.7751],[6.9841,43.7732],[6.9846,43.7724],[6.9835,43.7709]]}},{"type":"Feature","properties":{"name":"Le Loup"},"geometry":{"type":"LineString","coordinates":[[7.0360,43.7005],[7.0436,43.6996],[7.0504,43.6970],[7.0524,43.6978],[7.0532,43.6962],[7.0568,43.6974],[7.0597,43.6964],[7.0622,43.6972],[7.0629,43.6954],[7.0613,43.6947],[7.0613,43.6937]]}},{"type":"Feature","properties":{"name":"Le Loup"},"geometry":{"type":"LineString","coordinates":[[6.9905,43.7559],[6.9924,43.7546],[6.9941,43.7507],[6.9964,43.7511],[6.9971,43.7486],[6.9991,43.7465],[7.0003,43.7396],[6.9985,43.7371],[6.9981,43.7322]]}},{"type":"Feature","properties":{"name":"Le Loup"},"geometry":{"type":"LineString","coordinates":[[6.9996,43.7031],[7.0006,43.7008],[7.0040,43.7004],[7.0074,43.6972],[7.0097,43.6978],[7.0128,43.6970],[7.0160,43.6980],[7.0181,43.6970],[7.0238,43.6980]]}},{"type":"Feature","properties":{"name":"Le Loup"},"geometry":{"type":"LineString","coordinates":[[6.9835,43.7709],[6.9874,43.7620],[6.9907,43.7605],[6.9905,43.7559]]}},{"type":"Feature","properties":{"name":"Le Loup"},"geometry":{"type":"LineString","coordinates":[[6.8598,43.7830],[6.8792,43.7882],[6.8811,43.7876],[6.8820,43.7863],[6.8880,43.7857],[6.8991,43.7887],[6.9008,43.7903],[6.9027,43.7898],[6.9032,43.7908],[6.9061,43.7897],[6.9079,43.7900],[6.9082,43.7888],[6.9093,43.7893],[6.9101,43.7882],[6.9168,43.7879],[6.9223,43.7880],[6.9289,43.7899],[6.9290,43.7888],[6.9337,43.7901],[6.9507,43.7889],[6.9649,43.7902],[6.9665,43.7886],[6.9715,43.7874],[6.9767,43.7792]]}},{"type":"Feature","properties":{"name":"Le Loup"},"geometry":{"type":"LineString","coordinates":[[6.8165,43.7703],[6.8177,43.7725],[6.8200,43.7739],[6.8302,43.7755],[6.8333,43.7773],[6.8387,43.7774],[6.8432,43.7794],[6.8493,43.7802],[6.8525,43.7824],[6.8551,43.7820],[6.8558,43.7831],[6.8575,43.7821],[6.8598,43.7830]]}},{"type":"Feature","properties":{"name":"Le Loup"},"geometry":{"type":"LineString","coordinates":[[7.0728,43.6890],[7.0716,43.6864],[7.0743,43.6851],[7.0746,43.6832],[7.0783,43.6807],[7.0812,43.6804],[7.0822,43.6794],[7.0848,43.6821],[7.0869,43.6814],[7.0892,43.6826],[7.0887,43.6807],[7.0926,43.6767],[7.0963,43.6748],[7.0972,43.6731],[7.0997,43.6735],[7.1010,43.6710],[7.1028,43.6701],[7.1092,43.6695],[7.1137,43.6645],[7.1146,43.6614],[7.1194,43.6590],[7.1219,43.6564],[7.1246,43.6564],[7.1275,43.6577],[7.1288,43.6571],[7.1305,43.6553],[7.1299,43.6531],[7.1305,43.6519],[7.1344,43.6506],[7.1330,43.6495],[7.1363,43.6496],[7.1456,43.6419]]}},{"type":"Feature","properties":{"name":"Le Loup"},"geometry":{"type":"LineString","coordinates":[[7.0613,43.6937],[7.0658,43.6934],[7.0660,43.6882],[7.0678,43.6895],[7.0707,43.6883],[7.0728,43.6890]]}},{"type":"Feature","properties":{"name":"Le Loup"},"geometry":{"type":"LineString","coordinates":[[6.9981,43.7322],[6.9954,43.7267],[6.9928,43.7237],[6.9908,43.7171]]}},{"type":"Feature","properties":{"name":"Le Loup"},"geometry":{"type":"LineString","coordinates":[[7.0238,43.6980],[7.0284,43.7001],[7.0360,43.7005]]}},{"type":"Feature","properties":{"name":"Le Loup"},"geometry":{"type":"LineString","coordinates":[[6.9908,43.7171],[6.9908,43.7137],[6.9934,43.7088],[6.9952,43.7089],[6.9969,43.7067],[6.9987,43.7062],[7.0000,43.7044],[6.9996,43.7031]]}},{"type":"Feature","properties":{"name":"Le Bachelard"},"geometry":{"type":"LineString","coordinates":[[6.7429,44.3095],[6.7289,44.3158],[6.7261,44.3157],[6.7218,44.3176],[6.7067,44.3201],[6.6978,44.3195],[6.6925,44.3177],[6.6891,44.3186],[6.6817,44.3174],[6.6644,44.3221],[6.6540,44.3182],[6.6490,44.3190],[6.6390,44.3174],[6.6299,44.3182],[6.6250,44.3201],[6.6193,44.3203],[6.6155,44.3229]]}},{"type":"Feature","properties":{"name":"Le Bachelard"},"geometry":{"type":"LineString","coordinates":[[6.6155,44.3229],[6.6131,44.3278],[6.6142,44.3307],[6.6134,44.3320],[6.6166,44.3361],[6.6168,44.3384],[6.6184,44.3387],[6.6199,44.3408],[6.6195,44.3428],[6.6213,44.3472],[6.6205,44.3489],[6.6251,44.3574],[6.6247,44.3592],[6.6252,44.3610],[6.6267,44.3622],[6.6274,44.3685],[6.6253,44.3774],[6.6197,44.3821],[6.6176,44.3854]]}},{"type":"Feature","properties":{"name":"L\u0027Artuby"},"geometry":{"type":"LineString","coordinates":[[6.6614,43.7895],[6.6569,43.7902],[6.6555,43.7884],[6.6510,43.7897],[6.6530,43.7859],[6.6527,43.7840],[6.6496,43.7820],[6.6490,43.7805],[6.6437,43.7803],[6.6459,43.7744],[6.6405,43.7663],[6.6284,43.7672],[6.6244,43.7638],[6.6198,43.7633],[6.6175,43.7648],[6.6128,43.7650],[6.6116,43.7640],[6.6078,43.7640],[6.6055,43.7630],[6.6013,43.7637],[6.5965,43.7621],[6.5922,43.7622],[6.5881,43.7595],[6.5836,43.7586],[6.5797,43.7616],[6.5750,43.7636],[6.5724,43.7629],[6.5679,43.7637],[6.5658,43.7617],[6.5677,43.7594],[6.5670,43.7554],[6.5647,43.7560],[6.5641,43.7551],[6.5567,43.7530],[6.5513,43.7483],[6.5481,43.7479],[6.5465,43.7460],[6.5426,43.7452],[6.5394,43.7426],[6.5369,43.7423],[6.5324,43.7395],[6.5341,43.7387],[6.5362,43.7352],[6.5389,43.7339],[6.5411,43.7290],[6.5410,43.7254],[6.5379,43.7247],[6.5382,43.7233],[6.5352,43.7209],[6.5359,43.7191],[6.5347,43.7185],[6.5345,43.7164],[6.5217,43.7162],[6.5182,43.7125]]}},{"type":"Feature","properties":{"name":"L\u0027Artuby"},"geometry":{"type":"LineString","coordinates":[[6.6683,43.8060],[6.6672,43.8010],[6.6660,43.8001],[6.6662,43.7986],[6.6643,43.7980],[6.6639,43.7942],[6.6619,43.7920],[6.6614,43.7895]]}},{"type":"Feature","properties":{"name":"La Roudoule"},"geometry":{"type":"LineString","coordinates":[[6.8700,43.9853],[6.8708,43.9841],[6.8697,43.9836],[6.8710,43.9830],[6.8701,43.9822],[6.8738,43.9805],[6.8736,43.9789],[6.8726,43.9783],[6.8752,43.9768],[6.8747,43.9751],[6.8784,43.9730],[6.8784,43.9713],[6.8816,43.9702],[6.8811,43.9687],[6.8827,43.9691],[6.8831,43.9680],[6.8846,43.9686],[6.8841,43.9678],[6.8855,43.9670],[6.8848,43.9669],[6.8855,43.9666],[6.8847,43.9649],[6.8865,43.9651],[6.8896,43.9627],[6.8898,43.9600],[6.8918,43.9603],[6.8951,43.9583],[6.8941,43.9549]]}},{"type":"Feature","properties":{"name":"La Roudoule"},"geometry":{"type":"LineString","coordinates":[[6.8941,43.9548],[6.8946,43.9545]]}},{"type":"Feature","properties":{"name":"La Roudoule"},"geometry":{"type":"LineString","coordinates":[[6.8941,43.9549],[6.8941,43.9548]]}},{"type":"Feature","properties":{"name":"La Roudoule"},"geometry":{"type":"LineString","coordinates":[[6.8775,44.0058],[6.8768,44.0040],[6.8728,44.0016],[6.8707,43.9952],[6.8713,43.9897],[6.8698,43.9872],[6.8700,43.9853]]}},{"type":"Feature","properties":{"name":"Reyran"},"geometry":{"type":"LineString","coordinates":[[6.7769,43.5436],[6.7778,43.5397],[6.7744,43.5354],[6.7731,43.5323],[6.7741,43.5295],[6.7728,43.5289],[6.7723,43.5272]]}},{"type":"Feature","properties":{"name":"Reyran"},"geometry":{"type":"LineString","coordinates":[[6.7578,43.5152],[6.7581,43.5132],[6.7573,43.5123]]}},{"type":"Feature","properties":{"name":"Reyran"},"geometry":{"type":"LineString","coordinates":[[6.7723,43.5272],[6.7671,43.5225],[6.7615,43.5195],[6.7578,43.5152]]}},{"type":"Feature","properties":{"name":"Reyran"},"geometry":{"type":"LineString","coordinates":[[6.7573,43.5123],[6.7572,43.5121]]}},{"type":"Feature","properties":{"name":"Reyran"},"geometry":{"type":"LineString","coordinates":[[6.7568,43.5122],[6.7569,43.5119]]}},{"type":"Feature","properties":{"name":"Reyran"},"geometry":{"type":"LineString","coordinates":[[6.7569,43.5123],[6.7568,43.5122]]}},{"type":"Feature","properties":{"name":"Reyran"},"geometry":{"type":"LineString","coordinates":[[6.7573,43.5124],[6.7569,43.5123]]}},{"type":"Feature","properties":{"name":"La Vaïre"},"geometry":{"type":"LineString","coordinates":[[6.6363,44.0097],[6.6366,44.0086]]}},{"type":"Feature","properties":{"name":"La Vaïre"},"geometry":{"type":"LineString","coordinates":[[6.6368,44.0090],[6.6368,44.0082]]}},{"type":"Feature","properties":{"name":"La Vaïre"},"geometry":{"type":"LineString","coordinates":[[6.6329,44.0603],[6.6280,44.0595],[6.6286,44.0579],[6.6273,44.0569],[6.6171,44.0562],[6.6159,44.0526],[6.6136,44.0504],[6.6145,44.0467],[6.6136,44.0451],[6.6142,44.0430],[6.6134,44.0401],[6.6210,44.0335],[6.6243,44.0255],[6.6258,44.0234],[6.6296,44.0211],[6.6299,44.0192],[6.6334,44.0153],[6.6343,44.0122],[6.6365,44.0103],[6.6375,44.0059],[6.6400,44.0042],[6.6400,44.0016],[6.6428,44.0008],[6.6418,43.9991],[6.6474,43.9899],[6.6458,43.9866],[6.6485,43.9814],[6.6513,43.9792],[6.6512,43.9777],[6.6527,43.9764],[6.6521,43.9755],[6.6537,43.9726],[6.6639,43.9677],[6.6696,43.9636],[6.6702,43.9615],[6.6749,43.9591],[6.6757,43.9576],[6.6805,43.9555],[6.6842,43.9555]]}},{"type":"Feature","properties":{"name":"La Vaïre"},"geometry":{"type":"LineString","coordinates":[[6.6842,43.9555],[6.6944,43.9575],[6.6960,43.9562],[6.6999,43.9571]]}},{"type":"Feature","properties":{"name":"L\u0027Argens"},"geometry":{"type":"LineString","coordinates":[[6.6598,43.4507],[6.6616,43.4495],[6.6594,43.4481],[6.6595,43.4446],[6.6631,43.4431],[6.6668,43.4453],[6.6681,43.4450],[6.6701,43.4436],[6.6700,43.4417],[6.6715,43.4400],[6.6761,43.4419],[6.6771,43.4374],[6.6816,43.4381],[6.6847,43.4361],[6.6848,43.4354],[6.6815,43.4344],[6.6808,43.4329],[6.6821,43.4310],[6.6859,43.4289]]}},{"type":"Feature","properties":{"name":"L\u0027Argens"},"geometry":{"type":"LineString","coordinates":[[6.6107,43.4659],[6.6153,43.4651],[6.6164,43.4612],[6.6149,43.4567],[6.6160,43.4512],[6.6243,43.4489],[6.6294,43.4499],[6.6402,43.4497],[6.6505,43.4527],[6.6587,43.4516],[6.6598,43.4507]]}},{"type":"Feature","properties":{"name":"L\u0027Argens"},"geometry":{"type":"LineString","coordinates":[[6.5964,43.4614],[6.5989,43.4635],[6.6049,43.4618],[6.6097,43.4645],[6.6107,43.4659]]}},{"type":"Feature","properties":{"name":"Siagnole d\u0027Escragnolles"},"geometry":{"type":"LineString","coordinates":[[6.7524,43.7411],[6.7537,43.7389],[6.7531,43.7371],[6.7556,43.7368],[6.7577,43.7331],[6.7578,43.7305],[6.7564,43.7301],[6.7562,43.7273],[6.7583,43.7258],[6.7587,43.7245],[6.7648,43.7230],[6.7670,43.7214]]}},{"type":"Feature","properties":{"name":"Torrente Gesso"},"geometry":{"type":"LineString","coordinates":[[7.5006,44.3246],[7.5054,44.3281],[7.5060,44.3296],[7.5050,44.3306],[7.5053,44.3316],[7.5096,44.3320],[7.5152,44.3349],[7.5293,44.3522],[7.5354,44.3564],[7.5397,44.3626],[7.5434,44.3661],[7.5436,44.3703],[7.5481,44.3728],[7.5522,44.3779],[7.5525,44.3800],[7.5546,44.3811],[7.5577,44.3875],[7.5569,44.3914],[7.5596,44.3982],[7.5588,44.4039]]}},{"type":"Feature","properties":{"name":"Torrente Gesso"},"geometry":{"type":"LineString","coordinates":[[7.4574,44.3040],[7.4586,44.3048],[7.4585,44.3101]]}},{"type":"Feature","properties":{"name":"Torrente Gesso"},"geometry":{"type":"LineString","coordinates":[[7.4574,44.3040],[7.4571,44.3079],[7.4601,44.3121],[7.4659,44.3163],[7.4715,44.3171],[7.4722,44.3206],[7.4746,44.3208],[7.4774,44.3196],[7.4794,44.3211],[7.4852,44.3211],[7.4963,44.3257],[7.5006,44.3246]]}},{"type":"Feature","properties":{"name":"Torrente Gesso"},"geometry":{"type":"LineString","coordinates":[[7.3862,44.2613],[7.3890,44.2637],[7.3908,44.2639],[7.3935,44.2703],[7.3974,44.2713],[7.3993,44.2738],[7.4031,44.2758],[7.4100,44.2766],[7.4132,44.2783],[7.4225,44.2859],[7.4260,44.2901],[7.4316,44.2914],[7.4343,44.2908],[7.4420,44.2941],[7.4439,44.2961],[7.4540,44.2988],[7.4574,44.3040]]}},{"type":"Feature","properties":{"name":"Le Paillon de Contes"},"geometry":{"type":"LineString","coordinates":[[7.3062,43.8863],[7.3033,43.8821],[7.3048,43.8787],[7.3041,43.8698],[7.3064,43.8689],[7.3057,43.8682],[7.3065,43.8677],[7.3061,43.8660],[7.3045,43.8657],[7.3058,43.8619],[7.3042,43.8601],[7.3044,43.8587],[7.3028,43.8578],[7.3031,43.8566],[7.2965,43.8537],[7.2953,43.8506],[7.2964,43.8442],[7.2955,43.8389],[7.2994,43.8321],[7.2983,43.8312],[7.2982,43.8292],[7.3011,43.8244],[7.3015,43.8216],[7.3037,43.8198],[7.3034,43.8186],[7.3075,43.8161],[7.3227,43.8014],[7.3239,43.7987],[7.3235,43.7968],[7.3270,43.7944],[7.3296,43.7889],[7.3324,43.7870],[7.3374,43.7811]]}},{"type":"Feature","properties":{"name":"Le Paillon de Contes"},"geometry":{"type":"LineString","coordinates":[[7.3093,43.8950],[7.3082,43.8947],[7.3076,43.8917],[7.3093,43.8903],[7.3082,43.8889],[7.3089,43.8876],[7.3062,43.8872],[7.3062,43.8863]]}},{"type":"Feature","properties":{"name":"Le Paillon de Contes"},"geometry":{"type":"LineString","coordinates":[[7.3374,43.7811],[7.3375,43.7772],[7.3357,43.7746],[7.3323,43.7725],[7.3319,43.7690],[7.3294,43.7681]]}},{"type":"Feature","properties":{"name":"Le Paillon de Contes"},"geometry":{"type":"LineString","coordinates":[[7.3090,43.8957],[7.3093,43.8950]]}},{"type":"Feature","properties":{"name":"Vallon de Mollières"},"geometry":{"type":"LineString","coordinates":[[7.1851,44.1536],[7.1784,44.1555],[7.1703,44.1546],[7.1670,44.1553],[7.1540,44.1520],[7.1528,44.1503],[7.1535,44.1492],[7.1532,44.1442],[7.1480,44.1395],[7.1431,44.1372],[7.1419,44.1342],[7.1385,44.1318],[7.1213,44.1282],[7.1159,44.1292],[7.1112,44.1278],[7.1025,44.1304],[7.1004,44.1301]]}},{"type":"Feature","properties":{"name":"La Bouillide"},"geometry":{"type":"LineString","coordinates":[[7.0563,43.6214],[7.0576,43.6211],[7.0594,43.6187],[7.0634,43.6185],[7.0639,43.6199],[7.0660,43.6201],[7.0672,43.6228],[7.0654,43.6238],[7.0659,43.6249],[7.0640,43.6254],[7.0659,43.6265]]}},{"type":"Feature","properties":{"name":"La Bouillide"},"geometry":{"type":"LineString","coordinates":[[7.0469,43.6177],[7.0492,43.6184],[7.0502,43.6208],[7.0533,43.6204],[7.0563,43.6214]]}},{"type":"Feature","properties":{"name":"La Bouillide"},"geometry":{"type":"LineString","coordinates":[[7.0353,43.6103],[7.0422,43.6158],[7.0469,43.6177]]}},{"type":"Feature","properties":{"name":"La Bouillide"},"geometry":{"type":"LineString","coordinates":[[7.0346,43.6098],[7.0353,43.6103]]}},{"type":"Feature","properties":{"name":"La Bouillide"},"geometry":{"type":"LineString","coordinates":[[7.0306,43.6067],[7.0334,43.6090]]}},{"type":"Feature","properties":{"name":"La Bouillide"},"geometry":{"type":"LineString","coordinates":[[7.0334,43.6090],[7.0346,43.6098]]}},{"type":"Feature","properties":{"name":"Ruisseau de Caïros"},"geometry":{"type":"LineString","coordinates":[[7.4425,44.0157],[7.4478,44.0121],[7.4516,44.0110],[7.4606,44.0108],[7.4634,44.0076],[7.4737,44.0069],[7.4762,44.0052],[7.4847,44.0033],[7.4896,44.0025],[7.4921,44.0031],[7.4988,43.9988],[7.5009,43.9964],[7.5047,43.9954],[7.5083,43.9980],[7.5125,43.9983],[7.5291,43.9953]]}},{"type":"Feature","properties":{"name":"La Tinée"},"geometry":{"type":"LineString","coordinates":[[6.9001,44.2849],[6.9040,44.2800],[6.9167,44.2733],[6.9174,44.2719],[6.9200,44.2707],[6.9211,44.2596],[6.9260,44.2584],[6.9279,44.2550],[6.9320,44.2512],[6.9409,44.2459],[6.9425,44.2424],[6.9420,44.2412],[6.9473,44.2381],[6.9471,44.2366],[6.9505,44.2324],[6.9570,44.2294],[6.9593,44.2253],[6.9639,44.2231],[6.9662,44.2194],[6.9701,44.2168],[6.9746,44.2114],[6.9767,44.2072],[6.9830,44.2064],[6.9902,44.2014],[6.9947,44.2009],[7.0051,44.1969],[7.0183,44.1893],[7.0266,44.1887],[7.0294,44.1898],[7.0348,44.1896],[7.0572,44.1832],[7.0597,44.1811]]}},{"type":"Feature","properties":{"name":"La Tinée"},"geometry":{"type":"LineString","coordinates":[[7.1892,43.9165],[7.1869,43.9153],[7.1876,43.9136],[7.1849,43.9124],[7.1852,43.9114]]}},{"type":"Feature","properties":{"name":"La Tinée"},"geometry":{"type":"LineString","coordinates":[[7.1067,44.0887],[7.1045,44.0867],[7.1057,44.0847],[7.1029,44.0835],[7.1053,44.0815],[7.1048,44.0774],[7.1079,44.0754],[7.1086,44.0709],[7.1116,44.0679],[7.1143,44.0667],[7.1134,44.0653],[7.1143,44.0643],[7.1168,44.0633],[7.1155,44.0619],[7.1170,44.0607],[7.1163,44.0599],[7.1177,44.0583],[7.1186,44.0539],[7.1227,44.0534],[7.1252,44.0506],[7.1279,44.0494],[7.1293,44.0468],[7.1275,44.0450],[7.1281,44.0409],[7.1261,44.0381],[7.1313,44.0335],[7.1304,44.0312],[7.1322,44.0249],[7.1316,44.0218],[7.1327,44.0193],[7.1322,44.0157]]}},{"type":"Feature","properties":{"name":"La Tinée"},"geometry":{"type":"LineString","coordinates":[[7.1877,43.9252],[7.1867,43.9220],[7.1901,43.9184],[7.1892,43.9165]]}},{"type":"Feature","properties":{"name":"La Tinée"},"geometry":{"type":"LineString","coordinates":[[7.1877,43.9252],[7.1877,43.9252]]}},{"type":"Feature","properties":{"name":"La Tinée"},"geometry":{"type":"LineString","coordinates":[[7.1856,43.9277],[7.1877,43.9252]]}},{"type":"Feature","properties":{"name":"La Tinée"},"geometry":{"type":"LineString","coordinates":[[7.1854,43.9277],[7.1856,43.9277]]}},{"type":"Feature","properties":{"name":"La Tinée"},"geometry":{"type":"LineString","coordinates":[[7.1740,43.9338],[7.1753,43.9323],[7.1795,43.9313],[7.1854,43.9277]]}},{"type":"Feature","properties":{"name":"La Tinée"},"geometry":{"type":"LineString","coordinates":[[7.1402,43.9731],[7.1460,43.9718],[7.1479,43.9684],[7.1498,43.9678],[7.1538,43.9589],[7.1557,43.9594],[7.1600,43.9497],[7.1593,43.9464],[7.1628,43.9449],[7.1607,43.9391],[7.1679,43.9371],[7.1709,43.9378],[7.1726,43.9345],[7.1740,43.9338]]}},{"type":"Feature","properties":{"name":"La Tinée"},"geometry":{"type":"LineString","coordinates":[[7.1322,44.0157],[7.1324,44.0102],[7.1365,44.0063],[7.1372,44.0022],[7.1358,43.9997],[7.1366,43.9954],[7.1349,43.9850],[7.1368,43.9844],[7.1391,43.9815],[7.1382,43.9805],[7.1386,43.9780],[7.1374,43.9771],[7.1402,43.9731]]}},{"type":"Feature","properties":{"name":"La Tinée"},"geometry":{"type":"LineString","coordinates":[[7.0969,44.1479],[7.0989,44.1452],[7.0980,44.1431],[7.1003,44.1388],[7.1016,44.1328],[7.1000,44.1297],[7.0940,44.1267],[7.0921,44.1242],[7.0917,44.1199],[7.0924,44.1182],[7.0909,44.1165],[7.0931,44.1144],[7.0955,44.1139],[7.0975,44.1105],[7.1008,44.1080],[7.1029,44.0983],[7.1054,44.0954],[7.1067,44.0887]]}},{"type":"Feature","properties":{"name":"La Tinée"},"geometry":{"type":"LineString","coordinates":[[7.0597,44.1811],[7.0659,44.1786],[7.0692,44.1762],[7.0784,44.1750],[7.0872,44.1699],[7.0886,44.1644],[7.0910,44.1612],[7.0909,44.1559],[7.0946,44.1536],[7.0945,44.1520],[7.0969,44.1498],[7.0969,44.1479]]}},{"type":"Feature","properties":{"name":"L\u0027Estéron"},"geometry":{"type":"LineString","coordinates":[[6.6724,43.8438],[6.6758,43.8437],[6.6818,43.8402],[6.6876,43.8383],[6.7020,43.8372],[6.7112,43.8390],[6.7138,43.8411],[6.7174,43.8410],[6.7188,43.8427],[6.7212,43.8424],[6.7234,43.8434],[6.7248,43.8430],[6.7266,43.8447],[6.7301,43.8445],[6.7319,43.8462],[6.7314,43.8498]]}},{"type":"Feature","properties":{"name":"L\u0027Estéron"},"geometry":{"type":"LineString","coordinates":[[6.7314,43.8498],[6.7276,43.8515],[6.7259,43.8545],[6.7268,43.8561]]}},{"type":"Feature","properties":{"name":"L\u0027Estéron"},"geometry":{"type":"LineString","coordinates":[[6.7268,43.8569],[6.7274,43.8575],[6.7315,43.8563],[6.7334,43.8569],[6.7355,43.8552],[6.7421,43.8564],[6.7423,43.8580],[6.7436,43.8584],[6.7484,43.8570],[6.7537,43.8578],[6.7567,43.8592],[6.7594,43.8575],[6.7607,43.8576],[6.7613,43.8587],[6.7644,43.8570],[6.7705,43.8563],[6.7761,43.8583],[6.7785,43.8571],[6.7874,43.8588],[6.7874,43.8598],[6.7916,43.8634],[6.7971,43.8626],[6.7982,43.8639],[6.8020,43.8630],[6.8042,43.8640],[6.8079,43.8633],[6.8115,43.8603],[6.8150,43.8606],[6.8172,43.8594],[6.8219,43.8601],[6.8270,43.8590],[6.8314,43.8614],[6.8371,43.8620],[6.8423,43.8643],[6.8431,43.8688],[6.8481,43.8713],[6.8484,43.8732],[6.8520,43.8736],[6.8509,43.8756],[6.8525,43.8767],[6.8558,43.8752],[6.8652,43.8755],[6.8666,43.8746],[6.8658,43.8732],[6.8669,43.8723],[6.8710,43.8741],[6.8723,43.8730],[6.8756,43.8728],[6.8764,43.8708],[6.8774,43.8705],[6.8804,43.8706],[6.8816,43.8725],[6.8871,43.8718],[6.8883,43.8722],[6.8890,43.8739],[6.8921,43.8722],[6.8949,43.8740],[6.8989,43.8732],[6.9044,43.8738],[6.9045,43.8699],[6.9075,43.8671],[6.9061,43.8642],[6.9106,43.8568],[6.9126,43.8564],[6.9142,43.8526],[6.9165,43.8532],[6.9168,43.8516],[6.9222,43.8507],[6.9237,43.8519],[6.9278,43.8514],[6.9314,43.8534]]}},{"type":"Feature","properties":{"name":"L\u0027Estéron"},"geometry":{"type":"LineString","coordinates":[[6.7268,43.8561],[6.7268,43.8569]]}},{"type":"Feature","properties":{"name":"L\u0027Estéron"},"geometry":{"type":"LineString","coordinates":[[7.1461,43.8466],[7.1487,43.8474],[7.1534,43.8453],[7.1578,43.8463],[7.1603,43.8435],[7.1652,43.8434],[7.1666,43.8413],[7.1728,43.8376],[7.1748,43.8338],[7.1832,43.8257],[7.1867,43.8195]]}},{"type":"Feature","properties":{"name":"L\u0027Estéron"},"geometry":{"type":"LineString","coordinates":[[7.0726,43.8556],[7.0769,43.8559],[7.0806,43.8544],[7.0841,43.8556],[7.0874,43.8555],[7.0888,43.8581],[7.0927,43.8586],[7.0958,43.8617],[7.1007,43.8607],[7.1043,43.8623],[7.1066,43.8605],[7.1097,43.8601],[7.1157,43.8537],[7.1181,43.8537],[7.1209,43.8555],[7.1235,43.8541],[7.1256,43.8542],[7.1278,43.8517],[7.1282,43.8490],[7.1302,43.8455],[7.1338,43.8465],[7.1405,43.8415],[7.1433,43.8456],[7.1461,43.8466]]}},{"type":"Feature","properties":{"name":"L\u0027Estéron"},"geometry":{"type":"LineString","coordinates":[[7.0054,43.8729],[7.0067,43.8724],[7.0059,43.8716],[7.0091,43.8670],[7.0144,43.8660],[7.0171,43.8644],[7.0184,43.8592],[7.0199,43.8579],[7.0250,43.8575],[7.0278,43.8589],[7.0298,43.8587],[7.0336,43.8561],[7.0439,43.8547],[7.0611,43.8557],[7.0664,43.8541],[7.0726,43.8556]]}},{"type":"Feature","properties":{"name":"L\u0027Estéron"},"geometry":{"type":"LineString","coordinates":[[6.9314,43.8534],[6.9333,43.8555],[6.9366,43.8556],[6.9378,43.8581],[6.9409,43.8582],[6.9410,43.8602],[6.9436,43.8609],[6.9463,43.8601],[6.9478,43.8622],[6.9477,43.8647],[6.9558,43.8654],[6.9578,43.8644],[6.9615,43.8662],[6.9651,43.8659],[6.9662,43.8674],[6.9722,43.8661],[6.9725,43.8689],[6.9784,43.8690],[6.9788,43.8696],[6.9775,43.8704],[6.9780,43.8718],[6.9830,43.8746],[6.9875,43.8739],[6.9906,43.8759],[6.9973,43.8738],[7.0054,43.8729]]}},{"type":"Feature","properties":{"name":"Cians"},"geometry":{"type":"LineString","coordinates":[[6.9927,44.1177],[6.9883,44.1127],[6.9890,44.1108],[6.9869,44.1043],[6.9881,44.0997],[6.9911,44.0981],[6.9943,44.0945],[6.9933,44.0909],[6.9949,44.0869],[6.9950,44.0825],[6.9941,44.0787],[6.9875,44.0726],[6.9840,44.0633],[6.9824,44.0612],[6.9821,44.0549],[6.9811,44.0538],[6.9816,44.0502],[6.9777,44.0495],[6.9771,44.0486],[6.9778,44.0448],[6.9761,44.0435],[6.9758,44.0416],[6.9762,44.0401],[6.9784,44.0385],[6.9785,44.0363],[6.9758,44.0343],[6.9776,44.0272],[6.9763,44.0259],[6.9817,44.0195],[6.9826,44.0114],[6.9852,44.0106],[6.9931,44.0052],[6.9892,43.9999],[6.9921,43.9971],[6.9907,43.9952],[6.9943,43.9946],[6.9967,43.9927],[6.9995,43.9923],[6.9999,43.9891],[7.0025,43.9877],[7.0047,43.9831],[7.0041,43.9796],[7.0065,43.9760],[7.0062,43.9743],[7.0092,43.9718],[7.0107,43.9685],[7.0094,43.9666],[7.0037,43.9653],[7.0024,43.9628],[6.9988,43.9613],[6.9983,43.9591],[6.9933,43.9580],[6.9915,43.9559],[6.9909,43.9539],[6.9915,43.9527],[6.9890,43.9491],[6.9874,43.9483]]}},{"type":"Feature","properties":{"name":"L\u0027Ubaye"},"geometry":{"type":"LineString","coordinates":[[6.7604,44.4708],[6.7600,44.4688],[6.7497,44.4596],[6.7487,44.4568],[6.7418,44.4503],[6.7434,44.4455],[6.7426,44.4411],[6.7449,44.4397],[6.7445,44.4347],[6.7431,44.4331],[6.7412,44.4333],[6.7408,44.4317],[6.7390,44.4317],[6.7369,44.4293],[6.7389,44.4245],[6.7385,44.4197],[6.7365,44.4175],[6.7315,44.4155],[6.7290,44.4112],[6.7293,44.4083],[6.7272,44.4085],[6.7268,44.4070],[6.7205,44.4047],[6.7156,44.4044],[6.7132,44.4031],[6.6947,44.3982],[6.6914,44.3934],[6.6886,44.3915],[6.6804,44.3896],[6.6681,44.3891]]}},{"type":"Feature","properties":{"name":"L\u0027Ubaye"},"geometry":{"type":"LineString","coordinates":[[6.6176,44.3854],[6.6142,44.3852],[6.6125,44.3834],[6.6103,44.3827],[6.6065,44.3827],[6.6037,44.3841],[6.6021,44.3838],[6.5891,44.3877],[6.5874,44.3891],[6.5795,44.3886],[6.5767,44.3905],[6.5684,44.3920],[6.5628,44.3912],[6.5506,44.3933],[6.5484,44.3950],[6.5417,44.3961],[6.5403,44.3973],[6.5310,44.3968],[6.5255,44.3991],[6.5195,44.3991],[6.5155,44.4005],[6.5043,44.3992],[6.4960,44.3998],[6.4936,44.3978],[6.4871,44.3968]]}},{"type":"Feature","properties":{"name":"L\u0027Ubaye"},"geometry":{"type":"LineString","coordinates":[[6.6681,44.3891],[6.6583,44.3838],[6.6408,44.3862],[6.6176,44.3854]]}},{"type":"Feature","properties":{"name":"La Roya"},"geometry":{"type":"LineString","coordinates":[[7.5327,43.8933],[7.5312,43.8921],[7.5315,43.8908],[7.5326,43.8904]]}},{"type":"Feature","properties":{"name":"La Roya"},"geometry":{"type":"LineString","coordinates":[[7.5666,44.1101],[7.5692,44.1097],[7.5695,44.1083],[7.5710,44.1078],[7.5753,44.1026],[7.5817,44.1026],[7.5883,44.0999],[7.5925,44.0926],[7.5958,44.0912],[7.5965,44.0895],[7.5940,44.0845],[7.5946,44.0826],[7.5983,44.0790],[7.5986,44.0730],[7.5965,44.0728],[7.5937,44.0705],[7.5890,44.0703],[7.5903,44.0677],[7.5878,44.0576],[7.5894,44.0554],[7.5898,44.0509],[7.5866,44.0472],[7.5864,44.0434],[7.5817,44.0369],[7.5803,44.0363],[7.5802,44.0334],[7.5822,44.0321],[7.5822,44.0308],[7.5804,44.0298],[7.5772,44.0300],[7.5779,44.0284],[7.5708,44.0238],[7.5690,44.0211],[7.5653,44.0205],[7.5639,44.0164],[7.5561,44.0091],[7.5544,44.0028]]}},{"type":"Feature","properties":{"name":"La Roya"},"geometry":{"type":"LineString","coordinates":[[7.5186,43.9369],[7.5188,43.9352],[7.5173,43.9331],[7.5202,43.9317],[7.5184,43.9306],[7.5226,43.9290],[7.5204,43.9265],[7.5199,43.9227],[7.5160,43.9184],[7.5183,43.9166],[7.5168,43.9121],[7.5174,43.9094],[7.5185,43.9083],[7.5208,43.9094]]}},{"type":"Feature","properties":{"name":"La Roya"},"geometry":{"type":"LineString","coordinates":[[7.5249,43.9644],[7.5217,43.9583]]}},{"type":"Feature","properties":{"name":"La Roya"},"geometry":{"type":"LineString","coordinates":[[7.5897,44.0514],[7.5891,44.0505]]}},{"type":"Feature","properties":{"name":"La Roya"},"geometry":{"type":"LineString","coordinates":[[7.5217,43.9583],[7.5196,43.9488],[7.5199,43.9463],[7.5177,43.9439],[7.5185,43.9415],[7.5171,43.9397],[7.5135,43.9382],[7.5135,43.9364]]}},{"type":"Feature","properties":{"name":"La Roya"},"geometry":{"type":"LineString","coordinates":[[7.5406,43.9757],[7.5390,43.9710],[7.5313,43.9686],[7.5249,43.9644]]}},{"type":"Feature","properties":{"name":"La Roya"},"geometry":{"type":"LineString","coordinates":[[7.5469,43.9919],[7.5476,43.9913],[7.5468,43.9904],[7.5486,43.9885],[7.5473,43.9860],[7.5504,43.9849],[7.5470,43.9838],[7.5406,43.9757]]}},{"type":"Feature","properties":{"name":"La Roya"},"geometry":{"type":"LineString","coordinates":[[7.5135,43.9364],[7.5149,43.9352],[7.5186,43.9369]]}},{"type":"Feature","properties":{"name":"La Roya"},"geometry":{"type":"LineString","coordinates":[[7.5208,43.9094],[7.5234,43.9103],[7.5249,43.9077],[7.5267,43.9071],[7.5266,43.9059],[7.5221,43.9026],[7.5278,43.9026],[7.5282,43.9001],[7.5260,43.9004],[7.5244,43.8994],[7.5256,43.8975],[7.5284,43.8970],[7.5288,43.8956],[7.5314,43.8955],[7.5327,43.8933]]}},{"type":"Feature","properties":{"name":"La Roya"},"geometry":{"type":"LineString","coordinates":[[7.5544,44.0028],[7.5501,43.9968],[7.5507,43.9934],[7.5480,43.9938],[7.5464,43.9929],[7.5469,43.9919]]}},{"type":"Feature","properties":{"name":"Le Jabron"},"geometry":{"type":"LineString","coordinates":[[6.6540,43.8118],[6.6376,43.8158],[6.6363,43.8177]]}},{"type":"Feature","properties":{"name":"Le Jabron"},"geometry":{"type":"LineString","coordinates":[[6.6363,43.8177],[6.6353,43.8187],[6.6304,43.8193],[6.6259,43.8183],[6.6158,43.8186],[6.6052,43.8148]]}},{"type":"Feature","properties":{"name":"La Siagne"},"geometry":{"type":"LineString","coordinates":[[6.8794,43.6065],[6.8798,43.6064]]}},{"type":"Feature","properties":{"name":"La Siagne"},"geometry":{"type":"LineString","coordinates":[[6.8173,43.6292],[6.8176,43.6278],[6.8247,43.6231],[6.8281,43.6216],[6.8306,43.6221],[6.8330,43.6213],[6.8358,43.6193],[6.8361,43.6176],[6.8384,43.6176],[6.8405,43.6149],[6.8387,43.6137],[6.8446,43.6127],[6.8454,43.6109]]}},{"type":"Feature","properties":{"name":"La Siagne"},"geometry":{"type":"LineString","coordinates":[[6.7747,43.6938],[6.7701,43.6923],[6.7697,43.6908],[6.7649,43.6886],[6.7648,43.6873],[6.7671,43.6856],[6.7611,43.6806],[6.7623,43.6787],[6.7613,43.6755],[6.7621,43.6747],[6.7598,43.6738],[6.7620,43.6693],[6.7612,43.6671]]}},{"type":"Feature","properties":{"name":"La Siagne"},"geometry":{"type":"LineString","coordinates":[[6.7649,43.6613],[6.7666,43.6603],[6.7766,43.6599],[6.7779,43.6564],[6.7838,43.6534],[6.7857,43.6510],[6.7847,43.6482],[6.7897,43.6435],[6.7907,43.6435]]}},{"type":"Feature","properties":{"name":"La Siagne"},"geometry":{"type":"LineString","coordinates":[[6.7935,43.6331],[6.7966,43.6317],[6.7989,43.6281],[6.8023,43.6268],[6.8114,43.6293],[6.8130,43.6306],[6.8173,43.6292]]}},{"type":"Feature","properties":{"name":"La Siagne"},"geometry":{"type":"LineString","coordinates":[[6.9298,43.5832],[6.9339,43.5797],[6.9344,43.5780],[6.9362,43.5773],[6.9360,43.5759],[6.9388,43.5755],[6.9398,43.5744],[6.9388,43.5722],[6.9420,43.5709]]}},{"type":"Feature","properties":{"name":"La Siagne"},"geometry":{"type":"LineString","coordinates":[[6.9433,43.5490],[6.9430,43.5475],[6.9469,43.5421],[6.9442,43.5346],[6.9475,43.5310],[6.9500,43.5308]]}},{"type":"Feature","properties":{"name":"La Siagne"},"geometry":{"type":"LineString","coordinates":[[6.9440,43.5679],[6.9457,43.5646],[6.9457,43.5617],[6.9433,43.5490]]}},{"type":"Feature","properties":{"name":"La Siagne"},"geometry":{"type":"LineString","coordinates":[[6.7947,43.6994],[6.7906,43.7009],[6.7882,43.6988],[6.7888,43.6974],[6.7869,43.6960],[6.7873,43.6946]]}},{"type":"Feature","properties":{"name":"La Siagne"},"geometry":{"type":"LineString","coordinates":[[6.7873,43.6946],[6.7842,43.6948],[6.7823,43.6937],[6.7812,43.6946],[6.7765,43.6947],[6.7747,43.6938]]}},{"type":"Feature","properties":{"name":"La Siagne"},"geometry":{"type":"LineString","coordinates":[[6.9023,43.6031],[6.9058,43.6026],[6.9084,43.5988],[6.9130,43.5984],[6.9137,43.5963],[6.9159,43.5954],[6.9170,43.5932]]}},{"type":"Feature","properties":{"name":"La Siagne"},"geometry":{"type":"LineString","coordinates":[[6.9466,43.5403],[6.9437,43.5400],[6.9451,43.5386],[6.9410,43.5350],[6.9432,43.5332],[6.9451,43.5336]]}},{"type":"Feature","properties":{"name":"La Siagne"},"geometry":{"type":"LineString","coordinates":[[6.8061,43.7202],[6.8054,43.7171],[6.8067,43.7138],[6.8056,43.7122],[6.8068,43.7109],[6.8059,43.7097],[6.8070,43.7089],[6.8071,43.7064],[6.8016,43.7040],[6.8016,43.7028],[6.8005,43.7029],[6.7994,43.7011],[6.7995,43.6996],[6.7974,43.6994],[6.7958,43.7006],[6.7947,43.6994]]}},{"type":"Feature","properties":{"name":"La Siagne"},"geometry":{"type":"LineString","coordinates":[[6.8617,43.6059],[6.8637,43.6061],[6.8660,43.6029],[6.8673,43.6047],[6.8724,43.6076],[6.8794,43.6065]]}},{"type":"Feature","properties":{"name":"La Siagne"},"geometry":{"type":"LineString","coordinates":[[6.8454,43.6109],[6.8465,43.6109],[6.8518,43.6044],[6.8543,43.6049],[6.8525,43.6090],[6.8563,43.6089],[6.8577,43.6109],[6.8590,43.6106],[6.8594,43.6077],[6.8617,43.6059]]}},{"type":"Feature","properties":{"name":"La Siagne"},"geometry":{"type":"LineString","coordinates":[[6.7907,43.6435],[6.7939,43.6395]]}},{"type":"Feature","properties":{"name":"La Siagne"},"geometry":{"type":"LineString","coordinates":[[6.7612,43.6671],[6.7613,43.6658]]}},{"type":"Feature","properties":{"name":"La Siagne"},"geometry":{"type":"LineString","coordinates":[[6.7613,43.6658],[6.7631,43.6622],[6.7649,43.6613]]}},{"type":"Feature","properties":{"name":"La Siagne"},"geometry":{"type":"LineString","coordinates":[[6.8798,43.6064],[6.8878,43.6073],[6.8936,43.6119],[6.8942,43.6102],[6.8972,43.6089],[6.8986,43.6059],[6.9021,43.6033]]}},{"type":"Feature","properties":{"name":"La Siagne"},"geometry":{"type":"LineString","coordinates":[[6.9021,43.6033],[6.9023,43.6031]]}},{"type":"Feature","properties":{"name":"La Siagne"},"geometry":{"type":"LineString","coordinates":[[6.9173,43.5929],[6.9277,43.5894]]}},{"type":"Feature","properties":{"name":"La Siagne"},"geometry":{"type":"LineString","coordinates":[[6.7939,43.6395],[6.7941,43.6357],[6.7921,43.6340],[6.7929,43.6331]]}},{"type":"Feature","properties":{"name":"La Siagne"},"geometry":{"type":"LineString","coordinates":[[6.7929,43.6331],[6.7935,43.6331]]}},{"type":"Feature","properties":{"name":"La Siagne"},"geometry":{"type":"LineString","coordinates":[[6.9170,43.5932],[6.9173,43.5929]]}},{"type":"Feature","properties":{"name":"La Siagne"},"geometry":{"type":"LineString","coordinates":[[6.9280,43.5892],[6.9292,43.5871],[6.9286,43.5855],[6.9298,43.5832]]}},{"type":"Feature","properties":{"name":"La Siagne"},"geometry":{"type":"LineString","coordinates":[[6.9277,43.5894],[6.9280,43.5892]]}},{"type":"Feature","properties":{"name":"La Siagne"},"geometry":{"type":"LineString","coordinates":[[6.9420,43.5709],[6.9428,43.5700],[6.9421,43.5687],[6.9440,43.5679]]}},{"type":"Feature","properties":{"name":"La Siagne"},"geometry":{"type":"LineString","coordinates":[[6.8101,43.7230],[6.8073,43.7219],[6.8061,43.7202]]}},{"type":"Feature","properties":{"name":"La Madone"},"geometry":{"type":"LineString","coordinates":[[7.3468,44.0908],[7.3434,44.0899],[7.3372,44.0910],[7.3348,44.0900],[7.3289,44.0903],[7.3277,44.0894],[7.3179,44.0899],[7.3158,44.0885],[7.3109,44.0886],[7.3018,44.0862],[7.2970,44.0860],[7.2952,44.0845],[7.2897,44.0845],[7.2873,44.0831],[7.2793,44.0815],[7.2729,44.0816],[7.2667,44.0785],[7.2553,44.0660]]}},{"type":"Feature","properties":{"name":"La Madone"},"geometry":{"type":"LineString","coordinates":[[7.3025,44.0865],[7.3021,44.0863]]}},{"type":"Feature","properties":{"name":"La Madone"},"geometry":{"type":"LineString","coordinates":[[7.3013,44.0864],[7.3008,44.0865]]}},{"type":"Feature","properties":{"name":"La Madone"},"geometry":{"type":"LineString","coordinates":[[7.3005,44.0865],[7.2999,44.0864]]}},{"type":"Feature","properties":{"name":"La Madone"},"geometry":{"type":"LineString","coordinates":[[7.3002,44.0866],[7.3002,44.0866]]}},{"type":"Feature","properties":{"name":"La Madone"},"geometry":{"type":"LineString","coordinates":[[7.2964,44.0856],[7.2961,44.0855]]}},{"type":"Feature","properties":{"name":"La Madone"},"geometry":{"type":"LineString","coordinates":[[7.2946,44.0845],[7.2941,44.0844]]}},{"type":"Feature","properties":{"name":"La Madone"},"geometry":{"type":"LineString","coordinates":[[7.2776,44.0816],[7.2770,44.0818]]}},{"type":"Feature","properties":{"name":"La Madone"},"geometry":{"type":"LineString","coordinates":[[7.2784,44.0815],[7.2780,44.0815]]}},{"type":"Feature","properties":{"name":"La Madone"},"geometry":{"type":"LineString","coordinates":[[7.2796,44.0817],[7.2790,44.0816]]}},{"type":"Feature","properties":{"name":"La Madone"},"geometry":{"type":"LineString","coordinates":[[7.3296,44.0903],[7.3289,44.0903]]}},{"type":"Feature","properties":{"name":"La Madone"},"geometry":{"type":"LineString","coordinates":[[7.3222,44.0899],[7.3216,44.0898]]}},{"type":"Feature","properties":{"name":"La Madone"},"geometry":{"type":"LineString","coordinates":[[7.2641,44.0758],[7.2640,44.0755]]}},{"type":"Feature","properties":{"name":"La Madone"},"geometry":{"type":"LineString","coordinates":[[7.2640,44.0759],[7.2641,44.0757]]}},{"type":"Feature","properties":{"name":"La Madone"},"geometry":{"type":"LineString","coordinates":[[7.2642,44.0762],[7.2638,44.0754]]}},{"type":"Feature","properties":{"name":"La Bévéra"},"geometry":{"type":"LineString","coordinates":[[7.4084,43.9083],[7.4150,43.9054],[7.4144,43.9033],[7.4154,43.8994]]}},{"type":"Feature","properties":{"name":"La Bévéra"},"geometry":{"type":"LineString","coordinates":[[7.4794,43.8816],[7.4819,43.8827],[7.4847,43.8863],[7.4925,43.8874],[7.4982,43.8830],[7.5021,43.8813],[7.5047,43.8813],[7.5048,43.8795],[7.5080,43.8801],[7.5089,43.8790]]}},{"type":"Feature","properties":{"name":"La Bévéra"},"geometry":{"type":"LineString","coordinates":[[7.4206,43.8931],[7.4262,43.8906],[7.4317,43.8858],[7.4326,43.8839],[7.4352,43.8839],[7.4384,43.8810],[7.4459,43.8784],[7.4527,43.8778],[7.4679,43.8802],[7.4701,43.8786],[7.4732,43.8793],[7.4750,43.8813],[7.4794,43.8816]]}},{"type":"Feature","properties":{"name":"La Bévéra"},"geometry":{"type":"LineString","coordinates":[[7.4154,43.8994],[7.4206,43.8931]]}},{"type":"Feature","properties":{"name":"Le Paillon"},"geometry":{"type":"LineString","coordinates":[[7.3486,43.8393],[7.3496,43.8378],[7.3528,43.8372],[7.3553,43.8348],[7.3642,43.8321],[7.3651,43.8306],[7.3643,43.8284],[7.3677,43.8262],[7.3692,43.8219],[7.3754,43.8217],[7.3775,43.8207],[7.3783,43.8194],[7.3777,43.8187],[7.3795,43.8182],[7.3811,43.8151],[7.3793,43.8123],[7.3812,43.8094],[7.3801,43.8064],[7.3803,43.8035],[7.3826,43.8029],[7.3826,43.8005],[7.3818,43.7986],[7.3778,43.7966],[7.3750,43.7899],[7.3754,43.7882],[7.3738,43.7861],[7.3757,43.7848],[7.3735,43.7832],[7.3740,43.7819],[7.3712,43.7782],[7.3721,43.7768],[7.3701,43.7753],[7.3725,43.7728],[7.3711,43.7704],[7.3646,43.7706],[7.3590,43.7669],[7.3568,43.7665],[7.3552,43.7668],[7.3554,43.7682],[7.3521,43.7686],[7.3503,43.7674],[7.3515,43.7660],[7.3449,43.7638],[7.3407,43.7659],[7.3335,43.7654],[7.3294,43.7681]]}},{"type":"Feature","properties":{"name":"Le Paillon"},"geometry":{"type":"LineString","coordinates":[[7.2821,43.7167],[7.2828,43.7142]]}},{"type":"Feature","properties":{"name":"Le Paillon"},"geometry":{"type":"LineString","coordinates":[[7.2686,43.6948],[7.2686,43.6944]]}},{"type":"Feature","properties":{"name":"Le Paillon"},"geometry":{"type":"LineString","coordinates":[[7.2869,43.7252],[7.2879,43.7231]]}},{"type":"Feature","properties":{"name":"Le Paillon"},"geometry":{"type":"LineString","coordinates":[[7.2828,43.7142],[7.2830,43.7138]]}},{"type":"Feature","properties":{"name":"Le Paillon"},"geometry":{"type":"LineString","coordinates":[[7.2832,43.7099],[7.2832,43.7098]]}},{"type":"Feature","properties":{"name":"Le Paillon"},"geometry":{"type":"LineString","coordinates":[[7.3247,43.7669],[7.3177,43.7595],[7.3198,43.7528],[7.3192,43.7512],[7.3163,43.7506],[7.3174,43.7466],[7.3166,43.7458],[7.3123,43.7455]]}},{"type":"Feature","properties":{"name":"Le Paillon"},"geometry":{"type":"LineString","coordinates":[[7.2833,43.7109],[7.2832,43.7099]]}},{"type":"Feature","properties":{"name":"Le Paillon"},"geometry":{"type":"LineString","coordinates":[[7.2840,43.7269],[7.2869,43.7252]]}},{"type":"Feature","properties":{"name":"Le Paillon"},"geometry":{"type":"LineString","coordinates":[[7.2830,43.7138],[7.2833,43.7109]]}},{"type":"Feature","properties":{"name":"Le Paillon"},"geometry":{"type":"LineString","coordinates":[[7.2923,43.7336],[7.2867,43.7318]]}},{"type":"Feature","properties":{"name":"Le Paillon"},"geometry":{"type":"LineString","coordinates":[[7.2827,43.7293],[7.2840,43.7269]]}},{"type":"Feature","properties":{"name":"Le Paillon"},"geometry":{"type":"LineString","coordinates":[[7.2867,43.7318],[7.2863,43.7317]]}},{"type":"Feature","properties":{"name":"Le Paillon"},"geometry":{"type":"LineString","coordinates":[[7.2863,43.7317],[7.2827,43.7293]]}},{"type":"Feature","properties":{"name":"Le Paillon"},"geometry":{"type":"LineString","coordinates":[[7.2879,43.7231],[7.2872,43.7214],[7.2821,43.7167]]}},{"type":"Feature","properties":{"name":"Le Paillon"},"geometry":{"type":"LineString","coordinates":[[7.2832,43.7098],[7.2819,43.7063],[7.2768,43.6990],[7.2690,43.6964],[7.2686,43.6948]]}},{"type":"Feature","properties":{"name":"Le Paillon"},"geometry":{"type":"LineString","coordinates":[[7.3294,43.7681],[7.3247,43.7669]]}},{"type":"Feature","properties":{"name":"Le Boréon"},"geometry":{"type":"LineString","coordinates":[[7.2834,44.1133],[7.2783,44.1121],[7.2735,44.1077],[7.2707,44.1071],[7.2608,44.1017],[7.2597,44.0996],[7.2519,44.0937],[7.2521,44.0900],[7.2507,44.0871]]}},{"type":"Feature","properties":{"name":"Le Boréon"},"geometry":{"type":"LineString","coordinates":[[7.2507,44.0871],[7.2504,44.0842]]}},{"type":"Feature","properties":{"name":"Le Boréon"},"geometry":{"type":"LineString","coordinates":[[7.2504,44.0842],[7.2514,44.0820],[7.2503,44.0799],[7.2503,44.0745],[7.2553,44.0660]]}},{"type":"Feature","properties":{"name":"La Cagne"},"geometry":{"type":"LineString","coordinates":[[7.0886,43.7811],[7.0939,43.7808],[7.0987,43.7824],[7.1012,43.7819],[7.1069,43.7830],[7.1102,43.7809],[7.1109,43.7795],[7.1099,43.7750],[7.1108,43.7741],[7.1104,43.7718],[7.1113,43.7702],[7.1133,43.7695],[7.1122,43.7682],[7.1130,43.7646],[7.1123,43.7629],[7.1170,43.7618],[7.1186,43.7600],[7.1179,43.7574],[7.1190,43.7566],[7.1243,43.7558],[7.1250,43.7546],[7.1291,43.7528],[7.1296,43.7498],[7.1358,43.7430],[7.1360,43.7385],[7.1343,43.7363],[7.1370,43.7329],[7.1365,43.7315],[7.1377,43.7298],[7.1372,43.7259],[7.1411,43.7215]]}},{"type":"Feature","properties":{"name":"La Cagne"},"geometry":{"type":"LineString","coordinates":[[7.1411,43.7215],[7.1418,43.7199],[7.1401,43.7196],[7.1403,43.7188]]}},{"type":"Feature","properties":{"name":"La Cagne"},"geometry":{"type":"LineString","coordinates":[[7.1531,43.6625],[7.1542,43.6556],[7.1537,43.6541],[7.1552,43.6527]]}},{"type":"Feature","properties":{"name":"La Cagne"},"geometry":{"type":"LineString","coordinates":[[7.1507,43.6660],[7.1531,43.6625]]}},{"type":"Feature","properties":{"name":"La Cagne"},"geometry":{"type":"LineString","coordinates":[[7.0362,43.7901],[7.0423,43.7892],[7.0429,43.7881],[7.0486,43.7877],[7.0525,43.7855],[7.0581,43.7862],[7.0634,43.7845],[7.0647,43.7850],[7.0676,43.7813],[7.0727,43.7791],[7.0855,43.7796],[7.0886,43.7811]]}},{"type":"Feature","properties":{"name":"La Cagne"},"geometry":{"type":"LineString","coordinates":[[7.1403,43.7188],[7.1422,43.7184],[7.1430,43.7165],[7.1424,43.7155],[7.1431,43.7143],[7.1422,43.7138],[7.1432,43.7127],[7.1416,43.7086],[7.1419,43.7078],[7.1437,43.7077],[7.1431,43.7058],[7.1404,43.7041],[7.1430,43.7028],[7.1417,43.7011],[7.1421,43.7000],[7.1454,43.6986],[7.1439,43.6939],[7.1459,43.6911],[7.1451,43.6865],[7.1438,43.6847],[7.1445,43.6835],[7.1466,43.6829],[7.1465,43.6814],[7.1454,43.6807],[7.1476,43.6797],[7.1467,43.6788],[7.1480,43.6785],[7.1486,43.6772],[7.1479,43.6762],[7.1492,43.6751],[7.1471,43.6742],[7.1474,43.6712]]}},{"type":"Feature","properties":{"name":"La Cagne"},"geometry":{"type":"LineString","coordinates":[[7.1474,43.6712],[7.1477,43.6700],[7.1507,43.6685],[7.1507,43.6660]]}},{"type":"Feature","properties":{"name":"Vallon de Saint-Blaise"},"geometry":{"type":"LineString","coordinates":[[7.2398,43.8319],[7.2401,43.8271],[7.2367,43.8235],[7.2294,43.8223],[7.2271,43.8212],[7.2267,43.8194],[7.2187,43.8178],[7.2170,43.8159],[7.2168,43.8136],[7.2131,43.8123],[7.2132,43.8110],[7.2109,43.8110],[7.2077,43.8083],[7.2040,43.8070],[7.2026,43.8054],[7.2020,43.8006]]}},{"type":"Feature","properties":{"name":"Le Riou"},"geometry":{"type":"LineString","coordinates":[[6.9148,43.6061],[6.9139,43.6042],[6.9147,43.6024],[6.9122,43.6013],[6.9135,43.5998],[6.9125,43.5985]]}},{"type":"Feature","properties":{"name":"La Camandre"},"geometry":{"type":"LineString","coordinates":[[6.6868,43.6121],[6.6895,43.6111],[6.6934,43.6072],[6.7003,43.6036]]}},{"type":"Feature","properties":{"name":"La Camandre"},"geometry":{"type":"LineString","coordinates":[[6.6871,43.6296],[6.6870,43.6264]]}},{"type":"Feature","properties":{"name":"La Camandre"},"geometry":{"type":"LineString","coordinates":[[6.6870,43.6264],[6.6874,43.6230],[6.6842,43.6204],[6.6831,43.6174],[6.6859,43.6129]]}},{"type":"Feature","properties":{"name":"La Camandre"},"geometry":{"type":"LineString","coordinates":[[6.6859,43.6129],[6.6868,43.6121]]}},{"type":"Feature","properties":{"name":"Torrente Gesso della Valletta"},"geometry":{"type":"LineString","coordinates":[[7.3208,44.2425],[7.3226,44.2428],[7.3250,44.2455],[7.3273,44.2456],[7.3321,44.2485],[7.3401,44.2494],[7.3418,44.2510],[7.3458,44.2512],[7.3466,44.2525],[7.3500,44.2539],[7.3524,44.2536],[7.3532,44.2554],[7.3591,44.2571],[7.3612,44.2589],[7.3659,44.2608],[7.3815,44.2630],[7.3862,44.2613]]}},{"type":"Feature","properties":{"name":"Torrente Gesso della Valletta"},"geometry":{"type":"LineString","coordinates":[[7.2689,44.2039],[7.2751,44.2108],[7.2788,44.2123],[7.2805,44.2157],[7.2855,44.2191],[7.2883,44.2194],[7.2891,44.2208],[7.2990,44.2255],[7.3060,44.2270],[7.3127,44.2318],[7.3149,44.2322],[7.3151,44.2332],[7.3173,44.2340],[7.3173,44.2356],[7.3187,44.2374],[7.3183,44.2411],[7.3208,44.2425]]}},{"type":"Feature","properties":{"name":"La Lane"},"geometry":{"type":"LineString","coordinates":[[6.8269,43.8008],[6.8269,43.8008]]}},{"type":"Feature","properties":{"name":"La Lane"},"geometry":{"type":"LineString","coordinates":[[6.8080,43.7957],[6.8059,43.7955],[6.8054,43.7964],[6.8049,43.7954],[6.8032,43.7956],[6.8029,43.7939],[6.8012,43.7933],[6.7973,43.7937],[6.7963,43.7924],[6.7945,43.7928],[6.7920,43.7916],[6.7787,43.7926],[6.7761,43.7936],[6.7644,43.7939],[6.7629,43.7950],[6.7608,43.7932],[6.7580,43.7929],[6.7539,43.7942],[6.7515,43.7936],[6.7501,43.7943],[6.7425,43.7945],[6.7419,43.7937],[6.7374,43.7948],[6.7373,43.7933],[6.7316,43.7923],[6.7288,43.7928],[6.7287,43.7910],[6.7276,43.7903],[6.7238,43.7921],[6.7220,43.7914],[6.7193,43.7922],[6.7139,43.7908],[6.7110,43.7911],[6.7088,43.7898],[6.7006,43.7899],[6.6924,43.7891],[6.6913,43.7882],[6.6894,43.7889],[6.6876,43.7872],[6.6748,43.7885],[6.6744,43.7902],[6.6719,43.7910],[6.6685,43.7898],[6.6614,43.7895]]}},{"type":"Feature","properties":{"name":"La Lane"},"geometry":{"type":"LineString","coordinates":[[6.8273,43.8010],[6.8269,43.8008]]}},{"type":"Feature","properties":{"name":"La Lane"},"geometry":{"type":"LineString","coordinates":[[6.8269,43.8008],[6.8177,43.7980],[6.8117,43.7984],[6.8080,43.7957]]}},{"type":"Feature","properties":{"name":"Le Reyran"},"geometry":{"type":"LineString","coordinates":[[6.7579,43.5043],[6.7587,43.5010],[6.7576,43.4983],[6.7551,43.4961],[6.7513,43.4942],[6.7463,43.4935],[6.7419,43.4904],[6.7412,43.4837],[6.7443,43.4793],[6.7449,43.4767],[6.7394,43.4695],[6.7364,43.4636],[6.7365,43.4600],[6.7383,43.4565],[6.7353,43.4507],[6.7340,43.4442],[6.7346,43.4410],[6.7268,43.4364],[6.7232,43.4331],[6.7184,43.4253],[6.7197,43.4211],[6.7334,43.4105]]}},{"type":"Feature","properties":{"name":"Le Reyran"},"geometry":{"type":"LineString","coordinates":[[6.7572,43.5121],[6.7577,43.5083],[6.7545,43.5081],[6.7560,43.5052],[6.7575,43.5044]]}},{"type":"Feature","properties":{"name":"Le Reyran"},"geometry":{"type":"LineString","coordinates":[[6.7575,43.5044],[6.7579,43.5043]]}},{"type":"Feature","properties":{"name":"Le Blavet"},"geometry":{"type":"LineString","coordinates":[[6.6503,43.4762],[6.6465,43.4717],[6.6440,43.4701],[6.6449,43.4652]]}},{"type":"Feature","properties":{"name":"Le Blavet"},"geometry":{"type":"LineString","coordinates":[[6.6449,43.4652],[6.6451,43.4647]]}},{"type":"Feature","properties":{"name":"Le Blavet"},"geometry":{"type":"LineString","coordinates":[[6.6451,43.4647],[6.6481,43.4622],[6.6521,43.4525]]}},{"type":"Feature","properties":{"name":"Pesio"},"geometry":{"type":"LineString","coordinates":[[7.6828,44.3190],[7.6834,44.3216],[7.6796,44.3255],[7.6811,44.3286],[7.6799,44.3312],[7.6815,44.3349],[7.6806,44.3372],[7.6824,44.3407],[7.6813,44.3483],[7.6845,44.3522],[7.6900,44.3543],[7.6924,44.3594],[7.6948,44.3607],[7.6944,44.3623],[7.6955,44.3643],[7.6991,44.3649],[7.7013,44.3667],[7.7014,44.3687],[7.7046,44.3718],[7.7047,44.3738],[7.7063,44.3765],[7.7102,44.3802],[7.7103,44.3865],[7.7129,44.3882],[7.7133,44.3905],[7.7122,44.3928],[7.7133,44.3943],[7.7115,44.3956],[7.7159,44.3995],[7.7156,44.4014],[7.7190,44.4075],[7.7172,44.4116],[7.7204,44.4181],[7.7197,44.4208],[7.7300,44.4186],[7.7348,44.4196],[7.7353,44.4217],[7.7395,44.4240],[7.7444,44.4240],[7.7450,44.4223],[7.7467,44.4220],[7.7489,44.4237],[7.7561,44.4236],[7.7611,44.4261],[7.7622,44.4288],[7.7657,44.4286],[7.7681,44.4299],[7.7709,44.4288],[7.7722,44.4315],[7.7750,44.4332],[7.7774,44.4326],[7.7797,44.4338],[7.7870,44.4339],[7.7953,44.4356],[7.7984,44.4380],[7.8029,44.4390],[7.8058,44.4437],[7.8093,44.4449],[7.8104,44.4473],[7.8136,44.4487],[7.8153,44.4469],[7.8220,44.4486],[7.8279,44.4535],[7.8313,44.4516],[7.8332,44.4531],[7.8345,44.4561],[7.8422,44.4546],[7.8431,44.4575],[7.8470,44.4591],[7.8488,44.4582],[7.8525,44.4600],[7.8575,44.4588],[7.8602,44.4601],[7.8660,44.4596],[7.8692,44.4636],[7.8747,44.4608],[7.8810,44.4665],[7.8840,44.4631],[7.8854,44.4628],[7.8866,44.4632],[7.8894,44.4673]]}},{"type":"Feature","properties":{"name":"La Grande Frayère"},"geometry":{"type":"LineString","coordinates":[[6.9680,43.5599],[6.9646,43.5583]]}},{"type":"Feature","properties":{"name":"La Grande Frayère"},"geometry":{"type":"LineString","coordinates":[[6.9682,43.5600],[6.9680,43.5599]]}},{"type":"Feature","properties":{"name":"La Grande Frayère"},"geometry":{"type":"LineString","coordinates":[[6.9646,43.5583],[6.9645,43.5581]]}},{"type":"Feature","properties":{"name":"La Grande Frayère"},"geometry":{"type":"LineString","coordinates":[[6.9730,43.5656],[6.9736,43.5657]]}},{"type":"Feature","properties":{"name":"La Grande Frayère"},"geometry":{"type":"LineString","coordinates":[[6.9763,43.5750],[6.9763,43.5746]]}},{"type":"Feature","properties":{"name":"La Grande Frayère"},"geometry":{"type":"LineString","coordinates":[[6.9763,43.5746],[6.9730,43.5691],[6.9730,43.5656]]}},{"type":"Feature","properties":{"name":"La Grande Frayère"},"geometry":{"type":"LineString","coordinates":[[6.9736,43.5657],[6.9732,43.5625],[6.9682,43.5600]]}},{"type":"Feature","properties":{"name":"La Grande Frayère"},"geometry":{"type":"LineString","coordinates":[[6.9834,43.5786],[6.9812,43.5772],[6.9775,43.5766],[6.9783,43.5761],[6.9763,43.5750]]}},{"type":"Feature","properties":{"name":"Torrente Bevera"},"geometry":{"type":"LineString","coordinates":[[7.5089,43.8790],[7.5109,43.8774],[7.5158,43.8773],[7.5180,43.8760],[7.5182,43.8741],[7.5214,43.8729],[7.5220,43.8696],[7.5196,43.8662],[7.5237,43.8657],[7.5245,43.8641],[7.5271,43.8641],[7.5244,43.8615],[7.5288,43.8580],[7.5313,43.8585],[7.5314,43.8614],[7.5358,43.8604],[7.5350,43.8620],[7.5359,43.8627],[7.5404,43.8610],[7.5416,43.8623],[7.5416,43.8643],[7.5442,43.8629],[7.5453,43.8647],[7.5482,43.8631],[7.5487,43.8647],[7.5499,43.8646],[7.5507,43.8636],[7.5502,43.8616],[7.5519,43.8607],[7.5535,43.8614],[7.5547,43.8605],[7.5574,43.8605],[7.5588,43.8584],[7.5571,43.8594],[7.5566,43.8572],[7.5526,43.8557],[7.5528,43.8549],[7.5560,43.8555],[7.5557,43.8529],[7.5534,43.8537],[7.5515,43.8528],[7.5543,43.8511],[7.5544,43.8499],[7.5504,43.8494],[7.5499,43.8484],[7.5531,43.8473],[7.5534,43.8453],[7.5510,43.8448],[7.5502,43.8434],[7.5519,43.8434],[7.5516,43.8415],[7.5545,43.8400],[7.5529,43.8385],[7.5547,43.8376],[7.5546,43.8365],[7.5557,43.8356],[7.5573,43.8249],[7.5609,43.8221],[7.5681,43.8199],[7.5758,43.8223],[7.5841,43.8224]]}},{"type":"Feature","properties":{"name":"La Valmasque"},"geometry":{"type":"LineString","coordinates":[[7.0824,43.6079],[7.0843,43.6079],[7.0845,43.6101],[7.0864,43.6095],[7.0882,43.6111],[7.0924,43.6105],[7.0957,43.6138],[7.1007,43.6155],[7.1037,43.6179]]}},{"type":"Feature","properties":{"name":"La Valmasque"},"geometry":{"type":"LineString","coordinates":[[7.0814,43.6077],[7.0824,43.6079]]}},{"type":"Feature","properties":{"name":"La Valmasque"},"geometry":{"type":"LineString","coordinates":[[7.0420,43.5865],[7.0439,43.5913]]}},{"type":"Feature","properties":{"name":"La Valmasque"},"geometry":{"type":"LineString","coordinates":[[7.0450,43.5945],[7.0492,43.5945],[7.0509,43.5953],[7.0517,43.5972]]}},{"type":"Feature","properties":{"name":"La Valmasque"},"geometry":{"type":"LineString","coordinates":[[7.0624,43.6040],[7.0673,43.6063],[7.0655,43.6079],[7.0672,43.6086],[7.0677,43.6105],[7.0699,43.6121],[7.0812,43.6097],[7.0804,43.6081],[7.0814,43.6077]]}},{"type":"Feature","properties":{"name":"La Valmasque"},"geometry":{"type":"LineString","coordinates":[[7.0622,43.6039],[7.0624,43.6040]]}},{"type":"Feature","properties":{"name":"La Valmasque"},"geometry":{"type":"LineString","coordinates":[[7.0517,43.5972],[7.0520,43.5981]]}},{"type":"Feature","properties":{"name":"La Valmasque"},"geometry":{"type":"LineString","coordinates":[[7.0520,43.5981],[7.0544,43.5999],[7.0554,43.6024],[7.0581,43.6029],[7.0590,43.6041],[7.0611,43.6038]]}},{"type":"Feature","properties":{"name":"La Valmasque"},"geometry":{"type":"LineString","coordinates":[[7.0442,43.5914],[7.0447,43.5944]]}},{"type":"Feature","properties":{"name":"La Valmasque"},"geometry":{"type":"LineString","coordinates":[[7.0439,43.5913],[7.0442,43.5914]]}},{"type":"Feature","properties":{"name":"La Valmasque"},"geometry":{"type":"LineString","coordinates":[[7.0611,43.6038],[7.0613,43.6038]]}},{"type":"Feature","properties":{"name":"La Valmasque"},"geometry":{"type":"LineString","coordinates":[[7.0613,43.6038],[7.0622,43.6039]]}},{"type":"Feature","properties":{"name":"La Valmasque"},"geometry":{"type":"LineString","coordinates":[[7.0447,43.5944],[7.0450,43.5945]]}},{"type":"Feature","properties":{"name":"L\u0027Endre"},"geometry":{"type":"LineString","coordinates":[[6.6450,43.5647],[6.6434,43.5625],[6.6355,43.5651],[6.6322,43.5621],[6.6311,43.5626],[6.6314,43.5649],[6.6290,43.5648],[6.6276,43.5633],[6.6278,43.5599],[6.6253,43.5598],[6.6238,43.5618],[6.6215,43.5600],[6.6211,43.5573],[6.6122,43.5544],[6.6077,43.5519],[6.6045,43.5482],[6.6005,43.5499],[6.5982,43.5478],[6.5943,43.5486],[6.5937,43.5463],[6.5897,43.5447],[6.5887,43.5429],[6.5882,43.5434],[6.5874,43.5398]]}},{"type":"Feature","properties":{"name":"L\u0027Endre"},"geometry":{"type":"LineString","coordinates":[[6.5874,43.5398],[6.5857,43.5336],[6.5822,43.5295],[6.5775,43.5262],[6.5765,43.5233],[6.5774,43.5214],[6.5810,43.5188],[6.5853,43.5177],[6.5847,43.5148],[6.5895,43.5068],[6.5905,43.5001],[6.5898,43.4986],[6.5943,43.4960],[6.5938,43.4936],[6.5900,43.4931],[6.5894,43.4923],[6.5952,43.4870],[6.5941,43.4842],[6.5916,43.4826],[6.5903,43.4794],[6.5913,43.4759],[6.5944,43.4724],[6.5973,43.4717],[6.6005,43.4693],[6.5996,43.4673],[6.6003,43.4665],[6.6058,43.4668],[6.6084,43.4660]]}},{"type":"Feature","properties":{"name":"L\u0027Endre"},"geometry":{"type":"LineString","coordinates":[[6.6084,43.4660],[6.6107,43.4659]]}},{"type":"Feature","properties":{"name":"Le Réfréi"},"geometry":{"type":"LineString","coordinates":[[7.6408,44.1344],[7.6338,44.1282],[7.6318,44.1243],[7.6275,44.1230],[7.6253,44.1197],[7.6192,44.1171],[7.6171,44.1140],[7.6144,44.1128],[7.6158,44.1112],[7.6127,44.1077],[7.6128,44.1064]]}},{"type":"Feature","properties":{"name":"Le Verdon"},"geometry":{"type":"LineString","coordinates":[[6.6337,44.1945],[6.6322,44.1936],[6.6338,44.1916],[6.6326,44.1901],[6.6336,44.1892],[6.6315,44.1866],[6.6312,44.1844],[6.6248,44.1820],[6.6237,44.1808],[6.6236,44.1788]]}},{"type":"Feature","properties":{"name":"Le Verdon"},"geometry":{"type":"LineString","coordinates":[[6.5699,44.2902],[6.5730,44.2855],[6.5725,44.2836],[6.5715,44.2832],[6.5718,44.2815],[6.5734,44.2797],[6.5733,44.2783],[6.5759,44.2768],[6.5796,44.2656],[6.5824,44.2618],[6.5871,44.2578],[6.5951,44.2542],[6.5997,44.2506],[6.6018,44.2476],[6.6077,44.2452],[6.6180,44.2445],[6.6202,44.2434],[6.6233,44.2388],[6.6270,44.2302],[6.6318,44.2238],[6.6360,44.2141],[6.6364,44.2062],[6.6349,44.2001],[6.6363,44.1982],[6.6341,44.1965],[6.6349,44.1951],[6.6337,44.1945]]}},{"type":"Feature","properties":{"name":"Le Verdon"},"geometry":{"type":"LineString","coordinates":[[6.6122,44.1646],[6.6112,44.1624],[6.6087,44.1612],[6.6086,44.1599],[6.6048,44.1584],[6.6036,44.1545],[6.5995,44.1513],[6.5952,44.1433]]}},{"type":"Feature","properties":{"name":"Le Verdon"},"geometry":{"type":"LineString","coordinates":[[6.6309,44.1843],[6.6295,44.1842]]}},{"type":"Feature","properties":{"name":"Le Verdon"},"geometry":{"type":"LineString","coordinates":[[6.6236,44.1788],[6.6195,44.1781],[6.6171,44.1719],[6.6147,44.1702],[6.6143,44.1680],[6.6120,44.1661],[6.6122,44.1646]]}},{"type":"Feature","properties":{"name":"Le Malvan"},"geometry":{"type":"LineString","coordinates":[[7.1236,43.6713],[7.1235,43.6686],[7.1309,43.6624]]}},{"type":"Feature","properties":{"name":"Le Malvan"},"geometry":{"type":"LineString","coordinates":[[7.1407,43.6603],[7.1413,43.6600]]}},{"type":"Feature","properties":{"name":"Le Malvan"},"geometry":{"type":"LineString","coordinates":[[7.1413,43.6600],[7.1441,43.6599]]}},{"type":"Feature","properties":{"name":"Le Malvan"},"geometry":{"type":"LineString","coordinates":[[7.1441,43.6599],[7.1517,43.6574]]}},{"type":"Feature","properties":{"name":"Le Malvan"},"geometry":{"type":"LineString","coordinates":[[7.1517,43.6574],[7.1531,43.6569]]}},{"type":"Feature","properties":{"name":"Le Malvan"},"geometry":{"type":"LineString","coordinates":[[7.1380,43.6604],[7.1407,43.6603]]}},{"type":"Feature","properties":{"name":"Le Malvan"},"geometry":{"type":"LineString","coordinates":[[7.1356,43.6603],[7.1380,43.6604]]}},{"type":"Feature","properties":{"name":"Le Malvan"},"geometry":{"type":"LineString","coordinates":[[7.1309,43.6624],[7.1320,43.6622]]}},{"type":"Feature","properties":{"name":"Le Malvan"},"geometry":{"type":"LineString","coordinates":[[7.1320,43.6622],[7.1356,43.6603]]}},{"type":"Feature","properties":{"name":"Le Malvan"},"geometry":{"type":"LineString","coordinates":[[7.1534,43.6568],[7.1535,43.6568]]}},{"type":"Feature","properties":{"name":"Le Malvan"},"geometry":{"type":"LineString","coordinates":[[7.1531,43.6569],[7.1534,43.6568]]}},{"type":"Feature","properties":{"name":"Rio Sec"},"geometry":{"type":"LineString","coordinates":[[7.2692,43.8028],[7.2726,43.8001],[7.2755,43.8003],[7.2773,43.7991],[7.2775,43.7956],[7.2764,43.7949],[7.2811,43.7878],[7.2788,43.7852],[7.2829,43.7833],[7.2819,43.7811],[7.2829,43.7801],[7.2828,43.7785]]}},{"type":"Feature","properties":{"name":"Rio Sec"},"geometry":{"type":"LineString","coordinates":[[7.2850,43.7759],[7.2852,43.7741],[7.2815,43.7745],[7.2788,43.7733]]}},{"type":"Feature","properties":{"name":"Rio Sec"},"geometry":{"type":"LineString","coordinates":[[7.2828,43.7785],[7.2850,43.7759]]}},{"type":"Feature","properties":{"name":"Rio Sec"},"geometry":{"type":"LineString","coordinates":[[7.2615,43.8209],[7.2636,43.8200],[7.2631,43.8188],[7.2636,43.8170],[7.2648,43.8165],[7.2653,43.8141],[7.2647,43.8133],[7.2657,43.8117],[7.2648,43.8106],[7.2661,43.8078],[7.2684,43.8057],[7.2682,43.8036],[7.2692,43.8028]]}},{"type":"Feature","properties":{"name":"Rio Sec"},"geometry":{"type":"LineString","coordinates":[[7.2615,43.8216],[7.2615,43.8209]]}},{"type":"Feature","properties":{"name":"Le Laghet"},"geometry":{"type":"LineString","coordinates":[[7.3593,43.7480],[7.3523,43.7474],[7.3513,43.7483],[7.3490,43.7477],[7.3480,43.7483],[7.3474,43.7474],[7.3463,43.7483],[7.3453,43.7474],[7.3435,43.7489],[7.3367,43.7478]]}},{"type":"Feature","properties":{"name":"Le Laghet"},"geometry":{"type":"LineString","coordinates":[[7.3200,43.7444],[7.3097,43.7410]]}},{"type":"Feature","properties":{"name":"Le Laghet"},"geometry":{"type":"LineString","coordinates":[[7.3366,43.7479],[7.3311,43.7474],[7.3244,43.7449],[7.3200,43.7444]]}},{"type":"Feature","properties":{"name":"Le Laghet"},"geometry":{"type":"LineString","coordinates":[[7.3367,43.7478],[7.3366,43.7479]]}},{"type":"Feature","properties":{"name":"Le Coulomp"},"geometry":{"type":"LineString","coordinates":[[6.7175,44.0415],[6.7180,44.0396],[6.7170,44.0380],[6.7120,44.0358],[6.7125,44.0346],[6.7110,44.0322],[6.7114,44.0292],[6.7123,44.0284],[6.7113,44.0281],[6.7100,44.0251],[6.7071,44.0229],[6.7053,44.0228],[6.7023,44.0202],[6.7019,44.0184],[6.6981,44.0165],[6.6957,44.0139],[6.6927,44.0128],[6.6909,44.0106],[6.6889,44.0106],[6.6887,44.0094],[6.6843,44.0058],[6.6832,44.0037],[6.6834,44.0016],[6.6816,43.9991],[6.6845,43.9940],[6.6918,43.9876],[6.6934,43.9803],[6.6907,43.9719],[6.6914,43.9684],[6.6933,43.9661],[6.6966,43.9583],[6.6999,43.9571]]}},{"type":"Feature","properties":{"name":"Le Coulomp"},"geometry":{"type":"LineString","coordinates":[[6.6999,43.9571],[6.7105,43.9590],[6.7183,43.9592],[6.7213,43.9581],[6.7282,43.9589],[6.7308,43.9581],[6.7357,43.9584],[6.7369,43.9591],[6.7376,43.9612],[6.7448,43.9645],[6.7504,43.9664],[6.7598,43.9672],[6.7670,43.9707]]}},{"type":"Feature","properties":{"name":"Le Biançon"},"geometry":{"type":"LineString","coordinates":[[6.7690,43.5944],[6.7703,43.5942],[6.7698,43.5923],[6.7725,43.5915],[6.7735,43.5898],[6.7711,43.5874],[6.7746,43.5858]]}},{"type":"Feature","properties":{"name":"Le Biançon"},"geometry":{"type":"LineString","coordinates":[[6.7746,43.5858],[6.7826,43.5838],[6.7848,43.5841],[6.7858,43.5829],[6.7895,43.5824],[6.7916,43.5847],[6.7928,43.5848],[6.8000,43.5817]]}},{"type":"Feature","properties":{"name":"Le Biançon"},"geometry":{"type":"LineString","coordinates":[[6.8000,43.5817],[6.8044,43.5847],[6.8133,43.5882],[6.8177,43.5987],[6.8244,43.5995],[6.8259,43.5974],[6.8270,43.5973],[6.8282,43.5986],[6.8298,43.5983]]}},{"type":"Feature","properties":{"name":"Le Biançon"},"geometry":{"type":"LineString","coordinates":[[6.8417,43.6010],[6.8418,43.6045],[6.8457,43.6065],[6.8463,43.6075],[6.8452,43.6098],[6.8470,43.6101]]}},{"type":"Feature","properties":{"name":"Le Biançon"},"geometry":{"type":"LineString","coordinates":[[6.8331,43.5962],[6.8348,43.5961],[6.8345,43.5942],[6.8386,43.5935],[6.8387,43.5944],[6.8366,43.5963],[6.8369,43.5977],[6.8353,43.5981],[6.8369,43.5992],[6.8405,43.5996],[6.8417,43.6010]]}},{"type":"Feature","properties":{"name":"Siagne de Pare"},"geometry":{"type":"LineString","coordinates":[[6.7670,43.7214],[6.7668,43.7165],[6.7680,43.7129],[6.7671,43.7107],[6.7743,43.7044],[6.7726,43.6977],[6.7738,43.6968],[6.7728,43.6954],[6.7748,43.6942]]}},{"type":"Feature","properties":{"name":"Stura di Demonte"},"geometry":{"type":"LineString","coordinates":[[7.4530,44.3392],[7.4578,44.3405],[7.4591,44.3393],[7.4649,44.3401],[7.4659,44.3412],[7.4648,44.3445],[7.4689,44.3438],[7.4709,44.3447],[7.4708,44.3462],[7.4717,44.3466],[7.4870,44.3461],[7.4867,44.3474],[7.4832,44.3489],[7.4830,44.3509],[7.4846,44.3530],[7.4883,44.3534],[7.4902,44.3553],[7.4905,44.3580],[7.4933,44.3585],[7.4935,44.3607],[7.4957,44.3606],[7.4966,44.3652],[7.4991,44.3666],[7.4991,44.3680],[7.5046,44.3694],[7.5050,44.3724],[7.5087,44.3751],[7.5126,44.3761],[7.5142,44.3780],[7.5179,44.3781],[7.5211,44.3812],[7.5247,44.3824],[7.5263,44.3847],[7.5288,44.3843],[7.5299,44.3870],[7.5391,44.3957],[7.5418,44.3963],[7.5548,44.4039],[7.5566,44.4094],[7.5556,44.4115],[7.5564,44.4132],[7.5603,44.4158],[7.5652,44.4214],[7.5738,44.4232],[7.5799,44.4268],[7.5805,44.4289],[7.5925,44.4341],[7.5959,44.4347],[7.5991,44.4340],[7.6026,44.4372],[7.6050,44.4369],[7.6081,44.4383],[7.6127,44.4388],[7.6177,44.4428],[7.6229,44.4429],[7.6259,44.4444],[7.6289,44.4479],[7.6367,44.4511],[7.6411,44.4552],[7.6475,44.4570],[7.6509,44.4615],[7.6587,44.4664],[7.6603,44.4694],[7.6673,44.4696],[7.6686,44.4742],[7.6726,44.4759],[7.6731,44.4775],[7.6723,44.4789],[7.6775,44.4818],[7.6816,44.4825],[7.6840,44.4867],[7.6936,44.4982],[7.7015,44.5014],[7.7088,44.5083],[7.7091,44.5095],[7.7221,44.5188],[7.7235,44.5233],[7.7265,44.5280],[7.7309,44.5312],[7.7296,44.5346],[7.7314,44.5365],[7.7322,44.5399],[7.7344,44.5434],[7.7316,44.5465],[7.7321,44.5475],[7.7388,44.5488],[7.7440,44.5512],[7.7447,44.5524],[7.7433,44.5567],[7.7449,44.5588],[7.7557,44.5612],[7.7581,44.5633],[7.7591,44.5657],[7.7713,44.5700],[7.7760,44.5790],[7.7782,44.5810],[7.7802,44.5865],[7.7805,44.5916],[7.7875,44.6013],[7.7875,44.6070],[7.7905,44.6116],[7.7891,44.6182],[7.7955,44.6217],[7.7995,44.6261],[7.8020,44.6261],[7.8034,44.6272],[7.8109,44.6357],[7.8171,44.6394],[7.8224,44.6471],[7.8268,44.6475],[7.8284,44.6509],[7.8324,44.6524],[7.8369,44.6560],[7.8536,44.6580],[7.8622,44.6610],[7.8650,44.6608],[7.8724,44.6574],[7.8757,44.6534],[7.8825,44.6509]]}},{"type":"Feature","properties":{"name":"Stura di Demonte"},"geometry":{"type":"LineString","coordinates":[[6.9265,44.3980],[6.9326,44.3973],[6.9429,44.3939],[6.9481,44.3937],[6.9590,44.3902],[6.9633,44.3867],[6.9636,44.3832],[6.9686,44.3797],[6.9685,44.3787],[6.9706,44.3758],[6.9718,44.3756],[6.9726,44.3734],[6.9788,44.3724],[6.9857,44.3684],[6.9892,44.3646],[6.9933,44.3623],[6.9957,44.3590],[6.9976,44.3581],[7.0001,44.3582],[7.0012,44.3592],[7.0088,44.3587],[7.0107,44.3575],[7.0111,44.3553],[7.0142,44.3528],[7.0179,44.3523],[7.0191,44.3481],[7.0298,44.3454],[7.0320,44.3434],[7.0364,44.3426],[7.0406,44.3436],[7.0444,44.3420],[7.0584,44.3404],[7.0650,44.3376],[7.0705,44.3366],[7.0788,44.3313],[7.0841,44.3293],[7.0878,44.3243],[7.0953,44.3198],[7.0979,44.3162],[7.1011,44.3149],[7.1114,44.3042],[7.1179,44.3010],[7.1206,44.3011],[7.1232,44.2997],[7.1261,44.3003],[7.1306,44.3001],[7.1330,44.2990],[7.1411,44.2990],[7.1451,44.3014],[7.1505,44.3020],[7.1541,44.3038],[7.1625,44.3057],[7.1713,44.3024],[7.1830,44.3036],[7.1883,44.3060],[7.1908,44.3094],[7.1933,44.3109],[7.2014,44.3109],[7.2088,44.3091],[7.2142,44.3106],[7.2202,44.3108],[7.2246,44.3099],[7.2311,44.3108],[7.2350,44.3092],[7.2364,44.3105],[7.2409,44.3115],[7.2443,44.3140],[7.2521,44.3152],[7.2548,44.3143],[7.2693,44.3138],[7.2835,44.3077],[7.3006,44.3064],[7.3050,44.3052],[7.3084,44.3051],[7.3145,44.3070],[7.3192,44.3051],[7.3238,44.3046],[7.3288,44.3083],[7.3342,44.3081],[7.3379,44.3067],[7.3408,44.3079],[7.3438,44.3066],[7.3508,44.3065],[7.3587,44.3083],[7.3614,44.3073],[7.3641,44.3081],[7.3682,44.3071],[7.3775,44.3104],[7.3811,44.3108],[7.3830,44.3131],[7.3891,44.3158],[7.3916,44.3159],[7.3928,44.3172],[7.3960,44.3173],[7.4007,44.3206],[7.4021,44.3244],[7.4065,44.3273],[7.4138,44.3286],[7.4168,44.3324],[7.4169,44.3364],[7.4203,44.3385],[7.4231,44.3369],[7.4267,44.3370],[7.4265,44.3386],[7.4233,44.3390],[7.4219,44.3406],[7.4218,44.3420],[7.4236,44.3434],[7.4293,44.3447],[7.4325,44.3418],[7.4310,44.3409],[7.4319,44.3395],[7.4332,44.3396],[7.4335,44.3411],[7.4364,44.3414],[7.4398,44.3409],[7.4442,44.3386],[7.4530,44.3392]]}},{"type":"Feature","properties":{"name":"Stura di Demonte"},"geometry":{"type":"LineString","coordinates":[[7.4957,44.3606],[7.4984,44.3617],[7.4990,44.3635],[7.5010,44.3649],[7.4991,44.3672]]}},{"type":"Feature","properties":{"name":"Grana"},"geometry":{"type":"LineString","coordinates":[[7.1478,44.3852],[7.1471,44.3867],[7.1498,44.3903]]}},{"type":"Feature","properties":{"name":"Grana"},"geometry":{"type":"LineString","coordinates":[[7.1498,44.3903],[7.1498,44.3904]]}},{"type":"Feature","properties":{"name":"Grana"},"geometry":{"type":"LineString","coordinates":[[7.1498,44.3904],[7.1519,44.3933],[7.1580,44.3949],[7.1625,44.3948],[7.1691,44.3981],[7.1718,44.3970],[7.1778,44.3967],[7.1881,44.3932],[7.1918,44.3931],[7.2001,44.3976],[7.2018,44.3993],[7.2015,44.4008],[7.2037,44.4035],[7.2082,44.4047],[7.2105,44.4073],[7.2129,44.4077],[7.2162,44.4101],[7.2231,44.4109],[7.2254,44.4146],[7.2276,44.4133],[7.2321,44.4133],[7.2335,44.4144],[7.2351,44.4129],[7.2348,44.4116]]}},{"type":"Feature","properties":{"name":"La Vésubie"},"geometry":{"type":"LineString","coordinates":[[7.2443,43.8825],[7.2385,43.8807],[7.2361,43.8788],[7.2334,43.8793],[7.2289,43.8782],[7.2235,43.8748],[7.2211,43.8746],[7.2156,43.8699],[7.2120,43.8620],[7.2073,43.8606],[7.2015,43.8616],[7.1989,43.8598],[7.1973,43.8602]]}},{"type":"Feature","properties":{"name":"La Vésubie"},"geometry":{"type":"LineString","coordinates":[[7.3121,43.9713],[7.3070,43.9679],[7.3063,43.9659],[7.3046,43.9649],[7.3035,43.9630],[7.3032,43.9580],[7.2997,43.9569],[7.2956,43.9515],[7.2925,43.9505],[7.2919,43.9488],[7.2864,43.9456],[7.2854,43.9432]]}},{"type":"Feature","properties":{"name":"La Vésubie"},"geometry":{"type":"LineString","coordinates":[[7.3178,43.9828],[7.3176,43.9820],[7.3161,43.9818],[7.3167,43.9792],[7.3158,43.9762],[7.3134,43.9746],[7.3144,43.9735],[7.3143,43.9721],[7.3121,43.9713]]}},{"type":"Feature","properties":{"name":"La Vésubie"},"geometry":{"type":"LineString","coordinates":[[7.2642,43.9229],[7.2641,43.9197],[7.2653,43.9185],[7.2632,43.9170],[7.2614,43.9137],[7.2621,43.9120],[7.2613,43.9103],[7.2602,43.9101],[7.2573,43.9056],[7.2551,43.9052],[7.2539,43.9039],[7.2542,43.9025],[7.2524,43.8978],[7.2543,43.8924],[7.2467,43.8869],[7.2465,43.8849],[7.2443,43.8825]]}},{"type":"Feature","properties":{"name":"La Vésubie"},"geometry":{"type":"LineString","coordinates":[[7.2876,43.9461],[7.2864,43.9448]]}},{"type":"Feature","properties":{"name":"La Vésubie"},"geometry":{"type":"LineString","coordinates":[[7.3087,44.0222],[7.3083,44.0212]]}},{"type":"Feature","properties":{"name":"La Vésubie"},"geometry":{"type":"LineString","coordinates":[[7.2893,44.0387],[7.2916,44.0369]]}},{"type":"Feature","properties":{"name":"La Vésubie"},"geometry":{"type":"LineString","coordinates":[[7.2629,44.0501],[7.2627,44.0496]]}},{"type":"Feature","properties":{"name":"La Vésubie"},"geometry":{"type":"LineString","coordinates":[[7.2609,44.0548],[7.2617,44.0546],[7.2620,44.0525]]}},{"type":"Feature","properties":{"name":"La Vésubie"},"geometry":{"type":"LineString","coordinates":[[7.2705,44.0468],[7.2705,44.0466]]}},{"type":"Feature","properties":{"name":"La Vésubie"},"geometry":{"type":"LineString","coordinates":[[7.2648,44.0489],[7.2693,44.0471]]}},{"type":"Feature","properties":{"name":"La Vésubie"},"geometry":{"type":"LineString","coordinates":[[7.2722,44.0461],[7.2729,44.0458]]}},{"type":"Feature","properties":{"name":"La Vésubie"},"geometry":{"type":"LineString","coordinates":[[7.2920,44.0362],[7.2933,44.0354]]}},{"type":"Feature","properties":{"name":"La Vésubie"},"geometry":{"type":"LineString","coordinates":[[7.2553,44.0660],[7.2541,44.0641],[7.2553,44.0607],[7.2571,44.0575],[7.2614,44.0546],[7.2630,44.0494],[7.2681,44.0490],[7.2693,44.0470],[7.2746,44.0451],[7.2752,44.0442],[7.2842,44.0417],[7.2946,44.0350],[7.2962,44.0329],[7.3022,44.0324],[7.3093,44.0274],[7.3081,44.0252],[7.3082,44.0212],[7.3111,44.0175],[7.3113,44.0157]]}},{"type":"Feature","properties":{"name":"La Vésubie"},"geometry":{"type":"LineString","coordinates":[[7.2784,44.0435],[7.2798,44.0428]]}},{"type":"Feature","properties":{"name":"La Vésubie"},"geometry":{"type":"LineString","coordinates":[[7.2626,44.0505],[7.2639,44.0491]]}},{"type":"Feature","properties":{"name":"La Vésubie"},"geometry":{"type":"LineString","coordinates":[[7.2840,44.0417],[7.2861,44.0407]]}},{"type":"Feature","properties":{"name":"La Vésubie"},"geometry":{"type":"LineString","coordinates":[[7.2617,44.0539],[7.2620,44.0516]]}},{"type":"Feature","properties":{"name":"La Vésubie"},"geometry":{"type":"LineString","coordinates":[[7.2622,44.0522],[7.2625,44.0507]]}},{"type":"Feature","properties":{"name":"La Vésubie"},"geometry":{"type":"LineString","coordinates":[[7.2692,44.0475],[7.2711,44.0465]]}},{"type":"Feature","properties":{"name":"La Vésubie"},"geometry":{"type":"LineString","coordinates":[[7.2627,44.0519],[7.2625,44.0507]]}},{"type":"Feature","properties":{"name":"La Vésubie"},"geometry":{"type":"LineString","coordinates":[[7.2725,44.0459],[7.2731,44.0454]]}},{"type":"Feature","properties":{"name":"La Vésubie"},"geometry":{"type":"LineString","coordinates":[[7.2621,44.0511],[7.2625,44.0501]]}},{"type":"Feature","properties":{"name":"La Vésubie"},"geometry":{"type":"LineString","coordinates":[[7.3166,43.9783],[7.3160,43.9769]]}},{"type":"Feature","properties":{"name":"La Vésubie"},"geometry":{"type":"LineString","coordinates":[[7.3168,43.9819],[7.3162,43.9810]]}},{"type":"Feature","properties":{"name":"La Vésubie"},"geometry":{"type":"LineString","coordinates":[[7.3178,43.9859],[7.3181,43.9844]]}},{"type":"Feature","properties":{"name":"La Vésubie"},"geometry":{"type":"LineString","coordinates":[[7.3194,43.9893],[7.3179,43.9864]]}},{"type":"Feature","properties":{"name":"La Vésubie"},"geometry":{"type":"LineString","coordinates":[[7.3100,44.0030],[7.3100,44.0014]]}},{"type":"Feature","properties":{"name":"La Vésubie"},"geometry":{"type":"LineString","coordinates":[[7.3105,44.0043],[7.3100,44.0034]]}},{"type":"Feature","properties":{"name":"La Vésubie"},"geometry":{"type":"LineString","coordinates":[[7.3108,44.0056],[7.3106,44.0049]]}},{"type":"Feature","properties":{"name":"La Vésubie"},"geometry":{"type":"LineString","coordinates":[[7.3118,44.0101],[7.3106,44.0069]]}},{"type":"Feature","properties":{"name":"La Vésubie"},"geometry":{"type":"LineString","coordinates":[[7.3104,44.0181],[7.3108,44.0177]]}},{"type":"Feature","properties":{"name":"La Vésubie"},"geometry":{"type":"LineString","coordinates":[[7.3107,44.0179],[7.3112,44.0173]]}},{"type":"Feature","properties":{"name":"La Vésubie"},"geometry":{"type":"LineString","coordinates":[[7.2831,43.9416],[7.2815,43.9409],[7.2801,43.9385],[7.2764,43.9384],[7.2729,43.9363],[7.2647,43.9349],[7.2659,43.9292],[7.2650,43.9267],[7.2633,43.9259],[7.2642,43.9251],[7.2634,43.9233],[7.2642,43.9229]]}},{"type":"Feature","properties":{"name":"La Vésubie"},"geometry":{"type":"LineString","coordinates":[[7.2854,43.9432],[7.2831,43.9416]]}},{"type":"Feature","properties":{"name":"La Vésubie"},"geometry":{"type":"LineString","coordinates":[[7.3185,43.9865],[7.3178,43.9863],[7.3178,43.9828]]}},{"type":"Feature","properties":{"name":"La Vésubie"},"geometry":{"type":"LineString","coordinates":[[7.3113,44.0157],[7.3123,44.0114],[7.3105,44.0078],[7.3103,44.0000],[7.3157,43.9965],[7.3192,43.9895]]}},{"type":"Feature","properties":{"name":"La Vésubie"},"geometry":{"type":"LineString","coordinates":[[7.3192,43.9895],[7.3199,43.9881],[7.3185,43.9865]]}},{"type":"Feature","properties":{"name":"La Gordolasque"},"geometry":{"type":"LineString","coordinates":[[7.3954,44.0657],[7.3932,44.0632],[7.3915,44.0629],[7.3890,44.0587],[7.3859,44.0561],[7.3859,44.0548],[7.3835,44.0534],[7.3839,44.0518],[7.3828,44.0489]]}},{"type":"Feature","properties":{"name":"La Gordolasque"},"geometry":{"type":"LineString","coordinates":[[7.3828,44.0489],[7.3817,44.0472],[7.3797,44.0472],[7.3764,44.0437],[7.3741,44.0433],[7.3724,44.0412],[7.3647,44.0406],[7.3635,44.0394],[7.3583,44.0387],[7.3569,44.0368],[7.3549,44.0368],[7.3457,44.0305],[7.3393,44.0289],[7.3387,44.0277],[7.3343,44.0275],[7.3317,44.0263],[7.3304,44.0250],[7.3305,44.0234],[7.3315,44.0211],[7.3348,44.0192],[7.3353,44.0163]]}},{"type":"Feature","properties":{"name":"La Gordolasque"},"geometry":{"type":"LineString","coordinates":[[7.3966,44.0663],[7.3954,44.0657]]}},{"type":"Feature","properties":{"name":"La Gordolasque"},"geometry":{"type":"LineString","coordinates":[[7.3352,44.0160],[7.3353,44.0159]]}},{"type":"Feature","properties":{"name":"La Gordolasque"},"geometry":{"type":"LineString","coordinates":[[7.3353,44.0163],[7.3350,44.0158]]}},{"type":"Feature","properties":{"name":"La Gordolasque"},"geometry":{"type":"LineString","coordinates":[[7.3353,44.0163],[7.3321,44.0120],[7.3301,44.0116],[7.3286,44.0095],[7.3253,44.0082],[7.3229,44.0090],[7.3195,44.0081],[7.3149,44.0060],[7.3122,44.0024],[7.3102,44.0017]]}},{"type":"Feature","properties":{"name":"La Gordolasque"},"geometry":{"type":"LineString","coordinates":[[7.3422,44.0297],[7.3419,44.0294]]}},{"type":"Feature","properties":{"name":"La Gordolasque"},"geometry":{"type":"LineString","coordinates":[[7.3419,44.0294],[7.3411,44.0291]]}},{"type":"Feature","properties":{"name":"La Gordolasque"},"geometry":{"type":"LineString","coordinates":[[7.3401,44.0292],[7.3396,44.0290]]}},{"type":"Feature","properties":{"name":"La Gordolasque"},"geometry":{"type":"LineString","coordinates":[[7.3435,44.0300],[7.3431,44.0301]]}},{"type":"Feature","properties":{"name":"La Gordolasque"},"geometry":{"type":"LineString","coordinates":[[7.3523,44.0343],[7.3521,44.0342]]}},{"type":"Feature","properties":{"name":"La Gordolasque"},"geometry":{"type":"LineString","coordinates":[[7.3522,44.0346],[7.3519,44.0341]]}},{"type":"Feature","properties":{"name":"La Gordolasque"},"geometry":{"type":"LineString","coordinates":[[7.3548,44.0365],[7.3544,44.0362]]}},{"type":"Feature","properties":{"name":"La Gordolasque"},"geometry":{"type":"LineString","coordinates":[[7.3536,44.0360],[7.3525,44.0351]]}},{"type":"Feature","properties":{"name":"La Gordolasque"},"geometry":{"type":"LineString","coordinates":[[7.3585,44.0388],[7.3583,44.0384]]}},{"type":"Feature","properties":{"name":"La Gordolasque"},"geometry":{"type":"LineString","coordinates":[[7.3591,44.0388],[7.3584,44.0385]]}},{"type":"Feature","properties":{"name":"La Gordolasque"},"geometry":{"type":"LineString","coordinates":[[7.3586,44.0388],[7.3581,44.0381]]}},{"type":"Feature","properties":{"name":"La Gordolasque"},"geometry":{"type":"LineString","coordinates":[[7.3623,44.0393],[7.3612,44.0393]]}},{"type":"Feature","properties":{"name":"La Gordolasque"},"geometry":{"type":"LineString","coordinates":[[7.3728,44.0414],[7.3722,44.0411]]}},{"type":"Feature","properties":{"name":"La Gordolasque"},"geometry":{"type":"LineString","coordinates":[[7.3793,44.0466],[7.3792,44.0463]]}},{"type":"Feature","properties":{"name":"La Gordolasque"},"geometry":{"type":"LineString","coordinates":[[7.3834,44.0506],[7.3834,44.0501]]}},{"type":"Feature","properties":{"name":"La Gordolasque"},"geometry":{"type":"LineString","coordinates":[[7.3942,44.0646],[7.3938,44.0639]]}},{"type":"Feature","properties":{"name":"La Gordolasque"},"geometry":{"type":"LineString","coordinates":[[7.3896,44.0596],[7.3892,44.0590]]}},{"type":"Feature","properties":{"name":"La Gordolasque"},"geometry":{"type":"LineString","coordinates":[[7.3964,44.0662],[7.3948,44.0655]]}},{"type":"Feature","properties":{"name":"La Gordolasque"},"geometry":{"type":"LineString","coordinates":[[7.3263,44.0086],[7.3253,44.0082]]}},{"type":"Feature","properties":{"name":"La Gordolasque"},"geometry":{"type":"LineString","coordinates":[[7.3241,44.0086],[7.3231,44.0089]]}},{"type":"Feature","properties":{"name":"Vermenagna"},"geometry":{"type":"LineString","coordinates":[[7.5617,44.1842],[7.5631,44.1864],[7.5704,44.1911],[7.5768,44.1977],[7.5769,44.1989],[7.5751,44.2004],[7.5740,44.2034],[7.5749,44.2047],[7.5741,44.2082],[7.5718,44.2105],[7.5723,44.2126],[7.5714,44.2152],[7.5679,44.2194],[7.5678,44.2213],[7.5635,44.2234],[7.5637,44.2251],[7.5622,44.2265],[7.5620,44.2284],[7.5577,44.2278],[7.5553,44.2294],[7.5545,44.2312],[7.5527,44.2313],[7.5497,44.2333],[7.5472,44.2332],[7.5434,44.2372],[7.5324,44.2433],[7.5323,44.2455],[7.5307,44.2474],[7.5312,44.2503],[7.5294,44.2529],[7.5279,44.2547],[7.5254,44.2553],[7.5248,44.2574],[7.5224,44.2598],[7.5190,44.2609],[7.5182,44.2621],[7.5179,44.2632],[7.5219,44.2744],[7.5198,44.2763],[7.5194,44.2828],[7.5184,44.2840],[7.5190,44.2870],[7.5171,44.2894],[7.5179,44.2913],[7.5161,44.2939],[7.5159,44.2997],[7.5136,44.3009],[7.5121,44.3034],[7.5054,44.3075],[7.5014,44.3087],[7.4975,44.3084],[7.4926,44.3109],[7.4893,44.3149],[7.4893,44.3161]]}},{"type":"Feature","properties":{"name":"Vermenagna"},"geometry":{"type":"LineString","coordinates":[[7.4893,44.3161],[7.4934,44.3199],[7.4961,44.3204],[7.5000,44.3228],[7.5006,44.3246]]}},{"type":"Feature","properties":{"name":"Le Riou Blanc"},"geometry":{"type":"LineString","coordinates":[[6.7003,43.6036],[6.7059,43.6035],[6.7170,43.6057],[6.7193,43.6045],[6.7218,43.6049],[6.7231,43.6044],[6.7249,43.6013],[6.7289,43.6019],[6.7298,43.6004],[6.7311,43.6002],[6.7330,43.6015],[6.7360,43.6016],[6.7400,43.5994],[6.7437,43.6002],[6.7460,43.5937],[6.7508,43.5934]]}},{"type":"Feature","properties":{"name":"Le Riou Blanc"},"geometry":{"type":"LineString","coordinates":[[6.7509,43.5934],[6.7540,43.5938],[6.7574,43.5958],[6.7612,43.5926],[6.7664,43.5940]]}},{"type":"Feature","properties":{"name":"Le Riou Blanc"},"geometry":{"type":"LineString","coordinates":[[6.7508,43.5934],[6.7509,43.5934]]}},{"type":"Feature","properties":{"name":"Le Riou Blanc"},"geometry":{"type":"LineString","coordinates":[[6.7664,43.5940],[6.7690,43.5944]]}},{"type":"Feature","properties":{"name":"La Bieugne"},"geometry":{"type":"LineString","coordinates":[[7.5292,44.0686],[7.5456,44.0690],[7.5563,44.0628],[7.5597,44.0590],[7.5625,44.0577],[7.5730,44.0545],[7.5838,44.0545],[7.5881,44.0521],[7.5882,44.0499]]}},{"type":"Feature","properties":{"name":"La Bieugne"},"geometry":{"type":"LineString","coordinates":[[7.5831,44.0546],[7.5837,44.0536],[7.5854,44.0538]]}},{"type":"Feature","properties":{"name":"La Bieugne"},"geometry":{"type":"LineString","coordinates":[[7.5742,44.0545],[7.5754,44.0546]]}},{"type":"Feature","properties":{"name":"La Bieugne"},"geometry":{"type":"LineString","coordinates":[[7.5458,44.0690],[7.5461,44.0686]]}},{"type":"Feature","properties":{"name":"La Bieugne"},"geometry":{"type":"LineString","coordinates":[[7.5437,44.0694],[7.5440,44.0693]]}},{"type":"Feature","properties":{"name":"La Bieugne"},"geometry":{"type":"LineString","coordinates":[[7.5357,44.0688],[7.5365,44.0686]]}},{"type":"Feature","properties":{"name":"La Bieugne"},"geometry":{"type":"LineString","coordinates":[[7.5354,44.0689],[7.5360,44.0684]]}},{"type":"Feature","properties":{"name":"Vallon de Casterino"},"geometry":{"type":"LineString","coordinates":[[7.5074,44.0969],[7.5149,44.0908],[7.5174,44.0877],[7.5181,44.0846],[7.5200,44.0834],[7.5202,44.0800],[7.5221,44.0769],[7.5209,44.0727],[7.5271,44.0691]]}},{"type":"Feature","properties":{"name":"Riolan"},"geometry":{"type":"LineString","coordinates":[[6.9422,43.8972],[6.9377,43.8963],[6.9357,43.8911],[6.9372,43.8827],[6.9362,43.8800],[6.9398,43.8776],[6.9463,43.8763],[6.9478,43.8724],[6.9504,43.8712],[6.9510,43.8695],[6.9497,43.8682],[6.9504,43.8653],[6.9514,43.8648]]}},{"type":"Feature","properties":{"name":"La Bernarde"},"geometry":{"type":"LineString","coordinates":[[6.6881,43.9040],[6.6910,43.9064],[6.6968,43.9063],[6.6995,43.9076],[6.7011,43.9104],[6.6942,43.9156],[6.6869,43.9176],[6.6839,43.9206],[6.6736,43.9226]]}},{"type":"Feature","properties":{"name":"La Bernarde"},"geometry":{"type":"LineString","coordinates":[[6.6594,43.8934],[6.6709,43.8969],[6.6747,43.9002],[6.6775,43.9008],[6.6776,43.9016],[6.6810,43.9027],[6.6851,43.9018],[6.6881,43.9040]]}},{"type":"Feature","properties":{"name":"La Bernarde"},"geometry":{"type":"LineString","coordinates":[[6.6733,43.9225],[6.6716,43.9224],[6.6712,43.9239],[6.6680,43.9241],[6.6661,43.9254],[6.6669,43.9281],[6.6657,43.9291]]}},{"type":"Feature","properties":{"name":"La Bernarde"},"geometry":{"type":"LineString","coordinates":[[6.6736,43.9226],[6.6733,43.9225]]}},{"type":"Feature","properties":{"name":"La Siagnole"},"geometry":{"type":"LineString","coordinates":[[6.7057,43.6820],[6.7091,43.6828],[6.7120,43.6816],[6.7180,43.6768],[6.7183,43.6754],[6.7223,43.6734],[6.7218,43.6717],[6.7225,43.6711],[6.7301,43.6696],[6.7328,43.6674],[6.7363,43.6662],[6.7413,43.6655],[6.7434,43.6631],[6.7523,43.6634]]}},{"type":"Feature","properties":{"name":"La Siagnole"},"geometry":{"type":"LineString","coordinates":[[6.7523,43.6634],[6.7570,43.6639],[6.7613,43.6658]]}},{"type":"Feature","properties":{"name":"Le Var"},"geometry":{"type":"LineString","coordinates":[[6.7670,43.9707],[6.7771,43.9705],[6.7791,43.9666],[6.7871,43.9632],[6.7942,43.9616],[6.8015,43.9578],[6.8046,43.9539],[6.8101,43.9510],[6.8094,43.9502],[6.8103,43.9493],[6.8305,43.9538],[6.8324,43.9527],[6.8411,43.9526],[6.8522,43.9553],[6.8700,43.9539],[6.8810,43.9515],[6.8982,43.9548],[6.9018,43.9525],[6.9062,43.9517],[6.9142,43.9549],[6.9205,43.9519],[6.9274,43.9538],[6.9387,43.9527],[6.9430,43.9507],[6.9547,43.9511],[6.9632,43.9473],[6.9766,43.9475],[6.9835,43.9499],[6.9868,43.9490],[6.9895,43.9452],[6.9981,43.9462],[7.0046,43.9438],[7.0097,43.9451]]}},{"type":"Feature","properties":{"name":"Le Var"},"geometry":{"type":"LineString","coordinates":[[7.1869,43.8184],[7.1850,43.8162],[7.1876,43.8104],[7.1995,43.8027],[7.2011,43.7983],[7.2125,43.7885],[7.2166,43.7863],[7.2148,43.7803],[7.2162,43.7780],[7.2159,43.7756],[7.2145,43.7738],[7.2128,43.7733]]}},{"type":"Feature","properties":{"name":"Le Var"},"geometry":{"type":"LineString","coordinates":[[7.1973,43.8602],[7.1945,43.8579],[7.1944,43.8560],[7.1976,43.8532],[7.1952,43.8498],[7.1948,43.8469],[7.1957,43.8435],[7.1947,43.8407]]}},{"type":"Feature","properties":{"name":"Le Var"},"geometry":{"type":"LineString","coordinates":[[7.1882,43.8923],[7.1888,43.8910],[7.1877,43.8887],[7.1902,43.8843],[7.1883,43.8793],[7.1925,43.8762],[7.1919,43.8734],[7.1952,43.8722],[7.1978,43.8693],[7.1972,43.8662],[7.1984,43.8629],[7.1973,43.8602]]}},{"type":"Feature","properties":{"name":"Le Var"},"geometry":{"type":"LineString","coordinates":[[7.2128,43.7733],[7.2115,43.7726],[7.2096,43.7691],[7.2059,43.7681],[7.2054,43.7659],[7.1977,43.7596],[7.1906,43.7512],[7.1849,43.7465],[7.1810,43.7366],[7.1829,43.7325],[7.1824,43.7285],[7.1830,43.7250],[7.1846,43.7226],[7.1857,43.7182],[7.1866,43.7070],[7.1853,43.7047],[7.1871,43.7014],[7.1871,43.6959],[7.1863,43.6945],[7.1874,43.6910],[7.1895,43.6885],[7.1900,43.6826],[7.1948,43.6752],[7.1973,43.6665],[7.2004,43.6627],[7.2008,43.6567],[7.1992,43.6545]]}},{"type":"Feature","properties":{"name":"Le Var"},"geometry":{"type":"LineString","coordinates":[[7.1922,43.8373],[7.1870,43.8247],[7.1869,43.8184]]}},{"type":"Feature","properties":{"name":"Le Var"},"geometry":{"type":"LineString","coordinates":[[7.0097,43.9451],[7.0157,43.9459],[7.0217,43.9439],[7.0259,43.9448],[7.0332,43.9441],[7.0381,43.9419],[7.0439,43.9430],[7.0562,43.9413],[7.0597,43.9374],[7.0620,43.9373],[7.0672,43.9332],[7.0695,43.9356],[7.0740,43.9343],[7.0805,43.9367],[7.0825,43.9366],[7.0869,43.9350],[7.0903,43.9300],[7.0951,43.9279],[7.1163,43.9317],[7.1239,43.9364],[7.1274,43.9361],[7.1328,43.9319],[7.1346,43.9316],[7.1366,43.9320],[7.1376,43.9337],[7.1401,43.9346],[7.1468,43.9307],[7.1503,43.9257],[7.1545,43.9241],[7.1564,43.9222],[7.1613,43.9210],[7.1639,43.9189],[7.1686,43.9196],[7.1759,43.9144],[7.1852,43.9114]]}},{"type":"Feature","properties":{"name":"Le Var"},"geometry":{"type":"LineString","coordinates":[[7.1852,43.9114],[7.1889,43.9078],[7.1931,43.9102],[7.1953,43.9075],[7.1959,43.9045],[7.1947,43.9035],[7.1916,43.9033],[7.1880,43.9008],[7.1908,43.8965],[7.1881,43.8942],[7.1882,43.8923]]}},{"type":"Feature","properties":{"name":"Le Var"},"geometry":{"type":"LineString","coordinates":[[6.8489,43.9546],[6.8532,43.9552]]}},{"type":"Feature","properties":{"name":"Le Var"},"geometry":{"type":"LineString","coordinates":[[6.8184,43.9517],[6.8217,43.9528],[6.8235,43.9524]]}},{"type":"Feature","properties":{"name":"Le Var"},"geometry":{"type":"LineString","coordinates":[[6.8326,43.9527],[6.8416,43.9531],[6.8489,43.9546]]}},{"type":"Feature","properties":{"name":"Le Var"},"geometry":{"type":"LineString","coordinates":[[6.7885,44.1225],[6.7918,44.1214],[6.7938,44.1173],[6.7966,44.1154],[6.8008,44.1144],[6.8064,44.1157],[6.8096,44.1134],[6.8176,44.1123],[6.8195,44.1106],[6.8220,44.1100],[6.8235,44.1082],[6.8335,44.1072],[6.8463,44.1032],[6.8489,44.0987],[6.8489,44.0969],[6.8520,44.0943],[6.8515,44.0912],[6.8528,44.0859],[6.8542,44.0851],[6.8584,44.0752],[6.8556,44.0670]]}},{"type":"Feature","properties":{"name":"Le Var"},"geometry":{"type":"LineString","coordinates":[[6.7520,44.2360],[6.7535,44.2300],[6.7502,44.2259],[6.7488,44.2198],[6.7462,44.2174],[6.7445,44.2111],[6.7419,44.2090],[6.7420,44.2076],[6.7434,44.2067],[6.7425,44.2048],[6.7443,44.1998],[6.7438,44.1974],[6.7486,44.1899],[6.7479,44.1877],[6.7500,44.1846],[6.7488,44.1820],[6.7509,44.1773],[6.7506,44.1751],[6.7517,44.1736],[6.7512,44.1728],[6.7527,44.1687],[6.7543,44.1670],[6.7542,44.1646],[6.7565,44.1630],[6.7564,44.1619],[6.7587,44.1592],[6.7578,44.1555],[6.7618,44.1443],[6.7643,44.1423],[6.7667,44.1361],[6.7691,44.1332],[6.7714,44.1321],[6.7739,44.1285],[6.7806,44.1266],[6.7831,44.1242],[6.7885,44.1225]]}},{"type":"Feature","properties":{"name":"Le Var"},"geometry":{"type":"LineString","coordinates":[[7.1947,43.8407],[7.1922,43.8373]]}},{"type":"Feature","properties":{"name":"Le Var"},"geometry":{"type":"LineString","coordinates":[[6.7520,44.2365],[6.7520,44.2364]]}},{"type":"Feature","properties":{"name":"Le Var"},"geometry":{"type":"LineString","coordinates":[[6.7520,44.2364],[6.7520,44.2363]]}},{"type":"Feature","properties":{"name":"Le Var"},"geometry":{"type":"LineString","coordinates":[[6.7520,44.2363],[6.7520,44.2363]]}},{"type":"Feature","properties":{"name":"Le Var"},"geometry":{"type":"LineString","coordinates":[[6.8372,44.0388],[6.8369,44.0371],[6.8284,44.0331],[6.8264,44.0302],[6.8214,44.0280],[6.8156,44.0226],[6.8103,44.0211],[6.8074,44.0162],[6.8036,44.0140],[6.8009,44.0100],[6.7926,44.0069],[6.7911,44.0046],[6.7830,44.0002],[6.7805,43.9972],[6.7776,43.9961],[6.7717,43.9909],[6.7655,43.9882],[6.7641,43.9823],[6.7610,43.9787],[6.7594,43.9717],[6.7670,43.9707]]}},{"type":"Feature","properties":{"name":"Le Var"},"geometry":{"type":"LineString","coordinates":[[6.8556,44.0670],[6.8559,44.0630],[6.8545,44.0620],[6.8555,44.0613],[6.8533,44.0588],[6.8543,44.0580],[6.8540,44.0569],[6.8475,44.0532],[6.8478,44.0513],[6.8462,44.0504],[6.8464,44.0491],[6.8445,44.0469],[6.8452,44.0440],[6.8391,44.0392],[6.8372,44.0388]]}},{"type":"Feature","properties":{"name":"Le Var"},"geometry":{"type":"LineString","coordinates":[[6.7520,44.2363],[6.7520,44.2360]]}}]}