{"type":"FeatureCollection","features":[{"type":"Feature","properties":{"name":"La Gravona"},"geometry":{"type":"LineString","coordinates":[[8.8220,41.9591],[8.8220,41.9576]]}},{"type":"Feature","properties":{"name":"La Gravona"},"geometry":{"type":"LineString","coordinates":[[9.1037,42.0923],[9.0969,42.0979],[9.0845,42.0974],[9.0833,42.0961],[9.0808,42.0965],[9.0800,42.0976],[9.0734,42.0957],[9.0725,42.0945],[9.0696,42.0946],[9.0672,42.0925],[9.0614,42.0928],[9.0528,42.0901],[9.0474,42.0905],[9.0413,42.0881],[9.0377,42.0879],[9.0313,42.0853],[9.0299,42.0815],[9.0218,42.0800],[9.0202,42.0789],[9.0121,42.0805],[9.0060,42.0797],[8.9995,42.0814],[8.9942,42.0810],[8.9901,42.0765],[8.9867,42.0753],[8.9844,42.0727],[8.9837,42.0703],[8.9802,42.0692],[8.9787,42.0672],[8.9742,42.0665],[8.9716,42.0621],[8.9653,42.0598],[8.9599,42.0602],[8.9585,42.0592]]}},{"type":"Feature","properties":{"name":"La Gravona"},"geometry":{"type":"LineString","coordinates":[[8.8240,41.9672],[8.8227,41.9660],[8.8215,41.9615],[8.8222,41.9594]]}},{"type":"Feature","properties":{"name":"La Gravona"},"geometry":{"type":"LineString","coordinates":[[8.9585,42.0592],[8.9573,42.0581],[8.9514,42.0571],[8.9474,42.0546]]}},{"type":"Feature","properties":{"name":"La Gravona"},"geometry":{"type":"LineString","coordinates":[[8.8785,41.9985],[8.8772,41.9971],[8.8735,41.9965],[8.8743,41.9935],[8.8720,41.9933],[8.8691,41.9907],[8.8675,41.9910],[8.8606,41.9881],[8.8574,41.9883],[8.8546,41.9856],[8.8498,41.9859],[8.8429,41.9823]]}},{"type":"Feature","properties":{"name":"La Gravona"},"geometry":{"type":"LineString","coordinates":[[8.8313,41.9738],[8.8315,41.9723],[8.8265,41.9706],[8.8259,41.9686],[8.8240,41.9672]]}},{"type":"Feature","properties":{"name":"La Gravona"},"geometry":{"type":"LineString","coordinates":[[8.8931,42.0167],[8.8891,42.0149],[8.8880,42.0120],[8.8844,42.0099]]}},{"type":"Feature","properties":{"name":"La Gravona"},"geometry":{"type":"LineString","coordinates":[[8.8429,41.9823],[8.8368,41.9791],[8.8358,41.9766],[8.8315,41.9747],[8.8313,41.9738]]}},{"type":"Feature","properties":{"name":"La Gravona"},"geometry":{"type":"LineString","coordinates":[[8.9065,42.0262],[8.9047,42.0260],[8.9030,42.0226],[8.9005,42.0208],[8.8985,42.0215],[8.8931,42.0167]]}},{"type":"Feature","properties":{"name":"La Gravona"},"geometry":{"type":"LineString","coordinates":[[8.8844,42.0099],[8.8858,42.0080],[8.8863,42.0049],[8.8850,42.0033],[8.8803,42.0014]]}},{"type":"Feature","properties":{"name":"La Gravona"},"geometry":{"type":"LineString","coordinates":[[8.8220,41.9576],[8.8213,41.9555],[8.8184,41.9547],[8.8182,41.9517],[8.8151,41.9496],[8.8132,41.9460],[8.8144,41.9442],[8.8118,41.9428],[8.8122,41.9416],[8.8115,41.9411],[8.8123,41.9405],[8.8102,41.9376],[8.8129,41.9270],[8.8122,41.9246],[8.8087,41.9194],[8.8035,41.9148],[8.8043,41.9128],[8.8034,41.9084],[8.8023,41.9077],[8.8009,41.9091],[8.7977,41.9089],[8.7977,41.9075],[8.7992,41.9061],[8.7983,41.9048]]}},{"type":"Feature","properties":{"name":"La Gravona"},"geometry":{"type":"LineString","coordinates":[[8.9474,42.0546],[8.9448,42.0517],[8.9334,42.0451],[8.9258,42.0415],[8.9219,42.0417],[8.9187,42.0398],[8.9177,42.0348],[8.9149,42.0322],[8.9157,42.0300],[8.9106,42.0284],[8.9093,42.0256],[8.9065,42.0262]]}},{"type":"Feature","properties":{"name":"La Gravona"},"geometry":{"type":"LineString","coordinates":[[8.8223,41.9591],[8.8220,41.9591]]}},{"type":"Feature","properties":{"name":"La Gravona"},"geometry":{"type":"LineString","coordinates":[[8.8223,41.9593],[8.8223,41.9591]]}},{"type":"Feature","properties":{"name":"La Gravona"},"geometry":{"type":"LineString","coordinates":[[8.8222,41.9594],[8.8223,41.9593]]}},{"type":"Feature","properties":{"name":"La Gravona"},"geometry":{"type":"LineString","coordinates":[[8.8803,42.0014],[8.8785,41.9985]]}},{"type":"Feature","properties":{"name":"Ruisseau de Spinu"},"geometry":{"type":"LineString","coordinates":[[9.1697,41.6162],[9.1749,41.6156],[9.1741,41.6121],[9.1770,41.6104],[9.1815,41.6103],[9.1808,41.6093]]}},{"type":"Feature","properties":{"name":"Ruisseau de Spinu"},"geometry":{"type":"LineString","coordinates":[[9.1503,41.6137],[9.1561,41.6157],[9.1697,41.6162]]}},{"type":"Feature","properties":{"name":"La Restonica"},"geometry":{"type":"LineString","coordinates":[[9.0399,42.2377],[9.0427,42.2409],[9.0464,42.2423],[9.0475,42.2439],[9.0513,42.2445],[9.0524,42.2466],[9.0540,42.2471],[9.0616,42.2540],[9.0647,42.2556],[9.0699,42.2556],[9.0704,42.2572],[9.0738,42.2595],[9.0734,42.2616],[9.0766,42.2607],[9.0808,42.2610],[9.0847,42.2633],[9.0902,42.2632],[9.0954,42.2654],[9.0980,42.2690],[9.1009,42.2700],[9.1018,42.2717],[9.1152,42.2793],[9.1152,42.2802],[9.1131,42.2812],[9.1151,42.2840],[9.1169,42.2848],[9.1213,42.2845],[9.1257,42.2869],[9.1271,42.2888],[9.1319,42.2889],[9.1375,42.2927],[9.1425,42.2929],[9.1469,42.2957],[9.1484,42.2990],[9.1508,42.3015],[9.1530,42.3023],[9.1533,42.3039]]}},{"type":"Feature","properties":{"name":"Ruisseau de Codi"},"geometry":{"type":"LineString","coordinates":[[9.1258,41.7743],[9.1267,41.7722],[9.1307,41.7716],[9.1303,41.7703],[9.1313,41.7688],[9.1282,41.7637],[9.1302,41.7608],[9.1283,41.7576],[9.1289,41.7562],[9.1242,41.7538],[9.1234,41.7519],[9.1240,41.7513],[9.1211,41.7486],[9.1206,41.7469],[9.1183,41.7449],[9.1146,41.7437],[9.1151,41.7422],[9.1135,41.7416],[9.1130,41.7396],[9.1146,41.7380],[9.1145,41.7364]]}},{"type":"Feature","properties":{"name":"Ruisseau de Codi"},"geometry":{"type":"LineString","coordinates":[[9.1144,41.7852],[9.1156,41.7837]]}},{"type":"Feature","properties":{"name":"Ruisseau de Codi"},"geometry":{"type":"LineString","coordinates":[[9.1156,41.7837],[9.1158,41.7828],[9.1142,41.7817],[9.1141,41.7793],[9.1153,41.7779],[9.1193,41.7768],[9.1191,41.7747],[9.1258,41.7743]]}},{"type":"Feature","properties":{"name":"Fango"},"geometry":{"type":"LineString","coordinates":[[8.7035,42.4011],[8.6991,42.4015],[8.6979,42.4036],[8.6888,42.4091],[8.6852,42.4148],[8.6788,42.4170],[8.6755,42.4154],[8.6735,42.4173],[8.6711,42.4177],[8.6657,42.4162],[8.6577,42.4198]]}},{"type":"Feature","properties":{"name":"Fango"},"geometry":{"type":"LineString","coordinates":[[8.7023,42.4027],[8.6982,42.4062],[8.6937,42.4064]]}},{"type":"Feature","properties":{"name":"Fango"},"geometry":{"type":"LineString","coordinates":[[8.7035,42.4011],[8.7023,42.4027]]}},{"type":"Feature","properties":{"name":"Fango"},"geometry":{"type":"LineString","coordinates":[[8.7141,42.3972],[8.7093,42.3988],[8.7088,42.3998],[8.7049,42.3996],[8.7035,42.4011]]}},{"type":"Feature","properties":{"name":"Rivière de Porto"},"geometry":{"type":"LineString","coordinates":[[8.7644,42.2557],[8.7616,42.2557],[8.7608,42.2575]]}},{"type":"Feature","properties":{"name":"Rivière de Porto"},"geometry":{"type":"LineString","coordinates":[[8.7608,42.2575],[8.7538,42.2565],[8.7525,42.2550],[8.7476,42.2538],[8.7467,42.2526],[8.7363,42.2522],[8.7346,42.2506],[8.7299,42.2495],[8.7268,42.2507],[8.7227,42.2553],[8.7179,42.2572],[8.7175,42.2591],[8.7136,42.2596],[8.7088,42.2630],[8.7055,42.2636],[8.7034,42.2653],[8.7009,42.2649]]}},{"type":"Feature","properties":{"name":"Rivière de Porto"},"geometry":{"type":"LineString","coordinates":[[8.7009,42.2649],[8.6958,42.2664]]}},{"type":"Feature","properties":{"name":"Rivière de Porto"},"geometry":{"type":"LineString","coordinates":[[8.7009,42.2649],[8.7005,42.2643]]}},{"type":"Feature","properties":{"name":"Rivière de Porto"},"geometry":{"type":"LineString","coordinates":[[8.7005,42.2643],[8.6995,42.2635],[8.6969,42.2640],[8.6954,42.2666]]}},{"type":"Feature","properties":{"name":"L\u0027Abatesco"},"geometry":{"type":"LineString","coordinates":[[9.3241,41.9964],[9.3254,41.9965],[9.3268,41.9944],[9.3295,41.9936],[9.3307,41.9942],[9.3319,41.9970],[9.3363,41.9981],[9.3408,41.9979],[9.3453,41.9947],[9.3559,41.9963],[9.3586,41.9950]]}},{"type":"Feature","properties":{"name":"L\u0027Abatesco"},"geometry":{"type":"LineString","coordinates":[[9.3807,41.9937],[9.3834,41.9901]]}},{"type":"Feature","properties":{"name":"L\u0027Abatesco"},"geometry":{"type":"LineString","coordinates":[[9.2568,41.9590],[9.2614,41.9646],[9.2663,41.9673],[9.2689,41.9709],[9.2745,41.9739],[9.2756,41.9727],[9.2769,41.9731],[9.2777,41.9768],[9.2765,41.9775],[9.2789,41.9804],[9.2823,41.9794],[9.2861,41.9813],[9.2896,41.9816],[9.2917,41.9826],[9.2904,41.9852],[9.2942,41.9856],[9.2966,41.9847],[9.2975,41.9860]]}},{"type":"Feature","properties":{"name":"L\u0027Abatesco"},"geometry":{"type":"LineString","coordinates":[[9.2975,41.9860],[9.3011,41.9868],[9.3055,41.9925],[9.3198,41.9936],[9.3241,41.9964]]}},{"type":"Feature","properties":{"name":"L\u0027Abatesco"},"geometry":{"type":"LineString","coordinates":[[9.3707,42.0004],[9.3730,42.0008],[9.3738,41.9999]]}},{"type":"Feature","properties":{"name":"L\u0027Abatesco"},"geometry":{"type":"LineString","coordinates":[[9.3908,41.9826],[9.3936,41.9779]]}},{"type":"Feature","properties":{"name":"L\u0027Abatesco"},"geometry":{"type":"LineString","coordinates":[[9.3812,41.9936],[9.3841,41.9920],[9.3835,41.9905]]}},{"type":"Feature","properties":{"name":"L\u0027Abatesco"},"geometry":{"type":"LineString","coordinates":[[9.3608,41.9951],[9.3686,41.9992]]}},{"type":"Feature","properties":{"name":"L\u0027Abatesco"},"geometry":{"type":"LineString","coordinates":[[9.3700,42.0002],[9.3707,42.0004]]}},{"type":"Feature","properties":{"name":"L\u0027Abatesco"},"geometry":{"type":"LineString","coordinates":[[9.4173,41.9752],[9.4184,41.9749]]}},{"type":"Feature","properties":{"name":"L\u0027Abatesco"},"geometry":{"type":"LineString","coordinates":[[9.3835,41.9905],[9.3845,41.9886],[9.3836,41.9871],[9.3844,41.9844]]}},{"type":"Feature","properties":{"name":"L\u0027Abatesco"},"geometry":{"type":"LineString","coordinates":[[9.3738,41.9999],[9.3793,41.9942],[9.3812,41.9936]]}},{"type":"Feature","properties":{"name":"L\u0027Abatesco"},"geometry":{"type":"LineString","coordinates":[[9.4151,41.9756],[9.4173,41.9752]]}},{"type":"Feature","properties":{"name":"L\u0027Abatesco"},"geometry":{"type":"LineString","coordinates":[[9.3936,41.9779],[9.3990,41.9760],[9.4083,41.9759],[9.4104,41.9768],[9.4151,41.9756]]}},{"type":"Feature","properties":{"name":"L\u0027Abatesco"},"geometry":{"type":"LineString","coordinates":[[9.3844,41.9844],[9.3867,41.9845]]}},{"type":"Feature","properties":{"name":"L\u0027Abatesco"},"geometry":{"type":"LineString","coordinates":[[9.3586,41.9950],[9.3608,41.9951]]}},{"type":"Feature","properties":{"name":"L\u0027Abatesco"},"geometry":{"type":"LineString","coordinates":[[9.3867,41.9845],[9.3887,41.9843],[9.3908,41.9826]]}},{"type":"Feature","properties":{"name":"L\u0027Abatesco"},"geometry":{"type":"LineString","coordinates":[[9.4184,41.9749],[9.4227,41.9741],[9.4274,41.9748]]}},{"type":"Feature","properties":{"name":"L\u0027Abatesco"},"geometry":{"type":"LineString","coordinates":[[9.3686,41.9992],[9.3700,42.0002]]}},{"type":"Feature","properties":{"name":"A Liscia"},"geometry":{"type":"LineString","coordinates":[[8.7787,42.0460],[8.7758,42.0452],[8.7577,42.0493],[8.7539,42.0483]]}},{"type":"Feature","properties":{"name":"A Liscia"},"geometry":{"type":"LineString","coordinates":[[8.7538,42.0483],[8.7508,42.0480],[8.7473,42.0495]]}},{"type":"Feature","properties":{"name":"A Liscia"},"geometry":{"type":"LineString","coordinates":[[8.7539,42.0483],[8.7538,42.0483]]}},{"type":"Feature","properties":{"name":"Le Rizzanese"},"geometry":{"type":"LineString","coordinates":[[8.9176,41.6574],[8.9125,41.6613],[8.9104,41.6594],[8.9046,41.6576],[8.9034,41.6589],[8.9001,41.6598],[8.8985,41.6623],[8.8927,41.6636],[8.8879,41.6616],[8.8814,41.6621],[8.8797,41.6605],[8.8788,41.6613]]}},{"type":"Feature","properties":{"name":"Le Rizzanese"},"geometry":{"type":"LineString","coordinates":[[9.1373,41.7384],[9.1367,41.7368],[9.1293,41.7338],[9.1285,41.7344],[9.1289,41.7355],[9.1274,41.7349],[9.1249,41.7373]]}},{"type":"Feature","properties":{"name":"Le Rizzanese"},"geometry":{"type":"LineString","coordinates":[[8.9191,41.6555],[8.9187,41.6570],[8.9176,41.6574]]}},{"type":"Feature","properties":{"name":"Le Rizzanese"},"geometry":{"type":"LineString","coordinates":[[8.9996,41.6607],[8.9909,41.6615],[8.9889,41.6601],[8.9867,41.6560],[8.9755,41.6553],[8.9733,41.6541],[8.9722,41.6517]]}},{"type":"Feature","properties":{"name":"Le Rizzanese"},"geometry":{"type":"LineString","coordinates":[[8.9680,41.6473],[8.9644,41.6479],[8.9575,41.6469],[8.9550,41.6477],[8.9486,41.6465],[8.9469,41.6501],[8.9449,41.6515],[8.9389,41.6504],[8.9359,41.6520],[8.9291,41.6531],[8.9267,41.6560],[8.9206,41.6548],[8.9191,41.6555]]}},{"type":"Feature","properties":{"name":"Le Rizzanese"},"geometry":{"type":"LineString","coordinates":[[9.0204,41.6694],[9.0192,41.6685],[9.0183,41.6644],[9.0149,41.6638],[9.0079,41.6644],[9.0037,41.6599],[8.9996,41.6607]]}},{"type":"Feature","properties":{"name":"Le Rizzanese"},"geometry":{"type":"LineString","coordinates":[[9.1249,41.7373],[9.1211,41.7367],[9.1198,41.7351],[9.1148,41.7366],[9.1146,41.7350]]}},{"type":"Feature","properties":{"name":"Le Rizzanese"},"geometry":{"type":"LineString","coordinates":[[9.0984,41.7305],[9.0946,41.7328],[9.0947,41.7341],[9.0961,41.7352],[9.0926,41.7372]]}},{"type":"Feature","properties":{"name":"Le Rizzanese"},"geometry":{"type":"LineString","coordinates":[[9.0926,41.7372],[9.0876,41.7351],[9.0830,41.7354],[9.0823,41.7318],[9.0794,41.7302],[9.0776,41.7267],[9.0740,41.7243],[9.0754,41.7209],[9.0745,41.7199],[9.0654,41.7199],[9.0624,41.7174],[9.0570,41.7168],[9.0572,41.7154],[9.0560,41.7148],[9.0507,41.7162],[9.0493,41.7135],[9.0494,41.7118],[9.0409,41.7099],[9.0409,41.7055],[9.0443,41.7053],[9.0455,41.7041],[9.0443,41.7019],[9.0448,41.6995],[9.0441,41.6959],[9.0419,41.6954],[9.0409,41.6909],[9.0395,41.6890],[9.0342,41.6861],[9.0346,41.6835],[9.0322,41.6811],[9.0332,41.6804],[9.0328,41.6765],[9.0283,41.6727],[9.0293,41.6706],[9.0283,41.6680],[9.0274,41.6676],[9.0247,41.6699],[9.0204,41.6694]]}},{"type":"Feature","properties":{"name":"Le Rizzanese"},"geometry":{"type":"LineString","coordinates":[[9.1146,41.7350],[9.1143,41.7344]]}},{"type":"Feature","properties":{"name":"Le Rizzanese"},"geometry":{"type":"LineString","coordinates":[[9.1143,41.7344],[9.1129,41.7331],[9.1090,41.7326],[9.1049,41.7346],[9.1030,41.7336],[9.1037,41.7325],[9.1018,41.7316],[9.1011,41.7296],[9.0984,41.7305]]}},{"type":"Feature","properties":{"name":"Le Rizzanese"},"geometry":{"type":"LineString","coordinates":[[8.9722,41.6517],[8.9680,41.6473]]}},{"type":"Feature","properties":{"name":"Ruisseau de Verjello"},"geometry":{"type":"LineString","coordinates":[[9.1160,42.2002],[9.1191,42.2008],[9.1219,42.1974],[9.1235,42.1969],[9.1262,42.1974],[9.1301,42.1956],[9.1331,42.1960],[9.1380,42.1946],[9.1405,42.1954],[9.1417,42.1987],[9.1460,42.1981]]}},{"type":"Feature","properties":{"name":"Ruisseau de Verjello"},"geometry":{"type":"LineString","coordinates":[[9.1460,42.1981],[9.1491,42.1965],[9.1513,42.1985],[9.1557,42.1986],[9.1605,42.1951]]}},{"type":"Feature","properties":{"name":"Ruisseau de Verjello"},"geometry":{"type":"LineString","coordinates":[[9.1605,42.1951],[9.1625,42.1933]]}},{"type":"Feature","properties":{"name":"Ruisseau de Ruvoli"},"geometry":{"type":"LineString","coordinates":[[9.2980,41.8979],[9.3002,41.8982],[9.3017,41.9008],[9.3032,41.9014],[9.3036,41.9073],[9.3058,41.9085],[9.3053,41.9107],[9.3080,41.9122],[9.3084,41.9152],[9.3111,41.9181],[9.3096,41.9205],[9.3120,41.9213]]}},{"type":"Feature","properties":{"name":"Chiuni"},"geometry":{"type":"LineString","coordinates":[[8.6119,42.1779],[8.6116,42.1763],[8.6096,42.1747],[8.6043,42.1750],[8.5992,42.1705],[8.5963,42.1703],[8.5892,42.1735],[8.5873,42.1718]]}},{"type":"Feature","properties":{"name":"Chiuni"},"geometry":{"type":"LineString","coordinates":[[8.6180,42.1843],[8.6150,42.1811],[8.6127,42.1806],[8.6128,42.1786],[8.6119,42.1779]]}},{"type":"Feature","properties":{"name":"Chiuni"},"geometry":{"type":"LineString","coordinates":[[8.5873,42.1718],[8.5876,42.1714]]}},{"type":"Feature","properties":{"name":"Ruisseau d\u0027Aitone"},"geometry":{"type":"LineString","coordinates":[[8.8130,42.2617],[8.8047,42.2627],[8.8001,42.2622],[8.7990,42.2640],[8.7931,42.2651],[8.7924,42.2633],[8.7886,42.2617],[8.7871,42.2591],[8.7859,42.2587],[8.7855,42.2569],[8.7793,42.2547],[8.7786,42.2526],[8.7759,42.2506]]}},{"type":"Feature","properties":{"name":"Ruisseau de Crucoli"},"geometry":{"type":"LineString","coordinates":[[8.9846,42.0357],[8.9806,42.0374],[8.9797,42.0388],[8.9777,42.0382],[8.9760,42.0388],[8.9762,42.0402],[8.9743,42.0416],[8.9743,42.0436],[8.9723,42.0449],[8.9739,42.0497],[8.9723,42.0510],[8.9719,42.0535],[8.9710,42.0537],[8.9717,42.0547],[8.9666,42.0570],[8.9651,42.0598]]}},{"type":"Feature","properties":{"name":"Ruisseau de Casaloria"},"geometry":{"type":"LineString","coordinates":[[9.2927,42.1882],[9.2935,42.1910],[9.2910,42.1935],[9.2917,42.1947],[9.2911,42.1982]]}},{"type":"Feature","properties":{"name":"Ruisseau de Casaloria"},"geometry":{"type":"LineString","coordinates":[[9.2911,42.1982],[9.2947,42.2008],[9.2971,42.2038],[9.3004,42.2057],[9.3021,42.2101],[9.3091,42.2143]]}},{"type":"Feature","properties":{"name":"Golu"},"geometry":{"type":"LineString","coordinates":[[9.0229,42.3299],[9.0285,42.3331],[9.0299,42.3355],[9.0339,42.3373],[9.0339,42.3404],[9.0368,42.3423],[9.0408,42.3425],[9.0451,42.3413],[9.0458,42.3430],[9.0489,42.3445],[9.0509,42.3507],[9.0559,42.3538],[9.0573,42.3566],[9.0657,42.3601],[9.0693,42.3671],[9.0762,42.3692],[9.0801,42.3719],[9.0811,42.3741],[9.0885,42.3749],[9.0897,42.3759],[9.0918,42.3742],[9.0960,42.3743],[9.1052,42.3711],[9.1103,42.3718],[9.1143,42.3706],[9.1177,42.3736],[9.1222,42.3749],[9.1234,42.3774],[9.1261,42.3780],[9.1297,42.3806],[9.1329,42.3804],[9.1361,42.3816],[9.1393,42.3844],[9.1463,42.3813],[9.1496,42.3826],[9.1535,42.3820],[9.1611,42.3850]]}},{"type":"Feature","properties":{"name":"Golu"},"geometry":{"type":"LineString","coordinates":[[8.9896,42.3221],[8.9895,42.3239],[8.9917,42.3250],[8.9977,42.3236],[9.0006,42.3248],[9.0052,42.3242],[9.0147,42.3279],[9.0226,42.3295]]}},{"type":"Feature","properties":{"name":"Golu"},"geometry":{"type":"LineString","coordinates":[[9.1611,42.3850],[9.1633,42.3849]]}},{"type":"Feature","properties":{"name":"Golu"},"geometry":{"type":"LineString","coordinates":[[9.1645,42.3888],[9.1639,42.3901],[9.1665,42.3928]]}},{"type":"Feature","properties":{"name":"Golu"},"geometry":{"type":"LineString","coordinates":[[9.1658,42.3884],[9.1645,42.3888]]}},{"type":"Feature","properties":{"name":"Golu"},"geometry":{"type":"LineString","coordinates":[[9.1974,42.4057],[9.1972,42.4186]]}},{"type":"Feature","properties":{"name":"Golu"},"geometry":{"type":"LineString","coordinates":[[9.1665,42.3928],[9.1694,42.3947],[9.1739,42.3955],[9.1762,42.3942],[9.1772,42.3918],[9.1791,42.3913],[9.1824,42.3938],[9.1862,42.3940],[9.1871,42.3951],[9.1867,42.3965],[9.1888,42.3981],[9.1896,42.4004],[9.1944,42.4003],[9.1974,42.4057]]}},{"type":"Feature","properties":{"name":"Golu"},"geometry":{"type":"LineString","coordinates":[[9.1633,42.3849],[9.1662,42.3851],[9.1665,42.3875]]}},{"type":"Feature","properties":{"name":"Golu"},"geometry":{"type":"LineString","coordinates":[[9.1665,42.3875],[9.1658,42.3884]]}},{"type":"Feature","properties":{"name":"Favone"},"geometry":{"type":"LineString","coordinates":[[9.3381,41.7870],[9.3400,41.7857],[9.3439,41.7860],[9.3461,41.7851],[9.3473,41.7814],[9.3491,41.7817],[9.3510,41.7802],[9.3519,41.7791],[9.3508,41.7771],[9.3515,41.7756],[9.3502,41.7742],[9.3547,41.7745],[9.3566,41.7773],[9.3591,41.7749],[9.3636,41.7790],[9.3657,41.7781],[9.3694,41.7785],[9.3707,41.7764],[9.3773,41.7775],[9.3816,41.7769],[9.3829,41.7754],[9.3851,41.7765],[9.3884,41.7758],[9.3910,41.7782],[9.3957,41.7764]]}},{"type":"Feature","properties":{"name":"Solenzara"},"geometry":{"type":"LineString","coordinates":[[9.3308,41.8377],[9.3302,41.8394],[9.3357,41.8424],[9.3387,41.8461],[9.3414,41.8459],[9.3435,41.8439],[9.3446,41.8457],[9.3467,41.8463],[9.3493,41.8490],[9.3520,41.8495],[9.3534,41.8548],[9.3582,41.8558],[9.3644,41.8601],[9.3702,41.8612],[9.3695,41.8633],[9.3714,41.8648],[9.3755,41.8655],[9.3772,41.8681],[9.3784,41.8672],[9.3783,41.8650],[9.3862,41.8675],[9.3944,41.8631]]}},{"type":"Feature","properties":{"name":"Ruisseau de Corsiglièse"},"geometry":{"type":"LineString","coordinates":[[9.3823,42.2342],[9.3825,42.2342]]}},{"type":"Feature","properties":{"name":"Ruisseau de Corsiglièse"},"geometry":{"type":"LineString","coordinates":[[9.4207,42.1886],[9.4173,42.1799],[9.4156,42.1793],[9.4166,42.1757],[9.4151,42.1732]]}},{"type":"Feature","properties":{"name":"Ruisseau de Corsiglièse"},"geometry":{"type":"LineString","coordinates":[[9.3848,42.2330],[9.3852,42.2318],[9.3840,42.2307],[9.3846,42.2282],[9.3837,42.2275],[9.3848,42.2241],[9.3868,42.2232],[9.3881,42.2212],[9.3949,42.2194],[9.3948,42.2181],[9.3970,42.2167],[9.3947,42.2154],[9.3960,42.2136],[9.4031,42.2155],[9.4026,42.2141],[9.4043,42.2123],[9.4056,42.2088],[9.4074,42.2095],[9.4097,42.2063],[9.4147,42.2061],[9.4148,42.2053],[9.4197,42.2027],[9.4195,42.1990],[9.4208,42.1976],[9.4204,42.1952],[9.4215,42.1943],[9.4202,42.1917],[9.4218,42.1913],[9.4207,42.1906],[9.4207,42.1886]]}},{"type":"Feature","properties":{"name":"Ruisseau de Corsiglièse"},"geometry":{"type":"LineString","coordinates":[[9.3825,42.2342],[9.3848,42.2330]]}},{"type":"Feature","properties":{"name":"Ruisseau de Corsiglièse"},"geometry":{"type":"LineString","coordinates":[[9.3652,42.2374],[9.3657,42.2363],[9.3704,42.2358],[9.3770,42.2332],[9.3774,42.2319],[9.3805,42.2325],[9.3811,42.2341],[9.3823,42.2342]]}},{"type":"Feature","properties":{"name":"Le Vecchio"},"geometry":{"type":"LineString","coordinates":[[9.1433,42.1633],[9.1458,42.1648],[9.1469,42.1671],[9.1491,42.1671],[9.1525,42.1696],[9.1560,42.1703],[9.1544,42.1746],[9.1568,42.1755],[9.1587,42.1786],[9.1537,42.1804],[9.1531,42.1830],[9.1562,42.1851],[9.1610,42.1913],[9.1612,42.1931],[9.1682,42.1933],[9.1702,42.1943],[9.1710,42.1970],[9.1736,42.1977],[9.1750,42.2010],[9.1777,42.2025],[9.1772,42.2041],[9.1780,42.2060],[9.1848,42.2119],[9.1859,42.2157],[9.1878,42.2159],[9.1871,42.2200],[9.1888,42.2214],[9.1902,42.2215],[9.1920,42.2196],[9.1953,42.2193],[9.1988,42.2214],[9.1999,42.2239],[9.2041,42.2244],[9.2071,42.2233],[9.2102,42.2206],[9.2170,42.2247],[9.2304,42.2246],[9.2329,42.2251],[9.2328,42.2265],[9.2344,42.2270],[9.2456,42.2280]]}},{"type":"Feature","properties":{"name":"Le Taravo"},"geometry":{"type":"LineString","coordinates":[[9.1789,41.9766],[9.1768,41.9745],[9.1774,41.9666],[9.1760,41.9644],[9.1733,41.9630],[9.1734,41.9604],[9.1709,41.9594],[9.1719,41.9562],[9.1710,41.9551],[9.1634,41.9530],[9.1643,41.9500],[9.1621,41.9465],[9.1607,41.9460],[9.1607,41.9444],[9.1583,41.9426],[9.1551,41.9420],[9.1544,41.9400],[9.1505,41.9405],[9.1474,41.9395],[9.1460,41.9380],[9.1459,41.9359],[9.1410,41.9352],[9.1403,41.9311],[9.1357,41.9313],[9.1314,41.9291],[9.1231,41.9278],[9.1219,41.9252],[9.1237,41.9224],[9.1222,41.9217],[9.1218,41.9199],[9.1183,41.9212],[9.1152,41.9176],[9.1103,41.9169],[9.1092,41.9131],[9.1061,41.9117],[9.1059,41.9094],[9.1009,41.9061],[9.1011,41.9027],[9.0971,41.8992],[9.0966,41.8955],[9.0939,41.8937],[9.0936,41.8907],[9.0910,41.8868],[9.0879,41.8856],[9.0839,41.8866],[9.0808,41.8856],[9.0772,41.8820],[9.0765,41.8800],[9.0746,41.8801],[9.0720,41.8767],[9.0662,41.8733],[9.0643,41.8687]]}},{"type":"Feature","properties":{"name":"Le Taravo"},"geometry":{"type":"LineString","coordinates":[[8.8281,41.7161],[8.8284,41.7133],[8.8266,41.7124],[8.8274,41.7115],[8.8295,41.7122],[8.8285,41.7106],[8.8258,41.7103],[8.8197,41.7120]]}},{"type":"Feature","properties":{"name":"Le Taravo"},"geometry":{"type":"LineString","coordinates":[[9.0643,41.8687],[9.0575,41.8625],[9.0523,41.8596],[9.0480,41.8594],[9.0468,41.8601]]}},{"type":"Feature","properties":{"name":"Le Taravo"},"geometry":{"type":"LineString","coordinates":[[9.0468,41.8601],[9.0443,41.8605],[9.0431,41.8596],[9.0433,41.8573],[9.0410,41.8570],[9.0399,41.8550],[9.0364,41.8531]]}},{"type":"Feature","properties":{"name":"Le Taravo"},"geometry":{"type":"LineString","coordinates":[[9.0364,41.8531],[9.0346,41.8516],[9.0346,41.8475],[9.0324,41.8445],[9.0319,41.8411],[9.0269,41.8410],[9.0245,41.8383],[9.0220,41.8375]]}},{"type":"Feature","properties":{"name":"Le Taravo"},"geometry":{"type":"LineString","coordinates":[[8.8680,41.7606],[8.8625,41.7561],[8.8578,41.7539]]}},{"type":"Feature","properties":{"name":"Le Taravo"},"geometry":{"type":"LineString","coordinates":[[8.9626,41.8090],[8.9576,41.8110]]}},{"type":"Feature","properties":{"name":"Le Taravo"},"geometry":{"type":"LineString","coordinates":[[8.8746,41.7674],[8.8735,41.7661],[8.8735,41.7630],[8.8710,41.7611],[8.8680,41.7606]]}},{"type":"Feature","properties":{"name":"Le Taravo"},"geometry":{"type":"LineString","coordinates":[[9.0220,41.8375],[9.0171,41.8349],[9.0153,41.8314],[9.0131,41.8298],[9.0069,41.8313]]}},{"type":"Feature","properties":{"name":"Le Taravo"},"geometry":{"type":"LineString","coordinates":[[8.9166,41.7806],[8.9135,41.7799],[8.9121,41.7761],[8.9088,41.7753],[8.9042,41.7761],[8.9028,41.7747],[8.8966,41.7746],[8.8848,41.7717],[8.8815,41.7728],[8.8789,41.7718],[8.8767,41.7693]]}},{"type":"Feature","properties":{"name":"Le Taravo"},"geometry":{"type":"LineString","coordinates":[[8.8767,41.7693],[8.8746,41.7674]]}},{"type":"Feature","properties":{"name":"Le Taravo"},"geometry":{"type":"LineString","coordinates":[[9.0047,41.8263],[9.0008,41.8272],[8.9987,41.8242],[8.9924,41.8203],[8.9895,41.8200],[8.9836,41.8225],[8.9813,41.8221],[8.9802,41.8210],[8.9802,41.8188],[8.9735,41.8106],[8.9669,41.8121],[8.9669,41.8141],[8.9652,41.8153],[8.9620,41.8144],[8.9612,41.8139],[8.9631,41.8108],[8.9626,41.8090]]}},{"type":"Feature","properties":{"name":"Le Taravo"},"geometry":{"type":"LineString","coordinates":[[9.0069,41.8313],[9.0059,41.8310],[9.0066,41.8288],[9.0047,41.8263]]}},{"type":"Feature","properties":{"name":"Le Taravo"},"geometry":{"type":"LineString","coordinates":[[8.9376,41.7983],[8.9394,41.7956],[8.9332,41.7938],[8.9307,41.7958],[8.9292,41.7955]]}},{"type":"Feature","properties":{"name":"Le Taravo"},"geometry":{"type":"LineString","coordinates":[[8.9292,41.7955],[8.9281,41.7945],[8.9294,41.7919],[8.9213,41.7896],[8.9212,41.7887],[8.9229,41.7875],[8.9219,41.7842],[8.9189,41.7804],[8.9166,41.7806]]}},{"type":"Feature","properties":{"name":"Le Taravo"},"geometry":{"type":"LineString","coordinates":[[8.9576,41.8110],[8.9535,41.8108],[8.9514,41.8062],[8.9483,41.8052],[8.9489,41.8016],[8.9477,41.7996],[8.9452,41.8016],[8.9412,41.8010],[8.9376,41.7983]]}},{"type":"Feature","properties":{"name":"Le Taravo"},"geometry":{"type":"LineString","coordinates":[[8.8578,41.7539],[8.8530,41.7503],[8.8531,41.7484],[8.8554,41.7466],[8.8549,41.7452],[8.8566,41.7432],[8.8559,41.7416],[8.8529,41.7401],[8.8494,41.7412],[8.8487,41.7406],[8.8487,41.7370],[8.8465,41.7363],[8.8459,41.7347],[8.8425,41.7326],[8.8422,41.7312],[8.8394,41.7306],[8.8380,41.7316],[8.8361,41.7303],[8.8370,41.7293],[8.8337,41.7271],[8.8301,41.7274],[8.8285,41.7262],[8.8258,41.7199],[8.8281,41.7195],[8.8281,41.7161]]}},{"type":"Feature","properties":{"name":"Stabiacciu"},"geometry":{"type":"LineString","coordinates":[[9.2382,41.5724],[9.2453,41.5686],[9.2505,41.5677],[9.2581,41.5696],[9.2691,41.5702],[9.2727,41.5735],[9.2769,41.5754],[9.2828,41.5727],[9.2858,41.5726],[9.2905,41.5754],[9.2911,41.5768],[9.2903,41.5792],[9.2950,41.5808],[9.2956,41.5837]]}},{"type":"Feature","properties":{"name":"Baraci"},"geometry":{"type":"LineString","coordinates":[[8.9752,41.7020],[8.9716,41.6993],[8.9694,41.6996],[8.9622,41.6951],[8.9541,41.6964],[8.9413,41.6932],[8.9386,41.6942],[8.9352,41.6921],[8.9344,41.6927],[8.9291,41.6911],[8.9266,41.6876],[8.9225,41.6873],[8.9223,41.6888],[8.9141,41.6913],[8.9130,41.6909]]}},{"type":"Feature","properties":{"name":"Ruisseau de Limone"},"geometry":{"type":"LineString","coordinates":[[9.2790,42.2445],[9.2778,42.2436],[9.2794,42.2403],[9.2789,42.2389],[9.2758,42.2379],[9.2755,42.2359],[9.2735,42.2346],[9.2736,42.2327],[9.2714,42.2320],[9.2688,42.2276],[9.2654,42.2276],[9.2617,42.2242]]}},{"type":"Feature","properties":{"name":"Ruisseau de Piana"},"geometry":{"type":"LineString","coordinates":[[9.0376,42.0602],[9.0381,42.0635],[9.0374,42.0644],[9.0396,42.0666],[9.0368,42.0700],[9.0354,42.0703],[9.0366,42.0715],[9.0356,42.0740],[9.0316,42.0753],[9.0312,42.0776],[9.0271,42.0796],[9.0202,42.0789]]}},{"type":"Feature","properties":{"name":"Ruisseau de Francolu"},"geometry":{"type":"LineString","coordinates":[[9.2038,41.4455],[9.2042,41.4436],[9.2026,41.4403],[9.2033,41.4381],[9.2044,41.4375]]}},{"type":"Feature","properties":{"name":"Ruisseau de Francolu"},"geometry":{"type":"LineString","coordinates":[[9.2044,41.4375],[9.2057,41.4380],[9.2071,41.4364],[9.2092,41.4377],[9.2098,41.4404],[9.2120,41.4410],[9.2175,41.4400],[9.2239,41.4426]]}},{"type":"Feature","properties":{"name":"Le Fiumicicoli"},"geometry":{"type":"LineString","coordinates":[[9.1537,41.6906],[9.1468,41.6897],[9.1461,41.6880],[9.1404,41.6856],[9.1409,41.6841],[9.1362,41.6844],[9.1351,41.6864],[9.1304,41.6861],[9.1302,41.6847],[9.1286,41.6844],[9.1268,41.6851],[9.1266,41.6868],[9.1248,41.6869],[9.1233,41.6854],[9.1208,41.6853],[9.1173,41.6822],[9.1130,41.6814],[9.1110,41.6788],[9.1087,41.6787],[9.1051,41.6821],[9.1009,41.6792],[9.0991,41.6810],[9.0936,41.6802],[9.0921,41.6775],[9.0873,41.6761],[9.0846,41.6734],[9.0825,41.6742],[9.0775,41.6737],[9.0668,41.6718],[9.0626,41.6700],[9.0623,41.6709],[9.0596,41.6711],[9.0588,41.6699],[9.0601,41.6681],[9.0596,41.6675],[9.0574,41.6663],[9.0523,41.6665],[9.0510,41.6640],[9.0452,41.6606],[9.0410,41.6593],[9.0377,41.6595],[9.0362,41.6578],[9.0265,41.6594],[9.0215,41.6573],[9.0192,41.6602],[9.0155,41.6598],[9.0115,41.6579],[9.0045,41.6612]]}},{"type":"Feature","properties":{"name":"La Casaluna"},"geometry":{"type":"LineString","coordinates":[[9.2702,42.3870],[9.2659,42.3843],[9.2642,42.3843],[9.2600,42.3858],[9.2567,42.3894],[9.2578,42.3909],[9.2572,42.3922],[9.2591,42.3927],[9.2590,42.3948],[9.2575,42.3971],[9.2602,42.3982],[9.2562,42.4019],[9.2570,42.4081],[9.2539,42.4136],[9.2547,42.4162],[9.2562,42.4175],[9.2540,42.4179],[9.2538,42.4191],[9.2524,42.4185],[9.2513,42.4195],[9.2462,42.4192],[9.2472,42.4239],[9.2449,42.4255],[9.2467,42.4285],[9.2424,42.4329],[9.2391,42.4348],[9.2349,42.4342],[9.2285,42.4356],[9.2226,42.4341],[9.2178,42.4342],[9.2158,42.4364],[9.2144,42.4409],[9.2110,42.4430],[9.2098,42.4456],[9.2023,42.4448]]}},{"type":"Feature","properties":{"name":"La Casaluna"},"geometry":{"type":"LineString","coordinates":[[9.2792,42.3779],[9.2789,42.3788],[9.2765,42.3790],[9.2754,42.3822],[9.2736,42.3819],[9.2729,42.3838],[9.2711,42.3842],[9.2702,42.3870]]}},{"type":"Feature","properties":{"name":"Le Fium\u0027Alto"},"geometry":{"type":"LineString","coordinates":[[9.3881,42.3914],[9.3872,42.3923],[9.3893,42.3959],[9.3896,42.4015],[9.3921,42.4047],[9.3918,42.4065],[9.3884,42.4093],[9.3909,42.4136],[9.3901,42.4165],[9.3922,42.4203],[9.3901,42.4220],[9.3916,42.4248],[9.3938,42.4245],[9.3963,42.4268],[9.4009,42.4272],[9.4049,42.4308],[9.4084,42.4310],[9.4104,42.4298],[9.4118,42.4304]]}},{"type":"Feature","properties":{"name":"Le Prunelli"},"geometry":{"type":"LineString","coordinates":[[8.8640,41.9263],[8.8607,41.9239],[8.8589,41.9240],[8.8557,41.9207],[8.8502,41.9198],[8.8466,41.9177],[8.8426,41.9169],[8.8421,41.9150],[8.8379,41.9118],[8.8318,41.9144],[8.8233,41.9117],[8.8221,41.9101],[8.8199,41.9101],[8.8190,41.9088],[8.8199,41.9083],[8.8195,41.9074],[8.8136,41.9088],[8.8081,41.9039],[8.8065,41.9049],[8.8048,41.9036],[8.8028,41.9040],[8.8030,41.9070],[8.8023,41.9077]]}},{"type":"Feature","properties":{"name":"Le Prunelli"},"geometry":{"type":"LineString","coordinates":[[8.9644,41.9635],[8.9625,41.9631],[8.9623,41.9589],[8.9607,41.9580],[8.9573,41.9587],[8.9536,41.9623],[8.9473,41.9604],[8.9472,41.9588],[8.9533,41.9505],[8.9519,41.9466],[8.9491,41.9472],[8.9434,41.9463],[8.9403,41.9481],[8.9387,41.9476],[8.9364,41.9454],[8.9309,41.9444],[8.9266,41.9414],[8.9248,41.9388],[8.9204,41.9380],[8.9202,41.9358],[8.9170,41.9326],[8.9115,41.9329],[8.9096,41.9361],[8.9045,41.9376],[8.9007,41.9364],[8.8940,41.9303],[8.8902,41.9294],[8.8849,41.9299],[8.8723,41.9328],[8.8706,41.9284],[8.8640,41.9263]]}},{"type":"Feature","properties":{"name":"Le Prunelli"},"geometry":{"type":"LineString","coordinates":[[8.9946,41.9701],[8.9920,41.9717],[8.9895,41.9704],[8.9853,41.9740],[8.9826,41.9725],[8.9777,41.9727],[8.9718,41.9689],[8.9670,41.9639],[8.9647,41.9635]]}},{"type":"Feature","properties":{"name":"Le Prunelli"},"geometry":{"type":"LineString","coordinates":[[8.9647,41.9635],[8.9644,41.9635]]}},{"type":"Feature","properties":{"name":"Ruisseau de Bocca Bianca"},"geometry":{"type":"LineString","coordinates":[[8.8594,42.3918],[8.8580,42.3906],[8.8503,42.3904],[8.8474,42.3891],[8.8417,42.3890],[8.8356,42.3873],[8.8314,42.3836],[8.8287,42.3831],[8.8244,42.3769]]}},{"type":"Feature","properties":{"name":"Le Fango"},"geometry":{"type":"LineString","coordinates":[[8.7544,42.3816],[8.7540,42.3836],[8.7509,42.3839],[8.7503,42.3861],[8.7475,42.3872],[8.7332,42.3890],[8.7257,42.3889],[8.7219,42.3924],[8.7183,42.3926],[8.7141,42.3972]]}},{"type":"Feature","properties":{"name":"Le Fango"},"geometry":{"type":"LineString","coordinates":[[8.7923,42.3684],[8.7869,42.3698],[8.7783,42.3759],[8.7676,42.3776]]}},{"type":"Feature","properties":{"name":"Le Fango"},"geometry":{"type":"LineString","coordinates":[[8.7676,42.3776],[8.7643,42.3778],[8.7593,42.3801],[8.7539,42.3793],[8.7544,42.3816]]}},{"type":"Feature","properties":{"name":"Ruisseau de Manganello"},"geometry":{"type":"LineString","coordinates":[[9.0640,42.1928],[9.0677,42.1906],[9.0746,42.1885],[9.0757,42.1840],[9.0774,42.1817],[9.0815,42.1788],[9.0860,42.1775],[9.0954,42.1726],[9.0968,42.1704],[9.0966,42.1689],[9.1091,42.1676],[9.1131,42.1700],[9.1175,42.1712],[9.1206,42.1710],[9.1264,42.1654],[9.1289,42.1650],[9.1318,42.1631],[9.1356,42.1623],[9.1410,42.1639],[9.1433,42.1633]]}},{"type":"Feature","properties":{"name":"Tavignanu"},"geometry":{"type":"LineString","coordinates":[[9.0927,42.2988],[9.0991,42.2998],[9.1030,42.2994],[9.1045,42.2986],[9.1041,42.2967],[9.1050,42.2962],[9.1103,42.2996],[9.1142,42.2998],[9.1143,42.3024],[9.1202,42.3043],[9.1262,42.3033],[9.1355,42.3078],[9.1442,42.3083],[9.1443,42.3058],[9.1471,42.3045],[9.1477,42.3030],[9.1558,42.3044],[9.1587,42.3061],[9.1630,42.3062],[9.1738,42.3027],[9.1780,42.2987],[9.1877,42.2945]]}},{"type":"Feature","properties":{"name":"Tavignanu"},"geometry":{"type":"LineString","coordinates":[[9.2118,42.2794],[9.2224,42.2802],[9.2235,42.2769],[9.2263,42.2744],[9.2262,42.2705],[9.2244,42.2676],[9.2154,42.2655],[9.2107,42.2660],[9.2103,42.2632],[9.2138,42.2593],[9.2118,42.2583],[9.2076,42.2585],[9.2056,42.2577],[9.2072,42.2561],[9.2133,42.2543],[9.2121,42.2529],[9.2128,42.2486],[9.2196,42.2487],[9.2212,42.2452],[9.2198,42.2419],[9.2223,42.2405],[9.2290,42.2406],[9.2309,42.2371],[9.2356,42.2354],[9.2381,42.2329],[9.2411,42.2323],[9.2426,42.2300],[9.2456,42.2280],[9.2534,42.2289],[9.2651,42.2221],[9.2739,42.2183],[9.2810,42.2168],[9.2847,42.2142],[9.3063,42.2152],[9.3123,42.2137],[9.3162,42.2098],[9.3182,42.2096],[9.3193,42.2115],[9.3246,42.2113],[9.3330,42.2076],[9.3355,42.2085],[9.3395,42.2118],[9.3408,42.2118],[9.3431,42.2104],[9.3432,42.2071],[9.3478,42.2063],[9.3497,42.2048],[9.3491,42.2022],[9.3439,42.1986],[9.3431,42.1960],[9.3451,42.1953],[9.3537,42.1978],[9.3546,42.1972],[9.3550,42.1941]]}},{"type":"Feature","properties":{"name":"Tavignanu"},"geometry":{"type":"LineString","coordinates":[[9.3550,42.1941],[9.3566,42.1921],[9.3587,42.1939],[9.3607,42.1934],[9.3613,42.1919],[9.3593,42.1897],[9.3609,42.1887],[9.3667,42.1907],[9.3669,42.1893],[9.3657,42.1881],[9.3670,42.1849],[9.3739,42.1818],[9.3758,42.1818],[9.3792,42.1841],[9.3834,42.1843],[9.3865,42.1833],[9.3868,42.1808],[9.3821,42.1784],[9.3816,42.1772],[9.3817,42.1753],[9.3835,42.1746],[9.3903,42.1731],[9.3972,42.1832],[9.3985,42.1832],[9.4005,42.1813],[9.4039,42.1819],[9.4068,42.1769],[9.4123,42.1766],[9.4142,42.1753],[9.4158,42.1720],[9.4192,42.1683],[9.4165,42.1647],[9.4259,42.1637],[9.4274,42.1621],[9.4278,42.1603],[9.4254,42.1584],[9.4266,42.1553],[9.4370,42.1532],[9.4381,42.1523],[9.4384,42.1505]]}},{"type":"Feature","properties":{"name":"Tavignanu"},"geometry":{"type":"LineString","coordinates":[[9.1877,42.2945],[9.1949,42.2909],[9.1966,42.2874],[9.2057,42.2846]]}},{"type":"Feature","properties":{"name":"Tavignanu"},"geometry":{"type":"LineString","coordinates":[[9.0307,42.2807],[9.0382,42.2833],[9.0387,42.2853],[9.0380,42.2864],[9.0396,42.2874],[9.0419,42.2924],[9.0443,42.2933],[9.0464,42.2929],[9.0517,42.2960],[9.0553,42.2951],[9.0566,42.2931],[9.0583,42.2934],[9.0606,42.2924],[9.0681,42.2934],[9.0708,42.2950],[9.0763,42.2939],[9.0788,42.2949],[9.0856,42.2952],[9.0901,42.2964],[9.0927,42.2988]]}},{"type":"Feature","properties":{"name":"Tavignanu"},"geometry":{"type":"LineString","coordinates":[[8.9876,42.2417],[8.9922,42.2432],[8.9955,42.2458],[8.9969,42.2479],[8.9968,42.2501],[8.9990,42.2510],[9.0019,42.2549],[9.0056,42.2564],[9.0077,42.2588],[9.0077,42.2607],[9.0106,42.2621],[9.0148,42.2662],[9.0159,42.2686],[9.0192,42.2712],[9.0181,42.2740],[9.0186,42.2752],[9.0215,42.2764],[9.0223,42.2777],[9.0283,42.2788],[9.0294,42.2804],[9.0307,42.2807]]}},{"type":"Feature","properties":{"name":"Ruisseau de Lava"},"geometry":{"type":"LineString","coordinates":[[8.7145,42.0034],[8.7119,42.0029],[8.7068,42.0050],[8.7065,42.0065],[8.7030,42.0076],[8.7017,42.0066],[8.6992,42.0070],[8.6968,42.0039],[8.6913,42.0002],[8.6904,41.9977],[8.6862,41.9959],[8.6825,41.9958],[8.6788,41.9930],[8.6719,41.9907]]}},{"type":"Feature","properties":{"name":"Ruisseau de Lava"},"geometry":{"type":"LineString","coordinates":[[8.6719,41.9907],[8.6699,41.9907],[8.6681,41.9927]]}},{"type":"Feature","properties":{"name":"Ruisseau de Lava"},"geometry":{"type":"LineString","coordinates":[[8.7146,42.0034],[8.7145,42.0034]]}},{"type":"Feature","properties":{"name":"Ruisseau de Lava"},"geometry":{"type":"LineString","coordinates":[[8.7297,42.0058],[8.7246,42.0051],[8.7233,42.0039],[8.7210,42.0044],[8.7164,42.0028],[8.7146,42.0034]]}},{"type":"Feature","properties":{"name":"Ruisseau de Cipitosa"},"geometry":{"type":"LineString","coordinates":[[9.2751,41.8859],[9.2751,41.8880],[9.2734,41.8895],[9.2749,41.8907],[9.2818,41.8925],[9.2853,41.8961],[9.2939,41.8954],[9.2947,41.8965],[9.2973,41.8966],[9.2980,41.8979]]}},{"type":"Feature","properties":{"name":"U Fium\u0027Orbu"},"geometry":{"type":"LineString","coordinates":[[9.1979,42.0634],[9.1977,42.0674],[9.1990,42.0690],[9.1979,42.0722],[9.2020,42.0770],[9.2048,42.0777],[9.2079,42.0803],[9.2070,42.0821],[9.2075,42.0843],[9.2054,42.0852],[9.2066,42.0872],[9.2217,42.0939],[9.2237,42.0938],[9.2241,42.0947],[9.2282,42.0936],[9.2307,42.0946],[9.2315,42.0973],[9.2333,42.0976],[9.2362,42.1003],[9.2438,42.1002],[9.2450,42.1043],[9.2479,42.1041],[9.2493,42.1015],[9.2517,42.1021],[9.2514,42.1037],[9.2529,42.1044],[9.2570,42.1039],[9.2593,42.1027],[9.2615,42.1037],[9.2648,42.1029],[9.2754,42.0994],[9.2801,42.0945]]}},{"type":"Feature","properties":{"name":"U Fium\u0027Orbu"},"geometry":{"type":"LineString","coordinates":[[9.3670,42.0340],[9.3687,42.0313],[9.3681,42.0265],[9.3726,42.0242],[9.3744,42.0210]]}},{"type":"Feature","properties":{"name":"U Fium\u0027Orbu"},"geometry":{"type":"LineString","coordinates":[[9.3408,42.0934],[9.3471,42.0924],[9.3539,42.0871],[9.3560,42.0868],[9.3588,42.0846],[9.3587,42.0829],[9.3604,42.0812],[9.3615,42.0780],[9.3577,42.0769],[9.3581,42.0736],[9.3608,42.0719],[9.3616,42.0687],[9.3661,42.0666],[9.3635,42.0651],[9.3685,42.0624],[9.3647,42.0582],[9.3656,42.0548],[9.3685,42.0536],[9.3695,42.0512],[9.3695,42.0503],[9.3669,42.0487]]}},{"type":"Feature","properties":{"name":"U Fium\u0027Orbu"},"geometry":{"type":"LineString","coordinates":[[9.3974,42.0099],[9.4006,42.0085],[9.4088,42.0094],[9.4103,42.0085],[9.4099,42.0077]]}},{"type":"Feature","properties":{"name":"U Fium\u0027Orbu"},"geometry":{"type":"LineString","coordinates":[[9.2801,42.0945],[9.2870,42.0955],[9.2890,42.0969],[9.3059,42.0952],[9.3104,42.0979],[9.3145,42.0960],[9.3139,42.0917],[9.3179,42.0934],[9.3221,42.0917],[9.3278,42.0917],[9.3318,42.0942],[9.3358,42.0926],[9.3389,42.0940],[9.3408,42.0934]]}},{"type":"Feature","properties":{"name":"U Fium\u0027Orbu"},"geometry":{"type":"LineString","coordinates":[[9.3796,42.0172],[9.3852,42.0125],[9.3974,42.0099]]}},{"type":"Feature","properties":{"name":"U Fium\u0027Orbu"},"geometry":{"type":"LineString","coordinates":[[9.4166,42.0067],[9.4195,42.0053],[9.4232,42.0004],[9.4273,41.9988],[9.4289,41.9962],[9.4329,41.9967],[9.4388,41.9903]]}},{"type":"Feature","properties":{"name":"U Fium\u0027Orbu"},"geometry":{"type":"LineString","coordinates":[[9.4099,42.0077],[9.4112,42.0065],[9.4166,42.0067]]}},{"type":"Feature","properties":{"name":"U Fium\u0027Orbu"},"geometry":{"type":"LineString","coordinates":[[9.3669,42.0487],[9.3680,42.0467],[9.3717,42.0452],[9.3728,42.0436],[9.3679,42.0426],[9.3664,42.0414],[9.3662,42.0400],[9.3677,42.0382],[9.3666,42.0347]]}},{"type":"Feature","properties":{"name":"U Fium\u0027Orbu"},"geometry":{"type":"LineString","coordinates":[[9.3666,42.0347],[9.3670,42.0340]]}},{"type":"Feature","properties":{"name":"U Fium\u0027Orbu"},"geometry":{"type":"LineString","coordinates":[[9.3744,42.0210],[9.3759,42.0190],[9.3785,42.0186],[9.3796,42.0172]]}},{"type":"Feature","properties":{"name":"U Fium\u0027Orbu"},"geometry":{"type":"LineString","coordinates":[[9.3785,42.0186],[9.3803,42.0167]]}},{"type":"Feature","properties":{"name":"U Fium\u0027Orbu"},"geometry":{"type":"LineString","coordinates":[[9.1981,42.0483],[9.1997,42.0514],[9.1974,42.0543],[9.1975,42.0564],[9.2002,42.0576],[9.1996,42.0615],[9.1979,42.0634]]}},{"type":"Feature","properties":{"name":"Ruisseau de Canne"},"geometry":{"type":"LineString","coordinates":[[8.6772,42.3846],[8.6817,42.3865],[8.6853,42.3898],[8.6922,42.3917],[8.6946,42.3943]]}},{"type":"Feature","properties":{"name":"Ruisseau de Canne"},"geometry":{"type":"LineString","coordinates":[[8.6946,42.3943],[8.6945,42.3953],[8.6970,42.3979],[8.6961,42.3998],[8.6975,42.4015],[8.6954,42.4049]]}},{"type":"Feature","properties":{"name":"L\u0027Ortolo"},"geometry":{"type":"LineString","coordinates":[[9.0463,41.6095],[9.0448,41.6093]]}},{"type":"Feature","properties":{"name":"L\u0027Ortolo"},"geometry":{"type":"LineString","coordinates":[[9.0463,41.6095],[9.0449,41.6102]]}},{"type":"Feature","properties":{"name":"L\u0027Ortolo"},"geometry":{"type":"LineString","coordinates":[[9.0430,41.6100],[9.0420,41.6108],[9.0395,41.6100],[9.0372,41.6068],[9.0324,41.6048],[9.0327,41.6031],[9.0317,41.6023],[9.0282,41.6026],[9.0248,41.5978],[9.0208,41.5977],[9.0217,41.5938],[9.0157,41.5940],[9.0071,41.5831],[9.0053,41.5792],[9.0003,41.5765],[8.9914,41.5743],[8.9859,41.5630],[8.9793,41.5606],[8.9786,41.5594],[8.9797,41.5578],[8.9793,41.5550],[8.9754,41.5486],[8.9718,41.5465],[8.9678,41.5422],[8.9623,41.5411],[8.9604,41.5388],[8.9605,41.5331],[8.9568,41.5282],[8.9513,41.5272],[8.9483,41.5257],[8.9435,41.5265],[8.9391,41.5255],[8.9380,41.5234],[8.9374,41.5177],[8.9355,41.5158],[8.9304,41.5149],[8.9196,41.5092],[8.9184,41.5074],[8.9119,41.5084]]}},{"type":"Feature","properties":{"name":"Rivière de Bala"},"geometry":{"type":"LineString","coordinates":[[9.2291,41.6323],[9.2302,41.6278],[9.2281,41.6261],[9.2313,41.6239],[9.2314,41.6225],[9.2368,41.6225],[9.2377,41.6206],[9.2362,41.6192],[9.2344,41.6190],[9.2323,41.6166],[9.2346,41.6131]]}},{"type":"Feature","properties":{"name":"Rivière de Bala"},"geometry":{"type":"LineString","coordinates":[[9.2346,41.6131],[9.2345,41.6129]]}},{"type":"Feature","properties":{"name":"Rivière de Bala"},"geometry":{"type":"LineString","coordinates":[[9.2345,41.6129],[9.2335,41.6121],[9.2334,41.6100],[9.2357,41.6060],[9.2343,41.6043],[9.2373,41.5963],[9.2379,41.5920],[9.2372,41.5889],[9.2394,41.5837],[9.2426,41.5826]]}},{"type":"Feature","properties":{"name":"Rivière de Bala"},"geometry":{"type":"LineString","coordinates":[[9.2460,41.5757],[9.2468,41.5725],[9.2492,41.5706],[9.2490,41.5681]]}},{"type":"Feature","properties":{"name":"Ruisseau de Candela"},"geometry":{"type":"LineString","coordinates":[[8.8244,42.3769],[8.8133,42.3743],[8.8100,42.3713],[8.8000,42.3716],[8.7923,42.3684]]}},{"type":"Feature","properties":{"name":"Ruisseau de Petrosu"},"geometry":{"type":"LineString","coordinates":[[9.1808,41.6093],[9.1852,41.6076],[9.1866,41.6059],[9.1935,41.6040],[9.1965,41.6056],[9.2034,41.6058],[9.2066,41.6069],[9.2120,41.6060],[9.2170,41.6095],[9.2217,41.6106]]}},{"type":"Feature","properties":{"name":"Ruisseau de Petrosu"},"geometry":{"type":"LineString","coordinates":[[9.2217,41.6106],[9.2293,41.6125],[9.2334,41.6107]]}},{"type":"Feature","properties":{"name":"Ruisseau de Petrosu"},"geometry":{"type":"LineString","coordinates":[[9.2217,41.6106],[9.2235,41.6105]]}},{"type":"Feature","properties":{"name":"Liamone"},"geometry":{"type":"LineString","coordinates":[[8.7570,42.0907],[8.7459,42.0887],[8.7436,42.0868],[8.7402,42.0868],[8.7376,42.0839]]}},{"type":"Feature","properties":{"name":"Liamone"},"geometry":{"type":"LineString","coordinates":[[8.8213,42.1164],[8.8127,42.1156],[8.8100,42.1141],[8.8094,42.1116]]}},{"type":"Feature","properties":{"name":"Liamone"},"geometry":{"type":"LineString","coordinates":[[8.8407,42.1757],[8.8349,42.1783],[8.8292,42.1789],[8.8254,42.1773],[8.8242,42.1754],[8.8204,42.1766]]}},{"type":"Feature","properties":{"name":"Liamone"},"geometry":{"type":"LineString","coordinates":[[8.7743,42.1018],[8.7698,42.1007],[8.7680,42.0981],[8.7680,42.0952],[8.7654,42.0948],[8.7620,42.0924],[8.7570,42.0907]]}},{"type":"Feature","properties":{"name":"Liamone"},"geometry":{"type":"LineString","coordinates":[[8.8347,42.1309],[8.8347,42.1292],[8.8320,42.1286],[8.8312,42.1258],[8.8286,42.1251],[8.8266,42.1263],[8.8241,42.1238],[8.8198,42.1226],[8.8211,42.1206],[8.8213,42.1164]]}},{"type":"Feature","properties":{"name":"Liamone"},"geometry":{"type":"LineString","coordinates":[[8.8204,42.1766],[8.8198,42.1748],[8.8211,42.1700],[8.8188,42.1687],[8.8181,42.1641],[8.8157,42.1636],[8.8138,42.1616],[8.8116,42.1575],[8.8117,42.1546]]}},{"type":"Feature","properties":{"name":"Liamone"},"geometry":{"type":"LineString","coordinates":[[8.7376,42.0839],[8.7386,42.0796],[8.7373,42.0779],[8.7340,42.0764],[8.7306,42.0767],[8.7303,42.0790],[8.7278,42.0800],[8.7226,42.0777],[8.7174,42.0775]]}},{"type":"Feature","properties":{"name":"Liamone"},"geometry":{"type":"LineString","coordinates":[[8.8117,42.1546],[8.8162,42.1514],[8.8208,42.1448],[8.8279,42.1412],[8.8274,42.1400],[8.8249,42.1385],[8.8220,42.1402],[8.8203,42.1398],[8.8203,42.1349],[8.8229,42.1320],[8.8291,42.1328],[8.8347,42.1309]]}},{"type":"Feature","properties":{"name":"Liamone"},"geometry":{"type":"LineString","coordinates":[[8.8094,42.1116],[8.8063,42.1123],[8.8033,42.1142],[8.7971,42.1086],[8.7933,42.1098],[8.7920,42.1081],[8.7922,42.1063],[8.7873,42.1040],[8.7851,42.1033],[8.7781,42.1043],[8.7745,42.1026],[8.7743,42.1018]]}},{"type":"Feature","properties":{"name":"Liamone"},"geometry":{"type":"LineString","coordinates":[[8.8675,42.1825],[8.8665,42.1843],[8.8615,42.1851],[8.8602,42.1863],[8.8581,42.1853],[8.8547,42.1857],[8.8521,42.1848],[8.8508,42.1826],[8.8426,42.1808],[8.8407,42.1757]]}},{"type":"Feature","properties":{"name":"Bravone"},"geometry":{"type":"LineString","coordinates":[[9.4106,42.2496],[9.4110,42.2492]]}},{"type":"Feature","properties":{"name":"Bravone"},"geometry":{"type":"LineString","coordinates":[[9.4110,42.2492],[9.4176,42.2457],[9.4168,42.2441],[9.4179,42.2421],[9.4194,42.2419],[9.4207,42.2432],[9.4243,42.2423],[9.4284,42.2361],[9.4334,42.2342],[9.4314,42.2327],[9.4317,42.2317],[9.4363,42.2308],[9.4398,42.2285],[9.4401,42.2274],[9.4469,42.2256],[9.4467,42.2232],[9.4479,42.2214],[9.4556,42.2230],[9.4538,42.2244],[9.4546,42.2252],[9.4577,42.2242],[9.4600,42.2248],[9.4600,42.2266],[9.4622,42.2282]]}},{"type":"Feature","properties":{"name":"Rivière de Guagno"},"geometry":{"type":"LineString","coordinates":[[8.9003,42.1731],[8.8959,42.1725],[8.8905,42.1760],[8.8811,42.1775],[8.8785,42.1789],[8.8735,42.1789],[8.8722,42.1809],[8.8699,42.1807],[8.8675,42.1825]]}},{"type":"Feature","properties":{"name":"Le Tagnone"},"geometry":{"type":"LineString","coordinates":[[9.2706,42.1696],[9.2730,42.1692],[9.2746,42.1664],[9.2763,42.1659],[9.2765,42.1638],[9.2782,42.1638],[9.2765,42.1623],[9.2782,42.1610],[9.2777,42.1592],[9.2799,42.1568],[9.2798,42.1557],[9.2813,42.1554],[9.2808,42.1542],[9.2816,42.1510],[9.2833,42.1507],[9.2842,42.1487],[9.2863,42.1484],[9.2874,42.1461],[9.2902,42.1439],[9.2947,42.1417],[9.2935,42.1403],[9.2960,42.1399],[9.2978,42.1374],[9.3008,42.1372],[9.3013,42.1357],[9.3036,42.1346],[9.3037,42.1322],[9.3070,42.1317],[9.3069,42.1291],[9.3095,42.1253],[9.3088,42.1238],[9.3115,42.1238],[9.3151,42.1200],[9.3176,42.1197],[9.3179,42.1184],[9.3203,42.1188],[9.3222,42.1165],[9.3288,42.1142],[9.3352,42.1168],[9.3437,42.1107],[9.3433,42.1088],[9.3442,42.1076],[9.3474,42.1073],[9.3493,42.1058],[9.3555,42.1061],[9.3598,42.1039],[9.3637,42.1036],[9.3640,42.0998],[9.3679,42.0997],[9.3683,42.1013],[9.3734,42.1021],[9.3785,42.1053],[9.3815,42.1048],[9.3822,42.1084],[9.3855,42.1071]]}},{"type":"Feature","properties":{"name":"Le Tagnone"},"geometry":{"type":"LineString","coordinates":[[9.3855,42.1071],[9.3874,42.1105],[9.3931,42.1094],[9.3984,42.1114],[9.4011,42.1098],[9.4042,42.1110],[9.4063,42.1106],[9.4081,42.1085],[9.4244,42.1125],[9.4264,42.1102],[9.4325,42.1094],[9.4327,42.1069],[9.4370,42.1021],[9.4413,42.1002],[9.4403,42.0963],[9.4421,42.0964],[9.4452,42.0947],[9.4488,42.0956],[9.4508,42.0937],[9.4531,42.0941],[9.4541,42.0931],[9.4569,42.0935],[9.4575,42.0927],[9.4596,42.0930],[9.4603,42.0944],[9.4632,42.0948],[9.4645,42.0963],[9.4706,42.0938],[9.4845,42.0910],[9.5013,42.1008],[9.5046,42.1043],[9.5071,42.1052]]}},{"type":"Feature","properties":{"name":"Le Travo"},"geometry":{"type":"LineString","coordinates":[[9.2481,41.9101],[9.2529,41.9161],[9.2581,41.9177],[9.2636,41.9168],[9.2655,41.9192],[9.2686,41.9194],[9.2691,41.9213],[9.2724,41.9232],[9.2751,41.9229],[9.2798,41.9245],[9.2839,41.9229],[9.2859,41.9244],[9.2892,41.9236],[9.2902,41.9245],[9.2955,41.9235],[9.2977,41.9244],[9.3021,41.9226],[9.3038,41.9244]]}},{"type":"Feature","properties":{"name":"Le Travo"},"geometry":{"type":"LineString","coordinates":[[9.3038,41.9244],[9.3058,41.9209],[9.3087,41.9238],[9.3123,41.9213],[9.3158,41.9249],[9.3192,41.9257],[9.3212,41.9250],[9.3211,41.9228],[9.3238,41.9219],[9.3297,41.9227],[9.3395,41.9194],[9.3452,41.9198],[9.3474,41.9216],[9.3504,41.9220],[9.3580,41.9199],[9.3660,41.9200],[9.3773,41.9173],[9.3914,41.9113],[9.3979,41.9101],[9.3988,41.9087],[9.4023,41.9092],[9.4074,41.9085],[9.4088,41.9070]]}},{"type":"Feature","properties":{"name":"Le Travo"},"geometry":{"type":"LineString","coordinates":[[9.4038,41.9041],[9.4067,41.9039]]}},{"type":"Feature","properties":{"name":"Le Travo"},"geometry":{"type":"LineString","coordinates":[[9.3988,41.9087],[9.3991,41.9076],[9.4038,41.9041]]}},{"type":"Feature","properties":{"name":"Rivière du Busso"},"geometry":{"type":"LineString","coordinates":[[9.4035,42.3313],[9.4032,42.3278],[9.4062,42.3266],[9.4076,42.3248]]}},{"type":"Feature","properties":{"name":"Rivière du Busso"},"geometry":{"type":"LineString","coordinates":[[9.4076,42.3248],[9.4097,42.3224],[9.4119,42.3223],[9.4118,42.3204],[9.4133,42.3191],[9.4133,42.3179]]}},{"type":"Feature","properties":{"name":"Rivière du Busso"},"geometry":{"type":"LineString","coordinates":[[9.4023,42.3319],[9.4035,42.3313]]}},{"type":"Feature","properties":{"name":"Rivière du Busso"},"geometry":{"type":"LineString","coordinates":[[9.4133,42.3179],[9.4133,42.3177]]}},{"type":"Feature","properties":{"name":"Rivière du Busso"},"geometry":{"type":"LineString","coordinates":[[9.4133,42.3177],[9.4178,42.3158],[9.4186,42.3134],[9.4215,42.3143],[9.4231,42.3128],[9.4247,42.3134],[9.4261,42.3106]]}},{"type":"Feature","properties":{"name":"Rivière du Busso"},"geometry":{"type":"LineString","coordinates":[[9.4261,42.3106],[9.4284,42.3093],[9.4292,42.3097],[9.4293,42.3114],[9.4306,42.3113],[9.4312,42.3097],[9.4326,42.3112],[9.4337,42.3112],[9.4375,42.3102],[9.4392,42.3083],[9.4412,42.3102],[9.4450,42.3096]]}},{"type":"Feature","properties":{"name":"L\u0027Oso"},"geometry":{"type":"LineString","coordinates":[[9.2439,41.6825],[9.2507,41.6846],[9.2512,41.6837],[9.2501,41.6824],[9.2505,41.6811],[9.2515,41.6810],[9.2533,41.6829],[9.2529,41.6842],[9.2582,41.6850],[9.2633,41.6874],[9.2647,41.6892],[9.2689,41.6896],[9.2748,41.6926],[9.2784,41.6929],[9.2797,41.6923],[9.2808,41.6901],[9.2844,41.6889],[9.2846,41.6873],[9.2876,41.6833],[9.2894,41.6831],[9.2923,41.6808],[9.2973,41.6803],[9.2981,41.6790],[9.2970,41.6759],[9.2991,41.6716],[9.3056,41.6678],[9.3104,41.6614],[9.3105,41.6588],[9.3133,41.6573],[9.3145,41.6551],[9.3175,41.6558],[9.3221,41.6544],[9.3240,41.6514],[9.3265,41.6495],[9.3275,41.6468],[9.3274,41.6419],[9.3290,41.6399],[9.3287,41.6359],[9.3298,41.6342],[9.3291,41.6310],[9.3220,41.6280]]}},{"type":"Feature","properties":{"name":"L\u0027Oso"},"geometry":{"type":"LineString","coordinates":[[9.3220,41.6280],[9.3199,41.6282],[9.3163,41.6305],[9.3139,41.6289]]}},{"type":"Feature","properties":{"name":"L\u0027Oso"},"geometry":{"type":"LineString","coordinates":[[9.3220,41.6280],[9.3204,41.6270],[9.3203,41.6232],[9.3186,41.6213]]}},{"type":"Feature","properties":{"name":"L\u0027Oso"},"geometry":{"type":"LineString","coordinates":[[9.3206,41.6280],[9.3197,41.6278],[9.3204,41.6270]]}},{"type":"Feature","properties":{"name":"Le Cavo"},"geometry":{"type":"LineString","coordinates":[[9.2630,41.7478],[9.2687,41.7474],[9.2701,41.7460],[9.2796,41.7478],[9.2839,41.7469],[9.2867,41.7484],[9.2880,41.7453],[9.2921,41.7463],[9.2929,41.7419],[9.2960,41.7403],[9.2929,41.7390],[9.2941,41.7360],[9.2928,41.7344],[9.2941,41.7326],[9.2931,41.7297],[9.2956,41.7284],[9.2964,41.7263],[9.3044,41.7177],[9.3046,41.7139],[9.3110,41.7119],[9.3161,41.7087],[9.3236,41.7070],[9.3330,41.7069],[9.3384,41.7019],[9.3511,41.7026],[9.3546,41.7016],[9.3605,41.7026],[9.3693,41.6978],[9.3862,41.7015],[9.3954,41.7003],[9.3989,41.7011],[9.4005,41.7002]]}},{"type":"Feature","properties":{"name":"U Cruzzini"},"geometry":{"type":"LineString","coordinates":[[9.0513,42.1501],[9.0478,42.1499],[9.0396,42.1447],[9.0303,42.1444],[9.0242,42.1419],[9.0189,42.1414],[9.0170,42.1422],[9.0125,42.1415],[9.0080,42.1391],[8.9996,42.1387],[8.9943,42.1348],[8.9911,42.1344],[8.9904,42.1331],[8.9885,42.1330],[8.9872,42.1317],[8.9841,42.1318],[8.9750,42.1271],[8.9656,42.1259],[8.9580,42.1216],[8.9559,42.1226],[8.9518,42.1208],[8.9444,42.1200],[8.9410,42.1178],[8.9401,42.1149],[8.9373,42.1145],[8.9347,42.1122],[8.9307,42.1116],[8.9285,42.1098],[8.9197,42.1069],[8.9189,42.1058],[8.9080,42.1054],[8.9064,42.1027],[8.9024,42.1012],[8.8973,42.1001],[8.8936,42.1012],[8.8848,42.0990],[8.8829,42.0974]]}},{"type":"Feature","properties":{"name":"U Cruzzini"},"geometry":{"type":"LineString","coordinates":[[8.8829,42.0974],[8.8805,42.0966],[8.8725,42.0966],[8.8681,42.0953],[8.8669,42.0968],[8.8698,42.0975],[8.8698,42.0990],[8.8642,42.1002],[8.8600,42.0992],[8.8577,42.1021],[8.8520,42.1026],[8.8514,42.1065],[8.8479,42.1097],[8.8474,42.1121],[8.8431,42.1114],[8.8383,42.1141],[8.8287,42.1139],[8.8213,42.1164]]}}]}