{"type":"FeatureCollection","features":[{"type":"Feature","properties":{"name":"La Lère"},"geometry":{"type":"LineString","coordinates":[[1.5317,44.1620],[1.5312,44.1608],[1.5262,44.1596],[1.5254,44.1575],[1.5198,44.1547],[1.5215,44.1540],[1.5208,44.1526],[1.5177,44.1508],[1.5179,44.1490],[1.5141,44.1477],[1.5119,44.1446],[1.5103,44.1449],[1.5054,44.1430],[1.5004,44.1400],[1.4989,44.1404],[1.4969,44.1379],[1.4978,44.1372]]}},{"type":"Feature","properties":{"name":"La Lère"},"geometry":{"type":"LineString","coordinates":[[1.6101,44.2138],[1.6069,44.2132],[1.6054,44.2119],[1.6042,44.2105],[1.6045,44.2095],[1.6029,44.2091],[1.5975,44.2026],[1.5975,44.2005],[1.5891,44.1920],[1.5866,44.1904],[1.5812,44.1911],[1.5808,44.1898],[1.5824,44.1868],[1.5800,44.1851],[1.5843,44.1812],[1.5786,44.1788],[1.5772,44.1752],[1.5736,44.1740],[1.5682,44.1753],[1.5640,44.1738],[1.5628,44.1755],[1.5609,44.1747],[1.5605,44.1759],[1.5591,44.1755],[1.5584,44.1768],[1.5569,44.1764],[1.5560,44.1771],[1.5539,44.1758],[1.5498,44.1757],[1.5499,44.1748],[1.5447,44.1705],[1.5449,44.1694]]}},{"type":"Feature","properties":{"name":"La Lère"},"geometry":{"type":"LineString","coordinates":[[1.6418,44.2372],[1.6400,44.2362],[1.6386,44.2369],[1.6333,44.2328],[1.6309,44.2332],[1.6304,44.2310],[1.6288,44.2302],[1.6193,44.2315],[1.6200,44.2298],[1.6192,44.2286],[1.6114,44.2251],[1.6102,44.2213],[1.6084,44.2197],[1.6103,44.2193],[1.6111,44.2176],[1.6102,44.2138]]}},{"type":"Feature","properties":{"name":"La Lère"},"geometry":{"type":"LineString","coordinates":[[1.4773,44.1230],[1.4752,44.1218],[1.4737,44.1185],[1.4687,44.1140],[1.4649,44.1138],[1.4646,44.1148],[1.4627,44.1152],[1.4580,44.1134],[1.4575,44.1115],[1.4496,44.1105],[1.4473,44.1114],[1.4478,44.1122],[1.4468,44.1126],[1.4453,44.1111],[1.4457,44.1122],[1.4432,44.1129],[1.4429,44.1113],[1.4418,44.1108]]}},{"type":"Feature","properties":{"name":"La Lère"},"geometry":{"type":"LineString","coordinates":[[1.6102,44.2138],[1.6101,44.2138]]}},{"type":"Feature","properties":{"name":"La Lère"},"geometry":{"type":"LineString","coordinates":[[1.6612,44.2854],[1.6604,44.2834],[1.6575,44.2813],[1.6607,44.2793],[1.6592,44.2774],[1.6620,44.2772],[1.6622,44.2762],[1.6581,44.2726],[1.6555,44.2721],[1.6548,44.2690],[1.6516,44.2685],[1.6532,44.2620],[1.6526,44.2605],[1.6496,44.2591],[1.6516,44.2568],[1.6508,44.2545],[1.6489,44.2541],[1.6522,44.2529],[1.6528,44.2519],[1.6512,44.2513],[1.6464,44.2521]]}},{"type":"Feature","properties":{"name":"La Lère"},"geometry":{"type":"LineString","coordinates":[[1.5317,44.1620],[1.5288,44.1604],[1.5270,44.1608],[1.5265,44.1597]]}},{"type":"Feature","properties":{"name":"La Lère"},"geometry":{"type":"LineString","coordinates":[[1.5449,44.1694],[1.5460,44.1684],[1.5442,44.1664],[1.5388,44.1651],[1.5357,44.1632],[1.5336,44.1636],[1.5317,44.1620]]}},{"type":"Feature","properties":{"name":"La Lère"},"geometry":{"type":"LineString","coordinates":[[1.4978,44.1372],[1.4969,44.1357],[1.4895,44.1335],[1.4875,44.1318],[1.4871,44.1300],[1.4828,44.1284],[1.4801,44.1260],[1.4789,44.1233],[1.4776,44.1231]]}},{"type":"Feature","properties":{"name":"La Lère"},"geometry":{"type":"LineString","coordinates":[[1.4775,44.1230],[1.4773,44.1230]]}},{"type":"Feature","properties":{"name":"La Lère"},"geometry":{"type":"LineString","coordinates":[[1.4776,44.1231],[1.4775,44.1230]]}},{"type":"Feature","properties":{"name":"La Lère"},"geometry":{"type":"LineString","coordinates":[[1.6464,44.2521],[1.6440,44.2506],[1.6438,44.2466],[1.6448,44.2462],[1.6449,44.2447],[1.6426,44.2422],[1.6418,44.2372]]}},{"type":"Feature","properties":{"name":"Le Lot"},"geometry":{"type":"LineString","coordinates":[[0.7188,44.4018],[0.7160,44.4005],[0.7116,44.4012],[0.7019,44.4073],[0.6991,44.4110],[0.6969,44.4170],[0.6994,44.4249]]}},{"type":"Feature","properties":{"name":"Le Lot"},"geometry":{"type":"LineString","coordinates":[[0.7728,44.3971],[0.7648,44.4023],[0.7568,44.4039],[0.7526,44.4032],[0.7400,44.4047],[0.7249,44.4041]]}},{"type":"Feature","properties":{"name":"Le Lot"},"geometry":{"type":"LineString","coordinates":[[0.8857,44.4326],[0.8818,44.4315],[0.8695,44.4319],[0.8608,44.4296],[0.8521,44.4254],[0.8400,44.4181],[0.8379,44.4160],[0.8343,44.4076],[0.8319,44.4043],[0.8179,44.3949],[0.8113,44.3940],[0.8020,44.3948],[0.7833,44.3902],[0.7794,44.3908],[0.7773,44.3921],[0.7728,44.3971]]}},{"type":"Feature","properties":{"name":"Le Lot"},"geometry":{"type":"LineString","coordinates":[[0.7249,44.4041],[0.7188,44.4018]]}},{"type":"Feature","properties":{"name":"Le Viaur"},"geometry":{"type":"LineString","coordinates":[[1.9903,44.1495],[1.9843,44.1496],[1.9839,44.1514],[1.9862,44.1545],[1.9853,44.1565],[1.9832,44.1568],[1.9795,44.1524],[1.9806,44.1499],[1.9794,44.1468],[1.9710,44.1426],[1.9669,44.1442]]}},{"type":"Feature","properties":{"name":"Le Viaur"},"geometry":{"type":"LineString","coordinates":[[2.0581,44.1724],[2.0528,44.1711],[2.0486,44.1714],[2.0392,44.1681],[2.0290,44.1688],[2.0273,44.1675],[2.0268,44.1653],[2.0272,44.1640],[2.0310,44.1612],[2.0304,44.1574],[2.0229,44.1548],[2.0138,44.1547],[2.0039,44.1512]]}},{"type":"Feature","properties":{"name":"Le Viaur"},"geometry":{"type":"LineString","coordinates":[[2.0039,44.1512],[1.9965,44.1510],[1.9903,44.1495]]}},{"type":"Feature","properties":{"name":"L\u0027Hers-Mort"},"geometry":{"type":"LineString","coordinates":[[1.3632,43.7643],[1.3310,43.7754],[1.3290,43.7757],[1.3259,43.7745]]}},{"type":"Feature","properties":{"name":"L\u0027Hers-Mort"},"geometry":{"type":"LineString","coordinates":[[1.3890,43.7334],[1.3873,43.7350],[1.3865,43.7373],[1.3868,43.7410],[1.3806,43.7507],[1.3810,43.7528],[1.3787,43.7538],[1.3791,43.7551],[1.3767,43.7570],[1.3688,43.7600],[1.3632,43.7643]]}},{"type":"Feature","properties":{"name":"La Barguelone"},"geometry":{"type":"LineString","coordinates":[[0.8688,44.1280],[0.8691,44.1264],[0.8641,44.1268],[0.8599,44.1283],[0.8574,44.1276]]}},{"type":"Feature","properties":{"name":"La Barguelone"},"geometry":{"type":"LineString","coordinates":[[0.9665,44.1455],[0.9585,44.1417],[0.9488,44.1395],[0.9435,44.1368],[0.9344,44.1341],[0.9282,44.1292],[0.9176,44.1276],[0.9150,44.1262],[0.9038,44.1281],[0.9017,44.1277],[0.9004,44.1288],[0.8966,44.1284],[0.8920,44.1257],[0.8892,44.1256],[0.8810,44.1297],[0.8772,44.1288],[0.8750,44.1297],[0.8723,44.1281],[0.8688,44.1280]]}},{"type":"Feature","properties":{"name":"La Barguelone"},"geometry":{"type":"LineString","coordinates":[[0.8574,44.1276],[0.8556,44.1275],[0.8524,44.1244],[0.8489,44.1236],[0.8435,44.1191],[0.8388,44.1199],[0.8355,44.1177],[0.8334,44.1180]]}},{"type":"Feature","properties":{"name":"La Barguelone"},"geometry":{"type":"LineString","coordinates":[[0.9845,44.1603],[0.9728,44.1541],[0.9666,44.1456]]}},{"type":"Feature","properties":{"name":"La Barguelone"},"geometry":{"type":"LineString","coordinates":[[0.9666,44.1456],[0.9665,44.1455]]}},{"type":"Feature","properties":{"name":"Rivière de l\u0027Auroue"},"geometry":{"type":"LineString","coordinates":[[0.7747,44.1182],[0.7762,44.1212],[0.7755,44.1227]]}},{"type":"Feature","properties":{"name":"Rivière de l\u0027Auroue"},"geometry":{"type":"LineString","coordinates":[[0.7759,44.1236],[0.7774,44.1249],[0.7781,44.1283],[0.7703,44.1291],[0.7695,44.1309],[0.7673,44.1321],[0.7670,44.1333],[0.7681,44.1339],[0.7662,44.1350],[0.7669,44.1357],[0.7664,44.1366],[0.7685,44.1376],[0.7645,44.1377],[0.7631,44.1394]]}},{"type":"Feature","properties":{"name":"Rivière de l\u0027Auroue"},"geometry":{"type":"LineString","coordinates":[[0.7755,44.1227],[0.7759,44.1236]]}},{"type":"Feature","properties":{"name":"Rivière de l\u0027Auroue"},"geometry":{"type":"LineString","coordinates":[[0.7746,44.1178],[0.7747,44.1182]]}},{"type":"Feature","properties":{"name":"Rivière de l\u0027Auroue"},"geometry":{"type":"LineString","coordinates":[[0.7749,44.1170],[0.7746,44.1178]]}},{"type":"Feature","properties":{"name":"Rivière de l\u0027Auroue"},"geometry":{"type":"LineString","coordinates":[[0.7592,44.1083],[0.7635,44.1085],[0.7648,44.1101],[0.7725,44.1140],[0.7749,44.1170]]}},{"type":"Feature","properties":{"name":"Rivière de l\u0027Auroue"},"geometry":{"type":"LineString","coordinates":[[0.7562,44.1069],[0.7592,44.1083]]}},{"type":"Feature","properties":{"name":"Rivière de l\u0027Auroue"},"geometry":{"type":"LineString","coordinates":[[0.7557,44.1060],[0.7562,44.1069]]}},{"type":"Feature","properties":{"name":"Le Girou"},"geometry":{"type":"LineString","coordinates":[[1.4498,43.7490],[1.4467,43.7485],[1.4442,43.7508],[1.4412,43.7504],[1.4398,43.7515],[1.4356,43.7520],[1.4325,43.7530],[1.4305,43.7548],[1.4244,43.7544],[1.4095,43.7606],[1.4068,43.7601],[1.4032,43.7562],[1.4025,43.7570],[1.3967,43.7578],[1.3942,43.7573],[1.3923,43.7584],[1.3916,43.7616],[1.3881,43.7639],[1.3851,43.7639],[1.3816,43.7613],[1.3798,43.7610],[1.3774,43.7626],[1.3733,43.7625],[1.3731,43.7639],[1.3713,43.7644],[1.3627,43.7646]]}},{"type":"Feature","properties":{"name":"Le Girou"},"geometry":{"type":"LineString","coordinates":[[1.4500,43.7490],[1.4498,43.7490]]}},{"type":"Feature","properties":{"name":"Le Girou"},"geometry":{"type":"LineString","coordinates":[[1.5125,43.7249],[1.4972,43.7320],[1.4897,43.7341],[1.4883,43.7360],[1.4887,43.7374],[1.4798,43.7404],[1.4760,43.7432],[1.4602,43.7461],[1.4570,43.7458],[1.4534,43.7483],[1.4500,43.7490]]}},{"type":"Feature","properties":{"name":"Le Roc de Viguié"},"geometry":{"type":"LineString","coordinates":[[0.8995,44.4119],[0.8996,44.4119]]}},{"type":"Feature","properties":{"name":"Le Roc de Viguié"},"geometry":{"type":"LineString","coordinates":[[0.8996,44.4119],[0.9029,44.4117],[0.9082,44.4132]]}},{"type":"Feature","properties":{"name":"Le Roc de Viguié"},"geometry":{"type":"LineString","coordinates":[[0.8835,44.4118],[0.8847,44.4115]]}},{"type":"Feature","properties":{"name":"Le Roc de Viguié"},"geometry":{"type":"LineString","coordinates":[[0.8900,44.4117],[0.8901,44.4118]]}},{"type":"Feature","properties":{"name":"Le Roc de Viguié"},"geometry":{"type":"LineString","coordinates":[[0.8847,44.4115],[0.8897,44.4108],[0.8900,44.4117]]}},{"type":"Feature","properties":{"name":"Le Roc de Viguié"},"geometry":{"type":"LineString","coordinates":[[0.8889,44.4095],[0.8891,44.4095]]}},{"type":"Feature","properties":{"name":"Le Roc de Viguié"},"geometry":{"type":"LineString","coordinates":[[0.8847,44.4115],[0.8889,44.4095]]}},{"type":"Feature","properties":{"name":"Le Roc de Viguié"},"geometry":{"type":"LineString","coordinates":[[0.8901,44.4118],[0.8922,44.4126],[0.8995,44.4119]]}},{"type":"Feature","properties":{"name":"Le Roc de Viguié"},"geometry":{"type":"LineString","coordinates":[[0.8891,44.4095],[0.8958,44.4052],[0.8969,44.4022],[0.9038,44.3952]]}},{"type":"Feature","properties":{"name":"Le Roc de Viguié"},"geometry":{"type":"LineString","coordinates":[[0.8543,44.4264],[0.8563,44.4244],[0.8617,44.4235],[0.8627,44.4225],[0.8594,44.4190],[0.8599,44.4175],[0.8663,44.4186],[0.8743,44.4148],[0.8802,44.4139],[0.8835,44.4119]]}},{"type":"Feature","properties":{"name":"Le Cerou"},"geometry":{"type":"LineString","coordinates":[[1.9650,44.0692],[1.9625,44.0687],[1.9620,44.0707],[1.9569,44.0711],[1.9553,44.0683],[1.9520,44.0672],[1.9478,44.0682],[1.9470,44.0720],[1.9451,44.0727],[1.9440,44.0713],[1.9423,44.0716],[1.9432,44.0705],[1.9405,44.0683],[1.9339,44.0712],[1.9282,44.0725],[1.9223,44.0719]]}},{"type":"Feature","properties":{"name":"Le Cerou"},"geometry":{"type":"LineString","coordinates":[[1.9897,44.0795],[1.9854,44.0793],[1.9815,44.0779],[1.9770,44.0704],[1.9650,44.0692]]}},{"type":"Feature","properties":{"name":"La Bonnette"},"geometry":{"type":"LineString","coordinates":[[1.7769,44.2512],[1.7771,44.2476],[1.7743,44.2456],[1.7761,44.2431],[1.7756,44.2377]]}},{"type":"Feature","properties":{"name":"La Bonnette"},"geometry":{"type":"LineString","coordinates":[[1.7565,44.1876],[1.7573,44.1848],[1.7544,44.1836],[1.7541,44.1815],[1.7526,44.1806],[1.7527,44.1783],[1.7513,44.1776]]}},{"type":"Feature","properties":{"name":"La Bonnette"},"geometry":{"type":"LineString","coordinates":[[1.7513,44.1776],[1.7490,44.1748],[1.7481,44.1712],[1.7494,44.1700],[1.7495,44.1676],[1.7515,44.1652],[1.7516,44.1636],[1.7538,44.1629],[1.7545,44.1608],[1.7568,44.1590],[1.7550,44.1575],[1.7553,44.1564],[1.7530,44.1552],[1.7539,44.1537],[1.7518,44.1505]]}},{"type":"Feature","properties":{"name":"La Bonnette"},"geometry":{"type":"LineString","coordinates":[[1.7944,44.2938],[1.7932,44.2916],[1.7974,44.2881],[1.7980,44.2865],[1.7971,44.2853],[1.7994,44.2825],[1.7993,44.2784],[1.7950,44.2734],[1.7947,44.2721],[1.7924,44.2710],[1.7900,44.2681],[1.7884,44.2635],[1.7869,44.2631],[1.7862,44.2615],[1.7828,44.2593],[1.7792,44.2579],[1.7783,44.2559],[1.7789,44.2545],[1.7769,44.2512]]}},{"type":"Feature","properties":{"name":"La Bonnette"},"geometry":{"type":"LineString","coordinates":[[1.7749,44.2358],[1.7749,44.2356]]}},{"type":"Feature","properties":{"name":"La Bonnette"},"geometry":{"type":"LineString","coordinates":[[1.7790,44.2313],[1.7795,44.2290],[1.7772,44.2259],[1.7778,44.2231],[1.7767,44.2208],[1.7816,44.2161],[1.7822,44.2132],[1.7815,44.2113],[1.7822,44.2107],[1.7751,44.2039],[1.7681,44.2022],[1.7679,44.2004],[1.7659,44.1994],[1.7651,44.1973],[1.7633,44.1963],[1.7632,44.1949],[1.7614,44.1938],[1.7610,44.1920],[1.7592,44.1913],[1.7588,44.1894],[1.7565,44.1876]]}},{"type":"Feature","properties":{"name":"La Bonnette"},"geometry":{"type":"LineString","coordinates":[[1.7749,44.2356],[1.7742,44.2345],[1.7790,44.2313]]}},{"type":"Feature","properties":{"name":"L\u0027Agoût"},"geometry":{"type":"LineString","coordinates":[[1.7895,43.7364],[1.7795,43.7434],[1.7675,43.7476]]}},{"type":"Feature","properties":{"name":"L\u0027Agoût"},"geometry":{"type":"LineString","coordinates":[[1.7675,43.7476],[1.7641,43.7505],[1.7637,43.7530],[1.7663,43.7570],[1.7721,43.7606],[1.7724,43.7624],[1.7715,43.7638],[1.7602,43.7664],[1.7559,43.7683],[1.7393,43.7714],[1.7350,43.7713]]}},{"type":"Feature","properties":{"name":"L\u0027Agoût"},"geometry":{"type":"LineString","coordinates":[[1.7289,43.7712],[1.7211,43.7719],[1.7112,43.7710],[1.7003,43.7761],[1.6856,43.7770],[1.6827,43.7791],[1.6835,43.7837],[1.6826,43.7854]]}},{"type":"Feature","properties":{"name":"L\u0027Agoût"},"geometry":{"type":"LineString","coordinates":[[1.7350,43.7713],[1.7289,43.7712]]}},{"type":"Feature","properties":{"name":"L\u0027Aveyron"},"geometry":{"type":"LineString","coordinates":[[1.6101,44.0751],[1.6058,44.0773],[1.6000,44.0828],[1.5921,44.0870],[1.5848,44.0890]]}},{"type":"Feature","properties":{"name":"L\u0027Aveyron"},"geometry":{"type":"LineString","coordinates":[[1.5848,44.0890],[1.5637,44.0848],[1.5478,44.0859],[1.5422,44.0883],[1.5357,44.0878],[1.5315,44.0850],[1.5292,44.0809],[1.5260,44.0783]]}},{"type":"Feature","properties":{"name":"L\u0027Aveyron"},"geometry":{"type":"LineString","coordinates":[[1.6400,44.0747],[1.6187,44.0731],[1.6101,44.0751]]}},{"type":"Feature","properties":{"name":"L\u0027Aveyron"},"geometry":{"type":"LineString","coordinates":[[1.4643,44.0935],[1.4622,44.0917],[1.4585,44.0908],[1.4491,44.0923],[1.4478,44.0936],[1.4468,44.0977],[1.4480,44.1017]]}},{"type":"Feature","properties":{"name":"L\u0027Aveyron"},"geometry":{"type":"LineString","coordinates":[[1.4972,44.0957],[1.4927,44.1002],[1.4914,44.1034],[1.4845,44.1104],[1.4828,44.1094],[1.4766,44.1016],[1.4672,44.0983],[1.4654,44.0966],[1.4643,44.0935]]}},{"type":"Feature","properties":{"name":"L\u0027Aveyron"},"geometry":{"type":"LineString","coordinates":[[1.7221,44.1185],[1.7230,44.1155],[1.7267,44.1133]]}},{"type":"Feature","properties":{"name":"L\u0027Aveyron"},"geometry":{"type":"LineString","coordinates":[[1.8370,44.1439],[1.8353,44.1424],[1.8347,44.1382],[1.8291,44.1335]]}},{"type":"Feature","properties":{"name":"L\u0027Aveyron"},"geometry":{"type":"LineString","coordinates":[[1.9669,44.1442],[1.9538,44.1503]]}},{"type":"Feature","properties":{"name":"L\u0027Aveyron"},"geometry":{"type":"LineString","coordinates":[[1.3553,44.0783],[1.3504,44.0802],[1.3477,44.0833]]}},{"type":"Feature","properties":{"name":"L\u0027Aveyron"},"geometry":{"type":"LineString","coordinates":[[1.4418,44.1108],[1.4392,44.1109],[1.4356,44.1056],[1.4311,44.1034]]}},{"type":"Feature","properties":{"name":"L\u0027Aveyron"},"geometry":{"type":"LineString","coordinates":[[1.4311,44.1034],[1.4273,44.1007],[1.4201,44.1013]]}},{"type":"Feature","properties":{"name":"L\u0027Aveyron"},"geometry":{"type":"LineString","coordinates":[[1.4480,44.1017],[1.4418,44.1055],[1.4427,44.1081],[1.4418,44.1108]]}},{"type":"Feature","properties":{"name":"L\u0027Aveyron"},"geometry":{"type":"LineString","coordinates":[[1.2757,44.0974],[1.2710,44.0989],[1.2672,44.0976],[1.2695,44.0896],[1.2683,44.0878],[1.2659,44.0869]]}},{"type":"Feature","properties":{"name":"L\u0027Aveyron"},"geometry":{"type":"LineString","coordinates":[[1.3025,44.0926],[1.3027,44.0912],[1.3016,44.0908],[1.2944,44.0921],[1.2882,44.0904],[1.2805,44.0931],[1.2757,44.0974]]}},{"type":"Feature","properties":{"name":"L\u0027Aveyron"},"geometry":{"type":"LineString","coordinates":[[1.3093,44.1011],[1.3062,44.1020],[1.3005,44.0991],[1.3025,44.0926]]}},{"type":"Feature","properties":{"name":"L\u0027Aveyron"},"geometry":{"type":"LineString","coordinates":[[1.3209,44.0922],[1.3172,44.0952],[1.3156,44.0981],[1.3093,44.1011]]}},{"type":"Feature","properties":{"name":"L\u0027Aveyron"},"geometry":{"type":"LineString","coordinates":[[1.3454,44.0907],[1.3397,44.0919],[1.3293,44.0886],[1.3209,44.0922]]}},{"type":"Feature","properties":{"name":"L\u0027Aveyron"},"geometry":{"type":"LineString","coordinates":[[1.4011,44.0862],[1.3997,44.0844],[1.3896,44.0778],[1.3823,44.0754],[1.3682,44.0730]]}},{"type":"Feature","properties":{"name":"L\u0027Aveyron"},"geometry":{"type":"LineString","coordinates":[[1.4109,44.0951],[1.4104,44.0937],[1.4011,44.0884],[1.4011,44.0862]]}},{"type":"Feature","properties":{"name":"L\u0027Aveyron"},"geometry":{"type":"LineString","coordinates":[[1.4201,44.1013],[1.4159,44.1009],[1.4127,44.0985],[1.4109,44.0951]]}},{"type":"Feature","properties":{"name":"L\u0027Aveyron"},"geometry":{"type":"LineString","coordinates":[[2.0735,44.3574],[2.0734,44.3552],[2.0708,44.3516],[2.0605,44.3512],[2.0532,44.3469],[2.0548,44.3444],[2.0504,44.3425],[2.0465,44.3441],[2.0461,44.3483],[2.0429,44.3501],[2.0336,44.3488],[2.0311,44.3475],[2.0288,44.3448],[2.0305,44.3415],[2.0289,44.3368],[2.0319,44.3354],[2.0323,44.3335],[2.0280,44.3322],[2.0223,44.3287],[2.0099,44.3288],[2.0077,44.3278],[2.0085,44.3240],[2.0108,44.3210]]}},{"type":"Feature","properties":{"name":"L\u0027Aveyron"},"geometry":{"type":"LineString","coordinates":[[1.9766,44.1619],[1.9708,44.1576],[1.9737,44.1541],[1.9738,44.1465],[1.9725,44.1452],[1.9669,44.1442]]}},{"type":"Feature","properties":{"name":"L\u0027Aveyron"},"geometry":{"type":"LineString","coordinates":[[1.6920,44.0631],[1.6859,44.0624],[1.6800,44.0654],[1.6747,44.0666],[1.6731,44.0635],[1.6731,44.0595]]}},{"type":"Feature","properties":{"name":"L\u0027Aveyron"},"geometry":{"type":"LineString","coordinates":[[1.9732,44.2206],[1.9675,44.2210],[1.9660,44.2192],[1.9623,44.2181],[1.9615,44.2155],[1.9645,44.2127],[1.9709,44.2158],[1.9792,44.2145],[1.9815,44.2125],[1.9819,44.2101],[1.9766,44.2069],[1.9745,44.2036],[1.9748,44.2026],[1.9773,44.2024],[1.9783,44.2012],[1.9745,44.1970],[1.9786,44.1936],[1.9803,44.1939],[1.9811,44.1965],[1.9844,44.1955],[1.9851,44.1943],[1.9829,44.1925],[1.9857,44.1917],[1.9878,44.1872]]}},{"type":"Feature","properties":{"name":"L\u0027Aveyron"},"geometry":{"type":"LineString","coordinates":[[1.8024,44.1443],[1.7947,44.1422],[1.7904,44.1421],[1.7813,44.1500],[1.7726,44.1534],[1.7701,44.1531],[1.7624,44.1480],[1.7472,44.1509],[1.7345,44.1476],[1.7320,44.1483],[1.7251,44.1529],[1.7200,44.1534],[1.7189,44.1518],[1.7236,44.1493],[1.7246,44.1478],[1.7229,44.1473],[1.7173,44.1492],[1.7148,44.1482],[1.7146,44.1409],[1.7161,44.1341],[1.7133,44.1326],[1.7092,44.1329],[1.7067,44.1345],[1.7046,44.1332],[1.7072,44.1298],[1.7141,44.1281],[1.7185,44.1252],[1.7212,44.1218],[1.7221,44.1185]]}},{"type":"Feature","properties":{"name":"L\u0027Aveyron"},"geometry":{"type":"LineString","coordinates":[[1.7267,44.1133],[1.7266,44.1122],[1.7233,44.1102],[1.7159,44.1079],[1.7149,44.1057],[1.7162,44.1044],[1.7219,44.1034],[1.7234,44.1011],[1.7266,44.0996],[1.7270,44.0985],[1.7260,44.0969],[1.7226,44.0943],[1.7224,44.0916],[1.7347,44.0868],[1.7371,44.0839],[1.7362,44.0811],[1.7343,44.0799],[1.7303,44.0795],[1.7243,44.0809],[1.7218,44.0805],[1.7177,44.0781],[1.7161,44.0724],[1.7146,44.0710],[1.7118,44.0711],[1.7069,44.0733],[1.7017,44.0734],[1.6991,44.0718],[1.6994,44.0680],[1.6972,44.0648],[1.6920,44.0631]]}},{"type":"Feature","properties":{"name":"L\u0027Aveyron"},"geometry":{"type":"LineString","coordinates":[[1.8291,44.1335],[1.8221,44.1298],[1.8166,44.1291],[1.8111,44.1351],[1.8102,44.1419],[1.8074,44.1441]]}},{"type":"Feature","properties":{"name":"L\u0027Aveyron"},"geometry":{"type":"LineString","coordinates":[[1.6731,44.0595],[1.6709,44.0569],[1.6674,44.0572],[1.6643,44.0635],[1.6475,44.0733],[1.6400,44.0747]]}},{"type":"Feature","properties":{"name":"L\u0027Aveyron"},"geometry":{"type":"LineString","coordinates":[[1.9804,44.1764],[1.9733,44.1714],[1.9733,44.1674],[1.9772,44.1637],[1.9766,44.1619]]}},{"type":"Feature","properties":{"name":"L\u0027Aveyron"},"geometry":{"type":"LineString","coordinates":[[2.0066,44.2665],[2.0051,44.2640],[2.0023,44.2627],[2.0017,44.2616],[2.0079,44.2595],[2.0086,44.2579],[2.0067,44.2565]]}},{"type":"Feature","properties":{"name":"L\u0027Aveyron"},"geometry":{"type":"LineString","coordinates":[[1.9878,44.1872],[1.9811,44.1869],[1.9809,44.1842],[1.9830,44.1787],[1.9804,44.1764]]}},{"type":"Feature","properties":{"name":"L\u0027Aveyron"},"geometry":{"type":"LineString","coordinates":[[2.0003,44.2423],[1.9990,44.2410],[1.9913,44.2426],[1.9909,44.2401],[1.9952,44.2387],[1.9950,44.2376],[1.9847,44.2353]]}},{"type":"Feature","properties":{"name":"L\u0027Aveyron"},"geometry":{"type":"LineString","coordinates":[[2.0067,44.2565],[2.0034,44.2561],[2.0003,44.2581],[1.9983,44.2578],[1.9992,44.2555],[2.0033,44.2536],[2.0039,44.2525],[1.9992,44.2501],[2.0003,44.2468],[1.9945,44.2469],[2.0003,44.2423]]}},{"type":"Feature","properties":{"name":"L\u0027Aveyron"},"geometry":{"type":"LineString","coordinates":[[1.8500,44.1351],[1.8456,44.1365],[1.8414,44.1445],[1.8370,44.1439]]}},{"type":"Feature","properties":{"name":"L\u0027Aveyron"},"geometry":{"type":"LineString","coordinates":[[1.9187,44.1404],[1.9145,44.1362]]}},{"type":"Feature","properties":{"name":"L\u0027Aveyron"},"geometry":{"type":"LineString","coordinates":[[1.9328,44.1557],[1.9255,44.1581],[1.9192,44.1631]]}},{"type":"Feature","properties":{"name":"L\u0027Aveyron"},"geometry":{"type":"LineString","coordinates":[[1.9192,44.1631],[1.9098,44.1637],[1.8992,44.1599],[1.8966,44.1582],[1.8939,44.1534],[1.8948,44.1528],[1.8982,44.1538],[1.9045,44.1517],[1.9093,44.1480],[1.9128,44.1424],[1.9189,44.1418],[1.9187,44.1404]]}},{"type":"Feature","properties":{"name":"L\u0027Aveyron"},"geometry":{"type":"LineString","coordinates":[[1.9145,44.1362],[1.9119,44.1330],[1.9056,44.1298],[1.8992,44.1324],[1.8976,44.1341]]}},{"type":"Feature","properties":{"name":"L\u0027Aveyron"},"geometry":{"type":"LineString","coordinates":[[1.8976,44.1341],[1.8951,44.1410],[1.8932,44.1431],[1.8904,44.1427],[1.8868,44.1380],[1.8851,44.1372],[1.8726,44.1402],[1.8688,44.1430],[1.8644,44.1440],[1.8604,44.1428],[1.8563,44.1375],[1.8500,44.1351]]}},{"type":"Feature","properties":{"name":"L\u0027Aveyron"},"geometry":{"type":"LineString","coordinates":[[1.9752,44.2206],[1.9729,44.2209]]}},{"type":"Feature","properties":{"name":"L\u0027Aveyron"},"geometry":{"type":"LineString","coordinates":[[2.0170,44.3075],[2.0127,44.3061],[2.0108,44.3010]]}},{"type":"Feature","properties":{"name":"L\u0027Aveyron"},"geometry":{"type":"LineString","coordinates":[[2.0110,44.2993],[2.0127,44.2970]]}},{"type":"Feature","properties":{"name":"L\u0027Aveyron"},"geometry":{"type":"LineString","coordinates":[[2.0108,44.3210],[2.0128,44.3172],[2.0190,44.3142],[2.0182,44.3129],[2.0195,44.3102],[2.0170,44.3075]]}},{"type":"Feature","properties":{"name":"L\u0027Aveyron"},"geometry":{"type":"LineString","coordinates":[[2.0127,44.2970],[2.0125,44.2948],[2.0079,44.2923],[2.0077,44.2871],[1.9992,44.2850],[1.9966,44.2825],[2.0020,44.2735],[2.0010,44.2701],[2.0017,44.2675],[2.0033,44.2663],[2.0055,44.2672],[2.0066,44.2665]]}},{"type":"Feature","properties":{"name":"L\u0027Aveyron"},"geometry":{"type":"LineString","coordinates":[[2.0108,44.3010],[2.0110,44.2993]]}},{"type":"Feature","properties":{"name":"L\u0027Aveyron"},"geometry":{"type":"LineString","coordinates":[[1.9444,44.1464],[1.9405,44.1473]]}},{"type":"Feature","properties":{"name":"L\u0027Aveyron"},"geometry":{"type":"LineString","coordinates":[[1.9537,44.1505],[1.9515,44.1510],[1.9481,44.1471],[1.9444,44.1464]]}},{"type":"Feature","properties":{"name":"L\u0027Aveyron"},"geometry":{"type":"LineString","coordinates":[[1.9405,44.1473],[1.9378,44.1493],[1.9372,44.1530],[1.9328,44.1557]]}},{"type":"Feature","properties":{"name":"L\u0027Aveyron"},"geometry":{"type":"LineString","coordinates":[[1.9538,44.1503],[1.9537,44.1505]]}},{"type":"Feature","properties":{"name":"L\u0027Aveyron"},"geometry":{"type":"LineString","coordinates":[[1.3682,44.0730],[1.3610,44.0751],[1.3553,44.0783]]}},{"type":"Feature","properties":{"name":"L\u0027Aveyron"},"geometry":{"type":"LineString","coordinates":[[1.8074,44.1441],[1.8024,44.1443]]}},{"type":"Feature","properties":{"name":"L\u0027Aveyron"},"geometry":{"type":"LineString","coordinates":[[1.5136,44.0839],[1.5115,44.0868]]}},{"type":"Feature","properties":{"name":"L\u0027Aveyron"},"geometry":{"type":"LineString","coordinates":[[1.5115,44.0868],[1.5066,44.0889],[1.4972,44.0957]]}},{"type":"Feature","properties":{"name":"L\u0027Aveyron"},"geometry":{"type":"LineString","coordinates":[[1.5230,44.0791],[1.5188,44.0823],[1.5136,44.0839]]}},{"type":"Feature","properties":{"name":"L\u0027Aveyron"},"geometry":{"type":"LineString","coordinates":[[1.5260,44.0783],[1.5250,44.0779],[1.5230,44.0791]]}},{"type":"Feature","properties":{"name":"L\u0027Aveyron"},"geometry":{"type":"LineString","coordinates":[[2.0135,44.3285],[2.0116,44.3250],[2.0092,44.3230]]}},{"type":"Feature","properties":{"name":"L\u0027Aveyron"},"geometry":{"type":"LineString","coordinates":[[1.9733,44.2205],[1.9732,44.2206]]}},{"type":"Feature","properties":{"name":"L\u0027Aveyron"},"geometry":{"type":"LineString","coordinates":[[1.9847,44.2353],[1.9873,44.2308],[1.9846,44.2298],[1.9840,44.2274],[1.9890,44.2287],[1.9914,44.2276],[1.9911,44.2262],[1.9889,44.2251],[1.9797,44.2240],[1.9759,44.2209],[1.9733,44.2205]]}},{"type":"Feature","properties":{"name":"L\u0027Aveyron"},"geometry":{"type":"LineString","coordinates":[[1.3475,44.0837],[1.3467,44.0890],[1.3454,44.0907]]}},{"type":"Feature","properties":{"name":"L\u0027Aveyron"},"geometry":{"type":"LineString","coordinates":[[1.3477,44.0833],[1.3475,44.0837]]}},{"type":"Feature","properties":{"name":"La Séoune"},"geometry":{"type":"LineString","coordinates":[[1.0894,44.2857],[1.0877,44.2841],[1.0878,44.2826],[1.0823,44.2724],[1.0801,44.2715],[1.0687,44.2622],[1.0590,44.2591],[1.0506,44.2547],[1.0428,44.2535],[1.0409,44.2486],[1.0394,44.2476],[1.0248,44.2462],[1.0213,44.2447]]}},{"type":"Feature","properties":{"name":"La Séoune"},"geometry":{"type":"LineString","coordinates":[[1.0996,44.3271],[1.1006,44.3253],[1.0987,44.3228],[1.0991,44.3192],[1.0978,44.3157],[1.0944,44.3115],[1.0955,44.3076],[1.0941,44.3054],[1.0941,44.3015],[1.0920,44.2991]]}},{"type":"Feature","properties":{"name":"La Séoune"},"geometry":{"type":"LineString","coordinates":[[0.7549,44.1843],[0.7547,44.1843]]}},{"type":"Feature","properties":{"name":"La Séoune"},"geometry":{"type":"LineString","coordinates":[[0.8942,44.1909],[0.8904,44.1909]]}},{"type":"Feature","properties":{"name":"La Séoune"},"geometry":{"type":"LineString","coordinates":[[0.9040,44.1901],[0.8942,44.1909]]}},{"type":"Feature","properties":{"name":"La Séoune"},"geometry":{"type":"LineString","coordinates":[[0.9160,44.1932],[0.9135,44.1912],[0.9040,44.1901]]}},{"type":"Feature","properties":{"name":"La Séoune"},"geometry":{"type":"LineString","coordinates":[[0.9162,44.1932],[0.9160,44.1932]]}},{"type":"Feature","properties":{"name":"La Séoune"},"geometry":{"type":"LineString","coordinates":[[0.9198,44.1929],[0.9162,44.1932]]}},{"type":"Feature","properties":{"name":"La Séoune"},"geometry":{"type":"LineString","coordinates":[[0.9199,44.1929],[0.9198,44.1929]]}},{"type":"Feature","properties":{"name":"La Séoune"},"geometry":{"type":"LineString","coordinates":[[0.9386,44.1955],[0.9199,44.1929]]}},{"type":"Feature","properties":{"name":"La Séoune"},"geometry":{"type":"LineString","coordinates":[[0.9387,44.1955],[0.9386,44.1955]]}},{"type":"Feature","properties":{"name":"La Séoune"},"geometry":{"type":"LineString","coordinates":[[0.9482,44.1986],[0.9401,44.1950],[0.9387,44.1955]]}},{"type":"Feature","properties":{"name":"La Séoune"},"geometry":{"type":"LineString","coordinates":[[0.9483,44.1986],[0.9482,44.1986]]}},{"type":"Feature","properties":{"name":"La Séoune"},"geometry":{"type":"LineString","coordinates":[[0.9673,44.2005],[0.9570,44.1988],[0.9483,44.1986]]}},{"type":"Feature","properties":{"name":"La Séoune"},"geometry":{"type":"LineString","coordinates":[[0.9674,44.2006],[0.9673,44.2005]]}},{"type":"Feature","properties":{"name":"La Séoune"},"geometry":{"type":"LineString","coordinates":[[0.9811,44.2103],[0.9674,44.2006]]}},{"type":"Feature","properties":{"name":"La Séoune"},"geometry":{"type":"LineString","coordinates":[[0.9933,44.2218],[0.9855,44.2177],[0.9841,44.2128]]}},{"type":"Feature","properties":{"name":"La Séoune"},"geometry":{"type":"LineString","coordinates":[[0.9934,44.2219],[0.9933,44.2218]]}},{"type":"Feature","properties":{"name":"La Séoune"},"geometry":{"type":"LineString","coordinates":[[1.0028,44.2372],[0.9963,44.2299],[0.9951,44.2246],[0.9934,44.2219]]}},{"type":"Feature","properties":{"name":"La Séoune"},"geometry":{"type":"LineString","coordinates":[[1.0030,44.2373],[1.0028,44.2372]]}},{"type":"Feature","properties":{"name":"La Séoune"},"geometry":{"type":"LineString","coordinates":[[1.0070,44.2390],[1.0030,44.2373]]}},{"type":"Feature","properties":{"name":"La Séoune"},"geometry":{"type":"LineString","coordinates":[[1.0073,44.2391],[1.0070,44.2390]]}},{"type":"Feature","properties":{"name":"La Séoune"},"geometry":{"type":"LineString","coordinates":[[1.0166,44.2429],[1.0117,44.2418],[1.0073,44.2391]]}},{"type":"Feature","properties":{"name":"La Séoune"},"geometry":{"type":"LineString","coordinates":[[1.0167,44.2430],[1.0166,44.2429]]}},{"type":"Feature","properties":{"name":"La Séoune"},"geometry":{"type":"LineString","coordinates":[[1.0213,44.2447],[1.0184,44.2443],[1.0167,44.2430]]}},{"type":"Feature","properties":{"name":"La Séoune"},"geometry":{"type":"LineString","coordinates":[[1.0910,44.2956],[1.0894,44.2857]]}},{"type":"Feature","properties":{"name":"La Séoune"},"geometry":{"type":"LineString","coordinates":[[1.0911,44.2957],[1.0910,44.2956]]}},{"type":"Feature","properties":{"name":"La Séoune"},"geometry":{"type":"LineString","coordinates":[[1.0918,44.2990],[1.0911,44.2957]]}},{"type":"Feature","properties":{"name":"La Séoune"},"geometry":{"type":"LineString","coordinates":[[1.0920,44.2991],[1.0918,44.2990]]}},{"type":"Feature","properties":{"name":"La Séoune"},"geometry":{"type":"LineString","coordinates":[[0.7231,44.1734],[0.7168,44.1716],[0.7155,44.1699],[0.7115,44.1708],[0.7037,44.1696]]}},{"type":"Feature","properties":{"name":"La Séoune"},"geometry":{"type":"LineString","coordinates":[[0.7235,44.1737],[0.7231,44.1734]]}},{"type":"Feature","properties":{"name":"La Séoune"},"geometry":{"type":"LineString","coordinates":[[0.7236,44.1737],[0.7235,44.1737]]}},{"type":"Feature","properties":{"name":"La Séoune"},"geometry":{"type":"LineString","coordinates":[[0.7241,44.1740],[0.7236,44.1737]]}},{"type":"Feature","properties":{"name":"La Séoune"},"geometry":{"type":"LineString","coordinates":[[0.7236,44.1735],[0.7231,44.1734]]}},{"type":"Feature","properties":{"name":"La Séoune"},"geometry":{"type":"LineString","coordinates":[[0.7376,44.1789],[0.7369,44.1781],[0.7345,44.1784],[0.7305,44.1754],[0.7241,44.1740]]}},{"type":"Feature","properties":{"name":"La Séoune"},"geometry":{"type":"LineString","coordinates":[[0.7377,44.1789],[0.7376,44.1789]]}},{"type":"Feature","properties":{"name":"La Séoune"},"geometry":{"type":"LineString","coordinates":[[0.7385,44.1803],[0.7377,44.1789]]}},{"type":"Feature","properties":{"name":"La Séoune"},"geometry":{"type":"LineString","coordinates":[[0.7766,44.1900],[0.7754,44.1889],[0.7701,44.1883],[0.7617,44.1837],[0.7549,44.1843]]}},{"type":"Feature","properties":{"name":"La Séoune"},"geometry":{"type":"LineString","coordinates":[[0.7767,44.1901],[0.7766,44.1900]]}},{"type":"Feature","properties":{"name":"La Séoune"},"geometry":{"type":"LineString","coordinates":[[0.7874,44.1910],[0.7829,44.1904],[0.7794,44.1914],[0.7767,44.1901]]}},{"type":"Feature","properties":{"name":"La Séoune"},"geometry":{"type":"LineString","coordinates":[[0.7875,44.1910],[0.7874,44.1910]]}},{"type":"Feature","properties":{"name":"La Séoune"},"geometry":{"type":"LineString","coordinates":[[0.8020,44.1923],[0.7915,44.1931],[0.7905,44.1918],[0.7875,44.1910]]}},{"type":"Feature","properties":{"name":"La Séoune"},"geometry":{"type":"LineString","coordinates":[[0.8021,44.1923],[0.8020,44.1923]]}},{"type":"Feature","properties":{"name":"La Séoune"},"geometry":{"type":"LineString","coordinates":[[0.8396,44.1933],[0.8320,44.1945],[0.8239,44.1929],[0.8178,44.1949],[0.8155,44.1938],[0.8080,44.1941],[0.8051,44.1925],[0.8021,44.1923]]}},{"type":"Feature","properties":{"name":"La Séoune"},"geometry":{"type":"LineString","coordinates":[[0.8397,44.1932],[0.8396,44.1933]]}},{"type":"Feature","properties":{"name":"La Séoune"},"geometry":{"type":"LineString","coordinates":[[0.8508,44.1928],[0.8456,44.1918],[0.8442,44.1936],[0.8397,44.1932]]}},{"type":"Feature","properties":{"name":"La Séoune"},"geometry":{"type":"LineString","coordinates":[[0.8738,44.1936],[0.8508,44.1928]]}},{"type":"Feature","properties":{"name":"La Séoune"},"geometry":{"type":"LineString","coordinates":[[0.8740,44.1936],[0.8738,44.1936]]}},{"type":"Feature","properties":{"name":"La Séoune"},"geometry":{"type":"LineString","coordinates":[[0.8744,44.1936],[0.8740,44.1936]]}},{"type":"Feature","properties":{"name":"La Séoune"},"geometry":{"type":"LineString","coordinates":[[0.8746,44.1936],[0.8744,44.1936]]}},{"type":"Feature","properties":{"name":"La Séoune"},"geometry":{"type":"LineString","coordinates":[[0.8754,44.1933],[0.8746,44.1936]]}},{"type":"Feature","properties":{"name":"La Séoune"},"geometry":{"type":"LineString","coordinates":[[0.8865,44.1907],[0.8754,44.1933]]}},{"type":"Feature","properties":{"name":"La Séoune"},"geometry":{"type":"LineString","coordinates":[[0.8866,44.1907],[0.8865,44.1907]]}},{"type":"Feature","properties":{"name":"La Séoune"},"geometry":{"type":"LineString","coordinates":[[0.8902,44.1909],[0.8866,44.1907]]}},{"type":"Feature","properties":{"name":"La Séoune"},"geometry":{"type":"LineString","coordinates":[[0.8904,44.1909],[0.8902,44.1909]]}},{"type":"Feature","properties":{"name":"La Séoune"},"geometry":{"type":"LineString","coordinates":[[0.7547,44.1843],[0.7499,44.1817],[0.7385,44.1803]]}},{"type":"Feature","properties":{"name":"La Séoune"},"geometry":{"type":"LineString","coordinates":[[0.7240,44.1739],[0.7236,44.1735]]}},{"type":"Feature","properties":{"name":"Le Tescou"},"geometry":{"type":"LineString","coordinates":[[1.6850,43.9168],[1.6645,43.9175],[1.6564,43.9169],[1.6433,43.9201],[1.6352,43.9186],[1.6213,43.9197],[1.5938,43.9166],[1.5690,43.9168],[1.5570,43.9181],[1.5492,43.9170]]}},{"type":"Feature","properties":{"name":"Le Tescou"},"geometry":{"type":"LineString","coordinates":[[1.5425,43.9202],[1.5252,43.9246],[1.5136,43.9300],[1.5006,43.9331],[1.4874,43.9381],[1.4836,43.9383],[1.4776,43.9430],[1.4637,43.9486],[1.4605,43.9521],[1.4558,43.9521],[1.4408,43.9599],[1.4192,43.9755],[1.4093,43.9813]]}},{"type":"Feature","properties":{"name":"Le Tescou"},"geometry":{"type":"LineString","coordinates":[[1.5492,43.9170],[1.5425,43.9202]]}},{"type":"Feature","properties":{"name":"Le Tescou"},"geometry":{"type":"LineString","coordinates":[[1.4093,43.9813],[1.3975,43.9849],[1.3905,43.9890],[1.3794,43.9929],[1.3748,43.9988],[1.3712,43.9993],[1.3602,44.0037],[1.3533,44.0139]]}},{"type":"Feature","properties":{"name":"Le Tescou"},"geometry":{"type":"LineString","coordinates":[[1.3533,44.0139],[1.3497,44.0164]]}},{"type":"Feature","properties":{"name":"Le Tescou"},"geometry":{"type":"LineString","coordinates":[[1.7502,43.9102],[1.7441,43.9105],[1.7344,43.9095],[1.7181,43.9141],[1.7090,43.9133],[1.6984,43.9157]]}},{"type":"Feature","properties":{"name":"Le Tescou"},"geometry":{"type":"LineString","coordinates":[[1.6851,43.9168],[1.6850,43.9168]]}},{"type":"Feature","properties":{"name":"Le Tescou"},"geometry":{"type":"LineString","coordinates":[[1.6983,43.9157],[1.6898,43.9174],[1.6851,43.9168]]}},{"type":"Feature","properties":{"name":"Le Tescou"},"geometry":{"type":"LineString","coordinates":[[1.6984,43.9157],[1.6983,43.9157]]}},{"type":"Feature","properties":{"name":"Le Lemboulas"},"geometry":{"type":"LineString","coordinates":[[1.1653,44.1277],[1.1611,44.1258],[1.1598,44.1231],[1.1569,44.1207],[1.1469,44.1162],[1.1460,44.1149],[1.1462,44.1139],[1.1480,44.1135],[1.1481,44.1119],[1.1505,44.1132],[1.1518,44.1122],[1.1530,44.1096],[1.1514,44.1087],[1.1514,44.1076],[1.1545,44.1051]]}},{"type":"Feature","properties":{"name":"Le Lemboulas"},"geometry":{"type":"LineString","coordinates":[[1.4954,44.2794],[1.4916,44.2806],[1.4895,44.2783],[1.4860,44.2782],[1.4873,44.2757],[1.4828,44.2738],[1.4841,44.2719]]}},{"type":"Feature","properties":{"name":"Le Lemboulas"},"geometry":{"type":"LineString","coordinates":[[1.4841,44.2719],[1.4823,44.2713],[1.4796,44.2749],[1.4774,44.2729],[1.4738,44.2724],[1.4707,44.2738],[1.4675,44.2719]]}},{"type":"Feature","properties":{"name":"Le Lemboulas"},"geometry":{"type":"LineString","coordinates":[[1.3244,44.1704],[1.2967,44.1643],[1.2852,44.1653],[1.2722,44.1617],[1.2584,44.1620],[1.2518,44.1587]]}},{"type":"Feature","properties":{"name":"Le Lemboulas"},"geometry":{"type":"LineString","coordinates":[[1.4675,44.2719],[1.4673,44.2717]]}},{"type":"Feature","properties":{"name":"Le Lemboulas"},"geometry":{"type":"LineString","coordinates":[[1.4673,44.2717],[1.4652,44.2707],[1.4650,44.2691],[1.4617,44.2695],[1.4611,44.2679],[1.4630,44.2668],[1.4628,44.2659],[1.4570,44.2670],[1.4558,44.2681]]}},{"type":"Feature","properties":{"name":"Le Lemboulas"},"geometry":{"type":"LineString","coordinates":[[1.4558,44.2681],[1.4558,44.2681]]}},{"type":"Feature","properties":{"name":"Le Lemboulas"},"geometry":{"type":"LineString","coordinates":[[1.4558,44.2681],[1.4529,44.2673],[1.4537,44.2653],[1.4505,44.2627]]}},{"type":"Feature","properties":{"name":"Le Lemboulas"},"geometry":{"type":"LineString","coordinates":[[1.4398,44.2523],[1.4383,44.2512],[1.4395,44.2486],[1.4385,44.2471],[1.4346,44.2464],[1.4297,44.2426],[1.4256,44.2419]]}},{"type":"Feature","properties":{"name":"Le Lemboulas"},"geometry":{"type":"LineString","coordinates":[[1.4398,44.2524],[1.4398,44.2523]]}},{"type":"Feature","properties":{"name":"Le Lemboulas"},"geometry":{"type":"LineString","coordinates":[[1.4505,44.2627],[1.4542,44.2608],[1.4535,44.2596],[1.4509,44.2593],[1.4502,44.2584],[1.4537,44.2564],[1.4534,44.2540],[1.4460,44.2535],[1.4465,44.2516],[1.4458,44.2512],[1.4420,44.2527],[1.4398,44.2524]]}},{"type":"Feature","properties":{"name":"Le Lemboulas"},"geometry":{"type":"LineString","coordinates":[[1.3343,44.1805],[1.3328,44.1775],[1.3330,44.1744],[1.3319,44.1731],[1.3290,44.1704],[1.3244,44.1704]]}},{"type":"Feature","properties":{"name":"Le Lemboulas"},"geometry":{"type":"LineString","coordinates":[[1.3343,44.1806],[1.3343,44.1805]]}},{"type":"Feature","properties":{"name":"Le Lemboulas"},"geometry":{"type":"LineString","coordinates":[[1.3491,44.1948],[1.3405,44.1885],[1.3343,44.1806]]}},{"type":"Feature","properties":{"name":"Le Lemboulas"},"geometry":{"type":"LineString","coordinates":[[1.3492,44.1949],[1.3491,44.1948]]}},{"type":"Feature","properties":{"name":"Le Lemboulas"},"geometry":{"type":"LineString","coordinates":[[1.3576,44.2032],[1.3552,44.1996],[1.3492,44.1949]]}},{"type":"Feature","properties":{"name":"Le Lemboulas"},"geometry":{"type":"LineString","coordinates":[[1.3577,44.2035],[1.3576,44.2032]]}},{"type":"Feature","properties":{"name":"Le Lemboulas"},"geometry":{"type":"LineString","coordinates":[[1.3629,44.2098],[1.3590,44.2081],[1.3577,44.2035]]}},{"type":"Feature","properties":{"name":"Le Lemboulas"},"geometry":{"type":"LineString","coordinates":[[1.3632,44.2102],[1.3629,44.2098]]}},{"type":"Feature","properties":{"name":"Le Lemboulas"},"geometry":{"type":"LineString","coordinates":[[1.3634,44.2103],[1.3632,44.2102]]}},{"type":"Feature","properties":{"name":"Le Lemboulas"},"geometry":{"type":"LineString","coordinates":[[1.3718,44.2188],[1.3702,44.2156],[1.3634,44.2103]]}},{"type":"Feature","properties":{"name":"Le Lemboulas"},"geometry":{"type":"LineString","coordinates":[[1.3718,44.2193],[1.3718,44.2188]]}},{"type":"Feature","properties":{"name":"Le Lemboulas"},"geometry":{"type":"LineString","coordinates":[[1.3719,44.2195],[1.3718,44.2193]]}},{"type":"Feature","properties":{"name":"Le Lemboulas"},"geometry":{"type":"LineString","coordinates":[[1.3962,44.2329],[1.3939,44.2303],[1.3907,44.2298],[1.3836,44.2254],[1.3815,44.2254],[1.3795,44.2243],[1.3796,44.2233],[1.3761,44.2221],[1.3760,44.2210],[1.3732,44.2207],[1.3719,44.2195]]}},{"type":"Feature","properties":{"name":"Le Lemboulas"},"geometry":{"type":"LineString","coordinates":[[1.3963,44.2330],[1.3962,44.2329]]}},{"type":"Feature","properties":{"name":"Le Lemboulas"},"geometry":{"type":"LineString","coordinates":[[1.3985,44.2328],[1.3963,44.2330]]}},{"type":"Feature","properties":{"name":"Le Lemboulas"},"geometry":{"type":"LineString","coordinates":[[1.3986,44.2328],[1.3985,44.2328]]}},{"type":"Feature","properties":{"name":"Le Lemboulas"},"geometry":{"type":"LineString","coordinates":[[1.4129,44.2389],[1.4051,44.2355],[1.4021,44.2360],[1.4005,44.2337],[1.3986,44.2328]]}},{"type":"Feature","properties":{"name":"Le Lemboulas"},"geometry":{"type":"LineString","coordinates":[[1.2304,44.1513],[1.2212,44.1500],[1.2141,44.1472],[1.2122,44.1456],[1.2114,44.1433],[1.2120,44.1400],[1.2097,44.1388],[1.2059,44.1383],[1.2014,44.1361],[1.1973,44.1369],[1.1960,44.1358],[1.1931,44.1363],[1.1851,44.1353],[1.1806,44.1326]]}},{"type":"Feature","properties":{"name":"Le Lemboulas"},"geometry":{"type":"LineString","coordinates":[[1.2518,44.1587],[1.2441,44.1561],[1.2394,44.1532],[1.2392,44.1521]]}},{"type":"Feature","properties":{"name":"Le Lemboulas"},"geometry":{"type":"LineString","coordinates":[[1.2392,44.1521],[1.2304,44.1513]]}},{"type":"Feature","properties":{"name":"Le Lemboulas"},"geometry":{"type":"LineString","coordinates":[[1.4256,44.2419],[1.4238,44.2428],[1.4219,44.2422]]}},{"type":"Feature","properties":{"name":"Le Lemboulas"},"geometry":{"type":"LineString","coordinates":[[1.4219,44.2422],[1.4218,44.2421]]}},{"type":"Feature","properties":{"name":"Le Lemboulas"},"geometry":{"type":"LineString","coordinates":[[1.4218,44.2421],[1.4200,44.2407],[1.4173,44.2407],[1.4129,44.2390]]}},{"type":"Feature","properties":{"name":"Le Lemboulas"},"geometry":{"type":"LineString","coordinates":[[1.4129,44.2390],[1.4129,44.2389]]}},{"type":"Feature","properties":{"name":"Le Lemboulas"},"geometry":{"type":"LineString","coordinates":[[1.1797,44.1321],[1.1750,44.1313],[1.1653,44.1277]]}},{"type":"Feature","properties":{"name":"Le Lemboulas"},"geometry":{"type":"LineString","coordinates":[[1.1806,44.1326],[1.1797,44.1321]]}},{"type":"Feature","properties":{"name":"La Serène de Sanvensa"},"geometry":{"type":"LineString","coordinates":[[2.0270,44.1996],[2.0200,44.1987]]}},{"type":"Feature","properties":{"name":"La Serène de Sanvensa"},"geometry":{"type":"LineString","coordinates":[[2.0200,44.1987],[2.0175,44.1972],[2.0182,44.1956],[2.0202,44.1946],[2.0173,44.1946],[2.0153,44.1925],[2.0137,44.1923],[2.0137,44.1911],[2.0068,44.1866],[2.0095,44.1855],[2.0070,44.1838],[2.0044,44.1837],[2.0056,44.1825],[2.0049,44.1815],[1.9982,44.1851],[1.9976,44.1862],[1.9997,44.1889],[1.9967,44.1876],[1.9957,44.1885],[1.9930,44.1870],[1.9920,44.1882],[1.9906,44.1869],[1.9878,44.1872]]}},{"type":"Feature","properties":{"name":"La Baye"},"geometry":{"type":"LineString","coordinates":[[1.9055,44.1980],[1.9025,44.1923],[1.9016,44.1874],[1.9038,44.1842],[1.9057,44.1765],[1.9098,44.1684],[1.9096,44.1636]]}},{"type":"Feature","properties":{"name":"La Baye"},"geometry":{"type":"LineString","coordinates":[[1.9057,44.1982],[1.9055,44.1980]]}},{"type":"Feature","properties":{"name":"La Baye"},"geometry":{"type":"LineString","coordinates":[[1.8948,44.2129],[1.9027,44.2104],[1.9049,44.2093],[1.9055,44.2077],[1.9083,44.2067]]}},{"type":"Feature","properties":{"name":"La Baye"},"geometry":{"type":"LineString","coordinates":[[1.9083,44.2067],[1.9094,44.2060],[1.9100,44.2039],[1.9057,44.1982]]}},{"type":"Feature","properties":{"name":"La Petite Barguelonne"},"geometry":{"type":"LineString","coordinates":[[1.1482,44.2796],[1.1466,44.2779],[1.1468,44.2769],[1.1430,44.2737],[1.1403,44.2682],[1.1407,44.2675],[1.1390,44.2665],[1.1377,44.2637],[1.1306,44.2594],[1.1297,44.2576],[1.1255,44.2538],[1.1237,44.2505],[1.1212,44.2485],[1.1202,44.2440],[1.1189,44.2423],[1.1138,44.2404],[1.1079,44.2359],[1.1023,44.2333],[1.0956,44.2315],[1.0918,44.2316],[1.0860,44.2293],[1.0811,44.2251],[1.0736,44.2210],[1.0726,44.2186],[1.0645,44.2153],[1.0627,44.2132],[1.0628,44.2115],[1.0538,44.2002]]}},{"type":"Feature","properties":{"name":"Ruisseau de Larone"},"geometry":{"type":"LineString","coordinates":[[1.1587,44.0842],[1.1563,44.0845]]}},{"type":"Feature","properties":{"name":"Ruisseau de Larone"},"geometry":{"type":"LineString","coordinates":[[1.1628,44.0789],[1.1623,44.0805]]}},{"type":"Feature","properties":{"name":"Ruisseau de Larone"},"geometry":{"type":"LineString","coordinates":[[1.1348,44.0894],[1.1303,44.0908],[1.1280,44.0896],[1.1208,44.0899],[1.1174,44.0905],[1.1167,44.0917]]}},{"type":"Feature","properties":{"name":"Ruisseau de Larone"},"geometry":{"type":"LineString","coordinates":[[1.1349,44.0893],[1.1348,44.0894]]}},{"type":"Feature","properties":{"name":"Ruisseau de Larone"},"geometry":{"type":"LineString","coordinates":[[1.1443,44.0857],[1.1400,44.0861],[1.1349,44.0893]]}},{"type":"Feature","properties":{"name":"Ruisseau de Larone"},"geometry":{"type":"LineString","coordinates":[[1.1444,44.0857],[1.1443,44.0857]]}},{"type":"Feature","properties":{"name":"Ruisseau de Larone"},"geometry":{"type":"LineString","coordinates":[[1.1623,44.0805],[1.1606,44.0823]]}},{"type":"Feature","properties":{"name":"Ruisseau de Larone"},"geometry":{"type":"LineString","coordinates":[[1.1623,44.0805],[1.1623,44.0805]]}},{"type":"Feature","properties":{"name":"Ruisseau de Larone"},"geometry":{"type":"LineString","coordinates":[[1.1606,44.0824],[1.1605,44.0838],[1.1587,44.0842]]}},{"type":"Feature","properties":{"name":"Ruisseau de Larone"},"geometry":{"type":"LineString","coordinates":[[1.1606,44.0823],[1.1606,44.0824]]}},{"type":"Feature","properties":{"name":"Ruisseau de Larone"},"geometry":{"type":"LineString","coordinates":[[1.1562,44.0846],[1.1529,44.0856],[1.1444,44.0857]]}},{"type":"Feature","properties":{"name":"Ruisseau de Larone"},"geometry":{"type":"LineString","coordinates":[[1.1563,44.0845],[1.1562,44.0846]]}},{"type":"Feature","properties":{"name":"Ruisseau de Larone"},"geometry":{"type":"LineString","coordinates":[[1.2125,44.0357],[1.2085,44.0447],[1.2026,44.0455],[1.2017,44.0471],[1.1988,44.0463],[1.1937,44.0475],[1.1901,44.0463],[1.1858,44.0470],[1.1854,44.0510],[1.1833,44.0528],[1.1826,44.0552],[1.1869,44.0564],[1.1889,44.0619],[1.1885,44.0634],[1.1870,44.0647],[1.1814,44.0641],[1.1797,44.0650],[1.1767,44.0637],[1.1729,44.0639],[1.1730,44.0659],[1.1720,44.0668],[1.1732,44.0678],[1.1723,44.0700],[1.1696,44.0706],[1.1706,44.0720],[1.1682,44.0731],[1.1678,44.0754],[1.1650,44.0760],[1.1628,44.0789]]}},{"type":"Feature","properties":{"name":"Ruisseau de Larone"},"geometry":{"type":"LineString","coordinates":[[1.2125,44.0354],[1.2125,44.0357]]}},{"type":"Feature","properties":{"name":"Ruisseau de Larone"},"geometry":{"type":"LineString","coordinates":[[1.2148,44.0350],[1.2125,44.0354]]}},{"type":"Feature","properties":{"name":"Ruisseau de Larone"},"geometry":{"type":"LineString","coordinates":[[1.2148,44.0349],[1.2148,44.0350]]}},{"type":"Feature","properties":{"name":"Ruisseau de Larone"},"geometry":{"type":"LineString","coordinates":[[1.2162,44.0316],[1.2148,44.0349]]}},{"type":"Feature","properties":{"name":"La Vère"},"geometry":{"type":"LineString","coordinates":[[1.9500,43.9888],[1.9450,43.9871],[1.9392,43.9872],[1.9298,43.9848],[1.9271,43.9823],[1.9268,43.9800],[1.9251,43.9796],[1.9199,43.9819],[1.9139,43.9824],[1.9108,43.9855],[1.9047,43.9844],[1.9009,43.9849],[1.8774,43.9916],[1.8599,43.9889],[1.8468,43.9832],[1.8375,43.9832],[1.8284,43.9848],[1.8238,43.9832],[1.8209,43.9835],[1.8189,43.9825],[1.8158,43.9790],[1.8114,43.9771],[1.7964,43.9755],[1.7852,43.9692],[1.7779,43.9666],[1.7755,43.9664],[1.7728,43.9677],[1.7594,43.9666],[1.7506,43.9688],[1.7344,43.9638],[1.7297,43.9655],[1.7271,43.9734],[1.7243,43.9762],[1.7217,43.9779],[1.7159,43.9790],[1.7052,43.9892],[1.7017,43.9903],[1.6982,43.9934],[1.6924,44.0020],[1.6893,44.0026],[1.6842,44.0006],[1.6809,44.0014],[1.6775,44.0119],[1.6777,44.0138],[1.6727,44.0144],[1.6695,44.0161]]}},{"type":"Feature","properties":{"name":"La Vère"},"geometry":{"type":"LineString","coordinates":[[2.0313,44.0068],[2.0177,44.0072]]}},{"type":"Feature","properties":{"name":"La Vère"},"geometry":{"type":"LineString","coordinates":[[2.0177,44.0072],[2.0176,44.0072]]}},{"type":"Feature","properties":{"name":"La Vère"},"geometry":{"type":"LineString","coordinates":[[2.0176,44.0072],[2.0127,44.0095],[2.0085,44.0084]]}},{"type":"Feature","properties":{"name":"La Vère"},"geometry":{"type":"LineString","coordinates":[[2.0085,44.0084],[2.0085,44.0084]]}},{"type":"Feature","properties":{"name":"La Vère"},"geometry":{"type":"LineString","coordinates":[[2.0085,44.0084],[2.0000,44.0096],[1.9968,44.0089],[1.9923,44.0098],[1.9879,44.0092],[1.9840,44.0064],[1.9811,44.0026],[1.9753,43.9999],[1.9752,43.9951],[1.9694,43.9944],[1.9689,43.9925],[1.9701,43.9890],[1.9679,43.9881],[1.9612,43.9911],[1.9502,43.9889]]}},{"type":"Feature","properties":{"name":"La Vère"},"geometry":{"type":"LineString","coordinates":[[1.9502,43.9889],[1.9500,43.9888]]}},{"type":"Feature","properties":{"name":"La Vère"},"geometry":{"type":"LineString","coordinates":[[1.6694,44.0162],[1.6686,44.0169],[1.6694,44.0179],[1.6733,44.0157],[1.6759,44.0164],[1.6764,44.0179],[1.6716,44.0204],[1.6734,44.0236],[1.6706,44.0273],[1.6714,44.0288],[1.6691,44.0324],[1.6687,44.0364],[1.6690,44.0385],[1.6723,44.0409],[1.6684,44.0437],[1.6699,44.0452]]}},{"type":"Feature","properties":{"name":"La Vère"},"geometry":{"type":"LineString","coordinates":[[1.6695,44.0161],[1.6694,44.0162]]}},{"type":"Feature","properties":{"name":"La Vère"},"geometry":{"type":"LineString","coordinates":[[1.6700,44.0453],[1.6741,44.0486],[1.6712,44.0515],[1.6692,44.0567]]}},{"type":"Feature","properties":{"name":"La Vère"},"geometry":{"type":"LineString","coordinates":[[1.6699,44.0452],[1.6700,44.0453]]}},{"type":"Feature","properties":{"name":"La Garonne"},"geometry":{"type":"LineString","coordinates":[[0.8345,44.1162],[0.8340,44.1174]]}},{"type":"Feature","properties":{"name":"La Garonne"},"geometry":{"type":"LineString","coordinates":[[1.3385,43.7270],[1.3288,43.7301],[1.3211,43.7405],[1.3161,43.7420],[1.3119,43.7446],[1.3113,43.7460],[1.3111,43.7478],[1.3139,43.7535],[1.3261,43.7686],[1.3271,43.7715],[1.3263,43.7742],[1.3165,43.7744],[1.3036,43.7790],[1.2916,43.7810],[1.2881,43.7840],[1.2878,43.7861],[1.2889,43.7884],[1.2875,43.7918],[1.2853,43.7930],[1.2770,43.7938],[1.2732,43.7959],[1.2721,43.7979],[1.2733,43.8002],[1.2795,43.8040],[1.2802,43.8055],[1.2792,43.8081],[1.2739,43.8091],[1.2662,43.8066],[1.2601,43.8082],[1.2559,43.8132],[1.2549,43.8162],[1.2559,43.8200],[1.2597,43.8231],[1.2597,43.8252],[1.2542,43.8290],[1.2451,43.8324],[1.2519,43.8392],[1.2531,43.8423],[1.2515,43.8451],[1.2423,43.8506],[1.2429,43.8581],[1.2422,43.8597],[1.2330,43.8675],[1.2224,43.8689],[1.2187,43.8734],[1.2181,43.8757],[1.2187,43.8820],[1.2178,43.8841],[1.2153,43.8854],[1.2045,43.8877],[1.2040,43.8908],[1.2048,43.8939],[1.2115,43.8995],[1.2045,43.9085],[1.1990,43.9116],[1.1961,43.9110],[1.1930,43.9084],[1.1893,43.9083],[1.1884,43.9091],[1.1876,43.9158],[1.1898,43.9242],[1.1876,43.9286],[1.1914,43.9336],[1.1972,43.9379],[1.1971,43.9409],[1.1890,43.9425],[1.1841,43.9467],[1.1825,43.9471],[1.1748,43.9458],[1.1717,43.9465],[1.1711,43.9519],[1.1723,43.9563],[1.1698,43.9602],[1.1627,43.9674],[1.1612,43.9735],[1.1620,43.9789],[1.1591,43.9844],[1.1547,43.9873],[1.1430,43.9905],[1.1333,43.9947],[1.1190,43.9973],[1.1151,43.9999],[1.1140,44.0075],[1.1124,44.0108],[1.1034,44.0156],[1.1028,44.0198],[1.1018,44.0206],[1.0987,44.0204],[1.0922,44.0171],[1.0885,44.0170],[1.0856,44.0178],[1.0822,44.0215],[1.0778,44.0236],[1.0768,44.0247],[1.0768,44.0268],[1.0855,44.0323],[1.0859,44.0347],[1.0789,44.0383],[1.0685,44.0406],[1.0651,44.0423],[1.0637,44.0453],[1.0643,44.0481],[1.0626,44.0527],[1.0613,44.0611],[1.0561,44.0629],[1.0537,44.0657],[1.0540,44.0673],[1.0584,44.0713],[1.0588,44.0744],[1.0537,44.0770],[1.0471,44.0770],[1.0417,44.0788],[1.0368,44.0847],[1.0359,44.0887],[1.0340,44.0902],[1.0230,44.0930],[1.0154,44.0905],[0.9926,44.0873],[0.9869,44.0845]]}},{"type":"Feature","properties":{"name":"La Garonne"},"geometry":{"type":"LineString","coordinates":[[0.7468,44.1457],[0.7327,44.1528]]}},{"type":"Feature","properties":{"name":"La Garonne"},"geometry":{"type":"LineString","coordinates":[[0.7327,44.1528],[0.7152,44.1563]]}},{"type":"Feature","properties":{"name":"La Garonne"},"geometry":{"type":"LineString","coordinates":[[0.8334,44.1180],[0.8294,44.1212],[0.8250,44.1225],[0.8082,44.1240],[0.8032,44.1264],[0.7954,44.1326],[0.7901,44.1412],[0.7863,44.1430],[0.7771,44.1425],[0.7681,44.1399],[0.7631,44.1394]]}},{"type":"Feature","properties":{"name":"La Garonne"},"geometry":{"type":"LineString","coordinates":[[0.8340,44.1174],[0.8334,44.1180]]}},{"type":"Feature","properties":{"name":"La Garonne"},"geometry":{"type":"LineString","coordinates":[[0.9869,44.0845],[0.9755,44.0786],[0.9651,44.0750],[0.9581,44.0739],[0.9449,44.0742],[0.9386,44.0707],[0.9297,44.0690],[0.9195,44.0689],[0.9092,44.0669],[0.9061,44.0682],[0.8975,44.0752],[0.8913,44.0816],[0.8782,44.0894],[0.8685,44.0929],[0.8466,44.0966],[0.8416,44.1002],[0.8367,44.1088],[0.8345,44.1162]]}},{"type":"Feature","properties":{"name":"La Garonne"},"geometry":{"type":"LineString","coordinates":[[0.7493,44.1442],[0.7468,44.1457]]}},{"type":"Feature","properties":{"name":"La Garonne"},"geometry":{"type":"LineString","coordinates":[[0.7631,44.1394],[0.7493,44.1442]]}},{"type":"Feature","properties":{"name":"La Garonne"},"geometry":{"type":"LineString","coordinates":[[0.7152,44.1563],[0.7128,44.1576],[0.7049,44.1571]]}},{"type":"Feature","properties":{"name":"Le Tarn"},"geometry":{"type":"LineString","coordinates":[[1.3361,44.0190],[1.3329,44.0196],[1.3283,44.0227],[1.3194,44.0245],[1.3145,44.0305],[1.3052,44.0329],[1.3010,44.0362],[1.2954,44.0476],[1.2788,44.0689],[1.2734,44.0819],[1.2552,44.0941],[1.2498,44.0992],[1.2489,44.1019],[1.2511,44.1085],[1.2494,44.1120],[1.2467,44.1140],[1.2227,44.1176],[1.2182,44.1171],[1.2075,44.1098],[1.1985,44.1015],[1.1904,44.0974],[1.1876,44.0934]]}},{"type":"Feature","properties":{"name":"Le Tarn"},"geometry":{"type":"LineString","coordinates":[[1.8844,43.8690],[1.8816,43.8666],[1.8767,43.8669],[1.8667,43.8702],[1.8606,43.8754],[1.8581,43.8757]]}},{"type":"Feature","properties":{"name":"Le Tarn"},"geometry":{"type":"LineString","coordinates":[[1.9948,43.9087],[1.9898,43.9094],[1.9863,43.9068],[1.9851,43.9031],[1.9861,43.8978],[1.9845,43.8966],[1.9808,43.8971],[1.9693,43.9028]]}},{"type":"Feature","properties":{"name":"Le Tarn"},"geometry":{"type":"LineString","coordinates":[[1.9693,43.9028],[1.9622,43.9063],[1.9561,43.9147],[1.9540,43.9162],[1.9483,43.9155],[1.9355,43.9103]]}},{"type":"Feature","properties":{"name":"Le Tarn"},"geometry":{"type":"LineString","coordinates":[[2.0075,43.9062],[2.0035,43.9054],[1.9948,43.9087]]}},{"type":"Feature","properties":{"name":"Le Tarn"},"geometry":{"type":"LineString","coordinates":[[2.0289,43.9203],[2.0205,43.9181],[2.0089,43.9083],[2.0075,43.9062]]}},{"type":"Feature","properties":{"name":"Le Tarn"},"geometry":{"type":"LineString","coordinates":[[1.9348,43.9101],[1.9267,43.9078],[1.9254,43.9067],[1.9239,43.9024],[1.9203,43.8987],[1.9082,43.8902],[1.9033,43.8898],[1.8985,43.8914],[1.8947,43.8973]]}},{"type":"Feature","properties":{"name":"Le Tarn"},"geometry":{"type":"LineString","coordinates":[[1.9355,43.9103],[1.9348,43.9101]]}},{"type":"Feature","properties":{"name":"Le Tarn"},"geometry":{"type":"LineString","coordinates":[[1.7942,43.8367],[1.7935,43.8366]]}},{"type":"Feature","properties":{"name":"Le Tarn"},"geometry":{"type":"LineString","coordinates":[[1.6512,43.7756],[1.6468,43.7763],[1.6327,43.7821],[1.6255,43.7881],[1.6235,43.7919],[1.6230,43.7952],[1.6197,43.7982],[1.6001,43.8047],[1.5838,43.8055],[1.5718,43.8119],[1.5625,43.8136]]}},{"type":"Feature","properties":{"name":"Le Tarn"},"geometry":{"type":"LineString","coordinates":[[1.6826,43.7854],[1.6699,43.7842]]}},{"type":"Feature","properties":{"name":"Le Tarn"},"geometry":{"type":"LineString","coordinates":[[1.1631,44.1158],[1.1558,44.1129]]}},{"type":"Feature","properties":{"name":"Le Tarn"},"geometry":{"type":"LineString","coordinates":[[1.1876,44.0934],[1.1851,44.0927],[1.1802,44.0942],[1.1740,44.0986],[1.1698,44.1042],[1.1696,44.1070],[1.1745,44.1151],[1.1742,44.1159],[1.1699,44.1174],[1.1631,44.1158]]}},{"type":"Feature","properties":{"name":"Le Tarn"},"geometry":{"type":"LineString","coordinates":[[1.1558,44.1129],[1.1547,44.1104],[1.1540,44.1021],[1.1514,44.1000],[1.1427,44.0965],[1.1161,44.0916]]}},{"type":"Feature","properties":{"name":"Le Tarn"},"geometry":{"type":"LineString","coordinates":[[1.5243,43.8291],[1.5224,43.8309],[1.5222,43.8333],[1.5263,43.8381],[1.5266,43.8398],[1.5186,43.8458]]}},{"type":"Feature","properties":{"name":"Le Tarn"},"geometry":{"type":"LineString","coordinates":[[1.7935,43.8366],[1.7830,43.8321],[1.7756,43.8312],[1.7710,43.8324],[1.7675,43.8379],[1.7631,43.8385],[1.7557,43.8336],[1.7529,43.8270],[1.7493,43.8253]]}},{"type":"Feature","properties":{"name":"Le Tarn"},"geometry":{"type":"LineString","coordinates":[[1.8581,43.8757],[1.8544,43.8750],[1.8460,43.8701],[1.8320,43.8682],[1.8167,43.8595],[1.8131,43.8542],[1.8131,43.8494],[1.8151,43.8469],[1.8203,43.8442],[1.8205,43.8431],[1.8193,43.8419],[1.8138,43.8406],[1.8072,43.8375]]}},{"type":"Feature","properties":{"name":"Le Tarn"},"geometry":{"type":"LineString","coordinates":[[1.8072,43.8375],[1.7942,43.8367]]}},{"type":"Feature","properties":{"name":"Le Tarn"},"geometry":{"type":"LineString","coordinates":[[1.5518,43.8162],[1.5397,43.8224]]}},{"type":"Feature","properties":{"name":"Le Tarn"},"geometry":{"type":"LineString","coordinates":[[1.5397,43.8224],[1.5243,43.8291]]}},{"type":"Feature","properties":{"name":"Le Tarn"},"geometry":{"type":"LineString","coordinates":[[1.5625,43.8136],[1.5518,43.8162]]}},{"type":"Feature","properties":{"name":"Le Tarn"},"geometry":{"type":"LineString","coordinates":[[1.5186,43.8458],[1.5159,43.8479],[1.5136,43.8540],[1.5099,43.8578]]}},{"type":"Feature","properties":{"name":"Le Tarn"},"geometry":{"type":"LineString","coordinates":[[1.5099,43.8578],[1.4983,43.8701],[1.4971,43.8789],[1.4931,43.8811],[1.4849,43.8880],[1.4679,43.8985],[1.4482,43.9059],[1.4269,43.9109],[1.4081,43.9119],[1.3774,43.9188],[1.3692,43.9223],[1.3670,43.9241],[1.3647,43.9333]]}},{"type":"Feature","properties":{"name":"Le Tarn"},"geometry":{"type":"LineString","coordinates":[[1.7493,43.8253],[1.7438,43.8246],[1.7368,43.8277],[1.7333,43.8265],[1.7231,43.8167],[1.7170,43.8123],[1.7033,43.8067],[1.6949,43.7979],[1.6901,43.7898],[1.6826,43.7854]]}},{"type":"Feature","properties":{"name":"Le Tarn"},"geometry":{"type":"LineString","coordinates":[[1.3404,43.9736],[1.3406,43.9786],[1.3380,43.9864],[1.3403,43.9897],[1.3411,44.0001],[1.3490,44.0141]]}},{"type":"Feature","properties":{"name":"Le Tarn"},"geometry":{"type":"LineString","coordinates":[[1.3647,43.9333],[1.3646,43.9375],[1.3632,43.9406],[1.3545,43.9539]]}},{"type":"Feature","properties":{"name":"Le Tarn"},"geometry":{"type":"LineString","coordinates":[[1.0884,44.0986],[1.0706,44.0990],[1.0532,44.0895]]}},{"type":"Feature","properties":{"name":"Le Tarn"},"geometry":{"type":"LineString","coordinates":[[1.6699,43.7842],[1.6625,43.7834],[1.6512,43.7756]]}},{"type":"Feature","properties":{"name":"Le Tarn"},"geometry":{"type":"LineString","coordinates":[[1.3497,44.0164],[1.3495,44.0198],[1.3460,44.0213]]}},{"type":"Feature","properties":{"name":"Le Tarn"},"geometry":{"type":"LineString","coordinates":[[1.3495,44.0170],[1.3481,44.0198],[1.3450,44.0215],[1.3364,44.0191]]}},{"type":"Feature","properties":{"name":"Le Tarn"},"geometry":{"type":"LineString","coordinates":[[1.3364,44.0191],[1.3361,44.0190]]}},{"type":"Feature","properties":{"name":"Le Tarn"},"geometry":{"type":"LineString","coordinates":[[1.3490,44.0141],[1.3497,44.0164]]}},{"type":"Feature","properties":{"name":"Le Tarn"},"geometry":{"type":"LineString","coordinates":[[1.3545,43.9539],[1.3413,43.9688],[1.3404,43.9736]]}},{"type":"Feature","properties":{"name":"Le Tarn"},"geometry":{"type":"LineString","coordinates":[[1.0532,44.0895],[1.0479,44.0876]]}},{"type":"Feature","properties":{"name":"Le Tarn"},"geometry":{"type":"LineString","coordinates":[[1.1161,44.0916],[1.1068,44.0907],[1.0972,44.0923],[1.0938,44.0946],[1.0917,44.0975],[1.0884,44.0986]]}},{"type":"Feature","properties":{"name":"Le Tarn"},"geometry":{"type":"LineString","coordinates":[[1.0479,44.0876],[1.0434,44.0866]]}},{"type":"Feature","properties":{"name":"Le Tarn"},"geometry":{"type":"LineString","coordinates":[[1.0434,44.0866],[1.0365,44.0861]]}},{"type":"Feature","properties":{"name":"Le Tarn"},"geometry":{"type":"LineString","coordinates":[[1.8946,43.8974],[1.8925,43.8982],[1.8905,43.8975],[1.8832,43.8891],[1.8867,43.8804],[1.8844,43.8690]]}},{"type":"Feature","properties":{"name":"Le Tarn"},"geometry":{"type":"LineString","coordinates":[[1.8947,43.8973],[1.8946,43.8974]]}},{"type":"Feature","properties":{"name":"Le Tarn"},"geometry":{"type":"LineString","coordinates":[[1.3449,44.0081],[1.3475,44.0109]]}},{"type":"Feature","properties":{"name":"Le Tarn"},"geometry":{"type":"LineString","coordinates":[[1.3497,44.0164],[1.3495,44.0170]]}},{"type":"Feature","properties":{"name":"Le Tarn"},"geometry":{"type":"LineString","coordinates":[[1.3446,44.0078],[1.3449,44.0081]]}},{"type":"Feature","properties":{"name":"Le Tarn"},"geometry":{"type":"LineString","coordinates":[[1.3446,44.0066],[1.3446,44.0078]]}},{"type":"Feature","properties":{"name":"La Sère"},"geometry":{"type":"LineString","coordinates":[[1.0494,44.0537],[1.0498,44.0564],[1.0563,44.0587],[1.0575,44.0601],[1.0561,44.0629]]}},{"type":"Feature","properties":{"name":"La Sère"},"geometry":{"type":"LineString","coordinates":[[1.0494,44.0536],[1.0494,44.0537]]}},{"type":"Feature","properties":{"name":"La Sère"},"geometry":{"type":"LineString","coordinates":[[1.0547,44.0349],[1.0546,44.0373],[1.0516,44.0399],[1.0552,44.0401],[1.0553,44.0414],[1.0499,44.0443]]}},{"type":"Feature","properties":{"name":"La Sère"},"geometry":{"type":"LineString","coordinates":[[1.0547,44.0348],[1.0547,44.0349]]}},{"type":"Feature","properties":{"name":"La Sère"},"geometry":{"type":"LineString","coordinates":[[1.0481,44.0336],[1.0531,44.0332],[1.0547,44.0348]]}},{"type":"Feature","properties":{"name":"La Sère"},"geometry":{"type":"LineString","coordinates":[[1.0479,44.0335],[1.0481,44.0336]]}},{"type":"Feature","properties":{"name":"La Sère"},"geometry":{"type":"LineString","coordinates":[[1.0393,44.0306],[1.0411,44.0317],[1.0438,44.0317],[1.0444,44.0333],[1.0479,44.0335]]}},{"type":"Feature","properties":{"name":"La Sère"},"geometry":{"type":"LineString","coordinates":[[1.0392,44.0304],[1.0393,44.0306]]}},{"type":"Feature","properties":{"name":"La Sère"},"geometry":{"type":"LineString","coordinates":[[1.0183,44.0027],[1.0204,44.0092],[1.0183,44.0109],[1.0197,44.0114],[1.0192,44.0122],[1.0170,44.0124],[1.0158,44.0144],[1.0185,44.0166],[1.0187,44.0184],[1.0213,44.0208],[1.0253,44.0217],[1.0273,44.0235],[1.0275,44.0249],[1.0305,44.0260],[1.0302,44.0274],[1.0340,44.0284],[1.0334,44.0297],[1.0360,44.0288],[1.0392,44.0304]]}},{"type":"Feature","properties":{"name":"La Sère"},"geometry":{"type":"LineString","coordinates":[[1.0489,44.0480],[1.0489,44.0480]]}},{"type":"Feature","properties":{"name":"La Sère"},"geometry":{"type":"LineString","coordinates":[[1.0499,44.0443],[1.0486,44.0464],[1.0489,44.0480]]}},{"type":"Feature","properties":{"name":"La Sère"},"geometry":{"type":"LineString","coordinates":[[1.0489,44.0480],[1.0525,44.0507],[1.0494,44.0536]]}},{"type":"Feature","properties":{"name":"Le Grand Mortarieu"},"geometry":{"type":"LineString","coordinates":[[1.3638,44.0302],[1.3637,44.0303]]}},{"type":"Feature","properties":{"name":"Le Grand Mortarieu"},"geometry":{"type":"LineString","coordinates":[[1.3693,44.0288],[1.3667,44.0301],[1.3665,44.0310],[1.3638,44.0302]]}},{"type":"Feature","properties":{"name":"Le Grand Mortarieu"},"geometry":{"type":"LineString","coordinates":[[1.3554,44.0348],[1.3505,44.0408],[1.3474,44.0416],[1.3434,44.0411],[1.3426,44.0439],[1.3405,44.0458],[1.3319,44.0475],[1.3302,44.0493],[1.3178,44.0548],[1.3130,44.0581],[1.3100,44.0619],[1.3099,44.0635],[1.3074,44.0646],[1.3067,44.0663],[1.3006,44.0670],[1.2984,44.0646],[1.2961,44.0649],[1.2872,44.0736],[1.2840,44.0747],[1.2811,44.0805],[1.2761,44.0837],[1.2752,44.0865],[1.2767,44.0882],[1.2762,44.0911],[1.2708,44.0930],[1.2694,44.0913]]}},{"type":"Feature","properties":{"name":"Le Grand Mortarieu"},"geometry":{"type":"LineString","coordinates":[[1.3556,44.0345],[1.3554,44.0348]]}},{"type":"Feature","properties":{"name":"Le Grand Mortarieu"},"geometry":{"type":"LineString","coordinates":[[1.3637,44.0303],[1.3622,44.0314],[1.3579,44.0315],[1.3578,44.0328],[1.3560,44.0334],[1.3556,44.0345]]}},{"type":"Feature","properties":{"name":"La Save"},"geometry":{"type":"LineString","coordinates":[[1.2372,43.7055],[1.2408,43.7102],[1.2385,43.7124],[1.2386,43.7140],[1.2443,43.7153],[1.2411,43.7155],[1.2371,43.7174],[1.2372,43.7181],[1.2407,43.7182],[1.2412,43.7204],[1.2370,43.7230],[1.2395,43.7259],[1.2382,43.7278],[1.2404,43.7263],[1.2418,43.7277],[1.2443,43.7275],[1.2477,43.7319],[1.2458,43.7323],[1.2461,43.7334],[1.2478,43.7346],[1.2508,43.7341],[1.2510,43.7357],[1.2533,43.7386],[1.2574,43.7397],[1.2560,43.7412],[1.2546,43.7412],[1.2546,43.7427],[1.2574,43.7439],[1.2580,43.7452],[1.2588,43.7449],[1.2592,43.7460],[1.2584,43.7467],[1.2595,43.7484],[1.2648,43.7482],[1.2646,43.7495],[1.2632,43.7499],[1.2665,43.7516],[1.2656,43.7555],[1.2672,43.7557],[1.2658,43.7599],[1.2715,43.7611],[1.2762,43.7601],[1.2753,43.7612],[1.2768,43.7632],[1.2799,43.7631],[1.2806,43.7652],[1.2844,43.7665],[1.2841,43.7696],[1.2890,43.7696],[1.2859,43.7730],[1.2810,43.7746],[1.2814,43.7761],[1.2799,43.7776],[1.2795,43.7825],[1.2765,43.7834],[1.2749,43.7852],[1.2786,43.7875],[1.2825,43.7862],[1.2839,43.7867],[1.2780,43.7934]]}},{"type":"Feature","properties":{"name":"Le Dadou"},"geometry":{"type":"LineString","coordinates":[[1.9123,43.7613],[1.9101,43.7592],[1.9063,43.7586],[1.9079,43.7563],[1.9056,43.7523],[1.9003,43.7492]]}},{"type":"Feature","properties":{"name":"Le Dadou"},"geometry":{"type":"LineString","coordinates":[[1.8530,43.7495],[1.8452,43.7504]]}},{"type":"Feature","properties":{"name":"Le Dadou"},"geometry":{"type":"LineString","coordinates":[[1.8452,43.7504],[1.8408,43.7489],[1.8395,43.7473],[1.8396,43.7452],[1.8371,43.7439],[1.8337,43.7443],[1.8300,43.7471],[1.8257,43.7455],[1.8235,43.7479],[1.8161,43.7445],[1.8119,43.7436],[1.8093,43.7376],[1.8039,43.7378],[1.7979,43.7361],[1.7895,43.7364]]}},{"type":"Feature","properties":{"name":"Le Dadou"},"geometry":{"type":"LineString","coordinates":[[1.8936,43.7507],[1.8909,43.7492],[1.8857,43.7489]]}},{"type":"Feature","properties":{"name":"Le Dadou"},"geometry":{"type":"LineString","coordinates":[[2.0497,43.7646],[2.0468,43.7637],[2.0430,43.7640],[2.0385,43.7625],[2.0342,43.7633],[2.0231,43.7623],[2.0168,43.7645],[2.0150,43.7644],[2.0129,43.7625],[2.0089,43.7642],[2.0060,43.7628],[1.9948,43.7612],[1.9895,43.7638],[1.9946,43.7690],[1.9975,43.7694],[1.9985,43.7709],[1.9966,43.7735],[1.9901,43.7758],[1.9836,43.7727],[1.9798,43.7724],[1.9782,43.7708],[1.9759,43.7708],[1.9746,43.7725],[1.9672,43.7686],[1.9649,43.7693],[1.9644,43.7711],[1.9603,43.7735],[1.9587,43.7720],[1.9582,43.7696],[1.9542,43.7697],[1.9526,43.7685],[1.9500,43.7699],[1.9457,43.7680],[1.9372,43.7688],[1.9360,43.7683],[1.9359,43.7668],[1.9374,43.7656],[1.9410,43.7651],[1.9413,43.7609],[1.9398,43.7593]]}},{"type":"Feature","properties":{"name":"Le Dadou"},"geometry":{"type":"LineString","coordinates":[[1.9398,43.7593],[1.9363,43.7603],[1.9361,43.7629],[1.9339,43.7636]]}},{"type":"Feature","properties":{"name":"Le Dadou"},"geometry":{"type":"LineString","coordinates":[[1.9339,43.7636],[1.9317,43.7627],[1.9338,43.7610],[1.9311,43.7594],[1.9235,43.7592],[1.9219,43.7601],[1.9208,43.7624],[1.9155,43.7641],[1.9123,43.7613]]}},{"type":"Feature","properties":{"name":"Le Dadou"},"geometry":{"type":"LineString","coordinates":[[1.9003,43.7492],[1.8989,43.7501],[1.8985,43.7522],[1.8936,43.7507]]}},{"type":"Feature","properties":{"name":"Le Dadou"},"geometry":{"type":"LineString","coordinates":[[1.8857,43.7489],[1.8810,43.7495],[1.8732,43.7478],[1.8712,43.7484],[1.8697,43.7508],[1.8628,43.7528],[1.8530,43.7495]]}},{"type":"Feature","properties":{"name":"Le Cérou"},"geometry":{"type":"LineString","coordinates":[[1.9223,44.0719],[1.9178,44.0693],[1.9133,44.0705],[1.9075,44.0698],[1.9050,44.0705],[1.9041,44.0715],[1.9019,44.0719],[1.9030,44.0773],[1.8989,44.0789]]}},{"type":"Feature","properties":{"name":"Le Cérou"},"geometry":{"type":"LineString","coordinates":[[2.0215,44.0762],[2.0185,44.0758],[2.0172,44.0779],[2.0182,44.0797],[2.0146,44.0810],[2.0101,44.0783],[2.0108,44.0754],[2.0097,44.0736],[2.0061,44.0721],[2.0030,44.0730],[2.0014,44.0777],[1.9958,44.0787],[1.9942,44.0780],[1.9923,44.0793],[1.9897,44.0795]]}},{"type":"Feature","properties":{"name":"Le Cérou"},"geometry":{"type":"LineString","coordinates":[[1.8989,44.0789],[1.8949,44.0797],[1.8948,44.0818],[1.8940,44.0819],[1.8932,44.0844],[1.8944,44.0887],[1.8918,44.0901],[1.8934,44.0922],[1.8917,44.0948],[1.8897,44.0952],[1.8901,44.0959],[1.8890,44.0965],[1.8900,44.0987],[1.8887,44.1014],[1.8913,44.1041],[1.8990,44.1030],[1.9014,44.1042],[1.9011,44.1065],[1.9031,44.1078],[1.9034,44.1097],[1.9020,44.1111],[1.9034,44.1153],[1.9066,44.1160],[1.9072,44.1176],[1.9021,44.1203],[1.8985,44.1192],[1.8937,44.1156],[1.8894,44.1173],[1.8863,44.1214],[1.8851,44.1257],[1.8855,44.1271],[1.8783,44.1298],[1.8746,44.1300],[1.8732,44.1352],[1.8758,44.1396]]}},{"type":"Feature","properties":{"name":"Le Tescounet"},"geometry":{"type":"LineString","coordinates":[[1.5142,43.9539],[1.5120,43.9526],[1.4967,43.9489],[1.4896,43.9458],[1.4864,43.9460],[1.4788,43.9435],[1.4731,43.9448]]}},{"type":"Feature","properties":{"name":"Le Sarrampion"},"geometry":{"type":"LineString","coordinates":[[0.9600,43.7179],[0.9587,43.7196],[0.9605,43.7230],[0.9567,43.7251],[0.9574,43.7289],[0.9536,43.7348],[0.9510,43.7427],[0.9521,43.7466],[0.9503,43.7520],[0.9507,43.7555],[0.9362,43.7617],[0.9354,43.7640],[0.9365,43.7643],[0.9364,43.7652],[0.9339,43.7700],[0.9342,43.7716],[0.9325,43.7743],[0.9296,43.7757],[0.9289,43.7775],[0.9296,43.7786],[0.9255,43.7825],[0.9264,43.7855],[0.9254,43.7862],[0.9259,43.7877],[0.9269,43.7878],[0.9262,43.7895],[0.9241,43.7896],[0.9226,43.7911],[0.9191,43.7916],[0.9169,43.7932],[0.9181,43.7958],[0.9164,43.7966],[0.9168,43.7977],[0.9150,43.7983],[0.9171,43.8029],[0.9126,43.8068],[0.9100,43.8071],[0.9104,43.8104],[0.9093,43.8125]]}},{"type":"Feature","properties":{"name":"L\u0027Arrats"},"geometry":{"type":"LineString","coordinates":[[0.8738,43.7529],[0.8736,43.7549],[0.8753,43.7560],[0.8747,43.7570],[0.8763,43.7586],[0.8739,43.7613],[0.8730,43.7617],[0.8720,43.7609],[0.8701,43.7638],[0.8678,43.7634]]}},{"type":"Feature","properties":{"name":"L\u0027Arrats"},"geometry":{"type":"LineString","coordinates":[[0.7913,43.8743],[0.7891,43.8757],[0.7902,43.8762],[0.7892,43.8766],[0.7894,43.8775],[0.7879,43.8783],[0.7875,43.8773],[0.7852,43.8779]]}},{"type":"Feature","properties":{"name":"L\u0027Arrats"},"geometry":{"type":"LineString","coordinates":[[0.7852,43.8779],[0.7839,43.8792],[0.7835,43.8813],[0.7850,43.8824],[0.7844,43.8830],[0.7860,43.8855],[0.7817,43.8867],[0.7823,43.8883]]}},{"type":"Feature","properties":{"name":"L\u0027Arrats"},"geometry":{"type":"LineString","coordinates":[[0.7754,43.9028],[0.7771,43.9035],[0.7757,43.9049],[0.7763,43.9057],[0.7747,43.9058],[0.7770,43.9065],[0.7752,43.9074],[0.7766,43.9094],[0.7754,43.9093],[0.7734,43.9115],[0.7737,43.9136],[0.7711,43.9131],[0.7709,43.9121],[0.7688,43.9147],[0.7679,43.9189],[0.7708,43.9194],[0.7694,43.9209]]}},{"type":"Feature","properties":{"name":"L\u0027Arrats"},"geometry":{"type":"LineString","coordinates":[[0.7694,43.9209],[0.7693,43.9217],[0.7708,43.9216],[0.7700,43.9222]]}},{"type":"Feature","properties":{"name":"L\u0027Arrats"},"geometry":{"type":"LineString","coordinates":[[0.7673,43.9255],[0.7664,43.9255],[0.7655,43.9282],[0.7637,43.9280],[0.7656,43.9289],[0.7629,43.9301],[0.7618,43.9355],[0.7601,43.9364],[0.7610,43.9373],[0.7607,43.9388]]}},{"type":"Feature","properties":{"name":"L\u0027Arrats"},"geometry":{"type":"LineString","coordinates":[[0.7607,43.9388],[0.7603,43.9403],[0.7613,43.9410],[0.7599,43.9415],[0.7608,43.9423],[0.7595,43.9431],[0.7597,43.9444],[0.7584,43.9448],[0.7609,43.9447],[0.7611,43.9455],[0.7599,43.9461],[0.7608,43.9461],[0.7607,43.9469],[0.7641,43.9470],[0.7640,43.9481],[0.7652,43.9490],[0.7670,43.9484],[0.7685,43.9513],[0.7700,43.9509],[0.7717,43.9518],[0.7726,43.9534],[0.7751,43.9531],[0.7748,43.9519],[0.7797,43.9537],[0.7795,43.9548],[0.7813,43.9538],[0.7818,43.9551],[0.7837,43.9547],[0.7843,43.9558],[0.7853,43.9556],[0.7843,43.9567],[0.7861,43.9572],[0.7851,43.9582]]}},{"type":"Feature","properties":{"name":"L\u0027Arrats"},"geometry":{"type":"LineString","coordinates":[[0.8080,43.9809],[0.8091,43.9822]]}},{"type":"Feature","properties":{"name":"L\u0027Arrats"},"geometry":{"type":"LineString","coordinates":[[0.8252,44.0047],[0.8240,44.0048],[0.8246,44.0066],[0.8236,44.0068],[0.8258,44.0071]]}},{"type":"Feature","properties":{"name":"L\u0027Arrats"},"geometry":{"type":"LineString","coordinates":[[0.8509,44.0479],[0.8500,44.0484],[0.8513,44.0495],[0.8506,44.0517],[0.8515,44.0538],[0.8529,44.0544],[0.8527,44.0560],[0.8571,44.0562],[0.8576,44.0589],[0.8597,44.0608]]}},{"type":"Feature","properties":{"name":"L\u0027Arrats"},"geometry":{"type":"LineString","coordinates":[[0.8423,44.0248],[0.8445,44.0279],[0.8425,44.0309],[0.8433,44.0314],[0.8446,44.0305],[0.8474,44.0337],[0.8489,44.0334],[0.8514,44.0366]]}},{"type":"Feature","properties":{"name":"L\u0027Arrats"},"geometry":{"type":"LineString","coordinates":[[0.7851,43.9582],[0.7870,43.9585],[0.7900,43.9609],[0.7901,43.9623],[0.7931,43.9653],[0.7921,43.9662]]}},{"type":"Feature","properties":{"name":"L\u0027Arrats"},"geometry":{"type":"LineString","coordinates":[[0.8156,43.9884],[0.8156,43.9892],[0.8182,43.9901],[0.8168,43.9909],[0.8178,43.9919],[0.8190,43.9917],[0.8210,43.9932],[0.8240,43.9930],[0.8225,43.9945],[0.8259,43.9950],[0.8275,43.9966],[0.8267,43.9993],[0.8277,43.9997],[0.8241,44.0035],[0.8252,44.0047]]}},{"type":"Feature","properties":{"name":"L\u0027Arrats"},"geometry":{"type":"LineString","coordinates":[[0.8011,43.9775],[0.8052,43.9768],[0.8060,43.9778],[0.8054,43.9797],[0.8080,43.9809]]}},{"type":"Feature","properties":{"name":"L\u0027Arrats"},"geometry":{"type":"LineString","coordinates":[[0.7909,43.9660],[0.7901,43.9690],[0.7917,43.9690],[0.7906,43.9700],[0.7930,43.9709],[0.7930,43.9720],[0.7946,43.9720],[0.7952,43.9755],[0.7975,43.9756],[0.8011,43.9775]]}},{"type":"Feature","properties":{"name":"L\u0027Arrats"},"geometry":{"type":"LineString","coordinates":[[0.8678,43.7634],[0.8684,43.7655],[0.8701,43.7663],[0.8662,43.7691],[0.8677,43.7758],[0.8646,43.7761],[0.8636,43.7805],[0.8641,43.7811],[0.8625,43.7824],[0.8640,43.7831],[0.8626,43.7837],[0.8641,43.7839],[0.8625,43.7862],[0.8643,43.7878],[0.8629,43.7886],[0.8642,43.7893],[0.8623,43.7893],[0.8624,43.7919],[0.8611,43.7931],[0.8586,43.7925],[0.8599,43.7954],[0.8585,43.7963],[0.8596,43.7971],[0.8586,43.7985],[0.8576,43.7981],[0.8573,43.7994],[0.8561,43.7995],[0.8568,43.8010],[0.8542,43.8008],[0.8549,43.8024],[0.8536,43.8023],[0.8515,43.8048],[0.8498,43.8037],[0.8506,43.8053],[0.8484,43.8061],[0.8486,43.8073],[0.8464,43.8076],[0.8445,43.8119],[0.8466,43.8135],[0.8443,43.8153],[0.8440,43.8170],[0.8430,43.8168],[0.8436,43.8188],[0.8416,43.8193],[0.8394,43.8178],[0.8390,43.8197],[0.8378,43.8198],[0.8382,43.8211],[0.8372,43.8224],[0.8380,43.8230],[0.8371,43.8235]]}},{"type":"Feature","properties":{"name":"L\u0027Arrats"},"geometry":{"type":"LineString","coordinates":[[0.8133,43.8480],[0.8136,43.8507],[0.8121,43.8521],[0.8127,43.8531],[0.8117,43.8535],[0.8126,43.8542],[0.8093,43.8538],[0.8068,43.8564],[0.8071,43.8597],[0.8080,43.8608],[0.8074,43.8619],[0.7997,43.8643],[0.7989,43.8657],[0.7973,43.8653],[0.7971,43.8666],[0.7952,43.8682],[0.7956,43.8697],[0.7930,43.8699],[0.7933,43.8729],[0.7913,43.8743]]}},{"type":"Feature","properties":{"name":"L\u0027Arrats"},"geometry":{"type":"LineString","coordinates":[[0.7921,43.9662],[0.7909,43.9660]]}},{"type":"Feature","properties":{"name":"L\u0027Arrats"},"geometry":{"type":"LineString","coordinates":[[0.8655,44.0763],[0.8646,44.0765],[0.8654,44.0782],[0.8632,44.0823],[0.8602,44.0835],[0.8612,44.0848],[0.8595,44.0860],[0.8595,44.0876],[0.8575,44.0887],[0.8565,44.0879],[0.8519,44.0903],[0.8465,44.0952],[0.8466,44.0966]]}},{"type":"Feature","properties":{"name":"L\u0027Arrats"},"geometry":{"type":"LineString","coordinates":[[0.7823,43.8883],[0.7807,43.8888],[0.7785,43.8915],[0.7824,43.8930],[0.7817,43.8946],[0.7829,43.8960],[0.7740,43.9018],[0.7754,43.9028]]}},{"type":"Feature","properties":{"name":"L\u0027Arrats"},"geometry":{"type":"LineString","coordinates":[[0.7688,43.9242],[0.7673,43.9255]]}},{"type":"Feature","properties":{"name":"L\u0027Arrats"},"geometry":{"type":"LineString","coordinates":[[0.7700,43.9222],[0.7704,43.9228],[0.7692,43.9231],[0.7697,43.9240],[0.7688,43.9242]]}},{"type":"Feature","properties":{"name":"L\u0027Arrats"},"geometry":{"type":"LineString","coordinates":[[0.8127,43.9828],[0.8133,43.9847]]}},{"type":"Feature","properties":{"name":"L\u0027Arrats"},"geometry":{"type":"LineString","coordinates":[[0.8091,43.9822],[0.8115,43.9822]]}},{"type":"Feature","properties":{"name":"L\u0027Arrats"},"geometry":{"type":"LineString","coordinates":[[0.8115,43.9822],[0.8127,43.9828]]}},{"type":"Feature","properties":{"name":"L\u0027Arrats"},"geometry":{"type":"LineString","coordinates":[[0.8520,44.0413],[0.8512,44.0422],[0.8521,44.0439],[0.8513,44.0461],[0.8521,44.0475],[0.8509,44.0479]]}},{"type":"Feature","properties":{"name":"L\u0027Arrats"},"geometry":{"type":"LineString","coordinates":[[0.8514,44.0366],[0.8509,44.0381],[0.8518,44.0388],[0.8511,44.0399],[0.8520,44.0413]]}},{"type":"Feature","properties":{"name":"L\u0027Arrats"},"geometry":{"type":"LineString","coordinates":[[0.8398,44.0243],[0.8416,44.0247]]}},{"type":"Feature","properties":{"name":"L\u0027Arrats"},"geometry":{"type":"LineString","coordinates":[[0.8416,44.0247],[0.8423,44.0248]]}},{"type":"Feature","properties":{"name":"L\u0027Arrats"},"geometry":{"type":"LineString","coordinates":[[0.8258,44.0071],[0.8260,44.0079],[0.8247,44.0088],[0.8276,44.0084],[0.8278,44.0116],[0.8266,44.0119],[0.8286,44.0138],[0.8305,44.0141],[0.8299,44.0150],[0.8313,44.0172],[0.8309,44.0184],[0.8337,44.0186],[0.8350,44.0198],[0.8380,44.0186],[0.8411,44.0230],[0.8398,44.0243]]}},{"type":"Feature","properties":{"name":"L\u0027Arrats"},"geometry":{"type":"LineString","coordinates":[[0.8133,43.9847],[0.8160,43.9873],[0.8156,43.9884]]}},{"type":"Feature","properties":{"name":"L\u0027Arrats"},"geometry":{"type":"LineString","coordinates":[[0.8599,44.0611],[0.8600,44.0614]]}},{"type":"Feature","properties":{"name":"L\u0027Arrats"},"geometry":{"type":"LineString","coordinates":[[0.8597,44.0608],[0.8599,44.0611]]}},{"type":"Feature","properties":{"name":"L\u0027Arrats"},"geometry":{"type":"LineString","coordinates":[[0.8742,43.7328],[0.8764,43.7367],[0.8763,43.7382],[0.8741,43.7403],[0.8748,43.7428],[0.8766,43.7448],[0.8778,43.7449],[0.8764,43.7489],[0.8745,43.7481],[0.8737,43.7496],[0.8746,43.7502],[0.8738,43.7529]]}},{"type":"Feature","properties":{"name":"L\u0027Arrats"},"geometry":{"type":"LineString","coordinates":[[0.8600,44.0614],[0.8659,44.0690],[0.8641,44.0708],[0.8659,44.0716],[0.8655,44.0763]]}},{"type":"Feature","properties":{"name":"L\u0027Arrats"},"geometry":{"type":"LineString","coordinates":[[0.8370,43.8235],[0.8369,43.8244],[0.8331,43.8260],[0.8320,43.8282],[0.8304,43.8281],[0.8310,43.8291],[0.8273,43.8314],[0.8278,43.8321],[0.8238,43.8333],[0.8243,43.8352],[0.8216,43.8357],[0.8227,43.8369],[0.8214,43.8381],[0.8217,43.8396],[0.8170,43.8406],[0.8156,43.8423],[0.8160,43.8436],[0.8140,43.8453],[0.8133,43.8480]]}},{"type":"Feature","properties":{"name":"L\u0027Arrats"},"geometry":{"type":"LineString","coordinates":[[0.8371,43.8235],[0.8370,43.8235]]}},{"type":"Feature","properties":{"name":"Le Petit Lembous"},"geometry":{"type":"LineString","coordinates":[[1.4715,44.2131],[1.4735,44.2107],[1.4701,44.2073]]}},{"type":"Feature","properties":{"name":"Le Petit Lembous"},"geometry":{"type":"LineString","coordinates":[[1.3863,44.1723],[1.3753,44.1732],[1.3541,44.1780],[1.3432,44.1790],[1.3378,44.1767],[1.3318,44.1713],[1.3303,44.1716]]}},{"type":"Feature","properties":{"name":"Le Petit Lembous"},"geometry":{"type":"LineString","coordinates":[[1.3864,44.1724],[1.3863,44.1723]]}},{"type":"Feature","properties":{"name":"Le Petit Lembous"},"geometry":{"type":"LineString","coordinates":[[1.4112,44.1732],[1.4027,44.1741],[1.3986,44.1729],[1.3942,44.1744],[1.3864,44.1724]]}},{"type":"Feature","properties":{"name":"Le Petit Lembous"},"geometry":{"type":"LineString","coordinates":[[1.4113,44.1732],[1.4112,44.1732]]}},{"type":"Feature","properties":{"name":"Le Petit Lembous"},"geometry":{"type":"LineString","coordinates":[[1.4413,44.1809],[1.4332,44.1766],[1.4265,44.1755],[1.4235,44.1728],[1.4199,44.1754],[1.4142,44.1748],[1.4113,44.1732]]}},{"type":"Feature","properties":{"name":"Le Petit Lembous"},"geometry":{"type":"LineString","coordinates":[[1.4413,44.1809],[1.4413,44.1809]]}},{"type":"Feature","properties":{"name":"Le Petit Lembous"},"geometry":{"type":"LineString","coordinates":[[1.4606,44.2007],[1.4586,44.2003],[1.4557,44.1960],[1.4556,44.1937],[1.4541,44.1914],[1.4490,44.1885],[1.4482,44.1854]]}},{"type":"Feature","properties":{"name":"Le Petit Lembous"},"geometry":{"type":"LineString","coordinates":[[1.4607,44.2007],[1.4606,44.2007]]}},{"type":"Feature","properties":{"name":"Le Petit Lembous"},"geometry":{"type":"LineString","coordinates":[[1.4689,44.2057],[1.4628,44.2032],[1.4607,44.2007]]}},{"type":"Feature","properties":{"name":"Le Petit Lembous"},"geometry":{"type":"LineString","coordinates":[[1.4481,44.1853],[1.4413,44.1809]]}},{"type":"Feature","properties":{"name":"Le Petit Lembous"},"geometry":{"type":"LineString","coordinates":[[1.4482,44.1854],[1.4481,44.1853]]}},{"type":"Feature","properties":{"name":"Le Petit Lembous"},"geometry":{"type":"LineString","coordinates":[[1.4700,44.2073],[1.4689,44.2057]]}},{"type":"Feature","properties":{"name":"Le Petit Lembous"},"geometry":{"type":"LineString","coordinates":[[1.4701,44.2073],[1.4700,44.2073]]}},{"type":"Feature","properties":{"name":"Ruisseau de la Gourgue"},"geometry":{"type":"LineString","coordinates":[[1.7400,44.1880],[1.7416,44.1830],[1.7462,44.1814],[1.7496,44.1788]]}},{"type":"Feature","properties":{"name":"La Gimone"},"geometry":{"type":"LineString","coordinates":[[0.9003,43.7426],[0.9034,43.7431],[0.9044,43.7486]]}},{"type":"Feature","properties":{"name":"La Gimone"},"geometry":{"type":"LineString","coordinates":[[0.9044,43.7486],[0.9035,43.7490],[0.9041,43.7502],[0.9020,43.7509],[0.9022,43.7517],[0.9005,43.7515],[0.8985,43.7545],[0.9005,43.7555],[0.8995,43.7564],[0.9001,43.7570],[0.8989,43.7600],[0.9003,43.7607],[0.8985,43.7615],[0.8995,43.7620],[0.8988,43.7626],[0.8993,43.7651],[0.8972,43.7656],[0.8996,43.7676],[0.8949,43.7692],[0.8936,43.7745]]}},{"type":"Feature","properties":{"name":"La Gimone"},"geometry":{"type":"LineString","coordinates":[[0.9002,43.7325],[0.9009,43.7342],[0.8988,43.7348],[0.8994,43.7358],[0.8984,43.7365],[0.8995,43.7374],[0.8993,43.7395],[0.9013,43.7392],[0.9025,43.7414],[0.9003,43.7426]]}},{"type":"Feature","properties":{"name":"La Gimone"},"geometry":{"type":"LineString","coordinates":[[1.1178,43.9853],[1.1168,43.9860],[1.1156,43.9907],[1.1146,43.9920],[1.1108,43.9932],[1.1098,43.9955],[1.1105,43.9977],[1.1127,43.9987],[1.1118,43.9988],[1.1062,44.0085],[1.1053,44.0144]]}},{"type":"Feature","properties":{"name":"La Gimone"},"geometry":{"type":"LineString","coordinates":[[0.8936,43.7745],[0.8935,43.7753]]}},{"type":"Feature","properties":{"name":"La Gimone"},"geometry":{"type":"LineString","coordinates":[[0.9025,43.8039],[0.9042,43.8065],[0.9024,43.8068],[0.9046,43.8086],[0.9048,43.8107],[0.9067,43.8121],[0.9105,43.8129],[0.9108,43.8144],[0.9122,43.8146],[0.9134,43.8181],[0.9146,43.8184],[0.9135,43.8201],[0.9178,43.8212],[0.9170,43.8221],[0.9209,43.8243],[0.9206,43.8259],[0.9251,43.8300],[0.9247,43.8309]]}},{"type":"Feature","properties":{"name":"La Gimone"},"geometry":{"type":"LineString","coordinates":[[0.8935,43.7753],[0.8954,43.7809],[0.8946,43.7818],[0.8967,43.7835],[0.8956,43.7850],[0.8971,43.7868],[0.8965,43.7876],[0.8974,43.7889],[0.8957,43.7918],[0.8974,43.7947],[0.8992,43.7946],[0.8996,43.7957],[0.9020,43.7954],[0.9013,43.7968],[0.9030,43.7978],[0.9007,43.7987],[0.8997,43.8008],[0.9016,43.8020],[0.9010,43.8039],[0.9024,43.8033],[0.9025,43.8039]]}},{"type":"Feature","properties":{"name":"La Gimone"},"geometry":{"type":"LineString","coordinates":[[0.9247,43.8309],[0.9275,43.8350],[0.9317,43.8342],[0.9363,43.8383],[0.9366,43.8397],[0.9431,43.8438],[0.9428,43.8448],[0.9444,43.8460],[0.9433,43.8465],[0.9438,43.8476],[0.9420,43.8486],[0.9435,43.8505],[0.9433,43.8515],[0.9513,43.8532],[0.9522,43.8543],[0.9505,43.8552],[0.9519,43.8566]]}},{"type":"Feature","properties":{"name":"La Gimone"},"geometry":{"type":"LineString","coordinates":[[1.1127,43.9566],[1.1134,43.9572],[1.1127,43.9582],[1.1141,43.9586],[1.1134,43.9626],[1.1161,43.9653],[1.1139,43.9681]]}},{"type":"Feature","properties":{"name":"La Gimone"},"geometry":{"type":"LineString","coordinates":[[1.0855,43.9219],[1.0844,43.9231],[1.0849,43.9240],[1.0825,43.9251],[1.0831,43.9262],[1.0822,43.9282],[1.0851,43.9312],[1.0903,43.9330],[1.0900,43.9339],[1.0921,43.9352],[1.0910,43.9360],[1.0915,43.9369],[1.0972,43.9400],[1.0980,43.9456],[1.0999,43.9472],[1.1013,43.9470],[1.1041,43.9486],[1.1078,43.9535],[1.1096,43.9547],[1.1110,43.9540],[1.1127,43.9566]]}},{"type":"Feature","properties":{"name":"La Gimone"},"geometry":{"type":"LineString","coordinates":[[1.0605,43.9153],[1.0618,43.9172],[1.0603,43.9175],[1.0623,43.9188],[1.0635,43.9182],[1.0649,43.9195],[1.0663,43.9194],[1.0668,43.9182],[1.0713,43.9181],[1.0748,43.9162],[1.0818,43.9157],[1.0824,43.9172],[1.0845,43.9184],[1.0858,43.9180],[1.0868,43.9191],[1.0865,43.9223],[1.0855,43.9219]]}},{"type":"Feature","properties":{"name":"La Gimone"},"geometry":{"type":"LineString","coordinates":[[1.0396,43.8984],[1.0407,43.9003],[1.0391,43.9012],[1.0399,43.9022],[1.0421,43.9034],[1.0440,43.9029],[1.0447,43.9040],[1.0482,43.9031],[1.0485,43.9050],[1.0499,43.9060],[1.0481,43.9070],[1.0505,43.9066],[1.0522,43.9079],[1.0525,43.9097],[1.0560,43.9101],[1.0541,43.9136],[1.0576,43.9156],[1.0605,43.9153]]}},{"type":"Feature","properties":{"name":"La Gimone"},"geometry":{"type":"LineString","coordinates":[[0.9519,43.8566],[0.9511,43.8577],[0.9516,43.8583],[0.9540,43.8584],[0.9545,43.8595],[0.9602,43.8624],[0.9620,43.8612],[0.9632,43.8635],[0.9670,43.8643],[0.9684,43.8651],[0.9682,43.8659],[0.9718,43.8657],[0.9726,43.8671],[0.9743,43.8661],[0.9756,43.8681],[0.9748,43.8687],[0.9771,43.8699],[0.9752,43.8724],[0.9800,43.8729],[0.9821,43.8749],[0.9846,43.8746],[0.9871,43.8771],[0.9890,43.8770],[0.9920,43.8794]]}},{"type":"Feature","properties":{"name":"La Gimone"},"geometry":{"type":"LineString","coordinates":[[0.9922,43.8795],[0.9922,43.8809],[0.9935,43.8819],[0.9963,43.8822],[0.9976,43.8836],[0.9985,43.8829],[1.0007,43.8841],[1.0029,43.8823],[1.0084,43.8829],[1.0094,43.8847],[1.0087,43.8854],[1.0112,43.8860],[1.0139,43.8882],[1.0138,43.8905],[1.0160,43.8899],[1.0169,43.8920],[1.0197,43.8930],[1.0209,43.8923],[1.0269,43.8934],[1.0277,43.8948],[1.0326,43.8939],[1.0346,43.8954],[1.0344,43.8962],[1.0367,43.8956],[1.0396,43.8984]]}},{"type":"Feature","properties":{"name":"La Gimone"},"geometry":{"type":"LineString","coordinates":[[1.1139,43.9681],[1.1149,43.9685],[1.1139,43.9688]]}},{"type":"Feature","properties":{"name":"La Gimone"},"geometry":{"type":"LineString","coordinates":[[1.1139,43.9688],[1.1194,43.9699],[1.1212,43.9720],[1.1201,43.9733],[1.1203,43.9749],[1.1210,43.9776],[1.1226,43.9787],[1.1191,43.9786],[1.1198,43.9827],[1.1182,43.9830],[1.1186,43.9843],[1.1178,43.9853]]}},{"type":"Feature","properties":{"name":"La Gimone"},"geometry":{"type":"LineString","coordinates":[[0.9920,43.8794],[0.9922,43.8795]]}},{"type":"Feature","properties":{"name":"Le Lendou"},"geometry":{"type":"LineString","coordinates":[[1.1479,44.2577],[1.1446,44.2545],[1.1430,44.2495],[1.1435,44.2481],[1.1398,44.2459],[1.1377,44.2461],[1.1223,44.2419],[1.1150,44.2370],[1.1081,44.2341],[1.1023,44.2333]]}},{"type":"Feature","properties":{"name":"Le Lendou"},"geometry":{"type":"LineString","coordinates":[[1.2969,44.3207],[1.2969,44.3191],[1.2917,44.3148],[1.2912,44.3132],[1.2882,44.3121],[1.2869,44.3105],[1.2745,44.3067],[1.2724,44.3040],[1.2669,44.3017],[1.2639,44.2969]]}},{"type":"Feature","properties":{"name":"Le Lendou"},"geometry":{"type":"LineString","coordinates":[[1.2190,44.2863],[1.2190,44.2863]]}},{"type":"Feature","properties":{"name":"Le Lendou"},"geometry":{"type":"LineString","coordinates":[[1.2190,44.2863],[1.2192,44.2848],[1.2165,44.2842],[1.2063,44.2847],[1.2010,44.2804],[1.1917,44.2775],[1.1859,44.2740],[1.1840,44.2714],[1.1736,44.2674],[1.1653,44.2655],[1.1521,44.2571],[1.1489,44.2569],[1.1479,44.2577]]}},{"type":"Feature","properties":{"name":"Le Lendou"},"geometry":{"type":"LineString","coordinates":[[1.2639,44.2969],[1.2638,44.2969]]}},{"type":"Feature","properties":{"name":"Le Lendou"},"geometry":{"type":"LineString","coordinates":[[1.2638,44.2969],[1.2622,44.2954],[1.2604,44.2953],[1.2497,44.2980],[1.2470,44.2971],[1.2392,44.2979],[1.2380,44.2966],[1.2380,44.2935],[1.2340,44.2917],[1.2314,44.2886],[1.2195,44.2877],[1.2190,44.2863]]}},{"type":"Feature","properties":{"name":"La Barguelonne"},"geometry":{"type":"LineString","coordinates":[[1.1899,44.2281],[1.1822,44.2259],[1.1770,44.2259],[1.1718,44.2229],[1.1663,44.2231],[1.1650,44.2218]]}},{"type":"Feature","properties":{"name":"La Barguelonne"},"geometry":{"type":"LineString","coordinates":[[1.1650,44.2218],[1.1650,44.2218]]}},{"type":"Feature","properties":{"name":"La Barguelonne"},"geometry":{"type":"LineString","coordinates":[[1.1237,44.2082],[1.1237,44.2082]]}},{"type":"Feature","properties":{"name":"La Barguelonne"},"geometry":{"type":"LineString","coordinates":[[1.1028,44.2052],[1.1027,44.2051]]}},{"type":"Feature","properties":{"name":"La Barguelonne"},"geometry":{"type":"LineString","coordinates":[[1.0965,44.2028],[1.0875,44.2035],[1.0853,44.2031],[1.0840,44.2016],[1.0713,44.2014],[1.0682,44.2006],[1.0606,44.2014],[1.0538,44.2002],[1.0379,44.1914],[1.0356,44.1916],[1.0248,44.1875],[1.0187,44.1867],[1.0117,44.1831],[1.0034,44.1769],[1.0023,44.1723],[0.9991,44.1700],[0.9905,44.1676],[0.9873,44.1651],[0.9871,44.1632],[0.9845,44.1603]]}},{"type":"Feature","properties":{"name":"La Barguelonne"},"geometry":{"type":"LineString","coordinates":[[1.1237,44.2082],[1.1198,44.2081],[1.1109,44.2057],[1.1046,44.2060],[1.1028,44.2052]]}},{"type":"Feature","properties":{"name":"La Barguelonne"},"geometry":{"type":"LineString","coordinates":[[1.1650,44.2218],[1.1567,44.2185],[1.1507,44.2182],[1.1411,44.2146],[1.1309,44.2092],[1.1237,44.2082]]}},{"type":"Feature","properties":{"name":"La Barguelonne"},"geometry":{"type":"LineString","coordinates":[[1.2033,44.2379],[1.1951,44.2298],[1.1900,44.2282]]}},{"type":"Feature","properties":{"name":"La Barguelonne"},"geometry":{"type":"LineString","coordinates":[[1.1900,44.2282],[1.1899,44.2281]]}},{"type":"Feature","properties":{"name":"La Barguelonne"},"geometry":{"type":"LineString","coordinates":[[1.1027,44.2051],[1.0973,44.2040],[1.0965,44.2029]]}},{"type":"Feature","properties":{"name":"La Barguelonne"},"geometry":{"type":"LineString","coordinates":[[1.0965,44.2029],[1.0965,44.2028]]}}]}