{"type":"FeatureCollection","features":[{"type":"Feature","properties":{"name":"La Doller"},"geometry":{"type":"LineString","coordinates":[[7.1460,47.7437],[7.1510,47.7447]]}},{"type":"Feature","properties":{"name":"La Doller"},"geometry":{"type":"LineString","coordinates":[[7.0171,47.7569],[7.0194,47.7566],[7.0220,47.7577],[7.0369,47.7564],[7.0419,47.7587],[7.0544,47.7598],[7.0785,47.7582],[7.0813,47.7566],[7.0858,47.7560],[7.0933,47.7569],[7.0950,47.7557],[7.1016,47.7549],[7.1043,47.7521],[7.1111,47.7534],[7.1171,47.7525],[7.1240,47.7499],[7.1289,47.7451],[7.1372,47.7437],[7.1414,47.7447],[7.1429,47.7430],[7.1460,47.7437]]}},{"type":"Feature","properties":{"name":"La Doller"},"geometry":{"type":"LineString","coordinates":[[6.9070,47.8069],[6.9108,47.8059],[6.9136,47.8070],[6.9200,47.8064],[6.9229,47.8074],[6.9301,47.8047],[6.9322,47.8054],[6.9389,47.8051],[6.9393,47.8063],[6.9411,47.8064],[6.9491,47.8013],[6.9538,47.7993],[6.9602,47.7983],[6.9615,47.7972],[6.9616,47.7935],[6.9609,47.7923],[6.9627,47.7862],[6.9722,47.7832],[6.9761,47.7793],[6.9793,47.7781],[6.9847,47.7786],[6.9871,47.7778],[6.9903,47.7793],[6.9926,47.7791],[6.9927,47.7770],[6.9957,47.7756],[6.9966,47.7741],[6.9996,47.7738],[7.0025,47.7718],[7.0042,47.7694],[7.0036,47.7673],[7.0071,47.7671],[7.0103,47.7614],[7.0098,47.7595],[7.0121,47.7576],[7.0171,47.7569]]}},{"type":"Feature","properties":{"name":"La Doller"},"geometry":{"type":"LineString","coordinates":[[7.1510,47.7447],[7.1528,47.7442],[7.1543,47.7419],[7.1588,47.7411],[7.1643,47.7344],[7.1697,47.7342],[7.1774,47.7312],[7.1782,47.7313],[7.1805,47.7355],[7.1851,47.7352],[7.1892,47.7383],[7.1930,47.7389]]}},{"type":"Feature","properties":{"name":"La Doller"},"geometry":{"type":"LineString","coordinates":[[6.9248,47.8069],[6.9288,47.8053]]}},{"type":"Feature","properties":{"name":"La Lizaine"},"geometry":{"type":"LineString","coordinates":[[6.7404,47.5853],[6.7428,47.5843],[6.7430,47.5813],[6.7494,47.5793],[6.7514,47.5755],[6.7566,47.5741],[6.7631,47.5698],[6.7658,47.5699],[6.7661,47.5675],[6.7691,47.5661],[6.7742,47.5616],[6.7784,47.5615],[6.7792,47.5570],[6.7767,47.5532],[6.7839,47.5512],[6.7854,47.5408],[6.7846,47.5404],[6.7863,47.5397],[6.7863,47.5371],[6.7911,47.5345],[6.7933,47.5348],[6.8017,47.5240],[6.8016,47.5215],[6.7990,47.5171],[6.7984,47.5122]]}},{"type":"Feature","properties":{"name":"La Lizaine"},"geometry":{"type":"LineString","coordinates":[[6.7939,47.5086],[6.7925,47.5080]]}},{"type":"Feature","properties":{"name":"La Lizaine"},"geometry":{"type":"LineString","coordinates":[[6.7327,47.6046],[6.7324,47.6033],[6.7353,47.6018],[6.7363,47.5980],[6.7382,47.5969],[6.7354,47.5939],[6.7339,47.5936],[6.7339,47.5919],[6.7348,47.5917],[6.7340,47.5910],[6.7358,47.5901],[6.7357,47.5889],[6.7373,47.5893],[6.7372,47.5878],[6.7400,47.5868],[6.7393,47.5859],[6.7404,47.5853]]}},{"type":"Feature","properties":{"name":"La Lizaine"},"geometry":{"type":"LineString","coordinates":[[6.7984,47.5122],[6.7958,47.5113],[6.7940,47.5098],[6.7940,47.5087]]}},{"type":"Feature","properties":{"name":"La Lizaine"},"geometry":{"type":"LineString","coordinates":[[6.7940,47.5087],[6.7939,47.5086]]}},{"type":"Feature","properties":{"name":"Le Gland"},"geometry":{"type":"LineString","coordinates":[[6.8868,47.4186],[6.8862,47.4221],[6.8808,47.4285],[6.8820,47.4303],[6.8822,47.4350],[6.8791,47.4357],[6.8803,47.4378],[6.8802,47.4407],[6.8814,47.4422],[6.8846,47.4430],[6.8851,47.4439],[6.8825,47.4466]]}},{"type":"Feature","properties":{"name":"Le Gland"},"geometry":{"type":"LineString","coordinates":[[6.8429,47.4724],[6.8421,47.4725]]}},{"type":"Feature","properties":{"name":"Le Gland"},"geometry":{"type":"LineString","coordinates":[[6.8421,47.4725],[6.8381,47.4719]]}},{"type":"Feature","properties":{"name":"Le Gland"},"geometry":{"type":"LineString","coordinates":[[6.8436,47.4723],[6.8429,47.4724]]}},{"type":"Feature","properties":{"name":"Le Gland"},"geometry":{"type":"LineString","coordinates":[[6.8438,47.4722],[6.8436,47.4723]]}},{"type":"Feature","properties":{"name":"Le Gland"},"geometry":{"type":"LineString","coordinates":[[6.8552,47.4637],[6.8520,47.4659],[6.8519,47.4676],[6.8510,47.4680],[6.8514,47.4692]]}},{"type":"Feature","properties":{"name":"Le Gland"},"geometry":{"type":"LineString","coordinates":[[6.8584,47.4622],[6.8582,47.4623]]}},{"type":"Feature","properties":{"name":"Le Gland"},"geometry":{"type":"LineString","coordinates":[[6.8592,47.4615],[6.8584,47.4622]]}},{"type":"Feature","properties":{"name":"Le Gland"},"geometry":{"type":"LineString","coordinates":[[6.8599,47.4615],[6.8592,47.4615]]}},{"type":"Feature","properties":{"name":"Le Gland"},"geometry":{"type":"LineString","coordinates":[[6.8766,47.4518],[6.8755,47.4552],[6.8710,47.4569],[6.8701,47.4594],[6.8599,47.4615]]}},{"type":"Feature","properties":{"name":"Le Gland"},"geometry":{"type":"LineString","coordinates":[[6.8515,47.4694],[6.8473,47.4718],[6.8438,47.4722]]}},{"type":"Feature","properties":{"name":"Le Gland"},"geometry":{"type":"LineString","coordinates":[[6.8885,47.4076],[6.8892,47.4076],[6.8890,47.4087],[6.8906,47.4088],[6.8905,47.4124],[6.8868,47.4175],[6.8875,47.4180]]}},{"type":"Feature","properties":{"name":"Le Gland"},"geometry":{"type":"LineString","coordinates":[[6.8553,47.4637],[6.8552,47.4637]]}},{"type":"Feature","properties":{"name":"Le Gland"},"geometry":{"type":"LineString","coordinates":[[6.8582,47.4623],[6.8568,47.4637],[6.8553,47.4637]]}},{"type":"Feature","properties":{"name":"Le Gland"},"geometry":{"type":"LineString","coordinates":[[6.8514,47.4692],[6.8515,47.4694]]}},{"type":"Feature","properties":{"name":"Le Rahin"},"geometry":{"type":"LineString","coordinates":[[6.7359,47.7548],[6.7339,47.7544],[6.7326,47.7528],[6.7306,47.7483],[6.7313,47.7472],[6.7291,47.7460],[6.7290,47.7434],[6.7255,47.7419],[6.7241,47.7396],[6.7273,47.7371],[6.7266,47.7354],[6.7284,47.7344],[6.7295,47.7313],[6.7322,47.7290],[6.7316,47.7274],[6.7327,47.7233],[6.7307,47.7205],[6.7354,47.7160],[6.7379,47.7113],[6.7317,47.7066],[6.7278,47.7059],[6.7262,47.7069],[6.7223,47.7060],[6.7228,47.7046],[6.7214,47.7032],[6.7162,47.7003]]}},{"type":"Feature","properties":{"name":"Le Rahin"},"geometry":{"type":"LineString","coordinates":[[6.7580,47.7751],[6.7578,47.7746]]}},{"type":"Feature","properties":{"name":"Le Rahin"},"geometry":{"type":"LineString","coordinates":[[6.7632,47.7778],[6.7606,47.7771],[6.7578,47.7746],[6.7507,47.7734],[6.7461,47.7711],[6.7444,47.7715],[6.7442,47.7700],[6.7428,47.7695],[6.7435,47.7681],[6.7420,47.7659],[6.7440,47.7611],[6.7383,47.7572],[6.7384,47.7558],[6.7359,47.7548]]}},{"type":"Feature","properties":{"name":"La Rosemontoise"},"geometry":{"type":"LineString","coordinates":[[6.8551,47.7190],[6.8548,47.7180],[6.8571,47.7162],[6.8588,47.7161],[6.8621,47.7124],[6.8611,47.7103],[6.8626,47.7071],[6.8721,47.7007],[6.8728,47.6988],[6.8698,47.6947],[6.8705,47.6928],[6.8696,47.6885],[6.8605,47.6843],[6.8584,47.6844],[6.8574,47.6829],[6.8528,47.6810],[6.8526,47.6792],[6.8503,47.6773],[6.8499,47.6751],[6.8474,47.6746],[6.8482,47.6729],[6.8462,47.6704],[6.8472,47.6700],[6.8478,47.6670],[6.8471,47.6654],[6.8491,47.6641]]}},{"type":"Feature","properties":{"name":"La Rosemontoise"},"geometry":{"type":"LineString","coordinates":[[6.8491,47.6640],[6.8487,47.6630]]}},{"type":"Feature","properties":{"name":"La Rosemontoise"},"geometry":{"type":"LineString","coordinates":[[6.8632,47.7626],[6.8573,47.7557],[6.8513,47.7538]]}},{"type":"Feature","properties":{"name":"La Rosemontoise"},"geometry":{"type":"LineString","coordinates":[[6.8513,47.7538],[6.8512,47.7538]]}},{"type":"Feature","properties":{"name":"La Rosemontoise"},"geometry":{"type":"LineString","coordinates":[[6.8512,47.7538],[6.8482,47.7524],[6.8457,47.7497]]}},{"type":"Feature","properties":{"name":"La Thur"},"geometry":{"type":"LineString","coordinates":[[7.1159,47.8092],[7.1198,47.8100],[7.1244,47.8089],[7.1260,47.8076],[7.1272,47.8044],[7.1309,47.8060],[7.1382,47.8068],[7.1396,47.8064],[7.1416,47.8037],[7.1495,47.8025],[7.1509,47.8037],[7.1556,47.8047],[7.1574,47.8038],[7.1625,47.8055],[7.1766,47.8050],[7.1845,47.8062],[7.1899,47.8056],[7.1963,47.8065],[7.1988,47.8079],[7.2012,47.8063],[7.2059,47.8060],[7.2159,47.8117],[7.2225,47.8124],[7.2276,47.8146],[7.2379,47.8163],[7.2420,47.8190],[7.2466,47.8205],[7.2493,47.8229],[7.2578,47.8229],[7.2649,47.8269],[7.2723,47.8276],[7.2747,47.8339],[7.2772,47.8350],[7.2783,47.8369],[7.2841,47.8388],[7.2856,47.8424],[7.2914,47.8469],[7.2920,47.8502],[7.2990,47.8519],[7.3038,47.8549],[7.3084,47.8547]]}},{"type":"Feature","properties":{"name":"La Thur"},"geometry":{"type":"LineString","coordinates":[[7.1596,47.8045],[7.1613,47.8051]]}},{"type":"Feature","properties":{"name":"La Thur"},"geometry":{"type":"LineString","coordinates":[[7.1542,47.8040],[7.1585,47.8033],[7.1607,47.8045]]}},{"type":"Feature","properties":{"name":"La Thur"},"geometry":{"type":"LineString","coordinates":[[7.1509,47.8037],[7.1536,47.8040]]}},{"type":"Feature","properties":{"name":"La Thur"},"geometry":{"type":"LineString","coordinates":[[7.1129,47.8093],[7.1159,47.8092]]}},{"type":"Feature","properties":{"name":"La Thur"},"geometry":{"type":"LineString","coordinates":[[7.0079,47.8775],[7.0114,47.8781],[7.0141,47.8765],[7.0188,47.8760],[7.0246,47.8724],[7.0279,47.8690],[7.0331,47.8689],[7.0346,47.8670],[7.0436,47.8645],[7.0441,47.8610],[7.0463,47.8582],[7.0503,47.8573],[7.0578,47.8518],[7.0593,47.8498],[7.0635,47.8497],[7.0662,47.8455],[7.0712,47.8417],[7.0755,47.8416],[7.0811,47.8371],[7.0806,47.8329],[7.0822,47.8316],[7.0829,47.8283],[7.0853,47.8239],[7.0847,47.8202],[7.0907,47.8163],[7.0978,47.8148],[7.0999,47.8128],[7.1091,47.8114],[7.1129,47.8093]]}},{"type":"Feature","properties":{"name":"La Lutter"},"geometry":{"type":"LineString","coordinates":[[7.0767,47.6079],[7.0791,47.6093],[7.0788,47.6110],[7.0774,47.6119],[7.0790,47.6125],[7.0786,47.6133],[7.0798,47.6141],[7.0744,47.6169],[7.0651,47.6186],[7.0598,47.6209],[7.0507,47.6223],[7.0377,47.6206]]}},{"type":"Feature","properties":{"name":"La Lutter"},"geometry":{"type":"LineString","coordinates":[[7.0726,47.6025],[7.0759,47.6057],[7.0766,47.6079]]}},{"type":"Feature","properties":{"name":"La Lutter"},"geometry":{"type":"LineString","coordinates":[[7.0766,47.6079],[7.0767,47.6079]]}},{"type":"Feature","properties":{"name":"Le Doubs"},"geometry":{"type":"LineString","coordinates":[[6.7657,47.3770],[6.7672,47.3762],[6.7702,47.3771],[6.7717,47.3786],[6.7725,47.3818],[6.7721,47.3852],[6.7735,47.3928],[6.7721,47.3960],[6.7672,47.4004],[6.7706,47.4040],[6.7707,47.4062],[6.7722,47.4078],[6.7797,47.4115],[6.7866,47.4121],[6.7895,47.4135],[6.7869,47.4190],[6.7873,47.4206],[6.7917,47.4242],[6.7916,47.4254],[6.7883,47.4291],[6.7910,47.4307],[6.7916,47.4337],[6.7904,47.4362],[6.7859,47.4402],[6.7901,47.4440],[6.7912,47.4472],[6.7910,47.4511],[6.7944,47.4551],[6.8000,47.4581],[6.8072,47.4577],[6.8085,47.4570],[6.8108,47.4511],[6.8196,47.4466],[6.8361,47.4500]]}},{"type":"Feature","properties":{"name":"Le Doubs"},"geometry":{"type":"LineString","coordinates":[[6.7720,47.4804],[6.7705,47.4747],[6.7680,47.4738],[6.7570,47.4791],[6.7449,47.4801],[6.7354,47.4767],[6.7306,47.4776],[6.7247,47.4803],[6.7174,47.4761],[6.7089,47.4693],[6.7004,47.4664],[6.6906,47.4589],[6.6823,47.4542],[6.6775,47.4526],[6.6558,47.4516],[6.6415,47.4491],[6.6299,47.4489],[6.6242,47.4479],[6.6214,47.4463],[6.6208,47.4433],[6.6263,47.4397],[6.6302,47.4330],[6.6292,47.4306],[6.6242,47.4274],[6.6161,47.4281],[6.6097,47.4302],[6.6064,47.4328],[6.6014,47.4335],[6.5992,47.4372],[6.5978,47.4439],[6.5974,47.4527],[6.5956,47.4553],[6.5912,47.4572],[6.5869,47.4567],[6.5774,47.4485],[6.5755,47.4389]]}},{"type":"Feature","properties":{"name":"Le Doubs"},"geometry":{"type":"LineString","coordinates":[[6.8377,47.4821],[6.8377,47.4832],[6.8353,47.4845],[6.8273,47.4853]]}},{"type":"Feature","properties":{"name":"Le Doubs"},"geometry":{"type":"LineString","coordinates":[[6.8413,47.4665],[6.8391,47.4693],[6.8371,47.4752],[6.8363,47.4803],[6.8377,47.4821]]}},{"type":"Feature","properties":{"name":"Le Doubs"},"geometry":{"type":"LineString","coordinates":[[6.8361,47.4500],[6.8383,47.4524]]}},{"type":"Feature","properties":{"name":"Le Doubs"},"geometry":{"type":"LineString","coordinates":[[6.8273,47.4853],[6.8138,47.4834],[6.7995,47.4866],[6.7890,47.4824],[6.7756,47.4852],[6.7732,47.4832],[6.7720,47.4804]]}},{"type":"Feature","properties":{"name":"Le Doubs"},"geometry":{"type":"LineString","coordinates":[[6.8383,47.4524],[6.8381,47.4567],[6.8399,47.4601]]}},{"type":"Feature","properties":{"name":"Le Doubs"},"geometry":{"type":"LineString","coordinates":[[6.8399,47.4601],[6.8413,47.4665]]}},{"type":"Feature","properties":{"name":"Le Creugenat"},"geometry":{"type":"LineString","coordinates":[[7.0641,47.4127],[7.0717,47.4165],[7.0730,47.4181]]}},{"type":"Feature","properties":{"name":"Le Creugenat"},"geometry":{"type":"LineString","coordinates":[[7.0634,47.4123],[7.0641,47.4127]]}},{"type":"Feature","properties":{"name":"Le Creugenat"},"geometry":{"type":"LineString","coordinates":[[7.0730,47.4181],[7.0739,47.4189]]}},{"type":"Feature","properties":{"name":"Le Creugenat"},"geometry":{"type":"LineString","coordinates":[[7.0272,47.3963],[7.0304,47.3971],[7.0368,47.4011],[7.0407,47.4023],[7.0528,47.4098],[7.0634,47.4123]]}},{"type":"Feature","properties":{"name":"La Savoureuse"},"geometry":{"type":"LineString","coordinates":[[6.8352,47.7245],[6.8350,47.7220],[6.8363,47.7207],[6.8358,47.7162],[6.8376,47.7141],[6.8382,47.7102],[6.8405,47.7076],[6.8403,47.7036],[6.8386,47.7005],[6.8401,47.6978],[6.8368,47.6922],[6.8365,47.6884],[6.8355,47.6870],[6.8330,47.6848],[6.8272,47.6833],[6.8293,47.6808],[6.8289,47.6788],[6.8275,47.6778],[6.8304,47.6761],[6.8296,47.6737],[6.8378,47.6690],[6.8384,47.6667],[6.8416,47.6663],[6.8441,47.6647]]}},{"type":"Feature","properties":{"name":"La Savoureuse"},"geometry":{"type":"LineString","coordinates":[[6.8630,47.6247],[6.8611,47.6214],[6.8615,47.6200],[6.8599,47.6165],[6.8601,47.6140],[6.8645,47.6110],[6.8659,47.6078],[6.8681,47.6067],[6.8660,47.5987],[6.8662,47.5964],[6.8629,47.5920]]}},{"type":"Feature","properties":{"name":"La Savoureuse"},"geometry":{"type":"LineString","coordinates":[[6.8640,47.5880],[6.8617,47.5835],[6.8570,47.5803]]}},{"type":"Feature","properties":{"name":"La Savoureuse"},"geometry":{"type":"LineString","coordinates":[[6.8570,47.5803],[6.8552,47.5776],[6.8562,47.5712],[6.8546,47.5667],[6.8560,47.5640]]}},{"type":"Feature","properties":{"name":"La Savoureuse"},"geometry":{"type":"LineString","coordinates":[[6.8560,47.5640],[6.8607,47.5575],[6.8602,47.5532],[6.8576,47.5503],[6.8571,47.5454],[6.8550,47.5434],[6.8546,47.5418],[6.8524,47.5404],[6.8515,47.5381],[6.8541,47.5349],[6.8514,47.5334],[6.8525,47.5307],[6.8508,47.5302],[6.8490,47.5277],[6.8464,47.5276],[6.8472,47.5262],[6.8462,47.5249],[6.8472,47.5237],[6.8442,47.5223],[6.8413,47.5182],[6.8484,47.5135],[6.8492,47.5110]]}},{"type":"Feature","properties":{"name":"La Savoureuse"},"geometry":{"type":"LineString","coordinates":[[6.8642,47.5883],[6.8640,47.5880]]}},{"type":"Feature","properties":{"name":"La Savoureuse"},"geometry":{"type":"LineString","coordinates":[[6.8346,47.7309],[6.8336,47.7290],[6.8361,47.7273],[6.8347,47.7256],[6.8352,47.7245]]}},{"type":"Feature","properties":{"name":"La Savoureuse"},"geometry":{"type":"LineString","coordinates":[[6.8592,47.6410],[6.8584,47.6377],[6.8626,47.6308],[6.8630,47.6247]]}},{"type":"Feature","properties":{"name":"La Savoureuse"},"geometry":{"type":"LineString","coordinates":[[6.8441,47.6647],[6.8463,47.6629],[6.8487,47.6630],[6.8504,47.6595],[6.8545,47.6550],[6.8543,47.6521],[6.8580,47.6490],[6.8610,47.6435],[6.8610,47.6424],[6.8592,47.6410]]}},{"type":"Feature","properties":{"name":"La Savoureuse"},"geometry":{"type":"LineString","coordinates":[[6.8629,47.5920],[6.8626,47.5906],[6.8656,47.5900],[6.8642,47.5883]]}},{"type":"Feature","properties":{"name":"Saint-Nicolas"},"geometry":{"type":"LineString","coordinates":[[6.9913,47.6599],[6.9907,47.6588],[6.9919,47.6581],[6.9920,47.6568],[6.9912,47.6554],[6.9918,47.6548],[6.9910,47.6491],[6.9925,47.6488],[6.9909,47.6468],[6.9917,47.6462],[6.9910,47.6448],[6.9930,47.6437],[6.9923,47.6430],[6.9933,47.6405],[6.9987,47.6390],[6.9980,47.6383],[6.9995,47.6369],[6.9981,47.6347],[6.9988,47.6333],[7.0043,47.6297],[7.0037,47.6282],[7.0056,47.6255],[7.0073,47.6251],[7.0069,47.6244],[7.0080,47.6231],[7.0072,47.6225]]}},{"type":"Feature","properties":{"name":"Saint-Nicolas"},"geometry":{"type":"LineString","coordinates":[[7.0062,47.6133],[7.0087,47.6095],[7.0081,47.6092],[7.0087,47.6075],[7.0073,47.6073],[7.0079,47.6047],[7.0024,47.6032],[6.9980,47.6042],[6.9971,47.6021],[6.9950,47.6010],[6.9952,47.6001],[6.9934,47.5993],[6.9943,47.5979],[6.9856,47.5953],[6.9833,47.5951],[6.9834,47.5958],[6.9819,47.5960],[6.9808,47.5949],[6.9795,47.5953],[6.9779,47.5944],[6.9773,47.5925],[6.9748,47.5932]]}},{"type":"Feature","properties":{"name":"Saint-Nicolas"},"geometry":{"type":"LineString","coordinates":[[7.0072,47.6225],[7.0046,47.6191],[7.0057,47.6156],[7.0052,47.6142],[7.0062,47.6133]]}},{"type":"Feature","properties":{"name":"La Largue"},"geometry":{"type":"LineString","coordinates":[[7.1104,47.6133],[7.1093,47.6135],[7.1098,47.6144],[7.1077,47.6162],[7.1092,47.6182],[7.1076,47.6198],[7.1082,47.6208],[7.1063,47.6225],[7.1081,47.6253],[7.1065,47.6290],[7.1090,47.6297],[7.1082,47.6318],[7.1100,47.6350],[7.1115,47.6347],[7.1122,47.6357]]}},{"type":"Feature","properties":{"name":"La Largue"},"geometry":{"type":"LineString","coordinates":[[7.1237,47.6521],[7.1254,47.6528],[7.1254,47.6544],[7.1283,47.6542],[7.1280,47.6549],[7.1297,47.6549],[7.1296,47.6561],[7.1337,47.6567],[7.1379,47.6551],[7.1400,47.6556],[7.1404,47.6545],[7.1418,47.6549],[7.1430,47.6541],[7.1520,47.6544],[7.1517,47.6554],[7.1534,47.6558],[7.1598,47.6543],[7.1757,47.6646],[7.1749,47.6682],[7.1779,47.6683]]}},{"type":"Feature","properties":{"name":"La Largue"},"geometry":{"type":"LineString","coordinates":[[7.1203,47.6430],[7.1217,47.6446],[7.1211,47.6465]]}},{"type":"Feature","properties":{"name":"La Largue"},"geometry":{"type":"LineString","coordinates":[[7.1208,47.6484],[7.1238,47.6500],[7.1237,47.6521]]}},{"type":"Feature","properties":{"name":"La Largue"},"geometry":{"type":"LineString","coordinates":[[7.1904,47.5297],[7.1869,47.5343],[7.1827,47.5356],[7.1814,47.5374],[7.1788,47.5372],[7.1731,47.5406],[7.1720,47.5429],[7.1693,47.5430],[7.1683,47.5447],[7.1643,47.5467],[7.1645,47.5478],[7.1628,47.5487],[7.1629,47.5496],[7.1616,47.5497],[7.1619,47.5515],[7.1611,47.5524],[7.1619,47.5525],[7.1609,47.5541],[7.1623,47.5559],[7.1613,47.5594],[7.1568,47.5634],[7.1539,47.5644],[7.1530,47.5661],[7.1482,47.5679],[7.1479,47.5701],[7.1470,47.5705],[7.1475,47.5708],[7.1450,47.5715],[7.1456,47.5719],[7.1439,47.5733],[7.1399,47.5739],[7.1397,47.5759],[7.1370,47.5775],[7.1373,47.5786],[7.1349,47.5796],[7.1353,47.5803],[7.1340,47.5825],[7.1246,47.5884],[7.1249,47.5913],[7.1233,47.5923],[7.1246,47.5938],[7.1228,47.5977],[7.1237,47.5983],[7.1208,47.6000],[7.1210,47.6009],[7.1183,47.6033],[7.1189,47.6049],[7.1180,47.6051],[7.1186,47.6064],[7.1174,47.6085],[7.1153,47.6089],[7.1144,47.6106],[7.1124,47.6110],[7.1130,47.6122],[7.1114,47.6122],[7.1104,47.6133]]}},{"type":"Feature","properties":{"name":"La Largue"},"geometry":{"type":"LineString","coordinates":[[7.1213,47.6460],[7.1213,47.6461]]}},{"type":"Feature","properties":{"name":"La Largue"},"geometry":{"type":"LineString","coordinates":[[7.1122,47.6358],[7.1144,47.6390],[7.1183,47.6404],[7.1203,47.6430]]}},{"type":"Feature","properties":{"name":"La Largue"},"geometry":{"type":"LineString","coordinates":[[7.1208,47.6484],[7.1213,47.6491],[7.1203,47.6496],[7.1237,47.6521]]}},{"type":"Feature","properties":{"name":"La Largue"},"geometry":{"type":"LineString","coordinates":[[7.1211,47.6465],[7.1208,47.6484]]}},{"type":"Feature","properties":{"name":"La Largue"},"geometry":{"type":"LineString","coordinates":[[7.1213,47.6461],[7.1211,47.6465]]}},{"type":"Feature","properties":{"name":"La Largue"},"geometry":{"type":"LineString","coordinates":[[7.1203,47.6430],[7.1224,47.6438],[7.1223,47.6456],[7.1213,47.6460]]}},{"type":"Feature","properties":{"name":"La Largue"},"geometry":{"type":"LineString","coordinates":[[7.1122,47.6357],[7.1122,47.6358]]}},{"type":"Feature","properties":{"name":"L\u0027Allaine"},"geometry":{"type":"LineString","coordinates":[[7.0162,47.4864],[7.0134,47.4884],[7.0159,47.4891],[7.0166,47.4910],[7.0152,47.4947],[7.0152,47.4973],[7.0113,47.4994],[7.0124,47.5024],[7.0056,47.5058],[7.0000,47.5072],[6.9996,47.5100],[6.9969,47.5118],[6.9963,47.5139],[6.9973,47.5163],[6.9947,47.5190],[6.9958,47.5216],[6.9973,47.5222],[6.9964,47.5226],[6.9968,47.5245],[6.9986,47.5246]]}},{"type":"Feature","properties":{"name":"L\u0027Allaine"},"geometry":{"type":"LineString","coordinates":[[6.9986,47.5246],[6.9973,47.5252],[6.9978,47.5269],[6.9962,47.5264],[6.9964,47.5273],[6.9950,47.5283],[6.9955,47.5293],[6.9941,47.5293],[6.9940,47.5315],[6.9916,47.5313],[6.9825,47.5345],[6.9790,47.5334],[6.9782,47.5344],[6.9724,47.5356],[6.9703,47.5347],[6.9702,47.5360],[6.9659,47.5344],[6.9655,47.5359],[6.9641,47.5365],[6.9531,47.5396],[6.9529,47.5418],[6.9508,47.5424],[6.9487,47.5416],[6.9489,47.5426],[6.9477,47.5428],[6.9481,47.5435],[6.9463,47.5450],[6.9460,47.5441],[6.9422,47.5433],[6.9383,47.5435],[6.9363,47.5470],[6.9332,47.5491],[6.9303,47.5493],[6.9244,47.5463],[6.9209,47.5471],[6.9062,47.5464]]}},{"type":"Feature","properties":{"name":"L\u0027Allaine"},"geometry":{"type":"LineString","coordinates":[[7.1106,47.4186],[7.1061,47.4189]]}},{"type":"Feature","properties":{"name":"L\u0027Allaine"},"geometry":{"type":"LineString","coordinates":[[7.1274,47.4254],[7.1165,47.4217],[7.1106,47.4186]]}},{"type":"Feature","properties":{"name":"L\u0027Allaine"},"geometry":{"type":"LineString","coordinates":[[7.0195,47.4863],[7.0162,47.4864]]}},{"type":"Feature","properties":{"name":"L\u0027Allaine"},"geometry":{"type":"LineString","coordinates":[[7.0907,47.4177],[7.0781,47.4174],[7.0739,47.4189]]}},{"type":"Feature","properties":{"name":"L\u0027Allaine"},"geometry":{"type":"LineString","coordinates":[[7.0439,47.4711],[7.0397,47.4726],[7.0404,47.4742],[7.0393,47.4750],[7.0350,47.4754],[7.0323,47.4773],[7.0296,47.4803],[7.0301,47.4817],[7.0276,47.4839]]}},{"type":"Feature","properties":{"name":"L\u0027Allaine"},"geometry":{"type":"LineString","coordinates":[[7.0485,47.4705],[7.0439,47.4711]]}},{"type":"Feature","properties":{"name":"L\u0027Allaine"},"geometry":{"type":"LineString","coordinates":[[7.0812,47.4330],[7.0744,47.4354],[7.0699,47.4359]]}},{"type":"Feature","properties":{"name":"L\u0027Allaine"},"geometry":{"type":"LineString","coordinates":[[7.0699,47.4359],[7.0667,47.4351],[7.0626,47.4319],[7.0606,47.4325],[7.0611,47.4352],[7.0585,47.4368],[7.0586,47.4380],[7.0567,47.4379],[7.0573,47.4410],[7.0542,47.4425],[7.0587,47.4452],[7.0575,47.4471],[7.0580,47.4516],[7.0573,47.4530],[7.0545,47.4528],[7.0541,47.4537],[7.0510,47.4545],[7.0491,47.4566],[7.0494,47.4595],[7.0484,47.4606],[7.0489,47.4612],[7.0474,47.4629],[7.0494,47.4643],[7.0487,47.4653],[7.0505,47.4681],[7.0485,47.4705]]}},{"type":"Feature","properties":{"name":"L\u0027Allaine"},"geometry":{"type":"LineString","coordinates":[[7.0812,47.4330],[7.0772,47.4339],[7.0750,47.4333],[7.0751,47.4340],[7.0738,47.4337],[7.0699,47.4359]]}},{"type":"Feature","properties":{"name":"L\u0027Allaine"},"geometry":{"type":"LineString","coordinates":[[7.0780,47.4215],[7.0799,47.4248],[7.0839,47.4273],[7.0830,47.4321],[7.0812,47.4330]]}},{"type":"Feature","properties":{"name":"L\u0027Allaine"},"geometry":{"type":"LineString","coordinates":[[7.0237,47.4867],[7.0195,47.4863]]}},{"type":"Feature","properties":{"name":"L\u0027Allaine"},"geometry":{"type":"LineString","coordinates":[[7.0276,47.4839],[7.0235,47.4855],[7.0229,47.4862],[7.0237,47.4867]]}},{"type":"Feature","properties":{"name":"L\u0027Allaine"},"geometry":{"type":"LineString","coordinates":[[7.0162,47.4861],[7.0147,47.4865]]}},{"type":"Feature","properties":{"name":"L\u0027Allaine"},"geometry":{"type":"LineString","coordinates":[[7.1061,47.4189],[7.1022,47.4196],[7.1013,47.4181],[7.0993,47.4175],[7.0907,47.4177]]}},{"type":"Feature","properties":{"name":"L\u0027Allaine"},"geometry":{"type":"LineString","coordinates":[[7.0739,47.4189],[7.0779,47.4214]]}},{"type":"Feature","properties":{"name":"L\u0027Allaine"},"geometry":{"type":"LineString","coordinates":[[7.0779,47.4214],[7.0780,47.4215]]}},{"type":"Feature","properties":{"name":"L\u0027Allaine"},"geometry":{"type":"LineString","coordinates":[[7.0780,47.4215],[7.0780,47.4215]]}},{"type":"Feature","properties":{"name":"L\u0027Allaine"},"geometry":{"type":"LineString","coordinates":[[7.0146,47.4866],[7.0146,47.4868]]}},{"type":"Feature","properties":{"name":"L\u0027Allaine"},"geometry":{"type":"LineString","coordinates":[[7.0147,47.4865],[7.0146,47.4866]]}},{"type":"Feature","properties":{"name":"La Bourbeuse"},"geometry":{"type":"LineString","coordinates":[[6.9748,47.5932],[6.9728,47.5885],[6.9688,47.5867],[6.9688,47.5859],[6.9676,47.5872],[6.9653,47.5862],[6.9666,47.5852],[6.9639,47.5847],[6.9647,47.5832],[6.9620,47.5826],[6.9599,47.5796],[6.9553,47.5809],[6.9550,47.5798],[6.9528,47.5791],[6.9516,47.5760],[6.9483,47.5737],[6.9498,47.5727],[6.9492,47.5702],[6.9464,47.5701],[6.9426,47.5657],[6.9398,47.5649],[6.9370,47.5669],[6.9355,47.5644],[6.9316,47.5613],[6.9273,47.5609],[6.9235,47.5594],[6.9217,47.5603],[6.9164,47.5598],[6.9128,47.5575],[6.9092,47.5547],[6.9057,47.5490],[6.9062,47.5464]]}},{"type":"Feature","properties":{"name":"Rigole de la Largue"},"geometry":{"type":"LineString","coordinates":[[7.1396,47.5727],[7.1305,47.5772],[7.1294,47.5796],[7.1223,47.5868],[7.1218,47.5891],[7.1196,47.5915],[7.1196,47.5935],[7.1171,47.5949],[7.1181,47.5967],[7.1177,47.5982],[7.1164,47.5991],[7.1135,47.5990],[7.1145,47.6010],[7.1132,47.6030],[7.1087,47.6047],[7.1066,47.6079],[7.1043,47.6080],[7.1042,47.6111],[7.1029,47.6129],[7.0976,47.6141],[7.0947,47.6119],[7.0937,47.6084]]}},{"type":"Feature","properties":{"name":"Rigole de la Largue"},"geometry":{"type":"LineString","coordinates":[[7.0935,47.6083],[7.0895,47.6119],[7.0895,47.6143],[7.0886,47.6153],[7.0962,47.6201],[7.0964,47.6220],[7.0939,47.6246],[7.0872,47.6256],[7.0861,47.6284],[7.0814,47.6298],[7.0798,47.6298],[7.0776,47.6280],[7.0730,47.6299],[7.0689,47.6273],[7.0668,47.6280],[7.0655,47.6308],[7.0625,47.6300],[7.0563,47.6309]]}},{"type":"Feature","properties":{"name":"Rigole de la Largue"},"geometry":{"type":"LineString","coordinates":[[7.0937,47.6084],[7.0935,47.6083]]}},{"type":"Feature","properties":{"name":"Le Rupt"},"geometry":{"type":"LineString","coordinates":[[6.6960,47.5490],[6.6995,47.5480],[6.6985,47.5430],[6.6960,47.5399],[6.6961,47.5362],[6.6987,47.5323],[6.7006,47.5270],[6.7108,47.5277],[6.7173,47.5316],[6.7214,47.5315],[6.7277,47.5293],[6.7300,47.5258],[6.7357,47.5250],[6.7425,47.5200],[6.7490,47.5184],[6.7494,47.5167],[6.7478,47.5145],[6.7494,47.5135],[6.7528,47.5066],[6.7534,47.4985],[6.7574,47.4931],[6.7613,47.4913],[6.7734,47.4914],[6.7739,47.4887]]}},{"type":"Feature","properties":{"name":"L\u0027Ognon"},"geometry":{"type":"LineString","coordinates":[[6.7315,47.8494],[6.7253,47.8460],[6.7226,47.8419],[6.7237,47.8416],[6.7230,47.8397],[6.7157,47.8360],[6.7157,47.8343],[6.7144,47.8328],[6.7104,47.8313],[6.7100,47.8303],[6.7073,47.8302],[6.7054,47.8283],[6.7059,47.8258],[6.7015,47.8223],[6.6981,47.8226],[6.6941,47.8214],[6.6928,47.8193],[6.6890,47.8189],[6.6858,47.8161],[6.6867,47.8129],[6.6826,47.8114],[6.6785,47.8119],[6.6784,47.8103],[6.6760,47.8079],[6.6761,47.8060],[6.6678,47.8028],[6.6649,47.8026],[6.6632,47.8005],[6.6604,47.8010],[6.6564,47.7999],[6.6522,47.8000],[6.6505,47.7989],[6.6472,47.7991],[6.6424,47.7942],[6.6399,47.7956],[6.6368,47.7948],[6.6338,47.7889],[6.6343,47.7860],[6.6288,47.7842],[6.6276,47.7814],[6.6246,47.7789],[6.6261,47.7780],[6.6235,47.7750],[6.6246,47.7741],[6.6178,47.7708],[6.6158,47.7667],[6.6141,47.7673],[6.6113,47.7654],[6.6080,47.7645],[6.6093,47.7615],[6.6093,47.7586],[6.6047,47.7575],[6.5967,47.7530],[6.5854,47.7539],[6.5838,47.7513],[6.5722,47.7507],[6.5685,47.7478],[6.5657,47.7486],[6.5619,47.7482],[6.5603,47.7466],[6.5621,47.7434],[6.5613,47.7404],[6.5565,47.7392],[6.5522,47.7359],[6.5522,47.7274],[6.5539,47.7254],[6.5549,47.7185],[6.5506,47.7153],[6.5432,47.7171],[6.5367,47.7138],[6.5360,47.7085],[6.5326,47.7075],[6.5338,47.7050],[6.5330,47.7026],[6.5335,47.7010],[6.5308,47.6999],[6.5326,47.6995],[6.5330,47.6979],[6.5300,47.6979],[6.5279,47.6944],[6.5285,47.6915],[6.5258,47.6899],[6.5276,47.6889],[6.5264,47.6865],[6.5241,47.6849],[6.5254,47.6826],[6.5223,47.6816],[6.5212,47.6798],[6.5164,47.6790],[6.5130,47.6753],[6.5087,47.6740]]}},{"type":"Feature","properties":{"name":"L\u0027Ognon"},"geometry":{"type":"LineString","coordinates":[[6.7554,47.8555],[6.7539,47.8561],[6.7433,47.8549],[6.7315,47.8494]]}},{"type":"Feature","properties":{"name":"L\u0027Ognon"},"geometry":{"type":"LineString","coordinates":[[6.7732,47.8496],[6.7681,47.8513],[6.7625,47.8508],[6.7594,47.8524]]}},{"type":"Feature","properties":{"name":"L\u0027Ognon"},"geometry":{"type":"LineString","coordinates":[[6.7593,47.8524],[6.7555,47.8554]]}},{"type":"Feature","properties":{"name":"L\u0027Ognon"},"geometry":{"type":"LineString","coordinates":[[6.7594,47.8524],[6.7593,47.8524]]}},{"type":"Feature","properties":{"name":"L\u0027Allan"},"geometry":{"type":"LineString","coordinates":[[6.8110,47.5047],[6.8092,47.5057],[6.8048,47.5062]]}},{"type":"Feature","properties":{"name":"L\u0027Allan"},"geometry":{"type":"LineString","coordinates":[[6.9062,47.5464],[6.9072,47.5423]]}},{"type":"Feature","properties":{"name":"L\u0027Allan"},"geometry":{"type":"LineString","coordinates":[[6.9072,47.5423],[6.9081,47.5408],[6.9106,47.5396]]}},{"type":"Feature","properties":{"name":"L\u0027Allan"},"geometry":{"type":"LineString","coordinates":[[6.9073,47.5271],[6.9021,47.5265],[6.8996,47.5274],[6.8968,47.5265],[6.8965,47.5247],[6.8947,47.5240],[6.8882,47.5241],[6.8872,47.5255],[6.8854,47.5261],[6.8814,47.5235]]}},{"type":"Feature","properties":{"name":"L\u0027Allan"},"geometry":{"type":"LineString","coordinates":[[6.8814,47.5235],[6.8757,47.5201]]}},{"type":"Feature","properties":{"name":"L\u0027Allan"},"geometry":{"type":"LineString","coordinates":[[6.8483,47.5102],[6.8418,47.5071],[6.8318,47.5045],[6.8208,47.5041]]}},{"type":"Feature","properties":{"name":"L\u0027Allan"},"geometry":{"type":"LineString","coordinates":[[6.9106,47.5396],[6.9169,47.5312],[6.9161,47.5295],[6.9125,47.5274],[6.9073,47.5271]]}},{"type":"Feature","properties":{"name":"L\u0027Allan"},"geometry":{"type":"LineString","coordinates":[[6.8757,47.5201],[6.8629,47.5149],[6.8554,47.5142],[6.8510,47.5126],[6.8483,47.5102]]}},{"type":"Feature","properties":{"name":"L\u0027Allan"},"geometry":{"type":"LineString","coordinates":[[6.8048,47.5062],[6.7964,47.5058],[6.7931,47.5078]]}},{"type":"Feature","properties":{"name":"L\u0027Allan"},"geometry":{"type":"LineString","coordinates":[[6.7931,47.5078],[6.7856,47.5086],[6.7828,47.5066],[6.7791,47.5061],[6.7757,47.5044],[6.7726,47.5003],[6.7745,47.4953],[6.7782,47.4922],[6.7731,47.4880],[6.7667,47.4807],[6.7613,47.4787],[6.7570,47.4791]]}},{"type":"Feature","properties":{"name":"L\u0027Allan"},"geometry":{"type":"LineString","coordinates":[[6.8208,47.5041],[6.8110,47.5047]]}},{"type":"Feature","properties":{"name":"La Madeleine"},"geometry":{"type":"LineString","coordinates":[[6.9226,47.7057],[6.9238,47.7045],[6.9283,47.7037],[6.9317,47.7010],[6.9400,47.6994],[6.9403,47.6976],[6.9446,47.6952],[6.9526,47.6925],[6.9545,47.6928],[6.9576,47.6892],[6.9581,47.6871]]}},{"type":"Feature","properties":{"name":"La Madeleine"},"geometry":{"type":"LineString","coordinates":[[6.9183,47.7299],[6.9217,47.7245],[6.9197,47.7203],[6.9229,47.7168],[6.9226,47.7135],[6.9208,47.7092],[6.9221,47.7066],[6.9216,47.7062],[6.9226,47.7057]]}},{"type":"Feature","properties":{"name":"La Madeleine"},"geometry":{"type":"LineString","coordinates":[[6.9133,47.7657],[6.9134,47.7655]]}},{"type":"Feature","properties":{"name":"La Madeleine"},"geometry":{"type":"LineString","coordinates":[[6.9150,47.7346],[6.9183,47.7299]]}},{"type":"Feature","properties":{"name":"La Madeleine"},"geometry":{"type":"LineString","coordinates":[[6.9130,47.7393],[6.9136,47.7374]]}},{"type":"Feature","properties":{"name":"La Madeleine"},"geometry":{"type":"LineString","coordinates":[[6.9104,47.7457],[6.9105,47.7423],[6.9130,47.7393]]}},{"type":"Feature","properties":{"name":"La Madeleine"},"geometry":{"type":"LineString","coordinates":[[6.9661,47.6369],[6.9630,47.6343],[6.9621,47.6316],[6.9632,47.6283],[6.9644,47.6278],[6.9635,47.6265],[6.9658,47.6244],[6.9660,47.6227],[6.9650,47.6220],[6.9665,47.6194],[6.9657,47.6166],[6.9635,47.6159],[6.9657,47.6130],[6.9684,47.6126]]}},{"type":"Feature","properties":{"name":"La Madeleine"},"geometry":{"type":"LineString","coordinates":[[6.9621,47.6780],[6.9621,47.6777]]}},{"type":"Feature","properties":{"name":"La Madeleine"},"geometry":{"type":"LineString","coordinates":[[6.9581,47.6871],[6.9595,47.6854],[6.9601,47.6822],[6.9620,47.6804],[6.9621,47.6780]]}},{"type":"Feature","properties":{"name":"La Madeleine"},"geometry":{"type":"LineString","coordinates":[[6.9713,47.6105],[6.9766,47.6062],[6.9764,47.6048],[6.9772,47.6040],[6.9764,47.6034],[6.9778,47.6011],[6.9778,47.5981],[6.9753,47.5953],[6.9748,47.5932]]}},{"type":"Feature","properties":{"name":"La Madeleine"},"geometry":{"type":"LineString","coordinates":[[6.9684,47.6126],[6.9701,47.6114],[6.9701,47.6104],[6.9713,47.6105]]}},{"type":"Feature","properties":{"name":"La Madeleine"},"geometry":{"type":"LineString","coordinates":[[6.9603,47.6540],[6.9598,47.6509],[6.9630,47.6471],[6.9626,47.6444],[6.9636,47.6424],[6.9649,47.6420],[6.9643,47.6410],[6.9657,47.6397],[6.9649,47.6389],[6.9666,47.6377],[6.9661,47.6369]]}},{"type":"Feature","properties":{"name":"La Madeleine"},"geometry":{"type":"LineString","coordinates":[[6.9613,47.6646],[6.9632,47.6602],[6.9618,47.6583],[6.9625,47.6570],[6.9603,47.6540]]}},{"type":"Feature","properties":{"name":"La Madeleine"},"geometry":{"type":"LineString","coordinates":[[6.9613,47.6647],[6.9613,47.6646]]}},{"type":"Feature","properties":{"name":"La Madeleine"},"geometry":{"type":"LineString","coordinates":[[6.9621,47.6777],[6.9627,47.6759],[6.9613,47.6689]]}},{"type":"Feature","properties":{"name":"La Madeleine"},"geometry":{"type":"LineString","coordinates":[[6.9134,47.7655],[6.9135,47.7654]]}},{"type":"Feature","properties":{"name":"La Madeleine"},"geometry":{"type":"LineString","coordinates":[[6.9135,47.7654],[6.9143,47.7635],[6.9118,47.7588],[6.9116,47.7552],[6.9143,47.7485],[6.9110,47.7472],[6.9104,47.7457]]}},{"type":"Feature","properties":{"name":"La Madeleine"},"geometry":{"type":"LineString","coordinates":[[6.9136,47.7373],[6.9150,47.7346]]}},{"type":"Feature","properties":{"name":"La Madeleine"},"geometry":{"type":"LineString","coordinates":[[6.9136,47.7374],[6.9136,47.7373]]}},{"type":"Feature","properties":{"name":"La Madeleine"},"geometry":{"type":"LineString","coordinates":[[6.9655,47.6706],[6.9657,47.6700]]}},{"type":"Feature","properties":{"name":"La Madeleine"},"geometry":{"type":"LineString","coordinates":[[6.9657,47.6700],[6.9668,47.6677],[6.9647,47.6647],[6.9658,47.6630],[6.9650,47.6612],[6.9657,47.6603],[6.9630,47.6599]]}},{"type":"Feature","properties":{"name":"La Madeleine"},"geometry":{"type":"LineString","coordinates":[[6.9620,47.6803],[6.9655,47.6757],[6.9655,47.6728],[6.9664,47.6716],[6.9655,47.6706]]}},{"type":"Feature","properties":{"name":"La Madeleine"},"geometry":{"type":"LineString","coordinates":[[6.9611,47.6683],[6.9613,47.6647]]}},{"type":"Feature","properties":{"name":"La Madeleine"},"geometry":{"type":"LineString","coordinates":[[6.9612,47.6687],[6.9611,47.6683]]}},{"type":"Feature","properties":{"name":"La Madeleine"},"geometry":{"type":"LineString","coordinates":[[6.9612,47.6688],[6.9612,47.6687]]}},{"type":"Feature","properties":{"name":"La Madeleine"},"geometry":{"type":"LineString","coordinates":[[6.9613,47.6689],[6.9612,47.6688]]}},{"type":"Feature","properties":{"name":"La Douce"},"geometry":{"type":"LineString","coordinates":[[6.8299,47.6248],[6.8317,47.6240],[6.8316,47.6221],[6.8340,47.6204]]}},{"type":"Feature","properties":{"name":"La Douce"},"geometry":{"type":"LineString","coordinates":[[6.8293,47.6247],[6.8299,47.6248]]}},{"type":"Feature","properties":{"name":"La Douce"},"geometry":{"type":"LineString","coordinates":[[6.8401,47.6029],[6.8463,47.6046],[6.8485,47.6043],[6.8505,47.6004],[6.8543,47.5985]]}},{"type":"Feature","properties":{"name":"La Douce"},"geometry":{"type":"LineString","coordinates":[[6.8340,47.6204],[6.8386,47.6131],[6.8388,47.6075]]}},{"type":"Feature","properties":{"name":"La Douce"},"geometry":{"type":"LineString","coordinates":[[6.8541,47.5879],[6.8544,47.5869]]}},{"type":"Feature","properties":{"name":"La Douce"},"geometry":{"type":"LineString","coordinates":[[6.8543,47.5985],[6.8566,47.5929],[6.8562,47.5913],[6.8545,47.5904],[6.8541,47.5879]]}},{"type":"Feature","properties":{"name":"La Douce"},"geometry":{"type":"LineString","coordinates":[[6.8545,47.5836],[6.8568,47.5802]]}},{"type":"Feature","properties":{"name":"La Douce"},"geometry":{"type":"LineString","coordinates":[[6.8544,47.5869],[6.8545,47.5865]]}},{"type":"Feature","properties":{"name":"La Douce"},"geometry":{"type":"LineString","coordinates":[[6.8546,47.5840],[6.8545,47.5836]]}},{"type":"Feature","properties":{"name":"La Douce"},"geometry":{"type":"LineString","coordinates":[[6.8545,47.5865],[6.8554,47.5864],[6.8546,47.5840]]}},{"type":"Feature","properties":{"name":"La Douce"},"geometry":{"type":"LineString","coordinates":[[6.7883,47.6512],[6.7884,47.6512]]}},{"type":"Feature","properties":{"name":"La Douce"},"geometry":{"type":"LineString","coordinates":[[6.8388,47.6075],[6.8392,47.6051],[6.8406,47.6042],[6.8394,47.6037],[6.8401,47.6029]]}},{"type":"Feature","properties":{"name":"La Suarcine"},"geometry":{"type":"LineString","coordinates":[[7.0583,47.5990],[7.0471,47.6063],[7.0420,47.6131],[7.0426,47.6147],[7.0393,47.6165],[7.0371,47.6164],[7.0337,47.6193]]}},{"type":"Feature","properties":{"name":"La Suarcine"},"geometry":{"type":"LineString","coordinates":[[7.0227,47.6101],[7.0161,47.6073],[7.0119,47.6076],[7.0109,47.6050]]}},{"type":"Feature","properties":{"name":"La Suarcine"},"geometry":{"type":"LineString","coordinates":[[7.0109,47.6050],[7.0071,47.6044]]}}]}