{"type":"FeatureCollection","features":[{"type":"Feature","properties":{"name":"L\u0027Yvette"},"geometry":{"type":"LineString","coordinates":[[2.1127,48.7017],[2.1179,48.7004],[2.1211,48.7011],[2.1250,48.6998],[2.1274,48.7009],[2.1306,48.6980],[2.1364,48.6999],[2.1534,48.6973],[2.1539,48.6984],[2.1584,48.6996],[2.1657,48.6997],[2.1726,48.7012],[2.1820,48.6994],[2.1844,48.7004],[2.1927,48.7006]]}},{"type":"Feature","properties":{"name":"L\u0027Yvette"},"geometry":{"type":"LineString","coordinates":[[2.1927,48.7006],[2.2057,48.7032],[2.2117,48.7018],[2.2251,48.7019],[2.2356,48.7008],[2.2405,48.7023],[2.2434,48.7066],[2.2455,48.7079],[2.2506,48.7085]]}},{"type":"Feature","properties":{"name":"L\u0027Yvette"},"geometry":{"type":"LineString","coordinates":[[2.2516,48.7084],[2.2521,48.7083]]}},{"type":"Feature","properties":{"name":"L\u0027Yvette"},"geometry":{"type":"LineString","coordinates":[[2.2521,48.7083],[2.2548,48.7067],[2.2607,48.7065],[2.2681,48.7040]]}},{"type":"Feature","properties":{"name":"L\u0027Yvette"},"geometry":{"type":"LineString","coordinates":[[2.2681,48.7040],[2.2695,48.7000]]}},{"type":"Feature","properties":{"name":"L\u0027Yvette"},"geometry":{"type":"LineString","coordinates":[[2.2513,48.7084],[2.2516,48.7084]]}},{"type":"Feature","properties":{"name":"L\u0027Yvette"},"geometry":{"type":"LineString","coordinates":[[2.2506,48.7085],[2.2513,48.7084]]}},{"type":"Feature","properties":{"name":"La Seine"},"geometry":{"type":"LineString","coordinates":[[2.2305,48.8679],[2.2351,48.8718]]}},{"type":"Feature","properties":{"name":"La Seine"},"geometry":{"type":"LineString","coordinates":[[2.2424,48.8227],[2.2355,48.8239],[2.2283,48.8277],[2.2263,48.8306]]}},{"type":"Feature","properties":{"name":"La Seine"},"geometry":{"type":"LineString","coordinates":[[2.2424,48.8227],[2.2368,48.8214],[2.2324,48.8228],[2.2279,48.8263],[2.2265,48.8283],[2.2263,48.8306]]}},{"type":"Feature","properties":{"name":"La Seine"},"geometry":{"type":"LineString","coordinates":[[2.2887,48.8572],[2.2883,48.8555],[2.2773,48.8483]]}},{"type":"Feature","properties":{"name":"La Seine"},"geometry":{"type":"LineString","coordinates":[[2.2887,48.8572],[2.2781,48.8493],[2.2609,48.8320],[2.2501,48.8250],[2.2424,48.8227]]}},{"type":"Feature","properties":{"name":"La Seine"},"geometry":{"type":"LineString","coordinates":[[2.3903,48.8257],[2.3614,48.8485]]}},{"type":"Feature","properties":{"name":"La Seine"},"geometry":{"type":"LineString","coordinates":[[2.3614,48.8485],[2.3539,48.8512],[2.3522,48.8547]]}},{"type":"Feature","properties":{"name":"La Seine"},"geometry":{"type":"LineString","coordinates":[[2.3220,48.8627],[2.3173,48.8638],[2.3015,48.8635]]}},{"type":"Feature","properties":{"name":"La Seine"},"geometry":{"type":"LineString","coordinates":[[2.3209,48.8631],[2.3261,48.8615]]}},{"type":"Feature","properties":{"name":"La Seine"},"geometry":{"type":"LineString","coordinates":[[2.1321,48.8690],[2.1301,48.8701]]}},{"type":"Feature","properties":{"name":"La Seine"},"geometry":{"type":"LineString","coordinates":[[2.1321,48.8690],[2.1303,48.8702]]}},{"type":"Feature","properties":{"name":"La Seine"},"geometry":{"type":"LineString","coordinates":[[2.1330,48.8687],[2.1322,48.8695]]}},{"type":"Feature","properties":{"name":"La Seine"},"geometry":{"type":"LineString","coordinates":[[2.2007,48.9106],[2.1889,48.9059],[2.1810,48.9048],[2.1749,48.9028],[2.1676,48.8977]]}},{"type":"Feature","properties":{"name":"La Seine"},"geometry":{"type":"LineString","coordinates":[[2.2609,48.8320],[2.2597,48.8274],[2.2548,48.8240],[2.2443,48.8206],[2.2368,48.8214]]}},{"type":"Feature","properties":{"name":"La Seine"},"geometry":{"type":"LineString","coordinates":[[2.1626,48.8921],[2.1545,48.8777],[2.1476,48.8724],[2.1410,48.8702],[2.1334,48.8704],[2.1295,48.8715]]}},{"type":"Feature","properties":{"name":"La Seine"},"geometry":{"type":"LineString","coordinates":[[2.1676,48.8977],[2.1641,48.8949],[2.1626,48.8921]]}},{"type":"Feature","properties":{"name":"La Seine"},"geometry":{"type":"LineString","coordinates":[[2.1278,48.8716],[2.1260,48.8733]]}},{"type":"Feature","properties":{"name":"La Seine"},"geometry":{"type":"LineString","coordinates":[[2.1310,48.8703],[2.1295,48.8715]]}},{"type":"Feature","properties":{"name":"La Seine"},"geometry":{"type":"LineString","coordinates":[[2.1297,48.8706],[2.1282,48.8721]]}},{"type":"Feature","properties":{"name":"La Seine"},"geometry":{"type":"LineString","coordinates":[[2.1260,48.8733],[2.1163,48.8811],[2.1099,48.8880]]}},{"type":"Feature","properties":{"name":"La Seine"},"geometry":{"type":"LineString","coordinates":[[2.2229,48.8388],[2.2255,48.8471],[2.2245,48.8562],[2.2283,48.8652],[2.2305,48.8679]]}},{"type":"Feature","properties":{"name":"La Seine"},"geometry":{"type":"LineString","coordinates":[[2.2358,48.8728],[2.2433,48.8779],[2.2634,48.8949],[2.2709,48.8983],[2.2807,48.9009]]}},{"type":"Feature","properties":{"name":"La Seine"},"geometry":{"type":"LineString","coordinates":[[2.2263,48.8306],[2.2229,48.8388]]}},{"type":"Feature","properties":{"name":"La Seine"},"geometry":{"type":"LineString","coordinates":[[2.1282,48.8721],[2.1260,48.8733]]}},{"type":"Feature","properties":{"name":"La Seine"},"geometry":{"type":"LineString","coordinates":[[2.1295,48.8715],[2.1282,48.8721]]}},{"type":"Feature","properties":{"name":"La Seine"},"geometry":{"type":"LineString","coordinates":[[2.2351,48.8718],[2.2358,48.8728]]}},{"type":"Feature","properties":{"name":"La Seine"},"geometry":{"type":"LineString","coordinates":[[2.3385,48.8582],[2.3351,48.8589]]}},{"type":"Feature","properties":{"name":"La Seine"},"geometry":{"type":"LineString","coordinates":[[2.3426,48.8576],[2.3385,48.8582]]}},{"type":"Feature","properties":{"name":"La Seine"},"geometry":{"type":"LineString","coordinates":[[2.2901,48.8584],[2.2887,48.8572]]}},{"type":"Feature","properties":{"name":"La Seine"},"geometry":{"type":"LineString","coordinates":[[2.2943,48.8616],[2.2901,48.8584]]}},{"type":"Feature","properties":{"name":"La Seine"},"geometry":{"type":"LineString","coordinates":[[2.3014,48.8635],[2.2943,48.8616]]}},{"type":"Feature","properties":{"name":"La Seine"},"geometry":{"type":"LineString","coordinates":[[2.3015,48.8635],[2.3014,48.8635]]}},{"type":"Feature","properties":{"name":"La Seine"},"geometry":{"type":"LineString","coordinates":[[2.3522,48.8547],[2.3458,48.8569]]}},{"type":"Feature","properties":{"name":"La Seine"},"geometry":{"type":"LineString","coordinates":[[2.3458,48.8569],[2.3426,48.8576]]}},{"type":"Feature","properties":{"name":"La Seine"},"geometry":{"type":"LineString","coordinates":[[2.3351,48.8589],[2.3261,48.8614]]}},{"type":"Feature","properties":{"name":"La Seine"},"geometry":{"type":"LineString","coordinates":[[2.3246,48.8619],[2.3220,48.8627]]}},{"type":"Feature","properties":{"name":"La Seine"},"geometry":{"type":"LineString","coordinates":[[2.3250,48.8618],[2.3246,48.8619]]}},{"type":"Feature","properties":{"name":"La Seine"},"geometry":{"type":"LineString","coordinates":[[2.3261,48.8614],[2.3250,48.8618]]}},{"type":"Feature","properties":{"name":"La Seine"},"geometry":{"type":"LineString","coordinates":[[2.3240,48.8618],[2.3254,48.8614]]}},{"type":"Feature","properties":{"name":"Petit Bras de la Seine"},"geometry":{"type":"LineString","coordinates":[[2.2377,48.8711],[2.2428,48.8737],[2.2516,48.8817],[2.2568,48.8882],[2.2807,48.9009]]}},{"type":"Feature","properties":{"name":"Petit Bras de la Seine"},"geometry":{"type":"LineString","coordinates":[[2.2568,48.8882],[2.2569,48.8892]]}},{"type":"Feature","properties":{"name":"Petit Bras de la Seine"},"geometry":{"type":"LineString","coordinates":[[2.2327,48.8692],[2.2377,48.8711]]}},{"type":"Feature","properties":{"name":"La Seine - Bras de Marly"},"geometry":{"type":"LineString","coordinates":[[2.2035,48.9099],[2.1935,48.9051],[2.1762,48.9001],[2.1677,48.8944],[2.1634,48.8886],[2.1631,48.8865]]}},{"type":"Feature","properties":{"name":"La Seine - Bras de Marly"},"geometry":{"type":"LineString","coordinates":[[2.1240,48.8725],[2.1117,48.8811],[2.1099,48.8880]]}},{"type":"Feature","properties":{"name":"La Seine - Bras de Marly"},"geometry":{"type":"LineString","coordinates":[[2.1321,48.8690],[2.1277,48.8701],[2.1240,48.8725]]}},{"type":"Feature","properties":{"name":"La Seine - Bras de Marly"},"geometry":{"type":"LineString","coordinates":[[2.1631,48.8865],[2.1636,48.8847]]}},{"type":"Feature","properties":{"name":"La Seine - Bras de Marly"},"geometry":{"type":"LineString","coordinates":[[2.1636,48.8847],[2.1629,48.8824],[2.1580,48.8804],[2.1525,48.8728],[2.1480,48.8693],[2.1403,48.8680],[2.1321,48.8690]]}},{"type":"Feature","properties":{"name":"La Seine - Bras de Marly"},"geometry":{"type":"LineString","coordinates":[[2.1631,48.8865],[2.1636,48.8847]]}},{"type":"Feature","properties":{"name":"La Seine - Bras de Marly"},"geometry":{"type":"LineString","coordinates":[[2.2078,48.9117],[2.2035,48.9099]]}},{"type":"Feature","properties":{"name":"La Seine - Bras de Marly"},"geometry":{"type":"LineString","coordinates":[[2.2141,48.9166],[2.2078,48.9117]]}},{"type":"Feature","properties":{"name":"Petit Bras de la Seine"},"geometry":{"type":"LineString","coordinates":[[2.3195,48.9159],[2.3219,48.9188],[2.3260,48.9206],[2.3294,48.9235],[2.3348,48.9292],[2.3370,48.9343],[2.3353,48.9411],[2.3323,48.9436],[2.3243,48.9460],[2.3001,48.9505],[2.2908,48.9511]]}},{"type":"Feature","properties":{"name":"La Seine"},"geometry":{"type":"LineString","coordinates":[[2.2801,48.9494],[2.2643,48.9447]]}},{"type":"Feature","properties":{"name":"La Seine"},"geometry":{"type":"LineString","coordinates":[[2.1129,48.9055],[2.1199,48.9177],[2.1269,48.9253],[2.1754,48.9553],[2.1783,48.9596],[2.1780,48.9630],[2.1803,48.9680],[2.1795,48.9701],[2.1739,48.9782],[2.1687,48.9822],[2.1634,48.9848],[2.1543,48.9865],[2.1442,48.9900],[2.1299,48.9898],[2.1226,48.9917],[2.1113,48.9906],[2.0952,48.9909],[2.0868,48.9898],[2.0707,48.9857]]}},{"type":"Feature","properties":{"name":"La Seine"},"geometry":{"type":"LineString","coordinates":[[2.2875,48.9037],[2.2994,48.9096],[2.3137,48.9141]]}},{"type":"Feature","properties":{"name":"La Seine"},"geometry":{"type":"LineString","coordinates":[[2.3263,48.9176],[2.3298,48.9195]]}},{"type":"Feature","properties":{"name":"La Seine"},"geometry":{"type":"LineString","coordinates":[[2.3298,48.9195],[2.3409,48.9313],[2.3418,48.9359],[2.3395,48.9409]]}},{"type":"Feature","properties":{"name":"La Seine"},"geometry":{"type":"LineString","coordinates":[[2.3137,48.9141],[2.3195,48.9159]]}},{"type":"Feature","properties":{"name":"La Seine"},"geometry":{"type":"LineString","coordinates":[[2.3395,48.9409],[2.3348,48.9450],[2.3169,48.9496],[2.3021,48.9519],[2.2908,48.9511]]}},{"type":"Feature","properties":{"name":"La Seine"},"geometry":{"type":"LineString","coordinates":[[2.2807,48.9009],[2.2875,48.9037]]}},{"type":"Feature","properties":{"name":"La Seine"},"geometry":{"type":"LineString","coordinates":[[2.2606,48.9432],[2.2337,48.9290],[2.2141,48.9166]]}},{"type":"Feature","properties":{"name":"La Seine"},"geometry":{"type":"LineString","coordinates":[[2.2643,48.9447],[2.2606,48.9432]]}},{"type":"Feature","properties":{"name":"La Seine"},"geometry":{"type":"LineString","coordinates":[[2.2056,48.9133],[2.2007,48.9106]]}},{"type":"Feature","properties":{"name":"La Seine"},"geometry":{"type":"LineString","coordinates":[[2.2141,48.9166],[2.2056,48.9133]]}},{"type":"Feature","properties":{"name":"La Seine"},"geometry":{"type":"LineString","coordinates":[[2.3195,48.9159],[2.3263,48.9176]]}},{"type":"Feature","properties":{"name":"La Seine"},"geometry":{"type":"LineString","coordinates":[[2.2808,48.9496],[2.2801,48.9494]]}},{"type":"Feature","properties":{"name":"La Seine"},"geometry":{"type":"LineString","coordinates":[[2.2908,48.9511],[2.2808,48.9496]]}}]}