{"type":"FeatureCollection","features":[{"type":"Feature","properties":{"name":"La Seine"},"geometry":{"type":"LineString","coordinates":[[2.4094,48.8166],[2.3964,48.8215],[2.3903,48.8257]]}},{"type":"Feature","properties":{"name":"La Seine"},"geometry":{"type":"LineString","coordinates":[[2.4090,48.8094],[2.4102,48.8139],[2.4094,48.8166]]}},{"type":"Feature","properties":{"name":"La Seine"},"geometry":{"type":"LineString","coordinates":[[2.4190,48.7831],[2.4227,48.7898]]}},{"type":"Feature","properties":{"name":"La Seine"},"geometry":{"type":"LineString","coordinates":[[2.4207,48.7958],[2.4189,48.7973]]}},{"type":"Feature","properties":{"name":"La Seine"},"geometry":{"type":"LineString","coordinates":[[2.4146,48.8007],[2.4095,48.8054]]}},{"type":"Feature","properties":{"name":"La Seine"},"geometry":{"type":"LineString","coordinates":[[2.4213,48.7950],[2.4192,48.7983]]}},{"type":"Feature","properties":{"name":"La Seine"},"geometry":{"type":"LineString","coordinates":[[2.4227,48.7920],[2.4213,48.7950]]}},{"type":"Feature","properties":{"name":"La Seine"},"geometry":{"type":"LineString","coordinates":[[2.4213,48.7950],[2.4178,48.7970]]}},{"type":"Feature","properties":{"name":"La Seine"},"geometry":{"type":"LineString","coordinates":[[2.4174,48.7997],[2.4146,48.8007]]}},{"type":"Feature","properties":{"name":"La Seine"},"geometry":{"type":"LineString","coordinates":[[2.4160,48.7983],[2.4146,48.8007]]}},{"type":"Feature","properties":{"name":"La Seine"},"geometry":{"type":"LineString","coordinates":[[2.2887,48.8572],[2.2883,48.8555],[2.2773,48.8483]]}},{"type":"Feature","properties":{"name":"La Seine"},"geometry":{"type":"LineString","coordinates":[[2.2887,48.8572],[2.2781,48.8493],[2.2609,48.8320],[2.2501,48.8250],[2.2424,48.8227]]}},{"type":"Feature","properties":{"name":"La Seine"},"geometry":{"type":"LineString","coordinates":[[2.3903,48.8257],[2.3614,48.8485]]}},{"type":"Feature","properties":{"name":"La Seine"},"geometry":{"type":"LineString","coordinates":[[2.3614,48.8485],[2.3539,48.8512],[2.3522,48.8547]]}},{"type":"Feature","properties":{"name":"La Seine"},"geometry":{"type":"LineString","coordinates":[[2.3220,48.8627],[2.3173,48.8638],[2.3015,48.8635]]}},{"type":"Feature","properties":{"name":"La Seine"},"geometry":{"type":"LineString","coordinates":[[2.3209,48.8631],[2.3261,48.8615]]}},{"type":"Feature","properties":{"name":"La Seine"},"geometry":{"type":"LineString","coordinates":[[2.4189,48.7973],[2.4160,48.7995]]}},{"type":"Feature","properties":{"name":"La Seine"},"geometry":{"type":"LineString","coordinates":[[2.4213,48.7950],[2.4207,48.7958]]}},{"type":"Feature","properties":{"name":"La Seine"},"geometry":{"type":"LineString","coordinates":[[2.4147,48.7773],[2.4190,48.7831]]}},{"type":"Feature","properties":{"name":"La Seine"},"geometry":{"type":"LineString","coordinates":[[2.2358,48.8728],[2.2433,48.8779],[2.2634,48.8949],[2.2709,48.8983],[2.2807,48.9009]]}},{"type":"Feature","properties":{"name":"La Seine"},"geometry":{"type":"LineString","coordinates":[[2.3385,48.8582],[2.3351,48.8589]]}},{"type":"Feature","properties":{"name":"La Seine"},"geometry":{"type":"LineString","coordinates":[[2.3426,48.8576],[2.3385,48.8582]]}},{"type":"Feature","properties":{"name":"La Seine"},"geometry":{"type":"LineString","coordinates":[[2.2901,48.8584],[2.2887,48.8572]]}},{"type":"Feature","properties":{"name":"La Seine"},"geometry":{"type":"LineString","coordinates":[[2.2943,48.8616],[2.2901,48.8584]]}},{"type":"Feature","properties":{"name":"La Seine"},"geometry":{"type":"LineString","coordinates":[[2.4227,48.7898],[2.4227,48.7920]]}},{"type":"Feature","properties":{"name":"La Seine"},"geometry":{"type":"LineString","coordinates":[[2.4160,48.7995],[2.4146,48.8007]]}},{"type":"Feature","properties":{"name":"La Seine"},"geometry":{"type":"LineString","coordinates":[[2.4095,48.8054],[2.4088,48.8085]]}},{"type":"Feature","properties":{"name":"La Seine"},"geometry":{"type":"LineString","coordinates":[[2.4088,48.8085],[2.4090,48.8094]]}},{"type":"Feature","properties":{"name":"La Seine"},"geometry":{"type":"LineString","coordinates":[[2.3014,48.8635],[2.2943,48.8616]]}},{"type":"Feature","properties":{"name":"La Seine"},"geometry":{"type":"LineString","coordinates":[[2.3015,48.8635],[2.3014,48.8635]]}},{"type":"Feature","properties":{"name":"La Seine"},"geometry":{"type":"LineString","coordinates":[[2.3522,48.8547],[2.3458,48.8569]]}},{"type":"Feature","properties":{"name":"La Seine"},"geometry":{"type":"LineString","coordinates":[[2.3458,48.8569],[2.3426,48.8576]]}},{"type":"Feature","properties":{"name":"La Seine"},"geometry":{"type":"LineString","coordinates":[[2.3351,48.8589],[2.3261,48.8614]]}},{"type":"Feature","properties":{"name":"La Seine"},"geometry":{"type":"LineString","coordinates":[[2.3246,48.8619],[2.3220,48.8627]]}},{"type":"Feature","properties":{"name":"La Seine"},"geometry":{"type":"LineString","coordinates":[[2.3250,48.8618],[2.3246,48.8619]]}},{"type":"Feature","properties":{"name":"La Seine"},"geometry":{"type":"LineString","coordinates":[[2.3261,48.8614],[2.3250,48.8618]]}},{"type":"Feature","properties":{"name":"La Seine"},"geometry":{"type":"LineString","coordinates":[[2.3240,48.8618],[2.3254,48.8614]]}},{"type":"Feature","properties":{"name":"Petit Bras de la Seine"},"geometry":{"type":"LineString","coordinates":[[2.2377,48.8711],[2.2428,48.8737],[2.2516,48.8817],[2.2568,48.8882],[2.2807,48.9009]]}},{"type":"Feature","properties":{"name":"La Marne"},"geometry":{"type":"LineString","coordinates":[[2.4692,48.8188],[2.4751,48.8152]]}},{"type":"Feature","properties":{"name":"La Marne"},"geometry":{"type":"LineString","coordinates":[[2.4684,48.8259],[2.4669,48.8233],[2.4678,48.8202]]}},{"type":"Feature","properties":{"name":"La Marne"},"geometry":{"type":"LineString","coordinates":[[2.5102,48.8097],[2.5176,48.8086],[2.5202,48.8069],[2.5227,48.8029],[2.5231,48.7973]]}},{"type":"Feature","properties":{"name":"La Marne"},"geometry":{"type":"LineString","coordinates":[[2.5231,48.7973],[2.5238,48.7960],[2.5217,48.7906]]}},{"type":"Feature","properties":{"name":"La Marne"},"geometry":{"type":"LineString","coordinates":[[2.4911,48.8312],[2.4831,48.8315],[2.4759,48.8306],[2.4717,48.8292],[2.4684,48.8259]]}},{"type":"Feature","properties":{"name":"La Marne"},"geometry":{"type":"LineString","coordinates":[[2.4602,48.8094],[2.4550,48.8130]]}},{"type":"Feature","properties":{"name":"La Marne"},"geometry":{"type":"LineString","coordinates":[[2.4550,48.8130],[2.4497,48.8159],[2.4381,48.8168],[2.4274,48.8163]]}},{"type":"Feature","properties":{"name":"La Marne"},"geometry":{"type":"LineString","coordinates":[[2.5040,48.8308],[2.5048,48.8298]]}},{"type":"Feature","properties":{"name":"La Marne"},"geometry":{"type":"LineString","coordinates":[[2.4684,48.8259],[2.4693,48.8202]]}},{"type":"Feature","properties":{"name":"La Marne"},"geometry":{"type":"LineString","coordinates":[[2.5105,48.8292],[2.5048,48.8298]]}},{"type":"Feature","properties":{"name":"La Marne"},"geometry":{"type":"LineString","coordinates":[[2.5105,48.8292],[2.4977,48.8322],[2.4911,48.8312]]}},{"type":"Feature","properties":{"name":"La Marne"},"geometry":{"type":"LineString","coordinates":[[2.4712,48.7965],[2.4699,48.8001]]}},{"type":"Feature","properties":{"name":"La Marne"},"geometry":{"type":"LineString","coordinates":[[2.4802,48.8134],[2.4951,48.8107],[2.5032,48.8106]]}},{"type":"Feature","properties":{"name":"La Marne"},"geometry":{"type":"LineString","coordinates":[[2.4751,48.8152],[2.4802,48.8134]]}},{"type":"Feature","properties":{"name":"La Marne"},"geometry":{"type":"LineString","coordinates":[[2.4699,48.8001],[2.4677,48.8047],[2.4602,48.8094]]}},{"type":"Feature","properties":{"name":"La Marne"},"geometry":{"type":"LineString","coordinates":[[2.4214,48.8167],[2.4094,48.8166]]}},{"type":"Feature","properties":{"name":"La Marne"},"geometry":{"type":"LineString","coordinates":[[2.4274,48.8163],[2.4214,48.8167]]}},{"type":"Feature","properties":{"name":"La Marne"},"geometry":{"type":"LineString","coordinates":[[2.4759,48.7870],[2.4722,48.7907],[2.4712,48.7965]]}},{"type":"Feature","properties":{"name":"La Marne"},"geometry":{"type":"LineString","coordinates":[[2.5978,48.8667],[2.5896,48.8661],[2.5879,48.8651]]}},{"type":"Feature","properties":{"name":"La Marne"},"geometry":{"type":"LineString","coordinates":[[2.5231,48.7973],[2.5217,48.7906]]}},{"type":"Feature","properties":{"name":"La Marne"},"geometry":{"type":"LineString","coordinates":[[2.5217,48.7906],[2.5175,48.7866],[2.5097,48.7840],[2.5005,48.7848],[2.4869,48.7841],[2.4759,48.7870]]}},{"type":"Feature","properties":{"name":"La Marne"},"geometry":{"type":"LineString","coordinates":[[2.5702,48.8648],[2.5642,48.8624],[2.5677,48.8567],[2.5671,48.8553],[2.5614,48.8538],[2.5515,48.8546],[2.5444,48.8541]]}},{"type":"Feature","properties":{"name":"La Marne"},"geometry":{"type":"LineString","coordinates":[[2.5978,48.8667],[2.5879,48.8651]]}},{"type":"Feature","properties":{"name":"La Marne"},"geometry":{"type":"LineString","coordinates":[[2.5032,48.8106],[2.5102,48.8097]]}},{"type":"Feature","properties":{"name":"La Marne"},"geometry":{"type":"LineString","coordinates":[[2.5155,48.8512],[2.5119,48.8480],[2.5114,48.8450],[2.5131,48.8397],[2.5166,48.8368],[2.5176,48.8341],[2.5162,48.8315],[2.5105,48.8292]]}},{"type":"Feature","properties":{"name":"La Marne"},"geometry":{"type":"LineString","coordinates":[[2.5879,48.8651],[2.5753,48.8653]]}},{"type":"Feature","properties":{"name":"La Marne"},"geometry":{"type":"LineString","coordinates":[[2.5444,48.8541],[2.5402,48.8529],[2.5355,48.8537]]}},{"type":"Feature","properties":{"name":"La Marne"},"geometry":{"type":"LineString","coordinates":[[2.4678,48.8202],[2.4692,48.8188]]}},{"type":"Feature","properties":{"name":"La Marne"},"geometry":{"type":"LineString","coordinates":[[2.4693,48.8202],[2.4692,48.8188]]}},{"type":"Feature","properties":{"name":"La Marne"},"geometry":{"type":"LineString","coordinates":[[2.5753,48.8653],[2.5752,48.8654]]}},{"type":"Feature","properties":{"name":"La Marne"},"geometry":{"type":"LineString","coordinates":[[2.5869,48.8649],[2.5838,48.8655]]}},{"type":"Feature","properties":{"name":"La Marne"},"geometry":{"type":"LineString","coordinates":[[2.5752,48.8654],[2.5702,48.8648]]}},{"type":"Feature","properties":{"name":"La Marne"},"geometry":{"type":"LineString","coordinates":[[2.5355,48.8537],[2.5159,48.8513]]}},{"type":"Feature","properties":{"name":"La Marne"},"geometry":{"type":"LineString","coordinates":[[2.5157,48.8513],[2.5155,48.8512]]}},{"type":"Feature","properties":{"name":"La Marne"},"geometry":{"type":"LineString","coordinates":[[2.5159,48.8513],[2.5157,48.8513]]}},{"type":"Feature","properties":{"name":"Petit Bras de la Seine"},"geometry":{"type":"LineString","coordinates":[[2.3195,48.9159],[2.3219,48.9188],[2.3260,48.9206],[2.3294,48.9235],[2.3348,48.9292],[2.3370,48.9343],[2.3353,48.9411],[2.3323,48.9436],[2.3243,48.9460],[2.3001,48.9505],[2.2908,48.9511]]}},{"type":"Feature","properties":{"name":"La Seine"},"geometry":{"type":"LineString","coordinates":[[2.2801,48.9494],[2.2643,48.9447]]}},{"type":"Feature","properties":{"name":"La Seine"},"geometry":{"type":"LineString","coordinates":[[2.2875,48.9037],[2.2994,48.9096],[2.3137,48.9141]]}},{"type":"Feature","properties":{"name":"La Seine"},"geometry":{"type":"LineString","coordinates":[[2.3263,48.9176],[2.3298,48.9195]]}},{"type":"Feature","properties":{"name":"La Seine"},"geometry":{"type":"LineString","coordinates":[[2.3298,48.9195],[2.3409,48.9313],[2.3418,48.9359],[2.3395,48.9409]]}},{"type":"Feature","properties":{"name":"La Seine"},"geometry":{"type":"LineString","coordinates":[[2.3137,48.9141],[2.3195,48.9159]]}},{"type":"Feature","properties":{"name":"La Seine"},"geometry":{"type":"LineString","coordinates":[[2.3395,48.9409],[2.3348,48.9450],[2.3169,48.9496],[2.3021,48.9519],[2.2908,48.9511]]}},{"type":"Feature","properties":{"name":"La Seine"},"geometry":{"type":"LineString","coordinates":[[2.2807,48.9009],[2.2875,48.9037]]}},{"type":"Feature","properties":{"name":"La Seine"},"geometry":{"type":"LineString","coordinates":[[2.2643,48.9447],[2.2606,48.9432]]}},{"type":"Feature","properties":{"name":"La Seine"},"geometry":{"type":"LineString","coordinates":[[2.3195,48.9159],[2.3263,48.9176]]}},{"type":"Feature","properties":{"name":"La Seine"},"geometry":{"type":"LineString","coordinates":[[2.2808,48.9496],[2.2801,48.9494]]}},{"type":"Feature","properties":{"name":"La Seine"},"geometry":{"type":"LineString","coordinates":[[2.2908,48.9511],[2.2808,48.9496]]}}]}