{"type":"FeatureCollection","features":[{"type":"Feature","properties":{"name":"La Seine"},"geometry":{"type":"LineString","coordinates":[[2.1086,48.8997],[2.1090,48.9024],[2.1129,48.9055]]}},{"type":"Feature","properties":{"name":"La Seine"},"geometry":{"type":"LineString","coordinates":[[2.2007,48.9106],[2.1889,48.9059],[2.1810,48.9048],[2.1749,48.9028],[2.1676,48.8977]]}},{"type":"Feature","properties":{"name":"La Seine"},"geometry":{"type":"LineString","coordinates":[[2.1626,48.8921],[2.1545,48.8777],[2.1476,48.8724],[2.1410,48.8702],[2.1334,48.8704],[2.1295,48.8715]]}},{"type":"Feature","properties":{"name":"La Seine"},"geometry":{"type":"LineString","coordinates":[[2.1676,48.8977],[2.1641,48.8949],[2.1626,48.8921]]}},{"type":"Feature","properties":{"name":"La Seine"},"geometry":{"type":"LineString","coordinates":[[2.1086,48.8997],[2.1116,48.9019],[2.1129,48.9055]]}},{"type":"Feature","properties":{"name":"La Seine"},"geometry":{"type":"LineString","coordinates":[[2.1260,48.8733],[2.1163,48.8811],[2.1099,48.8880]]}},{"type":"Feature","properties":{"name":"La Seine"},"geometry":{"type":"LineString","coordinates":[[2.1099,48.8880],[2.1077,48.8922],[2.1086,48.8997]]}},{"type":"Feature","properties":{"name":"La Seine"},"geometry":{"type":"LineString","coordinates":[[2.2358,48.8728],[2.2433,48.8779],[2.2634,48.8949],[2.2709,48.8983],[2.2807,48.9009]]}},{"type":"Feature","properties":{"name":"Petit Bras de la Seine"},"geometry":{"type":"LineString","coordinates":[[2.2377,48.8711],[2.2428,48.8737],[2.2516,48.8817],[2.2568,48.8882],[2.2807,48.9009]]}},{"type":"Feature","properties":{"name":"Petit Bras de la Seine"},"geometry":{"type":"LineString","coordinates":[[2.2568,48.8882],[2.2569,48.8892]]}},{"type":"Feature","properties":{"name":"La Mauldre"},"geometry":{"type":"LineString","coordinates":[[1.8717,48.8806],[1.8716,48.8807]]}},{"type":"Feature","properties":{"name":"La Mauldre"},"geometry":{"type":"LineString","coordinates":[[1.8716,48.8807],[1.8710,48.8839],[1.8683,48.8843],[1.8671,48.8864],[1.8687,48.8888],[1.8675,48.8907],[1.8681,48.8927]]}},{"type":"Feature","properties":{"name":"La Mauldre"},"geometry":{"type":"LineString","coordinates":[[1.8747,48.8770],[1.8733,48.8790],[1.8721,48.8791],[1.8717,48.8806]]}},{"type":"Feature","properties":{"name":"La Mauldre"},"geometry":{"type":"LineString","coordinates":[[1.8674,48.8957],[1.8662,48.8964],[1.8663,48.8986],[1.8645,48.8995],[1.8633,48.9016],[1.8643,48.9024],[1.8632,48.9047],[1.8595,48.9067]]}},{"type":"Feature","properties":{"name":"La Mauldre"},"geometry":{"type":"LineString","coordinates":[[1.8681,48.8927],[1.8674,48.8957]]}},{"type":"Feature","properties":{"name":"La Seine - Bras de Marly"},"geometry":{"type":"LineString","coordinates":[[2.2035,48.9099],[2.1935,48.9051],[2.1762,48.9001],[2.1677,48.8944],[2.1634,48.8886],[2.1631,48.8865]]}},{"type":"Feature","properties":{"name":"La Seine - Bras de Marly"},"geometry":{"type":"LineString","coordinates":[[2.1240,48.8725],[2.1117,48.8811],[2.1099,48.8880]]}},{"type":"Feature","properties":{"name":"La Seine - Bras de Marly"},"geometry":{"type":"LineString","coordinates":[[2.1631,48.8865],[2.1636,48.8847]]}},{"type":"Feature","properties":{"name":"La Seine - Bras de Marly"},"geometry":{"type":"LineString","coordinates":[[2.1636,48.8847],[2.1629,48.8824],[2.1580,48.8804],[2.1525,48.8728],[2.1480,48.8693],[2.1403,48.8680],[2.1321,48.8690]]}},{"type":"Feature","properties":{"name":"La Seine - Bras de Marly"},"geometry":{"type":"LineString","coordinates":[[2.1631,48.8865],[2.1636,48.8847]]}},{"type":"Feature","properties":{"name":"L\u0027Aubette"},"geometry":{"type":"LineString","coordinates":[[1.7762,49.1518],[1.7690,49.1499],[1.7672,49.1483],[1.7647,49.1477],[1.7652,49.1466],[1.7560,49.1445]]}},{"type":"Feature","properties":{"name":"L\u0027Aubette"},"geometry":{"type":"LineString","coordinates":[[1.7940,49.1591],[1.7921,49.1593]]}},{"type":"Feature","properties":{"name":"L\u0027Aubette"},"geometry":{"type":"LineString","coordinates":[[1.7921,49.1593],[1.7918,49.1592]]}},{"type":"Feature","properties":{"name":"L\u0027Aubette"},"geometry":{"type":"LineString","coordinates":[[1.7870,49.1583],[1.7866,49.1579]]}},{"type":"Feature","properties":{"name":"L\u0027Aubette"},"geometry":{"type":"LineString","coordinates":[[1.7918,49.1592],[1.7860,49.1576]]}},{"type":"Feature","properties":{"name":"L\u0027Aubette"},"geometry":{"type":"LineString","coordinates":[[1.7870,49.1583],[1.7870,49.1583]]}},{"type":"Feature","properties":{"name":"L\u0027Aubette"},"geometry":{"type":"LineString","coordinates":[[1.7870,49.1583],[1.7870,49.1583]]}},{"type":"Feature","properties":{"name":"L\u0027Aubette"},"geometry":{"type":"LineString","coordinates":[[1.7947,49.1585],[1.7941,49.1591]]}},{"type":"Feature","properties":{"name":"L\u0027Aubette"},"geometry":{"type":"LineString","coordinates":[[1.7941,49.1591],[1.7940,49.1591]]}},{"type":"Feature","properties":{"name":"L\u0027Aubette"},"geometry":{"type":"LineString","coordinates":[[1.8023,49.1583],[1.8021,49.1582]]}},{"type":"Feature","properties":{"name":"L\u0027Aubette"},"geometry":{"type":"LineString","coordinates":[[1.8215,49.1636],[1.8164,49.1631],[1.8120,49.1601],[1.8075,49.1596]]}},{"type":"Feature","properties":{"name":"L\u0027Aubette"},"geometry":{"type":"LineString","coordinates":[[1.8391,49.1632],[1.8290,49.1626]]}},{"type":"Feature","properties":{"name":"L\u0027Aubette"},"geometry":{"type":"LineString","coordinates":[[1.7058,49.1504],[1.7058,49.1512],[1.6996,49.1530],[1.6948,49.1523],[1.6835,49.1494],[1.6781,49.1453],[1.6721,49.1440],[1.6714,49.1445]]}},{"type":"Feature","properties":{"name":"L\u0027Aubette"},"geometry":{"type":"LineString","coordinates":[[1.7303,49.1481],[1.7271,49.1486],[1.7190,49.1477],[1.7115,49.1493]]}},{"type":"Feature","properties":{"name":"L\u0027Aubette"},"geometry":{"type":"LineString","coordinates":[[1.7781,49.1524],[1.7762,49.1518]]}},{"type":"Feature","properties":{"name":"L\u0027Aubette"},"geometry":{"type":"LineString","coordinates":[[1.7786,49.1525],[1.7781,49.1524]]}},{"type":"Feature","properties":{"name":"L\u0027Aubette"},"geometry":{"type":"LineString","coordinates":[[1.7827,49.1554],[1.7786,49.1525]]}},{"type":"Feature","properties":{"name":"L\u0027Aubette"},"geometry":{"type":"LineString","coordinates":[[1.8021,49.1582],[1.8008,49.1575],[1.7964,49.1582]]}},{"type":"Feature","properties":{"name":"L\u0027Aubette"},"geometry":{"type":"LineString","coordinates":[[1.7964,49.1582],[1.7947,49.1585]]}},{"type":"Feature","properties":{"name":"L\u0027Aubette"},"geometry":{"type":"LineString","coordinates":[[1.8290,49.1626],[1.8215,49.1636]]}},{"type":"Feature","properties":{"name":"L\u0027Aubette"},"geometry":{"type":"LineString","coordinates":[[1.7103,49.1494],[1.7058,49.1504]]}},{"type":"Feature","properties":{"name":"L\u0027Aubette"},"geometry":{"type":"LineString","coordinates":[[1.6707,49.1444],[1.6661,49.1449],[1.6578,49.1488]]}},{"type":"Feature","properties":{"name":"L\u0027Aubette"},"geometry":{"type":"LineString","coordinates":[[1.6714,49.1445],[1.6707,49.1444]]}},{"type":"Feature","properties":{"name":"L\u0027Aubette"},"geometry":{"type":"LineString","coordinates":[[1.8075,49.1596],[1.8053,49.1589]]}},{"type":"Feature","properties":{"name":"L\u0027Aubette"},"geometry":{"type":"LineString","coordinates":[[1.7115,49.1493],[1.7103,49.1494]]}},{"type":"Feature","properties":{"name":"L\u0027Aubette"},"geometry":{"type":"LineString","coordinates":[[1.7560,49.1445],[1.7513,49.1438],[1.7414,49.1462],[1.7342,49.1464],[1.7330,49.1476],[1.7303,49.1481]]}},{"type":"Feature","properties":{"name":"L\u0027Aubette"},"geometry":{"type":"LineString","coordinates":[[1.7560,49.1445],[1.7560,49.1445]]}},{"type":"Feature","properties":{"name":"L\u0027Aubette"},"geometry":{"type":"LineString","coordinates":[[1.7866,49.1579],[1.7866,49.1579]]}},{"type":"Feature","properties":{"name":"La Nonette"},"geometry":{"type":"LineString","coordinates":[[2.4254,49.1990],[2.4225,49.1986]]}},{"type":"Feature","properties":{"name":"La Nonette"},"geometry":{"type":"LineString","coordinates":[[2.4291,49.1979],[2.4254,49.1990]]}},{"type":"Feature","properties":{"name":"La Nonette"},"geometry":{"type":"LineString","coordinates":[[2.4308,49.1974],[2.4291,49.1979]]}},{"type":"Feature","properties":{"name":"La Nonette"},"geometry":{"type":"LineString","coordinates":[[2.4355,49.1962],[2.4316,49.1972]]}},{"type":"Feature","properties":{"name":"La Nonette"},"geometry":{"type":"LineString","coordinates":[[2.4387,49.1948],[2.4380,49.1964],[2.4355,49.1962]]}},{"type":"Feature","properties":{"name":"La Nonette"},"geometry":{"type":"LineString","coordinates":[[2.5077,49.1953],[2.5011,49.1959],[2.4990,49.1951],[2.4794,49.1990],[2.4386,49.1961]]}},{"type":"Feature","properties":{"name":"La Nonette"},"geometry":{"type":"LineString","coordinates":[[2.5146,49.1968],[2.5078,49.1953]]}},{"type":"Feature","properties":{"name":"La Nonette"},"geometry":{"type":"LineString","coordinates":[[2.5341,49.1975],[2.5331,49.1975]]}},{"type":"Feature","properties":{"name":"La Nonette"},"geometry":{"type":"LineString","coordinates":[[2.6821,49.1718],[2.6805,49.1757],[2.6757,49.1771],[2.6743,49.1794],[2.6661,49.1781],[2.6591,49.1810],[2.6561,49.1810],[2.6479,49.1847],[2.6410,49.1903],[2.6382,49.1913],[2.6301,49.1912],[2.6268,49.1925],[2.6224,49.1901],[2.6164,49.1888],[2.6161,49.1870],[2.6152,49.1869],[2.6139,49.1915],[2.6107,49.1930],[2.6058,49.1975]]}},{"type":"Feature","properties":{"name":"La Nonette"},"geometry":{"type":"LineString","coordinates":[[2.3999,49.2025],[2.3999,49.2039]]}},{"type":"Feature","properties":{"name":"La Nonette"},"geometry":{"type":"LineString","coordinates":[[2.4183,49.1972],[2.4180,49.1970]]}},{"type":"Feature","properties":{"name":"La Nonette"},"geometry":{"type":"LineString","coordinates":[[2.4225,49.1986],[2.4210,49.1987],[2.4183,49.1972]]}},{"type":"Feature","properties":{"name":"La Nonette"},"geometry":{"type":"LineString","coordinates":[[2.4138,49.1931],[2.4126,49.1937],[2.4099,49.1923],[2.4081,49.1926],[2.4046,49.1952],[2.4033,49.1950],[2.4013,49.1989],[2.4029,49.1992],[2.4022,49.1997],[2.4029,49.2003],[2.3998,49.2023]]}},{"type":"Feature","properties":{"name":"La Nonette"},"geometry":{"type":"LineString","coordinates":[[2.4188,49.1974],[2.4183,49.1972]]}},{"type":"Feature","properties":{"name":"La Nonette"},"geometry":{"type":"LineString","coordinates":[[2.3998,49.2023],[2.3999,49.2025]]}},{"type":"Feature","properties":{"name":"La Nonette"},"geometry":{"type":"LineString","coordinates":[[2.4316,49.1972],[2.4308,49.1974]]}},{"type":"Feature","properties":{"name":"La Nonette"},"geometry":{"type":"LineString","coordinates":[[2.5160,49.1967],[2.5146,49.1968]]}},{"type":"Feature","properties":{"name":"La Nonette"},"geometry":{"type":"LineString","coordinates":[[2.5078,49.1953],[2.5077,49.1953]]}},{"type":"Feature","properties":{"name":"La Nonette"},"geometry":{"type":"LineString","coordinates":[[2.5907,49.2022],[2.5837,49.2025]]}},{"type":"Feature","properties":{"name":"La Nonette"},"geometry":{"type":"LineString","coordinates":[[2.5913,49.2023],[2.5907,49.2022]]}},{"type":"Feature","properties":{"name":"La Nonette"},"geometry":{"type":"LineString","coordinates":[[2.5921,49.2022],[2.5919,49.2022]]}},{"type":"Feature","properties":{"name":"La Nonette"},"geometry":{"type":"LineString","coordinates":[[2.5919,49.2022],[2.5913,49.2023]]}},{"type":"Feature","properties":{"name":"La Nonette"},"geometry":{"type":"LineString","coordinates":[[2.4318,49.1972],[2.4305,49.1955],[2.4295,49.1956],[2.4254,49.1990]]}},{"type":"Feature","properties":{"name":"La Nonette"},"geometry":{"type":"LineString","coordinates":[[2.5324,49.1970],[2.5160,49.1967]]}},{"type":"Feature","properties":{"name":"La Nonette"},"geometry":{"type":"LineString","coordinates":[[2.5341,49.1975],[2.5324,49.1970]]}},{"type":"Feature","properties":{"name":"La Nonette"},"geometry":{"type":"LineString","coordinates":[[2.5331,49.1975],[2.5324,49.1972]]}},{"type":"Feature","properties":{"name":"La Nonette"},"geometry":{"type":"LineString","coordinates":[[2.5324,49.1972],[2.5324,49.1970]]}},{"type":"Feature","properties":{"name":"La Nonette"},"geometry":{"type":"LineString","coordinates":[[2.5821,49.2028],[2.5819,49.2029]]}},{"type":"Feature","properties":{"name":"La Nonette"},"geometry":{"type":"LineString","coordinates":[[2.5819,49.2029],[2.5782,49.2035],[2.5758,49.2024],[2.5709,49.2024],[2.5670,49.2015],[2.5647,49.1999],[2.5632,49.2005],[2.5592,49.1990],[2.5477,49.1992],[2.5455,49.1974],[2.5341,49.1975]]}},{"type":"Feature","properties":{"name":"La Nonette"},"geometry":{"type":"LineString","coordinates":[[2.4180,49.1970],[2.4162,49.1948],[2.4169,49.1926]]}},{"type":"Feature","properties":{"name":"La Nonette"},"geometry":{"type":"LineString","coordinates":[[2.5693,49.2019],[2.5682,49.2016]]}},{"type":"Feature","properties":{"name":"La Nonette"},"geometry":{"type":"LineString","coordinates":[[2.5779,49.2032],[2.5767,49.2030]]}},{"type":"Feature","properties":{"name":"La Nonette"},"geometry":{"type":"LineString","coordinates":[[2.5771,49.2031],[2.5771,49.2030]]}},{"type":"Feature","properties":{"name":"La Nonette"},"geometry":{"type":"LineString","coordinates":[[2.5910,49.2015],[2.5888,49.2018]]}},{"type":"Feature","properties":{"name":"La Nonette"},"geometry":{"type":"LineString","coordinates":[[2.5918,49.2022],[2.5911,49.2014]]}},{"type":"Feature","properties":{"name":"La Nonette"},"geometry":{"type":"LineString","coordinates":[[2.5911,49.2014],[2.5910,49.2015]]}},{"type":"Feature","properties":{"name":"La Nonette"},"geometry":{"type":"LineString","coordinates":[[2.6038,49.1982],[2.5982,49.1987],[2.5917,49.2010]]}},{"type":"Feature","properties":{"name":"La Nonette"},"geometry":{"type":"LineString","coordinates":[[2.5915,49.2009],[2.5834,49.2023]]}},{"type":"Feature","properties":{"name":"La Nonette"},"geometry":{"type":"LineString","coordinates":[[2.5917,49.2010],[2.5915,49.2009]]}},{"type":"Feature","properties":{"name":"La Nonette"},"geometry":{"type":"LineString","coordinates":[[2.6047,49.1979],[2.5985,49.2009],[2.5923,49.2023]]}},{"type":"Feature","properties":{"name":"La Nonette"},"geometry":{"type":"LineString","coordinates":[[2.6058,49.1975],[2.6047,49.1979]]}},{"type":"Feature","properties":{"name":"La Nonette"},"geometry":{"type":"LineString","coordinates":[[2.5829,49.2028],[2.5821,49.2028]]}},{"type":"Feature","properties":{"name":"La Nonette"},"geometry":{"type":"LineString","coordinates":[[2.5835,49.2026],[2.5829,49.2028]]}},{"type":"Feature","properties":{"name":"La Nonette"},"geometry":{"type":"LineString","coordinates":[[2.5837,49.2025],[2.5835,49.2026]]}},{"type":"Feature","properties":{"name":"La Nonette"},"geometry":{"type":"LineString","coordinates":[[2.5923,49.2023],[2.5922,49.2023]]}},{"type":"Feature","properties":{"name":"La Nonette"},"geometry":{"type":"LineString","coordinates":[[2.5922,49.2023],[2.5921,49.2022]]}},{"type":"Feature","properties":{"name":"La Nonette"},"geometry":{"type":"LineString","coordinates":[[2.4143,49.1926],[2.4143,49.1927]]}},{"type":"Feature","properties":{"name":"La Nonette"},"geometry":{"type":"LineString","coordinates":[[2.4143,49.1924],[2.4143,49.1925]]}},{"type":"Feature","properties":{"name":"La Nonette"},"geometry":{"type":"LineString","coordinates":[[2.4143,49.1925],[2.4143,49.1926]]}},{"type":"Feature","properties":{"name":"La Seine - Bras de Marly"},"geometry":{"type":"LineString","coordinates":[[2.2078,48.9117],[2.2035,48.9099]]}},{"type":"Feature","properties":{"name":"La Seine - Bras de Marly"},"geometry":{"type":"LineString","coordinates":[[2.2141,48.9166],[2.2078,48.9117]]}},{"type":"Feature","properties":{"name":"L’Esches"},"geometry":{"type":"LineString","coordinates":[[2.2710,49.1452],[2.2738,49.1422]]}},{"type":"Feature","properties":{"name":"L’Esches"},"geometry":{"type":"LineString","coordinates":[[2.2675,49.1479],[2.2695,49.1456],[2.2707,49.1458]]}},{"type":"Feature","properties":{"name":"L’Esches"},"geometry":{"type":"LineString","coordinates":[[2.2649,49.1515],[2.2675,49.1479]]}},{"type":"Feature","properties":{"name":"L’Esches"},"geometry":{"type":"LineString","coordinates":[[2.2643,49.1525],[2.2649,49.1515]]}},{"type":"Feature","properties":{"name":"L’Esches"},"geometry":{"type":"LineString","coordinates":[[2.2612,49.1551],[2.2643,49.1525]]}},{"type":"Feature","properties":{"name":"L’Esches"},"geometry":{"type":"LineString","coordinates":[[2.2608,49.1554],[2.2610,49.1552]]}},{"type":"Feature","properties":{"name":"L’Esches"},"geometry":{"type":"LineString","coordinates":[[2.2607,49.1554],[2.2608,49.1554]]}},{"type":"Feature","properties":{"name":"L’Esches"},"geometry":{"type":"LineString","coordinates":[[2.2599,49.1561],[2.2607,49.1554]]}},{"type":"Feature","properties":{"name":"L’Esches"},"geometry":{"type":"LineString","coordinates":[[2.2588,49.1574],[2.2599,49.1561]]}},{"type":"Feature","properties":{"name":"L’Esches"},"geometry":{"type":"LineString","coordinates":[[2.2570,49.1584],[2.2588,49.1574]]}},{"type":"Feature","properties":{"name":"L’Esches"},"geometry":{"type":"LineString","coordinates":[[2.2495,49.1617],[2.2570,49.1584]]}},{"type":"Feature","properties":{"name":"L’Esches"},"geometry":{"type":"LineString","coordinates":[[2.2469,49.1633],[2.2495,49.1617]]}},{"type":"Feature","properties":{"name":"L’Esches"},"geometry":{"type":"LineString","coordinates":[[2.2434,49.1660],[2.2459,49.1649],[2.2468,49.1634]]}},{"type":"Feature","properties":{"name":"L’Esches"},"geometry":{"type":"LineString","coordinates":[[2.2405,49.1680],[2.2434,49.1660]]}},{"type":"Feature","properties":{"name":"L’Esches"},"geometry":{"type":"LineString","coordinates":[[2.2377,49.1685],[2.2405,49.1680]]}},{"type":"Feature","properties":{"name":"L’Esches"},"geometry":{"type":"LineString","coordinates":[[2.2346,49.1719],[2.2364,49.1708],[2.2371,49.1687]]}},{"type":"Feature","properties":{"name":"L’Esches"},"geometry":{"type":"LineString","coordinates":[[2.2339,49.1727],[2.2346,49.1719]]}},{"type":"Feature","properties":{"name":"L’Esches"},"geometry":{"type":"LineString","coordinates":[[2.2307,49.1772],[2.2320,49.1753]]}},{"type":"Feature","properties":{"name":"L’Esches"},"geometry":{"type":"LineString","coordinates":[[2.2323,49.1750],[2.2339,49.1727]]}},{"type":"Feature","properties":{"name":"L’Esches"},"geometry":{"type":"LineString","coordinates":[[2.2320,49.1753],[2.2323,49.1750]]}},{"type":"Feature","properties":{"name":"L’Esches"},"geometry":{"type":"LineString","coordinates":[[2.2371,49.1687],[2.2375,49.1685]]}},{"type":"Feature","properties":{"name":"L’Esches"},"geometry":{"type":"LineString","coordinates":[[2.2707,49.1458],[2.2710,49.1452]]}},{"type":"Feature","properties":{"name":"L’Esches"},"geometry":{"type":"LineString","coordinates":[[2.2468,49.1634],[2.2469,49.1633]]}},{"type":"Feature","properties":{"name":"L’Esches"},"geometry":{"type":"LineString","coordinates":[[2.2375,49.1685],[2.2377,49.1685]]}},{"type":"Feature","properties":{"name":"L’Esches"},"geometry":{"type":"LineString","coordinates":[[2.2610,49.1552],[2.2612,49.1551]]}},{"type":"Feature","properties":{"name":"L’Esches"},"geometry":{"type":"LineString","coordinates":[[2.2738,49.1422],[2.2743,49.1416]]}},{"type":"Feature","properties":{"name":"L\u0027Aunette"},"geometry":{"type":"LineString","coordinates":[[2.5983,49.2146],[2.5951,49.2133]]}},{"type":"Feature","properties":{"name":"L\u0027Aunette"},"geometry":{"type":"LineString","coordinates":[[2.5951,49.2133],[2.5940,49.2134]]}},{"type":"Feature","properties":{"name":"L\u0027Aunette"},"geometry":{"type":"LineString","coordinates":[[2.6024,49.2142],[2.6008,49.2130],[2.5986,49.2147]]}},{"type":"Feature","properties":{"name":"L\u0027Aunette"},"geometry":{"type":"LineString","coordinates":[[2.6012,49.2131],[2.5993,49.2141]]}},{"type":"Feature","properties":{"name":"L\u0027Aunette"},"geometry":{"type":"LineString","coordinates":[[2.6018,49.2134],[2.5988,49.2144]]}},{"type":"Feature","properties":{"name":"L\u0027Aunette"},"geometry":{"type":"LineString","coordinates":[[2.6022,49.2139],[2.5987,49.2145]]}},{"type":"Feature","properties":{"name":"La Mauldre"},"geometry":{"type":"LineString","coordinates":[[1.8344,48.9421],[1.8355,48.9440],[1.8338,48.9455]]}},{"type":"Feature","properties":{"name":"La Mauldre"},"geometry":{"type":"LineString","coordinates":[[1.8424,48.9293],[1.8441,48.9303],[1.8436,48.9332]]}},{"type":"Feature","properties":{"name":"La Mauldre"},"geometry":{"type":"LineString","coordinates":[[1.8363,48.9397],[1.8344,48.9421]]}},{"type":"Feature","properties":{"name":"La Mauldre"},"geometry":{"type":"LineString","coordinates":[[1.8338,48.9455],[1.8314,48.9477],[1.8317,48.9484],[1.8278,48.9544]]}},{"type":"Feature","properties":{"name":"La Mauldre"},"geometry":{"type":"LineString","coordinates":[[1.8477,48.9235],[1.8420,48.9284]]}},{"type":"Feature","properties":{"name":"La Mauldre"},"geometry":{"type":"LineString","coordinates":[[1.8420,48.9284],[1.8424,48.9292]]}},{"type":"Feature","properties":{"name":"La Mauldre"},"geometry":{"type":"LineString","coordinates":[[1.8436,48.9332],[1.8384,48.9349],[1.8363,48.9397]]}},{"type":"Feature","properties":{"name":"La Mauldre"},"geometry":{"type":"LineString","coordinates":[[1.8278,48.9544],[1.8219,48.9635],[1.8238,48.9665],[1.8219,48.9753],[1.8176,48.9745],[1.8143,48.9726],[1.8123,48.9728]]}},{"type":"Feature","properties":{"name":"La Mauldre"},"geometry":{"type":"LineString","coordinates":[[1.8487,48.9227],[1.8477,48.9235]]}},{"type":"Feature","properties":{"name":"La Mauldre"},"geometry":{"type":"LineString","coordinates":[[1.8489,48.9225],[1.8487,48.9227]]}},{"type":"Feature","properties":{"name":"La Mauldre"},"geometry":{"type":"LineString","coordinates":[[1.8595,48.9067],[1.8560,48.9087],[1.8535,48.9081],[1.8510,48.9107]]}},{"type":"Feature","properties":{"name":"La Mauldre"},"geometry":{"type":"LineString","coordinates":[[1.8510,48.9107],[1.8491,48.9117],[1.8472,48.9160],[1.8494,48.9212],[1.8489,48.9225]]}},{"type":"Feature","properties":{"name":"La Mauldre"},"geometry":{"type":"LineString","coordinates":[[1.8424,48.9292],[1.8424,48.9293]]}},{"type":"Feature","properties":{"name":"La Mauldre"},"geometry":{"type":"LineString","coordinates":[[1.8486,48.9138],[1.8484,48.9155],[1.8472,48.9160]]}},{"type":"Feature","properties":{"name":"Le Thérain"},"geometry":{"type":"LineString","coordinates":[[2.4091,49.2550],[2.4277,49.2552],[2.4312,49.2544]]}},{"type":"Feature","properties":{"name":"Le Thérain"},"geometry":{"type":"LineString","coordinates":[[2.4461,49.2540],[2.4464,49.2535]]}},{"type":"Feature","properties":{"name":"Le Thérain"},"geometry":{"type":"LineString","coordinates":[[2.4219,49.2554],[2.4257,49.2559],[2.4276,49.2552]]}},{"type":"Feature","properties":{"name":"Le Thérain"},"geometry":{"type":"LineString","coordinates":[[2.4135,49.2545],[2.4166,49.2540]]}},{"type":"Feature","properties":{"name":"Le Thérain"},"geometry":{"type":"LineString","coordinates":[[2.4367,49.2548],[2.4433,49.2528],[2.4463,49.2535],[2.4475,49.2510],[2.4528,49.2483],[2.4501,49.2402]]}},{"type":"Feature","properties":{"name":"Le Thérain"},"geometry":{"type":"LineString","coordinates":[[2.3064,49.3323],[2.3073,49.3303],[2.3108,49.3302],[2.3115,49.3297],[2.3111,49.3283],[2.3140,49.3277],[2.3154,49.3257],[2.3190,49.3252],[2.3209,49.3225],[2.3200,49.3217],[2.3206,49.3206],[2.3264,49.3192],[2.3256,49.3180],[2.3276,49.3170],[2.3286,49.3175],[2.3299,49.3135],[2.3315,49.3146],[2.3326,49.3141],[2.3319,49.3135],[2.3339,49.3124],[2.3308,49.3113],[2.3318,49.3106],[2.3320,49.3066],[2.3329,49.3058],[2.3345,49.3061],[2.3348,49.3035],[2.3371,49.3042],[2.3446,49.2996],[2.3479,49.2942],[2.3501,49.2940],[2.3488,49.2922],[2.3508,49.2920],[2.3515,49.2909],[2.3539,49.2914],[2.3550,49.2900],[2.3568,49.2909],[2.3573,49.2891],[2.3612,49.2859],[2.3650,49.2849],[2.3642,49.2797],[2.3630,49.2793],[2.3631,49.2734],[2.3621,49.2715],[2.3638,49.2711],[2.3645,49.2697],[2.3640,49.2675],[2.3707,49.2661],[2.3713,49.2646],[2.3771,49.2621],[2.3807,49.2624],[2.3806,49.2612],[2.3819,49.2603],[2.3933,49.2588],[2.3986,49.2592],[2.4076,49.2543],[2.4111,49.2551],[2.4155,49.2536],[2.4214,49.2547],[2.4262,49.2538],[2.4312,49.2544]]}},{"type":"Feature","properties":{"name":"Le Thérain"},"geometry":{"type":"LineString","coordinates":[[2.4312,49.2544],[2.4330,49.2552],[2.4376,49.2548]]}},{"type":"Feature","properties":{"name":"La Viosne"},"geometry":{"type":"LineString","coordinates":[[2.0300,49.0740],[2.0310,49.0731],[2.0311,49.0702],[2.0352,49.0698],[2.0372,49.0681]]}},{"type":"Feature","properties":{"name":"La Viosne"},"geometry":{"type":"LineString","coordinates":[[2.0372,49.0681],[2.0373,49.0680]]}},{"type":"Feature","properties":{"name":"La Viosne"},"geometry":{"type":"LineString","coordinates":[[2.0673,49.0622],[2.0722,49.0615],[2.0741,49.0598],[2.0732,49.0585]]}},{"type":"Feature","properties":{"name":"La Viosne"},"geometry":{"type":"LineString","coordinates":[[2.0501,49.0649],[2.0504,49.0649]]}},{"type":"Feature","properties":{"name":"La Viosne"},"geometry":{"type":"LineString","coordinates":[[2.0373,49.0680],[2.0427,49.0652],[2.0461,49.0657],[2.0501,49.0649]]}},{"type":"Feature","properties":{"name":"La Viosne"},"geometry":{"type":"LineString","coordinates":[[1.9366,49.1609],[1.9363,49.1604]]}},{"type":"Feature","properties":{"name":"La Viosne"},"geometry":{"type":"LineString","coordinates":[[1.9316,49.1767],[1.9344,49.1745],[1.9348,49.1705],[1.9361,49.1694]]}},{"type":"Feature","properties":{"name":"La Viosne"},"geometry":{"type":"LineString","coordinates":[[1.9361,49.1600],[1.9352,49.1581]]}},{"type":"Feature","properties":{"name":"La Viosne"},"geometry":{"type":"LineString","coordinates":[[1.9362,49.1466],[1.9363,49.1463]]}},{"type":"Feature","properties":{"name":"La Viosne"},"geometry":{"type":"LineString","coordinates":[[1.9707,49.1013],[1.9744,49.0994],[1.9748,49.0964],[1.9735,49.0944],[1.9750,49.0932],[1.9788,49.0926]]}},{"type":"Feature","properties":{"name":"La Viosne"},"geometry":{"type":"LineString","coordinates":[[1.9641,49.1130],[1.9671,49.1113],[1.9662,49.1084],[1.9672,49.1046],[1.9681,49.1042],[1.9688,49.1020],[1.9707,49.1013]]}},{"type":"Feature","properties":{"name":"La Viosne"},"geometry":{"type":"LineString","coordinates":[[2.0504,49.0649],[2.0578,49.0643],[2.0586,49.0634],[2.0626,49.0638],[2.0632,49.0624],[2.0647,49.0622]]}},{"type":"Feature","properties":{"name":"La Viosne"},"geometry":{"type":"LineString","coordinates":[[1.9641,49.1130],[1.9641,49.1130]]}},{"type":"Feature","properties":{"name":"La Viosne"},"geometry":{"type":"LineString","coordinates":[[1.9368,49.1444],[1.9377,49.1439]]}},{"type":"Feature","properties":{"name":"La Viosne"},"geometry":{"type":"LineString","coordinates":[[1.9363,49.1463],[1.9368,49.1444]]}},{"type":"Feature","properties":{"name":"La Viosne"},"geometry":{"type":"LineString","coordinates":[[1.9363,49.1604],[1.9363,49.1603]]}},{"type":"Feature","properties":{"name":"La Viosne"},"geometry":{"type":"LineString","coordinates":[[1.9789,49.0926],[1.9796,49.0924]]}},{"type":"Feature","properties":{"name":"La Viosne"},"geometry":{"type":"LineString","coordinates":[[1.9827,49.0916],[1.9829,49.0916]]}},{"type":"Feature","properties":{"name":"La Viosne"},"geometry":{"type":"LineString","coordinates":[[1.9817,49.0917],[1.9819,49.0917]]}},{"type":"Feature","properties":{"name":"La Viosne"},"geometry":{"type":"LineString","coordinates":[[1.9819,49.0917],[1.9827,49.0916]]}},{"type":"Feature","properties":{"name":"La Viosne"},"geometry":{"type":"LineString","coordinates":[[1.9796,49.0924],[1.9796,49.0923]]}},{"type":"Feature","properties":{"name":"La Viosne"},"geometry":{"type":"LineString","coordinates":[[1.9796,49.0923],[1.9817,49.0917]]}},{"type":"Feature","properties":{"name":"La Viosne"},"geometry":{"type":"LineString","coordinates":[[1.9856,49.0883],[1.9856,49.0882]]}},{"type":"Feature","properties":{"name":"La Viosne"},"geometry":{"type":"LineString","coordinates":[[1.9856,49.0882],[1.9858,49.0866],[1.9935,49.0850],[1.9991,49.0798],[2.0028,49.0791]]}},{"type":"Feature","properties":{"name":"La Viosne"},"geometry":{"type":"LineString","coordinates":[[1.9829,49.0916],[1.9867,49.0889],[1.9856,49.0883]]}},{"type":"Feature","properties":{"name":"La Viosne"},"geometry":{"type":"LineString","coordinates":[[1.9788,49.0926],[1.9789,49.0926]]}},{"type":"Feature","properties":{"name":"La Viosne"},"geometry":{"type":"LineString","coordinates":[[1.9196,49.1883],[1.9206,49.1884]]}},{"type":"Feature","properties":{"name":"La Viosne"},"geometry":{"type":"LineString","coordinates":[[1.9156,49.1897],[1.9196,49.1883]]}},{"type":"Feature","properties":{"name":"La Viosne"},"geometry":{"type":"LineString","coordinates":[[2.0152,49.0776],[2.0235,49.0741],[2.0294,49.0741]]}},{"type":"Feature","properties":{"name":"La Viosne"},"geometry":{"type":"LineString","coordinates":[[2.0775,49.0539],[2.0861,49.0527],[2.0893,49.0506],[2.0893,49.0496]]}},{"type":"Feature","properties":{"name":"La Viosne"},"geometry":{"type":"LineString","coordinates":[[2.0671,49.0621],[2.0673,49.0622]]}},{"type":"Feature","properties":{"name":"La Viosne"},"geometry":{"type":"LineString","coordinates":[[2.0647,49.0622],[2.0671,49.0621]]}},{"type":"Feature","properties":{"name":"La Viosne"},"geometry":{"type":"LineString","coordinates":[[2.0893,49.0496],[2.0911,49.0478]]}},{"type":"Feature","properties":{"name":"La Viosne"},"geometry":{"type":"LineString","coordinates":[[2.0893,49.0496],[2.0893,49.0496]]}},{"type":"Feature","properties":{"name":"La Viosne"},"geometry":{"type":"LineString","coordinates":[[2.0911,49.0478],[2.0941,49.0460]]}},{"type":"Feature","properties":{"name":"La Viosne"},"geometry":{"type":"LineString","coordinates":[[2.0981,49.0443],[2.0965,49.0404]]}},{"type":"Feature","properties":{"name":"La Viosne"},"geometry":{"type":"LineString","coordinates":[[2.0966,49.0403],[2.0971,49.0402]]}},{"type":"Feature","properties":{"name":"La Viosne"},"geometry":{"type":"LineString","coordinates":[[1.9411,49.1366],[1.9438,49.1347],[1.9448,49.1323],[1.9499,49.1294],[1.9503,49.1285],[1.9490,49.1252],[1.9520,49.1192],[1.9641,49.1130]]}},{"type":"Feature","properties":{"name":"La Viosne"},"geometry":{"type":"LineString","coordinates":[[2.0941,49.0460],[2.0983,49.0448]]}},{"type":"Feature","properties":{"name":"La Viosne"},"geometry":{"type":"LineString","coordinates":[[1.9352,49.1581],[1.9354,49.1576]]}},{"type":"Feature","properties":{"name":"La Viosne"},"geometry":{"type":"LineString","coordinates":[[1.9354,49.1576],[1.9369,49.1549],[1.9399,49.1526],[1.9399,49.1514],[1.9363,49.1491],[1.9362,49.1466]]}},{"type":"Feature","properties":{"name":"La Viosne"},"geometry":{"type":"LineString","coordinates":[[1.9377,49.1439],[1.9368,49.1432],[1.9372,49.1392],[1.9411,49.1366]]}},{"type":"Feature","properties":{"name":"La Viosne"},"geometry":{"type":"LineString","coordinates":[[1.9363,49.1603],[1.9361,49.1600]]}},{"type":"Feature","properties":{"name":"La Viosne"},"geometry":{"type":"LineString","coordinates":[[2.0983,49.0448],[2.0981,49.0443]]}},{"type":"Feature","properties":{"name":"La Viosne"},"geometry":{"type":"LineString","coordinates":[[2.0033,49.0791],[2.0058,49.0794],[2.0117,49.0775],[2.0152,49.0776]]}},{"type":"Feature","properties":{"name":"La Viosne"},"geometry":{"type":"LineString","coordinates":[[2.0028,49.0791],[2.0033,49.0791]]}},{"type":"Feature","properties":{"name":"La Viosne"},"geometry":{"type":"LineString","coordinates":[[2.0766,49.0550],[2.0775,49.0539]]}},{"type":"Feature","properties":{"name":"La Viosne"},"geometry":{"type":"LineString","coordinates":[[2.0765,49.0550],[2.0766,49.0550]]}},{"type":"Feature","properties":{"name":"La Viosne"},"geometry":{"type":"LineString","coordinates":[[2.0732,49.0585],[2.0735,49.0567]]}},{"type":"Feature","properties":{"name":"La Viosne"},"geometry":{"type":"LineString","coordinates":[[2.0735,49.0567],[2.0765,49.0550]]}},{"type":"Feature","properties":{"name":"La Viosne"},"geometry":{"type":"LineString","coordinates":[[2.0646,49.0622],[2.0671,49.0621]]}},{"type":"Feature","properties":{"name":"La Viosne"},"geometry":{"type":"LineString","coordinates":[[1.9383,49.1674],[1.9378,49.1620],[1.9366,49.1609]]}},{"type":"Feature","properties":{"name":"La Viosne"},"geometry":{"type":"LineString","coordinates":[[1.9361,49.1694],[1.9395,49.1691],[1.9383,49.1674]]}},{"type":"Feature","properties":{"name":"La Viosne"},"geometry":{"type":"LineString","coordinates":[[1.9316,49.1768],[1.9316,49.1767]]}},{"type":"Feature","properties":{"name":"La Viosne"},"geometry":{"type":"LineString","coordinates":[[1.9206,49.1884],[1.9221,49.1879],[1.9215,49.1866],[1.9227,49.1853],[1.9316,49.1803],[1.9316,49.1768]]}},{"type":"Feature","properties":{"name":"La Liesse"},"geometry":{"type":"LineString","coordinates":[[2.1330,49.0351],[2.1273,49.0367],[2.1263,49.0387]]}},{"type":"Feature","properties":{"name":"La Liesse"},"geometry":{"type":"LineString","coordinates":[[2.1227,49.0428],[2.1228,49.0423]]}},{"type":"Feature","properties":{"name":"La Liesse"},"geometry":{"type":"LineString","coordinates":[[2.1259,49.0427],[2.1227,49.0428]]}},{"type":"Feature","properties":{"name":"La Liesse"},"geometry":{"type":"LineString","coordinates":[[2.1172,49.0479],[2.1133,49.0474]]}},{"type":"Feature","properties":{"name":"La Liesse"},"geometry":{"type":"LineString","coordinates":[[2.1098,49.0504],[2.1091,49.0509]]}},{"type":"Feature","properties":{"name":"La Liesse"},"geometry":{"type":"LineString","coordinates":[[2.1091,49.0509],[2.1090,49.0509]]}},{"type":"Feature","properties":{"name":"La Liesse"},"geometry":{"type":"LineString","coordinates":[[2.1262,49.0399],[2.1272,49.0420],[2.1259,49.0427]]}},{"type":"Feature","properties":{"name":"La Liesse"},"geometry":{"type":"LineString","coordinates":[[2.1263,49.0387],[2.1262,49.0399]]}},{"type":"Feature","properties":{"name":"La Liesse"},"geometry":{"type":"LineString","coordinates":[[2.1158,49.0488],[2.1121,49.0513],[2.1110,49.0516],[2.1099,49.0504]]}},{"type":"Feature","properties":{"name":"La Liesse"},"geometry":{"type":"LineString","coordinates":[[2.1191,49.0456],[2.1190,49.0458]]}},{"type":"Feature","properties":{"name":"La Liesse"},"geometry":{"type":"LineString","coordinates":[[2.1189,49.0459],[2.1190,49.0460]]}},{"type":"Feature","properties":{"name":"La Liesse"},"geometry":{"type":"LineString","coordinates":[[2.1190,49.0458],[2.1189,49.0469]]}},{"type":"Feature","properties":{"name":"La Liesse"},"geometry":{"type":"LineString","coordinates":[[2.1189,49.0469],[2.1177,49.0476]]}},{"type":"Feature","properties":{"name":"La Liesse"},"geometry":{"type":"LineString","coordinates":[[2.1098,49.0498],[2.1097,49.0499]]}},{"type":"Feature","properties":{"name":"La Liesse"},"geometry":{"type":"LineString","coordinates":[[2.1105,49.0489],[2.1104,49.0491]]}},{"type":"Feature","properties":{"name":"La Liesse"},"geometry":{"type":"LineString","coordinates":[[2.1104,49.0491],[2.1098,49.0498]]}},{"type":"Feature","properties":{"name":"La Liesse"},"geometry":{"type":"LineString","coordinates":[[2.1099,49.0504],[2.1098,49.0504]]}},{"type":"Feature","properties":{"name":"La Liesse"},"geometry":{"type":"LineString","coordinates":[[2.1097,49.0499],[2.1099,49.0504]]}},{"type":"Feature","properties":{"name":"La Liesse"},"geometry":{"type":"LineString","coordinates":[[2.1222,49.0421],[2.1200,49.0436],[2.1191,49.0456]]}},{"type":"Feature","properties":{"name":"La Liesse"},"geometry":{"type":"LineString","coordinates":[[2.1228,49.0423],[2.1222,49.0421]]}},{"type":"Feature","properties":{"name":"La Liesse"},"geometry":{"type":"LineString","coordinates":[[2.1133,49.0474],[2.1131,49.0476]]}},{"type":"Feature","properties":{"name":"La Liesse"},"geometry":{"type":"LineString","coordinates":[[2.1131,49.0476],[2.1105,49.0489]]}},{"type":"Feature","properties":{"name":"La Liesse"},"geometry":{"type":"LineString","coordinates":[[2.1177,49.0476],[2.1175,49.0477]]}},{"type":"Feature","properties":{"name":"La Liesse"},"geometry":{"type":"LineString","coordinates":[[2.1159,49.0487],[2.1158,49.0488]]}},{"type":"Feature","properties":{"name":"La Liesse"},"geometry":{"type":"LineString","coordinates":[[2.1175,49.0477],[2.1159,49.0487]]}},{"type":"Feature","properties":{"name":"La Liesse"},"geometry":{"type":"LineString","coordinates":[[2.1090,49.0509],[2.1087,49.0511]]}},{"type":"Feature","properties":{"name":"L\u0027Oise"},"geometry":{"type":"LineString","coordinates":[[2.3622,49.1538],[2.3592,49.1497]]}},{"type":"Feature","properties":{"name":"L\u0027Oise"},"geometry":{"type":"LineString","coordinates":[[2.3401,49.1465],[2.3327,49.1428],[2.3281,49.1419],[2.3242,49.1445],[2.3205,49.1491]]}},{"type":"Feature","properties":{"name":"L\u0027Oise"},"geometry":{"type":"LineString","coordinates":[[2.4534,49.2448],[2.4528,49.2427],[2.4501,49.2402]]}},{"type":"Feature","properties":{"name":"L\u0027Oise"},"geometry":{"type":"LineString","coordinates":[[2.3568,49.1463],[2.3533,49.1448],[2.2966,49.1518],[2.2897,49.1490],[2.2842,49.1449],[2.2710,49.1405]]}},{"type":"Feature","properties":{"name":"L\u0027Oise"},"geometry":{"type":"LineString","coordinates":[[2.3622,49.1538],[2.3618,49.1499],[2.3593,49.1471],[2.3568,49.1463]]}},{"type":"Feature","properties":{"name":"L\u0027Oise"},"geometry":{"type":"LineString","coordinates":[[2.0553,49.0390],[2.0514,49.0413],[2.0469,49.0407],[2.0415,49.0373],[2.0382,49.0339],[2.0364,49.0316],[2.0367,49.0300],[2.0431,49.0227],[2.0673,49.0064],[2.0708,49.0030],[2.0720,49.0004],[2.0714,48.9952],[2.0723,48.9913],[2.0707,48.9857]]}},{"type":"Feature","properties":{"name":"L\u0027Oise"},"geometry":{"type":"LineString","coordinates":[[2.5105,49.2824],[2.5079,49.2794],[2.5000,49.2772],[2.4963,49.2750],[2.4888,49.2656],[2.4856,49.2641],[2.4759,49.2622]]}},{"type":"Feature","properties":{"name":"L\u0027Oise"},"geometry":{"type":"LineString","coordinates":[[2.2670,49.1389],[2.2622,49.1339],[2.2582,49.1319],[2.2365,49.1311],[2.2220,49.1275],[2.2194,49.1263],[2.2160,49.1228]]}},{"type":"Feature","properties":{"name":"L\u0027Oise"},"geometry":{"type":"LineString","coordinates":[[2.2089,49.1085],[2.2098,49.0970],[2.2089,49.0924],[2.2053,49.0854],[2.1954,49.0749],[2.1906,49.0726],[2.1787,49.0699],[2.1693,49.0642],[2.1596,49.0646],[2.1486,49.0669],[2.1380,49.0667]]}},{"type":"Feature","properties":{"name":"L\u0027Oise"},"geometry":{"type":"LineString","coordinates":[[2.1035,49.0488],[2.1022,49.0483]]}},{"type":"Feature","properties":{"name":"L\u0027Oise"},"geometry":{"type":"LineString","coordinates":[[2.1022,49.0483],[2.0986,49.0425]]}},{"type":"Feature","properties":{"name":"L\u0027Oise"},"geometry":{"type":"LineString","coordinates":[[2.0966,49.0383],[2.0937,49.0321]]}},{"type":"Feature","properties":{"name":"L\u0027Oise"},"geometry":{"type":"LineString","coordinates":[[2.4423,49.2304],[2.4321,49.2248],[2.4290,49.2190],[2.4229,49.2137],[2.4212,49.2092],[2.4147,49.2052],[2.4027,49.2035],[2.3933,49.2046],[2.3784,49.2028],[2.3722,49.2015],[2.3691,49.1998],[2.3677,49.1976],[2.3682,49.1956],[2.3665,49.1917],[2.3671,49.1897],[2.3711,49.1848],[2.3708,49.1794],[2.3651,49.1653],[2.3640,49.1577],[2.3622,49.1538]]}},{"type":"Feature","properties":{"name":"L\u0027Oise"},"geometry":{"type":"LineString","coordinates":[[2.0977,49.0413],[2.0966,49.0383]]}},{"type":"Feature","properties":{"name":"L\u0027Oise"},"geometry":{"type":"LineString","coordinates":[[2.1108,49.0527],[2.1035,49.0488]]}},{"type":"Feature","properties":{"name":"L\u0027Oise"},"geometry":{"type":"LineString","coordinates":[[2.2160,49.1228],[2.2120,49.1200],[2.2112,49.1158]]}},{"type":"Feature","properties":{"name":"L\u0027Oise"},"geometry":{"type":"LineString","coordinates":[[2.2122,49.1158],[2.2105,49.1102],[2.2089,49.1085]]}},{"type":"Feature","properties":{"name":"L\u0027Oise"},"geometry":{"type":"LineString","coordinates":[[2.4440,49.2323],[2.4423,49.2304]]}},{"type":"Feature","properties":{"name":"L\u0027Oise"},"geometry":{"type":"LineString","coordinates":[[2.4501,49.2402],[2.4440,49.2323]]}},{"type":"Feature","properties":{"name":"L\u0027Oise"},"geometry":{"type":"LineString","coordinates":[[2.4440,49.2323],[2.4423,49.2304]]}},{"type":"Feature","properties":{"name":"L\u0027Oise"},"geometry":{"type":"LineString","coordinates":[[2.4536,49.2466],[2.4534,49.2448]]}},{"type":"Feature","properties":{"name":"L\u0027Oise"},"geometry":{"type":"LineString","coordinates":[[2.4561,49.2511],[2.4536,49.2466]]}},{"type":"Feature","properties":{"name":"L\u0027Oise"},"geometry":{"type":"LineString","coordinates":[[2.4581,49.2531],[2.4561,49.2511]]}},{"type":"Feature","properties":{"name":"L\u0027Oise"},"geometry":{"type":"LineString","coordinates":[[2.4581,49.2531],[2.4561,49.2511]]}},{"type":"Feature","properties":{"name":"L\u0027Oise"},"geometry":{"type":"LineString","coordinates":[[2.4719,49.2616],[2.4581,49.2531]]}},{"type":"Feature","properties":{"name":"L\u0027Oise"},"geometry":{"type":"LineString","coordinates":[[2.4759,49.2622],[2.4719,49.2616]]}},{"type":"Feature","properties":{"name":"L\u0027Oise"},"geometry":{"type":"LineString","coordinates":[[2.4759,49.2622],[2.4719,49.2616]]}},{"type":"Feature","properties":{"name":"L\u0027Oise"},"geometry":{"type":"LineString","coordinates":[[2.0980,49.0391],[2.0964,49.0375]]}},{"type":"Feature","properties":{"name":"L\u0027Oise"},"geometry":{"type":"LineString","coordinates":[[2.0985,49.0397],[2.0964,49.0375]]}},{"type":"Feature","properties":{"name":"L\u0027Oise"},"geometry":{"type":"LineString","coordinates":[[2.0986,49.0425],[2.0977,49.0413]]}},{"type":"Feature","properties":{"name":"L\u0027Oise"},"geometry":{"type":"LineString","coordinates":[[2.2112,49.1158],[2.2095,49.1127],[2.2089,49.1085]]}},{"type":"Feature","properties":{"name":"L\u0027Oise"},"geometry":{"type":"LineString","coordinates":[[2.2053,49.0854],[2.2030,49.0833]]}},{"type":"Feature","properties":{"name":"L\u0027Oise"},"geometry":{"type":"LineString","coordinates":[[2.2303,49.1293],[2.2225,49.1285],[2.2199,49.1266]]}},{"type":"Feature","properties":{"name":"L\u0027Oise"},"geometry":{"type":"LineString","coordinates":[[2.2710,49.1405],[2.2670,49.1389]]}},{"type":"Feature","properties":{"name":"L\u0027Oise"},"geometry":{"type":"LineString","coordinates":[[2.2710,49.1405],[2.2670,49.1389]]}},{"type":"Feature","properties":{"name":"L\u0027Oise"},"geometry":{"type":"LineString","coordinates":[[2.2710,49.1405],[2.2670,49.1389]]}},{"type":"Feature","properties":{"name":"L\u0027Oise"},"geometry":{"type":"LineString","coordinates":[[2.1596,49.0646],[2.1561,49.0641],[2.1519,49.0655],[2.1405,49.0665]]}},{"type":"Feature","properties":{"name":"L\u0027Oise"},"geometry":{"type":"LineString","coordinates":[[2.1350,49.0672],[2.1314,49.0665],[2.1192,49.0597],[2.1108,49.0527]]}},{"type":"Feature","properties":{"name":"L\u0027Oise"},"geometry":{"type":"LineString","coordinates":[[2.1380,49.0667],[2.1350,49.0672]]}},{"type":"Feature","properties":{"name":"L\u0027Oise"},"geometry":{"type":"LineString","coordinates":[[2.1380,49.0667],[2.1350,49.0672]]}},{"type":"Feature","properties":{"name":"L\u0027Oise"},"geometry":{"type":"LineString","coordinates":[[2.0688,49.0219],[2.0637,49.0271],[2.0600,49.0295],[2.0553,49.0390]]}},{"type":"Feature","properties":{"name":"L\u0027Oise"},"geometry":{"type":"LineString","coordinates":[[2.0808,49.0190],[2.0749,49.0196],[2.0688,49.0219]]}},{"type":"Feature","properties":{"name":"L\u0027Oise"},"geometry":{"type":"LineString","coordinates":[[2.0858,49.0199],[2.0808,49.0190]]}},{"type":"Feature","properties":{"name":"L\u0027Oise"},"geometry":{"type":"LineString","coordinates":[[2.0937,49.0321],[2.0905,49.0239],[2.0882,49.0207],[2.0858,49.0199]]}},{"type":"Feature","properties":{"name":"L\u0027Oise"},"geometry":{"type":"LineString","coordinates":[[2.0858,49.0199],[2.0808,49.0190]]}},{"type":"Feature","properties":{"name":"Ru de Pouilly"},"geometry":{"type":"LineString","coordinates":[[1.9926,49.2396],[1.9918,49.2386],[1.9922,49.2366],[1.9955,49.2291]]}},{"type":"Feature","properties":{"name":"Ru de Pouilly"},"geometry":{"type":"LineString","coordinates":[[1.9946,49.2417],[1.9938,49.2406]]}},{"type":"Feature","properties":{"name":"Ru de Pouilly"},"geometry":{"type":"LineString","coordinates":[[2.0024,49.2443],[1.9947,49.2417]]}},{"type":"Feature","properties":{"name":"Ru de Pouilly"},"geometry":{"type":"LineString","coordinates":[[2.0064,49.2462],[2.0024,49.2444]]}},{"type":"Feature","properties":{"name":"Ru de Pouilly"},"geometry":{"type":"LineString","coordinates":[[2.0168,49.2568],[2.0149,49.2543],[2.0135,49.2493],[2.0126,49.2491]]}},{"type":"Feature","properties":{"name":"Ru de Pouilly"},"geometry":{"type":"LineString","coordinates":[[2.0169,49.2570],[2.0169,49.2569]]}},{"type":"Feature","properties":{"name":"Ru de Pouilly"},"geometry":{"type":"LineString","coordinates":[[1.9933,49.2403],[1.9926,49.2397]]}},{"type":"Feature","properties":{"name":"Ru de Pouilly"},"geometry":{"type":"LineString","coordinates":[[1.9951,49.2287],[1.9917,49.2264]]}},{"type":"Feature","properties":{"name":"Ru de Pouilly"},"geometry":{"type":"LineString","coordinates":[[1.9954,49.2289],[1.9952,49.2288]]}},{"type":"Feature","properties":{"name":"Ru de Pouilly"},"geometry":{"type":"LineString","coordinates":[[1.9955,49.2291],[1.9954,49.2289]]}},{"type":"Feature","properties":{"name":"Ru de Pouilly"},"geometry":{"type":"LineString","coordinates":[[1.9952,49.2288],[1.9951,49.2287]]}},{"type":"Feature","properties":{"name":"L\u0027Epte"},"geometry":{"type":"LineString","coordinates":[[1.6693,49.1858],[1.6671,49.1810],[1.6646,49.1781],[1.6661,49.1758]]}},{"type":"Feature","properties":{"name":"L\u0027Epte"},"geometry":{"type":"LineString","coordinates":[[1.7026,49.2314],[1.7039,49.2305],[1.7028,49.2300],[1.7040,49.2290],[1.6988,49.2262],[1.6985,49.2244],[1.6916,49.2236],[1.6910,49.2210],[1.6884,49.2184],[1.6861,49.2181],[1.6847,49.2166],[1.6775,49.2136],[1.6764,49.2126],[1.6770,49.2119],[1.6741,49.2119],[1.6742,49.2089]]}},{"type":"Feature","properties":{"name":"L\u0027Epte"},"geometry":{"type":"LineString","coordinates":[[1.6693,49.1858],[1.6709,49.1845],[1.6717,49.1807],[1.6673,49.1797],[1.6675,49.1777],[1.6660,49.1768],[1.6702,49.1695],[1.6646,49.1658],[1.6630,49.1594],[1.6606,49.1574],[1.6645,49.1535],[1.6595,49.1515],[1.6585,49.1491],[1.6558,49.1485],[1.6560,49.1474],[1.6530,49.1447],[1.6526,49.1407],[1.6532,49.1397],[1.6564,49.1402],[1.6563,49.1380],[1.6584,49.1349],[1.6568,49.1340],[1.6579,49.1320],[1.6558,49.1313],[1.6557,49.1301],[1.6527,49.1293],[1.6525,49.1276],[1.6505,49.1272],[1.6498,49.1251],[1.6466,49.1241],[1.6466,49.1215],[1.6425,49.1167],[1.6398,49.1168],[1.6325,49.1122],[1.6330,49.1108],[1.6297,49.1101],[1.6297,49.1074],[1.6266,49.1044],[1.6271,49.1026],[1.6214,49.1007],[1.6214,49.0981],[1.6185,49.0968],[1.6186,49.0958],[1.6143,49.0906],[1.6135,49.0881],[1.6074,49.0878],[1.6047,49.0858],[1.6029,49.0861],[1.6030,49.0846],[1.5979,49.0840],[1.5956,49.0823],[1.5940,49.0827]]}},{"type":"Feature","properties":{"name":"L\u0027Epte"},"geometry":{"type":"LineString","coordinates":[[1.5940,49.0827],[1.5805,49.0796],[1.5787,49.0782],[1.5770,49.0788],[1.5730,49.0782],[1.5728,49.0775]]}},{"type":"Feature","properties":{"name":"L\u0027Epte"},"geometry":{"type":"LineString","coordinates":[[1.7545,49.2701],[1.7537,49.2686],[1.7507,49.2674],[1.7494,49.2689],[1.7481,49.2679],[1.7475,49.2690],[1.7434,49.2682],[1.7363,49.2703],[1.7314,49.2676],[1.7301,49.2660],[1.7260,49.2647],[1.7088,49.2647],[1.7082,49.2638],[1.7096,49.2625],[1.7065,49.2615],[1.7076,49.2609],[1.7084,49.2579],[1.7078,49.2553],[1.7042,49.2536]]}},{"type":"Feature","properties":{"name":"L\u0027Epte"},"geometry":{"type":"LineString","coordinates":[[1.7042,49.2536],[1.7011,49.2526],[1.7012,49.2509],[1.6986,49.2472],[1.6990,49.2454],[1.7013,49.2439],[1.7023,49.2404],[1.7011,49.2397],[1.7018,49.2379],[1.7003,49.2375],[1.6989,49.2352],[1.7044,49.2324]]}},{"type":"Feature","properties":{"name":"L\u0027Epte"},"geometry":{"type":"LineString","coordinates":[[1.6990,49.2483],[1.6988,49.2482]]}},{"type":"Feature","properties":{"name":"L\u0027Epte"},"geometry":{"type":"LineString","coordinates":[[1.6988,49.2482],[1.6986,49.2472]]}},{"type":"Feature","properties":{"name":"L\u0027Epte"},"geometry":{"type":"LineString","coordinates":[[1.6992,49.2485],[1.6990,49.2483]]}},{"type":"Feature","properties":{"name":"L\u0027Epte"},"geometry":{"type":"LineString","coordinates":[[1.6751,49.2070],[1.6776,49.2055]]}},{"type":"Feature","properties":{"name":"L\u0027Epte"},"geometry":{"type":"LineString","coordinates":[[1.7038,49.2319],[1.7026,49.2314]]}},{"type":"Feature","properties":{"name":"L\u0027Epte"},"geometry":{"type":"LineString","coordinates":[[1.6776,49.2052],[1.6772,49.2051]]}},{"type":"Feature","properties":{"name":"L\u0027Epte"},"geometry":{"type":"LineString","coordinates":[[1.6526,49.1414],[1.6549,49.1412],[1.6551,49.1404]]}},{"type":"Feature","properties":{"name":"L\u0027Epte"},"geometry":{"type":"LineString","coordinates":[[1.6742,49.2089],[1.6765,49.2058],[1.6764,49.2039]]}},{"type":"Feature","properties":{"name":"L\u0027Epte"},"geometry":{"type":"LineString","coordinates":[[1.6764,49.2039],[1.6769,49.2027],[1.6750,49.1971],[1.6706,49.1933],[1.6715,49.1913],[1.6691,49.1872],[1.6693,49.1858]]}},{"type":"Feature","properties":{"name":"L\u0027Epte"},"geometry":{"type":"LineString","coordinates":[[1.7038,49.2319],[1.7026,49.2314]]}},{"type":"Feature","properties":{"name":"L\u0027Epte"},"geometry":{"type":"LineString","coordinates":[[1.7044,49.2324],[1.7038,49.2319]]}},{"type":"Feature","properties":{"name":"L\u0027Epte"},"geometry":{"type":"LineString","coordinates":[[1.6776,49.2055],[1.6776,49.2054]]}},{"type":"Feature","properties":{"name":"L\u0027Epte"},"geometry":{"type":"LineString","coordinates":[[1.6776,49.2055],[1.6776,49.2052]]}},{"type":"Feature","properties":{"name":"L\u0027Epte"},"geometry":{"type":"LineString","coordinates":[[1.6776,49.2054],[1.6766,49.2053]]}},{"type":"Feature","properties":{"name":"La Vaucouleurs"},"geometry":{"type":"LineString","coordinates":[[1.7087,48.9622],[1.7092,48.9656],[1.7135,48.9688],[1.7133,48.9723]]}},{"type":"Feature","properties":{"name":"La Vaucouleurs"},"geometry":{"type":"LineString","coordinates":[[1.7171,48.9762],[1.7179,48.9765]]}},{"type":"Feature","properties":{"name":"La Vaucouleurs"},"geometry":{"type":"LineString","coordinates":[[1.7141,48.9687],[1.7168,48.9753]]}},{"type":"Feature","properties":{"name":"La Vaucouleurs"},"geometry":{"type":"LineString","coordinates":[[1.7165,48.9748],[1.7170,48.9757]]}},{"type":"Feature","properties":{"name":"La Vaucouleurs"},"geometry":{"type":"LineString","coordinates":[[1.7162,48.9761],[1.7167,48.9761]]}},{"type":"Feature","properties":{"name":"La Vaucouleurs"},"geometry":{"type":"LineString","coordinates":[[1.7161,48.9759],[1.7162,48.9761]]}},{"type":"Feature","properties":{"name":"La Vaucouleurs"},"geometry":{"type":"LineString","coordinates":[[1.7179,48.9765],[1.7182,48.9768]]}},{"type":"Feature","properties":{"name":"La Vaucouleurs"},"geometry":{"type":"LineString","coordinates":[[1.7182,48.9768],[1.7183,48.9769]]}},{"type":"Feature","properties":{"name":"La Vaucouleurs"},"geometry":{"type":"LineString","coordinates":[[1.7183,48.9769],[1.7183,48.9770]]}},{"type":"Feature","properties":{"name":"La Vaucouleurs"},"geometry":{"type":"LineString","coordinates":[[1.7167,48.9761],[1.7171,48.9762]]}},{"type":"Feature","properties":{"name":"La Vaucouleurs"},"geometry":{"type":"LineString","coordinates":[[1.7211,48.9787],[1.7235,48.9802],[1.7238,48.9816],[1.7282,48.9823]]}},{"type":"Feature","properties":{"name":"La Vaucouleurs"},"geometry":{"type":"LineString","coordinates":[[1.7208,48.9786],[1.7211,48.9787]]}},{"type":"Feature","properties":{"name":"La Vaucouleurs"},"geometry":{"type":"LineString","coordinates":[[1.7199,48.9780],[1.7204,48.9782]]}},{"type":"Feature","properties":{"name":"La Vaucouleurs"},"geometry":{"type":"LineString","coordinates":[[1.7204,48.9782],[1.7208,48.9786]]}},{"type":"Feature","properties":{"name":"La Vaucouleurs"},"geometry":{"type":"LineString","coordinates":[[1.6918,48.9272],[1.6923,48.9276]]}},{"type":"Feature","properties":{"name":"La Vaucouleurs"},"geometry":{"type":"LineString","coordinates":[[1.6915,48.9354],[1.6944,48.9386],[1.6939,48.9395],[1.6948,48.9423],[1.6972,48.9432],[1.6965,48.9444]]}},{"type":"Feature","properties":{"name":"La Vaucouleurs"},"geometry":{"type":"LineString","coordinates":[[1.7104,48.9618],[1.7103,48.9651],[1.7141,48.9687],[1.7161,48.9759]]}},{"type":"Feature","properties":{"name":"La Vaucouleurs"},"geometry":{"type":"LineString","coordinates":[[1.6965,48.9444],[1.6966,48.9463],[1.6978,48.9475],[1.6994,48.9475],[1.7018,48.9499],[1.7079,48.9523],[1.7101,48.9555],[1.7104,48.9613]]}},{"type":"Feature","properties":{"name":"La Vaucouleurs"},"geometry":{"type":"LineString","coordinates":[[1.7157,48.9773],[1.7192,48.9799]]}},{"type":"Feature","properties":{"name":"La Vaucouleurs"},"geometry":{"type":"LineString","coordinates":[[1.7154,48.9770],[1.7157,48.9773]]}},{"type":"Feature","properties":{"name":"La Vaucouleurs"},"geometry":{"type":"LineString","coordinates":[[1.7133,48.9725],[1.7148,48.9761]]}},{"type":"Feature","properties":{"name":"La Vaucouleurs"},"geometry":{"type":"LineString","coordinates":[[1.7148,48.9761],[1.7149,48.9763]]}},{"type":"Feature","properties":{"name":"La Vaucouleurs"},"geometry":{"type":"LineString","coordinates":[[1.7133,48.9723],[1.7133,48.9725]]}},{"type":"Feature","properties":{"name":"La Vaucouleurs"},"geometry":{"type":"LineString","coordinates":[[1.7149,48.9763],[1.7154,48.9770]]}},{"type":"Feature","properties":{"name":"La Vaucouleurs"},"geometry":{"type":"LineString","coordinates":[[1.7170,48.9757],[1.7172,48.9760]]}},{"type":"Feature","properties":{"name":"La Vaucouleurs"},"geometry":{"type":"LineString","coordinates":[[1.7172,48.9760],[1.7175,48.9761]]}},{"type":"Feature","properties":{"name":"La Vaucouleurs"},"geometry":{"type":"LineString","coordinates":[[1.7183,48.9770],[1.7199,48.9780]]}},{"type":"Feature","properties":{"name":"La Troesne"},"geometry":{"type":"LineString","coordinates":[[1.8995,49.2501],[1.8852,49.2643]]}},{"type":"Feature","properties":{"name":"La Troesne"},"geometry":{"type":"LineString","coordinates":[[1.9326,49.2369],[1.9027,49.2470],[1.8994,49.2486],[1.8995,49.2501]]}},{"type":"Feature","properties":{"name":"La Troesne"},"geometry":{"type":"LineString","coordinates":[[1.9508,49.2283],[1.9447,49.2327],[1.9326,49.2369]]}},{"type":"Feature","properties":{"name":"La Troesne"},"geometry":{"type":"LineString","coordinates":[[1.9668,49.2260],[1.9508,49.2283]]}},{"type":"Feature","properties":{"name":"Petit Bras de la Seine"},"geometry":{"type":"LineString","coordinates":[[2.3195,48.9159],[2.3219,48.9188],[2.3260,48.9206],[2.3294,48.9235],[2.3348,48.9292],[2.3370,48.9343],[2.3353,48.9411],[2.3323,48.9436],[2.3243,48.9460],[2.3001,48.9505],[2.2908,48.9511]]}},{"type":"Feature","properties":{"name":"La Seine"},"geometry":{"type":"LineString","coordinates":[[2.0028,48.9731],[2.0007,48.9797],[1.9970,48.9845],[1.9657,49.0009],[1.9565,49.0045],[1.9406,49.0067],[1.9317,49.0058],[1.8607,48.9887],[1.8375,48.9848],[1.8157,48.9763]]}},{"type":"Feature","properties":{"name":"La Seine"},"geometry":{"type":"LineString","coordinates":[[2.2801,48.9494],[2.2643,48.9447]]}},{"type":"Feature","properties":{"name":"La Seine"},"geometry":{"type":"LineString","coordinates":[[1.8157,48.9763],[1.8115,48.9724],[1.7999,48.9694],[1.7922,48.9700]]}},{"type":"Feature","properties":{"name":"La Seine"},"geometry":{"type":"LineString","coordinates":[[2.0609,48.9770],[2.0585,48.9752]]}},{"type":"Feature","properties":{"name":"La Seine"},"geometry":{"type":"LineString","coordinates":[[2.0610,48.9766],[2.0585,48.9752]]}},{"type":"Feature","properties":{"name":"La Seine"},"geometry":{"type":"LineString","coordinates":[[1.6941,49.0660],[1.6816,49.0728],[1.6746,49.0750],[1.6572,49.0785],[1.6320,49.0791],[1.6140,49.0707],[1.6103,49.0675],[1.6082,49.0630],[1.6033,49.0572],[1.5928,49.0489],[1.5746,49.0375],[1.5624,49.0349],[1.5446,49.0394],[1.5411,49.0409],[1.5327,49.0474],[1.5244,49.0645],[1.5048,49.0842],[1.4878,49.0958],[1.4773,49.1002],[1.4739,49.1031],[1.4683,49.1107],[1.4506,49.1195],[1.4383,49.1289],[1.4241,49.1378],[1.4225,49.1397],[1.4210,49.1462],[1.4108,49.1540],[1.4057,49.1602]]}},{"type":"Feature","properties":{"name":"La Seine"},"geometry":{"type":"LineString","coordinates":[[1.6133,49.0223],[1.6156,49.0249]]}},{"type":"Feature","properties":{"name":"La Seine"},"geometry":{"type":"LineString","coordinates":[[1.6156,49.0249],[1.6211,49.0302]]}},{"type":"Feature","properties":{"name":"La Seine"},"geometry":{"type":"LineString","coordinates":[[2.1129,48.9055],[2.1199,48.9177],[2.1269,48.9253],[2.1754,48.9553],[2.1783,48.9596],[2.1780,48.9630],[2.1803,48.9680],[2.1795,48.9701],[2.1739,48.9782],[2.1687,48.9822],[2.1634,48.9848],[2.1543,48.9865],[2.1442,48.9900],[2.1299,48.9898],[2.1226,48.9917],[2.1113,48.9906],[2.0952,48.9909],[2.0868,48.9898],[2.0707,48.9857]]}},{"type":"Feature","properties":{"name":"La Seine"},"geometry":{"type":"LineString","coordinates":[[2.2875,48.9037],[2.2994,48.9096],[2.3137,48.9141]]}},{"type":"Feature","properties":{"name":"La Seine"},"geometry":{"type":"LineString","coordinates":[[2.3263,48.9176],[2.3298,48.9195]]}},{"type":"Feature","properties":{"name":"La Seine"},"geometry":{"type":"LineString","coordinates":[[1.6612,49.0434],[1.6721,49.0484],[1.6824,49.0505],[1.6907,49.0540],[1.6961,49.0608],[1.6959,49.0634],[1.6941,49.0660]]}},{"type":"Feature","properties":{"name":"La Seine"},"geometry":{"type":"LineString","coordinates":[[2.0659,48.9814],[2.0631,48.9799]]}},{"type":"Feature","properties":{"name":"La Seine"},"geometry":{"type":"LineString","coordinates":[[1.6946,49.0093],[1.6709,49.0082],[1.6513,49.0049],[1.6370,49.0041],[1.6220,49.0076],[1.6157,49.0104],[1.6120,49.0168],[1.6133,49.0223]]}},{"type":"Feature","properties":{"name":"La Seine"},"geometry":{"type":"LineString","coordinates":[[2.0385,48.9362],[2.0235,48.9301]]}},{"type":"Feature","properties":{"name":"La Seine"},"geometry":{"type":"LineString","coordinates":[[2.0385,48.9362],[2.0322,48.9318],[2.0235,48.9301]]}},{"type":"Feature","properties":{"name":"La Seine"},"geometry":{"type":"LineString","coordinates":[[2.0585,48.9752],[2.0550,48.9716],[2.0534,48.9666],[2.0498,48.9615],[2.0475,48.9492],[2.0385,48.9362]]}},{"type":"Feature","properties":{"name":"La Seine"},"geometry":{"type":"LineString","coordinates":[[2.3298,48.9195],[2.3409,48.9313],[2.3418,48.9359],[2.3395,48.9409]]}},{"type":"Feature","properties":{"name":"La Seine"},"geometry":{"type":"LineString","coordinates":[[2.3137,48.9141],[2.3195,48.9159]]}},{"type":"Feature","properties":{"name":"La Seine"},"geometry":{"type":"LineString","coordinates":[[2.0707,48.9857],[2.0659,48.9814]]}},{"type":"Feature","properties":{"name":"La Seine"},"geometry":{"type":"LineString","coordinates":[[2.3395,48.9409],[2.3348,48.9450],[2.3169,48.9496],[2.3021,48.9519],[2.2908,48.9511]]}},{"type":"Feature","properties":{"name":"La Seine"},"geometry":{"type":"LineString","coordinates":[[2.2807,48.9009],[2.2875,48.9037]]}},{"type":"Feature","properties":{"name":"La Seine"},"geometry":{"type":"LineString","coordinates":[[2.2606,48.9432],[2.2337,48.9290],[2.2141,48.9166]]}},{"type":"Feature","properties":{"name":"La Seine"},"geometry":{"type":"LineString","coordinates":[[2.0618,48.9788],[2.0599,48.9770]]}},{"type":"Feature","properties":{"name":"La Seine"},"geometry":{"type":"LineString","coordinates":[[2.0700,48.9852],[2.0646,48.9839],[2.0575,48.9774],[2.0479,48.9664],[2.0467,48.9621]]}},{"type":"Feature","properties":{"name":"La Seine"},"geometry":{"type":"LineString","coordinates":[[2.0631,48.9799],[2.0618,48.9788]]}},{"type":"Feature","properties":{"name":"La Seine"},"geometry":{"type":"LineString","coordinates":[[2.0599,48.9770],[2.0585,48.9752]]}},{"type":"Feature","properties":{"name":"La Seine"},"geometry":{"type":"LineString","coordinates":[[1.6612,49.0434],[1.6823,49.0473],[1.6938,49.0522],[1.6980,49.0562],[1.6995,49.0607],[1.6982,49.0631],[1.6941,49.0660]]}},{"type":"Feature","properties":{"name":"La Seine"},"geometry":{"type":"LineString","coordinates":[[1.6231,49.0315],[1.6336,49.0359],[1.6508,49.0393],[1.6612,49.0434]]}},{"type":"Feature","properties":{"name":"La Seine"},"geometry":{"type":"LineString","coordinates":[[1.6211,49.0302],[1.6231,49.0315]]}},{"type":"Feature","properties":{"name":"La Seine"},"geometry":{"type":"LineString","coordinates":[[1.7922,48.9700],[1.7776,48.9664],[1.7565,48.9668],[1.7492,48.9686],[1.7402,48.9729],[1.7297,48.9806]]}},{"type":"Feature","properties":{"name":"La Seine"},"geometry":{"type":"LineString","coordinates":[[1.8157,48.9763],[1.7922,48.9700]]}},{"type":"Feature","properties":{"name":"La Seine"},"geometry":{"type":"LineString","coordinates":[[1.7273,48.9848],[1.7141,49.0002],[1.7099,49.0038],[1.6989,49.0089],[1.6946,49.0093]]}},{"type":"Feature","properties":{"name":"La Seine"},"geometry":{"type":"LineString","coordinates":[[1.7297,48.9806],[1.7273,48.9848]]}},{"type":"Feature","properties":{"name":"La Seine"},"geometry":{"type":"LineString","coordinates":[[1.7297,48.9806],[1.7273,48.9848]]}},{"type":"Feature","properties":{"name":"La Seine"},"geometry":{"type":"LineString","coordinates":[[2.0021,48.9455],[2.0023,48.9595],[2.0032,48.9639],[2.0028,48.9731]]}},{"type":"Feature","properties":{"name":"La Seine"},"geometry":{"type":"LineString","coordinates":[[2.0235,48.9301],[2.0142,48.9314],[2.0097,48.9337],[2.0060,48.9369],[2.0021,48.9455]]}},{"type":"Feature","properties":{"name":"La Seine"},"geometry":{"type":"LineString","coordinates":[[2.0021,48.9455],[1.9989,48.9495],[1.9994,48.9592],[1.9982,48.9631],[1.9992,48.9681],[2.0028,48.9731]]}},{"type":"Feature","properties":{"name":"La Seine"},"geometry":{"type":"LineString","coordinates":[[2.2643,48.9447],[2.2606,48.9432]]}},{"type":"Feature","properties":{"name":"La Seine"},"geometry":{"type":"LineString","coordinates":[[2.2056,48.9133],[2.2007,48.9106]]}},{"type":"Feature","properties":{"name":"La Seine"},"geometry":{"type":"LineString","coordinates":[[2.2141,48.9166],[2.2056,48.9133]]}},{"type":"Feature","properties":{"name":"La Seine"},"geometry":{"type":"LineString","coordinates":[[2.3195,48.9159],[2.3263,48.9176]]}},{"type":"Feature","properties":{"name":"La Seine"},"geometry":{"type":"LineString","coordinates":[[2.2808,48.9496],[2.2801,48.9494]]}},{"type":"Feature","properties":{"name":"La Seine"},"geometry":{"type":"LineString","coordinates":[[2.2908,48.9511],[2.2808,48.9496]]}},{"type":"Feature","properties":{"name":"La Seine"},"geometry":{"type":"LineString","coordinates":[[2.0467,48.9621],[2.0493,48.9588]]}},{"type":"Feature","properties":{"name":"Le Sausseron"},"geometry":{"type":"LineString","coordinates":[[2.1123,49.1495],[2.1165,49.1420],[2.1157,49.1399]]}},{"type":"Feature","properties":{"name":"Le Sausseron"},"geometry":{"type":"LineString","coordinates":[[2.1169,49.1391],[2.1178,49.1383]]}},{"type":"Feature","properties":{"name":"Le Sausseron"},"geometry":{"type":"LineString","coordinates":[[2.1178,49.1382],[2.1187,49.1364],[2.1258,49.1339]]}},{"type":"Feature","properties":{"name":"Le Sausseron"},"geometry":{"type":"LineString","coordinates":[[2.1490,49.1386],[2.1490,49.1386]]}},{"type":"Feature","properties":{"name":"Le Sausseron"},"geometry":{"type":"LineString","coordinates":[[2.1261,49.1338],[2.1300,49.1332],[2.1320,49.1343],[2.1389,49.1349]]}},{"type":"Feature","properties":{"name":"Le Sausseron"},"geometry":{"type":"LineString","coordinates":[[2.1390,49.1349],[2.1412,49.1348],[2.1437,49.1369]]}},{"type":"Feature","properties":{"name":"Le Sausseron"},"geometry":{"type":"LineString","coordinates":[[2.1491,49.1387],[2.1530,49.1402],[2.1613,49.1379]]}},{"type":"Feature","properties":{"name":"Le Sausseron"},"geometry":{"type":"LineString","coordinates":[[2.1490,49.1386],[2.1491,49.1387]]}},{"type":"Feature","properties":{"name":"Le Sausseron"},"geometry":{"type":"LineString","coordinates":[[2.1437,49.1369],[2.1439,49.1371]]}},{"type":"Feature","properties":{"name":"Le Sausseron"},"geometry":{"type":"LineString","coordinates":[[2.1442,49.1374],[2.1444,49.1374]]}},{"type":"Feature","properties":{"name":"Le Sausseron"},"geometry":{"type":"LineString","coordinates":[[2.1444,49.1374],[2.1490,49.1386]]}},{"type":"Feature","properties":{"name":"Le Sausseron"},"geometry":{"type":"LineString","coordinates":[[2.1439,49.1371],[2.1442,49.1374]]}},{"type":"Feature","properties":{"name":"Le Sausseron"},"geometry":{"type":"LineString","coordinates":[[2.1613,49.1379],[2.1615,49.1379]]}},{"type":"Feature","properties":{"name":"Le Sausseron"},"geometry":{"type":"LineString","coordinates":[[2.1615,49.1379],[2.1650,49.1357],[2.1657,49.1319],[2.1676,49.1304],[2.1677,49.1291]]}},{"type":"Feature","properties":{"name":"Le Sausseron"},"geometry":{"type":"LineString","coordinates":[[2.1712,49.1263],[2.1714,49.1262]]}},{"type":"Feature","properties":{"name":"Le Sausseron"},"geometry":{"type":"LineString","coordinates":[[2.1677,49.1291],[2.1677,49.1290]]}},{"type":"Feature","properties":{"name":"Le Sausseron"},"geometry":{"type":"LineString","coordinates":[[2.1677,49.1290],[2.1680,49.1279],[2.1712,49.1263]]}},{"type":"Feature","properties":{"name":"Le Sausseron"},"geometry":{"type":"LineString","coordinates":[[2.2033,49.0937],[2.2092,49.0935]]}},{"type":"Feature","properties":{"name":"Le Sausseron"},"geometry":{"type":"LineString","coordinates":[[2.1950,49.0951],[2.1958,49.0940],[2.1981,49.0938]]}},{"type":"Feature","properties":{"name":"Le Sausseron"},"geometry":{"type":"LineString","coordinates":[[2.1981,49.0938],[2.1985,49.0938]]}},{"type":"Feature","properties":{"name":"Le Sausseron"},"geometry":{"type":"LineString","coordinates":[[2.1985,49.0938],[2.2025,49.0940]]}},{"type":"Feature","properties":{"name":"Le Sausseron"},"geometry":{"type":"LineString","coordinates":[[2.2025,49.0940],[2.2028,49.0938]]}},{"type":"Feature","properties":{"name":"Le Sausseron"},"geometry":{"type":"LineString","coordinates":[[2.2028,49.0938],[2.2030,49.0938]]}},{"type":"Feature","properties":{"name":"Le Sausseron"},"geometry":{"type":"LineString","coordinates":[[2.2030,49.0938],[2.2033,49.0937]]}},{"type":"Feature","properties":{"name":"Le Sausseron"},"geometry":{"type":"LineString","coordinates":[[2.1714,49.1262],[2.1791,49.1225]]}},{"type":"Feature","properties":{"name":"Le Sausseron"},"geometry":{"type":"LineString","coordinates":[[2.1901,49.0984],[2.1925,49.0975],[2.1950,49.0951]]}},{"type":"Feature","properties":{"name":"Le Sausseron"},"geometry":{"type":"LineString","coordinates":[[2.1861,49.0993],[2.1899,49.0984]]}},{"type":"Feature","properties":{"name":"Le Sausseron"},"geometry":{"type":"LineString","coordinates":[[2.1833,49.1025],[2.1842,49.1002],[2.1860,49.0993]]}},{"type":"Feature","properties":{"name":"Le Sausseron"},"geometry":{"type":"LineString","coordinates":[[2.1860,49.0993],[2.1861,49.0993]]}},{"type":"Feature","properties":{"name":"Le Sausseron"},"geometry":{"type":"LineString","coordinates":[[2.1832,49.1026],[2.1833,49.1025]]}},{"type":"Feature","properties":{"name":"Le Sausseron"},"geometry":{"type":"LineString","coordinates":[[2.1899,49.0984],[2.1901,49.0984]]}},{"type":"Feature","properties":{"name":"Le Sausseron"},"geometry":{"type":"LineString","coordinates":[[2.1834,49.1069],[2.1842,49.1058],[2.1830,49.1042],[2.1832,49.1026]]}},{"type":"Feature","properties":{"name":"Le Sausseron"},"geometry":{"type":"LineString","coordinates":[[2.1830,49.1071],[2.1834,49.1069]]}},{"type":"Feature","properties":{"name":"Le Sausseron"},"geometry":{"type":"LineString","coordinates":[[2.1828,49.1072],[2.1828,49.1072]]}},{"type":"Feature","properties":{"name":"Le Sausseron"},"geometry":{"type":"LineString","coordinates":[[2.1828,49.1072],[2.1830,49.1071]]}},{"type":"Feature","properties":{"name":"Le Sausseron"},"geometry":{"type":"LineString","coordinates":[[2.1059,49.1819],[2.1093,49.1802],[2.1106,49.1771],[2.1139,49.1754],[2.1140,49.1718],[2.1170,49.1684],[2.1169,49.1652],[2.1154,49.1639],[2.1161,49.1629],[2.1140,49.1604]]}},{"type":"Feature","properties":{"name":"Le Sausseron"},"geometry":{"type":"LineString","coordinates":[[2.1140,49.1604],[2.1113,49.1555],[2.1110,49.1525],[2.1123,49.1515],[2.1123,49.1495]]}},{"type":"Feature","properties":{"name":"Le Sausseron"},"geometry":{"type":"LineString","coordinates":[[2.1782,49.1144],[2.1782,49.1143]]}},{"type":"Feature","properties":{"name":"Le Sausseron"},"geometry":{"type":"LineString","coordinates":[[2.1782,49.1143],[2.1777,49.1121],[2.1784,49.1096],[2.1828,49.1072]]}},{"type":"Feature","properties":{"name":"Le Sausseron"},"geometry":{"type":"LineString","coordinates":[[2.1791,49.1225],[2.1823,49.1190],[2.1815,49.1179],[2.1786,49.1171],[2.1782,49.1144]]}},{"type":"Feature","properties":{"name":"Le Sausseron"},"geometry":{"type":"LineString","coordinates":[[2.1157,49.1399],[2.1169,49.1391]]}},{"type":"Feature","properties":{"name":"Rû du Mesnil"},"geometry":{"type":"LineString","coordinates":[[1.9712,49.2433],[1.9710,49.2414],[1.9725,49.2395],[1.9718,49.2378],[1.9727,49.2361],[1.9724,49.2326],[1.9695,49.2291],[1.9656,49.2284]]}},{"type":"Feature","properties":{"name":"Rû du Mesnil"},"geometry":{"type":"LineString","coordinates":[[1.9648,49.2276],[1.9648,49.2263]]}},{"type":"Feature","properties":{"name":"Rû du Mesnil"},"geometry":{"type":"LineString","coordinates":[[1.9700,49.2445],[1.9707,49.2443]]}},{"type":"Feature","properties":{"name":"Rû du Mesnil"},"geometry":{"type":"LineString","coordinates":[[1.9718,49.2491],[1.9700,49.2445]]}},{"type":"Feature","properties":{"name":"Rû du Mesnil"},"geometry":{"type":"LineString","coordinates":[[1.9712,49.2434],[1.9712,49.2433]]}},{"type":"Feature","properties":{"name":"Rû du Mesnil"},"geometry":{"type":"LineString","coordinates":[[1.9707,49.2443],[1.9712,49.2434]]}},{"type":"Feature","properties":{"name":"Rû du Mesnil"},"geometry":{"type":"LineString","coordinates":[[1.9938,49.2637],[1.9901,49.2615]]}},{"type":"Feature","properties":{"name":"Rû du Mesnil"},"geometry":{"type":"LineString","coordinates":[[1.9901,49.2615],[1.9903,49.2605],[1.9881,49.2600],[1.9840,49.2557],[1.9833,49.2559]]}},{"type":"Feature","properties":{"name":"Rû du Mesnil"},"geometry":{"type":"LineString","coordinates":[[1.9833,49.2559],[1.9797,49.2523],[1.9747,49.2512],[1.9718,49.2491]]}},{"type":"Feature","properties":{"name":"Rû du Mesnil"},"geometry":{"type":"LineString","coordinates":[[1.9655,49.2283],[1.9648,49.2276]]}},{"type":"Feature","properties":{"name":"Rû du Mesnil"},"geometry":{"type":"LineString","coordinates":[[1.9656,49.2284],[1.9655,49.2283]]}}]}